{"type":"FeatureCollection","features":[{"type":"Feature","geometry":{"type":"Point","coordinates":[-80.19651,40.46186]},"properties":{"p":"0498A00010000000","a":"ATEN RD","m":"Findlay","u":"I","o":"corp","sf":174554,"v":4000}},{"type":"Feature","geometry":{"type":"Point","coordinates":[-80.19352,40.45951]},"properties":{"p":"0498F00110000000","a":"ATEN RD","m":"Findlay","u":"C","o":"individual","sf":226468,"v":5500}},{"type":"Feature","geometry":{"type":"Point","coordinates":[-80.19298,40.45664]},"properties":{"p":"0498K00132000000","a":"SUMMIT PARK DR","m":"Findlay","u":"C","o":"corp","sf":50050,"v":50000}},{"type":"Feature","geometry":{"type":"Point","coordinates":[-80.19365,40.46092]},"properties":{"p":"9910X00006000001","a":"ATEN RD","m":"Findlay","u":"C","o":"individual","sf":29098,"v":23300}},{"type":"Feature","geometry":{"type":"Point","coordinates":[-80.1991,40.46527]},"properties":{"p":"0592M00045000000","a":"INDUSTRY LN","m":"Findlay","u":"C","o":"corp","sf":185169,"v":61600}},{"type":"Feature","geometry":{"type":"Point","coordinates":[-80.18429,40.45806]},"properties":{"p":"0498H00200000000","a":"BEAVER GRADE RD","m":"Moon","u":"C","o":"corp","sf":124891,"v":28300}},{"type":"Feature","geometry":{"type":"Point","coordinates":[-80.18881,40.45753]},"properties":{"p":"0498M00156000000","a":"MONTOUR RD","m":"Moon","u":"C","o":"corp","sf":406153,"v":16500}},{"type":"Feature","geometry":{"type":"Point","coordinates":[-80.18799,40.4606]},"properties":{"p":"0498C00010000000","a":"MARKET PLACE BLVD","m":"Moon","u":"C","o":"corp","sf":1156039,"v":1814600}},{"type":"Feature","geometry":{"type":"Point","coordinates":[-80.18304,40.46125]},"properties":{"p":"0498D00029000000","a":"401 MARKETPLACE AVE","m":"Moon","u":"C","o":"corp","sf":748770,"v":2262000}},{"type":"Feature","geometry":{"type":"Point","coordinates":[-80.18515,40.46311]},"properties":{"p":"0498D00032000000","a":"MARKETPLACE AVE","m":"Moon","u":"C","o":"corp","sf":88440,"v":0}},{"type":"Feature","geometry":{"type":"Point","coordinates":[-80.18537,40.4592]},"properties":{"p":"0498H00023000000","a":"MARKET PLACE BLVD","m":"Moon","u":"C","o":"corp","sf":196974,"v":2300}},{"type":"Feature","geometry":{"type":"Point","coordinates":[-80.19141,40.46362]},"properties":{"p":"0499P00125000000","a":"MARKET PLACE BLVD","m":"Moon","u":"C","o":"corp","sf":1078986,"v":74300}},{"type":"Feature","geometry":{"type":"Point","coordinates":[-80.18374,40.46387]},"properties":{"p":"0499S00039000000","a":"301 MARKETPLACE AVE","m":"Moon","u":"C","o":"corp","sf":498470,"v":1566000}},{"type":"Feature","geometry":{"type":"Point","coordinates":[-80.1827,40.4573]},"properties":{"p":"0413K00075000000","a":"MARKET PLACE BLVD","m":"Moon","u":"C","o":"corp","sf":256568,"v":31800}},{"type":"Feature","geometry":{"type":"Point","coordinates":[-80.18322,40.4683]},"properties":{"p":"0414J00380000000","a":"HIRSHINGER RD","m":"Moon","u":"C","o":"corp","sf":1581402,"v":550000}},{"type":"Feature","geometry":{"type":"Point","coordinates":[-80.18053,40.45739]},"properties":{"p":"0413J00001000000","a":"2000 MARKET PLACE BLVD","m":"Moon","u":"C","o":"corp","sf":66385,"v":175000}},{"type":"Feature","geometry":{"type":"Point","coordinates":[-80.18498,40.45157]},"properties":{"p":"0497D00002000000","a":"SUMMIT PARK DR","m":"North Fayette","u":"C","o":"corp","sf":51793,"v":30000}},{"type":"Feature","geometry":{"type":"Point","coordinates":[-80.19596,40.46074]},"properties":{"p":"0498A00180000000","a":"ATEN RD","m":"Findlay","u":"L","o":"individual","sf":25265,"v":26500}},{"type":"Feature","geometry":{"type":"Point","coordinates":[-80.19542,40.46134]},"properties":{"p":"0498A00197000000","a":"ATEN RD","m":"Findlay","u":"L","o":"individual","sf":34515,"v":14300}},{"type":"Feature","geometry":{"type":"Point","coordinates":[-80.19599,40.46147]},"properties":{"p":"0498A00223000000","a":"ATEN RD","m":"Findlay","u":"L","o":"individual","sf":127282,"v":22900}},{"type":"Feature","geometry":{"type":"Point","coordinates":[-80.18431,40.46612]},"properties":{"p":"0499M00200000000","a":"HIRSHINGER RD","m":"Moon","u":"L","o":"corp","sf":310017,"v":21400}},{"type":"Feature","geometry":{"type":"Point","coordinates":[-80.18692,40.46287]},"properties":{"p":"0499S00100000000","a":"MARKET PLACE BLVD","m":"Moon","u":"L","o":"corp","sf":677358,"v":225800}},{"type":"Feature","geometry":{"type":"Point","coordinates":[-80.18663,40.4699]},"properties":{"p":"0499D00200000000","a":"HIRSHINGER RD","m":"Moon","u":"L","o":"corp","sf":106008,"v":0}},{"type":"Feature","geometry":{"type":"Point","coordinates":[-80.18562,40.46815]},"properties":{"p":"0499H00200000000","a":"HIRSHINGER RD","m":"Moon","u":"L","o":"corp","sf":159865,"v":0}},{"type":"Feature","geometry":{"type":"Point","coordinates":[-80.18775,40.46903]},"properties":{"p":"0499G00276000000","a":"121 SUSQUEHANNA CIR","m":"Moon","u":"L","o":"corp","sf":73372,"v":0}},{"type":"Feature","geometry":{"type":"Point","coordinates":[-80.18022,40.46971]},"properties":{"p":"0414E00283000000","a":"HOOKSTOWN GRADE RD","m":"Moon","u":"L","o":"corp","sf":141570,"v":7000}},{"type":"Feature","geometry":{"type":"Point","coordinates":[-80.18666,40.4663]},"properties":{"p":"0499L00197000000","a":"MOSSY OAK DR","m":"Moon","u":"L","o":"corp","sf":3989,"v":0}},{"type":"Feature","geometry":{"type":"Point","coordinates":[-80.18947,40.46845]},"properties":{"p":"0499G00326000000","a":"SUSQUEHANNA CIR","m":"Moon","u":"B","o":"corp","sf":14121,"v":100}}]}