{"type":"FeatureCollection","features":[{"type":"Feature","geometry":{"type":"Point","coordinates":[-80.18628,40.38898]},"properties":{"p":"0491S00006000000","a":"CLINTON AVE","m":"South Fayette","u":"C","o":"corp","sf":609801,"v":58700}},{"type":"Feature","geometry":{"type":"Point","coordinates":[-80.18165,40.38104]},"properties":{"p":"0405E00116000000","a":"STONEGATE DR","m":"South Fayette","u":"L","o":"corp","sf":137253,"v":0}},{"type":"Feature","geometry":{"type":"Point","coordinates":[-80.18229,40.37997]},"properties":{"p":"0405E00126000000","a":"STONEGATE DR","m":"South Fayette","u":"L","o":"corp","sf":49998,"v":0}},{"type":"Feature","geometry":{"type":"Point","coordinates":[-80.18049,40.38407]},"properties":{"p":"0406N00008000000","a":"BOYS HOME RD","m":"South Fayette","u":"L","o":"individual","sf":448232,"v":45200}},{"type":"Feature","geometry":{"type":"Point","coordinates":[-80.1818,40.38483]},"properties":{"p":"0405A00006000000","a":"415 BOYS HOME RD","m":"South Fayette","u":"L","o":"individual","sf":1167,"v":100}},{"type":"Feature","geometry":{"type":"Point","coordinates":[-80.18297,40.38287]},"properties":{"p":"0405A00100000000","a":"STONEGATE DR","m":"South Fayette","u":"L","o":"corp","sf":11713,"v":0}},{"type":"Feature","geometry":{"type":"Point","coordinates":[-80.19981,40.38879]},"properties":{"p":"0584M00014000000","a":"NOBLESTOWN RD","m":"South Fayette","u":"L","o":"individual","sf":3375,"v":300}},{"type":"Feature","geometry":{"type":"Point","coordinates":[-80.19973,40.38828]},"properties":{"p":"0584M00001000000","a":"NOBLESTOWN RD","m":"South Fayette","u":"L","o":"individual","sf":32670,"v":27900}},{"type":"Feature","geometry":{"type":"Point","coordinates":[-80.19827,40.38625]},"properties":{"p":"0584M00002000000","a":"NOBLESTOWN RD","m":"South Fayette","u":"L","o":"corp","sf":408593,"v":53900}},{"type":"Feature","geometry":{"type":"Point","coordinates":[-80.19246,40.3729]},"properties":{"p":"0489B00001000000","a":"BATTLE RIDGE RD","m":"South Fayette","u":"L","o":"corp","sf":217800,"v":44900}},{"type":"Feature","geometry":{"type":"Point","coordinates":[-80.19479,40.37337]},"properties":{"p":"0489B00005000000","a":"BATTLE RIDGE RD","m":"South Fayette","u":"L","o":"individual","sf":26005,"v":27300}},{"type":"Feature","geometry":{"type":"Point","coordinates":[-80.19372,40.37455]},"properties":{"p":"0490P00001000000","a":"BATTLE RIDGE RD","m":"South Fayette","u":"L","o":"individual","sf":35488,"v":19000}},{"type":"Feature","geometry":{"type":"Point","coordinates":[-80.1952,40.38996]},"properties":{"p":"0491E00052000000","a":"SCOTCH HILL RD","m":"South Fayette","u":"L","o":"individual","sf":78408,"v":7200}},{"type":"Feature","geometry":{"type":"Point","coordinates":[-80.19688,40.38961]},"properties":{"p":"0491E00060000000","a":"NOBLESTOWN RD","m":"South Fayette","u":"L","o":"corp","sf":261360,"v":47900}},{"type":"Feature","geometry":{"type":"Point","coordinates":[-80.19226,40.37236]},"properties":{"p":"0489F00002000000","a":"BATTLE RIDGE RD","m":"South Fayette","u":"L","o":"corp","sf":77977,"v":18900}},{"type":"Feature","geometry":{"type":"Point","coordinates":[-80.18929,40.37142]},"properties":{"p":"0489G00003000000","a":"BATTLE RIDGE RD","m":"South Fayette","u":"L","o":"individual","sf":55321,"v":30000}},{"type":"Feature","geometry":{"type":"Point","coordinates":[-80.18758,40.38566]},"properties":{"p":"0491R00010000000","a":"MARSHALL RD","m":"South Fayette","u":"L","o":"corp","sf":20146,"v":26800}},{"type":"Feature","geometry":{"type":"Point","coordinates":[-80.18813,40.38634]},"properties":{"p":"0491R00011000000","a":"241 A MARSHALL RD","m":"South Fayette","u":"L","o":"individual","sf":11374,"v":1000}},{"type":"Feature","geometry":{"type":"Point","coordinates":[-80.1874,40.38268]},"properties":{"p":"0490D00006000000","a":"FRYES LN","m":"South Fayette","u":"L","o":"individual","sf":130680,"v":22600}},{"type":"Feature","geometry":{"type":"Point","coordinates":[-80.19591,40.37585]},"properties":{"p":"0490K00001000000","a":"BATTLE RIDGE RD","m":"South Fayette","u":"L","o":"corp","sf":594855,"v":53600}},{"type":"Feature","geometry":{"type":"Point","coordinates":[-80.18382,40.38284]},"properties":{"p":"0490D00141000000","a":"STONEGATE DR","m":"South Fayette","u":"L","o":"corp","sf":245674,"v":0}},{"type":"Feature","geometry":{"type":"Point","coordinates":[-80.18368,40.38947]},"properties":{"p":"0491M00010000000","a":"279 UNION AVE","m":"South Fayette","u":"L","o":"individual","sf":11898,"v":1100}},{"type":"Feature","geometry":{"type":"Point","coordinates":[-80.1898,40.38523]},"properties":{"p":"0491R00002000000","a":"MARSHALL RD","m":"South Fayette","u":"L","o":"individual","sf":89298,"v":33100}},{"type":"Feature","geometry":{"type":"Point","coordinates":[-80.19019,40.38573]},"properties":{"p":"0491R00003000000","a":"238 MARSHALL RD","m":"South Fayette","u":"L","o":"individual","sf":46609,"v":20000}},{"type":"Feature","geometry":{"type":"Point","coordinates":[-80.18268,40.37198]},"properties":{"p":"0489H00032000000","a":"WALNUT RIDGE CIR","m":"South Fayette","u":"L","o":"corp","sf":971821,"v":0}},{"type":"Feature","geometry":{"type":"Point","coordinates":[-80.19994,40.38134]},"properties":{"p":"0490E00012000000","a":"ROBINSON RUN RD","m":"South Fayette","u":"L","o":"individual","sf":23522,"v":14000}},{"type":"Feature","geometry":{"type":"Point","coordinates":[-80.1983,40.38236]},"properties":{"p":"0490E00025000000","a":"ROBINSON RUN RD","m":"South Fayette","u":"L","o":"corp","sf":70829,"v":31400}},{"type":"Feature","geometry":{"type":"Point","coordinates":[-80.18822,40.38078]},"properties":{"p":"0490G00003000000","a":"FRYES LN","m":"South Fayette","u":"L","o":"individual","sf":178596,"v":41300}},{"type":"Feature","geometry":{"type":"Point","coordinates":[-80.19903,40.38848]},"properties":{"p":"0491J00014000000","a":"202 MARSHALL RD","m":"South Fayette","u":"L","o":"individual","sf":12355,"v":13000}},{"type":"Feature","geometry":{"type":"Point","coordinates":[-80.19878,40.38792]},"properties":{"p":"0491J00020000000","a":"NOBLESTOWN RD","m":"South Fayette","u":"L","o":"individual","sf":11761,"v":1100}},{"type":"Feature","geometry":{"type":"Point","coordinates":[-80.18621,40.38702]},"properties":{"p":"0491S00005000000","a":"UNION AVE","m":"South Fayette","u":"L","o":"individual","sf":39901,"v":14000}},{"type":"Feature","geometry":{"type":"Point","coordinates":[-80.19959,40.38127]},"properties":{"p":"0490E00009000000","a":"ROBINSON RUN RD","m":"South Fayette","u":"L","o":"individual","sf":43490,"v":15800}},{"type":"Feature","geometry":{"type":"Point","coordinates":[-80.19939,40.38864]},"properties":{"p":"0491J00008000000","a":"NOBLESTOWN RD","m":"South Fayette","u":"L","o":"individual","sf":5609,"v":500}},{"type":"Feature","geometry":{"type":"Point","coordinates":[-80.19932,40.38912]},"properties":{"p":"0491J00011000000","a":"SCOTCH HILL RD","m":"South Fayette","u":"L","o":"individual","sf":28000,"v":18400}},{"type":"Feature","geometry":{"type":"Point","coordinates":[-80.19884,40.38939]},"properties":{"p":"0491J00012000000","a":"NOBLESTOWN RD","m":"South Fayette","u":"L","o":"individual","sf":7700,"v":700}},{"type":"Feature","geometry":{"type":"Point","coordinates":[-80.18955,40.37078]},"properties":{"p":"0489G00001000000","a":"BATTLE RIDGE RD","m":"South Fayette","u":"L","o":"individual","sf":86249,"v":32800}},{"type":"Feature","geometry":{"type":"Point","coordinates":[-80.18413,40.37515]},"properties":{"p":"0490S00226000000","a":"FIELD STONE DR","m":"South Fayette","u":"L","o":"corp","sf":4236245,"v":280000}},{"type":"Feature","geometry":{"type":"Point","coordinates":[-80.19949,40.38852]},"properties":{"p":"0491J00013000000","a":"SCOTCH HILL RD","m":"South Fayette","u":"L","o":"individual","sf":5376,"v":18900}},{"type":"Feature","geometry":{"type":"Point","coordinates":[-80.18273,40.38349]},"properties":{"p":"0405A00102000000","a":"1003 STONEGATE DR","m":"South Fayette","u":"B","o":"individual","sf":32422,"v":2000}},{"type":"Feature","geometry":{"type":"Point","coordinates":[-80.18224,40.37931]},"properties":{"p":"0405J00203000000","a":"2006 FIELD STONE DR","m":"South Fayette","u":"B","o":"individual","sf":19404,"v":2000}},{"type":"Feature","geometry":{"type":"Point","coordinates":[-80.18254,40.37923]},"properties":{"p":"0405J00204000000","a":"2008 FIELD STONE DR","m":"South Fayette","u":"B","o":"individual","sf":20254,"v":2000}},{"type":"Feature","geometry":{"type":"Point","coordinates":[-80.18309,40.37905]},"properties":{"p":"0405J00206000000","a":"2012 FIELD STONE DR","m":"South Fayette","u":"B","o":"individual","sf":16016,"v":2000}},{"type":"Feature","geometry":{"type":"Point","coordinates":[-80.18256,40.37852]},"properties":{"p":"0405J00234000000","a":"2009 FIELD STONE DR","m":"South Fayette","u":"B","o":"individual","sf":11812,"v":2000}},{"type":"Feature","geometry":{"type":"Point","coordinates":[-80.18231,40.37858]},"properties":{"p":"0405J00235000000","a":"2007 FIELD STONE DR","m":"South Fayette","u":"B","o":"individual","sf":12574,"v":2000}},{"type":"Feature","geometry":{"type":"Point","coordinates":[-80.18423,40.37758]},"properties":{"p":"0490M00226000000","a":"2027 FIELD STONE DR","m":"South Fayette","u":"B","o":"corp","sf":17002,"v":2000}},{"type":"Feature","geometry":{"type":"Point","coordinates":[-80.1845,40.37724]},"properties":{"p":"0490S00224000000","a":"2033 FIELD STONE DR","m":"South Fayette","u":"B","o":"individual","sf":15844,"v":2000}},{"type":"Feature","geometry":{"type":"Point","coordinates":[-80.18439,40.37744]},"properties":{"p":"0490S00225000000","a":"2029 FIELD STONE DR","m":"South Fayette","u":"B","o":"individual","sf":18511,"v":2000}},{"type":"Feature","geometry":{"type":"Point","coordinates":[-80.18474,40.37715]},"properties":{"p":"0490S00223000000","a":"2035 FIELD STONE DR","m":"South Fayette","u":"B","o":"individual","sf":14784,"v":2000}},{"type":"Feature","geometry":{"type":"Point","coordinates":[-80.18394,40.37787]},"properties":{"p":"0490M00228000000","a":"2023 FIELD STONE DR","m":"South Fayette","u":"B","o":"individual","sf":16832,"v":2000}}]}