{"type":"FeatureCollection","features":[{"type":"Feature","geometry":{"type":"Point","coordinates":[-80.1816,40.52767]},"properties":{"p":"0420E00152000000","a":"3400 UNIVERSITY BLVD","m":"Moon","u":"I","o":"corp","sf":374172,"v":350000}},{"type":"Feature","geometry":{"type":"Point","coordinates":[-80.18604,40.52022]},"properties":{"p":"0504D00350000000","a":"THORN RUN RD","m":"Moon","u":"C","o":"individual","sf":201465,"v":27000}},{"type":"Feature","geometry":{"type":"Point","coordinates":[-80.18982,40.52862]},"properties":{"p":"0505F00217000000","a":"UNIVERSITY BLVD","m":"Moon","u":"C","o":"corp","sf":3766633,"v":883300}},{"type":"Feature","geometry":{"type":"Point","coordinates":[-80.19437,40.51364]},"properties":{"p":"0504J00108000000","a":"935 THORN RUN RD","m":"Moon","u":"C","o":"corp","sf":1980673,"v":148700}},{"type":"Feature","geometry":{"type":"Point","coordinates":[-80.196,40.52949]},"properties":{"p":"0505A00009000100","a":"JAROD DR","m":"Moon","u":"L","o":"corp","sf":8886,"v":900}},{"type":"Feature","geometry":{"type":"Point","coordinates":[-80.19694,40.52872]},"properties":{"p":"0505A00015000100","a":"JAROD DR","m":"Moon","u":"L","o":"individual","sf":1351,"v":100}},{"type":"Feature","geometry":{"type":"Point","coordinates":[-80.18444,40.52182]},"properties":{"p":"0505S00041000000","a":"THORN RUN RD","m":"Moon","u":"L","o":"individual","sf":14875,"v":18900}},{"type":"Feature","geometry":{"type":"Point","coordinates":[-80.18476,40.52103]},"properties":{"p":"0505S00053000000","a":"THORN RUN RD","m":"Moon","u":"L","o":"corp","sf":30056,"v":20300}},{"type":"Feature","geometry":{"type":"Point","coordinates":[-80.18522,40.52137]},"properties":{"p":"0505S00055000000","a":"THORN RUN RD","m":"Moon","u":"L","o":"corp","sf":11881,"v":18600}},{"type":"Feature","geometry":{"type":"Point","coordinates":[-80.1856,40.52196]},"properties":{"p":"0505S00103000000","a":"THORN RUN RD","m":"Moon","u":"L","o":"individual","sf":8712,"v":2700}},{"type":"Feature","geometry":{"type":"Point","coordinates":[-80.18609,40.52162]},"properties":{"p":"0505S00109000000","a":"THORN RUN RD","m":"Moon","u":"L","o":"individual","sf":2134,"v":700}},{"type":"Feature","geometry":{"type":"Point","coordinates":[-80.18636,40.5215]},"properties":{"p":"0505S00116000000","a":"THORN RUN RD","m":"Moon","u":"L","o":"individual","sf":4784,"v":1500}},{"type":"Feature","geometry":{"type":"Point","coordinates":[-80.18359,40.52272]},"properties":{"p":"0505S00341000000","a":"THORN RUN RD","m":"Moon","u":"L","o":"individual","sf":23488,"v":7100}},{"type":"Feature","geometry":{"type":"Point","coordinates":[-80.1833,40.52284]},"properties":{"p":"0505S00348000000","a":"THORN RUN RD","m":"Moon","u":"L","o":"individual","sf":22564,"v":19600}},{"type":"Feature","geometry":{"type":"Point","coordinates":[-80.19582,40.52938]},"properties":{"p":"0505A00163000000","a":"RIVERCREST DR","m":"Moon","u":"L","o":"corp","sf":738,"v":100}},{"type":"Feature","geometry":{"type":"Point","coordinates":[-80.19582,40.52951]},"properties":{"p":"0505A00164000100","a":"RIVERCREST DR","m":"Moon","u":"L","o":"corp","sf":2113,"v":200}},{"type":"Feature","geometry":{"type":"Point","coordinates":[-80.19298,40.51774]},"properties":{"p":"0504F00265000000","a":"151 CROSS RIDGE RD","m":"Moon","u":"L","o":"corp","sf":2396,"v":200}},{"type":"Feature","geometry":{"type":"Point","coordinates":[-80.19269,40.51949]},"properties":{"p":"0504B00162000000","a":"OLD THORN RUN RD","m":"Moon","u":"L","o":"corp","sf":110481,"v":27700}},{"type":"Feature","geometry":{"type":"Point","coordinates":[-80.19144,40.51909]},"properties":{"p":"0504B00168000000","a":"THORN RUN RD","m":"Moon","u":"L","o":"individual","sf":19384,"v":100}},{"type":"Feature","geometry":{"type":"Point","coordinates":[-80.19168,40.51896]},"properties":{"p":"0504B00174000000","a":"THORN RUN RD","m":"Moon","u":"L","o":"individual","sf":19388,"v":100}},{"type":"Feature","geometry":{"type":"Point","coordinates":[-80.19193,40.52012]},"properties":{"p":"0504B00187000000","a":"THORN RUN RD","m":"Moon","u":"L","o":"individual","sf":23173,"v":100}},{"type":"Feature","geometry":{"type":"Point","coordinates":[-80.19226,40.52054]},"properties":{"p":"0504B00197000000","a":"THORN RUN RD","m":"Moon","u":"L","o":"individual","sf":12717,"v":100}},{"type":"Feature","geometry":{"type":"Point","coordinates":[-80.19936,40.51425]},"properties":{"p":"0504J00211000000","a":"THORN RUN RD","m":"Moon","u":"L","o":"individual","sf":68563,"v":38100}},{"type":"Feature","geometry":{"type":"Point","coordinates":[-80.18406,40.52272]},"properties":{"p":"0505S00333000000","a":"THORN RUN RD","m":"Moon","u":"L","o":"individual","sf":35377,"v":20700}},{"type":"Feature","geometry":{"type":"Point","coordinates":[-80.18729,40.52241]},"properties":{"p":"0505R00260000000","a":"CHURCH DR","m":"Moon","u":"L","o":"individual","sf":108029,"v":27500}},{"type":"Feature","geometry":{"type":"Point","coordinates":[-80.19375,40.52921]},"properties":{"p":"0505B00182000000","a":"WINDY HILL DR","m":"Moon","u":"L","o":"corp","sf":7215,"v":700}},{"type":"Feature","geometry":{"type":"Point","coordinates":[-80.18162,40.52089]},"properties":{"p":"0420N00114000000","a":"THORN RUN RD","m":"Moon","u":"L","o":"corp","sf":392040,"v":4400}},{"type":"Feature","geometry":{"type":"Point","coordinates":[-80.18869,40.52531]},"properties":{"p":"0505L00231000000","a":"JUNIPER DR","m":"Moon","u":"L","o":"individual","sf":3677,"v":1200}},{"type":"Feature","geometry":{"type":"Point","coordinates":[-80.18878,40.52527]},"properties":{"p":"0505L00232000000","a":"JUNIPER DR","m":"Moon","u":"L","o":"individual","sf":1590,"v":600}},{"type":"Feature","geometry":{"type":"Point","coordinates":[-80.18885,40.52523]},"properties":{"p":"0505L00233000000","a":"JUNIPER DR","m":"Moon","u":"L","o":"individual","sf":1589,"v":600}},{"type":"Feature","geometry":{"type":"Point","coordinates":[-80.18895,40.52518]},"properties":{"p":"0505L00234000000","a":"JUNIPER DR","m":"Moon","u":"L","o":"individual","sf":3287,"v":1100}},{"type":"Feature","geometry":{"type":"Point","coordinates":[-80.19398,40.51963]},"properties":{"p":"0504B00126000000","a":"OLD THORN RUN RD","m":"Moon","u":"L","o":"individual","sf":13563,"v":34100}},{"type":"Feature","geometry":{"type":"Point","coordinates":[-80.19097,40.52111]},"properties":{"p":"0505R00004000000","a":"MEYERS LN","m":"Moon","u":"L","o":"corp","sf":18805,"v":19200}},{"type":"Feature","geometry":{"type":"Point","coordinates":[-80.19037,40.51952]},"properties":{"p":"0504C00077000000","a":"THORN RUN RD","m":"Moon","u":"L","o":"individual","sf":97923,"v":100}},{"type":"Feature","geometry":{"type":"Point","coordinates":[-80.19015,40.51842]},"properties":{"p":"0504G00270000000","a":"THORN RUN RD","m":"Moon","u":"L","o":"corp","sf":83200,"v":16400}},{"type":"Feature","geometry":{"type":"Point","coordinates":[-80.19948,40.51961]},"properties":{"p":"0504A00108000000","a":"CRESTVIEW DR","m":"Moon","u":"L","o":"individual","sf":2043,"v":200}},{"type":"Feature","geometry":{"type":"Point","coordinates":[-80.18473,40.51065]},"properties":{"p":"0419J00100000000","a":"INDIAN RIDGE DR","m":"Moon","u":"L","o":"corp","sf":1943212,"v":105900}},{"type":"Feature","geometry":{"type":"Point","coordinates":[-80.19347,40.52163]},"properties":{"p":"0505P00214000000","a":"FERNVUE DR","m":"Moon","u":"L","o":"individual","sf":2788,"v":900}},{"type":"Feature","geometry":{"type":"Point","coordinates":[-80.18929,40.51886]},"properties":{"p":"0504C00050000000","a":"THORN RUN RD","m":"Moon","u":"L","o":"corp","sf":3690,"v":1200}},{"type":"Feature","geometry":{"type":"Point","coordinates":[-80.19812,40.52008]},"properties":{"p":"0504A00183000000","a":"116 CRESTVIEW DR","m":"Moon","u":"L","o":"individual","sf":15000,"v":1500}},{"type":"Feature","geometry":{"type":"Point","coordinates":[-80.1899,40.51884]},"properties":{"p":"0504G00274000000","a":"THORN RUN RD","m":"Moon","u":"L","o":"individual","sf":82328,"v":25100}},{"type":"Feature","geometry":{"type":"Point","coordinates":[-80.19192,40.51964]},"properties":{"p":"0504B00185000000","a":"THORN RUN RD","m":"Moon","u":"L","o":"individual","sf":29621,"v":100}},{"type":"Feature","geometry":{"type":"Point","coordinates":[-80.19643,40.52859]},"properties":{"p":"0505A00005000000","a":"208 RIVERCREST DR","m":"Moon","u":"L","o":"individual","sf":11880,"v":44800}},{"type":"Feature","geometry":{"type":"Point","coordinates":[-80.18967,40.5255]},"properties":{"p":"0505L00178000000","a":"OAK DR","m":"Moon","u":"L","o":"individual","sf":10199,"v":18500}},{"type":"Feature","geometry":{"type":"Point","coordinates":[-80.19238,40.52129]},"properties":{"p":"0504B00227000000","a":"110 FERN HOLLOW RD","m":"Moon","u":"L","o":"individual","sf":18375,"v":19200}},{"type":"Feature","geometry":{"type":"Point","coordinates":[-80.1913,40.52121]},"properties":{"p":"0504B00221000000","a":"THORN RUN RD","m":"Moon","u":"L","o":"individual","sf":64817,"v":23500}},{"type":"Feature","geometry":{"type":"Point","coordinates":[-80.18449,40.52258]},"properties":{"p":"0505S00330000000","a":"THORN RUN RD","m":"Moon","u":"L","o":"individual","sf":3123,"v":1000}},{"type":"Feature","geometry":{"type":"Point","coordinates":[-80.18912,40.51788]},"properties":{"p":"0504D00100000000","a":"TIFFANY RIDGE DR","m":"Moon","u":"B","o":"individual","sf":49658,"v":10600}}]}