{"type":"FeatureCollection","features":[{"type":"Feature","geometry":{"type":"Point","coordinates":[-80.19521,40.42397]},"properties":{"p":"0494B00002000000","a":"ROBB HILL RD","m":"North Fayette","u":"C","o":"corp","sf":108029,"v":38900}},{"type":"Feature","geometry":{"type":"Point","coordinates":[-80.19639,40.4114]},"properties":{"p":"0493E00001000000","a":"OAKDALE RD","m":"North Fayette","u":"C","o":"corp","sf":6611,"v":1000}},{"type":"Feature","geometry":{"type":"Point","coordinates":[-80.1936,40.42292]},"properties":{"p":"0494B0003A000000","a":"1001 ROBB HILL RD","m":"North Fayette","u":"C","o":"corp","sf":13055,"v":2000}},{"type":"Feature","geometry":{"type":"Point","coordinates":[-80.18845,40.4178]},"properties":{"p":"0494L00001000000","a":"MCKEE RD","m":"North Fayette","u":"C","o":"individual","sf":514613,"v":11800}},{"type":"Feature","geometry":{"type":"Point","coordinates":[-80.18817,40.42394]},"properties":{"p":"0495R00005000000","a":"MCKEE RD","m":"North Fayette","u":"C","o":"corp","sf":91733,"v":13800}},{"type":"Feature","geometry":{"type":"Point","coordinates":[-80.19266,40.41883]},"properties":{"p":"0800K00025000000","a":"CHURCH RD","m":"North Fayette","u":"C","o":"corp","sf":49166,"v":4400}},{"type":"Feature","geometry":{"type":"Point","coordinates":[-80.19056,40.42092]},"properties":{"p":"0494C00005000000","a":"MCKEE RD","m":"North Fayette","u":"C","o":"corp","sf":626001,"v":75600}},{"type":"Feature","geometry":{"type":"Point","coordinates":[-80.18131,40.41906]},"properties":{"p":"0409E00001000000","a":"GAMBLE RD","m":"North Fayette","u":"L","o":"individual","sf":43560,"v":18000}},{"type":"Feature","geometry":{"type":"Point","coordinates":[-80.18251,40.42423]},"properties":{"p":"0410N00002000000","a":"GAMBLE RD","m":"North Fayette","u":"L","o":"individual","sf":12372,"v":1100}},{"type":"Feature","geometry":{"type":"Point","coordinates":[-80.18382,40.42356]},"properties":{"p":"0410N00005000000","a":"GAMBLE RD","m":"North Fayette","u":"L","o":"individual","sf":71438,"v":6600}},{"type":"Feature","geometry":{"type":"Point","coordinates":[-80.19972,40.42078]},"properties":{"p":"0494A00001000000","a":"OAKDALE RD","m":"North Fayette","u":"L","o":"individual","sf":1109473,"v":76500}},{"type":"Feature","geometry":{"type":"Point","coordinates":[-80.19879,40.42436]},"properties":{"p":"0494A00003000000","a":"ROBB HILL RD","m":"North Fayette","u":"L","o":"corp","sf":440827,"v":64300}},{"type":"Feature","geometry":{"type":"Point","coordinates":[-80.19583,40.42268]},"properties":{"p":"0494B00001000000","a":"ROBB HILL RD","m":"North Fayette","u":"L","o":"individual","sf":126760,"v":16000}},{"type":"Feature","geometry":{"type":"Point","coordinates":[-80.19678,40.41196]},"properties":{"p":"0493A00005000000","a":"OAKDALE RD","m":"North Fayette","u":"L","o":"corp","sf":10890,"v":28600}},{"type":"Feature","geometry":{"type":"Point","coordinates":[-80.19002,40.42934]},"properties":{"p":"0495G00003000000","a":"MCKEE RD","m":"North Fayette","u":"L","o":"individual","sf":26878,"v":7500}},{"type":"Feature","geometry":{"type":"Point","coordinates":[-80.1905,40.42959]},"properties":{"p":"0495G00004000000","a":"MCKEE RD","m":"North Fayette","u":"L","o":"individual","sf":14455,"v":5000}},{"type":"Feature","geometry":{"type":"Point","coordinates":[-80.18952,40.42953]},"properties":{"p":"0495G00005000000","a":"MCKEE RD","m":"North Fayette","u":"L","o":"individual","sf":27443,"v":12000}},{"type":"Feature","geometry":{"type":"Point","coordinates":[-80.19543,40.41134]},"properties":{"p":"0493F00005000000","a":"1570 OAKDALE RD","m":"North Fayette","u":"L","o":"individual","sf":9336,"v":800}},{"type":"Feature","geometry":{"type":"Point","coordinates":[-80.19553,40.42024]},"properties":{"p":"0587M00001000000","a":"OAKDALE RD","m":"North Fayette","u":"L","o":"corp","sf":2369664,"v":153500}},{"type":"Feature","geometry":{"type":"Point","coordinates":[-80.19868,40.41769]},"properties":{"p":"0587M00003000000","a":"OAKDALE RD","m":"North Fayette","u":"L","o":"corp","sf":546491,"v":66900}},{"type":"Feature","geometry":{"type":"Point","coordinates":[-80.19769,40.41369]},"properties":{"p":"0493A00001000000","a":"OAKDALE RD","m":"North Fayette","u":"L","o":"individual","sf":50000,"v":33400}},{"type":"Feature","geometry":{"type":"Point","coordinates":[-80.19054,40.42865]},"properties":{"p":"0495C00007000000","a":"MCKEE RD","m":"North Fayette","u":"L","o":"individual","sf":40383,"v":3600}},{"type":"Feature","geometry":{"type":"Point","coordinates":[-80.19772,40.41429]},"properties":{"p":"0494N00001000000","a":"NORTH BRANCH RD","m":"North Fayette","u":"L","o":"individual","sf":3952,"v":400}},{"type":"Feature","geometry":{"type":"Point","coordinates":[-80.18906,40.4204]},"properties":{"p":"0494L00005000000","a":"MCKEE RD","m":"North Fayette","u":"L","o":"corp","sf":870329,"v":250000}},{"type":"Feature","geometry":{"type":"Point","coordinates":[-80.18491,40.42058]},"properties":{"p":"0409J00019000000","a":"GAMBLE RD","m":"North Fayette","u":"L","o":"individual","sf":2442148,"v":90000}},{"type":"Feature","geometry":{"type":"Point","coordinates":[-80.18221,40.41327]},"properties":{"p":"0408A00002000000","a":"HEMLOCK CT","m":"North Fayette","u":"L","o":"corp","sf":100711,"v":1200}},{"type":"Feature","geometry":{"type":"Point","coordinates":[-80.19094,40.41465]},"properties":{"p":"0494R00001000000","a":"OAKDALE RD","m":"North Fayette","u":"L","o":"individual","sf":115434,"v":39500}},{"type":"Feature","geometry":{"type":"Point","coordinates":[-80.19211,40.41825]},"properties":{"p":"0494G00002000000","a":"MCKEE RD","m":"North Fayette","u":"L","o":"individual","sf":168577,"v":29400}},{"type":"Feature","geometry":{"type":"Point","coordinates":[-80.18995,40.42915]},"properties":{"p":"0495G00002000000","a":"MCKEE RD","m":"North Fayette","u":"L","o":"individual","sf":22710,"v":16000}},{"type":"Feature","geometry":{"type":"Point","coordinates":[-80.19082,40.42678]},"properties":{"p":"0495L00001000000","a":"MCKEE RD","m":"North Fayette","u":"L","o":"individual","sf":34848,"v":17100}}]}