{"type":"FeatureCollection","features":[{"type":"Feature","geometry":{"type":"Point","coordinates":[-80.19925,40.49021]},"properties":{"p":"0696D00396L21000","a":"1305 CHERRINGTON PKWY","m":"Moon","u":"C","o":"corp","sf":292532,"v":255000}},{"type":"Feature","geometry":{"type":"Point","coordinates":[-80.19746,40.4931]},"properties":{"p":"0502N00132000000","a":"BEAVER GRADE RD","m":"Moon","u":"C","o":"corp","sf":42994,"v":50000}},{"type":"Feature","geometry":{"type":"Point","coordinates":[-80.1823,40.49548]},"properties":{"p":"0502M00072000000","a":"W PARLIAMENT DR","m":"Moon","u":"L","o":"individual","sf":58161,"v":1300}},{"type":"Feature","geometry":{"type":"Point","coordinates":[-80.18462,40.49675]},"properties":{"p":"0502M00114000000","a":"1141 EWING RD","m":"Moon","u":"L","o":"individual","sf":326700,"v":14600}},{"type":"Feature","geometry":{"type":"Point","coordinates":[-80.18659,40.4934]},"properties":{"p":"0502S00054000000","a":"BEITSINGER RD","m":"Moon","u":"L","o":"corp","sf":52272,"v":600}},{"type":"Feature","geometry":{"type":"Point","coordinates":[-80.19874,40.50513]},"properties":{"p":"0503J00277000000","a":"WINDY WILLOWS DR","m":"Moon","u":"L","o":"individual","sf":33870,"v":3400}},{"type":"Feature","geometry":{"type":"Point","coordinates":[-80.19749,40.4973]},"properties":{"p":"0502E00194000000","a":"NYETIMBER PKWY","m":"Moon","u":"L","o":"individual","sf":97139,"v":60900}},{"type":"Feature","geometry":{"type":"Point","coordinates":[-80.19382,40.49682]},"properties":{"p":"0502F00078000000","a":"GREAT OAKS RD","m":"Moon","u":"L","o":"individual","sf":43996,"v":37500}},{"type":"Feature","geometry":{"type":"Point","coordinates":[-80.19503,40.49721]},"properties":{"p":"0502F00095000000","a":"GREAT OAKS RD","m":"Moon","u":"L","o":"individual","sf":44431,"v":37500}},{"type":"Feature","geometry":{"type":"Point","coordinates":[-80.18663,40.50267]},"properties":{"p":"0503S00156000000","a":"VALENTINE DR","m":"Moon","u":"L","o":"individual","sf":12463,"v":2600}},{"type":"Feature","geometry":{"type":"Point","coordinates":[-80.1998,40.5096]},"properties":{"p":"0596D00064000000","a":"THORN RUN RD","m":"Moon","u":"L","o":"individual","sf":43538,"v":10000}},{"type":"Feature","geometry":{"type":"Point","coordinates":[-80.18167,40.49847]},"properties":{"p":"0417E00235000000","a":"EWING RD","m":"Moon","u":"L","o":"individual","sf":402930,"v":27700}},{"type":"Feature","geometry":{"type":"Point","coordinates":[-80.18213,40.49894]},"properties":{"p":"0417A00286000000","a":"1100 EWING RD","m":"Moon","u":"L","o":"corp","sf":57064,"v":11800}},{"type":"Feature","geometry":{"type":"Point","coordinates":[-80.19415,40.4921]},"properties":{"p":"0501B00351000000","a":"BEAVER GRADE RD","m":"Moon","u":"L","o":"individual","sf":41825,"v":48000}},{"type":"Feature","geometry":{"type":"Point","coordinates":[-80.19414,40.4922]},"properties":{"p":"0501B00353000000","a":"1815 BEAVER GRADE RD","m":"Moon","u":"L","o":"individual","sf":10103,"v":1000}},{"type":"Feature","geometry":{"type":"Point","coordinates":[-80.18209,40.49947]},"properties":{"p":"0417A00160000000","a":"EWING RD","m":"Moon","u":"L","o":"individual","sf":5904,"v":10600}},{"type":"Feature","geometry":{"type":"Point","coordinates":[-80.19129,40.49607]},"properties":{"p":"0502L00047000000","a":"MARNEY DR","m":"Moon","u":"L","o":"individual","sf":84724,"v":5000}}]}