{"type":"FeatureCollection","features":[{"type":"Feature","geometry":{"type":"Point","coordinates":[-80.19425,40.5944]},"properties":{"p":"1062F00326000000","a":"TURKEYFOOT RD","m":"Bell Acres","u":"C","o":"individual","sf":11388,"v":10500}},{"type":"Feature","geometry":{"type":"Point","coordinates":[-80.19497,40.59577]},"properties":{"p":"1062F00193000000","a":"859 BIG SEWICKLEY CREEK RD","m":"Bell Acres","u":"C","o":"corp","sf":96747,"v":24900}},{"type":"Feature","geometry":{"type":"Point","coordinates":[-80.19745,40.59099]},"properties":{"p":"1062J00076000000","a":"SUNSET DR","m":"Bell Acres","u":"L","o":"individual","sf":37730,"v":3400}},{"type":"Feature","geometry":{"type":"Point","coordinates":[-80.18345,40.60251]},"properties":{"p":"1197M00022000000","a":"GAYDOS LN","m":"Bell Acres","u":"L","o":"corp","sf":20000,"v":300}},{"type":"Feature","geometry":{"type":"Point","coordinates":[-80.18381,40.60249]},"properties":{"p":"1197M00032000000","a":"GAYDOS LN","m":"Bell Acres","u":"L","o":"individual","sf":20000,"v":1800}},{"type":"Feature","geometry":{"type":"Point","coordinates":[-80.19975,40.59058]},"properties":{"p":"1061M00016000000","a":"780 AMBRIDGE AVE","m":"Bell Acres","u":"L","o":"corp","sf":141570,"v":46200}},{"type":"Feature","geometry":{"type":"Point","coordinates":[-80.1853,40.59332]},"properties":{"p":"1062M00121000000","a":"BEADNELL DR","m":"Bell Acres","u":"L","o":"individual","sf":39340,"v":3500}},{"type":"Feature","geometry":{"type":"Point","coordinates":[-80.18151,40.59716]},"properties":{"p":"1063A00164000000","a":"BEADNELL DR","m":"Bell Acres","u":"L","o":"individual","sf":418176,"v":57800}}]}