{"type":"FeatureCollection","features":[{"type":"Feature","geometry":{"type":"Point","coordinates":[-80.16208,40.41282]},"properties":{"p":"0331B00008000000","a":"NOBLESTOWN RD","m":"Collier","u":"L","o":"individual","sf":31276,"v":15000}},{"type":"Feature","geometry":{"type":"Point","coordinates":[-80.16024,40.41132]},"properties":{"p":"0331F00006000000","a":"1355 NOBLESTOWN RD","m":"Collier","u":"L","o":"corp","sf":39243,"v":3500}},{"type":"Feature","geometry":{"type":"Point","coordinates":[-80.16263,40.4108]},"properties":{"p":"0331F00009000000","a":"NOBLESTOWN RD","m":"Collier","u":"L","o":"corp","sf":94164,"v":47600}},{"type":"Feature","geometry":{"type":"Point","coordinates":[-80.16029,40.41164]},"properties":{"p":"0331B00002000000","a":"STATE HWY","m":"Collier","u":"L","o":"individual","sf":32234,"v":41800}},{"type":"Feature","geometry":{"type":"Point","coordinates":[-80.16149,40.41308]},"properties":{"p":"0331B00003000000","a":"PINKERTON RUN RD","m":"Collier","u":"L","o":"individual","sf":56192,"v":4700}},{"type":"Feature","geometry":{"type":"Point","coordinates":[-80.16472,40.41006]},"properties":{"p":"0331E00003000000","a":"NOBLESTOWN RD","m":"Collier","u":"L","o":"individual","sf":35657,"v":42100}},{"type":"Feature","geometry":{"type":"Point","coordinates":[-80.17607,40.42445]},"properties":{"p":"0410P00006000000","a":"PINKERTON RUN RD","m":"North Fayette","u":"L","o":"individual","sf":28314,"v":31500}},{"type":"Feature","geometry":{"type":"Point","coordinates":[-80.17503,40.4216]},"properties":{"p":"0409B00003000000","a":"PINKERTON RUN RD","m":"North Fayette","u":"L","o":"individual","sf":61768,"v":34600}},{"type":"Feature","geometry":{"type":"Point","coordinates":[-80.17994,40.41479]},"properties":{"p":"0409J00023000000","a":"GAMBLE RD","m":"North Fayette","u":"L","o":"corp","sf":912582,"v":82700}},{"type":"Feature","geometry":{"type":"Point","coordinates":[-80.17966,40.42916]},"properties":{"p":"0410E00002000000","a":"PINKERTON RUN RD","m":"North Fayette","u":"L","o":"individual","sf":12692,"v":1100}},{"type":"Feature","geometry":{"type":"Point","coordinates":[-80.17779,40.4234]},"properties":{"p":"0410P00010000000","a":"PINKERTON RUN RD","m":"North Fayette","u":"L","o":"individual","sf":1532641,"v":116200}}]}