{"type":"FeatureCollection","features":[{"type":"Feature","geometry":{"type":"Point","coordinates":[-80.16229,40.48874]},"properties":{"p":"0339B00126000000","a":"501 NIKE RD","m":"Moon","u":"C","o":"corp","sf":745996,"v":29200}},{"type":"Feature","geometry":{"type":"Point","coordinates":[-80.17272,40.47851]},"properties":{"p":"0415L00091000000","a":"BEAVER GRADE RD","m":"Moon","u":"L","o":"corp","sf":24394,"v":36200}},{"type":"Feature","geometry":{"type":"Point","coordinates":[-80.17466,40.47276]},"properties":{"p":"0415R00105000000","a":"CHERRINGTON LN","m":"Moon","u":"L","o":"individual","sf":74357,"v":30000}},{"type":"Feature","geometry":{"type":"Point","coordinates":[-80.16782,40.47696]},"properties":{"p":"0415S00004000000","a":"4007 DUCKHORN DR","m":"Moon","u":"L","o":"corp","sf":3386233,"v":0}},{"type":"Feature","geometry":{"type":"Point","coordinates":[-80.17381,40.48878]},"properties":{"p":"0416C00020000000","a":"DOWNING DR","m":"Moon","u":"L","o":"individual","sf":90605,"v":2100}},{"type":"Feature","geometry":{"type":"Point","coordinates":[-80.17796,40.47844]},"properties":{"p":"0415F00110000000","a":"BEAVER GRADE RD","m":"Moon","u":"L","o":"individual","sf":9975,"v":1000}},{"type":"Feature","geometry":{"type":"Point","coordinates":[-80.16141,40.47472]},"properties":{"p":"0338K00062000000","a":"SIMI CT","m":"Moon","u":"L","o":"corp","sf":245461,"v":0}},{"type":"Feature","geometry":{"type":"Point","coordinates":[-80.1793,40.47845]},"properties":{"p":"0415E00038000000","a":"LOCUST DR","m":"Moon","u":"L","o":"individual","sf":21623,"v":2200}},{"type":"Feature","geometry":{"type":"Point","coordinates":[-80.16872,40.48688]},"properties":{"p":"0416M00310000000","a":"EWINGS MILL RD","m":"Moon","u":"L","o":"individual","sf":26059,"v":2400}},{"type":"Feature","geometry":{"type":"Point","coordinates":[-80.16437,40.47003]},"properties":{"p":"0337A00011000000","a":"BEAVER GRADE RD","m":"Moon","u":"L","o":"corp","sf":50835,"v":15000}},{"type":"Feature","geometry":{"type":"Point","coordinates":[-80.16393,40.47631]},"properties":{"p":"0338K00125000000","a":"DUCKHORN DR","m":"Moon","u":"L","o":"corp","sf":405326,"v":0}},{"type":"Feature","geometry":{"type":"Point","coordinates":[-80.17584,40.48602]},"properties":{"p":"0416K00127000000","a":"EWINGS MILL RD","m":"Moon","u":"L","o":"individual","sf":94525,"v":42600}},{"type":"Feature","geometry":{"type":"Point","coordinates":[-80.16885,40.47282]},"properties":{"p":"0415S00030000100","a":"BEAVER GRADE RD","m":"Moon","u":"L","o":"individual","sf":3395,"v":700}},{"type":"Feature","geometry":{"type":"Point","coordinates":[-80.17304,40.48837]},"properties":{"p":"0416C00250000000","a":"EWINGS MILL RD","m":"Moon","u":"L","o":"individual","sf":1283364,"v":90900}},{"type":"Feature","geometry":{"type":"Point","coordinates":[-80.16296,40.48248]},"properties":{"p":"0416S00287000000","a":"501 NIKE RD","m":"Moon","u":"L","o":"corp","sf":4649877,"v":235800}},{"type":"Feature","geometry":{"type":"Point","coordinates":[-80.16628,40.48224]},"properties":{"p":"0416S00291000000","a":"NIKE RD","m":"Moon","u":"L","o":"corp","sf":108464,"v":1000}},{"type":"Feature","geometry":{"type":"Point","coordinates":[-80.17748,40.47971]},"properties":{"p":"0415F00294000000","a":"BEAVER GRADE RD","m":"Moon","u":"L","o":"individual","sf":42437,"v":38000}},{"type":"Feature","geometry":{"type":"Point","coordinates":[-80.165,40.47051]},"properties":{"p":"0337A00009000000","a":"BEAVER GRADE RD","m":"Moon","u":"L","o":"individual","sf":50835,"v":15000}},{"type":"Feature","geometry":{"type":"Point","coordinates":[-80.17503,40.47138]},"properties":{"p":"0414C00386000000","a":"CHERRINGTON LN","m":"Moon","u":"L","o":"individual","sf":41618,"v":94500}}]}