{"type":"FeatureCollection","features":[{"type":"Feature","geometry":{"type":"Point","coordinates":[-80.17785,40.44478]},"properties":{"p":"0412P00008000000","a":"US HIGHWAY 22","m":"North Fayette","u":"C","o":"individual","sf":35248,"v":10600}},{"type":"Feature","geometry":{"type":"Point","coordinates":[-80.17401,40.44775]},"properties":{"p":"0412M00005000000","a":"250 SUMMIT PARK DR","m":"North Fayette","u":"C","o":"corp","sf":61855,"v":32100}},{"type":"Feature","geometry":{"type":"Point","coordinates":[-80.17403,40.44281]},"properties":{"p":"0412R00014000000","a":"7035 STEUBENVILLE PIKE","m":"North Fayette","u":"C","o":"corp","sf":246510,"v":79000}},{"type":"Feature","geometry":{"type":"Point","coordinates":[-80.1728,40.44423]},"properties":{"p":"0412R00018000000","a":"STEUBENVILLE PIKE","m":"North Fayette","u":"C","o":"corp","sf":111906,"v":283000}},{"type":"Feature","geometry":{"type":"Point","coordinates":[-80.17531,40.4373]},"properties":{"p":"0411K00001000000","a":"STEUBENVILLE PIKE","m":"North Fayette","u":"C","o":"corp","sf":289195,"v":94700}},{"type":"Feature","geometry":{"type":"Point","coordinates":[-80.16135,40.43951]},"properties":{"p":"0334F00025000000","a":"BAYER RD","m":"Robinson","u":"C","o":"corp","sf":522720,"v":381600}},{"type":"Feature","geometry":{"type":"Point","coordinates":[-80.16925,40.44893]},"properties":{"p":"0412H00075000000","a":"MONTOUR CHURCH RD","m":"Robinson","u":"C","o":"corp","sf":308772,"v":500000}},{"type":"Feature","geometry":{"type":"Point","coordinates":[-80.17043,40.44611]},"properties":{"p":"0412M00040000000","a":"STEUBENVILLE PIKE","m":"Robinson","u":"C","o":"corp","sf":6286,"v":400}},{"type":"Feature","geometry":{"type":"Point","coordinates":[-80.16387,40.4485]},"properties":{"p":"0335E00095000000","a":"STEUBENVILLE PIKE","m":"Robinson","u":"C","o":"corp","sf":27007,"v":1900}},{"type":"Feature","geometry":{"type":"Point","coordinates":[-80.17497,40.44349]},"properties":{"p":"9929X88552000000","a":"STEUBENVILLE PIKE","m":"North Fayette","u":"C","o":"corp","sf":36284,"v":131100}},{"type":"Feature","geometry":{"type":"Point","coordinates":[-80.17725,40.44403]},"properties":{"p":"0412P00003000000","a":"STEUBENVILLE PIKE","m":"North Fayette","u":"C","o":"individual","sf":20909,"v":6300}},{"type":"Feature","geometry":{"type":"Point","coordinates":[-80.17655,40.44381]},"properties":{"p":"0412P00005000000","a":"STEUBENVILLE PIKE","m":"North Fayette","u":"L","o":"individual","sf":11543,"v":1000}},{"type":"Feature","geometry":{"type":"Point","coordinates":[-80.17634,40.44426]},"properties":{"p":"0412P00007000000","a":"7040 STEUBENVILLE PIKE","m":"North Fayette","u":"L","o":"individual","sf":192100,"v":46500}},{"type":"Feature","geometry":{"type":"Point","coordinates":[-80.17217,40.44567]},"properties":{"p":"0412M00010000000","a":"7001 STEUBENVILLE PIKE","m":"North Fayette","u":"L","o":"corp","sf":16514,"v":5000}},{"type":"Feature","geometry":{"type":"Point","coordinates":[-80.17966,40.43512]},"properties":{"p":"0411N00001000000","a":"EASTONS LN","m":"North Fayette","u":"L","o":"corp","sf":39925,"v":32500}},{"type":"Feature","geometry":{"type":"Point","coordinates":[-80.17868,40.43412]},"properties":{"p":"0411N00003000000","a":"EASTONS LN","m":"North Fayette","u":"L","o":"corp","sf":1758204,"v":100700}}]}