{"type":"FeatureCollection","features":[{"type":"Feature","geometry":{"type":"Point","coordinates":[-80.16496,40.52054]},"properties":{"p":"0342A00213000000","a":"901 2ND AVE","m":"Coraopolis","u":"I","o":"individual","sf":3750,"v":14000}},{"type":"Feature","geometry":{"type":"Point","coordinates":[-80.16488,40.52051]},"properties":{"p":"0342A00215000000","a":"901 2ND AVE","m":"Coraopolis","u":"I","o":"individual","sf":3750,"v":14000}},{"type":"Feature","geometry":{"type":"Point","coordinates":[-80.16741,40.52221]},"properties":{"p":"0420S00200000000","a":"802 PENNSYLVANIA AVE","m":"Coraopolis","u":"I","o":"corp","sf":57017,"v":39300}},{"type":"Feature","geometry":{"type":"Point","coordinates":[-80.17918,40.52809]},"properties":{"p":"0420E00156000000","a":"3324 UNIVERSITY BLVD","m":"Moon","u":"I","o":"corp","sf":47393,"v":54400}},{"type":"Feature","geometry":{"type":"Point","coordinates":[-80.17023,40.52053]},"properties":{"p":"0419D00201000000","a":"730 4TH AVE","m":"Coraopolis","u":"I","o":"corp","sf":3750,"v":15800}},{"type":"Feature","geometry":{"type":"Point","coordinates":[-80.16473,40.52045]},"properties":{"p":"0342A00219000000","a":"901 2ND AVE","m":"Coraopolis","u":"I","o":"individual","sf":3750,"v":14000}},{"type":"Feature","geometry":{"type":"Point","coordinates":[-80.1648,40.52048]},"properties":{"p":"0342A00217000000","a":"901 2ND AVE","m":"Coraopolis","u":"I","o":"individual","sf":3750,"v":14000}},{"type":"Feature","geometry":{"type":"Point","coordinates":[-80.16633,40.51745]},"properties":{"p":"0342E00064000000","a":"STATE AVE","m":"Coraopolis","u":"C","o":"corp","sf":10394,"v":29800}},{"type":"Feature","geometry":{"type":"Point","coordinates":[-80.1638,40.51869]},"properties":{"p":"0342E00331000000","a":"314 MILL ST","m":"Coraopolis","u":"C","o":"corp","sf":2112,"v":11400}},{"type":"Feature","geometry":{"type":"Point","coordinates":[-80.16591,40.51837]},"properties":{"p":"0342E00153000000","a":"923 5TH AVE","m":"Coraopolis","u":"C","o":"corp","sf":7500,"v":27100}},{"type":"Feature","geometry":{"type":"Point","coordinates":[-80.16578,40.51833]},"properties":{"p":"0342E00157000000","a":"923 5TH AVE","m":"Coraopolis","u":"C","o":"corp","sf":3750,"v":7300}},{"type":"Feature","geometry":{"type":"Point","coordinates":[-80.16561,40.51956]},"properties":{"p":"0342A00050000000","a":"MAIN ST","m":"Coraopolis","u":"C","o":"corp","sf":8702,"v":75000}},{"type":"Feature","geometry":{"type":"Point","coordinates":[-80.16359,40.51499]},"properties":{"p":"0342J00344000000","a":"VANCE AVE","m":"Coraopolis","u":"C","o":"corp","sf":2884,"v":5500}},{"type":"Feature","geometry":{"type":"Point","coordinates":[-80.16217,40.51635]},"properties":{"p":"0342E00094000000","a":"5TH AVE","m":"Coraopolis","u":"C","o":"individual","sf":12585,"v":39800}},{"type":"Feature","geometry":{"type":"Point","coordinates":[-80.1667,40.5233]},"properties":{"p":"0420S00280000000","a":"819 PENNSYLVANIA AVE","m":"Coraopolis","u":"C","o":"corp","sf":13728,"v":22000}},{"type":"Feature","geometry":{"type":"Point","coordinates":[-80.16721,40.51723]},"properties":{"p":"0419H00073000000","a":"6TH AVE","m":"Coraopolis","u":"C","o":"individual","sf":4883,"v":15800}},{"type":"Feature","geometry":{"type":"Point","coordinates":[-80.16665,40.52169]},"properties":{"p":"0420S00138000000","a":"KENDALL ST","m":"Coraopolis","u":"C","o":"corp","sf":4351,"v":1400}},{"type":"Feature","geometry":{"type":"Point","coordinates":[-80.17053,40.51142]},"properties":{"p":"0418C00326000000","a":"GRANDVIEW AVE","m":"Coraopolis","u":"C","o":"corp","sf":33075,"v":52900}},{"type":"Feature","geometry":{"type":"Point","coordinates":[-80.16811,40.51526]},"properties":{"p":"0419M00127000000","a":"HILAND AVE","m":"Coraopolis","u":"C","o":"corp","sf":2395,"v":800}},{"type":"Feature","geometry":{"type":"Point","coordinates":[-80.17099,40.52082]},"properties":{"p":"0419C00383000000","a":"4TH AVE","m":"Coraopolis","u":"C","o":"corp","sf":7500,"v":25200}},{"type":"Feature","geometry":{"type":"Point","coordinates":[-80.16758,40.51927]},"properties":{"p":"0419D00027000000","a":"846 4TH AVE","m":"Coraopolis","u":"C","o":"corp","sf":15657,"v":81900}},{"type":"Feature","geometry":{"type":"Point","coordinates":[-80.16782,40.51915]},"properties":{"p":"0419D00028000000","a":"846 4TH AVE","m":"Coraopolis","u":"C","o":"corp","sf":4004,"v":14400}},{"type":"Feature","geometry":{"type":"Point","coordinates":[-80.16706,40.52344]},"properties":{"p":"0420M00010000000","a":"819 PENNSYLVANIA AVE","m":"Coraopolis","u":"C","o":"corp","sf":22126,"v":35400}},{"type":"Feature","geometry":{"type":"Point","coordinates":[-80.16889,40.52375]},"properties":{"p":"0420M00065000000","a":"819 PENNSYLVANIA AVE","m":"Coraopolis","u":"C","o":"corp","sf":284103,"v":455000}},{"type":"Feature","geometry":{"type":"Point","coordinates":[-80.17308,40.52115]},"properties":{"p":"0420R00041000000","a":"615 5TH AVE","m":"Coraopolis","u":"C","o":"corp","sf":2638,"v":13800}},{"type":"Feature","geometry":{"type":"Point","coordinates":[-80.17433,40.52273]},"properties":{"p":"0420R00129000000","a":"4TH AVE","m":"Coraopolis","u":"C","o":"corp","sf":10500,"v":33800}},{"type":"Feature","geometry":{"type":"Point","coordinates":[-80.17957,40.52042]},"properties":{"p":"0420P00303000000","a":"400 5TH AVE","m":"Moon","u":"C","o":"corp","sf":609840,"v":14000}},{"type":"Feature","geometry":{"type":"Point","coordinates":[-80.16439,40.51656]},"properties":{"p":"0342E00013000000","a":"STATE AVE","m":"Coraopolis","u":"C","o":"corp","sf":18126,"v":49600}},{"type":"Feature","geometry":{"type":"Point","coordinates":[-80.17119,40.52082]},"properties":{"p":"0419C00381000000","a":"4TH AVE","m":"Coraopolis","u":"C","o":"corp","sf":7500,"v":25200}},{"type":"Feature","geometry":{"type":"Point","coordinates":[-80.17223,40.52193]},"properties":{"p":"0420R00169000000","a":"641 4TH AVE","m":"Coraopolis","u":"C","o":"corp","sf":27750,"v":83500}},{"type":"Feature","geometry":{"type":"Point","coordinates":[-80.16024,40.51826]},"properties":{"p":"0342F00269000000","a":"BROADWAY ST","m":"Coraopolis","u":"C","o":"individual","sf":1875,"v":11000}},{"type":"Feature","geometry":{"type":"Point","coordinates":[-80.16329,40.5186]},"properties":{"p":"0342E00335000000","a":"MILL ST","m":"Coraopolis","u":"C","o":"corp","sf":3535,"v":13700}},{"type":"Feature","geometry":{"type":"Point","coordinates":[-80.16676,40.5225]},"properties":{"p":"0420S00172000000","a":"PENNSYLVANIA AVE","m":"Coraopolis","u":"C","o":"corp","sf":659,"v":200}},{"type":"Feature","geometry":{"type":"Point","coordinates":[-80.164,40.51826]},"properties":{"p":"0342E00272000000","a":"406 MILL ST","m":"Coraopolis","u":"C","o":"corp","sf":399,"v":100}},{"type":"Feature","geometry":{"type":"Point","coordinates":[-80.16623,40.51327]},"properties":{"p":"0342N00024000000","a":"ROSE AVE","m":"Coraopolis","u":"L","o":"individual","sf":7350,"v":16200}},{"type":"Feature","geometry":{"type":"Point","coordinates":[-80.16234,40.51883]},"properties":{"p":"0342E00383000000","a":"3RD AVE","m":"Coraopolis","u":"L","o":"corp","sf":4500,"v":5700}},{"type":"Feature","geometry":{"type":"Point","coordinates":[-80.1647,40.51599]},"properties":{"p":"0342J00226000000","a":"RIDGE AVE","m":"Coraopolis","u":"L","o":"individual","sf":2830,"v":1000}},{"type":"Feature","geometry":{"type":"Point","coordinates":[-80.16493,40.51347]},"properties":{"p":"0342N00098000000","a":"917 FLEMING ST","m":"Coraopolis","u":"L","o":"individual","sf":2837,"v":1000}},{"type":"Feature","geometry":{"type":"Point","coordinates":[-80.16081,40.51827]},"properties":{"p":"0342F00251000000","a":"1121 3RD AVE","m":"Coraopolis","u":"L","o":"individual","sf":5625,"v":10100}},{"type":"Feature","geometry":{"type":"Point","coordinates":[-80.16057,40.5184]},"properties":{"p":"0342F00254000000","a":"1121 3RD AVE","m":"Coraopolis","u":"L","o":"individual","sf":2432,"v":800}},{"type":"Feature","geometry":{"type":"Point","coordinates":[-80.16655,40.51707]},"properties":{"p":"0342E00053000000","a":"6TH AVE","m":"Coraopolis","u":"L","o":"individual","sf":492,"v":200}},{"type":"Feature","geometry":{"type":"Point","coordinates":[-80.16596,40.51727]},"properties":{"p":"0342E00057000000","a":"STATE AVE","m":"Coraopolis","u":"L","o":"individual","sf":17525,"v":15000}},{"type":"Feature","geometry":{"type":"Point","coordinates":[-80.16244,40.51953]},"properties":{"p":"0342A00270000000","a":"MILL ST","m":"Coraopolis","u":"L","o":"corp","sf":4170,"v":1300}},{"type":"Feature","geometry":{"type":"Point","coordinates":[-80.16049,40.51219]},"properties":{"p":"0342P00084000000","a":"MAPLE ST","m":"Coraopolis","u":"L","o":"individual","sf":9429,"v":16400}},{"type":"Feature","geometry":{"type":"Point","coordinates":[-80.16008,40.51858]},"properties":{"p":"0342F00364000000","a":"BROADWAY ST","m":"Coraopolis","u":"L","o":"individual","sf":2322,"v":800}},{"type":"Feature","geometry":{"type":"Point","coordinates":[-80.16603,40.51049]},"properties":{"p":"0341A00343000000","a":"SCHOOL ST","m":"Coraopolis","u":"L","o":"corp","sf":3125,"v":1000}},{"type":"Feature","geometry":{"type":"Point","coordinates":[-80.1645,40.51419]},"properties":{"p":"0342J00051000000","a":"HILAND AVE","m":"Coraopolis","u":"L","o":"individual","sf":3125,"v":1000}},{"type":"Feature","geometry":{"type":"Point","coordinates":[-80.16548,40.52114]},"properties":{"p":"0342A00346000000","a":"875 BIRCH WAY","m":"Coraopolis","u":"L","o":"individual","sf":2755,"v":900}},{"type":"Feature","geometry":{"type":"Point","coordinates":[-80.16628,40.51375]},"properties":{"p":"0342N00004000000","a":"ROSE AVE","m":"Coraopolis","u":"L","o":"individual","sf":7732,"v":2400}},{"type":"Feature","geometry":{"type":"Point","coordinates":[-80.16402,40.5203]},"properties":{"p":"0342A00235000000","a":"BIRCH WAY","m":"Coraopolis","u":"L","o":"corp","sf":1550,"v":500}},{"type":"Feature","geometry":{"type":"Point","coordinates":[-80.16394,40.52027]},"properties":{"p":"0342A00237000000","a":"BIRCH WAY","m":"Coraopolis","u":"L","o":"corp","sf":1650,"v":6700}},{"type":"Feature","geometry":{"type":"Point","coordinates":[-80.16313,40.51998]},"properties":{"p":"0342A00253000000","a":"947 2ND AVE","m":"Coraopolis","u":"L","o":"individual","sf":4500,"v":1400}},{"type":"Feature","geometry":{"type":"Point","coordinates":[-80.1611,40.5184]},"properties":{"p":"0342F00243000000","a":"1109 3RD AVE","m":"Coraopolis","u":"L","o":"individual","sf":7500,"v":10200}},{"type":"Feature","geometry":{"type":"Point","coordinates":[-80.16318,40.5161]},"properties":{"p":"0342J00277000000","a":"STATE AVE","m":"Coraopolis","u":"L","o":"corp","sf":4424,"v":1400}},{"type":"Feature","geometry":{"type":"Point","coordinates":[-80.16326,40.51613]},"properties":{"p":"0342J00279000000","a":"STATE AVE","m":"Coraopolis","u":"L","o":"corp","sf":4419,"v":1400}},{"type":"Feature","geometry":{"type":"Point","coordinates":[-80.16413,40.51652]},"properties":{"p":"0342E00008000000","a":"STATE AVE","m":"Coraopolis","u":"L","o":"corp","sf":8895,"v":16400}},{"type":"Feature","geometry":{"type":"Point","coordinates":[-80.16032,40.51103]},"properties":{"p":"0341B00352000000","a":"PARK DR","m":"Coraopolis","u":"L","o":"individual","sf":25896,"v":19900}},{"type":"Feature","geometry":{"type":"Point","coordinates":[-80.1617,40.5109]},"properties":{"p":"0341B00381000000","a":"HILAND AVE","m":"Coraopolis","u":"L","o":"individual","sf":117873,"v":28400}},{"type":"Feature","geometry":{"type":"Point","coordinates":[-80.16242,40.51168]},"properties":{"p":"0342N00190000000","a":"MCCABE AVE","m":"Coraopolis","u":"L","o":"individual","sf":14108,"v":16800}},{"type":"Feature","geometry":{"type":"Point","coordinates":[-80.16451,40.52076]},"properties":{"p":"0342A00334000000","a":"BIRCH WAY","m":"Coraopolis","u":"L","o":"individual","sf":1704,"v":600}},{"type":"Feature","geometry":{"type":"Point","coordinates":[-80.16055,40.51178]},"properties":{"p":"0342P00090000000","a":"DRAUCH LN","m":"Coraopolis","u":"L","o":"individual","sf":27286,"v":20000}},{"type":"Feature","geometry":{"type":"Point","coordinates":[-80.16137,40.51236]},"properties":{"p":"0342P00125000000","a":"1322 HILAND AVE","m":"Coraopolis","u":"L","o":"individual","sf":6237,"v":16100}},{"type":"Feature","geometry":{"type":"Point","coordinates":[-80.16145,40.51212]},"properties":{"p":"0342P00127000000","a":"HILAND AVE","m":"Coraopolis","u":"L","o":"individual","sf":2081,"v":700}},{"type":"Feature","geometry":{"type":"Point","coordinates":[-80.16465,40.52042]},"properties":{"p":"0342A00221000000","a":"2ND AVE","m":"Coraopolis","u":"L","o":"individual","sf":3750,"v":1200}},{"type":"Feature","geometry":{"type":"Point","coordinates":[-80.16078,40.51364]},"properties":{"p":"0342P00214000000","a":"VANCE AVE","m":"Coraopolis","u":"L","o":"individual","sf":1680,"v":600}},{"type":"Feature","geometry":{"type":"Point","coordinates":[-80.16096,40.51891]},"properties":{"p":"0342B00301000000","a":"2ND AVE","m":"Coraopolis","u":"L","o":"corp","sf":3120,"v":1000}},{"type":"Feature","geometry":{"type":"Point","coordinates":[-80.16276,40.51646]},"properties":{"p":"0342J00255000000","a":"STATE AVE","m":"Coraopolis","u":"L","o":"corp","sf":3750,"v":1200}},{"type":"Feature","geometry":{"type":"Point","coordinates":[-80.16039,40.51445]},"properties":{"p":"0342K00093000000","a":"RIDGE AVE","m":"Coraopolis","u":"L","o":"individual","sf":605,"v":300}},{"type":"Feature","geometry":{"type":"Point","coordinates":[-80.16458,40.5133]},"properties":{"p":"0342N00106000000","a":"SPRUCE DR","m":"Coraopolis","u":"L","o":"individual","sf":1502,"v":600}},{"type":"Feature","geometry":{"type":"Point","coordinates":[-80.16256,40.51638]},"properties":{"p":"0342E00096000000","a":"STATE AVE","m":"Coraopolis","u":"L","o":"corp","sf":3040,"v":1000}},{"type":"Feature","geometry":{"type":"Point","coordinates":[-80.16298,40.5203]},"properties":{"p":"0342A00309000000","a":"1ST AVE","m":"Coraopolis","u":"L","o":"individual","sf":994,"v":400}},{"type":"Feature","geometry":{"type":"Point","coordinates":[-80.17759,40.5179]},"properties":{"p":"0419F00269000000","a":"THORN ST","m":"Coraopolis","u":"L","o":"individual","sf":10919,"v":3400}},{"type":"Feature","geometry":{"type":"Point","coordinates":[-80.17709,40.51822]},"properties":{"p":"0419F00286000000","a":"SOUTHERN AVE","m":"Coraopolis","u":"L","o":"individual","sf":13150,"v":18700}},{"type":"Feature","geometry":{"type":"Point","coordinates":[-80.17188,40.51902]},"properties":{"p":"0419C00155000000","a":"6TH AVE","m":"Coraopolis","u":"L","o":"individual","sf":8250,"v":16300}},{"type":"Feature","geometry":{"type":"Point","coordinates":[-80.17438,40.51567]},"properties":{"p":"0419L00215000000","a":"SUMMIT ST","m":"Coraopolis","u":"L","o":"individual","sf":4603,"v":1500}},{"type":"Feature","geometry":{"type":"Point","coordinates":[-80.17093,40.51203]},"properties":{"p":"0419R00026000000","a":"JELLISON DR","m":"Coraopolis","u":"L","o":"individual","sf":9220,"v":2900}},{"type":"Feature","geometry":{"type":"Point","coordinates":[-80.17163,40.51227]},"properties":{"p":"0419R00086000000","a":"MAIN ST","m":"Coraopolis","u":"L","o":"corp","sf":8391,"v":2600}},{"type":"Feature","geometry":{"type":"Point","coordinates":[-80.17008,40.51991]},"properties":{"p":"0419D00287000000","a":"5TH AVE","m":"Coraopolis","u":"L","o":"individual","sf":3016,"v":1000}},{"type":"Feature","geometry":{"type":"Point","coordinates":[-80.17642,40.51946]},"properties":{"p":"0419B00036000000","a":"PROSPECT ST","m":"Coraopolis","u":"L","o":"individual","sf":2924,"v":1000}},{"type":"Feature","geometry":{"type":"Point","coordinates":[-80.17624,40.51938]},"properties":{"p":"0419B00037000000","a":"PROSPECT ST","m":"Coraopolis","u":"L","o":"individual","sf":8772,"v":16300}},{"type":"Feature","geometry":{"type":"Point","coordinates":[-80.17605,40.51931]},"properties":{"p":"0419B00040000000","a":"PROSPECT ST","m":"Coraopolis","u":"L","o":"individual","sf":2924,"v":1000}},{"type":"Feature","geometry":{"type":"Point","coordinates":[-80.17595,40.51927]},"properties":{"p":"0419B00042000000","a":"PROSPECT ST","m":"Coraopolis","u":"L","o":"individual","sf":2924,"v":1000}},{"type":"Feature","geometry":{"type":"Point","coordinates":[-80.17558,40.51665]},"properties":{"p":"0419F00024000000","a":"SUMMIT ST","m":"Coraopolis","u":"L","o":"individual","sf":17675,"v":19100}},{"type":"Feature","geometry":{"type":"Point","coordinates":[-80.17503,40.51693]},"properties":{"p":"0419F00199000000","a":"SOUTHERN AVE","m":"Coraopolis","u":"L","o":"individual","sf":108900,"v":27500}},{"type":"Feature","geometry":{"type":"Point","coordinates":[-80.17553,40.51778]},"properties":{"p":"0419F00226000000","a":"SOUTHERN AVE","m":"Coraopolis","u":"L","o":"individual","sf":17163,"v":5300}},{"type":"Feature","geometry":{"type":"Point","coordinates":[-80.17513,40.52]},"properties":{"p":"0419B00093000000","a":"MOUNT VERNON AVE","m":"Coraopolis","u":"L","o":"individual","sf":1500,"v":600}},{"type":"Feature","geometry":{"type":"Point","coordinates":[-80.1663,40.51616]},"properties":{"p":"0419M00399000000","a":"1000 RIDGE AVE","m":"Coraopolis","u":"L","o":"individual","sf":2749,"v":900}},{"type":"Feature","geometry":{"type":"Point","coordinates":[-80.17141,40.51183]},"properties":{"p":"0419R00003000000","a":"JELLISON DR","m":"Coraopolis","u":"L","o":"individual","sf":11283,"v":8600}},{"type":"Feature","geometry":{"type":"Point","coordinates":[-80.17077,40.51626]},"properties":{"p":"0419G00002000000","a":"HILAND AVE","m":"Coraopolis","u":"L","o":"individual","sf":7500,"v":16200}},{"type":"Feature","geometry":{"type":"Point","coordinates":[-80.17503,40.51898]},"properties":{"p":"0419B00005000000","a":"608 1/2 7TH AVE","m":"Coraopolis","u":"L","o":"individual","sf":3816,"v":1200}},{"type":"Feature","geometry":{"type":"Point","coordinates":[-80.17514,40.51877]},"properties":{"p":"0419B00010000000","a":"CHESS ST","m":"Coraopolis","u":"L","o":"individual","sf":1935,"v":700}},{"type":"Feature","geometry":{"type":"Point","coordinates":[-80.17355,40.51502]},"properties":{"p":"0419L00330000000","a":"MARION DR","m":"Coraopolis","u":"L","o":"individual","sf":1434,"v":500}},{"type":"Feature","geometry":{"type":"Point","coordinates":[-80.16945,40.51924]},"properties":{"p":"0419D00320000000","a":"806 5TH AVE","m":"Coraopolis","u":"L","o":"corp","sf":3740,"v":1200}},{"type":"Feature","geometry":{"type":"Point","coordinates":[-80.17198,40.51376]},"properties":{"p":"0419R00188000000","a":"WOODLAWN DR","m":"Coraopolis","u":"L","o":"individual","sf":9651,"v":18400}},{"type":"Feature","geometry":{"type":"Point","coordinates":[-80.16639,40.52165]},"properties":{"p":"0420S00005000000","a":"KENDALL ST","m":"Coraopolis","u":"L","o":"individual","sf":1931,"v":6900}},{"type":"Feature","geometry":{"type":"Point","coordinates":[-80.17522,40.51976]},"properties":{"p":"0419B00083000000","a":"7TH AVE","m":"Coraopolis","u":"L","o":"individual","sf":3116,"v":1000}},{"type":"Feature","geometry":{"type":"Point","coordinates":[-80.16685,40.51544]},"properties":{"p":"0419M00380000000","a":"1007 HILAND AVE","m":"Coraopolis","u":"L","o":"individual","sf":4424,"v":15100}},{"type":"Feature","geometry":{"type":"Point","coordinates":[-80.17605,40.51837]},"properties":{"p":"0419F00354000000","a":"HILAND AVE","m":"Coraopolis","u":"L","o":"individual","sf":9954,"v":16500}},{"type":"Feature","geometry":{"type":"Point","coordinates":[-80.17588,40.51828]},"properties":{"p":"0419F00359000000","a":"HILAND AVE","m":"Coraopolis","u":"L","o":"individual","sf":9797,"v":16400}},{"type":"Feature","geometry":{"type":"Point","coordinates":[-80.17576,40.51823]},"properties":{"p":"0419F00365000000","a":"HILAND AVE","m":"Coraopolis","u":"L","o":"individual","sf":3751,"v":1200}},{"type":"Feature","geometry":{"type":"Point","coordinates":[-80.17568,40.5182]},"properties":{"p":"0419F00367000000","a":"HILAND AVE","m":"Coraopolis","u":"L","o":"individual","sf":3751,"v":1200}},{"type":"Feature","geometry":{"type":"Point","coordinates":[-80.17544,40.5181]},"properties":{"p":"0419F00372000000","a":"HILAND AVE","m":"Coraopolis","u":"L","o":"individual","sf":7500,"v":16200}},{"type":"Feature","geometry":{"type":"Point","coordinates":[-80.17438,40.51453]},"properties":{"p":"0419L00246000000","a":"SUMMIT ST","m":"Coraopolis","u":"L","o":"individual","sf":17489,"v":19100}},{"type":"Feature","geometry":{"type":"Point","coordinates":[-80.17021,40.51325]},"properties":{"p":"0419R00138000000","a":"MAIN ST","m":"Coraopolis","u":"L","o":"individual","sf":22951,"v":17600}},{"type":"Feature","geometry":{"type":"Point","coordinates":[-80.17075,40.51359]},"properties":{"p":"0419R00144000000","a":"MAIN ST","m":"Coraopolis","u":"L","o":"individual","sf":1912,"v":700}},{"type":"Feature","geometry":{"type":"Point","coordinates":[-80.17597,40.51958]},"properties":{"p":"0419B00060000000","a":"7TH AVE","m":"Coraopolis","u":"L","o":"individual","sf":2924,"v":1000}},{"type":"Feature","geometry":{"type":"Point","coordinates":[-80.17092,40.51461]},"properties":{"p":"0419L00016000000","a":"WOODLAWN DR","m":"Coraopolis","u":"L","o":"individual","sf":76230,"v":22500}},{"type":"Feature","geometry":{"type":"Point","coordinates":[-80.17636,40.51816]},"properties":{"p":"0419F00249000000","a":"SOUTHERN AVE","m":"Coraopolis","u":"L","o":"individual","sf":129,"v":100}},{"type":"Feature","geometry":{"type":"Point","coordinates":[-80.16778,40.51525]},"properties":{"p":"0419M00117000000","a":"916 HILAND AVE","m":"Coraopolis","u":"L","o":"corp","sf":1697,"v":600}},{"type":"Feature","geometry":{"type":"Point","coordinates":[-80.16835,40.51452]},"properties":{"p":"0419M00162000000","a":"KABLE WAY","m":"Coraopolis","u":"L","o":"corp","sf":2450,"v":800}},{"type":"Feature","geometry":{"type":"Point","coordinates":[-80.16953,40.51278]},"properties":{"p":"0419S00333000000","a":"FOREST AVE","m":"Coraopolis","u":"L","o":"individual","sf":31166,"v":2200}},{"type":"Feature","geometry":{"type":"Point","coordinates":[-80.17754,40.5192]},"properties":{"p":"0419B00192000000","a":"THORN ST","m":"Coraopolis","u":"L","o":"individual","sf":6275,"v":10100}},{"type":"Feature","geometry":{"type":"Point","coordinates":[-80.17761,40.51892]},"properties":{"p":"0419B00201000000","a":"THORN ST","m":"Coraopolis","u":"L","o":"individual","sf":6000,"v":10100}},{"type":"Feature","geometry":{"type":"Point","coordinates":[-80.17692,40.51866]},"properties":{"p":"0419B00215000000","a":"HILAND AVE","m":"Coraopolis","u":"L","o":"individual","sf":3961,"v":1300}},{"type":"Feature","geometry":{"type":"Point","coordinates":[-80.17421,40.5208]},"properties":{"p":"0419C00008000000","a":"WEST END AVE","m":"Coraopolis","u":"L","o":"individual","sf":3000,"v":1000}},{"type":"Feature","geometry":{"type":"Point","coordinates":[-80.16577,40.52127]},"properties":{"p":"0343N00153000000","a":"1ST AVE","m":"Coraopolis","u":"L","o":"corp","sf":7500,"v":10200}},{"type":"Feature","geometry":{"type":"Point","coordinates":[-80.17441,40.51626]},"properties":{"p":"0419G00092000000","a":"EDGEMONT DR","m":"Coraopolis","u":"L","o":"individual","sf":16839,"v":19100}},{"type":"Feature","geometry":{"type":"Point","coordinates":[-80.16626,40.52171]},"properties":{"p":"0343N00170000000","a":"1ST AVE","m":"Coraopolis","u":"L","o":"individual","sf":1185,"v":400}},{"type":"Feature","geometry":{"type":"Point","coordinates":[-80.16608,40.52206]},"properties":{"p":"0343N00172000000","a":"PENNSYLVANIA AVE","m":"Coraopolis","u":"L","o":"individual","sf":5891,"v":1800}},{"type":"Feature","geometry":{"type":"Point","coordinates":[-80.17373,40.51933]},"properties":{"p":"0419C00085000000","a":"ELM WAY","m":"Coraopolis","u":"L","o":"individual","sf":1849,"v":700}},{"type":"Feature","geometry":{"type":"Point","coordinates":[-80.17042,40.51198]},"properties":{"p":"0419S00268000000","a":"LOCUST ST","m":"Coraopolis","u":"L","o":"corp","sf":8000,"v":16300}},{"type":"Feature","geometry":{"type":"Point","coordinates":[-80.17029,40.51188]},"properties":{"p":"0419S00272000000","a":"LOCUST ST","m":"Coraopolis","u":"L","o":"corp","sf":7520,"v":16200}},{"type":"Feature","geometry":{"type":"Point","coordinates":[-80.17014,40.51181]},"properties":{"p":"0419S00276000000","a":"LOCUST ST","m":"Coraopolis","u":"L","o":"corp","sf":7680,"v":16200}},{"type":"Feature","geometry":{"type":"Point","coordinates":[-80.16998,40.51175]},"properties":{"p":"0419S00280000000","a":"LOCUST ST","m":"Coraopolis","u":"L","o":"individual","sf":7646,"v":16200}},{"type":"Feature","geometry":{"type":"Point","coordinates":[-80.16996,40.51233]},"properties":{"p":"0419S00296000000","a":"LOCUST ST","m":"Coraopolis","u":"L","o":"corp","sf":29185,"v":18200}},{"type":"Feature","geometry":{"type":"Point","coordinates":[-80.17553,40.52084]},"properties":{"p":"0419B00132000000","a":"WEST END AVE","m":"Coraopolis","u":"L","o":"individual","sf":3000,"v":1000}},{"type":"Feature","geometry":{"type":"Point","coordinates":[-80.17488,40.52107]},"properties":{"p":"0419B00138000000","a":"WEST END AVE","m":"Coraopolis","u":"L","o":"individual","sf":3000,"v":1000}},{"type":"Feature","geometry":{"type":"Point","coordinates":[-80.17479,40.52103]},"properties":{"p":"0419B00139000000","a":"WEST END AVE","m":"Coraopolis","u":"L","o":"individual","sf":3000,"v":1000}},{"type":"Feature","geometry":{"type":"Point","coordinates":[-80.16808,40.51799]},"properties":{"p":"0419H00189000000","a":"6TH AVE","m":"Coraopolis","u":"L","o":"individual","sf":4050,"v":1300}},{"type":"Feature","geometry":{"type":"Point","coordinates":[-80.17024,40.51421]},"properties":{"p":"0419M00204000000","a":"1041 MAIN ST","m":"Coraopolis","u":"L","o":"individual","sf":7387,"v":16200}},{"type":"Feature","geometry":{"type":"Point","coordinates":[-80.17395,40.52105]},"properties":{"p":"0420R00006000000","a":"5TH AVE","m":"Coraopolis","u":"L","o":"corp","sf":4686,"v":1500}},{"type":"Feature","geometry":{"type":"Point","coordinates":[-80.17405,40.52109]},"properties":{"p":"0420R00007000000","a":"5TH AVE","m":"Coraopolis","u":"L","o":"individual","sf":2040,"v":700}},{"type":"Feature","geometry":{"type":"Point","coordinates":[-80.17415,40.52114]},"properties":{"p":"0420R00009000000","a":"5TH AVE","m":"Coraopolis","u":"L","o":"corp","sf":4191,"v":14700}},{"type":"Feature","geometry":{"type":"Point","coordinates":[-80.16938,40.51461]},"properties":{"p":"0419M00079000000","a":"FAWCETT ST","m":"Coraopolis","u":"L","o":"corp","sf":2578,"v":900}},{"type":"Feature","geometry":{"type":"Point","coordinates":[-80.16877,40.51429]},"properties":{"p":"0419M00087000000","a":"KABLE WAY","m":"Coraopolis","u":"L","o":"individual","sf":2376,"v":800}},{"type":"Feature","geometry":{"type":"Point","coordinates":[-80.17467,40.51898]},"properties":{"p":"0419C00044000000","a":"612 7TH AVE","m":"Coraopolis","u":"L","o":"individual","sf":3750,"v":1200}},{"type":"Feature","geometry":{"type":"Point","coordinates":[-80.17462,40.51831]},"properties":{"p":"0419G00158000000","a":"HILAND AVE","m":"Coraopolis","u":"L","o":"individual","sf":4350,"v":1400}},{"type":"Feature","geometry":{"type":"Point","coordinates":[-80.17417,40.51822]},"properties":{"p":"0419G00166000000","a":"HILAND AVE","m":"Coraopolis","u":"L","o":"individual","sf":4500,"v":1500}},{"type":"Feature","geometry":{"type":"Point","coordinates":[-80.17395,40.51819]},"properties":{"p":"0419G00171000000","a":"HILAND AVE","m":"Coraopolis","u":"L","o":"corp","sf":1200,"v":500}},{"type":"Feature","geometry":{"type":"Point","coordinates":[-80.16469,40.52151]},"properties":{"p":"0343N00217000000","a":"PENNSYLVANIA AVE","m":"Coraopolis","u":"L","o":"individual","sf":3311,"v":1000}},{"type":"Feature","geometry":{"type":"Point","coordinates":[-80.17047,40.51384]},"properties":{"p":"0419S00397000000","a":"MAIN ST","m":"Coraopolis","u":"L","o":"individual","sf":7523,"v":2400}},{"type":"Feature","geometry":{"type":"Point","coordinates":[-80.17507,40.52115]},"properties":{"p":"0420P00007000000","a":"WEST END AVE","m":"Coraopolis","u":"L","o":"individual","sf":3000,"v":12800}},{"type":"Feature","geometry":{"type":"Point","coordinates":[-80.17443,40.52084]},"properties":{"p":"0419C00012000000","a":"WEST END AVE","m":"Coraopolis","u":"L","o":"individual","sf":3000,"v":1000}},{"type":"Feature","geometry":{"type":"Point","coordinates":[-80.17469,40.521]},"properties":{"p":"0419C00018000000","a":"WEST END AVE","m":"Coraopolis","u":"L","o":"individual","sf":3000,"v":1000}},{"type":"Feature","geometry":{"type":"Point","coordinates":[-80.17484,40.52063]},"properties":{"p":"0419C00020000000","a":"WEST END AVE","m":"Coraopolis","u":"L","o":"individual","sf":6000,"v":8100}},{"type":"Feature","geometry":{"type":"Point","coordinates":[-80.17526,40.52122]},"properties":{"p":"0420P00010000000","a":"WEST END AVE","m":"Coraopolis","u":"L","o":"individual","sf":3001,"v":12800}},{"type":"Feature","geometry":{"type":"Point","coordinates":[-80.16735,40.51792]},"properties":{"p":"0419H00173000000","a":"MAIN ST","m":"Coraopolis","u":"L","o":"individual","sf":3599,"v":1200}},{"type":"Feature","geometry":{"type":"Point","coordinates":[-80.17149,40.52114]},"properties":{"p":"0420R00050000000","a":"404 LOCUST ST","m":"Coraopolis","u":"L","o":"corp","sf":2250,"v":800}},{"type":"Feature","geometry":{"type":"Point","coordinates":[-80.17414,40.51664]},"properties":{"p":"0419G00093000000","a":"EDGEMONT DR","m":"Coraopolis","u":"L","o":"individual","sf":21687,"v":19500}},{"type":"Feature","geometry":{"type":"Point","coordinates":[-80.17365,40.51637]},"properties":{"p":"0419G00102000000","a":"RIVERVIEW ST","m":"Coraopolis","u":"L","o":"individual","sf":7348,"v":9200}},{"type":"Feature","geometry":{"type":"Point","coordinates":[-80.17475,40.51791]},"properties":{"p":"0419G00149000000","a":"HILAND AVE","m":"Coraopolis","u":"L","o":"individual","sf":5000,"v":1600}},{"type":"Feature","geometry":{"type":"Point","coordinates":[-80.16574,40.52182]},"properties":{"p":"0343N00184000000","a":"1ST AVE","m":"Coraopolis","u":"L","o":"individual","sf":2327,"v":800}},{"type":"Feature","geometry":{"type":"Point","coordinates":[-80.16526,40.52174]},"properties":{"p":"0343N00198000000","a":"PENNSYLVANIA AVE","m":"Coraopolis","u":"L","o":"individual","sf":3250,"v":1000}},{"type":"Feature","geometry":{"type":"Point","coordinates":[-80.17155,40.5212]},"properties":{"p":"0420R00052000000","a":"404 LOCUST ST","m":"Coraopolis","u":"L","o":"corp","sf":1190,"v":500}},{"type":"Feature","geometry":{"type":"Point","coordinates":[-80.17332,40.51229]},"properties":{"p":"0419R00267000000","a":"WOODLAWN DR","m":"Coraopolis","u":"L","o":"individual","sf":261360,"v":40500}},{"type":"Feature","geometry":{"type":"Point","coordinates":[-80.17347,40.51323]},"properties":{"p":"0419R00292000000","a":"SAINT CLAIR ST","m":"Coraopolis","u":"L","o":"individual","sf":121532,"v":28700}},{"type":"Feature","geometry":{"type":"Point","coordinates":[-80.1613,40.52879]},"properties":{"p":"0343B00046000000","a":"BEAVER RD","m":"Glen Osborne","u":"L","o":"individual","sf":28880,"v":6100}},{"type":"Feature","geometry":{"type":"Point","coordinates":[-80.16577,40.52894]},"properties":{"p":"0343A00305000000","a":"400 LANTERN LN","m":"Glen Osborne","u":"L","o":"corp","sf":29315,"v":93600}},{"type":"Feature","geometry":{"type":"Point","coordinates":[-80.16249,40.52889]},"properties":{"p":"0343A00123000000","a":"BEAVER RD","m":"Glen Osborne","u":"L","o":"individual","sf":2300,"v":500}},{"type":"Feature","geometry":{"type":"Point","coordinates":[-80.16082,40.52736]},"properties":{"p":"0343F00198000000","a":"BEAVER RD","m":"Glen Osborne","u":"L","o":"individual","sf":7492,"v":1600}},{"type":"Feature","geometry":{"type":"Point","coordinates":[-80.16032,40.52944]},"properties":{"p":"0343B00226000000","a":"SYCAMORE RD","m":"Glen Osborne","u":"L","o":"individual","sf":27704,"v":5800}},{"type":"Feature","geometry":{"type":"Point","coordinates":[-80.17623,40.51368]},"properties":{"p":"0418B00194000000","a":"712 THORN HOLLOW RD","m":"Moon","u":"L","o":"corp","sf":1945677,"v":22300}},{"type":"Feature","geometry":{"type":"Point","coordinates":[-80.17842,40.51947]},"properties":{"p":"0419B00251000000","a":"THORN HOLLOW RD","m":"Moon","u":"L","o":"individual","sf":13019,"v":18700}},{"type":"Feature","geometry":{"type":"Point","coordinates":[-80.17758,40.52104]},"properties":{"p":"0419B00318000000","a":"THORN HOLLOW RD","m":"Moon","u":"L","o":"corp","sf":5480,"v":18000}},{"type":"Feature","geometry":{"type":"Point","coordinates":[-80.17673,40.5219]},"properties":{"p":"0420P00160000000","a":"WEST END AVE EXT","m":"Moon","u":"L","o":"corp","sf":3654,"v":1200}},{"type":"Feature","geometry":{"type":"Point","coordinates":[-80.17655,40.52184]},"properties":{"p":"0420P00162000000","a":"WEST END AVE EXT","m":"Moon","u":"L","o":"individual","sf":6175,"v":2000}},{"type":"Feature","geometry":{"type":"Point","coordinates":[-80.17865,40.51885]},"properties":{"p":"0419B00231000000","a":"THORN HOLLOW RD","m":"Moon","u":"L","o":"individual","sf":41250,"v":21300}},{"type":"Feature","geometry":{"type":"Point","coordinates":[-80.17841,40.51909]},"properties":{"p":"0419B00241000000","a":"THORN HOLLOW RD","m":"Moon","u":"L","o":"individual","sf":19973,"v":19400}},{"type":"Feature","geometry":{"type":"Point","coordinates":[-80.17821,40.51917]},"properties":{"p":"0419B00245000000","a":"THORN ST","m":"Moon","u":"L","o":"individual","sf":9000,"v":18400}},{"type":"Feature","geometry":{"type":"Point","coordinates":[-80.17725,40.52177]},"properties":{"p":"0420P00191000000","a":"509 THORN HOLLOW RD","m":"Moon","u":"L","o":"individual","sf":4500,"v":1500}},{"type":"Feature","geometry":{"type":"Point","coordinates":[-80.1739,40.51006]},"properties":{"p":"0418C00193000000","a":"ROYAL AVE","m":"Moon","u":"L","o":"individual","sf":6300,"v":2000}},{"type":"Feature","geometry":{"type":"Point","coordinates":[-80.17922,40.51929]},"properties":{"p":"0419A00021000000","a":"THORN RUN RD","m":"Moon","u":"L","o":"individual","sf":9171,"v":18400}},{"type":"Feature","geometry":{"type":"Point","coordinates":[-80.17891,40.51826]},"properties":{"p":"0419E00087000000","a":"THORN HOLLOW RD","m":"Moon","u":"L","o":"individual","sf":70044,"v":6400}},{"type":"Feature","geometry":{"type":"Point","coordinates":[-80.17576,40.51587]},"properties":{"p":"0419K00018000000","a":"704 SOUTHERN AVE","m":"Moon","u":"L","o":"individual","sf":20720,"v":19400}},{"type":"Feature","geometry":{"type":"Point","coordinates":[-80.17572,40.52141]},"properties":{"p":"0420P00173000000","a":"WEST END AVE EXT","m":"Moon","u":"L","o":"individual","sf":3554,"v":1200}},{"type":"Feature","geometry":{"type":"Point","coordinates":[-80.17599,40.5211]},"properties":{"p":"0420P00174000000","a":"WEST END AVE","m":"Moon","u":"L","o":"individual","sf":3541,"v":1200}},{"type":"Feature","geometry":{"type":"Point","coordinates":[-80.17652,40.52138]},"properties":{"p":"0420P00182000000","a":"412 WEST END AVE EXT","m":"Moon","u":"L","o":"individual","sf":3000,"v":1000}},{"type":"Feature","geometry":{"type":"Point","coordinates":[-80.17945,40.52149]},"properties":{"p":"0420N00028000000","a":"GIBSON DR","m":"Moon","u":"L","o":"individual","sf":57499,"v":700}},{"type":"Feature","geometry":{"type":"Point","coordinates":[-80.17719,40.51965]},"properties":{"p":"0419B00183000000","a":"THORN ST","m":"Moon","u":"L","o":"individual","sf":3841,"v":1300}},{"type":"Feature","geometry":{"type":"Point","coordinates":[-80.1671,40.51757]},"properties":{"p":"0419H00081000000","a":"MAIN ST","m":"Coraopolis","u":"L","o":"individual","sf":500,"v":300}},{"type":"Feature","geometry":{"type":"Point","coordinates":[-80.16957,40.51928]},"properties":{"p":"0419D00318000000","a":"5TH AVE","m":"Coraopolis","u":"L","o":"individual","sf":4619,"v":1500}},{"type":"Feature","geometry":{"type":"Point","coordinates":[-80.16056,40.51265]},"properties":{"p":"0342P00076000000","a":"MAPLE ST","m":"Coraopolis","u":"L","o":"individual","sf":2633,"v":900}},{"type":"Feature","geometry":{"type":"Point","coordinates":[-80.1758,40.51921]},"properties":{"p":"0419B00043000000","a":"PROSPECT ST","m":"Coraopolis","u":"L","o":"individual","sf":5848,"v":16100}},{"type":"Feature","geometry":{"type":"Point","coordinates":[-80.16963,40.51221]},"properties":{"p":"0419S00287000000","a":"LOCUST ST","m":"Coraopolis","u":"L","o":"individual","sf":7520,"v":16200}},{"type":"Feature","geometry":{"type":"Point","coordinates":[-80.16001,40.51869]},"properties":{"p":"0342F00361000000","a":"BROADWAY ST","m":"Coraopolis","u":"L","o":"individual","sf":2095,"v":700}},{"type":"Feature","geometry":{"type":"Point","coordinates":[-80.16646,40.52158]},"properties":{"p":"0420S00007000000","a":"851 BIRCH WAY","m":"Coraopolis","u":"L","o":"corp","sf":1478,"v":500}},{"type":"Feature","geometry":{"type":"Point","coordinates":[-80.16201,40.51953]},"properties":{"p":"0342A00276000000","a":"1013 2ND AVE","m":"Coraopolis","u":"L","o":"individual","sf":3750,"v":1200}},{"type":"Feature","geometry":{"type":"Point","coordinates":[-80.17566,40.51915]},"properties":{"p":"0419B00044000000","a":"PROSPECT ST","m":"Coraopolis","u":"L","o":"individual","sf":2924,"v":1000}},{"type":"Feature","geometry":{"type":"Point","coordinates":[-80.17593,40.52192]},"properties":{"p":"0420P00130000000","a":"5TH AVE","m":"Moon","u":"L","o":"individual","sf":6859,"v":2200}},{"type":"Feature","geometry":{"type":"Point","coordinates":[-80.17743,40.52151]},"properties":{"p":"0420P00199000000","a":"THORN HILL RD","m":"Moon","u":"L","o":"individual","sf":9000,"v":18400}}]}