{"type":"FeatureCollection","features":[{"type":"Feature","geometry":{"type":"Point","coordinates":[-80.15027,40.48488]},"properties":{"p":"0339M00234000000","a":"EWINGS MILL RD","m":"Robinson","u":"C","o":"corp","sf":650264,"v":14900}},{"type":"Feature","geometry":{"type":"Point","coordinates":[-80.15027,40.48927]},"properties":{"p":"0339D00187000000","a":"HICKMAN RD","m":"Robinson","u":"C","o":"corp","sf":655143,"v":16800}},{"type":"Feature","geometry":{"type":"Point","coordinates":[-80.15903,40.47027]},"properties":{"p":"0337F00044000000","a":"STAGS LEAP LN","m":"Moon","u":"L","o":"corp","sf":120021,"v":0}},{"type":"Feature","geometry":{"type":"Point","coordinates":[-80.15687,40.47985]},"properties":{"p":"0339M00393000000","a":"HICKMAN RD","m":"Moon","u":"L","o":"corp","sf":5904536,"v":349600}},{"type":"Feature","geometry":{"type":"Point","coordinates":[-80.14718,40.48289]},"properties":{"p":"0270N00019000000","a":"FLYNN DR","m":"Robinson","u":"L","o":"individual","sf":19994,"v":61100}},{"type":"Feature","geometry":{"type":"Point","coordinates":[-80.14079,40.48489]},"properties":{"p":"0270L00241000000","a":"EWINGS MILL RD","m":"Robinson","u":"L","o":"corp","sf":27773,"v":17000}},{"type":"Feature","geometry":{"type":"Point","coordinates":[-80.14145,40.48724]},"properties":{"p":"0270L00355000000","a":"SCHULER LN","m":"Robinson","u":"L","o":"individual","sf":33101,"v":52400}},{"type":"Feature","geometry":{"type":"Point","coordinates":[-80.14694,40.48405]},"properties":{"p":"0270K00025000000","a":"WENDT DR","m":"Robinson","u":"L","o":"individual","sf":213444,"v":56000}},{"type":"Feature","geometry":{"type":"Point","coordinates":[-80.14373,40.48602]},"properties":{"p":"0270K00151000000","a":"EWINGS MILL RD","m":"Robinson","u":"L","o":"individual","sf":17470,"v":50600}},{"type":"Feature","geometry":{"type":"Point","coordinates":[-80.14022,40.47906]},"properties":{"p":"0269G00024000000","a":"221 CHURCH DR","m":"Robinson","u":"L","o":"corp","sf":12499,"v":1400}},{"type":"Feature","geometry":{"type":"Point","coordinates":[-80.14803,40.47254]},"properties":{"p":"0269N00150000000","a":"FAWNWOOD DR","m":"Robinson","u":"L","o":"corp","sf":129199,"v":8900}},{"type":"Feature","geometry":{"type":"Point","coordinates":[-80.14707,40.47353]},"properties":{"p":"0268B00398000000","a":"KOHLEEN DR","m":"Robinson","u":"L","o":"corp","sf":182081,"v":69500}},{"type":"Feature","geometry":{"type":"Point","coordinates":[-80.14159,40.48782]},"properties":{"p":"0270G00270000000","a":"RONNIE DR","m":"Robinson","u":"L","o":"individual","sf":61158,"v":5000}},{"type":"Feature","geometry":{"type":"Point","coordinates":[-80.14437,40.48426]},"properties":{"p":"0270K00012000000","a":"WENDT DR","m":"Robinson","u":"L","o":"individual","sf":16890,"v":50600}},{"type":"Feature","geometry":{"type":"Point","coordinates":[-80.14502,40.48408]},"properties":{"p":"0270P00043000000","a":"WENDT DR","m":"Robinson","u":"L","o":"individual","sf":15000,"v":20000}},{"type":"Feature","geometry":{"type":"Point","coordinates":[-80.14301,40.4772]},"properties":{"p":"0269F00121000000","a":"EVELYN DR EXT","m":"Robinson","u":"L","o":"individual","sf":59590,"v":10000}},{"type":"Feature","geometry":{"type":"Point","coordinates":[-80.1419,40.48714]},"properties":{"p":"0270K00309000100","a":"SCHULER LN","m":"Robinson","u":"L","o":"individual","sf":15000,"v":1700}},{"type":"Feature","geometry":{"type":"Point","coordinates":[-80.14341,40.47432]},"properties":{"p":"0269K00031000000","a":"STERLING DR","m":"Robinson","u":"L","o":"individual","sf":100188,"v":31700}},{"type":"Feature","geometry":{"type":"Point","coordinates":[-80.14432,40.48999]},"properties":{"p":"0270B00148000000","a":"AMY JO LN","m":"Robinson","u":"L","o":"individual","sf":46304,"v":53900}},{"type":"Feature","geometry":{"type":"Point","coordinates":[-80.15251,40.48056]},"properties":{"p":"0339S00101000000","a":"HICKMAN RD","m":"Robinson","u":"L","o":"corp","sf":1746756,"v":60100}},{"type":"Feature","geometry":{"type":"Point","coordinates":[-80.15579,40.47098]},"properties":{"p":"0337C00216000000","a":"HICKMAN RD","m":"Robinson","u":"L","o":"individual","sf":8493,"v":900}},{"type":"Feature","geometry":{"type":"Point","coordinates":[-80.15123,40.47132]},"properties":{"p":"0337D00026000000","a":"HICKMAN RD","m":"Robinson","u":"L","o":"corp","sf":1797394,"v":148300}},{"type":"Feature","geometry":{"type":"Point","coordinates":[-80.146,40.48292]},"properties":{"p":"0270N00001000000","a":"FLYNN DR","m":"Robinson","u":"B","o":"corp","sf":16513,"v":9600}},{"type":"Feature","geometry":{"type":"Point","coordinates":[-80.14536,40.48365]},"properties":{"p":"0270P00101000000","a":"EWINGS MILL RD","m":"Robinson","u":"B","o":"corp","sf":12513,"v":9100}},{"type":"Feature","geometry":{"type":"Point","coordinates":[-80.14743,40.47898]},"properties":{"p":"0269E00043000000","a":"BURKES DR","m":"Robinson","u":"B","o":"corp","sf":35806,"v":12300}}]}