{"type":"FeatureCollection","features":[{"type":"Feature","geometry":{"type":"Point","coordinates":[-80.14084,40.45022]},"properties":{"p":"0266G00049000000","a":"5854 STEUBENVILLE PIKE","m":"Robinson","u":"C","o":"corp","sf":123972,"v":207300}},{"type":"Feature","geometry":{"type":"Point","coordinates":[-80.15387,40.46657]},"properties":{"p":"0337L00026000000","a":"136 OLD BEAVER GRADE RD","m":"Robinson","u":"C","o":"corp","sf":8871,"v":50400}},{"type":"Feature","geometry":{"type":"Point","coordinates":[-80.15573,40.46875]},"properties":{"p":"0337L00133000000","a":"BEAVER GRADE RD","m":"Robinson","u":"C","o":"corp","sf":74923,"v":30000}},{"type":"Feature","geometry":{"type":"Point","coordinates":[-80.15743,40.45062]},"properties":{"p":"0335C00012000000","a":"PARK MANOR BLVD","m":"Robinson","u":"C","o":"corp","sf":63789,"v":139700}},{"type":"Feature","geometry":{"type":"Point","coordinates":[-80.15772,40.45798]},"properties":{"p":"0336G00010000000","a":"ROBINSON CENTRE DR","m":"Robinson","u":"C","o":"corp","sf":19406,"v":1300}},{"type":"Feature","geometry":{"type":"Point","coordinates":[-80.15853,40.46661]},"properties":{"p":"0337K00076000000","a":"195 MONTOUR RUN RD","m":"Robinson","u":"C","o":"corp","sf":121532,"v":48600}},{"type":"Feature","geometry":{"type":"Point","coordinates":[-80.15323,40.46454]},"properties":{"p":"0337S00061000000","a":"BEAVER GRADE RD","m":"Robinson","u":"C","o":"corp","sf":179467,"v":12400}},{"type":"Feature","geometry":{"type":"Point","coordinates":[-80.15727,40.46284]},"properties":{"p":"0337P00105000000","a":"CLEVER RD","m":"Robinson","u":"C","o":"corp","sf":2384910,"v":164200}},{"type":"Feature","geometry":{"type":"Point","coordinates":[-80.15414,40.4517]},"properties":{"p":"0335C00033000000","a":"HIGH TOWER BLVD","m":"Robinson","u":"C","o":"corp","sf":38045,"v":39200}},{"type":"Feature","geometry":{"type":"Point","coordinates":[-80.15366,40.46647]},"properties":{"p":"0337L00024000000","a":"136 OLD BEAVER GRADE RD","m":"Robinson","u":"C","o":"corp","sf":10526,"v":55200}},{"type":"Feature","geometry":{"type":"Point","coordinates":[-80.15942,40.458]},"properties":{"p":"0336F00002000000","a":"ROBINSON TOWN CENTRE BLVD","m":"Robinson","u":"C","o":"corp","sf":22686,"v":1600}},{"type":"Feature","geometry":{"type":"Point","coordinates":[-80.15803,40.46025]},"properties":{"p":"0336B00051000000","a":"URBANO WAY","m":"Moon","u":"C","o":"corp","sf":3001820,"v":2693800}},{"type":"Feature","geometry":{"type":"Point","coordinates":[-80.15836,40.46402]},"properties":{"p":"0337P00295000000","a":"CLEVER RD","m":"Robinson","u":"C","o":"corp","sf":473758,"v":91600}},{"type":"Feature","geometry":{"type":"Point","coordinates":[-80.15571,40.46697]},"properties":{"p":"0337L00139000000","a":"BEAVER GRADE RD","m":"Moon","u":"L","o":"individual","sf":24061,"v":90900}},{"type":"Feature","geometry":{"type":"Point","coordinates":[-80.15769,40.46728]},"properties":{"p":"0337L00160000000","a":"BEAVER GRADE RD","m":"Moon","u":"L","o":"individual","sf":39808,"v":47000}},{"type":"Feature","geometry":{"type":"Point","coordinates":[-80.15698,40.46726]},"properties":{"p":"0337L00180000000","a":"BEAVER GRADE RD","m":"Moon","u":"L","o":"individual","sf":45974,"v":47600}},{"type":"Feature","geometry":{"type":"Point","coordinates":[-80.14134,40.46593]},"properties":{"p":"0268K00230000000","a":"PHILLIPS LN","m":"Robinson","u":"L","o":"individual","sf":40000,"v":53100}},{"type":"Feature","geometry":{"type":"Point","coordinates":[-80.14944,40.45488]},"properties":{"p":"0267N00273000000","a":"GREENVIEW DR","m":"Robinson","u":"L","o":"individual","sf":8289,"v":900}},{"type":"Feature","geometry":{"type":"Point","coordinates":[-80.14145,40.45813]},"properties":{"p":"0267F00722000000","a":"BEAVER GRADE RD","m":"Robinson","u":"L","o":"corp","sf":35284,"v":17000}},{"type":"Feature","geometry":{"type":"Point","coordinates":[-80.14751,40.45586]},"properties":{"p":"0267J00351000000","a":"BELLVIEW DR","m":"Robinson","u":"L","o":"individual","sf":7500,"v":800}},{"type":"Feature","geometry":{"type":"Point","coordinates":[-80.14336,40.45705]},"properties":{"p":"0267K00159000000","a":"95 BEAVER GRADE RD","m":"Robinson","u":"L","o":"individual","sf":2357,"v":300}},{"type":"Feature","geometry":{"type":"Point","coordinates":[-80.14252,40.45661]},"properties":{"p":"0267K00178000000","a":"BEAVER GRADE RD","m":"Robinson","u":"L","o":"individual","sf":6316,"v":700}},{"type":"Feature","geometry":{"type":"Point","coordinates":[-80.14214,40.45659]},"properties":{"p":"0267K00187000000","a":"BEAVER GRADE RD","m":"Robinson","u":"L","o":"individual","sf":7187,"v":800}},{"type":"Feature","geometry":{"type":"Point","coordinates":[-80.1419,40.46109]},"properties":{"p":"0267C00083000000","a":"SILVER LN","m":"Robinson","u":"L","o":"corp","sf":39488,"v":7800}},{"type":"Feature","geometry":{"type":"Point","coordinates":[-80.1424,40.46742]},"properties":{"p":"0268F00101000000","a":"PHILLIPS LN","m":"Robinson","u":"L","o":"corp","sf":106726,"v":3150}},{"type":"Feature","geometry":{"type":"Point","coordinates":[-80.14379,40.46834]},"properties":{"p":"0268F00102000000","a":"PHILLIPS LN","m":"Robinson","u":"L","o":"corp","sf":53666,"v":18700}},{"type":"Feature","geometry":{"type":"Point","coordinates":[-80.14397,40.46864]},"properties":{"p":"0268F00103000000","a":"PHILLIPS LN","m":"Robinson","u":"L","o":"corp","sf":45311,"v":28800}},{"type":"Feature","geometry":{"type":"Point","coordinates":[-80.14326,40.46821]},"properties":{"p":"0268F00200000000","a":"PHILLIPS LN","m":"Robinson","u":"L","o":"corp","sf":77994,"v":32600}},{"type":"Feature","geometry":{"type":"Point","coordinates":[-80.14197,40.4671]},"properties":{"p":"0268F00210000000","a":"PHILLIPS LN","m":"Robinson","u":"L","o":"corp","sf":106626,"v":3150}},{"type":"Feature","geometry":{"type":"Point","coordinates":[-80.14868,40.46176]},"properties":{"p":"0267A00071000000","a":"CLEVER RD","m":"Robinson","u":"L","o":"corp","sf":34033,"v":6700}},{"type":"Feature","geometry":{"type":"Point","coordinates":[-80.14358,40.46763]},"properties":{"p":"0268F00275000000","a":"PHILLIPS LN","m":"Robinson","u":"L","o":"individual","sf":63598,"v":7300}},{"type":"Feature","geometry":{"type":"Point","coordinates":[-80.14486,40.46968]},"properties":{"p":"0268F00340000000","a":"PHILLIPS LN","m":"Robinson","u":"L","o":"individual","sf":37679,"v":52900}},{"type":"Feature","geometry":{"type":"Point","coordinates":[-80.1401,40.46338]},"properties":{"p":"0268R00199000000","a":"SILVER LN","m":"Robinson","u":"L","o":"individual","sf":3920,"v":8200}},{"type":"Feature","geometry":{"type":"Point","coordinates":[-80.14128,40.46137]},"properties":{"p":"0267B00078000000","a":"CONLEY DR","m":"Robinson","u":"L","o":"individual","sf":21600,"v":5400}},{"type":"Feature","geometry":{"type":"Point","coordinates":[-80.14778,40.46029]},"properties":{"p":"0267K00300000000","a":"BEAVER GRADE RD","m":"Robinson","u":"L","o":"corp","sf":1792747,"v":0}},{"type":"Feature","geometry":{"type":"Point","coordinates":[-80.14997,40.45935]},"properties":{"p":"0336H00078000000","a":"BELLVIEW DR","m":"Robinson","u":"L","o":"individual","sf":19307,"v":50800}},{"type":"Feature","geometry":{"type":"Point","coordinates":[-80.15529,40.46664]},"properties":{"p":"0337L00254000000","a":"180 OLD BEAVER GRADE RD","m":"Robinson","u":"L","o":"corp","sf":10395,"v":46700}},{"type":"Feature","geometry":{"type":"Point","coordinates":[-80.15367,40.46546]},"properties":{"p":"0337L00304000000","a":"BEAVER GRADE RD","m":"Robinson","u":"L","o":"corp","sf":85378,"v":58400}},{"type":"Feature","geometry":{"type":"Point","coordinates":[-80.15288,40.46608]},"properties":{"p":"0337M00052000000","a":"HICKMAN RD","m":"Robinson","u":"L","o":"corp","sf":35756,"v":3900}},{"type":"Feature","geometry":{"type":"Point","coordinates":[-80.15277,40.46329]},"properties":{"p":"0337S00033000000","a":"BEAVER GRADE RD","m":"Robinson","u":"L","o":"individual","sf":74357,"v":20000}},{"type":"Feature","geometry":{"type":"Point","coordinates":[-80.15238,40.46708]},"properties":{"p":"0337M00134000000","a":"HICKMAN RD","m":"Robinson","u":"L","o":"individual","sf":7650,"v":1100}},{"type":"Feature","geometry":{"type":"Point","coordinates":[-80.15342,40.46333]},"properties":{"p":"0337S00009000000","a":"BEAVER GRADE RD","m":"Robinson","u":"L","o":"individual","sf":93131,"v":1100}},{"type":"Feature","geometry":{"type":"Point","coordinates":[-80.15157,40.46852]},"properties":{"p":"0337H00240000000","a":"HICKMAN RD","m":"Robinson","u":"L","o":"corp","sf":304484,"v":90300}},{"type":"Feature","geometry":{"type":"Point","coordinates":[-80.14794,40.45781]},"properties":{"p":"0267E00122000000","a":"BEAVER GRADE RD","m":"Robinson","u":"L","o":"individual","sf":104544,"v":2400}},{"type":"Feature","geometry":{"type":"Point","coordinates":[-80.14307,40.45782]},"properties":{"p":"0267F00300000000","a":"BEAVER GRADE RD","m":"Robinson","u":"B","o":"corp","sf":26571,"v":12000}},{"type":"Feature","geometry":{"type":"Point","coordinates":[-80.14346,40.45776]},"properties":{"p":"0267F00302000000","a":"BEAVER GRADE RD","m":"Robinson","u":"B","o":"corp","sf":20473,"v":9000}},{"type":"Feature","geometry":{"type":"Point","coordinates":[-80.14189,40.45813]},"properties":{"p":"0267F00724000000","a":"BEAVER GRADE RD","m":"Robinson","u":"B","o":"corp","sf":33977,"v":16000}},{"type":"Feature","geometry":{"type":"Point","coordinates":[-80.14229,40.45804]},"properties":{"p":"0267F00726000000","a":"BEAVER GRADE RD","m":"Robinson","u":"B","o":"corp","sf":31363,"v":15000}},{"type":"Feature","geometry":{"type":"Point","coordinates":[-80.14268,40.45783]},"properties":{"p":"0267F00728000000","a":"BEAVER GRADE RD","m":"Robinson","u":"B","o":"corp","sf":31799,"v":15000}},{"type":"Feature","geometry":{"type":"Point","coordinates":[-80.14053,40.45797]},"properties":{"p":"0267G00700000000","a":"BEAVER GRADE RD","m":"Robinson","u":"B","o":"corp","sf":34848,"v":16000}},{"type":"Feature","geometry":{"type":"Point","coordinates":[-80.14099,40.45805]},"properties":{"p":"0267G00720000000","a":"BEAVER GRADE RD","m":"Robinson","u":"B","o":"corp","sf":31799,"v":15000}},{"type":"Feature","geometry":{"type":"Point","coordinates":[-80.14017,40.45818]},"properties":{"p":"0267L00239000000","a":"BEAVER GRADE RD","m":"Robinson","u":"B","o":"corp","sf":159865,"v":2000}}]}