{"type":"FeatureCollection","features":[{"type":"Feature","geometry":{"type":"Point","coordinates":[-80.14759,40.50211]},"properties":{"p":"0272N00052000000","a":"MONTOUR RD","m":"Moon","u":"I","o":"individual","sf":185130,"v":4300}},{"type":"Feature","geometry":{"type":"Point","coordinates":[-80.14636,40.50219]},"properties":{"p":"0272N00085000000","a":"MONTOUR RD","m":"Moon","u":"I","o":"individual","sf":155509,"v":3600}},{"type":"Feature","geometry":{"type":"Point","coordinates":[-80.14702,40.50109]},"properties":{"p":"0271A00320000000","a":"MONTOUR RD","m":"Moon","u":"I","o":"individual","sf":223332,"v":4300}},{"type":"Feature","geometry":{"type":"Point","coordinates":[-80.14523,40.50209]},"properties":{"p":"0272P00396000000","a":"MONTOUR RD","m":"Moon","u":"I","o":"individual","sf":59246,"v":1400}},{"type":"Feature","geometry":{"type":"Point","coordinates":[-80.15121,40.50831]},"properties":{"p":"0341H00109000000","a":"WELLESLEY ST","m":"Coraopolis","u":"C","o":"individual","sf":158994,"v":11000}},{"type":"Feature","geometry":{"type":"Point","coordinates":[-80.14097,40.50878]},"properties":{"p":"0272G00196000000","a":"3 LEWIS AVE","m":"Robinson","u":"C","o":"corp","sf":45520,"v":31400}},{"type":"Feature","geometry":{"type":"Point","coordinates":[-80.14261,40.50171]},"properties":{"p":"0272P00121000000","a":"N PETRIE RD","m":"Moon","u":"C","o":"corp","sf":1387739,"v":25600}},{"type":"Feature","geometry":{"type":"Point","coordinates":[-80.15345,40.50481]},"properties":{"p":"0341M00155000000","a":"SHADY PL","m":"Coraopolis","u":"L","o":"individual","sf":6561,"v":18100}},{"type":"Feature","geometry":{"type":"Point","coordinates":[-80.1509,40.50913]},"properties":{"p":"0341D00021000000","a":"STATE AVE","m":"Coraopolis","u":"L","o":"individual","sf":4617,"v":1500}},{"type":"Feature","geometry":{"type":"Point","coordinates":[-80.15602,40.50874]},"properties":{"p":"0341G00378000100","a":"1122 VINE ST","m":"Coraopolis","u":"L","o":"individual","sf":195,"v":200}},{"type":"Feature","geometry":{"type":"Point","coordinates":[-80.15025,40.50606]},"properties":{"p":"0341M00364000000","a":"STRATFORD AVE","m":"Coraopolis","u":"L","o":"individual","sf":6250,"v":7000}},{"type":"Feature","geometry":{"type":"Point","coordinates":[-80.15049,40.50627]},"properties":{"p":"0341M00371000000","a":"STRATFORD AVE","m":"Coraopolis","u":"L","o":"individual","sf":6250,"v":18100}},{"type":"Feature","geometry":{"type":"Point","coordinates":[-80.151,40.50656]},"properties":{"p":"0341M00372000000","a":"918 ORCHARD ST","m":"Coraopolis","u":"L","o":"individual","sf":5346,"v":1700}},{"type":"Feature","geometry":{"type":"Point","coordinates":[-80.15129,40.50934]},"properties":{"p":"0341D00117000000","a":"FRANCIS ST","m":"Coraopolis","u":"L","o":"individual","sf":6300,"v":2000}},{"type":"Feature","geometry":{"type":"Point","coordinates":[-80.1514,40.50942]},"properties":{"p":"0341D00123000000","a":"FRANCIS ST","m":"Coraopolis","u":"L","o":"individual","sf":12243,"v":18700}},{"type":"Feature","geometry":{"type":"Point","coordinates":[-80.15258,40.50976]},"properties":{"p":"0341D00192000000","a":"VANCE AVE","m":"Coraopolis","u":"L","o":"individual","sf":54886,"v":22600}},{"type":"Feature","geometry":{"type":"Point","coordinates":[-80.15309,40.50761]},"properties":{"p":"0341H00211000000","a":"CLIFF ST","m":"Coraopolis","u":"L","o":"individual","sf":12921,"v":9700}},{"type":"Feature","geometry":{"type":"Point","coordinates":[-80.15322,40.5074]},"properties":{"p":"0341H00214000000","a":"CLIFF ST","m":"Coraopolis","u":"L","o":"individual","sf":5979,"v":1900}},{"type":"Feature","geometry":{"type":"Point","coordinates":[-80.15326,40.50793]},"properties":{"p":"0341H00233000000","a":"CLIFF ST","m":"Coraopolis","u":"L","o":"individual","sf":25044,"v":7600}},{"type":"Feature","geometry":{"type":"Point","coordinates":[-80.1535,40.50851]},"properties":{"p":"0341H00288000000","a":"BUCKINGHAM PL","m":"Coraopolis","u":"L","o":"individual","sf":12107,"v":3700}},{"type":"Feature","geometry":{"type":"Point","coordinates":[-80.15593,40.50615]},"properties":{"p":"0341L00230000000","a":"MONTOUR ST","m":"Coraopolis","u":"L","o":"individual","sf":7971,"v":16300}},{"type":"Feature","geometry":{"type":"Point","coordinates":[-80.15654,40.50614]},"properties":{"p":"0341L00257000000","a":"MONTOUR ST","m":"Coraopolis","u":"L","o":"individual","sf":163045,"v":30500}},{"type":"Feature","geometry":{"type":"Point","coordinates":[-80.15761,40.50605]},"properties":{"p":"0341L00325000000","a":"ANDERSON AVE","m":"Coraopolis","u":"L","o":"individual","sf":176854,"v":31800}},{"type":"Feature","geometry":{"type":"Point","coordinates":[-80.15275,40.50435]},"properties":{"p":"0341M00032000000","a":"SHADY PL","m":"Coraopolis","u":"L","o":"individual","sf":32529,"v":20500}},{"type":"Feature","geometry":{"type":"Point","coordinates":[-80.15329,40.50447]},"properties":{"p":"0341M00034000000","a":"SHADY PL","m":"Coraopolis","u":"L","o":"corp","sf":7800,"v":9300}},{"type":"Feature","geometry":{"type":"Point","coordinates":[-80.15457,40.50866]},"properties":{"p":"0341G00349000000","a":"BUCKINGHAM PL","m":"Coraopolis","u":"L","o":"individual","sf":16801,"v":19100}},{"type":"Feature","geometry":{"type":"Point","coordinates":[-80.15487,40.50843]},"properties":{"p":"0341G00360000000","a":"DEVONSHIRE RD","m":"Coraopolis","u":"L","o":"individual","sf":5403,"v":1700}},{"type":"Feature","geometry":{"type":"Point","coordinates":[-80.15674,40.50679]},"properties":{"p":"0341G00186000000","a":"MONTOUR ST","m":"Coraopolis","u":"L","o":"individual","sf":26354,"v":8000}},{"type":"Feature","geometry":{"type":"Point","coordinates":[-80.15116,40.5093]},"properties":{"p":"0341D00114000000","a":"FRANCIS ST","m":"Coraopolis","u":"L","o":"individual","sf":6300,"v":2000}},{"type":"Feature","geometry":{"type":"Point","coordinates":[-80.15196,40.50779]},"properties":{"p":"0341H00145000000","a":"CLIFF ST","m":"Coraopolis","u":"L","o":"individual","sf":6250,"v":18100}},{"type":"Feature","geometry":{"type":"Point","coordinates":[-80.15177,40.50793]},"properties":{"p":"0341H00148000000","a":"CLIFF ST","m":"Coraopolis","u":"L","o":"individual","sf":12097,"v":18600}},{"type":"Feature","geometry":{"type":"Point","coordinates":[-80.15485,40.50518]},"properties":{"p":"0341L00080000000","a":"EUCLID AVE","m":"Coraopolis","u":"L","o":"corp","sf":5070,"v":1600}},{"type":"Feature","geometry":{"type":"Point","coordinates":[-80.15448,40.50663]},"properties":{"p":"0341G00325000000","a":"GRACE ST","m":"Coraopolis","u":"L","o":"individual","sf":9583,"v":700}},{"type":"Feature","geometry":{"type":"Point","coordinates":[-80.15396,40.50792]},"properties":{"p":"0341G00334000000","a":"DEVONSHIRE RD","m":"Coraopolis","u":"L","o":"individual","sf":8035,"v":13800}},{"type":"Feature","geometry":{"type":"Point","coordinates":[-80.15493,40.50505]},"properties":{"p":"0341L00082000000","a":"EUCLID AVE","m":"Coraopolis","u":"L","o":"individual","sf":4585,"v":1500}},{"type":"Feature","geometry":{"type":"Point","coordinates":[-80.15203,40.50667]},"properties":{"p":"0341H00365000000","a":"WELLESLEY AVE","m":"Coraopolis","u":"L","o":"individual","sf":38810,"v":21000}},{"type":"Feature","geometry":{"type":"Point","coordinates":[-80.15144,40.50696]},"properties":{"p":"0341H00378000000","a":"WELLESLEY AVE","m":"Coraopolis","u":"L","o":"individual","sf":29855,"v":20200}},{"type":"Feature","geometry":{"type":"Point","coordinates":[-80.1508,40.50672]},"properties":{"p":"0341H00394000000","a":"918 ORCHARD ST","m":"Coraopolis","u":"L","o":"individual","sf":5198,"v":1700}},{"type":"Feature","geometry":{"type":"Point","coordinates":[-80.15738,40.50789]},"properties":{"p":"0341G00112000000","a":"MONTOUR ST","m":"Coraopolis","u":"L","o":"individual","sf":9616,"v":3000}},{"type":"Feature","geometry":{"type":"Point","coordinates":[-80.15667,40.50809]},"properties":{"p":"0341G00119000000","a":"MONTOUR ST","m":"Coraopolis","u":"L","o":"individual","sf":8000,"v":16300}},{"type":"Feature","geometry":{"type":"Point","coordinates":[-80.15708,40.50709]},"properties":{"p":"0341G00146000000","a":"MONTOUR ST","m":"Coraopolis","u":"L","o":"corp","sf":21919,"v":17500}},{"type":"Feature","geometry":{"type":"Point","coordinates":[-80.15318,40.50475]},"properties":{"p":"0341M00157000000","a":"SHADY PL","m":"Coraopolis","u":"L","o":"individual","sf":6561,"v":18100}},{"type":"Feature","geometry":{"type":"Point","coordinates":[-80.1529,40.50469]},"properties":{"p":"0341M00159000000","a":"SHADY PL","m":"Coraopolis","u":"L","o":"individual","sf":6561,"v":2100}},{"type":"Feature","geometry":{"type":"Point","coordinates":[-80.15263,40.50462]},"properties":{"p":"0341M00161000000","a":"SHADY PL","m":"Coraopolis","u":"L","o":"individual","sf":6562,"v":18100}},{"type":"Feature","geometry":{"type":"Point","coordinates":[-80.15235,40.50456]},"properties":{"p":"0341M00163000000","a":"SHADY PL","m":"Coraopolis","u":"L","o":"individual","sf":6562,"v":18100}},{"type":"Feature","geometry":{"type":"Point","coordinates":[-80.15232,40.5062]},"properties":{"p":"0341M00202000000","a":"WELLESLEY AVE","m":"Coraopolis","u":"L","o":"individual","sf":5182,"v":1700}},{"type":"Feature","geometry":{"type":"Point","coordinates":[-80.1493,40.5061]},"properties":{"p":"0272J00015000000","a":"STATE AVE","m":"Coraopolis","u":"L","o":"individual","sf":3750,"v":1200}},{"type":"Feature","geometry":{"type":"Point","coordinates":[-80.1524,40.50607]},"properties":{"p":"0341M00204000000","a":"WELLESLEY AVE","m":"Coraopolis","u":"L","o":"individual","sf":6000,"v":18100}},{"type":"Feature","geometry":{"type":"Point","coordinates":[-80.15249,40.50594]},"properties":{"p":"0341M00206000000","a":"WELLESLEY AVE","m":"Coraopolis","u":"L","o":"individual","sf":14850,"v":1600}},{"type":"Feature","geometry":{"type":"Point","coordinates":[-80.15289,40.50607]},"properties":{"p":"0341M00208000000","a":"CLIFF ST","m":"Coraopolis","u":"L","o":"individual","sf":7150,"v":1600}},{"type":"Feature","geometry":{"type":"Point","coordinates":[-80.15282,40.5062]},"properties":{"p":"0341M00210000000","a":"CLIFF ST","m":"Coraopolis","u":"L","o":"individual","sf":19956,"v":1600}},{"type":"Feature","geometry":{"type":"Point","coordinates":[-80.15277,40.50639]},"properties":{"p":"0341M00212000000","a":"HOWARD ST","m":"Coraopolis","u":"L","o":"individual","sf":5020,"v":1600}},{"type":"Feature","geometry":{"type":"Point","coordinates":[-80.15144,40.50629]},"properties":{"p":"0341M00332000000","a":"STRATFORD AVE","m":"Coraopolis","u":"L","o":"individual","sf":9381,"v":18400}},{"type":"Feature","geometry":{"type":"Point","coordinates":[-80.15127,40.50629]},"properties":{"p":"0341M00335000000","a":"STRATFORD AVE","m":"Coraopolis","u":"L","o":"individual","sf":2500,"v":900}},{"type":"Feature","geometry":{"type":"Point","coordinates":[-80.15078,40.50926]},"properties":{"p":"0341D00024000000","a":"STATE AVE","m":"Coraopolis","u":"L","o":"individual","sf":14996,"v":18900}},{"type":"Feature","geometry":{"type":"Point","coordinates":[-80.15175,40.50743]},"properties":{"p":"0341H00112000000","a":"WELLESLEY AVE","m":"Coraopolis","u":"L","o":"individual","sf":7625,"v":2400}},{"type":"Feature","geometry":{"type":"Point","coordinates":[-80.15188,40.50733]},"properties":{"p":"0341H00115000000","a":"WELLESLEY AVE","m":"Coraopolis","u":"L","o":"individual","sf":7411,"v":2300}},{"type":"Feature","geometry":{"type":"Point","coordinates":[-80.15209,40.5072]},"properties":{"p":"0341H00121000000","a":"WELLESLEY AVE","m":"Coraopolis","u":"L","o":"individual","sf":16171,"v":5000}},{"type":"Feature","geometry":{"type":"Point","coordinates":[-80.15215,40.50765]},"properties":{"p":"0341H00139000000","a":"CLIFF ST","m":"Coraopolis","u":"L","o":"individual","sf":12500,"v":18700}},{"type":"Feature","geometry":{"type":"Point","coordinates":[-80.1542,40.50469]},"properties":{"p":"0341L00040000000","a":"FERNHURST AVE","m":"Coraopolis","u":"L","o":"individual","sf":6500,"v":2100}},{"type":"Feature","geometry":{"type":"Point","coordinates":[-80.15413,40.50618]},"properties":{"p":"0341L00064000000","a":"EUCLID AVE","m":"Coraopolis","u":"L","o":"corp","sf":6710,"v":2100}},{"type":"Feature","geometry":{"type":"Point","coordinates":[-80.15433,40.50619]},"properties":{"p":"0341L00066000000","a":"EUCLID AVE","m":"Coraopolis","u":"L","o":"corp","sf":8000,"v":18300}},{"type":"Feature","geometry":{"type":"Point","coordinates":[-80.153,40.50973]},"properties":{"p":"0341D00209000000","a":"VINE ST","m":"Coraopolis","u":"L","o":"individual","sf":1222,"v":500}},{"type":"Feature","geometry":{"type":"Point","coordinates":[-80.15393,40.50949]},"properties":{"p":"0341D00217000000","a":"VINE ST","m":"Coraopolis","u":"L","o":"individual","sf":7768,"v":16300}},{"type":"Feature","geometry":{"type":"Point","coordinates":[-80.15383,40.51]},"properties":{"p":"0341D00255000000","a":"VINE ST","m":"Coraopolis","u":"L","o":"individual","sf":3359,"v":1100}},{"type":"Feature","geometry":{"type":"Point","coordinates":[-80.15442,40.50602]},"properties":{"p":"0341L00068000000","a":"EUCLID AVE","m":"Coraopolis","u":"L","o":"corp","sf":4455,"v":1400}},{"type":"Feature","geometry":{"type":"Point","coordinates":[-80.15446,40.50582]},"properties":{"p":"0341L00070000000","a":"EUCLID AVE","m":"Coraopolis","u":"L","o":"corp","sf":4129,"v":1300}},{"type":"Feature","geometry":{"type":"Point","coordinates":[-80.15452,40.5055]},"properties":{"p":"0341L00074000000","a":"EUCLID AVE","m":"Coraopolis","u":"L","o":"corp","sf":4509,"v":1500}},{"type":"Feature","geometry":{"type":"Point","coordinates":[-80.15459,40.50537]},"properties":{"p":"0341L00076000000","a":"EUCLID AVE","m":"Coraopolis","u":"L","o":"corp","sf":4698,"v":1500}},{"type":"Feature","geometry":{"type":"Point","coordinates":[-80.15477,40.50531]},"properties":{"p":"0341L00078000000","a":"EUCLID AVE","m":"Coraopolis","u":"L","o":"corp","sf":4887,"v":1600}},{"type":"Feature","geometry":{"type":"Point","coordinates":[-80.15378,40.50853]},"properties":{"p":"0341H00291000000","a":"BUCKINGHAM PL","m":"Coraopolis","u":"L","o":"individual","sf":8902,"v":9400}},{"type":"Feature","geometry":{"type":"Point","coordinates":[-80.15391,40.50705]},"properties":{"p":"0341H00335000000","a":"1845 DEVONSHIRE RD","m":"Coraopolis","u":"L","o":"individual","sf":4073,"v":1300}},{"type":"Feature","geometry":{"type":"Point","coordinates":[-80.15402,40.50513]},"properties":{"p":"0341M00044000000","a":"SHADY PL","m":"Coraopolis","u":"L","o":"individual","sf":5850,"v":1900}},{"type":"Feature","geometry":{"type":"Point","coordinates":[-80.15377,40.50509]},"properties":{"p":"0341M00046000000","a":"SHADY PL","m":"Coraopolis","u":"L","o":"corp","sf":11700,"v":1000}},{"type":"Feature","geometry":{"type":"Point","coordinates":[-80.15329,40.50618]},"properties":{"p":"0341M00060000000","a":"EUCLID AVE","m":"Coraopolis","u":"L","o":"individual","sf":9005,"v":2700}},{"type":"Feature","geometry":{"type":"Point","coordinates":[-80.15345,40.50601]},"properties":{"p":"0341M00062000000","a":"CLIFF ST","m":"Coraopolis","u":"L","o":"individual","sf":4862,"v":1600}},{"type":"Feature","geometry":{"type":"Point","coordinates":[-80.15402,40.50558]},"properties":{"p":"0341M00072000000","a":"HOWARD ST","m":"Coraopolis","u":"L","o":"individual","sf":19895,"v":6100}},{"type":"Feature","geometry":{"type":"Point","coordinates":[-80.15378,40.506]},"properties":{"p":"0341M00082000000","a":"EUCLID AVE","m":"Coraopolis","u":"L","o":"individual","sf":3904,"v":1300}},{"type":"Feature","geometry":{"type":"Point","coordinates":[-80.15399,40.50627]},"properties":{"p":"0341M00086000000","a":"EUCLID AVE","m":"Coraopolis","u":"L","o":"individual","sf":4630,"v":1500}},{"type":"Feature","geometry":{"type":"Point","coordinates":[-80.15547,40.50997]},"properties":{"p":"0341C00202000000","a":"HILAND AVE","m":"Coraopolis","u":"L","o":"individual","sf":4089,"v":14500}},{"type":"Feature","geometry":{"type":"Point","coordinates":[-80.14548,40.50521]},"properties":{"p":"0272K00020000000","a":"STATE AVE","m":"Moon","u":"L","o":"individual","sf":244,"v":200}},{"type":"Feature","geometry":{"type":"Point","coordinates":[-80.14547,40.50495]},"properties":{"p":"0272K00024000000","a":"STATE AVE","m":"Moon","u":"L","o":"individual","sf":10253,"v":3200}},{"type":"Feature","geometry":{"type":"Point","coordinates":[-80.14555,40.50316]},"properties":{"p":"0272N00088000000","a":"MONTOUR RD","m":"Moon","u":"L","o":"individual","sf":185844,"v":16600}},{"type":"Feature","geometry":{"type":"Point","coordinates":[-80.15611,40.49623]},"properties":{"p":"0340L00052000000","a":"MONTOUR RD","m":"Moon","u":"L","o":"corp","sf":239580,"v":6300}},{"type":"Feature","geometry":{"type":"Point","coordinates":[-80.15513,40.49494]},"properties":{"p":"0340L00075000000","a":"MONTOUR TRL","m":"Moon","u":"L","o":"corp","sf":131116,"v":113000}},{"type":"Feature","geometry":{"type":"Point","coordinates":[-80.15841,40.50531]},"properties":{"p":"0341K00008000000","a":"1880 ANDERSON AVE","m":"Moon","u":"L","o":"individual","sf":17996,"v":5500}},{"type":"Feature","geometry":{"type":"Point","coordinates":[-80.14708,40.50389]},"properties":{"p":"0272N00145000000","a":"CARINA LN","m":"Moon","u":"L","o":"individual","sf":174240,"v":33500}},{"type":"Feature","geometry":{"type":"Point","coordinates":[-80.14962,40.50308]},"properties":{"p":"0272N00266000000","a":"BARONE DR","m":"Moon","u":"L","o":"individual","sf":17925,"v":19200}},{"type":"Feature","geometry":{"type":"Point","coordinates":[-80.14942,40.50303]},"properties":{"p":"0272N00268000000","a":"BARONE DR","m":"Moon","u":"L","o":"individual","sf":18660,"v":5700}},{"type":"Feature","geometry":{"type":"Point","coordinates":[-80.15723,40.50492]},"properties":{"p":"0341L00277000000","a":"MONTOUR ST EXT","m":"Moon","u":"L","o":"corp","sf":53143,"v":22400}},{"type":"Feature","geometry":{"type":"Point","coordinates":[-80.1576,40.50424]},"properties":{"p":"0341L00290000000","a":"MONTOUR ST EXT","m":"Moon","u":"L","o":"individual","sf":15010,"v":18900}},{"type":"Feature","geometry":{"type":"Point","coordinates":[-80.15986,40.4919]},"properties":{"p":"0340P00153000000","a":"2302 MYRTLE RD","m":"Moon","u":"L","o":"individual","sf":29185,"v":46900}},{"type":"Feature","geometry":{"type":"Point","coordinates":[-80.1537,40.50406]},"properties":{"p":"0341M00010000000","a":"FERNHURST AVE","m":"Moon","u":"L","o":"corp","sf":25228,"v":19800}},{"type":"Feature","geometry":{"type":"Point","coordinates":[-80.15621,40.50406]},"properties":{"p":"0341R00346000000","a":"BEECHFORD AVE","m":"Moon","u":"L","o":"individual","sf":3750,"v":1200}},{"type":"Feature","geometry":{"type":"Point","coordinates":[-80.15709,40.50388]},"properties":{"p":"0341R00355000000","a":"BEECHFORD AVE","m":"Moon","u":"L","o":"individual","sf":7050,"v":2200}},{"type":"Feature","geometry":{"type":"Point","coordinates":[-80.15968,40.49141]},"properties":{"p":"0339B00201000000","a":"2302 MYRTLE DR","m":"Moon","u":"L","o":"individual","sf":66211,"v":50000}},{"type":"Feature","geometry":{"type":"Point","coordinates":[-80.15684,40.4939]},"properties":{"p":"0340J00021000000","a":"HASSAM RD","m":"Moon","u":"L","o":"corp","sf":2026838,"v":172400}},{"type":"Feature","geometry":{"type":"Point","coordinates":[-80.15288,40.49301]},"properties":{"p":"0339D00150000000","a":"HASSAM RD","m":"Moon","u":"L","o":"corp","sf":632927,"v":140400}},{"type":"Feature","geometry":{"type":"Point","coordinates":[-80.14678,40.50507]},"properties":{"p":"0272J00227000000","a":"2510 STATE AVE","m":"Moon","u":"L","o":"individual","sf":6926,"v":2200}},{"type":"Feature","geometry":{"type":"Point","coordinates":[-80.14664,40.50506]},"properties":{"p":"0272J00234000000","a":"2516 STATE AVE","m":"Moon","u":"L","o":"individual","sf":3446,"v":1100}},{"type":"Feature","geometry":{"type":"Point","coordinates":[-80.14684,40.50454]},"properties":{"p":"0272J00251000000","a":"2614 CARINA LN","m":"Moon","u":"L","o":"individual","sf":15731,"v":4800}},{"type":"Feature","geometry":{"type":"Point","coordinates":[-80.15212,40.50387]},"properties":{"p":"0341S00257000000","a":"GLENBROOK AVE","m":"Moon","u":"L","o":"individual","sf":11723,"v":18600}},{"type":"Feature","geometry":{"type":"Point","coordinates":[-80.15159,40.50371]},"properties":{"p":"0341S00261000000","a":"GLENBROOK AVE","m":"Moon","u":"L","o":"individual","sf":16850,"v":19100}},{"type":"Feature","geometry":{"type":"Point","coordinates":[-80.14575,40.50467]},"properties":{"p":"0272J00301000000","a":"EWING ST","m":"Moon","u":"L","o":"individual","sf":18656,"v":19200}},{"type":"Feature","geometry":{"type":"Point","coordinates":[-80.15642,40.50486]},"properties":{"p":"0341L00156000000","a":"BEECHFORD AVE","m":"Moon","u":"L","o":"individual","sf":6125,"v":18100}},{"type":"Feature","geometry":{"type":"Point","coordinates":[-80.15676,40.50438]},"properties":{"p":"0341L00164000000","a":"BEECHFORD AVE","m":"Moon","u":"L","o":"individual","sf":6825,"v":2100}},{"type":"Feature","geometry":{"type":"Point","coordinates":[-80.15644,40.50372]},"properties":{"p":"0341R00336000000","a":"BEECHFORD AVE","m":"Moon","u":"L","o":"individual","sf":7500,"v":2400}},{"type":"Feature","geometry":{"type":"Point","coordinates":[-80.15472,40.49649]},"properties":{"p":"0340G00021000000","a":"HASSAM RD","m":"Moon","u":"L","o":"corp","sf":130680,"v":112900}},{"type":"Feature","geometry":{"type":"Point","coordinates":[-80.15582,40.49915]},"properties":{"p":"0340G00114000000","a":"MONTOUR R/R","m":"Moon","u":"L","o":"corp","sf":1306800,"v":155900}},{"type":"Feature","geometry":{"type":"Point","coordinates":[-80.15826,40.50397]},"properties":{"p":"0341P00339000000","a":"ANDERSON AVE","m":"Moon","u":"L","o":"individual","sf":5977,"v":1900}},{"type":"Feature","geometry":{"type":"Point","coordinates":[-80.14761,40.50565]},"properties":{"p":"0272J00173000000","a":"605 CORNELL ST","m":"Moon","u":"L","o":"individual","sf":6551,"v":2100}},{"type":"Feature","geometry":{"type":"Point","coordinates":[-80.14999,40.50254]},"properties":{"p":"0272N00380000000","a":"GLENBROOK AVE","m":"Moon","u":"L","o":"individual","sf":8191,"v":2600}},{"type":"Feature","geometry":{"type":"Point","coordinates":[-80.15,40.5022]},"properties":{"p":"0272N00382000000","a":"GLENBROOK AVE","m":"Moon","u":"L","o":"individual","sf":39127,"v":11800}},{"type":"Feature","geometry":{"type":"Point","coordinates":[-80.15917,40.50489]},"properties":{"p":"0341K00052000000","a":"ROSEDALE AVE","m":"Moon","u":"L","o":"individual","sf":111078,"v":27700}},{"type":"Feature","geometry":{"type":"Point","coordinates":[-80.15422,40.50426]},"properties":{"p":"0341L00005000000","a":"FERNHURST AVE","m":"Moon","u":"L","o":"individual","sf":8168,"v":2600}},{"type":"Feature","geometry":{"type":"Point","coordinates":[-80.15537,40.50431]},"properties":{"p":"0341L00018000000","a":"BRYNDALE AVE","m":"Moon","u":"L","o":"individual","sf":15002,"v":18900}},{"type":"Feature","geometry":{"type":"Point","coordinates":[-80.15523,40.50466]},"properties":{"p":"0341L00024000000","a":"BRYNDALE AVE","m":"Moon","u":"L","o":"individual","sf":26022,"v":19900}},{"type":"Feature","geometry":{"type":"Point","coordinates":[-80.15618,40.50412]},"properties":{"p":"0341L00094000000","a":"BEECHFORD AVE","m":"Moon","u":"L","o":"individual","sf":3750,"v":1200}},{"type":"Feature","geometry":{"type":"Point","coordinates":[-80.14552,40.49845]},"properties":{"p":"0271E00190000000","a":"N PETRIE RD","m":"Robinson","u":"L","o":"individual","sf":192753,"v":25000}},{"type":"Feature","geometry":{"type":"Point","coordinates":[-80.14498,40.50996]},"properties":{"p":"0272B00264000000","a":"LAUREL AVE","m":"Robinson","u":"L","o":"individual","sf":10000,"v":17900}},{"type":"Feature","geometry":{"type":"Point","coordinates":[-80.14464,40.5098]},"properties":{"p":"0272B00269000000","a":"LAUREL AVE","m":"Robinson","u":"L","o":"individual","sf":5000,"v":18500}},{"type":"Feature","geometry":{"type":"Point","coordinates":[-80.14418,40.50957]},"properties":{"p":"0272B00274000000","a":"LAUREL AVE","m":"Robinson","u":"L","o":"corp","sf":10000,"v":23900}},{"type":"Feature","geometry":{"type":"Point","coordinates":[-80.14399,40.50948]},"properties":{"p":"0272B00279000000","a":"LAUREL AVE","m":"Robinson","u":"L","o":"corp","sf":2500,"v":200}},{"type":"Feature","geometry":{"type":"Point","coordinates":[-80.14389,40.50943]},"properties":{"p":"0272B00280000000","a":"ELIZABETH ST","m":"Robinson","u":"L","o":"corp","sf":3750,"v":300}},{"type":"Feature","geometry":{"type":"Point","coordinates":[-80.14348,40.50939]},"properties":{"p":"0272B00282000000","a":"LAUREL AVE","m":"Robinson","u":"L","o":"individual","sf":6323,"v":9900}},{"type":"Feature","geometry":{"type":"Point","coordinates":[-80.14312,40.50928]},"properties":{"p":"0272B00286000000","a":"LAUREL AVE","m":"Robinson","u":"L","o":"individual","sf":11846,"v":25900}},{"type":"Feature","geometry":{"type":"Point","coordinates":[-80.14281,40.50907]},"properties":{"p":"0272B00291000000","a":"LAUREL AVE","m":"Robinson","u":"L","o":"individual","sf":1138,"v":100}},{"type":"Feature","geometry":{"type":"Point","coordinates":[-80.15284,40.49584]},"properties":{"p":"0340M00331000000","a":"COKETOWN RD","m":"Robinson","u":"L","o":"individual","sf":136343,"v":37500}},{"type":"Feature","geometry":{"type":"Point","coordinates":[-80.14306,40.5088]},"properties":{"p":"0272F00167000000","a":"GRANDVIEW AVE","m":"Robinson","u":"L","o":"individual","sf":19777,"v":26700}},{"type":"Feature","geometry":{"type":"Point","coordinates":[-80.14387,40.50885]},"properties":{"p":"0272B00401000000","a":"GRANDVIEW AVE","m":"Robinson","u":"L","o":"corp","sf":3525,"v":300}},{"type":"Feature","geometry":{"type":"Point","coordinates":[-80.14065,40.50597]},"properties":{"p":"0272L00062000000","a":"LEWIS AVE","m":"Robinson","u":"L","o":"individual","sf":10329,"v":24200}},{"type":"Feature","geometry":{"type":"Point","coordinates":[-80.14231,40.50988]},"properties":{"p":"0272B00101000000","a":"CONCLIFFE AVE","m":"Robinson","u":"L","o":"individual","sf":34282,"v":28100}},{"type":"Feature","geometry":{"type":"Point","coordinates":[-80.14195,40.49016]},"properties":{"p":"0270B00127000000","a":"JEFF DR","m":"Robinson","u":"L","o":"individual","sf":19092,"v":2700}},{"type":"Feature","geometry":{"type":"Point","coordinates":[-80.14459,40.50873]},"properties":{"p":"0272F00047000000","a":"STATIA ST","m":"Robinson","u":"L","o":"individual","sf":5000,"v":500}},{"type":"Feature","geometry":{"type":"Point","coordinates":[-80.14404,40.50869]},"properties":{"p":"0272F00058000000","a":"1114 GRANDVIEW AVE","m":"Robinson","u":"L","o":"corp","sf":3625,"v":300}},{"type":"Feature","geometry":{"type":"Point","coordinates":[-80.14269,40.49965]},"properties":{"p":"0271B00110000000","a":"S PETRIE RD","m":"Robinson","u":"L","o":"corp","sf":112267,"v":32300}},{"type":"Feature","geometry":{"type":"Point","coordinates":[-80.14572,40.50838]},"properties":{"p":"0272F00017000000","a":"STATIA ST","m":"Robinson","u":"L","o":"individual","sf":5000,"v":4900}},{"type":"Feature","geometry":{"type":"Point","coordinates":[-80.14581,40.5083]},"properties":{"p":"0272F00018000000","a":"STATIA ST","m":"Robinson","u":"L","o":"individual","sf":2500,"v":200}},{"type":"Feature","geometry":{"type":"Point","coordinates":[-80.1456,40.50797]},"properties":{"p":"0272F00027000000","a":"STATIA ST","m":"Robinson","u":"L","o":"corp","sf":3594,"v":300}},{"type":"Feature","geometry":{"type":"Point","coordinates":[-80.14532,40.50808]},"properties":{"p":"0272F00032000000","a":"1135 STATIA ST","m":"Robinson","u":"L","o":"individual","sf":2500,"v":200}},{"type":"Feature","geometry":{"type":"Point","coordinates":[-80.14518,40.50821]},"properties":{"p":"0272F00034000000","a":"1135 STATIA ST","m":"Robinson","u":"L","o":"individual","sf":5000,"v":5400}},{"type":"Feature","geometry":{"type":"Point","coordinates":[-80.14491,40.50845]},"properties":{"p":"0272F00040000000","a":"STATIA ST","m":"Robinson","u":"L","o":"individual","sf":2500,"v":200}},{"type":"Feature","geometry":{"type":"Point","coordinates":[-80.14558,40.5098]},"properties":{"p":"0272B00345000000","a":"LAUREL AVE","m":"Robinson","u":"L","o":"corp","sf":2500,"v":200}},{"type":"Feature","geometry":{"type":"Point","coordinates":[-80.14572,40.50987]},"properties":{"p":"0272B00347000000","a":"LAUREL AVE","m":"Robinson","u":"L","o":"individual","sf":2500,"v":200}},{"type":"Feature","geometry":{"type":"Point","coordinates":[-80.14582,40.50992]},"properties":{"p":"0272B00349000000","a":"LAUREL AVE","m":"Robinson","u":"L","o":"corp","sf":5000,"v":18500}},{"type":"Feature","geometry":{"type":"Point","coordinates":[-80.14592,40.50998]},"properties":{"p":"0272B00350000000","a":"LAUREL AVE","m":"Robinson","u":"L","o":"individual","sf":2500,"v":200}},{"type":"Feature","geometry":{"type":"Point","coordinates":[-80.14507,40.50927]},"properties":{"p":"0272B00363000000","a":"LENORA AVE","m":"Robinson","u":"L","o":"individual","sf":3006,"v":300}},{"type":"Feature","geometry":{"type":"Point","coordinates":[-80.14522,40.50913]},"properties":{"p":"0272B00365000000","a":"LENORA AVE","m":"Robinson","u":"L","o":"individual","sf":1857,"v":200}},{"type":"Feature","geometry":{"type":"Point","coordinates":[-80.14537,40.50901]},"properties":{"p":"0272B00368000000","a":"LENORA AVE","m":"Robinson","u":"L","o":"individual","sf":5555,"v":19100}},{"type":"Feature","geometry":{"type":"Point","coordinates":[-80.14495,40.50911]},"properties":{"p":"0272B00376000000","a":"STATIA ST","m":"Robinson","u":"L","o":"individual","sf":6797,"v":20400}},{"type":"Feature","geometry":{"type":"Point","coordinates":[-80.14465,40.50905]},"properties":{"p":"0272B00384000000","a":"STATIA ST","m":"Robinson","u":"L","o":"individual","sf":5084,"v":18600}},{"type":"Feature","geometry":{"type":"Point","coordinates":[-80.14479,40.50904]},"properties":{"p":"0272B00385000000","a":"STATIA ST","m":"Robinson","u":"L","o":"individual","sf":2525,"v":200}},{"type":"Feature","geometry":{"type":"Point","coordinates":[-80.14441,40.5088]},"properties":{"p":"0272B00390000000","a":"STATIA ST","m":"Robinson","u":"L","o":"individual","sf":11220,"v":25200}},{"type":"Feature","geometry":{"type":"Point","coordinates":[-80.14893,40.49403]},"properties":{"p":"0271N00115000000","a":"S PETRIE RD","m":"Robinson","u":"L","o":"individual","sf":1046790,"v":24500}},{"type":"Feature","geometry":{"type":"Point","coordinates":[-80.14135,40.49201]},"properties":{"p":"0271P00061000000","a":"S PETRIE RD","m":"Robinson","u":"L","o":"individual","sf":3607,"v":400}},{"type":"Feature","geometry":{"type":"Point","coordinates":[-80.14635,40.49132]},"properties":{"p":"0270A00125000000","a":"EWINGS MILL RD","m":"Robinson","u":"L","o":"corp","sf":191228,"v":22000}},{"type":"Feature","geometry":{"type":"Point","coordinates":[-80.14616,40.50846]},"properties":{"p":"0272E00034000000","a":"LENORA AVE","m":"Robinson","u":"L","o":"individual","sf":21624,"v":26900}},{"type":"Feature","geometry":{"type":"Point","coordinates":[-80.14211,40.50942]},"properties":{"p":"0272B00190000000","a":"ELIZABETH ST","m":"Robinson","u":"L","o":"corp","sf":2788,"v":300}},{"type":"Feature","geometry":{"type":"Point","coordinates":[-80.14127,40.49043]},"properties":{"p":"0270C00121000100","a":"20 -24 JEFF DR","m":"Robinson","u":"L","o":"individual","sf":5600,"v":800}},{"type":"Feature","geometry":{"type":"Point","coordinates":[-80.14365,40.50968]},"properties":{"p":"0272B00219000000","a":"ELIZABETH ST","m":"Robinson","u":"L","o":"individual","sf":4924,"v":400}},{"type":"Feature","geometry":{"type":"Point","coordinates":[-80.14376,40.50974]},"properties":{"p":"0272B00220000000","a":"ELIZABETH ST","m":"Robinson","u":"L","o":"individual","sf":2500,"v":200}},{"type":"Feature","geometry":{"type":"Point","coordinates":[-80.14384,40.50978]},"properties":{"p":"0272B00221000000","a":"ELIZABETH ST","m":"Robinson","u":"L","o":"individual","sf":2500,"v":200}},{"type":"Feature","geometry":{"type":"Point","coordinates":[-80.14391,40.50981]},"properties":{"p":"0272B00222000000","a":"ELIZABETH ST","m":"Robinson","u":"L","o":"individual","sf":2500,"v":200}},{"type":"Feature","geometry":{"type":"Point","coordinates":[-80.14399,40.50985]},"properties":{"p":"0272B00223000000","a":"ELIZABETH ST","m":"Robinson","u":"L","o":"individual","sf":2500,"v":200}},{"type":"Feature","geometry":{"type":"Point","coordinates":[-80.14418,40.50994]},"properties":{"p":"0272B00229000000","a":"ELIZABETH ST","m":"Robinson","u":"L","o":"individual","sf":10000,"v":900}},{"type":"Feature","geometry":{"type":"Point","coordinates":[-80.14273,40.50904]},"properties":{"p":"0272B00292000000","a":"LAUREL AVE","m":"Robinson","u":"L","o":"individual","sf":1067,"v":100}},{"type":"Feature","geometry":{"type":"Point","coordinates":[-80.14247,40.50915]},"properties":{"p":"0272B00293000000","a":"LAUREL AVE","m":"Robinson","u":"L","o":"individual","sf":8336,"v":22100}},{"type":"Feature","geometry":{"type":"Point","coordinates":[-80.1445,40.50927]},"properties":{"p":"0272B00325000000","a":"LAUREL AVE","m":"Robinson","u":"L","o":"corp","sf":2500,"v":200}},{"type":"Feature","geometry":{"type":"Point","coordinates":[-80.1446,40.50932]},"properties":{"p":"0272B00326000000","a":"LAUREL AVE","m":"Robinson","u":"L","o":"corp","sf":2500,"v":200}},{"type":"Feature","geometry":{"type":"Point","coordinates":[-80.14491,40.50948]},"properties":{"p":"0272B00332000000","a":"LAUREL AVE","m":"Robinson","u":"L","o":"individual","sf":5000,"v":18500}},{"type":"Feature","geometry":{"type":"Point","coordinates":[-80.14502,40.50953]},"properties":{"p":"0272B00333000000","a":"LAUREL AVE","m":"Robinson","u":"L","o":"individual","sf":2500,"v":200}},{"type":"Feature","geometry":{"type":"Point","coordinates":[-80.14526,40.50965]},"properties":{"p":"0272B00340000000","a":"LAUREL AVE","m":"Robinson","u":"L","o":"individual","sf":5000,"v":18500}},{"type":"Feature","geometry":{"type":"Point","coordinates":[-80.14537,40.5097]},"properties":{"p":"0272B00341000000","a":"LAUREL AVE","m":"Robinson","u":"L","o":"individual","sf":2500,"v":200}},{"type":"Feature","geometry":{"type":"Point","coordinates":[-80.14544,40.50974]},"properties":{"p":"0272B00342000000","a":"LAUREL AVE","m":"Robinson","u":"L","o":"individual","sf":2500,"v":200}},{"type":"Feature","geometry":{"type":"Point","coordinates":[-80.14551,40.50977]},"properties":{"p":"0272B00343000000","a":"LAUREL AVE","m":"Robinson","u":"L","o":"individual","sf":2500,"v":200}},{"type":"Feature","geometry":{"type":"Point","coordinates":[-80.1433,40.50997]},"properties":{"p":"0272B00172000000","a":"ELIZABETH ST","m":"Robinson","u":"L","o":"individual","sf":3700,"v":300}},{"type":"Feature","geometry":{"type":"Point","coordinates":[-80.14292,40.50979]},"properties":{"p":"0272B00177000000","a":"ELIZABETH ST","m":"Robinson","u":"L","o":"individual","sf":2569,"v":15900}},{"type":"Feature","geometry":{"type":"Point","coordinates":[-80.14662,40.4922]},"properties":{"p":"0271P00282000000","a":"94 S PETRIE RD","m":"Robinson","u":"L","o":"individual","sf":278784,"v":9000}},{"type":"Feature","geometry":{"type":"Point","coordinates":[-80.14335,40.49026]},"properties":{"p":"0270B00150000000","a":"AMY JO LN","m":"Robinson","u":"L","o":"individual","sf":19471,"v":27000}},{"type":"Feature","geometry":{"type":"Point","coordinates":[-80.14291,40.49038]},"properties":{"p":"0270B00152000000","a":"AMY JO LN","m":"Robinson","u":"L","o":"individual","sf":9670,"v":45200}},{"type":"Feature","geometry":{"type":"Point","coordinates":[-80.15172,40.49717]},"properties":{"p":"0340H00120000000","a":"N PETRIE RD","m":"Robinson","u":"L","o":"corp","sf":56759,"v":29000}},{"type":"Feature","geometry":{"type":"Point","coordinates":[-80.14001,40.50369]},"properties":{"p":"0272R00130000000","a":"CORAOPOLIS RD","m":"Robinson","u":"L","o":"individual","sf":2625,"v":200}},{"type":"Feature","geometry":{"type":"Point","coordinates":[-80.14869,40.50248]},"properties":{"p":"0272N00344000000","a":"CARINA LN","m":"Moon","u":"L","o":"individual","sf":227645,"v":5200}},{"type":"Feature","geometry":{"type":"Point","coordinates":[-80.15683,40.50324]},"properties":{"p":"0341R00322000000","a":"BEECHFORD AVE","m":"Moon","u":"L","o":"individual","sf":7034,"v":2200}},{"type":"Feature","geometry":{"type":"Point","coordinates":[-80.14478,40.5094]},"properties":{"p":"0272B00329000000","a":"LAUREL AVE","m":"Robinson","u":"L","o":"individual","sf":5000,"v":1300}},{"type":"Feature","geometry":{"type":"Point","coordinates":[-80.14527,40.50813]},"properties":{"p":"0272F00033000000","a":"1135 STATIA ST","m":"Robinson","u":"L","o":"individual","sf":2500,"v":200}},{"type":"Feature","geometry":{"type":"Point","coordinates":[-80.14452,40.50974]},"properties":{"p":"0272B00271000000","a":"LAUREL AVE","m":"Robinson","u":"L","o":"individual","sf":2500,"v":200}},{"type":"Feature","geometry":{"type":"Point","coordinates":[-80.15278,40.50856]},"properties":{"p":"0341H00252000000","a":"1918 CLIFF ST","m":"Coraopolis","u":"L","o":"individual","sf":26820,"v":20000}},{"type":"Feature","geometry":{"type":"Point","coordinates":[-80.15868,40.50711]},"properties":{"p":"0341F00009000000","a":"BROOK ST","m":"Coraopolis","u":"L","o":"corp","sf":522720,"v":42500}},{"type":"Feature","geometry":{"type":"Point","coordinates":[-80.15557,40.50998]},"properties":{"p":"0341C00201000000","a":"HILAND AVE","m":"Coraopolis","u":"L","o":"individual","sf":1960,"v":700}},{"type":"Feature","geometry":{"type":"Point","coordinates":[-80.14365,40.49125]},"properties":{"p":"0270B00050000000","a":"BURATTI DR","m":"Robinson","u":"L","o":"individual","sf":86684,"v":33600}},{"type":"Feature","geometry":{"type":"Point","coordinates":[-80.15148,40.49615]},"properties":{"p":"0340M00135000000","a":"N PETRIE RD","m":"Robinson","u":"L","o":"individual","sf":92783,"v":59300}},{"type":"Feature","geometry":{"type":"Point","coordinates":[-80.14467,40.50935]},"properties":{"p":"0272B00327000000","a":"LAUREL AVE","m":"Robinson","u":"L","o":"corp","sf":2500,"v":200}},{"type":"Feature","geometry":{"type":"Point","coordinates":[-80.15224,40.50633]},"properties":{"p":"0341M00200000000","a":"WELLESLEY AVE","m":"Coraopolis","u":"L","o":"individual","sf":5193,"v":1700}},{"type":"Feature","geometry":{"type":"Point","coordinates":[-80.15357,40.50965]},"properties":{"p":"0341D00214000000","a":"VINE ST","m":"Coraopolis","u":"L","o":"individual","sf":5806,"v":16100}},{"type":"Feature","geometry":{"type":"Point","coordinates":[-80.14441,40.50968]},"properties":{"p":"0272B00272000000","a":"LAUREL AVE","m":"Robinson","u":"L","o":"individual","sf":5000,"v":18500}},{"type":"Feature","geometry":{"type":"Point","coordinates":[-80.14565,40.50984]},"properties":{"p":"0272B00346000000","a":"LAUREL AVE","m":"Robinson","u":"L","o":"individual","sf":2500,"v":200}},{"type":"Feature","geometry":{"type":"Point","coordinates":[-80.15349,40.50452]},"properties":{"p":"0341M00036000000","a":"SHADY PL","m":"Coraopolis","u":"L","o":"corp","sf":7800,"v":9300}},{"type":"Feature","geometry":{"type":"Point","coordinates":[-80.15461,40.50575]},"properties":{"p":"0341L00072000000","a":"EUCLID AVE","m":"Coraopolis","u":"L","o":"individual","sf":4325,"v":1400}},{"type":"Feature","geometry":{"type":"Point","coordinates":[-80.14497,40.50839]},"properties":{"p":"0272F00039000000","a":"1135 STATIA ST","m":"Robinson","u":"L","o":"individual","sf":2500,"v":2700}},{"type":"Feature","geometry":{"type":"Point","coordinates":[-80.14552,40.50856]},"properties":{"p":"0272F00012000000","a":"STATIA ST","m":"Robinson","u":"L","o":"individual","sf":3000,"v":300}},{"type":"Feature","geometry":{"type":"Point","coordinates":[-80.14513,40.50958]},"properties":{"p":"0272B00337000000","a":"LAUREL AVE","m":"Robinson","u":"L","o":"individual","sf":5000,"v":18500}},{"type":"Feature","geometry":{"type":"Point","coordinates":[-80.15955,40.49283]},"properties":{"p":"0340P00139000000","a":"2200 ANNA MAE DR","m":"Moon","u":"B","o":"individual","sf":24393,"v":5040}}]}