{"type":"FeatureCollection","features":[{"type":"Feature","geometry":{"type":"Point","coordinates":[-80.14796,40.40003]},"properties":{"p":"0261E00005000000","a":"NOBLESTOWN RD","m":"Collier","u":"C","o":"individual","sf":91470,"v":37400}},{"type":"Feature","geometry":{"type":"Point","coordinates":[-80.14719,40.40404]},"properties":{"p":"0261A00016000000","a":"STONEGATE DR","m":"Collier","u":"L","o":"corp","sf":5745,"v":600}},{"type":"Feature","geometry":{"type":"Point","coordinates":[-80.14116,40.40105]},"properties":{"p":"0261G00029000000","a":"ELWYN AVE","m":"Collier","u":"L","o":"individual","sf":6375,"v":600}},{"type":"Feature","geometry":{"type":"Point","coordinates":[-80.1478,40.40353]},"properties":{"p":"0261A00050000000","a":"STONEGATE DR","m":"Collier","u":"L","o":"individual","sf":5796,"v":500}},{"type":"Feature","geometry":{"type":"Point","coordinates":[-80.14192,40.4023]},"properties":{"p":"0261B00002000000","a":"10 ELWYN AVE","m":"Collier","u":"L","o":"individual","sf":20000,"v":1800}},{"type":"Feature","geometry":{"type":"Point","coordinates":[-80.14663,40.40013]},"properties":{"p":"0261E00003000000","a":"NOBLESTOWN RD","m":"Collier","u":"L","o":"individual","sf":12632,"v":1100}},{"type":"Feature","geometry":{"type":"Point","coordinates":[-80.14177,40.39188]},"properties":{"p":"0260G00007000000","a":"HILLTOP RD","m":"Collier","u":"L","o":"corp","sf":1582535,"v":91000}},{"type":"Feature","geometry":{"type":"Point","coordinates":[-80.14389,40.39736]},"properties":{"p":"0261K00007000000","a":"ELWYN AVE","m":"Collier","u":"L","o":"individual","sf":840,"v":100}},{"type":"Feature","geometry":{"type":"Point","coordinates":[-80.1426,40.40183]},"properties":{"p":"0261F00015000000","a":"WALKER AVE","m":"Collier","u":"L","o":"individual","sf":23352,"v":2100}},{"type":"Feature","geometry":{"type":"Point","coordinates":[-80.1452,40.39917]},"properties":{"p":"0261K00023000000","a":"NOBLESTOWN RD","m":"Collier","u":"L","o":"individual","sf":7699,"v":32800}},{"type":"Feature","geometry":{"type":"Point","coordinates":[-80.14061,40.40184]},"properties":{"p":"0261C00016000000","a":"SUNNYSIDE AVE","m":"Collier","u":"L","o":"individual","sf":7240,"v":700}},{"type":"Feature","geometry":{"type":"Point","coordinates":[-80.146,40.39909]},"properties":{"p":"0261E00001000000","a":"NOBLESTOWN RD","m":"Collier","u":"L","o":"individual","sf":149193,"v":13700}},{"type":"Feature","geometry":{"type":"Point","coordinates":[-80.14671,40.4009]},"properties":{"p":"0261E00030000000","a":"NOBLESTOWN RD","m":"Collier","u":"L","o":"individual","sf":540,"v":100}},{"type":"Feature","geometry":{"type":"Point","coordinates":[-80.14109,40.39722]},"properties":{"p":"0261L00010000000","a":"SUBURBAN AVE","m":"Collier","u":"L","o":"individual","sf":8759,"v":800}},{"type":"Feature","geometry":{"type":"Point","coordinates":[-80.14437,40.39994]},"properties":{"p":"0261F00006000000","a":"NOBLESTOWN RD","m":"Collier","u":"L","o":"corp","sf":174240,"v":54900}},{"type":"Feature","geometry":{"type":"Point","coordinates":[-80.14173,40.39691]},"properties":{"p":"0261K00001000000","a":"SUNNYSIDE AVE","m":"Collier","u":"L","o":"individual","sf":33600,"v":41900}},{"type":"Feature","geometry":{"type":"Point","coordinates":[-80.14135,40.39803]},"properties":{"p":"0261L00017000000","a":"47 SUNNYSIDE AVE","m":"Collier","u":"L","o":"individual","sf":11970,"v":35800}},{"type":"Feature","geometry":{"type":"Point","coordinates":[-80.14115,40.40363]},"properties":{"p":"0261C00003000000","a":"1 A ELWYN AVE","m":"Collier","u":"L","o":"individual","sf":68912,"v":6300}},{"type":"Feature","geometry":{"type":"Point","coordinates":[-80.14064,40.40146]},"properties":{"p":"0261G00036000000","a":"SUNNYSIDE AVE","m":"Collier","u":"L","o":"individual","sf":6322,"v":600}},{"type":"Feature","geometry":{"type":"Point","coordinates":[-80.14626,40.4019]},"properties":{"p":"0261E00024000000","a":"TOMEY RD","m":"Collier","u":"L","o":"individual","sf":2550,"v":200}},{"type":"Feature","geometry":{"type":"Point","coordinates":[-80.15877,40.39177]},"properties":{"p":"0329F00003000000","a":"THOMS RUN RD","m":"Collier","u":"L","o":"individual","sf":9236,"v":800}},{"type":"Feature","geometry":{"type":"Point","coordinates":[-80.14362,40.39484]},"properties":{"p":"0261P00003000000","a":"3 ELM AVE","m":"Collier","u":"L","o":"individual","sf":17782,"v":40500}},{"type":"Feature","geometry":{"type":"Point","coordinates":[-80.14018,40.40642]},"properties":{"p":"0262L00022000000","a":"MCMICHAEL RD","m":"Collier","u":"L","o":"individual","sf":12833,"v":40000}},{"type":"Feature","geometry":{"type":"Point","coordinates":[-80.14134,40.40769]},"properties":{"p":"0262L00023000000","a":"MCMICHAEL RD","m":"Collier","u":"L","o":"individual","sf":12600,"v":1100}},{"type":"Feature","geometry":{"type":"Point","coordinates":[-80.15892,40.40599]},"properties":{"p":"0331P00002000000","a":"GREGG STATION RD","m":"Collier","u":"L","o":"corp","sf":49658,"v":43500}},{"type":"Feature","geometry":{"type":"Point","coordinates":[-80.15,40.3953]},"properties":{"p":"0261N00005000000","a":"HILLTOP RD","m":"Collier","u":"L","o":"corp","sf":3804173,"v":215800}},{"type":"Feature","geometry":{"type":"Point","coordinates":[-80.14175,40.40701]},"properties":{"p":"0262L00007000000","a":"51 MCMICHAEL RD","m":"Collier","u":"L","o":"individual","sf":85173,"v":46700}},{"type":"Feature","geometry":{"type":"Point","coordinates":[-80.14181,40.40734]},"properties":{"p":"0262L00008000000","a":"51 MCMICHAEL RD","m":"Collier","u":"L","o":"individual","sf":68259,"v":20200}},{"type":"Feature","geometry":{"type":"Point","coordinates":[-80.15094,40.40885]},"properties":{"p":"0331M00004000000","a":"1246 NOBLESTOWN RD","m":"Collier","u":"L","o":"individual","sf":20691,"v":40700}},{"type":"Feature","geometry":{"type":"Point","coordinates":[-80.15895,40.39055]},"properties":{"p":"0329F00005000000","a":"THOMS RUN RD","m":"Collier","u":"L","o":"individual","sf":10324,"v":900}},{"type":"Feature","geometry":{"type":"Point","coordinates":[-80.15871,40.39017]},"properties":{"p":"0329F00006000000","a":"THOMS RUN RD","m":"Collier","u":"L","o":"individual","sf":10890,"v":1000}},{"type":"Feature","geometry":{"type":"Point","coordinates":[-80.15929,40.39044]},"properties":{"p":"0329F00009000000","a":"WALNUT ST","m":"Collier","u":"L","o":"individual","sf":13163,"v":1200}},{"type":"Feature","geometry":{"type":"Point","coordinates":[-80.14401,40.39572]},"properties":{"p":"0261P00015000000","a":"ELM AVE","m":"Collier","u":"L","o":"individual","sf":7884,"v":700}},{"type":"Feature","geometry":{"type":"Point","coordinates":[-80.1447,40.40989]},"properties":{"p":"0262F00020000000","a":"MCMICHAEL RD","m":"Collier","u":"L","o":"individual","sf":1171376,"v":26900}},{"type":"Feature","geometry":{"type":"Point","coordinates":[-80.14119,40.40418]},"properties":{"p":"0262R00002000000","a":"MCMICHAEL RD","m":"Collier","u":"L","o":"individual","sf":200,"v":300}},{"type":"Feature","geometry":{"type":"Point","coordinates":[-80.14041,40.40644]},"properties":{"p":"0262R00008000000","a":"MCMICHAEL RD","m":"Collier","u":"L","o":"individual","sf":43908,"v":42900}},{"type":"Feature","geometry":{"type":"Point","coordinates":[-80.14183,40.40482]},"properties":{"p":"0262R00010000000","a":"MCMICHAEL RD","m":"Collier","u":"L","o":"individual","sf":83374,"v":26600}},{"type":"Feature","geometry":{"type":"Point","coordinates":[-80.14187,40.39661]},"properties":{"p":"0261P00036000000","a":"SUNNYSIDE AVE","m":"Collier","u":"L","o":"individual","sf":6720,"v":600}},{"type":"Feature","geometry":{"type":"Point","coordinates":[-80.14981,40.39127]},"properties":{"p":"0329H00005000000","a":"PUBLIC RD","m":"Collier","u":"L","o":"individual","sf":23086,"v":41000}},{"type":"Feature","geometry":{"type":"Point","coordinates":[-80.15372,40.39075]},"properties":{"p":"0329H00008000000","a":"HILLTOP RD","m":"Collier","u":"L","o":"corp","sf":28209,"v":0}},{"type":"Feature","geometry":{"type":"Point","coordinates":[-80.15384,40.39414]},"properties":{"p":"0329H00010000000","a":"THOMS RUN & OAKDALE RD","m":"Collier","u":"L","o":"corp","sf":1205153,"v":55300}},{"type":"Feature","geometry":{"type":"Point","coordinates":[-80.15128,40.40285]},"properties":{"p":"0331S00008000000","a":"OLD NOBLESTOWN RD","m":"Collier","u":"L","o":"individual","sf":21780,"v":4600}},{"type":"Feature","geometry":{"type":"Point","coordinates":[-80.1582,40.40418]},"properties":{"p":"0330B00003000000","a":"NOBLESTOWN RD","m":"Collier","u":"L","o":"corp","sf":219542,"v":12600}},{"type":"Feature","geometry":{"type":"Point","coordinates":[-80.15461,40.40357]},"properties":{"p":"0330C00003000000","a":"2000 NIKE SITE RD","m":"Collier","u":"L","o":"individual","sf":240016,"v":7600}},{"type":"Feature","geometry":{"type":"Point","coordinates":[-80.15952,40.40985]},"properties":{"p":"0331F00005000000","a":"NOBLESTOWN RD","m":"Collier","u":"L","o":"corp","sf":895005,"v":111600}},{"type":"Feature","geometry":{"type":"Point","coordinates":[-80.14249,40.40546]},"properties":{"p":"0262P00022000000","a":"STONEGATE DR","m":"Collier","u":"L","o":"individual","sf":29751,"v":3000}},{"type":"Feature","geometry":{"type":"Point","coordinates":[-80.14244,40.39574]},"properties":{"p":"0261P00023000000","a":"HOME AVE","m":"Collier","u":"L","o":"individual","sf":9932,"v":900}},{"type":"Feature","geometry":{"type":"Point","coordinates":[-80.14234,40.39485]},"properties":{"p":"0261P00027000000","a":"SUNNYSIDE AVE","m":"Collier","u":"L","o":"individual","sf":185130,"v":55900}},{"type":"Feature","geometry":{"type":"Point","coordinates":[-80.14233,40.39462]},"properties":{"p":"0261P00028000000","a":"SUNNYSIDE AVE","m":"Collier","u":"L","o":"individual","sf":7920,"v":700}},{"type":"Feature","geometry":{"type":"Point","coordinates":[-80.142,40.39462]},"properties":{"p":"0261P00029000000","a":"COLUMBIA AVE","m":"Collier","u":"L","o":"corp","sf":14973,"v":40200}},{"type":"Feature","geometry":{"type":"Point","coordinates":[-80.14194,40.39483]},"properties":{"p":"0261P00030000000","a":"32 COLUMBIA AVE","m":"Collier","u":"L","o":"individual","sf":4847,"v":400}},{"type":"Feature","geometry":{"type":"Point","coordinates":[-80.14166,40.39567]},"properties":{"p":"0261P00033000000","a":"COLUMBIA AVE","m":"Collier","u":"L","o":"individual","sf":10920,"v":1000}},{"type":"Feature","geometry":{"type":"Point","coordinates":[-80.14427,40.40532]},"properties":{"p":"0262P00010000000","a":"DEERBROOK LN","m":"Collier","u":"L","o":"individual","sf":16247,"v":45400}},{"type":"Feature","geometry":{"type":"Point","coordinates":[-80.15219,40.40923]},"properties":{"p":"0331H00003000000","a":"NOBLESTOWN RD","m":"Collier","u":"L","o":"individual","sf":38910,"v":8000}},{"type":"Feature","geometry":{"type":"Point","coordinates":[-80.15187,40.40922]},"properties":{"p":"0331H00009000000","a":"NOBLESTOWN RD","m":"Collier","u":"L","o":"individual","sf":8844,"v":800}},{"type":"Feature","geometry":{"type":"Point","coordinates":[-80.15035,40.40906]},"properties":{"p":"0331H00011000000","a":"NOBLESTOWN RD","m":"Collier","u":"L","o":"individual","sf":57499,"v":44200}},{"type":"Feature","geometry":{"type":"Point","coordinates":[-80.15856,40.40585]},"properties":{"p":"0331P00102000000","a":"GREGG STATION RD","m":"Collier","u":"L","o":"corp","sf":42073,"v":0}},{"type":"Feature","geometry":{"type":"Point","coordinates":[-80.15871,40.40499]},"properties":{"p":"0331P00104000000","a":"GREGG STATION RD","m":"Collier","u":"L","o":"corp","sf":78090,"v":0}},{"type":"Feature","geometry":{"type":"Point","coordinates":[-80.1448,40.39684]},"properties":{"p":"0261P00049000000","a":"32 HOME AVE","m":"Collier","u":"L","o":"individual","sf":7053,"v":600}},{"type":"Feature","geometry":{"type":"Point","coordinates":[-80.15298,40.40387]},"properties":{"p":"0330D00007000000","a":"NOBLESTOWN  RD","m":"Collier","u":"L","o":"corp","sf":54842,"v":43900}},{"type":"Feature","geometry":{"type":"Point","coordinates":[-80.14992,40.40224]},"properties":{"p":"0330D00009000000","a":"OLD NOBLESTOWN RD","m":"Collier","u":"L","o":"individual","sf":15982,"v":1400}},{"type":"Feature","geometry":{"type":"Point","coordinates":[-80.14097,40.39461]},"properties":{"p":"0261R00044000000","a":"COLUMBIA AVE","m":"Collier","u":"L","o":"corp","sf":95396,"v":47700}},{"type":"Feature","geometry":{"type":"Point","coordinates":[-80.15124,40.40582]},"properties":{"p":"0331S00003000000","a":"1167 NOBLESTOWN RD","m":"Collier","u":"L","o":"individual","sf":38028,"v":28000}},{"type":"Feature","geometry":{"type":"Point","coordinates":[-80.14264,40.39682]},"properties":{"p":"0261P00042000000","a":"SUNNYSIDE AVE","m":"Collier","u":"L","o":"individual","sf":6720,"v":600}},{"type":"Feature","geometry":{"type":"Point","coordinates":[-80.15907,40.39214]},"properties":{"p":"0329B00004000000","a":"HILLTOP RD","m":"Collier","u":"L","o":"individual","sf":25227,"v":21200}},{"type":"Feature","geometry":{"type":"Point","coordinates":[-80.1418,40.40258]},"properties":{"p":"0261B00003000000","a":"10 ELWYN AVE","m":"Collier","u":"L","o":"individual","sf":9757,"v":900}},{"type":"Feature","geometry":{"type":"Point","coordinates":[-80.14255,40.39693]},"properties":{"p":"0261P00043000000","a":"SUNNYSIDE AVE","m":"Collier","u":"L","o":"individual","sf":8400,"v":800}},{"type":"Feature","geometry":{"type":"Point","coordinates":[-80.14012,40.39895]},"properties":{"p":"0261L00031000000","a":"COLUMBIA AVE","m":"Collier","u":"L","o":"individual","sf":3060,"v":300}},{"type":"Feature","geometry":{"type":"Point","coordinates":[-80.14772,40.40726]},"properties":{"p":"0262J00171000000","a":"ELEANOR DR","m":"Collier","u":"B","o":"corp","sf":20429,"v":7200}},{"type":"Feature","geometry":{"type":"Point","coordinates":[-80.14759,40.40756]},"properties":{"p":"0262J00173000000","a":"ELEANOR DR","m":"Collier","u":"B","o":"corp","sf":16902,"v":3016}},{"type":"Feature","geometry":{"type":"Point","coordinates":[-80.14719,40.40769]},"properties":{"p":"0262J00175000000","a":"ELEANOR DR","m":"Collier","u":"B","o":"corp","sf":22465,"v":481}},{"type":"Feature","geometry":{"type":"Point","coordinates":[-80.14687,40.40789]},"properties":{"p":"0262J00177000000","a":"ELEANOR DR","m":"Collier","u":"B","o":"corp","sf":23917,"v":3322}},{"type":"Feature","geometry":{"type":"Point","coordinates":[-80.14665,40.40808]},"properties":{"p":"0262J00179000000","a":"ELEANOR DR","m":"Collier","u":"B","o":"corp","sf":21560,"v":7300}},{"type":"Feature","geometry":{"type":"Point","coordinates":[-80.14655,40.40852]},"properties":{"p":"0262J00181000000","a":"ELEANOR DR","m":"Collier","u":"B","o":"corp","sf":21698,"v":7300}},{"type":"Feature","geometry":{"type":"Point","coordinates":[-80.14642,40.40878]},"properties":{"p":"0262J00183000000","a":"ELEANOR DR","m":"Collier","u":"B","o":"corp","sf":26274,"v":7800}},{"type":"Feature","geometry":{"type":"Point","coordinates":[-80.14739,40.40887]},"properties":{"p":"0262J00197000000","a":"ELEANOR DR","m":"Collier","u":"B","o":"corp","sf":26421,"v":7800}},{"type":"Feature","geometry":{"type":"Point","coordinates":[-80.14794,40.40884]},"properties":{"p":"0262J00199000000","a":"ELEANOR DR","m":"Collier","u":"B","o":"corp","sf":26421,"v":7800}},{"type":"Feature","geometry":{"type":"Point","coordinates":[-80.14799,40.40865]},"properties":{"p":"0262J00201000000","a":"ELEANOR DR","m":"Collier","u":"B","o":"corp","sf":35803,"v":8700}},{"type":"Feature","geometry":{"type":"Point","coordinates":[-80.14811,40.40838]},"properties":{"p":"0262J00203000000","a":"ELEANOR DR","m":"Collier","u":"B","o":"corp","sf":59904,"v":4895}},{"type":"Feature","geometry":{"type":"Point","coordinates":[-80.14856,40.40823]},"properties":{"p":"0262J00205000000","a":"ELEANOR DR","m":"Collier","u":"B","o":"corp","sf":86445,"v":6031}},{"type":"Feature","geometry":{"type":"Point","coordinates":[-80.14782,40.40645]},"properties":{"p":"0262J00121000000","a":"HUGH MCHUGH BLVD","m":"Collier","u":"B","o":"corp","sf":45489,"v":4240}},{"type":"Feature","geometry":{"type":"Point","coordinates":[-80.14588,40.40881]},"properties":{"p":"0262J00149000000","a":"HUGH MCHUGH BLVD","m":"Collier","u":"B","o":"corp","sf":32417,"v":3671}},{"type":"Feature","geometry":{"type":"Point","coordinates":[-80.14605,40.40812]},"properties":{"p":"0262J00151000000","a":"HUGH MCHUGH BLVD","m":"Collier","u":"B","o":"corp","sf":28202,"v":3497}},{"type":"Feature","geometry":{"type":"Point","coordinates":[-80.14599,40.40783]},"properties":{"p":"0262J00153000000","a":"HUGH MCHUGH BLVD","m":"Collier","u":"B","o":"corp","sf":41562,"v":4065}},{"type":"Feature","geometry":{"type":"Point","coordinates":[-80.14583,40.40761]},"properties":{"p":"0262J00155000000","a":"HUGH MCHUGH BLVD","m":"Collier","u":"B","o":"corp","sf":27692,"v":3453}},{"type":"Feature","geometry":{"type":"Point","coordinates":[-80.14553,40.40729]},"properties":{"p":"0262J00157000000","a":"HUGH MCHUGH BLVD","m":"Collier","u":"B","o":"corp","sf":18647,"v":3059}},{"type":"Feature","geometry":{"type":"Point","coordinates":[-80.14595,40.40729]},"properties":{"p":"0262J00159000000","a":"HUGH MCHUGH BLVD","m":"Collier","u":"B","o":"corp","sf":18666,"v":3059}},{"type":"Feature","geometry":{"type":"Point","coordinates":[-80.14606,40.40715]},"properties":{"p":"0262J00161000000","a":"HUGH MCHUGH BLVD","m":"Collier","u":"B","o":"corp","sf":18647,"v":3059}},{"type":"Feature","geometry":{"type":"Point","coordinates":[-80.14626,40.40707]},"properties":{"p":"0262J00163000000","a":"HUGH MCHUGH BLVD","m":"Collier","u":"B","o":"corp","sf":18617,"v":3059}},{"type":"Feature","geometry":{"type":"Point","coordinates":[-80.14652,40.40712]},"properties":{"p":"0262J00165000000","a":"HUGH MCHUGH BLVD","m":"Collier","u":"B","o":"corp","sf":25803,"v":3365}},{"type":"Feature","geometry":{"type":"Point","coordinates":[-80.14685,40.4072]},"properties":{"p":"0262J00167000000","a":"HUGH MCHUGH BLVD","m":"Collier","u":"B","o":"corp","sf":31275,"v":3628}},{"type":"Feature","geometry":{"type":"Point","coordinates":[-80.14729,40.40717]},"properties":{"p":"0262J00169000000","a":"HUGH MCHUGH BLVD","m":"Collier","u":"B","o":"corp","sf":21381,"v":3191}},{"type":"Feature","geometry":{"type":"Point","coordinates":[-80.14547,40.40889]},"properties":{"p":"0262K00147000000","a":"HUGH MCHUGH BLVD","m":"Collier","u":"B","o":"corp","sf":45282,"v":4240}},{"type":"Feature","geometry":{"type":"Point","coordinates":[-80.15091,40.40807]},"properties":{"p":"0331M00020000000","a":"NOBLESTOWN RD","m":"Collier","u":"B","o":"individual","sf":105629,"v":4400}},{"type":"Feature","geometry":{"type":"Point","coordinates":[-80.15173,40.40652]},"properties":{"p":"0331M00040000000","a":"NOBLESTOWN RD","m":"Collier","u":"B","o":"individual","sf":102026,"v":7000}},{"type":"Feature","geometry":{"type":"Point","coordinates":[-80.14858,40.40651]},"properties":{"p":"0262J00115000000","a":"HUGH MCHUGH BLVD","m":"Collier","u":"B","o":"corp","sf":18809,"v":3059}},{"type":"Feature","geometry":{"type":"Point","coordinates":[-80.14839,40.4066]},"properties":{"p":"0262J00117000000","a":"HUGH MCHUGH BLVD","m":"Collier","u":"B","o":"corp","sf":18809,"v":3059}},{"type":"Feature","geometry":{"type":"Point","coordinates":[-80.14865,40.40788]},"properties":{"p":"0262J00207000000","a":"ELEANOR DR","m":"Collier","u":"B","o":"corp","sf":45299,"v":4240}},{"type":"Feature","geometry":{"type":"Point","coordinates":[-80.14847,40.40738]},"properties":{"p":"0262J00209000000","a":"ELEANOR DR","m":"Collier","u":"B","o":"corp","sf":24672,"v":524}},{"type":"Feature","geometry":{"type":"Point","coordinates":[-80.14949,40.40718]},"properties":{"p":"0262J00217000000","a":"HUGH MCHUGH BLVD","m":"Collier","u":"B","o":"corp","sf":46449,"v":4283}},{"type":"Feature","geometry":{"type":"Point","coordinates":[-80.14989,40.407]},"properties":{"p":"0262J00219000000","a":"HUGH MCHUGH BLVD","m":"Collier","u":"B","o":"corp","sf":37143,"v":3890}},{"type":"Feature","geometry":{"type":"Point","coordinates":[-80.14531,40.40651]},"properties":{"p":"0262K00133000000","a":"HUGH MCHUGH BLVD","m":"Collier","u":"B","o":"corp","sf":30873,"v":3628}},{"type":"Feature","geometry":{"type":"Point","coordinates":[-80.14458,40.40649]},"properties":{"p":"0262K00135000000","a":"HUGH MCHUGH BLVD","m":"Collier","u":"B","o":"corp","sf":55075,"v":4677}},{"type":"Feature","geometry":{"type":"Point","coordinates":[-80.14438,40.40681]},"properties":{"p":"0262K00137000000","a":"HUGH MCHUGH BLVD","m":"Collier","u":"B","o":"corp","sf":47137,"v":4327}},{"type":"Feature","geometry":{"type":"Point","coordinates":[-80.14451,40.40739]},"properties":{"p":"0262K00139000000","a":"HUGH MCHUGH BLVD","m":"Collier","u":"B","o":"corp","sf":47314,"v":4327}},{"type":"Feature","geometry":{"type":"Point","coordinates":[-80.14452,40.40779]},"properties":{"p":"0262K00141000000","a":"HUGH MCHUGH BLVD","m":"Collier","u":"B","o":"corp","sf":42319,"v":4108}},{"type":"Feature","geometry":{"type":"Point","coordinates":[-80.14473,40.40807]},"properties":{"p":"0262K00143000000","a":"HUGH MCHUGH BLVD","m":"Collier","u":"B","o":"corp","sf":28861,"v":3540}},{"type":"Feature","geometry":{"type":"Point","coordinates":[-80.14493,40.40851]},"properties":{"p":"0262K00145000000","a":"HUGH MCHUGH BLVD","m":"Collier","u":"B","o":"corp","sf":25911,"v":3409}},{"type":"Feature","geometry":{"type":"Point","coordinates":[-80.14896,40.40982]},"properties":{"p":"0262E00193000000","a":"ELEANOR DR","m":"Collier","u":"B","o":"corp","sf":124045,"v":7692}},{"type":"Feature","geometry":{"type":"Point","coordinates":[-80.14825,40.40915]},"properties":{"p":"0262E00195000000","a":"ELEANOR DR","m":"Collier","u":"B","o":"corp","sf":70042,"v":5332}},{"type":"Feature","geometry":{"type":"Point","coordinates":[-80.14995,40.40443]},"properties":{"p":"0262N00075000000","a":"NOBLESTOWN RD","m":"Collier","u":"B","o":"individual","sf":152739,"v":3500}},{"type":"Feature","geometry":{"type":"Point","coordinates":[-80.14997,40.4059]},"properties":{"p":"0262N00101000000","a":"HUGH MCHUGH BLVD","m":"Collier","u":"B","o":"corp","sf":24757,"v":3322}},{"type":"Feature","geometry":{"type":"Point","coordinates":[-80.15003,40.40625]},"properties":{"p":"0262N00103000000","a":"HUGH MCHUGH BLVD","m":"Collier","u":"B","o":"corp","sf":27254,"v":3453}},{"type":"Feature","geometry":{"type":"Point","coordinates":[-80.1501,40.40674]},"properties":{"p":"0262N00105000000","a":"HUGH MCHUGH BLVD","m":"Collier","u":"B","o":"corp","sf":31651,"v":3620}},{"type":"Feature","geometry":{"type":"Point","coordinates":[-80.14902,40.40573]},"properties":{"p":"0262N00107000000","a":"HUGH MCHUGH BLVD","m":"Collier","u":"B","o":"corp","sf":22475,"v":3234}},{"type":"Feature","geometry":{"type":"Point","coordinates":[-80.14885,40.406]},"properties":{"p":"0262N00109000000","a":"HUGH MCHUGH BLVD","m":"Collier","u":"B","o":"corp","sf":35365,"v":3802}},{"type":"Feature","geometry":{"type":"Point","coordinates":[-80.14907,40.40634]},"properties":{"p":"0262N00111000000","a":"HUGH MCHUGH BLVD","m":"Collier","u":"B","o":"corp","sf":23363,"v":3278}},{"type":"Feature","geometry":{"type":"Point","coordinates":[-80.14868,40.40637]},"properties":{"p":"0262N00113000000","a":"HUGH MCHUGH BLVD","m":"Collier","u":"B","o":"corp","sf":18809,"v":3059}},{"type":"Feature","geometry":{"type":"Point","coordinates":[-80.14628,40.40922]},"properties":{"p":"0262E00185000000","a":"ELEANOR DR","m":"Collier","u":"B","o":"corp","sf":30298,"v":3584}},{"type":"Feature","geometry":{"type":"Point","coordinates":[-80.14748,40.4063]},"properties":{"p":"0262N00123000000","a":"HUGH MCHUGH BLVD","m":"Collier","u":"B","o":"corp","sf":37176,"v":3890}},{"type":"Feature","geometry":{"type":"Point","coordinates":[-80.14707,40.40628]},"properties":{"p":"0262N00125000000","a":"HUGH MCHUGH BLVD","m":"Collier","u":"B","o":"corp","sf":29136,"v":3540}},{"type":"Feature","geometry":{"type":"Point","coordinates":[-80.14662,40.40628]},"properties":{"p":"0262N00127000000","a":"HUGH MCHUGH BLVD","m":"Collier","u":"B","o":"corp","sf":24220,"v":3322}},{"type":"Feature","geometry":{"type":"Point","coordinates":[-80.14616,40.40625]},"properties":{"p":"0262N00129000000","a":"HUGH MCHUGH BLVD","m":"Collier","u":"B","o":"corp","sf":30635,"v":3584}},{"type":"Feature","geometry":{"type":"Point","coordinates":[-80.14567,40.40624]},"properties":{"p":"0262N00131000000","a":"HUGH MCHUGH BLVD","m":"Collier","u":"B","o":"corp","sf":46019,"v":4283}},{"type":"Feature","geometry":{"type":"Point","coordinates":[-80.15081,40.4038]},"properties":{"p":"0330D00020000000","a":"NOBLESTOWN RD","m":"Collier","u":"B","o":"corp","sf":173530,"v":20800}},{"type":"Feature","geometry":{"type":"Point","coordinates":[-80.15183,40.40423]},"properties":{"p":"0330D00025000000","a":"NIKE SITE RD","m":"Collier","u":"B","o":"corp","sf":92264,"v":2100}},{"type":"Feature","geometry":{"type":"Point","coordinates":[-80.15216,40.40214]},"properties":{"p":"0330D00100000000","a":"OLD NOBLESTOWN RD","m":"Collier","u":"B","o":"corp","sf":637226,"v":33700}},{"type":"Feature","geometry":{"type":"Point","coordinates":[-80.14634,40.40947]},"properties":{"p":"0262E00187000000","a":"ELEANOR DR","m":"Collier","u":"B","o":"corp","sf":31804,"v":3628}},{"type":"Feature","geometry":{"type":"Point","coordinates":[-80.14928,40.40774]},"properties":{"p":"0262J00215000000","a":"HUGH MCHUGH BLVD","m":"Collier","u":"B","o":"corp","sf":88190,"v":6119}},{"type":"Feature","geometry":{"type":"Point","coordinates":[-80.14813,40.40656]},"properties":{"p":"0262J00119000000","a":"HUGH MCHUGH BLVD","m":"Collier","u":"B","o":"corp","sf":26142,"v":3409}}]}