{"type":"FeatureCollection","features":[{"type":"Feature","geometry":{"type":"Point","coordinates":[-80.14165,40.43073]},"properties":{"p":"0264F00023000000","a":"MERCHANT LN","m":"Collier","u":"C","o":"corp","sf":83400,"v":63181}},{"type":"Feature","geometry":{"type":"Point","coordinates":[-80.14214,40.43011]},"properties":{"p":"0264F00001000000","a":"MERCHANT LN","m":"Collier","u":"C","o":"corp","sf":114441,"v":1300}},{"type":"Feature","geometry":{"type":"Point","coordinates":[-80.14241,40.43096]},"properties":{"p":"0264F00024000000","a":"MERCHANT LN","m":"Collier","u":"C","o":"corp","sf":78595,"v":59541}},{"type":"Feature","geometry":{"type":"Point","coordinates":[-80.14317,40.43109]},"properties":{"p":"0264F00025000000","a":"301 -312 MERCHANT LN","m":"Collier","u":"C","o":"corp","sf":83918,"v":63574}},{"type":"Feature","geometry":{"type":"Point","coordinates":[-80.15464,40.44184]},"properties":{"p":"0334C00181000000","a":"CAMPBELLS RUN RD","m":"Robinson","u":"C","o":"corp","sf":73791,"v":375800}},{"type":"Feature","geometry":{"type":"Point","coordinates":[-80.1557,40.44216]},"properties":{"p":"0334C00204000000","a":"CAMPBELLS RUN RD","m":"Robinson","u":"C","o":"corp","sf":115865,"v":626300}},{"type":"Feature","geometry":{"type":"Point","coordinates":[-80.14684,40.44383]},"properties":{"p":"0266N00223000000","a":"STEUBENVILLE PIKE","m":"Robinson","u":"C","o":"corp","sf":26104,"v":122600}},{"type":"Feature","geometry":{"type":"Point","coordinates":[-80.14049,40.44812]},"properties":{"p":"0266G00312000000","a":"STEUBENVILLE PIKE","m":"Robinson","u":"C","o":"corp","sf":257369,"v":35800}},{"type":"Feature","geometry":{"type":"Point","coordinates":[-80.14752,40.44457]},"properties":{"p":"0266N00140000000","a":"STEUBENVILLE PIKE","m":"Robinson","u":"C","o":"individual","sf":10973,"v":8700}},{"type":"Feature","geometry":{"type":"Point","coordinates":[-80.14722,40.44455]},"properties":{"p":"0266N00146000000","a":"STEUBENVILLE PIKE","m":"Robinson","u":"C","o":"individual","sf":29748,"v":52400}},{"type":"Feature","geometry":{"type":"Point","coordinates":[-80.1402,40.43859]},"properties":{"p":"0265K00322000000","a":"MCMORRIS RD","m":"Robinson","u":"C","o":"corp","sf":373645,"v":226000}},{"type":"Feature","geometry":{"type":"Point","coordinates":[-80.14837,40.43746]},"properties":{"p":"0265J00010000000","a":"CAMPBELLS RUN RD","m":"Robinson","u":"C","o":"corp","sf":26768,"v":22500}},{"type":"Feature","geometry":{"type":"Point","coordinates":[-80.14585,40.43582]},"properties":{"p":"0265J00094000000","a":"CAMPBELLS RUN RD","m":"Robinson","u":"C","o":"corp","sf":11513,"v":10000}},{"type":"Feature","geometry":{"type":"Point","coordinates":[-80.14065,40.4451]},"properties":{"p":"0266R00280000000","a":"6025 STEUBENVILLE PIKE","m":"Robinson","u":"C","o":"individual","sf":544500,"v":28700}},{"type":"Feature","geometry":{"type":"Point","coordinates":[-80.15919,40.44358]},"properties":{"p":"0335P00218000000","a":"CAMPBELLS RUN RD","m":"Robinson","u":"C","o":"individual","sf":331,"v":300}},{"type":"Feature","geometry":{"type":"Point","coordinates":[-80.14911,40.43627]},"properties":{"p":"0334L00033000000","a":"RIDGE RD","m":"Robinson","u":"C","o":"corp","sf":448158,"v":205800}},{"type":"Feature","geometry":{"type":"Point","coordinates":[-80.1529,40.44925]},"properties":{"p":"0335H00020000000","a":"MOSITIES WAY","m":"Robinson","u":"C","o":"corp","sf":242477,"v":430500}},{"type":"Feature","geometry":{"type":"Point","coordinates":[-80.15902,40.44405]},"properties":{"p":"0335P00087000000","a":"CAMPBELLS RUN RD","m":"Robinson","u":"C","o":"individual","sf":4500,"v":300}},{"type":"Feature","geometry":{"type":"Point","coordinates":[-80.15477,40.44039]},"properties":{"p":"0334G00015000000","a":"CAMPBELLS RUN RD","m":"Robinson","u":"C","o":"corp","sf":46100,"v":166800}},{"type":"Feature","geometry":{"type":"Point","coordinates":[-80.15361,40.43984]},"properties":{"p":"0334H00190000000","a":"CAMPBELLS RUN RD","m":"Robinson","u":"C","o":"corp","sf":42763,"v":57764}},{"type":"Feature","geometry":{"type":"Point","coordinates":[-80.1506,40.44291]},"properties":{"p":"0335S00365000000","a":"CAMPBELLS RUN RD","m":"Robinson","u":"C","o":"corp","sf":138355,"v":9500}},{"type":"Feature","geometry":{"type":"Point","coordinates":[-80.15045,40.44954]},"properties":{"p":"0335H00050000000","a":"MOSITIES WAY","m":"Robinson","u":"C","o":"corp","sf":1127934,"v":155000}},{"type":"Feature","geometry":{"type":"Point","coordinates":[-80.15328,40.44808]},"properties":{"p":"0335H00100000000","a":"400 MOSITES WAY","m":"Robinson","u":"C","o":"corp","sf":104980,"v":241600}},{"type":"Feature","geometry":{"type":"Point","coordinates":[-80.15922,40.44563]},"properties":{"p":"0335K00012000000","a":"CAMPBELLS RUN RD","m":"Robinson","u":"C","o":"corp","sf":58806,"v":60800}},{"type":"Feature","geometry":{"type":"Point","coordinates":[-80.14595,40.44215]},"properties":{"p":"0265A00123000000","a":"CHURCH HILL RD","m":"Robinson","u":"C","o":"corp","sf":228189,"v":179200}},{"type":"Feature","geometry":{"type":"Point","coordinates":[-80.14537,40.44093]},"properties":{"p":"0265A00127000000","a":"CHURCH HILL RD","m":"Robinson","u":"C","o":"corp","sf":265481,"v":178300}},{"type":"Feature","geometry":{"type":"Point","coordinates":[-80.15492,40.44128]},"properties":{"p":"0334C00171000000","a":"CAMPBELLS RUN RD","m":"Robinson","u":"C","o":"corp","sf":50508,"v":250500}},{"type":"Feature","geometry":{"type":"Point","coordinates":[-80.14322,40.43456]},"properties":{"p":"0265P00167000000","a":"4889 CAMPBELLS RUN RD","m":"Robinson","u":"C","o":"corp","sf":20559,"v":90500}},{"type":"Feature","geometry":{"type":"Point","coordinates":[-80.14397,40.4301]},"properties":{"p":"0264F00019000000","a":"MERCHANT LN","m":"Collier","u":"C","o":"corp","sf":82908,"v":62808}},{"type":"Feature","geometry":{"type":"Point","coordinates":[-80.15275,40.44703]},"properties":{"p":"0335M00120000000","a":"6288 STEUBENVILLE PIKE","m":"Robinson","u":"C","o":"corp","sf":59246,"v":816100}},{"type":"Feature","geometry":{"type":"Point","coordinates":[-80.14981,40.43029]},"properties":{"p":"0264E00070000000","a":"COLONY DR","m":"Collier","u":"L","o":"corp","sf":243248,"v":37700}},{"type":"Feature","geometry":{"type":"Point","coordinates":[-80.14576,40.43176]},"properties":{"p":"0264A00066000000","a":"RIDGE RD","m":"Collier","u":"L","o":"corp","sf":52207,"v":7300}},{"type":"Feature","geometry":{"type":"Point","coordinates":[-80.14779,40.43171]},"properties":{"p":"0264A00070000000","a":"RIDGE RD","m":"Collier","u":"L","o":"corp","sf":40790,"v":5700}},{"type":"Feature","geometry":{"type":"Point","coordinates":[-80.14744,40.4324]},"properties":{"p":"0264A00074000000","a":"RIDGE RD","m":"Collier","u":"L","o":"corp","sf":51941,"v":7300}},{"type":"Feature","geometry":{"type":"Point","coordinates":[-80.14965,40.4311]},"properties":{"p":"0264A00011000000","a":"RIDGE RD","m":"Collier","u":"L","o":"individual","sf":43560,"v":5900}},{"type":"Feature","geometry":{"type":"Point","coordinates":[-80.14416,40.4451]},"properties":{"p":"0266P00054000000","a":"6025 STEUBENVILLE PIKE","m":"Robinson","u":"L","o":"individual","sf":7382,"v":800}},{"type":"Feature","geometry":{"type":"Point","coordinates":[-80.14266,40.44698]},"properties":{"p":"0266K00138000000","a":"STEUBENVILLE PIKE","m":"Robinson","u":"L","o":"corp","sf":108116,"v":61000}},{"type":"Feature","geometry":{"type":"Point","coordinates":[-80.14355,40.44606]},"properties":{"p":"0266K00183000000","a":"6025 STEUBENVILLE PIKE","m":"Robinson","u":"L","o":"individual","sf":2564,"v":300}},{"type":"Feature","geometry":{"type":"Point","coordinates":[-80.15819,40.44256]},"properties":{"p":"0334C00053000000","a":"CAMPBELLS RUN RD","m":"Robinson","u":"L","o":"individual","sf":9693,"v":1100}},{"type":"Feature","geometry":{"type":"Point","coordinates":[-80.14145,40.44848]},"properties":{"p":"0266G00337000000","a":"STEUBENVILLE PIKE","m":"Robinson","u":"L","o":"corp","sf":16395,"v":25400}},{"type":"Feature","geometry":{"type":"Point","coordinates":[-80.15302,40.44459]},"properties":{"p":"0335S00145000000","a":"DEVASSIE RD","m":"Robinson","u":"L","o":"corp","sf":153810,"v":66300}},{"type":"Feature","geometry":{"type":"Point","coordinates":[-80.15251,40.44538]},"properties":{"p":"0335M00027000000","a":"DEVASSIE RD","m":"Robinson","u":"L","o":"individual","sf":8712,"v":1000}},{"type":"Feature","geometry":{"type":"Point","coordinates":[-80.15249,40.44571]},"properties":{"p":"0335M00027000100","a":"DEVASSIE RD","m":"Robinson","u":"L","o":"individual","sf":7884,"v":900}},{"type":"Feature","geometry":{"type":"Point","coordinates":[-80.15264,40.44573]},"properties":{"p":"0335S00019000000","a":"DEVASSIE RD","m":"Robinson","u":"L","o":"individual","sf":7711,"v":900}},{"type":"Feature","geometry":{"type":"Point","coordinates":[-80.15256,40.44538]},"properties":{"p":"0335S00022000100","a":"DEVASSIE RD","m":"Robinson","u":"L","o":"individual","sf":1018,"v":100}},{"type":"Feature","geometry":{"type":"Point","coordinates":[-80.15217,40.4452]},"properties":{"p":"0335S00118000000","a":"DEVASSIE RD","m":"Robinson","u":"L","o":"individual","sf":11088,"v":1200}},{"type":"Feature","geometry":{"type":"Point","coordinates":[-80.14579,40.43287]},"properties":{"p":"0264B00205000000","a":"RIDGE RD","m":"Robinson","u":"L","o":"corp","sf":219107,"v":73700}},{"type":"Feature","geometry":{"type":"Point","coordinates":[-80.1523,40.44574]},"properties":{"p":"0335M00029000000","a":"DEVASSIE RD","m":"Robinson","u":"L","o":"individual","sf":6360,"v":700}},{"type":"Feature","geometry":{"type":"Point","coordinates":[-80.15045,40.43108]},"properties":{"p":"0264A00009000000","a":"RIDGE RD","m":"Collier","u":"L","o":"individual","sf":180774,"v":40000}},{"type":"Feature","geometry":{"type":"Point","coordinates":[-80.14833,40.44544]},"properties":{"p":"0266N00020000000","a":"WESTCHESTER CT","m":"Robinson","u":"L","o":"corp","sf":338026,"v":76400}},{"type":"Feature","geometry":{"type":"Point","coordinates":[-80.14712,40.4309]},"properties":{"p":"0264E00058000000","a":"2004 CHARTER LN","m":"Collier","u":"B","o":"corp","sf":7913,"v":1100}},{"type":"Feature","geometry":{"type":"Point","coordinates":[-80.14729,40.43076]},"properties":{"p":"0264E00060000000","a":"2006 CHARTER LN","m":"Collier","u":"B","o":"corp","sf":7344,"v":1000}},{"type":"Feature","geometry":{"type":"Point","coordinates":[-80.14854,40.4301]},"properties":{"p":"0264E00096000000","a":"1054 COLONY DR","m":"Collier","u":"B","o":"corp","sf":7559,"v":1100}},{"type":"Feature","geometry":{"type":"Point","coordinates":[-80.14818,40.43039]},"properties":{"p":"0264E00098000000","a":"1058 COLONY DR","m":"Collier","u":"B","o":"corp","sf":7446,"v":1100}},{"type":"Feature","geometry":{"type":"Point","coordinates":[-80.14784,40.43069]},"properties":{"p":"0264E00100000000","a":"1062 COLONY DR","m":"Collier","u":"B","o":"corp","sf":7242,"v":1100}},{"type":"Feature","geometry":{"type":"Point","coordinates":[-80.14768,40.43084]},"properties":{"p":"0264E00101000000","a":"1064 COLONY DR","m":"Collier","u":"B","o":"individual","sf":7242,"v":1100}},{"type":"Feature","geometry":{"type":"Point","coordinates":[-80.14595,40.43001]},"properties":{"p":"0264E00028000000","a":"1019 COLONY DR","m":"Collier","u":"B","o":"corp","sf":11912,"v":1700}},{"type":"Feature","geometry":{"type":"Point","coordinates":[-80.14575,40.43009]},"properties":{"p":"0264E00030000000","a":"1017 COLONY DR","m":"Collier","u":"B","o":"individual","sf":10511,"v":1500}},{"type":"Feature","geometry":{"type":"Point","coordinates":[-80.14569,40.43028]},"properties":{"p":"0264E00032000000","a":"1015 COLONY DR","m":"Collier","u":"B","o":"corp","sf":10518,"v":1500}},{"type":"Feature","geometry":{"type":"Point","coordinates":[-80.14637,40.43052]},"properties":{"p":"0264E00042000000","a":"1014 COLONY DR","m":"Collier","u":"B","o":"individual","sf":8544,"v":1200}},{"type":"Feature","geometry":{"type":"Point","coordinates":[-80.14675,40.43054]},"properties":{"p":"0264E00086000000","a":"2007 CHARTER LN","m":"Collier","u":"B","o":"corp","sf":7894,"v":1200}},{"type":"Feature","geometry":{"type":"Point","coordinates":[-80.14745,40.43061]},"properties":{"p":"0264E00087000000","a":"2008 CHARTER LN","m":"Collier","u":"B","o":"corp","sf":7344,"v":1100}},{"type":"Feature","geometry":{"type":"Point","coordinates":[-80.14762,40.43047]},"properties":{"p":"0264E00088000000","a":"2010 CHARTER LN","m":"Collier","u":"B","o":"corp","sf":7344,"v":1100}},{"type":"Feature","geometry":{"type":"Point","coordinates":[-80.14778,40.43032]},"properties":{"p":"0264E00089000000","a":"2012 CHARTER LN","m":"Collier","u":"B","o":"corp","sf":7446,"v":1100}},{"type":"Feature","geometry":{"type":"Point","coordinates":[-80.14795,40.43016]},"properties":{"p":"0264E00090000000","a":"2014 CHARTER LN","m":"Collier","u":"B","o":"corp","sf":7446,"v":1100}},{"type":"Feature","geometry":{"type":"Point","coordinates":[-80.14815,40.43004]},"properties":{"p":"0264E00091000000","a":"2016 CHARTER LN","m":"Collier","u":"B","o":"corp","sf":8120,"v":1300}},{"type":"Feature","geometry":{"type":"Point","coordinates":[-80.14805,40.43115]},"properties":{"p":"0264A00075000000","a":"1065 COLONY DR","m":"Collier","u":"B","o":"individual","sf":7609,"v":1100}},{"type":"Feature","geometry":{"type":"Point","coordinates":[-80.14752,40.43098]},"properties":{"p":"0264A00090000000","a":"1066 COLONY DR","m":"Collier","u":"B","o":"corp","sf":7242,"v":1100}},{"type":"Feature","geometry":{"type":"Point","coordinates":[-80.1466,40.43096]},"properties":{"p":"0264A00004400000","a":"2003 CHARTER LN","m":"Collier","u":"B","o":"corp","sf":6756,"v":900}},{"type":"Feature","geometry":{"type":"Point","coordinates":[-80.14736,40.43109]},"properties":{"p":"0264A00091000000","a":"1068 COLONY DR","m":"Collier","u":"B","o":"corp","sf":7639,"v":1100}},{"type":"Feature","geometry":{"type":"Point","coordinates":[-80.14835,40.43024]},"properties":{"p":"0264E00097000000","a":"1056 COLONY DR","m":"Collier","u":"B","o":"corp","sf":7446,"v":1100}}]}