{"type":"FeatureCollection","features":[{"type":"Feature","geometry":{"type":"Point","coordinates":[-80.14173,40.67427]},"properties":{"p":"2369F00003000000","a":"WOODLAND DR","m":"Marshall","u":"L","o":"corp","sf":450541,"v":200000}},{"type":"Feature","geometry":{"type":"Point","coordinates":[-80.14464,40.6719]},"properties":{"p":"2369F00005000000","a":"1205 WOODLAND RD","m":"Marshall","u":"L","o":"corp","sf":329401,"v":65900}},{"type":"Feature","geometry":{"type":"Point","coordinates":[-80.14768,40.67427]},"properties":{"p":"2369E00007000000","a":"WOODLAND RD","m":"Marshall","u":"L","o":"individual","sf":158249,"v":57600}},{"type":"Feature","geometry":{"type":"Point","coordinates":[-80.14245,40.67181]},"properties":{"p":"2369F00002000000","a":"WOODLAND RD","m":"Marshall","u":"L","o":"corp","sf":2500,"v":200}}]}