{"type":"FeatureCollection","features":[{"type":"Feature","geometry":{"type":"Point","coordinates":[-80.14024,40.6397]},"properties":{"p":"1820R00010000000","a":"SPANG RD","m":"Marshall","u":"L","o":"individual","sf":41134,"v":5200}},{"type":"Feature","geometry":{"type":"Point","coordinates":[-80.14541,40.64998]},"properties":{"p":"1995K00007000000","a":"LOCUST RD","m":"Marshall","u":"L","o":"individual","sf":66420,"v":44300}},{"type":"Feature","geometry":{"type":"Point","coordinates":[-80.14579,40.6438]},"properties":{"p":"1820E00001000000","a":"CLIFF RD","m":"Marshall","u":"L","o":"individual","sf":138116,"v":1600}},{"type":"Feature","geometry":{"type":"Point","coordinates":[-80.14571,40.63938]},"properties":{"p":"1820P00004000000","a":"CLIFF RD","m":"Marshall","u":"L","o":"individual","sf":95845,"v":27000}},{"type":"Feature","geometry":{"type":"Point","coordinates":[-80.14573,40.63833]},"properties":{"p":"1820P00006000000","a":"CLIFF RD","m":"Marshall","u":"L","o":"individual","sf":137650,"v":3500}},{"type":"Feature","geometry":{"type":"Point","coordinates":[-80.14021,40.64699]},"properties":{"p":"1995R00001000000","a":"335 SPANG RD","m":"Marshall","u":"L","o":"individual","sf":2090880,"v":206500}},{"type":"Feature","geometry":{"type":"Point","coordinates":[-80.14154,40.63151]},"properties":{"p":"1653L00003000000","a":"WARRENDALE BAYNE RD","m":"Marshall","u":"L","o":"individual","sf":87120,"v":8000}},{"type":"Feature","geometry":{"type":"Point","coordinates":[-80.14096,40.63046]},"properties":{"p":"1653L00001000000","a":"WARRENDALE AMBRIDGE RD","m":"Marshall","u":"L","o":"individual","sf":8015,"v":700}},{"type":"Feature","geometry":{"type":"Point","coordinates":[-80.14387,40.63833]},"properties":{"p":"1820P00001000000","a":"CLIFF RD","m":"Marshall","u":"L","o":"individual","sf":392040,"v":37000}},{"type":"Feature","geometry":{"type":"Point","coordinates":[-80.14472,40.63495]},"properties":{"p":"1653B00002000000","a":"475 CLIFF RD","m":"Marshall","u":"B","o":"corp","sf":676487,"v":387200}}]}