{"type":"FeatureCollection","features":[{"type":"Feature","geometry":{"type":"Point","coordinates":[-80.15567,40.56045]},"properties":{"p":"0604B00181000000","a":"PINK HOUSE LN","m":"Sewickley Heights","u":"L","o":"individual","sf":220414,"v":322200}},{"type":"Feature","geometry":{"type":"Point","coordinates":[-80.15402,40.55572]},"properties":{"p":"0604L00010000000","a":"FAIR ACRES DR","m":"Sewickley Heights","u":"L","o":"individual","sf":341510,"v":200000}},{"type":"Feature","geometry":{"type":"Point","coordinates":[-80.14719,40.55927]},"properties":{"p":"0708N00040000000","a":"HILLSIDE DR","m":"Sewickley Heights","u":"L","o":"individual","sf":243065,"v":220300}},{"type":"Feature","geometry":{"type":"Point","coordinates":[-80.14955,40.56038]},"properties":{"p":"0708N00060000000","a":"HILLSIDE DR","m":"Sewickley Heights","u":"L","o":"individual","sf":219020,"v":207600}},{"type":"Feature","geometry":{"type":"Point","coordinates":[-80.14384,40.55347]},"properties":{"p":"0605K00241000000","a":"BLACKBURN RD","m":"Sewickley Heights","u":"L","o":"corp","sf":260271,"v":600}},{"type":"Feature","geometry":{"type":"Point","coordinates":[-80.15837,40.55468]},"properties":{"p":"0604G00341000000","a":"PONY HOLLOW RD","m":"Sewickley Heights","u":"L","o":"individual","sf":315928,"v":200000}},{"type":"Feature","geometry":{"type":"Point","coordinates":[-80.15004,40.55968]},"properties":{"p":"0708N00030000000","a":"HILLSIDE DR","m":"Sewickley Heights","u":"L","o":"individual","sf":223114,"v":209800}},{"type":"Feature","geometry":{"type":"Point","coordinates":[-80.14825,40.55625]},"properties":{"p":"0605E00020000000","a":"TIMBERHILL RD","m":"Sewickley Heights","u":"L","o":"individual","sf":9931,"v":5300}},{"type":"Feature","geometry":{"type":"Point","coordinates":[-80.14192,40.55612]},"properties":{"p":"0605F00040000000","a":"BLACKBURN RD","m":"Sewickley Heights","u":"L","o":"corp","sf":217800,"v":500}},{"type":"Feature","geometry":{"type":"Point","coordinates":[-80.14435,40.55685]},"properties":{"p":"0605F00152000000","a":"TIMBERHILL RD","m":"Sewickley Heights","u":"L","o":"corp","sf":264409,"v":150000}},{"type":"Feature","geometry":{"type":"Point","coordinates":[-80.14743,40.55399]},"properties":{"p":"0605F00205000000","a":"BLACKBURN RD","m":"Sewickley Heights","u":"L","o":"corp","sf":786258,"v":540500}},{"type":"Feature","geometry":{"type":"Point","coordinates":[-80.15207,40.55812]},"properties":{"p":"0604D00060000000","a":"FERN HOLLOW RD","m":"Sewickley Heights","u":"L","o":"individual","sf":43560,"v":23000}},{"type":"Feature","geometry":{"type":"Point","coordinates":[-80.14988,40.55728]},"properties":{"p":"0604D00085000000","a":"FERN HOLLOW RD","m":"Sewickley Heights","u":"L","o":"corp","sf":356756,"v":8200}},{"type":"Feature","geometry":{"type":"Point","coordinates":[-80.15257,40.56027]},"properties":{"p":"0604D00092000000","a":"PINK HOUSE RD","m":"Sewickley Heights","u":"L","o":"individual","sf":220888,"v":208600}},{"type":"Feature","geometry":{"type":"Point","coordinates":[-80.15767,40.56055]},"properties":{"p":"0707P00125000000","a":"PINK HOUSE RD","m":"Sewickley Heights","u":"L","o":"individual","sf":223593,"v":210100}},{"type":"Feature","geometry":{"type":"Point","coordinates":[-80.15109,40.5616]},"properties":{"p":"0707S00030000000","a":"FERN HOLLOW RD","m":"Sewickley Heights","u":"L","o":"individual","sf":40119,"v":21300}}]}