{"type":"FeatureCollection","features":[{"type":"Feature","geometry":{"type":"Point","coordinates":[-80.14622,40.58918]},"properties":{"p":"1065N00001000000","a":"BOWER DR","m":"Bell Acres","u":"L","o":"individual","sf":87120,"v":41200}},{"type":"Feature","geometry":{"type":"Point","coordinates":[-80.15071,40.58781]},"properties":{"p":"0937D00048000000","a":"FERN HOLLOW RD","m":"Sewickley Hills","u":"L","o":"individual","sf":209044,"v":64800}},{"type":"Feature","geometry":{"type":"Point","coordinates":[-80.14078,40.582]},"properties":{"p":"0938L00047000000","a":"HENRY RD","m":"Sewickley Hills","u":"L","o":"corp","sf":266065,"v":50000}},{"type":"Feature","geometry":{"type":"Point","coordinates":[-80.14021,40.58302]},"properties":{"p":"0938M00036000000","a":"HENRY RD","m":"Sewickley Hills","u":"L","o":"corp","sf":309581,"v":17100}},{"type":"Feature","geometry":{"type":"Point","coordinates":[-80.14421,40.58952]},"properties":{"p":"1065P00246000000","a":"HAMILTON DR","m":"Bell Acres","u":"L","o":"individual","sf":42870,"v":3900}},{"type":"Feature","geometry":{"type":"Point","coordinates":[-80.14347,40.58799]},"properties":{"p":"0938B00179000000","a":"HUNT RD","m":"Sewickley Hills","u":"L","o":"individual","sf":58614,"v":19200}},{"type":"Feature","geometry":{"type":"Point","coordinates":[-80.14188,40.58647]},"properties":{"p":"0938C00165000000","a":"HENRY RD","m":"Sewickley Hills","u":"L","o":"individual","sf":307098,"v":127000}},{"type":"Feature","geometry":{"type":"Point","coordinates":[-80.14422,40.58876]},"properties":{"p":"1065P00279000000","a":"BOWER DR","m":"Bell Acres","u":"L","o":"individual","sf":114563,"v":43700}}]}