{"type":"FeatureCollection","features":[{"type":"Feature","geometry":{"type":"Point","coordinates":[-80.15499,40.3482]},"properties":{"p":"0325R00038000000","a":"MILLERS RUN RD","m":"South Fayette","u":"C","o":"individual","sf":18016,"v":51800}},{"type":"Feature","geometry":{"type":"Point","coordinates":[-80.15453,40.34826]},"properties":{"p":"0325R00039000000","a":"MILLERS RUN RD","m":"South Fayette","u":"C","o":"individual","sf":10000,"v":1500}},{"type":"Feature","geometry":{"type":"Point","coordinates":[-80.15418,40.34827]},"properties":{"p":"0325R00040000000","a":"CUDDY LN","m":"South Fayette","u":"C","o":"corp","sf":20000,"v":16000}},{"type":"Feature","geometry":{"type":"Point","coordinates":[-80.14726,40.34277]},"properties":{"p":"0399E00006000000","a":"ALPINE RD","m":"South Fayette","u":"C","o":"individual","sf":21700,"v":3300}},{"type":"Feature","geometry":{"type":"Point","coordinates":[-80.14201,40.34071]},"properties":{"p":"0399K00016000000","a":"HICKORY HEIGHTS DR","m":"South Fayette","u":"C","o":"corp","sf":2134,"v":1600}},{"type":"Feature","geometry":{"type":"Point","coordinates":[-80.14042,40.33314]},"properties":{"p":"0482G00003000000","a":"5000 ENERGY DR","m":"South Fayette","u":"C","o":"corp","sf":580167,"v":183000}},{"type":"Feature","geometry":{"type":"Point","coordinates":[-80.14405,40.33439]},"properties":{"p":"0482B00002000000","a":"COAL PIT RUN RD","m":"South Fayette","u":"C","o":"corp","sf":43560,"v":6500}},{"type":"Feature","geometry":{"type":"Point","coordinates":[-80.15608,40.34854]},"properties":{"p":"0325L00018000000","a":"MILLERS RUN RD","m":"South Fayette","u":"C","o":"individual","sf":6000,"v":45700}},{"type":"Feature","geometry":{"type":"Point","coordinates":[-80.1569,40.34851]},"properties":{"p":"0325L00038000000","a":"619 MILLERS RUN RD","m":"South Fayette","u":"C","o":"corp","sf":5064,"v":5500}},{"type":"Feature","geometry":{"type":"Point","coordinates":[-80.15655,40.34624]},"properties":{"p":"0325R00012000A00","a":"ALLEGHENY AVE","m":"South Fayette","u":"L","o":"individual","sf":93,"v":100}},{"type":"Feature","geometry":{"type":"Point","coordinates":[-80.15638,40.34886]},"properties":{"p":"0325L00030000000","a":"MILLERS RUN RD","m":"South Fayette","u":"L","o":"individual","sf":18770,"v":26700}},{"type":"Feature","geometry":{"type":"Point","coordinates":[-80.15671,40.34885]},"properties":{"p":"0325L00031000000","a":"MILLERS RUN RD","m":"South Fayette","u":"L","o":"individual","sf":4800,"v":400}},{"type":"Feature","geometry":{"type":"Point","coordinates":[-80.15692,40.34883]},"properties":{"p":"0325L00032000000","a":"MILLERS RUN RD","m":"South Fayette","u":"L","o":"individual","sf":5400,"v":18900}},{"type":"Feature","geometry":{"type":"Point","coordinates":[-80.15724,40.34881]},"properties":{"p":"0325L00034000000","a":"MILLERS RUN RD","m":"South Fayette","u":"L","o":"individual","sf":25500,"v":27300}},{"type":"Feature","geometry":{"type":"Point","coordinates":[-80.15752,40.34732]},"properties":{"p":"0325R00041000000","a":"CREST ST","m":"South Fayette","u":"L","o":"individual","sf":179894,"v":4100}},{"type":"Feature","geometry":{"type":"Point","coordinates":[-80.15623,40.34763]},"properties":{"p":"0325R00043000000","a":"CREST ST","m":"South Fayette","u":"L","o":"individual","sf":9845,"v":900}},{"type":"Feature","geometry":{"type":"Point","coordinates":[-80.15523,40.34913]},"properties":{"p":"0325L00021000000","a":"MORGAN ST","m":"South Fayette","u":"L","o":"individual","sf":2010,"v":200}},{"type":"Feature","geometry":{"type":"Point","coordinates":[-80.15616,40.34802]},"properties":{"p":"0325R00033000000","a":"SOUTH FAYETTE ST","m":"South Fayette","u":"L","o":"individual","sf":18990,"v":26700}},{"type":"Feature","geometry":{"type":"Point","coordinates":[-80.15378,40.34927]},"properties":{"p":"0325L00005000000","a":"MORGAN ST","m":"South Fayette","u":"L","o":"individual","sf":6047,"v":3300}},{"type":"Feature","geometry":{"type":"Point","coordinates":[-80.15466,40.3488]},"properties":{"p":"0325L00009000000","a":"MORGAN HILL RD","m":"South Fayette","u":"L","o":"individual","sf":3815,"v":300}},{"type":"Feature","geometry":{"type":"Point","coordinates":[-80.15827,40.34763]},"properties":{"p":"0325R00022000000","a":"32 SOUTH FAYETTE ST","m":"South Fayette","u":"L","o":"individual","sf":14418,"v":1300}},{"type":"Feature","geometry":{"type":"Point","coordinates":[-80.15701,40.34598]},"properties":{"p":"0400C00033000000","a":"CAMPBELL AVE","m":"South Fayette","u":"L","o":"individual","sf":2992,"v":300}},{"type":"Feature","geometry":{"type":"Point","coordinates":[-80.15688,40.34599]},"properties":{"p":"0400C00034000000","a":"CAMPBELL AVE","m":"South Fayette","u":"L","o":"individual","sf":3168,"v":300}},{"type":"Feature","geometry":{"type":"Point","coordinates":[-80.15643,40.33801]},"properties":{"p":"0400R00001000000","a":"BELLA DANYELLE CT","m":"South Fayette","u":"L","o":"corp","sf":139392,"v":0}},{"type":"Feature","geometry":{"type":"Point","coordinates":[-80.14686,40.34282]},"properties":{"p":"0399E00005000000","a":"ALPINE RD","m":"South Fayette","u":"L","o":"individual","sf":48308,"v":600}},{"type":"Feature","geometry":{"type":"Point","coordinates":[-80.15426,40.34004]},"properties":{"p":"0400M00002000000","a":"HICKORY GRADE RD","m":"South Fayette","u":"L","o":"individual","sf":149846,"v":52700}},{"type":"Feature","geometry":{"type":"Point","coordinates":[-80.15513,40.34576]},"properties":{"p":"0400C00001000000","a":"CAMPBELL AVE","m":"South Fayette","u":"L","o":"corp","sf":1755,"v":200}},{"type":"Feature","geometry":{"type":"Point","coordinates":[-80.15143,40.34494]},"properties":{"p":"0400D00003000000","a":"HICKORY GRADE RD","m":"South Fayette","u":"L","o":"individual","sf":47916,"v":43300}},{"type":"Feature","geometry":{"type":"Point","coordinates":[-80.15038,40.34664]},"properties":{"p":"0400D00006000000","a":"ALPINE RD","m":"South Fayette","u":"L","o":"individual","sf":3050,"v":300}},{"type":"Feature","geometry":{"type":"Point","coordinates":[-80.15608,40.34595]},"properties":{"p":"0400C00040000000","a":"78 CAMPBELL AVE","m":"South Fayette","u":"L","o":"individual","sf":3080,"v":300}},{"type":"Feature","geometry":{"type":"Point","coordinates":[-80.15854,40.34613]},"properties":{"p":"0325P00002000000","a":"ALLEGHENY AVE","m":"South Fayette","u":"L","o":"individual","sf":558,"v":100}},{"type":"Feature","geometry":{"type":"Point","coordinates":[-80.15868,40.3487]},"properties":{"p":"0325K00003000000","a":"MILLERS RUN RD","m":"South Fayette","u":"L","o":"corp","sf":9667,"v":23500}},{"type":"Feature","geometry":{"type":"Point","coordinates":[-80.1591,40.34867]},"properties":{"p":"0325K00005000000","a":"642 MILLERS RUN RD","m":"South Fayette","u":"L","o":"individual","sf":10500,"v":17500}},{"type":"Feature","geometry":{"type":"Point","coordinates":[-80.152,40.3494]},"properties":{"p":"0325M00010000000","a":"MORGAN HILL RD","m":"South Fayette","u":"L","o":"individual","sf":7317,"v":21000}},{"type":"Feature","geometry":{"type":"Point","coordinates":[-80.15166,40.34944]},"properties":{"p":"0325M00011000000","a":"MORGAN HILL RD","m":"South Fayette","u":"L","o":"individual","sf":19197,"v":1700}},{"type":"Feature","geometry":{"type":"Point","coordinates":[-80.14798,40.34693]},"properties":{"p":"0324N00007000000","a":"HICKORY GRADE RD","m":"South Fayette","u":"L","o":"individual","sf":87120,"v":8000}},{"type":"Feature","geometry":{"type":"Point","coordinates":[-80.14864,40.34566]},"properties":{"p":"0324N00008000000","a":"HICKORY GRADE RD","m":"South Fayette","u":"L","o":"individual","sf":366457,"v":69900}},{"type":"Feature","geometry":{"type":"Point","coordinates":[-80.14913,40.34751]},"properties":{"p":"0324N00014000000","a":"MILLERS RUN RD","m":"South Fayette","u":"L","o":"corp","sf":65340,"v":6000}},{"type":"Feature","geometry":{"type":"Point","coordinates":[-80.15427,40.34975]},"properties":{"p":"0325M00045000000","a":"MORGAN ST","m":"South Fayette","u":"L","o":"individual","sf":3708,"v":300}},{"type":"Feature","geometry":{"type":"Point","coordinates":[-80.15349,40.34877]},"properties":{"p":"0325M00050000000","a":"MORGAN HILL RD","m":"South Fayette","u":"L","o":"individual","sf":16596,"v":1500}},{"type":"Feature","geometry":{"type":"Point","coordinates":[-80.15946,40.34728]},"properties":{"p":"0325P00011000000","a":"SOUTH FAYETTE ST","m":"South Fayette","u":"L","o":"individual","sf":35520,"v":3200}},{"type":"Feature","geometry":{"type":"Point","coordinates":[-80.15894,40.3474]},"properties":{"p":"0325P00012000000","a":"SOUTH FAYETTE ST","m":"South Fayette","u":"L","o":"individual","sf":8040,"v":700}},{"type":"Feature","geometry":{"type":"Point","coordinates":[-80.15866,40.3479]},"properties":{"p":"0325P00014000000","a":"SOUTH FAYETTE ST","m":"South Fayette","u":"L","o":"corp","sf":7826,"v":21500}},{"type":"Feature","geometry":{"type":"Point","coordinates":[-80.15509,40.34632]},"properties":{"p":"0325R00003000000","a":"ALLEGHENY AVE","m":"South Fayette","u":"L","o":"individual","sf":963,"v":100}},{"type":"Feature","geometry":{"type":"Point","coordinates":[-80.1403,40.3478]},"properties":{"p":"0324R00048000000","a":"CALEDONIA CT","m":"South Fayette","u":"L","o":"corp","sf":8635,"v":0}},{"type":"Feature","geometry":{"type":"Point","coordinates":[-80.15522,40.34631]},"properties":{"p":"0325R00004000000","a":"ALLEGHENY AVE","m":"South Fayette","u":"L","o":"corp","sf":2356,"v":200}},{"type":"Feature","geometry":{"type":"Point","coordinates":[-80.1581,40.34841]},"properties":{"p":"0325L00044000000","a":"631 MILLERS RUN RD","m":"South Fayette","u":"L","o":"individual","sf":1072,"v":100}},{"type":"Feature","geometry":{"type":"Point","coordinates":[-80.15827,40.34948]},"properties":{"p":"0325L00047000000","a":"DURYMORE ST","m":"South Fayette","u":"L","o":"individual","sf":290711,"v":46600}},{"type":"Feature","geometry":{"type":"Point","coordinates":[-80.15619,40.34907]},"properties":{"p":"0325L00056000000","a":"DINSMORE ST","m":"South Fayette","u":"L","o":"individual","sf":3922,"v":400}},{"type":"Feature","geometry":{"type":"Point","coordinates":[-80.15418,40.34728]},"properties":{"p":"0325R00055000000","a":"MILLERS RUN RD","m":"South Fayette","u":"L","o":"individual","sf":28101,"v":2500}},{"type":"Feature","geometry":{"type":"Point","coordinates":[-80.15748,40.34826]},"properties":{"p":"0325R00077000000","a":"S FAYETTE ST","m":"South Fayette","u":"L","o":"individual","sf":4637,"v":400}},{"type":"Feature","geometry":{"type":"Point","coordinates":[-80.15727,40.34827]},"properties":{"p":"0325R00078000000","a":"S FAYETTE ST","m":"South Fayette","u":"L","o":"individual","sf":3300,"v":300}},{"type":"Feature","geometry":{"type":"Point","coordinates":[-80.15707,40.34829]},"properties":{"p":"0325R00079000000","a":"S FAYETTE ST","m":"South Fayette","u":"L","o":"individual","sf":4013,"v":400}},{"type":"Feature","geometry":{"type":"Point","coordinates":[-80.15377,40.34764]},"properties":{"p":"0325S00002000000","a":"1300 CUDDY LN","m":"South Fayette","u":"L","o":"corp","sf":11913,"v":26000}},{"type":"Feature","geometry":{"type":"Point","coordinates":[-80.15793,40.33742]},"properties":{"p":"0483C00001000000","a":"LINDSAY LN","m":"South Fayette","u":"L","o":"individual","sf":234788,"v":45000}},{"type":"Feature","geometry":{"type":"Point","coordinates":[-80.14175,40.33075]},"properties":{"p":"0482L00002000000","a":"WASHINGTON PIKE","m":"South Fayette","u":"L","o":"individual","sf":106021,"v":34600}},{"type":"Feature","geometry":{"type":"Point","coordinates":[-80.15719,40.34424]},"properties":{"p":"0400C00049000000","a":"HICKORY GRADE RD","m":"South Fayette","u":"L","o":"individual","sf":505296,"v":11600}},{"type":"Feature","geometry":{"type":"Point","coordinates":[-80.1568,40.34797]},"properties":{"p":"0325R00030000000","a":"SOUTH FAYETTE ST","m":"South Fayette","u":"L","o":"individual","sf":8580,"v":22400}},{"type":"Feature","geometry":{"type":"Point","coordinates":[-80.15512,40.34726]},"properties":{"p":"0325R00049000000","a":"CREST RD","m":"South Fayette","u":"L","o":"individual","sf":20909,"v":1900}},{"type":"Feature","geometry":{"type":"Point","coordinates":[-80.15408,40.33802]},"properties":{"p":"0400L00020000000","a":"8914 BELLA DANYELLE CT","m":"South Fayette","u":"L","o":"individual","sf":819407,"v":129800}},{"type":"Feature","geometry":{"type":"Point","coordinates":[-80.15215,40.34706]},"properties":{"p":"9946X00174000000","a":"CAMPBELL AVE","m":"South Fayette","u":"L","o":"corp","sf":44867,"v":29000}},{"type":"Feature","geometry":{"type":"Point","coordinates":[-80.15871,40.34583]},"properties":{"p":"0400B00006000000","a":"59 CAMPBELL AVE","m":"South Fayette","u":"L","o":"individual","sf":2869,"v":300}},{"type":"Feature","geometry":{"type":"Point","coordinates":[-80.15527,40.34928]},"properties":{"p":"0325L00023000000","a":"18 MORGAN ST","m":"South Fayette","u":"L","o":"individual","sf":5175,"v":18700}},{"type":"Feature","geometry":{"type":"Point","coordinates":[-80.14853,40.34727]},"properties":{"p":"0324N00010000000","a":"HICKORY GRADE RD","m":"South Fayette","u":"L","o":"individual","sf":114563,"v":10500}},{"type":"Feature","geometry":{"type":"Point","coordinates":[-80.15506,40.34896]},"properties":{"p":"0325L00013000000","a":"MORGAN HILL RD","m":"South Fayette","u":"L","o":"individual","sf":1200,"v":100}},{"type":"Feature","geometry":{"type":"Point","coordinates":[-80.15459,40.34621]},"properties":{"p":"0325R00020000000","a":"ALLEGHENY AVE","m":"South Fayette","u":"L","o":"individual","sf":6008,"v":19600}}]}