{"type":"FeatureCollection","features":[{"type":"Feature","geometry":{"type":"Point","coordinates":[-80.12656,40.51304]},"properties":{"p":"0274P00375000000","a":"OHIO RIVER BLVD","m":"Neville","u":"I","o":"corp","sf":26833,"v":71400}},{"type":"Feature","geometry":{"type":"Point","coordinates":[-80.12774,40.51331]},"properties":{"p":"0274P00242000000","a":"FRONT RIVER RD","m":"Neville","u":"I","o":"corp","sf":22520,"v":64000}},{"type":"Feature","geometry":{"type":"Point","coordinates":[-80.12575,40.51287]},"properties":{"p":"0274P00398000001","a":"RIVER RD","m":"Neville","u":"I","o":"corp","sf":5750,"v":19700}},{"type":"Feature","geometry":{"type":"Point","coordinates":[-80.13302,40.51681]},"properties":{"p":"0273H00215000000","a":"200 DAWSON AVE","m":"Glenfield","u":"C","o":"corp","sf":61855,"v":25000}},{"type":"Feature","geometry":{"type":"Point","coordinates":[-80.12841,40.52167]},"properties":{"p":"0274A00278000000","a":"PRIVATE RD","m":"Glenfield","u":"C","o":"corp","sf":145926,"v":22300}},{"type":"Feature","geometry":{"type":"Point","coordinates":[-80.12939,40.51595]},"properties":{"p":"0274J00002000000","a":"PHILLIPS LN","m":"Glenfield","u":"C","o":"corp","sf":4750,"v":11900}},{"type":"Feature","geometry":{"type":"Point","coordinates":[-80.12914,40.51621]},"properties":{"p":"0274K00012000000","a":"PHILLIPS LN","m":"Glenfield","u":"C","o":"corp","sf":5942,"v":14900}},{"type":"Feature","geometry":{"type":"Point","coordinates":[-80.12849,40.51608]},"properties":{"p":"0274K00014000000","a":"E BEAVER ST","m":"Glenfield","u":"C","o":"corp","sf":23174,"v":57900}},{"type":"Feature","geometry":{"type":"Point","coordinates":[-80.13785,40.52455]},"properties":{"p":"0344L00115000000","a":"SCHOOL ST","m":"Glenfield","u":"C","o":"corp","sf":310148,"v":11300}},{"type":"Feature","geometry":{"type":"Point","coordinates":[-80.13325,40.5246]},"properties":{"p":"0344M00040000000","a":"KILBUCK ST","m":"Glenfield","u":"C","o":"corp","sf":132858,"v":9200}},{"type":"Feature","geometry":{"type":"Point","coordinates":[-80.13427,40.52354]},"properties":{"p":"0344M00072000000","a":"SCHOOL ST","m":"Glenfield","u":"C","o":"corp","sf":9496,"v":2200}},{"type":"Feature","geometry":{"type":"Point","coordinates":[-80.12453,40.51853]},"properties":{"p":"0274F00157000000","a":"HILL RD","m":"Glenfield","u":"C","o":"corp","sf":178160,"v":25300}},{"type":"Feature","geometry":{"type":"Point","coordinates":[-80.1244,40.51551]},"properties":{"p":"0274L00119000000","a":"E BEAVER ST","m":"Glenfield","u":"C","o":"corp","sf":45002,"v":22500}},{"type":"Feature","geometry":{"type":"Point","coordinates":[-80.12155,40.51495]},"properties":{"p":"0274L00039000000","a":"E BEAVER ST","m":"Glenfield","u":"C","o":"corp","sf":15002,"v":7500}},{"type":"Feature","geometry":{"type":"Point","coordinates":[-80.12199,40.51503]},"properties":{"p":"0274L00063000000","a":"E BEAVER ST","m":"Glenfield","u":"C","o":"corp","sf":52886,"v":26400}},{"type":"Feature","geometry":{"type":"Point","coordinates":[-80.1388,40.5228]},"properties":{"p":"0344R00010000000","a":"SCHOOL ST","m":"Glenfield","u":"C","o":"individual","sf":228690,"v":6700}},{"type":"Feature","geometry":{"type":"Point","coordinates":[-80.13338,40.52355]},"properties":{"p":"0344S00015000000","a":"SCHOOL ST","m":"Glenfield","u":"C","o":"corp","sf":43560,"v":3000}},{"type":"Feature","geometry":{"type":"Point","coordinates":[-80.13375,40.52335]},"properties":{"p":"0344S00024000000","a":"DEER RUN RD","m":"Glenfield","u":"C","o":"corp","sf":65192,"v":4500}},{"type":"Feature","geometry":{"type":"Point","coordinates":[-80.13407,40.52321]},"properties":{"p":"0344S00028000000","a":"DEER RUN RD","m":"Glenfield","u":"C","o":"corp","sf":21780,"v":10900}},{"type":"Feature","geometry":{"type":"Point","coordinates":[-80.13508,40.52023]},"properties":{"p":"0273D00165000000","a":"OHIO RIVER BLVD","m":"Glenfield","u":"C","o":"corp","sf":77537,"v":16000}},{"type":"Feature","geometry":{"type":"Point","coordinates":[-80.12174,40.52767]},"properties":{"p":"0345G00100000000","a":"DUFF RD","m":"Aleppo","u":"C","o":"individual","sf":137606,"v":9500}},{"type":"Feature","geometry":{"type":"Point","coordinates":[-80.13229,40.52875]},"properties":{"p":"0345A00044000000","a":"DEER RUN RD","m":"Aleppo","u":"C","o":"corp","sf":1456372,"v":78900}},{"type":"Feature","geometry":{"type":"Point","coordinates":[-80.1307,40.51208]},"properties":{"p":"0274N00028000000","a":"5500 GRAND AVE","m":"Neville","u":"C","o":"corp","sf":3462,"v":31200}},{"type":"Feature","geometry":{"type":"Point","coordinates":[-80.13084,40.51211]},"properties":{"p":"0274N00032000000","a":"5500 GRAND AVE","m":"Neville","u":"C","o":"corp","sf":6819,"v":37000}},{"type":"Feature","geometry":{"type":"Point","coordinates":[-80.13105,40.51215]},"properties":{"p":"0274N00036000000","a":"5500 GRAND AVE","m":"Neville","u":"C","o":"corp","sf":6322,"v":36100}},{"type":"Feature","geometry":{"type":"Point","coordinates":[-80.13912,40.5118]},"properties":{"p":"0273R00145000000","a":"BACK CHANNEL","m":"Neville","u":"C","o":"corp","sf":550598,"v":6300}},{"type":"Feature","geometry":{"type":"Point","coordinates":[-80.13642,40.51146]},"properties":{"p":"0273S00355000000","a":"BACK CHANNEL","m":"Neville","u":"C","o":"corp","sf":93654,"v":23400}},{"type":"Feature","geometry":{"type":"Point","coordinates":[-80.13618,40.51085]},"properties":{"p":"0273S00375000000","a":"BACK CHANNEL","m":"Neville","u":"C","o":"corp","sf":4356,"v":1100}},{"type":"Feature","geometry":{"type":"Point","coordinates":[-80.12599,40.51067]},"properties":{"p":"0211B00040000000","a":"GRAND AVE","m":"Neville","u":"C","o":"individual","sf":3491,"v":31300}},{"type":"Feature","geometry":{"type":"Point","coordinates":[-80.13763,40.51487]},"properties":{"p":"0273L00300000000","a":"ARIZONA AVE","m":"Neville","u":"C","o":"corp","sf":55757,"v":12800}},{"type":"Feature","geometry":{"type":"Point","coordinates":[-80.12381,40.51549]},"properties":{"p":"0274L00107000000","a":"E BEAVER ST","m":"Glenfield","u":"C","o":"corp","sf":64133,"v":32100}},{"type":"Feature","geometry":{"type":"Point","coordinates":[-80.13457,40.52466]},"properties":{"p":"0344M00078000000","a":"SCHOOL ST","m":"Glenfield","u":"C","o":"corp","sf":173020,"v":39700}},{"type":"Feature","geometry":{"type":"Point","coordinates":[-80.12922,40.5167]},"properties":{"p":"0274E00132000000","a":"E BEAVER ST","m":"Glenfield","u":"C","o":"corp","sf":6200,"v":3100}},{"type":"Feature","geometry":{"type":"Point","coordinates":[-80.13616,40.52443]},"properties":{"p":"0344S00049000000","a":"SCHOOL ST","m":"Glenfield","u":"C","o":"corp","sf":512701,"v":12000}},{"type":"Feature","geometry":{"type":"Point","coordinates":[-80.12546,40.51005]},"properties":{"p":"0211B00087000000","a":"GRAND AVE","m":"Neville","u":"C","o":"corp","sf":2200,"v":500}},{"type":"Feature","geometry":{"type":"Point","coordinates":[-80.13253,40.52329]},"properties":{"p":"0345N00291000000","a":"SCHOOL ST","m":"Glenfield","u":"C","o":"corp","sf":53831,"v":12400}},{"type":"Feature","geometry":{"type":"Point","coordinates":[-80.1345,40.52327]},"properties":{"p":"0344S00033000000","a":"SCHOOL ST","m":"Glenfield","u":"C","o":"individual","sf":18731,"v":9400}},{"type":"Feature","geometry":{"type":"Point","coordinates":[-80.13412,40.5223]},"properties":{"p":"0344S00265000000","a":"SCHOOL ST","m":"Glenfield","u":"C","o":"corp","sf":121968,"v":8400}},{"type":"Feature","geometry":{"type":"Point","coordinates":[-80.13211,40.52752]},"properties":{"p":"0345E00052000000","a":"KILBUCK RUN RD","m":"Aleppo","u":"C","o":"corp","sf":125218,"v":8600}},{"type":"Feature","geometry":{"type":"Point","coordinates":[-80.12878,40.5249]},"properties":{"p":"0345K00085000000","a":"KILBUCK ST","m":"Glenfield","u":"L","o":"individual","sf":43560,"v":12900}},{"type":"Feature","geometry":{"type":"Point","coordinates":[-80.12742,40.52496]},"properties":{"p":"0345K00105000000","a":"KILBUCK ST","m":"Glenfield","u":"L","o":"individual","sf":363290,"v":32200}},{"type":"Feature","geometry":{"type":"Point","coordinates":[-80.12768,40.52059]},"properties":{"p":"0274B00085000000","a":"HILL RD","m":"Glenfield","u":"L","o":"individual","sf":267458,"v":30000}},{"type":"Feature","geometry":{"type":"Point","coordinates":[-80.12752,40.51947]},"properties":{"p":"0274B00225000000","a":"HILL RD","m":"Glenfield","u":"L","o":"individual","sf":185566,"v":25900}},{"type":"Feature","geometry":{"type":"Point","coordinates":[-80.12731,40.52182]},"properties":{"p":"0345N00011000000","a":"HILL RD","m":"Glenfield","u":"L","o":"individual","sf":172498,"v":24700}},{"type":"Feature","geometry":{"type":"Point","coordinates":[-80.12983,40.52151]},"properties":{"p":"0345N00027000000","a":"KILBUCK ST","m":"Glenfield","u":"L","o":"individual","sf":35775,"v":12100}},{"type":"Feature","geometry":{"type":"Point","coordinates":[-80.1298,40.52178]},"properties":{"p":"0345N00030000000","a":"KILBUCK ST","m":"Glenfield","u":"L","o":"individual","sf":13482,"v":10100}},{"type":"Feature","geometry":{"type":"Point","coordinates":[-80.12141,40.52091]},"properties":{"p":"0274C00227000000","a":"HILL RD","m":"Glenfield","u":"L","o":"individual","sf":605637,"v":55400}},{"type":"Feature","geometry":{"type":"Point","coordinates":[-80.12106,40.5189]},"properties":{"p":"0274C00228000000","a":"HILL RD","m":"Glenfield","u":"L","o":"individual","sf":143835,"v":13200}},{"type":"Feature","geometry":{"type":"Point","coordinates":[-80.12094,40.51718]},"properties":{"p":"0274G00280000000","a":"OHIO RIVER BLVD","m":"Glenfield","u":"L","o":"individual","sf":158994,"v":23500}},{"type":"Feature","geometry":{"type":"Point","coordinates":[-80.1256,40.5233]},"properties":{"p":"0345P00345000000","a":"OLD HILL RD","m":"Glenfield","u":"L","o":"individual","sf":192971,"v":26600}},{"type":"Feature","geometry":{"type":"Point","coordinates":[-80.12454,40.52298]},"properties":{"p":"0345R00062000000","a":"HILL RD","m":"Glenfield","u":"L","o":"corp","sf":39670,"v":12500}},{"type":"Feature","geometry":{"type":"Point","coordinates":[-80.12966,40.52472]},"properties":{"p":"0345J00061000000","a":"KILBUCK ST","m":"Glenfield","u":"L","o":"individual","sf":16412,"v":10400}},{"type":"Feature","geometry":{"type":"Point","coordinates":[-80.1294,40.52436]},"properties":{"p":"0345J00078000000","a":"KILBUCK ST","m":"Glenfield","u":"L","o":"individual","sf":7500,"v":700}},{"type":"Feature","geometry":{"type":"Point","coordinates":[-80.1294,40.52405]},"properties":{"p":"0345J00084000000","a":"KILBUCK ST","m":"Glenfield","u":"L","o":"individual","sf":26205,"v":11200}},{"type":"Feature","geometry":{"type":"Point","coordinates":[-80.12941,40.52447]},"properties":{"p":"0345J00090000000","a":"KILBUCK ST","m":"Glenfield","u":"L","o":"individual","sf":7500,"v":700}},{"type":"Feature","geometry":{"type":"Point","coordinates":[-80.13535,40.51793]},"properties":{"p":"0273H00122000000","a":"DAWSON AVE","m":"Glenfield","u":"L","o":"individual","sf":11104,"v":12000}},{"type":"Feature","geometry":{"type":"Point","coordinates":[-80.1351,40.51789]},"properties":{"p":"0273H00127000000","a":"DAWSON AVE","m":"Glenfield","u":"L","o":"individual","sf":11475,"v":12200}},{"type":"Feature","geometry":{"type":"Point","coordinates":[-80.13498,40.51728]},"properties":{"p":"0273H00173000000","a":"117 CONRAD ST","m":"Glenfield","u":"L","o":"individual","sf":7550,"v":700}},{"type":"Feature","geometry":{"type":"Point","coordinates":[-80.12363,40.51742]},"properties":{"p":"0274G00022000000","a":"OHIO RIVER BLVD","m":"Glenfield","u":"L","o":"individual","sf":27934,"v":11400}},{"type":"Feature","geometry":{"type":"Point","coordinates":[-80.12082,40.51491]},"properties":{"p":"0274M00083000000","a":"E BEAVER ST","m":"Glenfield","u":"L","o":"individual","sf":18340,"v":13100}},{"type":"Feature","geometry":{"type":"Point","coordinates":[-80.12055,40.51485]},"properties":{"p":"0274M00089000000","a":"E BEAVER ST","m":"Glenfield","u":"L","o":"individual","sf":16110,"v":12900}},{"type":"Feature","geometry":{"type":"Point","coordinates":[-80.13571,40.52215]},"properties":{"p":"0344S00115000000","a":"SCHOOL ST","m":"Glenfield","u":"L","o":"individual","sf":130680,"v":6000}},{"type":"Feature","geometry":{"type":"Point","coordinates":[-80.13332,40.52189]},"properties":{"p":"0344S00275000000","a":"SCHOOL ST","m":"Glenfield","u":"L","o":"individual","sf":54450,"v":600}},{"type":"Feature","geometry":{"type":"Point","coordinates":[-80.13463,40.52006]},"properties":{"p":"0273D00211000000","a":"OHIO RIVER BLVD","m":"Glenfield","u":"L","o":"individual","sf":66211,"v":800}},{"type":"Feature","geometry":{"type":"Point","coordinates":[-80.13422,40.52012]},"properties":{"p":"0273D00253000000","a":"OHIO RIVER BLVD","m":"Glenfield","u":"L","o":"individual","sf":17860,"v":10500}},{"type":"Feature","geometry":{"type":"Point","coordinates":[-80.13865,40.51851]},"properties":{"p":"0273G00020000000","a":"DAWSON AVE","m":"Glenfield","u":"L","o":"individual","sf":5289,"v":500}},{"type":"Feature","geometry":{"type":"Point","coordinates":[-80.13633,40.51771]},"properties":{"p":"0273H00074000000","a":"247 DAWSON AVE","m":"Glenfield","u":"L","o":"individual","sf":13867,"v":1300}},{"type":"Feature","geometry":{"type":"Point","coordinates":[-80.13617,40.51766]},"properties":{"p":"0273H00083000000","a":"247 DAWSON AVE","m":"Glenfield","u":"L","o":"individual","sf":13780,"v":1200}},{"type":"Feature","geometry":{"type":"Point","coordinates":[-80.13599,40.51817]},"properties":{"p":"0273H00085000000","a":"DAWSON AVE","m":"Glenfield","u":"L","o":"individual","sf":6625,"v":600}},{"type":"Feature","geometry":{"type":"Point","coordinates":[-80.12976,40.5225]},"properties":{"p":"0345N00061000000","a":"320 KILBUCK ST","m":"Glenfield","u":"L","o":"corp","sf":3020,"v":1300}},{"type":"Feature","geometry":{"type":"Point","coordinates":[-80.12985,40.52291]},"properties":{"p":"0345N00077000000","a":"KILBUCK ST","m":"Glenfield","u":"L","o":"individual","sf":10454,"v":9300}},{"type":"Feature","geometry":{"type":"Point","coordinates":[-80.12109,40.51497]},"properties":{"p":"0274L00027000000","a":"300 E BEAVER ST","m":"Glenfield","u":"L","o":"individual","sf":18340,"v":13100}},{"type":"Feature","geometry":{"type":"Point","coordinates":[-80.13916,40.52139]},"properties":{"p":"0273C00035000000","a":"SCHOOL ST","m":"Glenfield","u":"L","o":"individual","sf":217800,"v":28900}},{"type":"Feature","geometry":{"type":"Point","coordinates":[-80.13843,40.51889]},"properties":{"p":"0273C00145000000","a":"293 DAWSON AVE","m":"Glenfield","u":"L","o":"individual","sf":7611,"v":700}},{"type":"Feature","geometry":{"type":"Point","coordinates":[-80.13664,40.52057]},"properties":{"p":"0273D00035000000","a":"OHIO RIVER BLVD","m":"Glenfield","u":"L","o":"individual","sf":69696,"v":800}},{"type":"Feature","geometry":{"type":"Point","coordinates":[-80.13624,40.52054]},"properties":{"p":"0273D00073000000","a":"OHIO RIVER BLVD","m":"Glenfield","u":"L","o":"individual","sf":79715,"v":7300}},{"type":"Feature","geometry":{"type":"Point","coordinates":[-80.13567,40.52029]},"properties":{"p":"0273D00107000000","a":"OHIO RIVER BLVD","m":"Glenfield","u":"L","o":"individual","sf":134600,"v":21300}},{"type":"Feature","geometry":{"type":"Point","coordinates":[-80.13924,40.52459]},"properties":{"p":"0344L00207000000","a":"HIBALA RD","m":"Aleppo","u":"L","o":"corp","sf":270742,"v":75300}},{"type":"Feature","geometry":{"type":"Point","coordinates":[-80.13994,40.52573]},"properties":{"p":"0344G00086000000","a":"MERRIMAN RD","m":"Aleppo","u":"L","o":"corp","sf":5619,"v":3100}},{"type":"Feature","geometry":{"type":"Point","coordinates":[-80.12635,40.51142]},"properties":{"p":"0274P00090000000","a":"3RD ST","m":"Neville","u":"L","o":"individual","sf":5000,"v":20000}},{"type":"Feature","geometry":{"type":"Point","coordinates":[-80.13056,40.51309]},"properties":{"p":"0274N00075000000","a":"HIMMER WAY","m":"Neville","u":"L","o":"individual","sf":2850,"v":1000}},{"type":"Feature","geometry":{"type":"Point","coordinates":[-80.13036,40.51307]},"properties":{"p":"0274N00077000000","a":"HIMMER WAY","m":"Neville","u":"L","o":"individual","sf":2850,"v":1000}},{"type":"Feature","geometry":{"type":"Point","coordinates":[-80.13051,40.51353]},"properties":{"p":"0274N00096000000","a":"OHIO ST","m":"Neville","u":"L","o":"individual","sf":7410,"v":20200}},{"type":"Feature","geometry":{"type":"Point","coordinates":[-80.13104,40.51244]},"properties":{"p":"0274N00039000000","a":"JANE ST","m":"Neville","u":"L","o":"individual","sf":2915,"v":15800}},{"type":"Feature","geometry":{"type":"Point","coordinates":[-80.1263,40.51006]},"properties":{"p":"0211B00127000000","a":"2ND ST","m":"Neville","u":"L","o":"individual","sf":3470,"v":1200}},{"type":"Feature","geometry":{"type":"Point","coordinates":[-80.12714,40.51217]},"properties":{"p":"0274P00162000000","a":"4TH ST","m":"Neville","u":"L","o":"individual","sf":5000,"v":20000}},{"type":"Feature","geometry":{"type":"Point","coordinates":[-80.1277,40.51182]},"properties":{"p":"0274P00196000000","a":"4TH ST","m":"Neville","u":"L","o":"individual","sf":2074,"v":800}},{"type":"Feature","geometry":{"type":"Point","coordinates":[-80.12601,40.51101]},"properties":{"p":"0211B00044000000","a":"2ND ST","m":"Neville","u":"L","o":"individual","sf":2500,"v":900}},{"type":"Feature","geometry":{"type":"Point","coordinates":[-80.12897,40.51299]},"properties":{"p":"0274P00366000000","a":"PHILLIPS AVE","m":"Neville","u":"L","o":"individual","sf":1307,"v":500}},{"type":"Feature","geometry":{"type":"Point","coordinates":[-80.12716,40.51251]},"properties":{"p":"0274P00152000000","a":"4TH ST","m":"Neville","u":"L","o":"individual","sf":5175,"v":20000}},{"type":"Feature","geometry":{"type":"Point","coordinates":[-80.1271,40.51234]},"properties":{"p":"0274P00156000000","a":"250 4TH ST","m":"Neville","u":"L","o":"individual","sf":2500,"v":900}},{"type":"Feature","geometry":{"type":"Point","coordinates":[-80.12675,40.51195]},"properties":{"p":"0274P00114000000","a":"3RD ST","m":"Neville","u":"L","o":"individual","sf":2500,"v":900}},{"type":"Feature","geometry":{"type":"Point","coordinates":[-80.1276,40.51229]},"properties":{"p":"0274P00211000000","a":"243 4TH ST","m":"Neville","u":"L","o":"individual","sf":2937,"v":1000}},{"type":"Feature","geometry":{"type":"Point","coordinates":[-80.12524,40.51243]},"properties":{"p":"0274R00020000000","a":"FRONT RIVER RD","m":"Neville","u":"L","o":"corp","sf":6457,"v":20100}},{"type":"Feature","geometry":{"type":"Point","coordinates":[-80.12509,40.51237]},"properties":{"p":"0274R00023000000","a":"FRONT RIVER RD","m":"Neville","u":"L","o":"corp","sf":2500,"v":900}},{"type":"Feature","geometry":{"type":"Point","coordinates":[-80.12539,40.51003]},"properties":{"p":"0211B00086000000","a":"GRAND AVE","m":"Neville","u":"L","o":"corp","sf":2000,"v":14000}},{"type":"Feature","geometry":{"type":"Point","coordinates":[-80.12723,40.51624]},"properties":{"p":"0274F00010000000","a":"E BEAVER ST","m":"Glenfield","u":"L","o":"individual","sf":14280,"v":12700}},{"type":"Feature","geometry":{"type":"Point","coordinates":[-80.12542,40.51142]},"properties":{"p":"0211B00056000000","a":"2ND ST","m":"Neville","u":"L","o":"corp","sf":5000,"v":20000}},{"type":"Feature","geometry":{"type":"Point","coordinates":[-80.13078,40.51388]},"properties":{"p":"0274N00100000000","a":"OHIO ST","m":"Neville","u":"L","o":"individual","sf":3000,"v":1100}},{"type":"Feature","geometry":{"type":"Point","coordinates":[-80.12895,40.52602]},"properties":{"p":"0345F00052000000","a":"GLENFIELD RD","m":"Aleppo","u":"L","o":"individual","sf":50329,"v":44200}},{"type":"Feature","geometry":{"type":"Point","coordinates":[-80.13297,40.52352]},"properties":{"p":"0345N00305000000","a":"SCHOOL ST","m":"Glenfield","u":"L","o":"individual","sf":50965,"v":13600}},{"type":"Feature","geometry":{"type":"Point","coordinates":[-80.13046,40.51308]},"properties":{"p":"0274N00076000000","a":"HIMMER WAY","m":"Neville","u":"L","o":"individual","sf":2850,"v":1000}},{"type":"Feature","geometry":{"type":"Point","coordinates":[-80.12758,40.51237]},"properties":{"p":"0274P00213000000","a":"247 4TH ST","m":"Neville","u":"L","o":"corp","sf":2403,"v":900}},{"type":"Feature","geometry":{"type":"Point","coordinates":[-80.12721,40.51184]},"properties":{"p":"0274P00170000000","a":"4TH ST","m":"Neville","u":"L","o":"corp","sf":1250,"v":500}}]}