{"type":"FeatureCollection","features":[{"type":"Feature","geometry":{"type":"Point","coordinates":[-80.12842,40.39843]},"properties":{"p":"0200K00017000000","a":"NOBLESTOWN RD","m":"Collier","u":"I","o":"corp","sf":2430,"v":1000}},{"type":"Feature","geometry":{"type":"Point","coordinates":[-80.12855,40.39764]},"properties":{"p":"0200K00007000000","a":"NOBLESTOWN RD","m":"Collier","u":"C","o":"corp","sf":2600,"v":17500}},{"type":"Feature","geometry":{"type":"Point","coordinates":[-80.12558,40.39385]},"properties":{"p":"0199E00027000000","a":"WALKERS MILL RD","m":"Collier","u":"C","o":"corp","sf":1064606,"v":24500}},{"type":"Feature","geometry":{"type":"Point","coordinates":[-80.13045,40.39753]},"properties":{"p":"0200J00015000000","a":"3 WALKERS MILL RD","m":"Collier","u":"C","o":"corp","sf":3574,"v":7200}},{"type":"Feature","geometry":{"type":"Point","coordinates":[-80.12234,40.39554]},"properties":{"p":"0200R00001000000","a":"NOBLESTOWN  RD","m":"Collier","u":"C","o":"corp","sf":2617521,"v":60000}},{"type":"Feature","geometry":{"type":"Point","coordinates":[-80.12335,40.39174]},"properties":{"p":"0199G00030000000","a":"FARM RD","m":"Collier","u":"L","o":"corp","sf":87,"v":300}},{"type":"Feature","geometry":{"type":"Point","coordinates":[-80.1296,40.39702]},"properties":{"p":"0200J00024000000","a":"WALKERS MILL RD","m":"Collier","u":"L","o":"corp","sf":59851,"v":28000}},{"type":"Feature","geometry":{"type":"Point","coordinates":[-80.12696,40.39788]},"properties":{"p":"0200K00001000000","a":"NOBLESTOWN RD","m":"Collier","u":"L","o":"individual","sf":27737,"v":400}},{"type":"Feature","geometry":{"type":"Point","coordinates":[-80.13303,40.40196]},"properties":{"p":"0200A00001000000","a":"HIGHLANDVIEW RD","m":"Collier","u":"L","o":"individual","sf":18561,"v":1700}},{"type":"Feature","geometry":{"type":"Point","coordinates":[-80.12799,40.39789]},"properties":{"p":"0200K00009000000","a":"NOBLESTOWN RD","m":"Collier","u":"L","o":"individual","sf":14375,"v":4700}},{"type":"Feature","geometry":{"type":"Point","coordinates":[-80.13984,40.39942]},"properties":{"p":"0261G00017000000","a":"SYLVAN AVE","m":"Collier","u":"L","o":"individual","sf":1081,"v":100}},{"type":"Feature","geometry":{"type":"Point","coordinates":[-80.13148,40.39674]},"properties":{"p":"0200N00020000000","a":"WALKERS MILL RD","m":"Collier","u":"L","o":"corp","sf":8000,"v":23300}},{"type":"Feature","geometry":{"type":"Point","coordinates":[-80.13116,40.39687]},"properties":{"p":"0200N00023000000","a":"WALKERS MILL RD","m":"Collier","u":"L","o":"individual","sf":4000,"v":20700}},{"type":"Feature","geometry":{"type":"Point","coordinates":[-80.13118,40.39653]},"properties":{"p":"0200N00035000000","a":"WALKERS MILL RD","m":"Collier","u":"L","o":"corp","sf":6000,"v":23100}},{"type":"Feature","geometry":{"type":"Point","coordinates":[-80.12201,40.39037]},"properties":{"p":"0199G00016000000","a":"CARNOUSTIE DR","m":"Collier","u":"L","o":"corp","sf":49837,"v":10300}},{"type":"Feature","geometry":{"type":"Point","coordinates":[-80.13248,40.3939]},"properties":{"p":"0199A00006000000","a":"WALKER ST","m":"Collier","u":"L","o":"individual","sf":4596,"v":1000}},{"type":"Feature","geometry":{"type":"Point","coordinates":[-80.13666,40.40095]},"properties":{"p":"0261G00005000000","a":"MCMICHAEL RD","m":"Collier","u":"L","o":"individual","sf":427323,"v":66600}},{"type":"Feature","geometry":{"type":"Point","coordinates":[-80.12905,40.39784]},"properties":{"p":"0200J00020000000","a":"72 NOBLESTOWN RD","m":"Collier","u":"L","o":"individual","sf":3240,"v":1100}},{"type":"Feature","geometry":{"type":"Point","coordinates":[-80.12929,40.39776]},"properties":{"p":"0200J00021000000","a":"NOBLESTOWN RD","m":"Collier","u":"L","o":"individual","sf":8081,"v":23300}},{"type":"Feature","geometry":{"type":"Point","coordinates":[-80.12913,40.39782]},"properties":{"p":"0200J00022000000","a":"NOBLESTOWN RD","m":"Collier","u":"L","o":"individual","sf":3600,"v":1300}},{"type":"Feature","geometry":{"type":"Point","coordinates":[-80.13038,40.39509]},"properties":{"p":"0200N00001000000","a":"WALKERS MILL RD","m":"Collier","u":"L","o":"individual","sf":6303,"v":23100}},{"type":"Feature","geometry":{"type":"Point","coordinates":[-80.13224,40.39588]},"properties":{"p":"0200N00007000000","a":"WALKERS MILL RD","m":"Collier","u":"L","o":"individual","sf":3200,"v":1100}},{"type":"Feature","geometry":{"type":"Point","coordinates":[-80.13194,40.39613]},"properties":{"p":"0200N00012000000","a":"WALKERS MILL RD","m":"Collier","u":"L","o":"individual","sf":24302,"v":24700}},{"type":"Feature","geometry":{"type":"Point","coordinates":[-80.1396,40.40238]},"properties":{"p":"0261C00010000000","a":"MCMICHAEL RD","m":"Collier","u":"L","o":"individual","sf":4258,"v":400}},{"type":"Feature","geometry":{"type":"Point","coordinates":[-80.12214,40.39057]},"properties":{"p":"0199G00006000000","a":"5014 CARNOUSTIE DR","m":"Collier","u":"L","o":"corp","sf":7710,"v":1600}},{"type":"Feature","geometry":{"type":"Point","coordinates":[-80.12674,40.40154]},"properties":{"p":"0200F00003000000","a":"SCOTTS RUN RD","m":"Collier","u":"L","o":"individual","sf":43560,"v":42900}},{"type":"Feature","geometry":{"type":"Point","coordinates":[-80.12888,40.39824]},"properties":{"p":"0200K00015000000","a":"UNNAMED WAY","m":"Collier","u":"L","o":"individual","sf":4050,"v":1400}},{"type":"Feature","geometry":{"type":"Point","coordinates":[-80.12951,40.39744]},"properties":{"p":"0200J00002000000","a":"NOBLESTOWN RD","m":"Collier","u":"L","o":"individual","sf":21437,"v":24500}},{"type":"Feature","geometry":{"type":"Point","coordinates":[-80.13078,40.39738]},"properties":{"p":"0200J00006000000","a":"NOBLESTOWN RD","m":"Collier","u":"L","o":"corp","sf":16117,"v":24000}},{"type":"Feature","geometry":{"type":"Point","coordinates":[-80.12821,40.39849]},"properties":{"p":"0200K00019000000","a":"UNNAMED AVE","m":"Collier","u":"L","o":"individual","sf":11980,"v":4900}},{"type":"Feature","geometry":{"type":"Point","coordinates":[-80.12385,40.39802]},"properties":{"p":"0200L00001000000","a":"ROBINSON RUN RD","m":"Collier","u":"L","o":"individual","sf":200110,"v":2500}},{"type":"Feature","geometry":{"type":"Point","coordinates":[-80.13104,40.39614]},"properties":{"p":"0200N00043000000","a":"EWING ST","m":"Collier","u":"L","o":"individual","sf":6841,"v":3800}},{"type":"Feature","geometry":{"type":"Point","coordinates":[-80.12933,40.39025]},"properties":{"p":"0199E00001000000","a":"CROWN PL","m":"Collier","u":"L","o":"corp","sf":27394,"v":93200}},{"type":"Feature","geometry":{"type":"Point","coordinates":[-80.13436,40.39376]},"properties":{"p":"0260D00100000000","a":"WALKER ST","m":"Collier","u":"L","o":"individual","sf":180774,"v":10600}},{"type":"Feature","geometry":{"type":"Point","coordinates":[-80.12984,40.40791]},"properties":{"p":"0201E00002000000","a":"SCOTTS RUN RD","m":"Collier","u":"L","o":"individual","sf":888624,"v":74300}},{"type":"Feature","geometry":{"type":"Point","coordinates":[-80.12062,40.40604]},"properties":{"p":"0201R00004000000","a":"FORT PITT RD","m":"Collier","u":"L","o":"individual","sf":361373,"v":67400}},{"type":"Feature","geometry":{"type":"Point","coordinates":[-80.12865,40.39053]},"properties":{"p":"0199F00009000000","a":"CROWN PL","m":"Collier","u":"L","o":"individual","sf":22420,"v":92200}},{"type":"Feature","geometry":{"type":"Point","coordinates":[-80.1377,40.3975]},"properties":{"p":"0261L00059000000","a":"ARLINGTON AVE","m":"Collier","u":"L","o":"individual","sf":5813,"v":500}},{"type":"Feature","geometry":{"type":"Point","coordinates":[-80.13639,40.39766]},"properties":{"p":"0261M00009000000","a":"131 NOBLESTOWN RD","m":"Collier","u":"L","o":"individual","sf":11044,"v":1000}},{"type":"Feature","geometry":{"type":"Point","coordinates":[-80.13688,40.39519]},"properties":{"p":"0261S00018000000","a":"WALNUT ST","m":"Collier","u":"L","o":"individual","sf":950,"v":100}},{"type":"Feature","geometry":{"type":"Point","coordinates":[-80.13694,40.39549]},"properties":{"p":"0261S00019000000","a":"SUBURBAN AVE","m":"Collier","u":"L","o":"individual","sf":900,"v":100}},{"type":"Feature","geometry":{"type":"Point","coordinates":[-80.13921,40.39548]},"properties":{"p":"0261R00026000000","a":"MAPLE AVE","m":"Collier","u":"L","o":"individual","sf":11780,"v":39600}},{"type":"Feature","geometry":{"type":"Point","coordinates":[-80.13953,40.39557]},"properties":{"p":"0261R00028000000","a":"HOME AVE","m":"Collier","u":"L","o":"individual","sf":9600,"v":900}},{"type":"Feature","geometry":{"type":"Point","coordinates":[-80.13133,40.39645]},"properties":{"p":"0200N00010000000","a":"WALKERS MILL RD","m":"Collier","u":"L","o":"corp","sf":2000,"v":16100}},{"type":"Feature","geometry":{"type":"Point","coordinates":[-80.13344,40.40117]},"properties":{"p":"0261H00010000000","a":"HIGHLANDVIEW RD","m":"Collier","u":"L","o":"individual","sf":4360,"v":400}},{"type":"Feature","geometry":{"type":"Point","coordinates":[-80.13203,40.39641]},"properties":{"p":"0200N00011000000","a":"WALKERS MILL RD","m":"Collier","u":"L","o":"individual","sf":8750,"v":2900}},{"type":"Feature","geometry":{"type":"Point","coordinates":[-80.1382,40.39708]},"properties":{"p":"0261L00064000000","a":"9 ARLINGTON AVE","m":"Collier","u":"L","o":"individual","sf":1680,"v":200}},{"type":"Feature","geometry":{"type":"Point","coordinates":[-80.13098,40.39589]},"properties":{"p":"0200N00042000000","a":"EWING ST","m":"Collier","u":"L","o":"individual","sf":5500,"v":1900}},{"type":"Feature","geometry":{"type":"Point","coordinates":[-80.13148,40.39645]},"properties":{"p":"0200N00039000000","a":"WALKERS MILL RD","m":"Collier","u":"L","o":"corp","sf":4000,"v":20700}},{"type":"Feature","geometry":{"type":"Point","coordinates":[-80.13945,40.40795]},"properties":{"p":"0262L00017000000","a":"MCMICHAEL RD","m":"Collier","u":"L","o":"individual","sf":9235,"v":800}},{"type":"Feature","geometry":{"type":"Point","coordinates":[-80.12329,40.39351]},"properties":{"p":"0199C00026000000","a":"HILLTOP RD","m":"Collier","u":"B","o":"corp","sf":106548,"v":33000}}]}