{"type":"FeatureCollection","features":[{"type":"Feature","geometry":{"type":"Point","coordinates":[-80.12834,40.42791]},"properties":{"p":"0203K00006000000","a":"CAMPBELLS RUN RD","m":"Collier","u":"C","o":"corp","sf":9230,"v":100}},{"type":"Feature","geometry":{"type":"Point","coordinates":[-80.13122,40.42621]},"properties":{"p":"0203N00001000000","a":"BALDWIN RD","m":"Collier","u":"C","o":"corp","sf":1123491,"v":115500}},{"type":"Feature","geometry":{"type":"Point","coordinates":[-80.12214,40.42339]},"properties":{"p":"0202C00008000000","a":"BALDWIN RD","m":"Collier","u":"C","o":"corp","sf":2167981,"v":298600}},{"type":"Feature","geometry":{"type":"Point","coordinates":[-80.12252,40.42562]},"properties":{"p":"0203R00002000000","a":"CAMPBELLS RUN RD","m":"Collier","u":"C","o":"corp","sf":83204,"v":5700}},{"type":"Feature","geometry":{"type":"Point","coordinates":[-80.13685,40.42953]},"properties":{"p":"0264G00025000000","a":"RIDGE RD","m":"Collier","u":"C","o":"corp","sf":213872,"v":85000}},{"type":"Feature","geometry":{"type":"Point","coordinates":[-80.12226,40.42844]},"properties":{"p":"0203L00169000000","a":"1 PENN CENTER BLVD","m":"Robinson","u":"C","o":"corp","sf":254748,"v":164500}},{"type":"Feature","geometry":{"type":"Point","coordinates":[-80.12174,40.42733]},"properties":{"p":"0203L00175000000","a":"CAMPBELLS RUN RD","m":"Robinson","u":"C","o":"corp","sf":82050,"v":141300}},{"type":"Feature","geometry":{"type":"Point","coordinates":[-80.12022,40.42153]},"properties":{"p":"0202D00010000000","a":"BALDWIN RD EXT","m":"Collier","u":"L","o":"individual","sf":33193,"v":20100}},{"type":"Feature","geometry":{"type":"Point","coordinates":[-80.12839,40.42041]},"properties":{"p":"0202F00013000000","a":"BALDWIN RD EXT","m":"Collier","u":"L","o":"individual","sf":54886,"v":43900}},{"type":"Feature","geometry":{"type":"Point","coordinates":[-80.12733,40.41846]},"properties":{"p":"0202K00010000000","a":"LANGER LN","m":"Collier","u":"L","o":"corp","sf":43560,"v":40800}},{"type":"Feature","geometry":{"type":"Point","coordinates":[-80.12129,40.41751]},"properties":{"p":"0202L00001000000","a":"EWING RD","m":"Collier","u":"L","o":"individual","sf":150892,"v":40000}},{"type":"Feature","geometry":{"type":"Point","coordinates":[-80.12361,40.41723]},"properties":{"p":"0202L00003000000","a":"EWING RD","m":"Collier","u":"L","o":"individual","sf":44867,"v":4100}},{"type":"Feature","geometry":{"type":"Point","coordinates":[-80.12396,40.41839]},"properties":{"p":"0202L00008000000","a":"EWING RD","m":"Collier","u":"L","o":"individual","sf":29185,"v":21600}},{"type":"Feature","geometry":{"type":"Point","coordinates":[-80.12058,40.41438]},"properties":{"p":"0202S00008000000","a":"EWING RD","m":"Collier","u":"L","o":"individual","sf":29976,"v":10000}},{"type":"Feature","geometry":{"type":"Point","coordinates":[-80.12472,40.41925]},"properties":{"p":"0202F00028000000","a":"EWING RD","m":"Collier","u":"L","o":"individual","sf":21488,"v":20900}},{"type":"Feature","geometry":{"type":"Point","coordinates":[-80.12693,40.41919]},"properties":{"p":"0202F00034000000","a":"EWING RD","m":"Collier","u":"L","o":"individual","sf":16624,"v":40400}},{"type":"Feature","geometry":{"type":"Point","coordinates":[-80.13302,40.41969]},"properties":{"p":"0202E00009000000","a":"157 BALDWIN RD","m":"Collier","u":"L","o":"individual","sf":9598,"v":900}},{"type":"Feature","geometry":{"type":"Point","coordinates":[-80.13077,40.42029]},"properties":{"p":"0202E00010000000","a":"BALDWIN RD","m":"Collier","u":"L","o":"corp","sf":60113,"v":34600}},{"type":"Feature","geometry":{"type":"Point","coordinates":[-80.12634,40.41963]},"properties":{"p":"0202F00026000000","a":"EWING RD","m":"Collier","u":"L","o":"individual","sf":4670,"v":400}},{"type":"Feature","geometry":{"type":"Point","coordinates":[-80.12124,40.41988]},"properties":{"p":"0202G00013000000","a":"MITCHELL DR","m":"Collier","u":"L","o":"individual","sf":76920,"v":45800}},{"type":"Feature","geometry":{"type":"Point","coordinates":[-80.12075,40.41968]},"properties":{"p":"0202H00004000000","a":"MITCHELL DR","m":"Collier","u":"L","o":"individual","sf":53334,"v":43700}},{"type":"Feature","geometry":{"type":"Point","coordinates":[-80.13256,40.41373]},"properties":{"p":"0202N00001000000","a":"SCOTTS RUN RD","m":"Collier","u":"L","o":"individual","sf":435600,"v":50000}},{"type":"Feature","geometry":{"type":"Point","coordinates":[-80.12709,40.41477]},"properties":{"p":"0202P00001000000","a":"FORT PITT RD","m":"Collier","u":"L","o":"individual","sf":235224,"v":21200}},{"type":"Feature","geometry":{"type":"Point","coordinates":[-80.13558,40.42689]},"properties":{"p":"0264M00001000000","a":"606 RIDGE RD","m":"Collier","u":"L","o":"individual","sf":87120,"v":57900}},{"type":"Feature","geometry":{"type":"Point","coordinates":[-80.13909,40.42015]},"properties":{"p":"0263G00009000000","a":"156 MCMICHAEL RD","m":"Collier","u":"L","o":"individual","sf":97487,"v":1100}},{"type":"Feature","geometry":{"type":"Point","coordinates":[-80.13468,40.41608]},"properties":{"p":"0263S00002000000","a":"SCOTTS RUN RD","m":"Collier","u":"L","o":"individual","sf":444743,"v":74500}},{"type":"Feature","geometry":{"type":"Point","coordinates":[-80.1335,40.41933]},"properties":{"p":"0263H00015000000","a":"805 SCOTTS RUN RD","m":"Collier","u":"L","o":"individual","sf":9604,"v":900}},{"type":"Feature","geometry":{"type":"Point","coordinates":[-80.13514,40.42683]},"properties":{"p":"0264M00026000000","a":"604 RIDGE RD","m":"Collier","u":"B","o":"corp","sf":87120,"v":15000}},{"type":"Feature","geometry":{"type":"Point","coordinates":[-80.13384,40.42622]},"properties":{"p":"0264M00013000000","a":"FREEDOM DR","m":"Collier","u":"B","o":"corp","sf":13760,"v":0}},{"type":"Feature","geometry":{"type":"Point","coordinates":[-80.13983,40.42904]},"properties":{"p":"0264G00252000000","a":"767 OLIVIA ST","m":"Collier","u":"B","o":"individual","sf":2717,"v":1100}},{"type":"Feature","geometry":{"type":"Point","coordinates":[-80.13985,40.42898]},"properties":{"p":"0264G00254000000","a":"765 OLIVIA ST","m":"Collier","u":"B","o":"corp","sf":2742,"v":1100}},{"type":"Feature","geometry":{"type":"Point","coordinates":[-80.13988,40.42892]},"properties":{"p":"0264G00256000000","a":"763 OLIVIA ST","m":"Collier","u":"B","o":"individual","sf":2744,"v":1100}},{"type":"Feature","geometry":{"type":"Point","coordinates":[-80.13988,40.42881]},"properties":{"p":"0264G00258000000","a":"761 OLIVIA ST","m":"Collier","u":"B","o":"individual","sf":4896,"v":1100}},{"type":"Feature","geometry":{"type":"Point","coordinates":[-80.13997,40.42872]},"properties":{"p":"0264G00260000000","a":"757 OLIVIA ST","m":"Collier","u":"B","o":"corp","sf":4806,"v":1100}},{"type":"Feature","geometry":{"type":"Point","coordinates":[-80.13343,40.4201]},"properties":{"p":"0263H00025000000","a":"156 BALDWIN RD","m":"Collier","u":"B","o":"corp","sf":10209,"v":7300}},{"type":"Feature","geometry":{"type":"Point","coordinates":[-80.13916,40.42944]},"properties":{"p":"0264G00132000000","a":"776 OLIVIA ST","m":"Collier","u":"B","o":"corp","sf":5088,"v":1100}},{"type":"Feature","geometry":{"type":"Point","coordinates":[-80.1392,40.42909]},"properties":{"p":"0264G00140000000","a":"768 OLIVIA ST","m":"Collier","u":"B","o":"individual","sf":5761,"v":1100}},{"type":"Feature","geometry":{"type":"Point","coordinates":[-80.13923,40.42898]},"properties":{"p":"0264G00142000000","a":"766 OLIVIA ST","m":"Collier","u":"B","o":"individual","sf":2772,"v":1100}},{"type":"Feature","geometry":{"type":"Point","coordinates":[-80.13925,40.42891]},"properties":{"p":"0264G00144000000","a":"764 OLIVIA ST","m":"Collier","u":"B","o":"individual","sf":2753,"v":1100}},{"type":"Feature","geometry":{"type":"Point","coordinates":[-80.13928,40.42885]},"properties":{"p":"0264G00146000000","a":"762 OLIVIA ST","m":"Collier","u":"B","o":"individual","sf":2762,"v":1100}},{"type":"Feature","geometry":{"type":"Point","coordinates":[-80.13923,40.42871]},"properties":{"p":"0264G00148000000","a":"760 OLIVIA ST","m":"Collier","u":"B","o":"individual","sf":5138,"v":1100}},{"type":"Feature","geometry":{"type":"Point","coordinates":[-80.13977,40.42911]},"properties":{"p":"0264G00250000000","a":"769 OLIVIA ST","m":"Collier","u":"B","o":"individual","sf":4762,"v":1100}}]}