{"type":"FeatureCollection","features":[{"type":"Feature","geometry":{"type":"Point","coordinates":[-80.13372,40.4337]},"properties":{"p":"0265S00025000000","a":"PARKWAY VIEW DR","m":"Robinson","u":"I","o":"corp","sf":10541,"v":1500}},{"type":"Feature","geometry":{"type":"Point","coordinates":[-80.13321,40.43348]},"properties":{"p":"0265S00106000000","a":"VISTA DR","m":"Robinson","u":"I","o":"corp","sf":344,"v":200}},{"type":"Feature","geometry":{"type":"Point","coordinates":[-80.1334,40.43119]},"properties":{"p":"0264D00215000000","a":"PARKWAY VIEW DR","m":"Robinson","u":"I","o":"corp","sf":38099,"v":5300}},{"type":"Feature","geometry":{"type":"Point","coordinates":[-80.13903,40.44577]},"properties":{"p":"0266R00195000000","a":"STEUBENVILLE PIKE","m":"Robinson","u":"C","o":"individual","sf":689990,"v":225000}},{"type":"Feature","geometry":{"type":"Point","coordinates":[-80.1216,40.44781]},"properties":{"p":"0205L00149000000","a":"PLANET WAY","m":"Robinson","u":"C","o":"corp","sf":27151,"v":15000}},{"type":"Feature","geometry":{"type":"Point","coordinates":[-80.1244,40.44779]},"properties":{"p":"0205L00386000000","a":"MOON RUN RD","m":"Robinson","u":"C","o":"individual","sf":13504,"v":5400}},{"type":"Feature","geometry":{"type":"Point","coordinates":[-80.13026,40.43833]},"properties":{"p":"0204J00215000000","a":"R OF W","m":"Robinson","u":"C","o":"corp","sf":128729,"v":23300}},{"type":"Feature","geometry":{"type":"Point","coordinates":[-80.12044,40.44945]},"properties":{"p":"0205G00132000000","a":"STEUBENVILLE PIKE","m":"Robinson","u":"C","o":"corp","sf":127369,"v":138500}},{"type":"Feature","geometry":{"type":"Point","coordinates":[-80.12175,40.44911]},"properties":{"p":"0205G00148000000","a":"STEUBENVILLE PIKE","m":"Robinson","u":"C","o":"individual","sf":5706,"v":2300}},{"type":"Feature","geometry":{"type":"Point","coordinates":[-80.13629,40.43194]},"properties":{"p":"0264D00042000000","a":"VISTA DR","m":"Robinson","u":"C","o":"individual","sf":615,"v":100}},{"type":"Feature","geometry":{"type":"Point","coordinates":[-80.12406,40.44828]},"properties":{"p":"0205G00054000000","a":"MCCORMICK RD","m":"Robinson","u":"C","o":"corp","sf":1247,"v":500}},{"type":"Feature","geometry":{"type":"Point","coordinates":[-80.12266,40.4483]},"properties":{"p":"0205G00069000000","a":"STEUBENVILLE PIKE","m":"Robinson","u":"C","o":"corp","sf":82616,"v":40100}},{"type":"Feature","geometry":{"type":"Point","coordinates":[-80.12202,40.44789]},"properties":{"p":"0205G00087000000","a":"STEUBENVILLE PIKE","m":"Robinson","u":"C","o":"corp","sf":106757,"v":55100}},{"type":"Feature","geometry":{"type":"Point","coordinates":[-80.12942,40.43108]},"properties":{"p":"0203A00006000000","a":"GLASS RD","m":"Robinson","u":"C","o":"corp","sf":26659,"v":106200}},{"type":"Feature","geometry":{"type":"Point","coordinates":[-80.12911,40.43267]},"properties":{"p":"0203A00039000000","a":"GLASS RD","m":"Robinson","u":"C","o":"corp","sf":27671,"v":3900}},{"type":"Feature","geometry":{"type":"Point","coordinates":[-80.12774,40.43055]},"properties":{"p":"0203B00080000000","a":"7 PENN CENTER BLVD","m":"Robinson","u":"C","o":"corp","sf":183388,"v":366800}},{"type":"Feature","geometry":{"type":"Point","coordinates":[-80.12399,40.44944]},"properties":{"p":"0205G00183000000","a":"STEUBENVILLE PIKE","m":"Robinson","u":"C","o":"individual","sf":51196,"v":60100}},{"type":"Feature","geometry":{"type":"Point","coordinates":[-80.13345,40.43071]},"properties":{"p":"0264H00034000000","a":"CAMPBELLS RUN RD","m":"Robinson","u":"C","o":"corp","sf":41308,"v":28500}},{"type":"Feature","geometry":{"type":"Point","coordinates":[-80.1312,40.43729]},"properties":{"p":"0204J00210000000","a":"GLASS RD","m":"Robinson","u":"C","o":"corp","sf":231042,"v":43300}},{"type":"Feature","geometry":{"type":"Point","coordinates":[-80.13475,40.43147]},"properties":{"p":"0264D00083000000","a":"VISTA DR","m":"Robinson","u":"C","o":"corp","sf":12324,"v":4900}},{"type":"Feature","geometry":{"type":"Point","coordinates":[-80.13781,40.4484]},"properties":{"p":"0266G00103000000","a":"SUNSET DR","m":"Robinson","u":"L","o":"individual","sf":24064,"v":26300}},{"type":"Feature","geometry":{"type":"Point","coordinates":[-80.13857,40.44986]},"properties":{"p":"0266G00137000000","a":"106 SUNSET DR","m":"Robinson","u":"L","o":"individual","sf":20625,"v":51000}},{"type":"Feature","geometry":{"type":"Point","coordinates":[-80.13592,40.44686]},"properties":{"p":"0266M00111000000","a":"WALNUT DR","m":"Robinson","u":"L","o":"individual","sf":13417,"v":18900}},{"type":"Feature","geometry":{"type":"Point","coordinates":[-80.13512,40.44721]},"properties":{"p":"0266M00117000000","a":"HICKORY CIR","m":"Robinson","u":"L","o":"corp","sf":5479,"v":700}},{"type":"Feature","geometry":{"type":"Point","coordinates":[-80.13637,40.44719]},"properties":{"p":"0266M00125000000","a":"HICKORY CIR","m":"Robinson","u":"L","o":"individual","sf":3300,"v":500}},{"type":"Feature","geometry":{"type":"Point","coordinates":[-80.13712,40.44401]},"properties":{"p":"0266S00340000000","a":"MCMICHAEL RD","m":"Robinson","u":"L","o":"individual","sf":7840,"v":900}},{"type":"Feature","geometry":{"type":"Point","coordinates":[-80.13719,40.44492]},"properties":{"p":"0266S00376000000","a":"569 MCMICHAEL RD","m":"Robinson","u":"L","o":"individual","sf":13926,"v":1500}},{"type":"Feature","geometry":{"type":"Point","coordinates":[-80.13963,40.4483]},"properties":{"p":"0266G00251000000","a":"TIDBALL RD","m":"Robinson","u":"L","o":"corp","sf":34931,"v":18000}},{"type":"Feature","geometry":{"type":"Point","coordinates":[-80.13772,40.44596]},"properties":{"p":"0266M00072000000","a":"TIDBALL RD","m":"Robinson","u":"L","o":"corp","sf":170189,"v":6400}},{"type":"Feature","geometry":{"type":"Point","coordinates":[-80.13629,40.44294]},"properties":{"p":"0266S00248000000","a":"VENEZE DR","m":"Robinson","u":"L","o":"individual","sf":15057,"v":25300}},{"type":"Feature","geometry":{"type":"Point","coordinates":[-80.13538,40.44599]},"properties":{"p":"0266M00190000000","a":"MCCORMICK RD","m":"Robinson","u":"L","o":"individual","sf":740,"v":100}},{"type":"Feature","geometry":{"type":"Point","coordinates":[-80.12948,40.4453]},"properties":{"p":"0205P00239000000","a":"BEECH DR","m":"Robinson","u":"L","o":"corp","sf":58932,"v":0}},{"type":"Feature","geometry":{"type":"Point","coordinates":[-80.13064,40.43932]},"properties":{"p":"0204E00164000000","a":"HALL ST","m":"Robinson","u":"L","o":"individual","sf":72584,"v":32000}},{"type":"Feature","geometry":{"type":"Point","coordinates":[-80.12967,40.43929]},"properties":{"p":"0204E00165000000","a":"R OF W","m":"Robinson","u":"L","o":"individual","sf":113256,"v":1300}},{"type":"Feature","geometry":{"type":"Point","coordinates":[-80.13251,40.44267]},"properties":{"p":"0204A00032000000","a":"GLASS RD","m":"Robinson","u":"L","o":"individual","sf":11187,"v":1200}},{"type":"Feature","geometry":{"type":"Point","coordinates":[-80.13052,40.4427]},"properties":{"p":"0204A00067000000","a":"BLUE RIDGE DR","m":"Robinson","u":"L","o":"individual","sf":29258,"v":51900}},{"type":"Feature","geometry":{"type":"Point","coordinates":[-80.13009,40.44274]},"properties":{"p":"0204A00083000000","a":"BLUE RIDGE DR","m":"Robinson","u":"L","o":"individual","sf":15000,"v":25200}},{"type":"Feature","geometry":{"type":"Point","coordinates":[-80.1297,40.4428]},"properties":{"p":"0204A00090000000","a":"BLUE RIDGE DR","m":"Robinson","u":"L","o":"individual","sf":30000,"v":8000}},{"type":"Feature","geometry":{"type":"Point","coordinates":[-80.12995,40.44204]},"properties":{"p":"0204A00166000000","a":"BLUE RIDGE DR","m":"Robinson","u":"L","o":"individual","sf":36679,"v":9600}},{"type":"Feature","geometry":{"type":"Point","coordinates":[-80.13221,40.44156]},"properties":{"p":"0204A00357000000","a":"GLASS RD","m":"Robinson","u":"L","o":"individual","sf":3637,"v":400}},{"type":"Feature","geometry":{"type":"Point","coordinates":[-80.12907,40.4399]},"properties":{"p":"0204E00092000000","a":"GLASS RD","m":"Robinson","u":"L","o":"individual","sf":213096,"v":2500}},{"type":"Feature","geometry":{"type":"Point","coordinates":[-80.12918,40.44023]},"properties":{"p":"0204E00101000000","a":"GLASS RD","m":"Robinson","u":"L","o":"individual","sf":1372,"v":200}},{"type":"Feature","geometry":{"type":"Point","coordinates":[-80.12911,40.44022]},"properties":{"p":"0204E00103000000","a":"GLASS RD","m":"Robinson","u":"L","o":"individual","sf":2860,"v":300}},{"type":"Feature","geometry":{"type":"Point","coordinates":[-80.12471,40.44587]},"properties":{"p":"0205P00025000000","a":"MCCORMICK RD","m":"Robinson","u":"L","o":"individual","sf":3750,"v":400}},{"type":"Feature","geometry":{"type":"Point","coordinates":[-80.12479,40.44576]},"properties":{"p":"0205P00030000000","a":"MCCORMICK RD","m":"Robinson","u":"L","o":"individual","sf":6811,"v":800}},{"type":"Feature","geometry":{"type":"Point","coordinates":[-80.1249,40.44562]},"properties":{"p":"0205P00033000000","a":"MCCORMICK RD","m":"Robinson","u":"L","o":"individual","sf":5000,"v":600}},{"type":"Feature","geometry":{"type":"Point","coordinates":[-80.12517,40.44528]},"properties":{"p":"0205P00042000000","a":"195 MCCORMICK RD","m":"Robinson","u":"L","o":"corp","sf":7500,"v":800}},{"type":"Feature","geometry":{"type":"Point","coordinates":[-80.12604,40.44388]},"properties":{"p":"0205P00117000100","a":"MCCORMICK RD","m":"Robinson","u":"L","o":"individual","sf":10273,"v":1100}},{"type":"Feature","geometry":{"type":"Point","coordinates":[-80.13777,40.43261]},"properties":{"p":"0264C00094000000","a":"CAMPBELLS RUN RD","m":"Robinson","u":"L","o":"individual","sf":11560,"v":1300}},{"type":"Feature","geometry":{"type":"Point","coordinates":[-80.13679,40.43227]},"properties":{"p":"0264C00109000000","a":"CAMPBELLS RUN RD","m":"Robinson","u":"L","o":"individual","sf":8330,"v":900}},{"type":"Feature","geometry":{"type":"Point","coordinates":[-80.13166,40.44107]},"properties":{"p":"0204A00320000000","a":"5573 GLASS RD","m":"Robinson","u":"L","o":"individual","sf":3341,"v":500}},{"type":"Feature","geometry":{"type":"Point","coordinates":[-80.13952,40.43189]},"properties":{"p":"0264C00242000000","a":"BOYCE RD","m":"Robinson","u":"L","o":"individual","sf":12206,"v":3000}},{"type":"Feature","geometry":{"type":"Point","coordinates":[-80.12468,40.44531]},"properties":{"p":"0205P00020000000","a":"MCCORMICK RD","m":"Robinson","u":"L","o":"individual","sf":14872,"v":1600}},{"type":"Feature","geometry":{"type":"Point","coordinates":[-80.12881,40.43822]},"properties":{"p":"0204K00004000000","a":"GLASS RD","m":"Robinson","u":"L","o":"corp","sf":87120,"v":44400}},{"type":"Feature","geometry":{"type":"Point","coordinates":[-80.12552,40.4381]},"properties":{"p":"0204K00069000000","a":"5116 W HARBISON RD","m":"Robinson","u":"L","o":"individual","sf":44884,"v":53800}},{"type":"Feature","geometry":{"type":"Point","coordinates":[-80.12279,40.44924]},"properties":{"p":"0205G00165000000","a":"STEUBENVILLE PIKE","m":"Robinson","u":"L","o":"individual","sf":6290,"v":19900}},{"type":"Feature","geometry":{"type":"Point","coordinates":[-80.1231,40.44221]},"properties":{"p":"0204H00152000000","a":"BEACON RD","m":"Robinson","u":"L","o":"corp","sf":2063759,"v":201200}},{"type":"Feature","geometry":{"type":"Point","coordinates":[-80.12198,40.43461]},"properties":{"p":"0204R00398000000","a":"WINDOVER DR","m":"Robinson","u":"L","o":"corp","sf":395524,"v":30800}},{"type":"Feature","geometry":{"type":"Point","coordinates":[-80.13309,40.44059]},"properties":{"p":"0265D00127000000","a":"CHEROKEE DR","m":"Robinson","u":"L","o":"individual","sf":36868,"v":52800}},{"type":"Feature","geometry":{"type":"Point","coordinates":[-80.13403,40.44088]},"properties":{"p":"0265D00136000000","a":"CHEROKEE DR","m":"Robinson","u":"L","o":"individual","sf":14563,"v":25200}},{"type":"Feature","geometry":{"type":"Point","coordinates":[-80.13797,40.44285]},"properties":{"p":"0265C00009000000","a":"VENEZE DR","m":"Robinson","u":"L","o":"corp","sf":51932,"v":54600}},{"type":"Feature","geometry":{"type":"Point","coordinates":[-80.1246,40.44614]},"properties":{"p":"0205K00006000000","a":"MCCORMICK RD","m":"Robinson","u":"L","o":"individual","sf":15468,"v":2500}},{"type":"Feature","geometry":{"type":"Point","coordinates":[-80.12596,40.43411]},"properties":{"p":"0204P00075000000","a":"GEYSER RD","m":"Robinson","u":"L","o":"corp","sf":107593,"v":61000}},{"type":"Feature","geometry":{"type":"Point","coordinates":[-80.12534,40.43451]},"properties":{"p":"0204P00085000000","a":"530 A GEYSER RD","m":"Robinson","u":"L","o":"individual","sf":123358,"v":62800}},{"type":"Feature","geometry":{"type":"Point","coordinates":[-80.12961,40.43736]},"properties":{"p":"0204J00065000000","a":"GLASS RD","m":"Robinson","u":"L","o":"corp","sf":178857,"v":69200}},{"type":"Feature","geometry":{"type":"Point","coordinates":[-80.12927,40.43684]},"properties":{"p":"0204J00083000000","a":"GLASS RD","m":"Robinson","u":"L","o":"individual","sf":43560,"v":53600}},{"type":"Feature","geometry":{"type":"Point","coordinates":[-80.1295,40.43648]},"properties":{"p":"0204J00093000000","a":"NOTTINGHAM DR","m":"Robinson","u":"L","o":"individual","sf":23027,"v":38600}},{"type":"Feature","geometry":{"type":"Point","coordinates":[-80.13136,40.43852]},"properties":{"p":"0204E00175000000","a":"GLASS RD","m":"Robinson","u":"L","o":"corp","sf":104544,"v":33500}},{"type":"Feature","geometry":{"type":"Point","coordinates":[-80.1384,40.44954]},"properties":{"p":"0266G00128000000","a":"106 SUNSET DR","m":"Robinson","u":"L","o":"individual","sf":21821,"v":51100}},{"type":"Feature","geometry":{"type":"Point","coordinates":[-80.12848,40.44069]},"properties":{"p":"0204F00110000000","a":"GLASS RD","m":"Robinson","u":"L","o":"individual","sf":15000,"v":50400}},{"type":"Feature","geometry":{"type":"Point","coordinates":[-80.13657,40.44599]},"properties":{"p":"0266M00011000000","a":"TIDBALL RD","m":"Robinson","u":"L","o":"individual","sf":13600,"v":1500}},{"type":"Feature","geometry":{"type":"Point","coordinates":[-80.12853,40.43114]},"properties":{"p":"0203B00074000000","a":"GEYSER RD","m":"Robinson","u":"L","o":"individual","sf":24437,"v":51400}},{"type":"Feature","geometry":{"type":"Point","coordinates":[-80.13876,40.43776]},"properties":{"p":"0265K00324000000","a":"MCMORRIS RD","m":"Robinson","u":"B","o":"corp","sf":48831,"v":29500}},{"type":"Feature","geometry":{"type":"Point","coordinates":[-80.12127,40.43194]},"properties":{"p":"0203C00040000000","a":"KEINERS LN","m":"Robinson","u":"B","o":"individual","sf":107593,"v":18500}},{"type":"Feature","geometry":{"type":"Point","coordinates":[-80.12102,40.43026]},"properties":{"p":"0203G00096000000","a":"KEINERS LN","m":"Robinson","u":"B","o":"individual","sf":22651,"v":8700}},{"type":"Feature","geometry":{"type":"Point","coordinates":[-80.12673,40.43252]},"properties":{"p":"0203B00275000000","a":"GEYSER RD","m":"Robinson","u":"B","o":"corp","sf":84877,"v":15900}},{"type":"Feature","geometry":{"type":"Point","coordinates":[-80.12011,40.43695]},"properties":{"p":"0204M00354000000","a":"KEINERS LN","m":"Robinson","u":"B","o":"corp","sf":17208,"v":6000}}]}