{"type":"FeatureCollection","features":[{"type":"Feature","geometry":{"type":"Point","coordinates":[-80.1207,40.48464]},"properties":{"p":"0209M00080000000","a":"ROSE AVE","m":"Kennedy","u":"L","o":"individual","sf":4082,"v":400}},{"type":"Feature","geometry":{"type":"Point","coordinates":[-80.13377,40.47166]},"properties":{"p":"0268D00160000100","a":"COBBLESTONE CIR","m":"Robinson","u":"L","o":"individual","sf":7422,"v":800}},{"type":"Feature","geometry":{"type":"Point","coordinates":[-80.13566,40.47343]},"properties":{"p":"0269S00279000000","a":"NORFOLK DR","m":"Robinson","u":"L","o":"individual","sf":35774,"v":3500}},{"type":"Feature","geometry":{"type":"Point","coordinates":[-80.13895,40.48237]},"properties":{"p":"0270R00332000100","a":"14 WILLIAMS DR","m":"Robinson","u":"L","o":"individual","sf":1140,"v":100}},{"type":"Feature","geometry":{"type":"Point","coordinates":[-80.13904,40.48257]},"properties":{"p":"0270R00335000100","a":"WILLIAMS DR","m":"Robinson","u":"L","o":"individual","sf":4123,"v":500}},{"type":"Feature","geometry":{"type":"Point","coordinates":[-80.13701,40.4835]},"properties":{"p":"0270S00001000000","a":"FOREST GROVE RD","m":"Robinson","u":"L","o":"corp","sf":16900,"v":50600}},{"type":"Feature","geometry":{"type":"Point","coordinates":[-80.13721,40.4793]},"properties":{"p":"0269G00103000000","a":"EVELYN DR","m":"Robinson","u":"L","o":"individual","sf":34701,"v":52500}},{"type":"Feature","geometry":{"type":"Point","coordinates":[-80.13791,40.48505]},"properties":{"p":"0270L00113000000","a":"EWINGS MILL RD","m":"Robinson","u":"L","o":"individual","sf":171252,"v":52100}},{"type":"Feature","geometry":{"type":"Point","coordinates":[-80.13948,40.48295]},"properties":{"p":"0270R00010000000","a":"18 WILLIAMS DR","m":"Robinson","u":"L","o":"individual","sf":100946,"v":60000}},{"type":"Feature","geometry":{"type":"Point","coordinates":[-80.13835,40.48297]},"properties":{"p":"0270R00170000000","a":"WILLIAMS DR","m":"Robinson","u":"L","o":"corp","sf":20038,"v":50900}},{"type":"Feature","geometry":{"type":"Point","coordinates":[-80.13364,40.47377]},"properties":{"p":"0269S00395000000","a":"SILVER OAKS DR","m":"Robinson","u":"L","o":"individual","sf":1451,"v":200}},{"type":"Feature","geometry":{"type":"Point","coordinates":[-80.1398,40.48774]},"properties":{"p":"0270G00247000001","a":"SCHULER LN","m":"Robinson","u":"L","o":"individual","sf":6597,"v":700}},{"type":"Feature","geometry":{"type":"Point","coordinates":[-80.13893,40.47603]},"properties":{"p":"0269L00271000000","a":"SUFFOLK DR","m":"Robinson","u":"L","o":"individual","sf":30000,"v":3300}},{"type":"Feature","geometry":{"type":"Point","coordinates":[-80.13745,40.48]},"properties":{"p":"0269C00024000000","a":"EVELYN DR","m":"Robinson","u":"L","o":"individual","sf":8860,"v":1000}},{"type":"Feature","geometry":{"type":"Point","coordinates":[-80.13797,40.47143]},"properties":{"p":"0268C00216000000","a":"KATHLEEN DR","m":"Robinson","u":"L","o":"individual","sf":7595,"v":800}},{"type":"Feature","geometry":{"type":"Point","coordinates":[-80.13367,40.48998]},"properties":{"p":"0270D00131000000","a":"ZENOBIA DR","m":"Robinson","u":"L","o":"individual","sf":20801,"v":2300}},{"type":"Feature","geometry":{"type":"Point","coordinates":[-80.13618,40.4825]},"properties":{"p":"0270S00064000000","a":"MASON DR","m":"Robinson","u":"L","o":"individual","sf":24310,"v":51400}},{"type":"Feature","geometry":{"type":"Point","coordinates":[-80.13853,40.48917]},"properties":{"p":"0270G00122000000","a":"34 S PETRIE RD","m":"Robinson","u":"L","o":"corp","sf":7143,"v":800}},{"type":"Feature","geometry":{"type":"Point","coordinates":[-80.13313,40.48763]},"properties":{"p":"0270H00247000000","a":"ZENOBIA DR","m":"Robinson","u":"L","o":"individual","sf":11239,"v":1200}},{"type":"Feature","geometry":{"type":"Point","coordinates":[-80.13337,40.48712]},"properties":{"p":"0270H00261000000","a":"ZENOBIA DR","m":"Robinson","u":"L","o":"corp","sf":12306,"v":1400}},{"type":"Feature","geometry":{"type":"Point","coordinates":[-80.1379,40.47458]},"properties":{"p":"0269R00360000000","a":"STERLING DR","m":"Robinson","u":"L","o":"individual","sf":24199,"v":2700}},{"type":"Feature","geometry":{"type":"Point","coordinates":[-80.13024,40.47074]},"properties":{"p":"0207A00200000000","a":"PEBBLE CT","m":"Robinson","u":"L","o":"corp","sf":14088,"v":2000}},{"type":"Feature","geometry":{"type":"Point","coordinates":[-80.12479,40.47057]},"properties":{"p":"0207B00002000000","a":"FIELD CLUB DR","m":"Robinson","u":"L","o":"corp","sf":15681,"v":60500}},{"type":"Feature","geometry":{"type":"Point","coordinates":[-80.12965,40.47627]},"properties":{"p":"0208J00228000000","a":"HODGKISS DR","m":"Robinson","u":"L","o":"individual","sf":15707,"v":50500}},{"type":"Feature","geometry":{"type":"Point","coordinates":[-80.1278,40.47405]},"properties":{"p":"0208P00047000000","a":"ROBERT DR","m":"Robinson","u":"L","o":"individual","sf":23660,"v":800}},{"type":"Feature","geometry":{"type":"Point","coordinates":[-80.1252,40.47342]},"properties":{"p":"0208P00204000000","a":"MEADOW VIEW DR","m":"Robinson","u":"L","o":"corp","sf":77537,"v":10700}},{"type":"Feature","geometry":{"type":"Point","coordinates":[-80.12995,40.48258]},"properties":{"p":"0209N00281000000","a":"STRAWBERRY LN","m":"Robinson","u":"L","o":"individual","sf":14174,"v":1600}},{"type":"Feature","geometry":{"type":"Point","coordinates":[-80.1293,40.48532]},"properties":{"p":"0209J00016000100","a":"MAGNUS LN","m":"Robinson","u":"L","o":"individual","sf":479,"v":100}},{"type":"Feature","geometry":{"type":"Point","coordinates":[-80.12973,40.48323]},"properties":{"p":"0209N00125000000","a":"STRAWBERRY LN","m":"Robinson","u":"L","o":"individual","sf":15000,"v":50400}},{"type":"Feature","geometry":{"type":"Point","coordinates":[-80.13096,40.4847]},"properties":{"p":"0209N00163000000","a":"STRAWBERRY LN","m":"Robinson","u":"L","o":"individual","sf":110642,"v":12500}},{"type":"Feature","geometry":{"type":"Point","coordinates":[-80.12292,40.47708]},"properties":{"p":"0208L00013000100","a":"SCHORR DR","m":"Robinson","u":"L","o":"individual","sf":2614,"v":400}},{"type":"Feature","geometry":{"type":"Point","coordinates":[-80.12108,40.47002]},"properties":{"p":"0207C00048000000","a":"CLEVER RD","m":"Robinson","u":"L","o":"individual","sf":37711,"v":33600}},{"type":"Feature","geometry":{"type":"Point","coordinates":[-80.12851,40.48255]},"properties":{"p":"0209P00019000000","a":"MAGNUS LN","m":"Robinson","u":"L","o":"individual","sf":1002,"v":100}},{"type":"Feature","geometry":{"type":"Point","coordinates":[-80.12847,40.48424]},"properties":{"p":"0209P00056000000","a":"FOREST GROVE RD","m":"Robinson","u":"L","o":"individual","sf":144184,"v":30000}},{"type":"Feature","geometry":{"type":"Point","coordinates":[-80.12585,40.48289]},"properties":{"p":"0209P00287000000","a":"DENDRON RD","m":"Robinson","u":"L","o":"individual","sf":1424,"v":200}},{"type":"Feature","geometry":{"type":"Point","coordinates":[-80.13304,40.47809]},"properties":{"p":"0208E00395000000","a":"OXFORD DR","m":"Robinson","u":"L","o":"individual","sf":15500,"v":20000}},{"type":"Feature","geometry":{"type":"Point","coordinates":[-80.12497,40.48152]},"properties":{"p":"0209P00231000000","a":"104 FOREST GROVE RD","m":"Robinson","u":"L","o":"individual","sf":71003,"v":8200}},{"type":"Feature","geometry":{"type":"Point","coordinates":[-80.12486,40.48259]},"properties":{"p":"0209P00243000000","a":"FOREST GROVE RD","m":"Robinson","u":"L","o":"individual","sf":20104,"v":50900}},{"type":"Feature","geometry":{"type":"Point","coordinates":[-80.12233,40.47596]},"properties":{"p":"0208L00025000000","a":"SCHORR DR","m":"Robinson","u":"L","o":"individual","sf":14810,"v":2100}},{"type":"Feature","geometry":{"type":"Point","coordinates":[-80.13145,40.47783]},"properties":{"p":"0208E00229000000","a":"1315 SILVER LN","m":"Robinson","u":"L","o":"individual","sf":15000,"v":50400}},{"type":"Feature","geometry":{"type":"Point","coordinates":[-80.12591,40.47542]},"properties":{"p":"0208K00100000000","a":"DIEBOLD RD","m":"Robinson","u":"L","o":"corp","sf":237837,"v":6000}},{"type":"Feature","geometry":{"type":"Point","coordinates":[-80.12415,40.48257]},"properties":{"p":"0209R00097000000","a":"FOREST GROVE RD","m":"Robinson","u":"L","o":"individual","sf":75010,"v":57200}},{"type":"Feature","geometry":{"type":"Point","coordinates":[-80.12465,40.48391]},"properties":{"p":"0209R00225000000","a":"DENDRON RD","m":"Robinson","u":"L","o":"individual","sf":27878,"v":3100}},{"type":"Feature","geometry":{"type":"Point","coordinates":[-80.13887,40.47558]},"properties":{"p":"0269L00260000000","a":"SUFFOLK DR","m":"Robinson","u":"L","o":"individual","sf":20000,"v":27600}},{"type":"Feature","geometry":{"type":"Point","coordinates":[-80.12669,40.48421]},"properties":{"p":"0209P00327000000","a":"DENDRON DR","m":"Robinson","u":"L","o":"individual","sf":19602,"v":25800}},{"type":"Feature","geometry":{"type":"Point","coordinates":[-80.13757,40.48815]},"properties":{"p":"0270G00080000000","a":"S PETRIE RD","m":"Robinson","u":"L","o":"individual","sf":3400,"v":32200}},{"type":"Feature","geometry":{"type":"Point","coordinates":[-80.12904,40.48453]},"properties":{"p":"0209P00025000000","a":"MAGNUS LN","m":"Robinson","u":"L","o":"individual","sf":11718,"v":1300}},{"type":"Feature","geometry":{"type":"Point","coordinates":[-80.13466,40.48708]},"properties":{"p":"0270H00035000000","a":"127 OLGA AVE","m":"Robinson","u":"B","o":"individual","sf":8979,"v":3800}},{"type":"Feature","geometry":{"type":"Point","coordinates":[-80.13538,40.48597]},"properties":{"p":"0270M00048000000","a":"144 OLGA AVE","m":"Robinson","u":"B","o":"individual","sf":6693,"v":2800}},{"type":"Feature","geometry":{"type":"Point","coordinates":[-80.13549,40.48588]},"properties":{"p":"0270M00049000000","a":"146 OLGA AVE","m":"Robinson","u":"B","o":"individual","sf":6082,"v":2800}},{"type":"Feature","geometry":{"type":"Point","coordinates":[-80.13565,40.48567]},"properties":{"p":"0270M00050000000","a":"229 MARY LN","m":"Robinson","u":"B","o":"individual","sf":5968,"v":2700}},{"type":"Feature","geometry":{"type":"Point","coordinates":[-80.13545,40.48561]},"properties":{"p":"0270M00052000000","a":"231 MARY LN","m":"Robinson","u":"B","o":"individual","sf":6365,"v":2700}},{"type":"Feature","geometry":{"type":"Point","coordinates":[-80.13487,40.48716]},"properties":{"p":"0270H00034000000","a":"125 OLGA AVE","m":"Robinson","u":"B","o":"corp","sf":8198,"v":3800}},{"type":"Feature","geometry":{"type":"Point","coordinates":[-80.13583,40.48498]},"properties":{"p":"0270M00099000000","a":"160 OLGA AVE","m":"Robinson","u":"B","o":"individual","sf":5964,"v":2700}},{"type":"Feature","geometry":{"type":"Point","coordinates":[-80.13571,40.4853]},"properties":{"p":"0270M00103000000","a":"156 OLGA AVE","m":"Robinson","u":"B","o":"individual","sf":7356,"v":2800}},{"type":"Feature","geometry":{"type":"Point","coordinates":[-80.13578,40.48514]},"properties":{"p":"0270M00104000000","a":"158 OLGA AVE","m":"Robinson","u":"B","o":"individual","sf":5117,"v":2700}},{"type":"Feature","geometry":{"type":"Point","coordinates":[-80.13628,40.48518]},"properties":{"p":"0270M00107000000","a":"216 MARY LN","m":"Robinson","u":"B","o":"individual","sf":7274,"v":3500}},{"type":"Feature","geometry":{"type":"Point","coordinates":[-80.13609,40.4853]},"properties":{"p":"0270M00108000000","a":"218 MARY LN","m":"Robinson","u":"B","o":"individual","sf":8605,"v":3500}},{"type":"Feature","geometry":{"type":"Point","coordinates":[-80.13513,40.48615]},"properties":{"p":"0270M00044000000","a":"140 OLGA AVE","m":"Robinson","u":"B","o":"individual","sf":6199,"v":2700}},{"type":"Feature","geometry":{"type":"Point","coordinates":[-80.13529,40.48609]},"properties":{"p":"0270M00045000000","a":"142 OLGA AVE","m":"Robinson","u":"B","o":"individual","sf":6272,"v":2800}},{"type":"Feature","geometry":{"type":"Point","coordinates":[-80.13626,40.48452]},"properties":{"p":"0270S00091000000","a":"168 OLGA AVE","m":"Robinson","u":"B","o":"individual","sf":5175,"v":2200}},{"type":"Feature","geometry":{"type":"Point","coordinates":[-80.13637,40.4844]},"properties":{"p":"0270S00092000000","a":"170 OLGA AVE","m":"Robinson","u":"B","o":"individual","sf":5175,"v":2300}},{"type":"Feature","geometry":{"type":"Point","coordinates":[-80.13702,40.48414]},"properties":{"p":"0270S00123000000","a":"200 MARY LN","m":"Robinson","u":"B","o":"corp","sf":7553,"v":2900}},{"type":"Feature","geometry":{"type":"Point","coordinates":[-80.13691,40.48428]},"properties":{"p":"0270S00124000000","a":"202 MARY LN","m":"Robinson","u":"B","o":"individual","sf":5178,"v":2800}},{"type":"Feature","geometry":{"type":"Point","coordinates":[-80.13565,40.48433]},"properties":{"p":"0270M00075000000","a":"167 OLGA AVE","m":"Robinson","u":"B","o":"individual","sf":7711,"v":3600}},{"type":"Feature","geometry":{"type":"Point","coordinates":[-80.13551,40.48443]},"properties":{"p":"0270M00078000000","a":"165 OLGA AVE","m":"Robinson","u":"B","o":"individual","sf":8843,"v":3700}},{"type":"Feature","geometry":{"type":"Point","coordinates":[-80.13586,40.48405]},"properties":{"p":"0270S00079000000","a":"171 OLGA AVE","m":"Robinson","u":"B","o":"individual","sf":12058,"v":4200}},{"type":"Feature","geometry":{"type":"Point","coordinates":[-80.13663,40.48386]},"properties":{"p":"0270S00083000000","a":"176 OLGA AVE","m":"Robinson","u":"B","o":"corp","sf":8380,"v":5000}},{"type":"Feature","geometry":{"type":"Point","coordinates":[-80.13623,40.48364]},"properties":{"p":"0270S00084000000","a":"178 OLGA AVE","m":"Robinson","u":"B","o":"corp","sf":17903,"v":6700}},{"type":"Feature","geometry":{"type":"Point","coordinates":[-80.13647,40.48429]},"properties":{"p":"0270S00087000000","a":"172 OLGA AVE","m":"Robinson","u":"B","o":"corp","sf":5117,"v":3200}},{"type":"Feature","geometry":{"type":"Point","coordinates":[-80.13662,40.4842]},"properties":{"p":"0270S00088000000","a":"174 OLGA AVE","m":"Robinson","u":"B","o":"corp","sf":9233,"v":3200}},{"type":"Feature","geometry":{"type":"Point","coordinates":[-80.13708,40.48505]},"properties":{"p":"0270M00072000000","a":"211 MARY LN","m":"Robinson","u":"B","o":"individual","sf":8949,"v":3900}},{"type":"Feature","geometry":{"type":"Point","coordinates":[-80.13715,40.48492]},"properties":{"p":"0270M00073000000","a":"209 MARY LN","m":"Robinson","u":"B","o":"individual","sf":8694,"v":3900}},{"type":"Feature","geometry":{"type":"Point","coordinates":[-80.12588,40.47997]},"properties":{"p":"0208B00088000000","a":"AUGUST DR","m":"Robinson","u":"B","o":"corp","sf":25425,"v":10900}},{"type":"Feature","geometry":{"type":"Point","coordinates":[-80.1325,40.47286]},"properties":{"p":"0208N00006000000","a":"1006 MITCHELL DR","m":"Robinson","u":"B","o":"individual","sf":16557,"v":6500}},{"type":"Feature","geometry":{"type":"Point","coordinates":[-80.13579,40.48423]},"properties":{"p":"0270S00080000000","a":"169 OLGA AVE","m":"Robinson","u":"B","o":"individual","sf":6890,"v":4200}}]}