{"type":"FeatureCollection","features":[{"type":"Feature","geometry":{"type":"Point","coordinates":[-80.13935,40.61209]},"properties":{"p":"1343L00204000000","a":"2634 BIG SEWICKLEY CREEK RD","m":"Franklin Park","u":"L","o":"corp","sf":31842,"v":5700}},{"type":"Feature","geometry":{"type":"Point","coordinates":[-80.1297,40.61159]},"properties":{"p":"1344J00035000000","a":"STATE GAMELANDS RD","m":"Franklin Park","u":"L","o":"individual","sf":10890,"v":2000}},{"type":"Feature","geometry":{"type":"Point","coordinates":[-80.13226,40.62805]},"properties":{"p":"1495A00003000000","a":"MARKMAN PARK RD","m":"Marshall","u":"L","o":"individual","sf":448668,"v":63500}},{"type":"Feature","geometry":{"type":"Point","coordinates":[-80.12731,40.62721]},"properties":{"p":"1495B00001000000","a":"MARKMAN PARK RD","m":"Marshall","u":"L","o":"corp","sf":283576,"v":24500}},{"type":"Feature","geometry":{"type":"Point","coordinates":[-80.1325,40.62496]},"properties":{"p":"1495E00001000000","a":"MARKMAN PARK RD","m":"Marshall","u":"L","o":"individual","sf":427759,"v":63000}},{"type":"Feature","geometry":{"type":"Point","coordinates":[-80.13975,40.61252]},"properties":{"p":"1343L00184000000","a":"BIG SEWICKLEY CREEK RD","m":"Franklin Park","u":"L","o":"individual","sf":43996,"v":50000}},{"type":"Feature","geometry":{"type":"Point","coordinates":[-80.1399,40.61134]},"properties":{"p":"1343L00260000000","a":"BIG SEWICKLEY CREEK RD","m":"Franklin Park","u":"L","o":"individual","sf":95396,"v":33700}},{"type":"Feature","geometry":{"type":"Point","coordinates":[-80.13604,40.62221]},"properties":{"p":"1494M00001000000","a":"MARKMAN PARK RD","m":"Marshall","u":"L","o":"individual","sf":21649,"v":2000}},{"type":"Feature","geometry":{"type":"Point","coordinates":[-80.13566,40.62975]},"properties":{"p":"1653S00011000000","a":"3044 KASON CT","m":"Marshall","u":"B","o":"individual","sf":17264,"v":12500}}]}