{"type":"FeatureCollection","features":[{"type":"Feature","geometry":{"type":"Point","coordinates":[-80.13589,40.65767]},"properties":{"p":"2178S00010000000","a":"SPANG RD","m":"Marshall","u":"L","o":"individual","sf":13939,"v":1300}},{"type":"Feature","geometry":{"type":"Point","coordinates":[-80.12024,40.66338]},"properties":{"p":"2179L00020000000","a":"510 KNOB RD","m":"Marshall","u":"L","o":"individual","sf":1057240,"v":116000}},{"type":"Feature","geometry":{"type":"Point","coordinates":[-80.13367,40.66173]},"properties":{"p":"2178M00013000000","a":"1600 PLEASANT HILL RD","m":"Marshall","u":"L","o":"individual","sf":101408,"v":47500}},{"type":"Feature","geometry":{"type":"Point","coordinates":[-80.12193,40.65793]},"properties":{"p":"2179R00003000000","a":"ANTLER POINT DR","m":"Marshall","u":"L","o":"individual","sf":91563,"v":82800}},{"type":"Feature","geometry":{"type":"Point","coordinates":[-80.1365,40.65484]},"properties":{"p":"1995D00002000000","a":"SPANG RD","m":"Marshall","u":"L","o":"individual","sf":71003,"v":20000}},{"type":"Feature","geometry":{"type":"Point","coordinates":[-80.12786,40.65989]},"properties":{"p":"2179K00010000000","a":"RTE 856","m":"Marshall","u":"L","o":"individual","sf":26132,"v":40600}},{"type":"Feature","geometry":{"type":"Point","coordinates":[-80.12806,40.65988]},"properties":{"p":"2179K00011000000","a":"RTE 856","m":"Marshall","u":"L","o":"individual","sf":28135,"v":2500}},{"type":"Feature","geometry":{"type":"Point","coordinates":[-80.12836,40.65989]},"properties":{"p":"2179K00012000000","a":"ROUTE 856","m":"Marshall","u":"L","o":"individual","sf":56802,"v":43400}},{"type":"Feature","geometry":{"type":"Point","coordinates":[-80.13906,40.6607]},"properties":{"p":"2178L00002000000","a":"SUNSET RD","m":"Marshall","u":"L","o":"individual","sf":45738,"v":4200}},{"type":"Feature","geometry":{"type":"Point","coordinates":[-80.13762,40.65209]},"properties":{"p":"1995L00001000000","a":"SPANG RD","m":"Marshall","u":"L","o":"individual","sf":32844,"v":3000}},{"type":"Feature","geometry":{"type":"Point","coordinates":[-80.1393,40.65964]},"properties":{"p":"2178K00009000000","a":"SUNSET DR","m":"Marshall","u":"L","o":"individual","sf":56192,"v":5200}},{"type":"Feature","geometry":{"type":"Point","coordinates":[-80.13472,40.66844]},"properties":{"p":"2369S00001000000","a":"SPRING LN","m":"Marshall","u":"L","o":"corp","sf":62726,"v":50200}},{"type":"Feature","geometry":{"type":"Point","coordinates":[-80.12041,40.66715]},"properties":{"p":"2370S00020000000","a":"WORTHINGTON DR","m":"Marshall","u":"L","o":"corp","sf":9862,"v":1000}},{"type":"Feature","geometry":{"type":"Point","coordinates":[-80.13174,40.66125]},"properties":{"p":"2179J00005000000","a":"PLEASANT HILL RD","m":"Marshall","u":"L","o":"individual","sf":132335,"v":12200}},{"type":"Feature","geometry":{"type":"Point","coordinates":[-80.12361,40.65235]},"properties":{"p":"1996G00017000000","a":"RUFFNER LN","m":"Marshall","u":"L","o":"individual","sf":1259,"v":100}},{"type":"Feature","geometry":{"type":"Point","coordinates":[-80.13824,40.66068]},"properties":{"p":"2178L00001000000","a":"SUNSET RD","m":"Marshall","u":"L","o":"individual","sf":44431,"v":4100}},{"type":"Feature","geometry":{"type":"Point","coordinates":[-80.12647,40.66159]},"properties":{"p":"2179K00016000000","a":"1315 PLEASANT HILL RD","m":"Marshall","u":"L","o":"individual","sf":27075,"v":2400}},{"type":"Feature","geometry":{"type":"Point","coordinates":[-80.13277,40.66228]},"properties":{"p":"2179E00001000000","a":"SPANG RD","m":"Marshall","u":"L","o":"individual","sf":55234,"v":43200}},{"type":"Feature","geometry":{"type":"Point","coordinates":[-80.13222,40.65364]},"properties":{"p":"1996E00045000000","a":"717 COPPER CREEK LN","m":"Marshall","u":"L","o":"corp","sf":189050,"v":333500}},{"type":"Feature","geometry":{"type":"Point","coordinates":[-80.13488,40.66576]},"properties":{"p":"2178D00138000000","a":"103 AMARYLLIS LN","m":"Marshall","u":"B","o":"individual","sf":15180,"v":35100}},{"type":"Feature","geometry":{"type":"Point","coordinates":[-80.12385,40.66024]},"properties":{"p":"2179K00030000000","a":"PLEASANT HILL RD","m":"Marshall","u":"B","o":"corp","sf":40347,"v":100}},{"type":"Feature","geometry":{"type":"Point","coordinates":[-80.13924,40.65628]},"properties":{"p":"1995C00036000000","a":"2004 MALLARD LN","m":"Marshall","u":"B","o":"corp","sf":18880,"v":37400}},{"type":"Feature","geometry":{"type":"Point","coordinates":[-80.13923,40.6588]},"properties":{"p":"2178R00018000000","a":"1010 GOLDENEYE DR","m":"Marshall","u":"B","o":"corp","sf":18462,"v":2900}},{"type":"Feature","geometry":{"type":"Point","coordinates":[-80.13857,40.65665]},"properties":{"p":"1995C00040000000","a":"2000 MALLARD LN","m":"Marshall","u":"B","o":"corp","sf":19630,"v":4400}},{"type":"Feature","geometry":{"type":"Point","coordinates":[-80.13896,40.65567]},"properties":{"p":"1995C00018000000","a":"2009 MALLARD LN","m":"Marshall","u":"B","o":"corp","sf":24872,"v":205600}},{"type":"Feature","geometry":{"type":"Point","coordinates":[-80.13539,40.66745]},"properties":{"p":"2369S00131000000","a":"117 AMARYLLIS LN","m":"Marshall","u":"B","o":"corp","sf":15844,"v":36600}},{"type":"Feature","geometry":{"type":"Point","coordinates":[-80.13411,40.66566]},"properties":{"p":"2178D00102000000","a":"102 AMARYLLIS LN","m":"Marshall","u":"B","o":"corp","sf":15773,"v":36500}},{"type":"Feature","geometry":{"type":"Point","coordinates":[-80.13413,40.66594]},"properties":{"p":"2178D00103000000","a":"104 AMARYLLIS LN","m":"Marshall","u":"B","o":"individual","sf":15671,"v":36200}},{"type":"Feature","geometry":{"type":"Point","coordinates":[-80.13352,40.66673]},"properties":{"p":"2178D00110000000","a":"302 AZALEA LN","m":"Marshall","u":"B","o":"individual","sf":20000,"v":46200}},{"type":"Feature","geometry":{"type":"Point","coordinates":[-80.13351,40.66647]},"properties":{"p":"2178D00111000000","a":"304 AZALEA LN","m":"Marshall","u":"B","o":"individual","sf":20000,"v":46200}}]}