{"type":"FeatureCollection","features":[{"type":"Feature","geometry":{"type":"Point","coordinates":[-80.12158,40.33842]},"properties":{"p":"0398R00060000000","a":"WASHINGTON PIKE","m":"South Fayette","u":"C","o":"individual","sf":869,"v":200}},{"type":"Feature","geometry":{"type":"Point","coordinates":[-80.12312,40.34584]},"properties":{"p":"0398C00004000000","a":"ABELE RD","m":"South Fayette","u":"C","o":"corp","sf":589332,"v":10000}},{"type":"Feature","geometry":{"type":"Point","coordinates":[-80.12151,40.3466]},"properties":{"p":"0398C00005000000","a":"ABELE RD","m":"South Fayette","u":"C","o":"corp","sf":180338,"v":12400}},{"type":"Feature","geometry":{"type":"Point","coordinates":[-80.1226,40.34756]},"properties":{"p":"0323R00003000000","a":"ABELE RD","m":"South Fayette","u":"C","o":"corp","sf":141225,"v":21200}},{"type":"Feature","geometry":{"type":"Point","coordinates":[-80.13773,40.33611]},"properties":{"p":"0482G00004000000","a":"ENERGY DR","m":"South Fayette","u":"C","o":"corp","sf":576325,"v":183000}},{"type":"Feature","geometry":{"type":"Point","coordinates":[-80.12029,40.34737]},"properties":{"p":"0323S00010000000","a":"ABELE RD","m":"South Fayette","u":"C","o":"corp","sf":658854,"v":85900}},{"type":"Feature","geometry":{"type":"Point","coordinates":[-80.12999,40.33669]},"properties":{"p":"0398N00006000000","a":"3403 WASHINGTON PIKE","m":"South Fayette","u":"L","o":"individual","sf":189347,"v":42300}},{"type":"Feature","geometry":{"type":"Point","coordinates":[-80.12328,40.34426]},"properties":{"p":"0398C00002000000","a":"HICKORY GRADE RD","m":"South Fayette","u":"L","o":"individual","sf":86162,"v":1000}},{"type":"Feature","geometry":{"type":"Point","coordinates":[-80.12513,40.34006]},"properties":{"p":"0398K00035000000","a":"FAIRVIEW DR","m":"South Fayette","u":"L","o":"individual","sf":3400,"v":300}},{"type":"Feature","geometry":{"type":"Point","coordinates":[-80.1293,40.33746]},"properties":{"p":"0398N00035000000","a":"WASHINGTON PIKE","m":"South Fayette","u":"L","o":"individual","sf":87120,"v":32900}},{"type":"Feature","geometry":{"type":"Point","coordinates":[-80.12798,40.33762]},"properties":{"p":"0398K00004000000","a":"WASHINGTON PIKE","m":"South Fayette","u":"L","o":"individual","sf":164265,"v":40000}},{"type":"Feature","geometry":{"type":"Point","coordinates":[-80.12851,40.33788]},"properties":{"p":"0398K00005000000","a":"WASHINGTON PIKE","m":"South Fayette","u":"L","o":"individual","sf":69875,"v":31300}},{"type":"Feature","geometry":{"type":"Point","coordinates":[-80.12675,40.3405]},"properties":{"p":"0398K00008000000","a":"WASHINGTON PIKE","m":"South Fayette","u":"L","o":"individual","sf":109005,"v":4000}},{"type":"Feature","geometry":{"type":"Point","coordinates":[-80.12728,40.33746]},"properties":{"p":"0398P00027000000","a":"WASHINGTON PIKE","m":"South Fayette","u":"L","o":"individual","sf":87120,"v":46900}},{"type":"Feature","geometry":{"type":"Point","coordinates":[-80.12563,40.33658]},"properties":{"p":"0398P00035000000","a":"OLD OAK DR","m":"South Fayette","u":"L","o":"individual","sf":9528,"v":35800}},{"type":"Feature","geometry":{"type":"Point","coordinates":[-80.13335,40.34343]},"properties":{"p":"0398E00001000000","a":"AUGUSTA DR","m":"South Fayette","u":"L","o":"individual","sf":51662,"v":5200}},{"type":"Feature","geometry":{"type":"Point","coordinates":[-80.12794,40.342]},"properties":{"p":"0398F00001000000","a":"WASHINGTON PIKE","m":"South Fayette","u":"L","o":"individual","sf":229997,"v":4900}},{"type":"Feature","geometry":{"type":"Point","coordinates":[-80.12623,40.34283]},"properties":{"p":"0398F00009000000","a":"WASHINGTON PIKE","m":"South Fayette","u":"L","o":"individual","sf":59242,"v":700}},{"type":"Feature","geometry":{"type":"Point","coordinates":[-80.12211,40.33853]},"properties":{"p":"0398R00023000000","a":"PINEWOOD DR","m":"South Fayette","u":"L","o":"individual","sf":36590,"v":42200}},{"type":"Feature","geometry":{"type":"Point","coordinates":[-80.12237,40.33842]},"properties":{"p":"0398R00024000000","a":"PINEWOOD DR","m":"South Fayette","u":"L","o":"individual","sf":22289,"v":40900}},{"type":"Feature","geometry":{"type":"Point","coordinates":[-80.12539,40.34324]},"properties":{"p":"0398F00012000000","a":"WASHINGTON PIKE","m":"South Fayette","u":"L","o":"individual","sf":202031,"v":4000}},{"type":"Feature","geometry":{"type":"Point","coordinates":[-80.13243,40.33724]},"properties":{"p":"0398N00013000000","a":"WASHINGTON PIKE","m":"South Fayette","u":"L","o":"individual","sf":59677,"v":8400}},{"type":"Feature","geometry":{"type":"Point","coordinates":[-80.1318,40.33781]},"properties":{"p":"0398N00016000000","a":"WASHINGTON PIKE","m":"South Fayette","u":"L","o":"individual","sf":18121,"v":26600}},{"type":"Feature","geometry":{"type":"Point","coordinates":[-80.13153,40.33799]},"properties":{"p":"0398N00019000000","a":"WASHINGTON PIKE","m":"South Fayette","u":"L","o":"individual","sf":17515,"v":1600}},{"type":"Feature","geometry":{"type":"Point","coordinates":[-80.13033,40.33828]},"properties":{"p":"0398N00023000000","a":"3386 WASHINGTON PIKE","m":"South Fayette","u":"L","o":"individual","sf":4748,"v":5100}},{"type":"Feature","geometry":{"type":"Point","coordinates":[-80.12228,40.3394]},"properties":{"p":"0398L00005000000","a":"102 PINEWOOD DR","m":"South Fayette","u":"L","o":"individual","sf":7126,"v":11900}},{"type":"Feature","geometry":{"type":"Point","coordinates":[-80.12353,40.33908]},"properties":{"p":"0398L00008000000","a":"WASHINGTON PIKE","m":"South Fayette","u":"L","o":"individual","sf":13141,"v":26100}},{"type":"Feature","geometry":{"type":"Point","coordinates":[-80.12497,40.33871]},"properties":{"p":"0398L00010000000","a":"109 OLD OAK DR","m":"South Fayette","u":"L","o":"corp","sf":41200,"v":28700}},{"type":"Feature","geometry":{"type":"Point","coordinates":[-80.13337,40.34687]},"properties":{"p":"0323N00020000000","a":"CYPRESS CT","m":"South Fayette","u":"L","o":"individual","sf":6316,"v":2500}},{"type":"Feature","geometry":{"type":"Point","coordinates":[-80.13236,40.34591]},"properties":{"p":"0323N00023000000","a":"AUGUSTA DR","m":"South Fayette","u":"L","o":"individual","sf":697,"v":1300}},{"type":"Feature","geometry":{"type":"Point","coordinates":[-80.13403,40.34642]},"properties":{"p":"0324S00035000000","a":"CYPRESS CT","m":"South Fayette","u":"L","o":"individual","sf":7187,"v":13500}},{"type":"Feature","geometry":{"type":"Point","coordinates":[-80.13378,40.34658]},"properties":{"p":"0324S00036000000","a":"CYPRESS CT","m":"South Fayette","u":"L","o":"individual","sf":5837,"v":600}},{"type":"Feature","geometry":{"type":"Point","coordinates":[-80.12931,40.33253]},"properties":{"p":"0481F00009000000","a":"BOYCE RD","m":"South Fayette","u":"L","o":"individual","sf":33374,"v":41900}},{"type":"Feature","geometry":{"type":"Point","coordinates":[-80.12849,40.3331]},"properties":{"p":"0481F00013000000","a":"LAWNSHADOW DR","m":"South Fayette","u":"L","o":"individual","sf":14756,"v":1300}},{"type":"Feature","geometry":{"type":"Point","coordinates":[-80.13457,40.33359]},"properties":{"p":"0482H00011000000","a":"WASHINGTON PIKE","m":"South Fayette","u":"L","o":"corp","sf":24320,"v":14100}},{"type":"Feature","geometry":{"type":"Point","coordinates":[-80.13474,40.33281]},"properties":{"p":"0482H00017000000","a":"WASHINGTON PIKE","m":"South Fayette","u":"L","o":"individual","sf":13068,"v":13100}},{"type":"Feature","geometry":{"type":"Point","coordinates":[-80.12519,40.33275]},"properties":{"p":"0481F00034000000","a":"GREENWOOD DR","m":"South Fayette","u":"L","o":"corp","sf":3375,"v":300}},{"type":"Feature","geometry":{"type":"Point","coordinates":[-80.12909,40.33354]},"properties":{"p":"0481E00030000000","a":"BOYCE RD","m":"South Fayette","u":"L","o":"individual","sf":9200,"v":800}},{"type":"Feature","geometry":{"type":"Point","coordinates":[-80.13322,40.33267]},"properties":{"p":"0482H00002000000","a":"3467 WASHINGTON PIKE","m":"South Fayette","u":"L","o":"corp","sf":24132,"v":27100}},{"type":"Feature","geometry":{"type":"Point","coordinates":[-80.12841,40.33123]},"properties":{"p":"0481F00004000000","a":"BOYCE RD","m":"South Fayette","u":"L","o":"individual","sf":21546,"v":10000}},{"type":"Feature","geometry":{"type":"Point","coordinates":[-80.12536,40.33157]},"properties":{"p":"0481K00012000000","a":"BOYCE RD","m":"South Fayette","u":"L","o":"individual","sf":55757,"v":44000}},{"type":"Feature","geometry":{"type":"Point","coordinates":[-80.13444,40.33395]},"properties":{"p":"0482D00001000000","a":"WASHINGTON PIKE","m":"South Fayette","u":"L","o":"individual","sf":66473,"v":18000}},{"type":"Feature","geometry":{"type":"Point","coordinates":[-80.12903,40.33465]},"properties":{"p":"0481A00061000000","a":"WOODHAVEN DR","m":"South Fayette","u":"L","o":"individual","sf":2422,"v":200}},{"type":"Feature","geometry":{"type":"Point","coordinates":[-80.13362,40.33408]},"properties":{"p":"0481A00069000000","a":"WASHINGTON PIKE","m":"South Fayette","u":"L","o":"individual","sf":6575,"v":20200}},{"type":"Feature","geometry":{"type":"Point","coordinates":[-80.13359,40.33605]},"properties":{"p":"0481A00073000000","a":"ALPINE RD","m":"South Fayette","u":"L","o":"individual","sf":47872,"v":29300}},{"type":"Feature","geometry":{"type":"Point","coordinates":[-80.13303,40.33649]},"properties":{"p":"0481A00075000000","a":"WASHINGTON PIKE","m":"South Fayette","u":"L","o":"individual","sf":52925,"v":29800}},{"type":"Feature","geometry":{"type":"Point","coordinates":[-80.13178,40.33334]},"properties":{"p":"0481E00014000000","a":"BOYCE RD","m":"South Fayette","u":"L","o":"corp","sf":72310,"v":45500}},{"type":"Feature","geometry":{"type":"Point","coordinates":[-80.13173,40.3356]},"properties":{"p":"0481A00060000000","a":"WASHINGTON PIKE","m":"South Fayette","u":"L","o":"individual","sf":21039,"v":13800}},{"type":"Feature","geometry":{"type":"Point","coordinates":[-80.1341,40.33483]},"properties":{"p":"0482D00002000000","a":"WASHINGTON PIKE","m":"South Fayette","u":"L","o":"individual","sf":43470,"v":6500}},{"type":"Feature","geometry":{"type":"Point","coordinates":[-80.12288,40.33122]},"properties":{"p":"0481L00042000000","a":"LAUREL RIDGE CIR","m":"South Fayette","u":"L","o":"corp","sf":15089,"v":1400}},{"type":"Feature","geometry":{"type":"Point","coordinates":[-80.12767,40.33291]},"properties":{"p":"0481F00042000000","a":"LAWNSHADOW DR","m":"South Fayette","u":"L","o":"individual","sf":21902,"v":2000}},{"type":"Feature","geometry":{"type":"Point","coordinates":[-80.1211,40.3362]},"properties":{"p":"0398R00041000000","a":"BOXWOOD DR","m":"South Fayette","u":"L","o":"individual","sf":26888,"v":21400}},{"type":"Feature","geometry":{"type":"Point","coordinates":[-80.13415,40.33244]},"properties":{"p":"0482H00027000000","a":"WASHINGTON PIKE","m":"South Fayette","u":"L","o":"individual","sf":4174,"v":400}},{"type":"Feature","geometry":{"type":"Point","coordinates":[-80.13122,40.33821]},"properties":{"p":"0398N00020000000","a":"WASHINGTON PIKE","m":"South Fayette","u":"L","o":"individual","sf":26877,"v":2400}},{"type":"Feature","geometry":{"type":"Point","coordinates":[-80.13428,40.34636]},"properties":{"p":"0324S00034000000","a":"508 CYPRESS CT","m":"South Fayette","u":"B","o":"individual","sf":8581,"v":5500}}]}