{"type":"FeatureCollection","features":[{"type":"Feature","geometry":{"type":"Point","coordinates":[-80.10822,40.50267]},"properties":{"p":"0212P00058000000","a":"NEVILLE RD","m":"Neville","u":"I","o":"corp","sf":66516,"v":800}},{"type":"Feature","geometry":{"type":"Point","coordinates":[-80.1058,40.50269]},"properties":{"p":"0212R00190000000","a":"NEVILLE RD","m":"Neville","u":"I","o":"corp","sf":66777,"v":7700}},{"type":"Feature","geometry":{"type":"Point","coordinates":[-80.11783,40.50682]},"properties":{"p":"0211H00095000000","a":"NEVILLE RD","m":"Neville","u":"I","o":"corp","sf":30284,"v":34800}},{"type":"Feature","geometry":{"type":"Point","coordinates":[-80.11472,40.50614]},"properties":{"p":"0212J00045000000","a":"NEVILLE RD","m":"Neville","u":"I","o":"corp","sf":62596,"v":10000}},{"type":"Feature","geometry":{"type":"Point","coordinates":[-80.10043,40.49186]},"properties":{"p":"0157H00025000000","a":"ROBINSON BLVD","m":"Kennedy","u":"C","o":"corp","sf":1192986,"v":11000}},{"type":"Feature","geometry":{"type":"Point","coordinates":[-80.10331,40.49736]},"properties":{"p":"0157H00047000000","a":"115 ROBINSON BLVD","m":"Kennedy","u":"C","o":"corp","sf":742912,"v":123500}},{"type":"Feature","geometry":{"type":"Point","coordinates":[-80.10689,40.49142]},"properties":{"p":"0156C00268000000","a":"19 LAUREL RIDGE RD","m":"Kennedy","u":"C","o":"corp","sf":600,"v":100}},{"type":"Feature","geometry":{"type":"Point","coordinates":[-80.1074,40.4912]},"properties":{"p":"0156C00289000000","a":"19 LAUREL RIDGE RD","m":"Kennedy","u":"C","o":"corp","sf":3080,"v":300}},{"type":"Feature","geometry":{"type":"Point","coordinates":[-80.11214,40.50282]},"properties":{"p":"0212N00396000001","a":"BRIGHTWOOD DR","m":"Kennedy","u":"C","o":"corp","sf":772232,"v":3000}},{"type":"Feature","geometry":{"type":"Point","coordinates":[-80.1054,40.50176]},"properties":{"p":"0212R00170000000","a":"BACK CHANNEL","m":"Neville","u":"C","o":"corp","sf":409116,"v":4700}},{"type":"Feature","geometry":{"type":"Point","coordinates":[-80.10525,40.50229]},"properties":{"p":"0212R00180000000","a":"BACK CHANNEL","m":"Neville","u":"C","o":"corp","sf":134949,"v":31000}},{"type":"Feature","geometry":{"type":"Point","coordinates":[-80.10704,40.5024]},"properties":{"p":"0212R00220000000","a":"NEVILLE RD","m":"Neville","u":"C","o":"individual","sf":249686,"v":2900}},{"type":"Feature","geometry":{"type":"Point","coordinates":[-80.10776,40.50639]},"properties":{"p":"0212L00247000000","a":"GRAND AVE","m":"Neville","u":"C","o":"individual","sf":8377,"v":500}},{"type":"Feature","geometry":{"type":"Point","coordinates":[-80.1027,40.50143]},"properties":{"p":"0157D00070000000","a":"BACK CHANNEL","m":"Neville","u":"C","o":"corp","sf":17119,"v":0}},{"type":"Feature","geometry":{"type":"Point","coordinates":[-80.10345,40.50117]},"properties":{"p":"0157D00115000002","a":"BACK CHANNEL","m":"Neville","u":"C","o":"corp","sf":54276,"v":0}},{"type":"Feature","geometry":{"type":"Point","coordinates":[-80.10001,40.50014]},"properties":{"p":"0158A00065000000","a":"NEVILLE RD","m":"Neville","u":"C","o":"corp","sf":487872,"v":5600}},{"type":"Feature","geometry":{"type":"Point","coordinates":[-80.11128,40.509]},"properties":{"p":"0212F00237000000","a":"GRAND AVE","m":"Neville","u":"C","o":"corp","sf":102000,"v":7000}},{"type":"Feature","geometry":{"type":"Point","coordinates":[-80.10354,40.50217]},"properties":{"p":"0212S00040000000","a":"NEVILLE RD","m":"Neville","u":"C","o":"individual","sf":36155,"v":8300}},{"type":"Feature","geometry":{"type":"Point","coordinates":[-80.1012,40.50959]},"properties":{"p":"0212D00040000000","a":"ALLEGHENY AVE","m":"Emsworth","u":"L","o":"individual","sf":3597,"v":1300}},{"type":"Feature","geometry":{"type":"Point","coordinates":[-80.10176,40.50982]},"properties":{"p":"0212D00045000000","a":"OLIVER AVE","m":"Emsworth","u":"L","o":"individual","sf":3234,"v":1100}},{"type":"Feature","geometry":{"type":"Point","coordinates":[-80.10853,40.49819]},"properties":{"p":"0157G00024000000","a":"BRIGHTWOOD DR","m":"Kennedy","u":"L","o":"individual","sf":26529,"v":12000}},{"type":"Feature","geometry":{"type":"Point","coordinates":[-80.10732,40.49731]},"properties":{"p":"0157G00055000000","a":"BRIGHTWOOD DR","m":"Kennedy","u":"L","o":"individual","sf":169109,"v":16000}},{"type":"Feature","geometry":{"type":"Point","coordinates":[-80.10635,40.49941]},"properties":{"p":"0157G00063000000","a":"ROBINSON BLVD","m":"Kennedy","u":"L","o":"corp","sf":1416279,"v":50000}},{"type":"Feature","geometry":{"type":"Point","coordinates":[-80.11555,40.4908]},"properties":{"p":"0156A00040000000","a":"GRANT ST","m":"Kennedy","u":"L","o":"individual","sf":11911,"v":1100}},{"type":"Feature","geometry":{"type":"Point","coordinates":[-80.10447,40.50072]},"properties":{"p":"0157D00350000000","a":"SIPE RD","m":"Kennedy","u":"L","o":"individual","sf":808038,"v":1400}},{"type":"Feature","geometry":{"type":"Point","coordinates":[-80.10752,40.49327]},"properties":{"p":"0157R00042000000","a":"RED PINE DR","m":"Kennedy","u":"L","o":"corp","sf":4314,"v":0}},{"type":"Feature","geometry":{"type":"Point","coordinates":[-80.11707,40.49256]},"properties":{"p":"0210S00012000000","a":"NOLTE LN","m":"Kennedy","u":"L","o":"individual","sf":13409,"v":15100}},{"type":"Feature","geometry":{"type":"Point","coordinates":[-80.11023,40.49165]},"properties":{"p":"0156B00215000000","a":"SIPE RD","m":"Kennedy","u":"L","o":"individual","sf":25700,"v":36300}},{"type":"Feature","geometry":{"type":"Point","coordinates":[-80.10783,40.49065]},"properties":{"p":"0156C00305000000","a":"LAUREL RIDGE RD","m":"Kennedy","u":"L","o":"individual","sf":15500,"v":20000}},{"type":"Feature","geometry":{"type":"Point","coordinates":[-80.10446,40.49002]},"properties":{"p":"0156C00350000000","a":"LONG VALLEY DR EXT","m":"Kennedy","u":"L","o":"corp","sf":263085,"v":0}},{"type":"Feature","geometry":{"type":"Point","coordinates":[-80.10562,40.4914]},"properties":{"p":"0156C00240000000","a":"LONG VALLEY DR","m":"Kennedy","u":"L","o":"individual","sf":12491,"v":1100}},{"type":"Feature","geometry":{"type":"Point","coordinates":[-80.11551,40.49993]},"properties":{"p":"0157A00133000000","a":"HERBST RD","m":"Kennedy","u":"L","o":"individual","sf":2744,"v":300}},{"type":"Feature","geometry":{"type":"Point","coordinates":[-80.11326,40.49467]},"properties":{"p":"0157P00042000000","a":"CORAOPOLIS RD","m":"Kennedy","u":"L","o":"corp","sf":2606631,"v":98600}},{"type":"Feature","geometry":{"type":"Point","coordinates":[-80.11665,40.50116]},"properties":{"p":"0210D00070000000","a":"CORAOPOLIS RD","m":"Kennedy","u":"L","o":"individual","sf":3833,"v":300}},{"type":"Feature","geometry":{"type":"Point","coordinates":[-80.11666,40.49706]},"properties":{"p":"0210H00004000000","a":"HERBST RD","m":"Kennedy","u":"L","o":"individual","sf":21780,"v":2000}},{"type":"Feature","geometry":{"type":"Point","coordinates":[-80.1169,40.49855]},"properties":{"p":"0210H00018000000","a":"CORAOPOLIS RD","m":"Kennedy","u":"L","o":"individual","sf":6250,"v":600}},{"type":"Feature","geometry":{"type":"Point","coordinates":[-80.1145,40.49274]},"properties":{"p":"0157N00060000000","a":"NOLTE LN","m":"Kennedy","u":"L","o":"individual","sf":47480,"v":33300}},{"type":"Feature","geometry":{"type":"Point","coordinates":[-80.1164,40.49143]},"properties":{"p":"0157N00101000000","a":"GRANT ST","m":"Kennedy","u":"L","o":"individual","sf":13921,"v":1300}},{"type":"Feature","geometry":{"type":"Point","coordinates":[-80.11559,40.49157]},"properties":{"p":"0157N00105000000","a":"GRANT ST","m":"Kennedy","u":"L","o":"individual","sf":26002,"v":14500}},{"type":"Feature","geometry":{"type":"Point","coordinates":[-80.11512,40.49166]},"properties":{"p":"0157N00109000000","a":"GRANT ST","m":"Kennedy","u":"L","o":"individual","sf":26002,"v":18800}},{"type":"Feature","geometry":{"type":"Point","coordinates":[-80.10749,40.49429]},"properties":{"p":"0157R00001000000","a":"ROBINSON BLVD","m":"Kennedy","u":"L","o":"corp","sf":56554,"v":0}},{"type":"Feature","geometry":{"type":"Point","coordinates":[-80.10876,40.49341]},"properties":{"p":"0157R00002000000","a":"SIPE RD","m":"Kennedy","u":"L","o":"corp","sf":69957,"v":31300}},{"type":"Feature","geometry":{"type":"Point","coordinates":[-80.11934,40.49542]},"properties":{"p":"0210M00199000000","a":"DOWNS DR","m":"Kennedy","u":"L","o":"individual","sf":1861,"v":200}},{"type":"Feature","geometry":{"type":"Point","coordinates":[-80.11789,40.49659]},"properties":{"p":"0210M00207000000","a":"HERBST RD","m":"Kennedy","u":"L","o":"individual","sf":217800,"v":53900}},{"type":"Feature","geometry":{"type":"Point","coordinates":[-80.11712,40.49048]},"properties":{"p":"0209D00005000000","a":"GRANT ST","m":"Kennedy","u":"L","o":"individual","sf":8519,"v":800}},{"type":"Feature","geometry":{"type":"Point","coordinates":[-80.11707,40.49087]},"properties":{"p":"0209D00009000000","a":"GRANT ST","m":"Kennedy","u":"L","o":"individual","sf":12641,"v":1100}},{"type":"Feature","geometry":{"type":"Point","coordinates":[-80.11846,40.49373]},"properties":{"p":"0210S00294000000","a":"DOWNS DR","m":"Kennedy","u":"L","o":"individual","sf":11020,"v":1200}},{"type":"Feature","geometry":{"type":"Point","coordinates":[-80.11762,40.49389]},"properties":{"p":"0210S00302000000","a":"HERBST RD","m":"Kennedy","u":"L","o":"individual","sf":15420,"v":1800}},{"type":"Feature","geometry":{"type":"Point","coordinates":[-80.11624,40.50243]},"properties":{"p":"0212N00025000000","a":"CORAOPOLIS RD","m":"Kennedy","u":"L","o":"individual","sf":30056,"v":36700}},{"type":"Feature","geometry":{"type":"Point","coordinates":[-80.1142,40.49287]},"properties":{"p":"0157N00050000000","a":"NOLTE LN","m":"Kennedy","u":"L","o":"individual","sf":47480,"v":33300}},{"type":"Feature","geometry":{"type":"Point","coordinates":[-80.11914,40.49638]},"properties":{"p":"0210M00096000000","a":"DOWNS DR","m":"Kennedy","u":"L","o":"corp","sf":375966,"v":57500}},{"type":"Feature","geometry":{"type":"Point","coordinates":[-80.11834,40.49468]},"properties":{"p":"0210M00098000000","a":"DOWNS DR","m":"Kennedy","u":"L","o":"individual","sf":19079,"v":3000}},{"type":"Feature","geometry":{"type":"Point","coordinates":[-80.1183,40.49446]},"properties":{"p":"0210M00100000000","a":"DOWNS DR","m":"Kennedy","u":"L","o":"individual","sf":17250,"v":1600}},{"type":"Feature","geometry":{"type":"Point","coordinates":[-80.10071,40.49804]},"properties":{"p":"0157H00125000000","a":"ROBINSON BLVD","m":"Kennedy","u":"L","o":"corp","sf":250470,"v":5000}},{"type":"Feature","geometry":{"type":"Point","coordinates":[-80.10435,40.49576]},"properties":{"p":"0157L00028000000","a":"FOXTAIL CIR","m":"Kennedy","u":"L","o":"corp","sf":378018,"v":0}},{"type":"Feature","geometry":{"type":"Point","coordinates":[-80.11947,40.49323]},"properties":{"p":"0210S00251000000","a":"DOWNS DR","m":"Kennedy","u":"L","o":"individual","sf":17812,"v":1600}},{"type":"Feature","geometry":{"type":"Point","coordinates":[-80.11896,40.49917]},"properties":{"p":"0210H00065000000","a":"HEMINGWAY WAY","m":"Kennedy","u":"L","o":"corp","sf":591858,"v":64500}},{"type":"Feature","geometry":{"type":"Point","coordinates":[-80.11709,40.49629]},"properties":{"p":"0210M00011000000","a":"HERBST RD","m":"Kennedy","u":"L","o":"individual","sf":18025,"v":15000}},{"type":"Feature","geometry":{"type":"Point","coordinates":[-80.11747,40.49418]},"properties":{"p":"0210M00051000000","a":"HERBST RD","m":"Kennedy","u":"L","o":"corp","sf":15464,"v":35400}},{"type":"Feature","geometry":{"type":"Point","coordinates":[-80.1191,40.50695]},"properties":{"p":"0211H00075000000","a":"NEVILLE RD","m":"Neville","u":"L","o":"corp","sf":27922,"v":22100}},{"type":"Feature","geometry":{"type":"Point","coordinates":[-80.11691,40.50669]},"properties":{"p":"0211H00105000000","a":"NEVILLE RD","m":"Neville","u":"L","o":"corp","sf":17424,"v":21100}},{"type":"Feature","geometry":{"type":"Point","coordinates":[-80.11807,40.50138]},"properties":{"p":"0211S00051000000","a":"CORAOPOLIS RD","m":"Robinson","u":"L","o":"individual","sf":33263,"v":3000}},{"type":"Feature","geometry":{"type":"Point","coordinates":[-80.11977,40.50081]},"properties":{"p":"0210D00332000000","a":"CORAOPOLIS RD","m":"Robinson","u":"L","o":"individual","sf":250906,"v":15800}},{"type":"Feature","geometry":{"type":"Point","coordinates":[-80.10657,40.49651]},"properties":{"p":"0157G00032000000","a":"BRIGHTWOOD DR","m":"Kennedy","u":"L","o":"individual","sf":376210,"v":16000}},{"type":"Feature","geometry":{"type":"Point","coordinates":[-80.11607,40.49148]},"properties":{"p":"0157N00103000000","a":"GRANT ST","m":"Kennedy","u":"L","o":"individual","sf":13001,"v":1200}},{"type":"Feature","geometry":{"type":"Point","coordinates":[-80.11088,40.50096]},"properties":{"p":"0157B00038000000","a":"104 RIDGE LN","m":"Kennedy","u":"B","o":"corp","sf":4588,"v":3700}},{"type":"Feature","geometry":{"type":"Point","coordinates":[-80.11133,40.50089]},"properties":{"p":"0157B00035000000","a":"101 RIDGE LN","m":"Kennedy","u":"B","o":"corp","sf":4612,"v":3700}},{"type":"Feature","geometry":{"type":"Point","coordinates":[-80.11117,40.50091]},"properties":{"p":"0157B00036000000","a":"102 RIDGE LN","m":"Kennedy","u":"B","o":"corp","sf":4050,"v":3500}},{"type":"Feature","geometry":{"type":"Point","coordinates":[-80.11103,40.50093]},"properties":{"p":"0157B00037000000","a":"103 RIDGE LN","m":"Kennedy","u":"B","o":"corp","sf":4050,"v":3500}},{"type":"Feature","geometry":{"type":"Point","coordinates":[-80.11862,40.49976]},"properties":{"p":"0210D00067000000","a":"117 HEMINGWAY LN","m":"Kennedy","u":"B","o":"individual","sf":8684,"v":2900}},{"type":"Feature","geometry":{"type":"Point","coordinates":[-80.11773,40.4995]},"properties":{"p":"0210D00057000000","a":"107 HEMINGWAY LN","m":"Kennedy","u":"B","o":"individual","sf":6772,"v":2200}},{"type":"Feature","geometry":{"type":"Point","coordinates":[-80.11806,40.49962]},"properties":{"p":"0210D00061000000","a":"111 HEMINGWAY LN","m":"Kennedy","u":"B","o":"individual","sf":6792,"v":2300}},{"type":"Feature","geometry":{"type":"Point","coordinates":[-80.1193,40.50001]},"properties":{"p":"0210D00073000000","a":"123 HEMINGWAY LN","m":"Robinson","u":"B","o":"individual","sf":11055,"v":3700}}]}