{"type":"FeatureCollection","features":[{"type":"Feature","geometry":{"type":"Point","coordinates":[-80.11801,40.53108]},"properties":{"p":"0424S00027000000","a":"BIXWOOD DR","m":"Kilbuck","u":"L","o":"individual","sf":188179,"v":25400}},{"type":"Feature","geometry":{"type":"Point","coordinates":[-80.10764,40.546]},"properties":{"p":"0512G00124000000","a":"LINDA VISTA RD","m":"Ohio","u":"L","o":"individual","sf":39059,"v":37500}},{"type":"Feature","geometry":{"type":"Point","coordinates":[-80.10078,40.54353]},"properties":{"p":"0513J00284000000","a":"ONEIL LN","m":"Ohio","u":"L","o":"corp","sf":108029,"v":9900}},{"type":"Feature","geometry":{"type":"Point","coordinates":[-80.10133,40.54407]},"properties":{"p":"0513J00287000000","a":"ONEIL LN","m":"Ohio","u":"L","o":"corp","sf":323716,"v":61200}},{"type":"Feature","geometry":{"type":"Point","coordinates":[-80.11064,40.54509]},"properties":{"p":"0512K00002000000","a":"RITTER RD","m":"Ohio","u":"L","o":"corp","sf":615416,"v":29100}},{"type":"Feature","geometry":{"type":"Point","coordinates":[-80.10524,40.54323]},"properties":{"p":"0512L00070000100","a":"113 STAR CT","m":"Ohio","u":"L","o":"individual","sf":21192,"v":2800}},{"type":"Feature","geometry":{"type":"Point","coordinates":[-80.1068,40.54604]},"properties":{"p":"0512G00074000000","a":"RITTER RD","m":"Ohio","u":"L","o":"individual","sf":12249,"v":1100}},{"type":"Feature","geometry":{"type":"Point","coordinates":[-80.10107,40.54152]},"properties":{"p":"0513N00037000000","a":"156 ONEIL LN","m":"Ohio","u":"L","o":"individual","sf":52272,"v":38700}},{"type":"Feature","geometry":{"type":"Point","coordinates":[-80.10105,40.54168]},"properties":{"p":"0513N00045000000","a":"146 ONEIL LN","m":"Ohio","u":"L","o":"individual","sf":53143,"v":6000}},{"type":"Feature","geometry":{"type":"Point","coordinates":[-80.10419,40.54503]},"properties":{"p":"0512M00140000000","a":"TOMS RUN RD","m":"Ohio","u":"L","o":"individual","sf":108848,"v":43900}},{"type":"Feature","geometry":{"type":"Point","coordinates":[-80.11112,40.54201]},"properties":{"p":"0512N00006000000","a":"RITTER RD","m":"Ohio","u":"L","o":"individual","sf":87120,"v":11000}},{"type":"Feature","geometry":{"type":"Point","coordinates":[-80.11054,40.54121]},"properties":{"p":"0512P00129000000","a":"RITTER RD","m":"Ohio","u":"L","o":"individual","sf":348480,"v":32000}},{"type":"Feature","geometry":{"type":"Point","coordinates":[-80.11961,40.54737]},"properties":{"p":"0511H00295000000","a":"518 DUFF RD","m":"Ohio","u":"L","o":"individual","sf":23974,"v":2500}},{"type":"Feature","geometry":{"type":"Point","coordinates":[-80.11907,40.54549]},"properties":{"p":"0511M00018000000","a":"DUFF RD","m":"Ohio","u":"L","o":"corp","sf":8835,"v":800}},{"type":"Feature","geometry":{"type":"Point","coordinates":[-80.10108,40.54724]},"properties":{"p":"0513E00382000000","a":"ROOSEVELT RD","m":"Ohio","u":"L","o":"individual","sf":127631,"v":28100}},{"type":"Feature","geometry":{"type":"Point","coordinates":[-80.10216,40.54803]},"properties":{"p":"0512D00296000100","a":"121 TOMS RUN RD","m":"Ohio","u":"L","o":"individual","sf":54755,"v":21400}},{"type":"Feature","geometry":{"type":"Point","coordinates":[-80.10837,40.54756]},"properties":{"p":"0512G00008000000","a":"LINDA VISTA RD","m":"Ohio","u":"L","o":"corp","sf":19222,"v":1700}},{"type":"Feature","geometry":{"type":"Point","coordinates":[-80.10211,40.53416]},"properties":{"p":"0425M00179000000","a":"ROOSEVELT RD","m":"Ohio","u":"L","o":"corp","sf":50965,"v":38600}},{"type":"Feature","geometry":{"type":"Point","coordinates":[-80.10021,40.53348]},"properties":{"p":"0425M00032000000","a":"GREEN VISTA DR","m":"Ohio","u":"L","o":"individual","sf":74488,"v":6000}},{"type":"Feature","geometry":{"type":"Point","coordinates":[-80.1008,40.5329]},"properties":{"p":"0425S00008000000","a":"GREEN VISTA DR","m":"Ohio","u":"L","o":"individual","sf":21696,"v":35900}},{"type":"Feature","geometry":{"type":"Point","coordinates":[-80.10255,40.54928]},"properties":{"p":"0512D00199000000","a":"TOMS RUN RD","m":"Ohio","u":"L","o":"corp","sf":139392,"v":1600}},{"type":"Feature","geometry":{"type":"Point","coordinates":[-80.11887,40.54885]},"properties":{"p":"0511D00173000000","a":"DUFF RD","m":"Ohio","u":"L","o":"corp","sf":267894,"v":55100}},{"type":"Feature","geometry":{"type":"Point","coordinates":[-80.11888,40.53288]},"properties":{"p":"0424R00030000000","a":"BERDINE DR","m":"Kilbuck","u":"L","o":"individual","sf":370260,"v":63100}},{"type":"Feature","geometry":{"type":"Point","coordinates":[-80.10314,40.54385]},"properties":{"p":"0512L00084000000","a":"TOMS RUN RD","m":"Ohio","u":"B","o":"individual","sf":82568,"v":11700}},{"type":"Feature","geometry":{"type":"Point","coordinates":[-80.10376,40.54362]},"properties":{"p":"0512L00088000000","a":"185 TOMS RUN RD","m":"Ohio","u":"B","o":"individual","sf":96250,"v":13000}},{"type":"Feature","geometry":{"type":"Point","coordinates":[-80.10353,40.54297]},"properties":{"p":"0512L00092000000","a":"TOMS RUN RD","m":"Ohio","u":"B","o":"individual","sf":100563,"v":13400}},{"type":"Feature","geometry":{"type":"Point","coordinates":[-80.11986,40.5438]},"properties":{"p":"0511M00100000000","a":"DUFF RD","m":"Ohio","u":"B","o":"individual","sf":64617,"v":700}},{"type":"Feature","geometry":{"type":"Point","coordinates":[-80.11923,40.54355]},"properties":{"p":"0511M00003000000","a":"DUFF RD","m":"Ohio","u":"B","o":"individual","sf":52115,"v":700}}]}