{"type":"FeatureCollection","features":[{"type":"Feature","geometry":{"type":"Point","coordinates":[-80.10597,40.44785]},"properties":{"p":"0152G00001000000","a":"STEUBENVILLE PIKE","m":"Robinson","u":"C","o":"corp","sf":335682,"v":23200}},{"type":"Feature","geometry":{"type":"Point","coordinates":[-80.10164,40.44634]},"properties":{"p":"0152M00050000000","a":"STEUBENVILLE PIKE","m":"Robinson","u":"C","o":"individual","sf":264279,"v":30000}},{"type":"Feature","geometry":{"type":"Point","coordinates":[-80.10267,40.44839]},"properties":{"p":"0152M00097000000","a":"STEUBENVILLE PIKE","m":"Robinson","u":"C","o":"corp","sf":280091,"v":19000}},{"type":"Feature","geometry":{"type":"Point","coordinates":[-80.10229,40.44705]},"properties":{"p":"0152M00111000000","a":"BILMAR DR","m":"Robinson","u":"C","o":"individual","sf":9318,"v":3700}},{"type":"Feature","geometry":{"type":"Point","coordinates":[-80.11958,40.44934]},"properties":{"p":"0205H00093000000","a":"5320 STEUBENVILLE PIKE","m":"Robinson","u":"C","o":"corp","sf":10843,"v":76600}},{"type":"Feature","geometry":{"type":"Point","coordinates":[-80.10289,40.43885]},"properties":{"p":"0151H00007000000","a":"2500 COUNTRY CLUB DR","m":"Robinson","u":"L","o":"individual","sf":25006,"v":2500}},{"type":"Feature","geometry":{"type":"Point","coordinates":[-80.10332,40.43931]},"properties":{"p":"0151H00011000000","a":"COUNTRY CLUB DR","m":"Robinson","u":"L","o":"individual","sf":29616,"v":46800}},{"type":"Feature","geometry":{"type":"Point","coordinates":[-80.11491,40.44677]},"properties":{"p":"0152E00104000000","a":"WINGATE DR","m":"Robinson","u":"L","o":"corp","sf":93044,"v":59300}},{"type":"Feature","geometry":{"type":"Point","coordinates":[-80.10021,40.43738]},"properties":{"p":"0151M00145000000","a":"COUNTRY CLUB DR","m":"Robinson","u":"L","o":"individual","sf":95757,"v":89200}},{"type":"Feature","geometry":{"type":"Point","coordinates":[-80.10917,40.44071]},"properties":{"p":"0151F00057000000","a":"216 TUDOR LN","m":"Robinson","u":"L","o":"individual","sf":26408,"v":62000}},{"type":"Feature","geometry":{"type":"Point","coordinates":[-80.10372,40.44328]},"properties":{"p":"0151C00228000000","a":"COUNTRY CLUB DR","m":"Robinson","u":"L","o":"individual","sf":313632,"v":21400}},{"type":"Feature","geometry":{"type":"Point","coordinates":[-80.11012,40.43772]},"properties":{"p":"0151K00285000000","a":"ROUTE 279","m":"Robinson","u":"L","o":"individual","sf":235224,"v":6000}},{"type":"Feature","geometry":{"type":"Point","coordinates":[-80.11584,40.43282]},"properties":{"p":"0150A00010000000","a":"MCMILLAN RD","m":"Robinson","u":"L","o":"individual","sf":43560,"v":28600}},{"type":"Feature","geometry":{"type":"Point","coordinates":[-80.11364,40.43157]},"properties":{"p":"0150A00098000000","a":"MCMILLAN RD","m":"Robinson","u":"L","o":"individual","sf":43560,"v":10900}},{"type":"Feature","geometry":{"type":"Point","coordinates":[-80.11253,40.43017]},"properties":{"p":"0150E00311000000","a":"MCMILLAN RD","m":"Robinson","u":"L","o":"individual","sf":270072,"v":15000}},{"type":"Feature","geometry":{"type":"Point","coordinates":[-80.10231,40.44099]},"properties":{"p":"0151D00022000000","a":"SCOTTDALE DR","m":"Robinson","u":"L","o":"individual","sf":2222,"v":200}},{"type":"Feature","geometry":{"type":"Point","coordinates":[-80.11474,40.4491]},"properties":{"p":"0152E00232000000","a":"W WINDHAVEN RD","m":"Robinson","u":"L","o":"corp","sf":143007,"v":50000}},{"type":"Feature","geometry":{"type":"Point","coordinates":[-80.11564,40.43532]},"properties":{"p":"0151J00045000000","a":"W HARBISON RD","m":"Robinson","u":"L","o":"corp","sf":1349053,"v":203500}},{"type":"Feature","geometry":{"type":"Point","coordinates":[-80.10924,40.4378]},"properties":{"p":"0151K00009000000","a":"FOXBURG DR","m":"Robinson","u":"L","o":"individual","sf":26136,"v":3700}},{"type":"Feature","geometry":{"type":"Point","coordinates":[-80.104,40.44766]},"properties":{"p":"0152L00100000000","a":"STEUBENVILLE PIKE","m":"Robinson","u":"L","o":"corp","sf":108029,"v":61000}},{"type":"Feature","geometry":{"type":"Point","coordinates":[-80.11999,40.44679]},"properties":{"p":"0205M00377000000","a":"VALLEY RD","m":"Robinson","u":"L","o":"individual","sf":43560,"v":5000}},{"type":"Feature","geometry":{"type":"Point","coordinates":[-80.11703,40.446]},"properties":{"p":"0205M00005000000","a":"BEACON RD","m":"Robinson","u":"L","o":"individual","sf":3993,"v":400}},{"type":"Feature","geometry":{"type":"Point","coordinates":[-80.11733,40.44961]},"properties":{"p":"0205H00325000000","a":"W WINDHAVEN RD","m":"Robinson","u":"L","o":"individual","sf":14375,"v":26300}},{"type":"Feature","geometry":{"type":"Point","coordinates":[-80.10393,40.44421]},"properties":{"p":"0152R00125000000","a":"E WINDHAVEN RD","m":"Robinson","u":"L","o":"individual","sf":47045,"v":54000}},{"type":"Feature","geometry":{"type":"Point","coordinates":[-80.11982,40.43341]},"properties":{"p":"0203D00008000000","a":"MCMILLAN RD","m":"Robinson","u":"L","o":"individual","sf":5894,"v":700}},{"type":"Feature","geometry":{"type":"Point","coordinates":[-80.11936,40.43356]},"properties":{"p":"0203D00021000000","a":"MCMILLAN RD","m":"Robinson","u":"L","o":"individual","sf":14665,"v":15000}},{"type":"Feature","geometry":{"type":"Point","coordinates":[-80.11868,40.44145]},"properties":{"p":"0204H00153000000","a":"BEACON RD","m":"Robinson","u":"L","o":"corp","sf":1966321,"v":139100}},{"type":"Feature","geometry":{"type":"Point","coordinates":[-80.11804,40.43441]},"properties":{"p":"0204S00130000000","a":"MCMILLAN RD","m":"Robinson","u":"L","o":"individual","sf":7563,"v":800}},{"type":"Feature","geometry":{"type":"Point","coordinates":[-80.11904,40.43406]},"properties":{"p":"0204S00258000000","a":"MCMILLAN RD","m":"Robinson","u":"L","o":"individual","sf":13298,"v":1500}},{"type":"Feature","geometry":{"type":"Point","coordinates":[-80.11753,40.43825]},"properties":{"p":"0204M00225000000","a":"W HARBISON RD","m":"Robinson","u":"L","o":"individual","sf":8712,"v":1000}},{"type":"Feature","geometry":{"type":"Point","coordinates":[-80.11712,40.44532]},"properties":{"p":"0205S00100000000","a":"778 BEACON RD","m":"Robinson","u":"L","o":"individual","sf":4500,"v":500}},{"type":"Feature","geometry":{"type":"Point","coordinates":[-80.1168,40.44581]},"properties":{"p":"0205S00147000000","a":"BEACON RD","m":"Robinson","u":"L","o":"individual","sf":41643,"v":20000}},{"type":"Feature","geometry":{"type":"Point","coordinates":[-80.11626,40.44959]},"properties":{"p":"0205H00349000000","a":"W WINDHAVEN RD","m":"Robinson","u":"L","o":"corp","sf":8838,"v":800}},{"type":"Feature","geometry":{"type":"Point","coordinates":[-80.10661,40.44484]},"properties":{"p":"0152R00209000100","a":"E WINDHAVEN RD","m":"Robinson","u":"L","o":"individual","sf":392,"v":100}},{"type":"Feature","geometry":{"type":"Point","coordinates":[-80.1181,40.43382]},"properties":{"p":"0203D00054000000","a":"MCMILLAN RD","m":"Robinson","u":"L","o":"individual","sf":24593,"v":51400}},{"type":"Feature","geometry":{"type":"Point","coordinates":[-80.11674,40.43371]},"properties":{"p":"0203D00067000000","a":"MCMILLAN RD","m":"Robinson","u":"L","o":"individual","sf":8865,"v":1000}},{"type":"Feature","geometry":{"type":"Point","coordinates":[-80.10167,40.43872]},"properties":{"p":"0151H00199000000","a":"COUNTRY CLUB DR","m":"Robinson","u":"L","o":"individual","sf":188179,"v":75000}},{"type":"Feature","geometry":{"type":"Point","coordinates":[-80.10668,40.44567]},"properties":{"p":"0152R00060000000","a":"STEUBENVILLE PIKE","m":"Robinson","u":"L","o":"individual","sf":25264,"v":51500}},{"type":"Feature","geometry":{"type":"Point","coordinates":[-80.11932,40.43581]},"properties":{"p":"0204S00269000000","a":"KEINERS LN","m":"Robinson","u":"L","o":"individual","sf":19800,"v":50900}},{"type":"Feature","geometry":{"type":"Point","coordinates":[-80.1074,40.44126]},"properties":{"p":"0151C00121000000","a":"207 TUDOR LN","m":"Robinson","u":"B","o":"individual","sf":47306,"v":13900}},{"type":"Feature","geometry":{"type":"Point","coordinates":[-80.1143,40.44304]},"properties":{"p":"0152N00230000000","a":"WINGATE DR","m":"Robinson","u":"B","o":"corp","sf":1871194,"v":220900}},{"type":"Feature","geometry":{"type":"Point","coordinates":[-80.11525,40.44498]},"properties":{"p":"0152N00234000000","a":"WINGATE DR","m":"Robinson","u":"B","o":"corp","sf":33423,"v":9900}},{"type":"Feature","geometry":{"type":"Point","coordinates":[-80.11543,40.4453]},"properties":{"p":"0152N00236000000","a":"PLEASANT VIEW DR","m":"Robinson","u":"B","o":"corp","sf":31247,"v":9700}},{"type":"Feature","geometry":{"type":"Point","coordinates":[-80.11559,40.44559]},"properties":{"p":"0152N00238000000","a":"PLEASANT VIEW DR","m":"Robinson","u":"B","o":"corp","sf":31579,"v":9700}},{"type":"Feature","geometry":{"type":"Point","coordinates":[-80.11591,40.44579]},"properties":{"p":"0152N00240000000","a":"PLEASANT VIEW DR","m":"Robinson","u":"B","o":"corp","sf":35956,"v":10200}},{"type":"Feature","geometry":{"type":"Point","coordinates":[-80.10655,40.44348]},"properties":{"p":"0152R00175000000","a":"E WINDHAVEN RD","m":"Robinson","u":"B","o":"individual","sf":569564,"v":61600}},{"type":"Feature","geometry":{"type":"Point","coordinates":[-80.11997,40.43726]},"properties":{"p":"0204M00356000000","a":"KEINERS LN","m":"Robinson","u":"B","o":"corp","sf":20267,"v":7000}},{"type":"Feature","geometry":{"type":"Point","coordinates":[-80.11961,40.43748]},"properties":{"p":"0204M00358000000","a":"KEINERS LN","m":"Robinson","u":"B","o":"corp","sf":47088,"v":16000}},{"type":"Feature","geometry":{"type":"Point","coordinates":[-80.11914,40.43764]},"properties":{"p":"0204M00362000000","a":"KEINERS LN","m":"Robinson","u":"B","o":"corp","sf":39689,"v":13000}},{"type":"Feature","geometry":{"type":"Point","coordinates":[-80.11867,40.43761]},"properties":{"p":"0204M00364000000","a":"KEINERS LN","m":"Robinson","u":"B","o":"corp","sf":28077,"v":10000}},{"type":"Feature","geometry":{"type":"Point","coordinates":[-80.11824,40.43755]},"properties":{"p":"0204M00366000000","a":"KEINERS LN","m":"Robinson","u":"B","o":"corp","sf":29216,"v":10000}},{"type":"Feature","geometry":{"type":"Point","coordinates":[-80.11784,40.43735]},"properties":{"p":"0204M00368000000","a":"KEINERS LN","m":"Robinson","u":"B","o":"corp","sf":35154,"v":12000}},{"type":"Feature","geometry":{"type":"Point","coordinates":[-80.11759,40.43771]},"properties":{"p":"0204M00372000000","a":"KEINERS LN","m":"Robinson","u":"B","o":"corp","sf":131739,"v":46300}},{"type":"Feature","geometry":{"type":"Point","coordinates":[-80.11442,40.44529]},"properties":{"p":"0152N00244000000","a":"WINGATE DR","m":"Robinson","u":"B","o":"corp","sf":32361,"v":9800}},{"type":"Feature","geometry":{"type":"Point","coordinates":[-80.11784,40.43626]},"properties":{"p":"0204M00350000000","a":"KEINERS LN","m":"Robinson","u":"B","o":"corp","sf":79009,"v":27000}},{"type":"Feature","geometry":{"type":"Point","coordinates":[-80.11457,40.44563]},"properties":{"p":"0152N00242000000","a":"WINGATE DR","m":"Robinson","u":"B","o":"corp","sf":36880,"v":10300}}]}