{"type":"FeatureCollection","features":[{"type":"Feature","geometry":{"type":"Point","coordinates":[-80.10593,40.45571]},"properties":{"p":"0153R00031000000","a":"360 BILMAR DR","m":"Kennedy","u":"C","o":"corp","sf":87673,"v":150800}},{"type":"Feature","geometry":{"type":"Point","coordinates":[-80.10692,40.45417]},"properties":{"p":"0153R00044000000","a":"BILMAR DR","m":"Kennedy","u":"C","o":"corp","sf":21125,"v":35900}},{"type":"Feature","geometry":{"type":"Point","coordinates":[-80.10424,40.45576]},"properties":{"p":"0153L00020000000","a":"MCKEES ROCKS RD","m":"Kennedy","u":"C","o":"corp","sf":373518,"v":16600}},{"type":"Feature","geometry":{"type":"Point","coordinates":[-80.10837,40.45175]},"properties":{"p":"0152B00140000000","a":"100 BEECHAM DR","m":"Kennedy","u":"C","o":"corp","sf":6630,"v":2700}},{"type":"Feature","geometry":{"type":"Point","coordinates":[-80.10293,40.45046]},"properties":{"p":"0152H00106000000","a":"KISOW DR","m":"Kennedy","u":"C","o":"individual","sf":116741,"v":175200}},{"type":"Feature","geometry":{"type":"Point","coordinates":[-80.10649,40.45617]},"properties":{"p":"0153F00214000000","a":"MCKEES ROCKS RD","m":"Kennedy","u":"C","o":"corp","sf":1425457,"v":120700}},{"type":"Feature","geometry":{"type":"Point","coordinates":[-80.10176,40.4575]},"properties":{"p":"0153H00095000000","a":"CREEK RD","m":"Kennedy","u":"C","o":"corp","sf":166356,"v":7600}},{"type":"Feature","geometry":{"type":"Point","coordinates":[-80.10858,40.45069]},"properties":{"p":"0152B00200000000","a":"LORISH RD","m":"Robinson","u":"C","o":"corp","sf":61894,"v":156300}},{"type":"Feature","geometry":{"type":"Point","coordinates":[-80.10941,40.45104]},"properties":{"p":"0152B00206000000","a":"LORISH RD","m":"Robinson","u":"C","o":"corp","sf":15072,"v":5100}},{"type":"Feature","geometry":{"type":"Point","coordinates":[-80.1078,40.45004]},"properties":{"p":"0152F00100000000","a":"STEUBENVILLE PIKE","m":"Robinson","u":"C","o":"corp","sf":40206,"v":69200}},{"type":"Feature","geometry":{"type":"Point","coordinates":[-80.11714,40.4519]},"properties":{"p":"0205D00233000000","a":"MCKEES ROCKS RD","m":"Robinson","u":"C","o":"corp","sf":113692,"v":45500}},{"type":"Feature","geometry":{"type":"Point","coordinates":[-80.1172,40.45324]},"properties":{"p":"0205D00289000000","a":"MOON RUN RD","m":"Robinson","u":"C","o":"individual","sf":507909,"v":112700}},{"type":"Feature","geometry":{"type":"Point","coordinates":[-80.11245,40.45825]},"properties":{"p":"0153E00399000000","a":"AIKEN RD","m":"Robinson","u":"C","o":"individual","sf":7740,"v":3100}},{"type":"Feature","geometry":{"type":"Point","coordinates":[-80.11526,40.45238]},"properties":{"p":"0152A00254000000","a":"MCKEES ROCKS RD","m":"Robinson","u":"C","o":"corp","sf":6162,"v":53400}},{"type":"Feature","geometry":{"type":"Point","coordinates":[-80.10486,40.46713]},"properties":{"p":"0154L00158000000","a":"CORTLAND DR W","m":"Kennedy","u":"L","o":"corp","sf":50965,"v":38600}},{"type":"Feature","geometry":{"type":"Point","coordinates":[-80.10593,40.46578]},"properties":{"p":"0154L00229000000","a":"CLEVER RD","m":"Kennedy","u":"L","o":"individual","sf":55931,"v":30000}},{"type":"Feature","geometry":{"type":"Point","coordinates":[-80.10674,40.4654]},"properties":{"p":"0154L00243000000","a":"CLEVER RD","m":"Kennedy","u":"L","o":"individual","sf":27138,"v":25000}},{"type":"Feature","geometry":{"type":"Point","coordinates":[-80.10603,40.46526]},"properties":{"p":"0154L00046000000","a":"MAPLE LN","m":"Kennedy","u":"L","o":"individual","sf":111252,"v":39100}},{"type":"Feature","geometry":{"type":"Point","coordinates":[-80.1088,40.45322]},"properties":{"p":"0153P00169000000","a":"112 LORISH RD","m":"Kennedy","u":"L","o":"individual","sf":5000,"v":500}},{"type":"Feature","geometry":{"type":"Point","coordinates":[-80.10513,40.46212]},"properties":{"p":"0153C00188000000","a":"MCKEES ROCKS RD","m":"Kennedy","u":"L","o":"individual","sf":108900,"v":23700}},{"type":"Feature","geometry":{"type":"Point","coordinates":[-80.11289,40.46081]},"properties":{"p":"0153E00040000000","a":"AIKEN RD EXT","m":"Kennedy","u":"L","o":"individual","sf":131116,"v":12000}},{"type":"Feature","geometry":{"type":"Point","coordinates":[-80.10035,40.46935]},"properties":{"p":"0154H00370000000","a":"CLEVER RD","m":"Kennedy","u":"L","o":"individual","sf":10193,"v":900}},{"type":"Feature","geometry":{"type":"Point","coordinates":[-80.10893,40.45617]},"properties":{"p":"0153K00215000000","a":"MCKEES ROCKS RD","m":"Kennedy","u":"L","o":"corp","sf":17500,"v":10000}},{"type":"Feature","geometry":{"type":"Point","coordinates":[-80.10827,40.46507]},"properties":{"p":"0154K00375000000","a":"CLEVER RD","m":"Kennedy","u":"L","o":"individual","sf":15071,"v":1400}},{"type":"Feature","geometry":{"type":"Point","coordinates":[-80.10974,40.4526]},"properties":{"p":"0152B00257000000","a":"LORISH RD","m":"Kennedy","u":"L","o":"corp","sf":31117,"v":36800}},{"type":"Feature","geometry":{"type":"Point","coordinates":[-80.10985,40.45294]},"properties":{"p":"0152B00266000000","a":"LORISH RD","m":"Kennedy","u":"L","o":"individual","sf":16193,"v":35400}},{"type":"Feature","geometry":{"type":"Point","coordinates":[-80.11045,40.45717]},"properties":{"p":"0153K00351000000","a":"2072 MCKEES ROCKS RD","m":"Kennedy","u":"L","o":"individual","sf":13300,"v":1200}},{"type":"Feature","geometry":{"type":"Point","coordinates":[-80.10758,40.45699]},"properties":{"p":"0153L00010000000","a":"MCKEES ROCKS RD","m":"Kennedy","u":"L","o":"corp","sf":35283,"v":3200}},{"type":"Feature","geometry":{"type":"Point","coordinates":[-80.10926,40.46092]},"properties":{"p":"0153B00038000000","a":"MCKEES ROCKS RD","m":"Kennedy","u":"L","o":"individual","sf":152460,"v":47900}},{"type":"Feature","geometry":{"type":"Point","coordinates":[-80.10993,40.46089]},"properties":{"p":"0153B00050000000","a":"2045 A MCKEES ROCKS RD","m":"Kennedy","u":"L","o":"individual","sf":166922,"v":49200}},{"type":"Feature","geometry":{"type":"Point","coordinates":[-80.10808,40.4617]},"properties":{"p":"0153B00129000000","a":"HAWTHORNE DR","m":"Kennedy","u":"L","o":"individual","sf":21885,"v":18400}},{"type":"Feature","geometry":{"type":"Point","coordinates":[-80.10707,40.46138]},"properties":{"p":"0153C00108000000","a":"2023 MCKEES ROCKS RD","m":"Kennedy","u":"L","o":"individual","sf":5500,"v":500}},{"type":"Feature","geometry":{"type":"Point","coordinates":[-80.10744,40.4637]},"properties":{"p":"0154R00015000000","a":"MAPLE LN","m":"Kennedy","u":"L","o":"individual","sf":34046,"v":15000}},{"type":"Feature","geometry":{"type":"Point","coordinates":[-80.10347,40.46293]},"properties":{"p":"0154S00020000000","a":"TRUMAN CIR","m":"Kennedy","u":"L","o":"corp","sf":16156,"v":0}},{"type":"Feature","geometry":{"type":"Point","coordinates":[-80.10978,40.45714]},"properties":{"p":"0153K00147000000","a":"2069 MCKEES ROCKS RD","m":"Kennedy","u":"L","o":"individual","sf":15000,"v":35300}},{"type":"Feature","geometry":{"type":"Point","coordinates":[-80.10981,40.45695]},"properties":{"p":"0153K00157000000","a":"MCKEES ROCKS RD","m":"Kennedy","u":"L","o":"corp","sf":15930,"v":35400}},{"type":"Feature","geometry":{"type":"Point","coordinates":[-80.10977,40.45652]},"properties":{"p":"0153K00174000000","a":"MCKEES ROCKS RD","m":"Kennedy","u":"L","o":"corp","sf":14174,"v":1300}},{"type":"Feature","geometry":{"type":"Point","coordinates":[-80.10924,40.45667]},"properties":{"p":"0153K00178000000","a":"MCKEES ROCKS RD","m":"Kennedy","u":"L","o":"corp","sf":24500,"v":2200}},{"type":"Feature","geometry":{"type":"Point","coordinates":[-80.10886,40.45215]},"properties":{"p":"0152B00101000000","a":"LORISH RD","m":"Kennedy","u":"L","o":"corp","sf":28052,"v":36500}},{"type":"Feature","geometry":{"type":"Point","coordinates":[-80.10852,40.45167]},"properties":{"p":"0152B00145000000","a":"102 LORISH RD","m":"Kennedy","u":"L","o":"individual","sf":3389,"v":300}},{"type":"Feature","geometry":{"type":"Point","coordinates":[-80.10924,40.45198]},"properties":{"p":"0152B00222000000","a":"103 LORISH RD","m":"Kennedy","u":"L","o":"individual","sf":1783,"v":200}},{"type":"Feature","geometry":{"type":"Point","coordinates":[-80.10137,40.46904]},"properties":{"p":"0154H00099000000","a":"CORTLAND DR","m":"Kennedy","u":"L","o":"corp","sf":1731,"v":200}},{"type":"Feature","geometry":{"type":"Point","coordinates":[-80.10991,40.4637]},"properties":{"p":"0154P00231000000","a":"ROBB ST","m":"Kennedy","u":"L","o":"individual","sf":16710,"v":30400}},{"type":"Feature","geometry":{"type":"Point","coordinates":[-80.10939,40.46385]},"properties":{"p":"0154P00248000000","a":"ROBB ST","m":"Kennedy","u":"L","o":"individual","sf":15555,"v":30300}},{"type":"Feature","geometry":{"type":"Point","coordinates":[-80.11539,40.45294]},"properties":{"p":"0152A00269000000","a":"MOON RUN RD","m":"Robinson","u":"L","o":"corp","sf":18798,"v":26700}},{"type":"Feature","geometry":{"type":"Point","coordinates":[-80.11534,40.45189]},"properties":{"p":"0152A00311000000","a":"MCKEES ROCKS RD","m":"Robinson","u":"L","o":"individual","sf":3902,"v":400}},{"type":"Feature","geometry":{"type":"Point","coordinates":[-80.11538,40.45166]},"properties":{"p":"0152A00316000000","a":"MCKEES ROCKS RD","m":"Robinson","u":"L","o":"individual","sf":6459,"v":20100}},{"type":"Feature","geometry":{"type":"Point","coordinates":[-80.11578,40.45139]},"properties":{"p":"0152A00325000000","a":"MCKEES ROCKS RD","m":"Robinson","u":"L","o":"individual","sf":25635,"v":27300}},{"type":"Feature","geometry":{"type":"Point","coordinates":[-80.1152,40.45104]},"properties":{"p":"0152A00022000000","a":"2275 MCKEES ROCKS RD","m":"Robinson","u":"L","o":"corp","sf":15115,"v":26300}},{"type":"Feature","geometry":{"type":"Point","coordinates":[-80.11343,40.45251]},"properties":{"p":"0152A00171000000","a":"MOON RUN AVE","m":"Robinson","u":"L","o":"corp","sf":5162,"v":500}},{"type":"Feature","geometry":{"type":"Point","coordinates":[-80.11416,40.45218]},"properties":{"p":"0152A00183000000","a":"MCKEES ROCKS RD","m":"Robinson","u":"L","o":"corp","sf":12600,"v":26100}},{"type":"Feature","geometry":{"type":"Point","coordinates":[-80.11405,40.45236]},"properties":{"p":"0152A00189000000","a":"MCKEES ROCKS RD","m":"Robinson","u":"L","o":"corp","sf":6000,"v":19600}},{"type":"Feature","geometry":{"type":"Point","coordinates":[-80.1138,40.45276]},"properties":{"p":"0152A00197000000","a":"MCKEES ROCKS RD","m":"Robinson","u":"L","o":"corp","sf":3075,"v":300}},{"type":"Feature","geometry":{"type":"Point","coordinates":[-80.11367,40.45296]},"properties":{"p":"0152A00199000000","a":"MCKEES ROCKS RD","m":"Robinson","u":"L","o":"corp","sf":17766,"v":26600}},{"type":"Feature","geometry":{"type":"Point","coordinates":[-80.11479,40.45277]},"properties":{"p":"0152A00214000000","a":"HELEN ST","m":"Robinson","u":"L","o":"individual","sf":3600,"v":300}},{"type":"Feature","geometry":{"type":"Point","coordinates":[-80.11501,40.45252]},"properties":{"p":"0152A00224000000","a":"PORTMAN ST","m":"Robinson","u":"L","o":"individual","sf":7452,"v":21100}},{"type":"Feature","geometry":{"type":"Point","coordinates":[-80.11484,40.45248]},"properties":{"p":"0152A00225000000","a":"PORTMAN ST","m":"Robinson","u":"L","o":"individual","sf":3450,"v":300}},{"type":"Feature","geometry":{"type":"Point","coordinates":[-80.11445,40.45265]},"properties":{"p":"0152A00238000000","a":"MCKEES ROCKS RD","m":"Robinson","u":"L","o":"individual","sf":9746,"v":23600}},{"type":"Feature","geometry":{"type":"Point","coordinates":[-80.11352,40.45236]},"properties":{"p":"0152A00167000000","a":"MOON RUN AVE","m":"Robinson","u":"L","o":"corp","sf":9600,"v":23500}},{"type":"Feature","geometry":{"type":"Point","coordinates":[-80.11458,40.45179]},"properties":{"p":"0152A00059000000","a":"MCKEES ROCKS RD","m":"Robinson","u":"L","o":"corp","sf":7200,"v":20900}},{"type":"Feature","geometry":{"type":"Point","coordinates":[-80.11457,40.45134]},"properties":{"p":"0152A00082000000","a":"MOON RUN RD","m":"Robinson","u":"L","o":"corp","sf":4702,"v":400}},{"type":"Feature","geometry":{"type":"Point","coordinates":[-80.11362,40.45144]},"properties":{"p":"0152A00088000000","a":"OLD STEUBENVILLE PIKE","m":"Robinson","u":"L","o":"corp","sf":13335,"v":26200}},{"type":"Feature","geometry":{"type":"Point","coordinates":[-80.11385,40.45128]},"properties":{"p":"0152A00090000000","a":"MOON RUN RD","m":"Robinson","u":"L","o":"corp","sf":32,"v":100}},{"type":"Feature","geometry":{"type":"Point","coordinates":[-80.11336,40.45441]},"properties":{"p":"0153N00199000000","a":"HELEN ST","m":"Robinson","u":"L","o":"individual","sf":33180,"v":28000}},{"type":"Feature","geometry":{"type":"Point","coordinates":[-80.11585,40.46091]},"properties":{"p":"0206H00100000000","a":"AIKEN RD","m":"Robinson","u":"L","o":"corp","sf":428552,"v":0}},{"type":"Feature","geometry":{"type":"Point","coordinates":[-80.1194,40.4593]},"properties":{"p":"0206H00122000000","a":"SATURN DR","m":"Robinson","u":"L","o":"individual","sf":22500,"v":51200}},{"type":"Feature","geometry":{"type":"Point","coordinates":[-80.11776,40.45134]},"properties":{"p":"0205D00126000000","a":"K ROW","m":"Robinson","u":"L","o":"individual","sf":36082,"v":28200}},{"type":"Feature","geometry":{"type":"Point","coordinates":[-80.11665,40.45057]},"properties":{"p":"0205D00001000000","a":"OLD STEUBENVILLE PIKE","m":"Robinson","u":"L","o":"individual","sf":5482,"v":5900}},{"type":"Feature","geometry":{"type":"Point","coordinates":[-80.11686,40.4508]},"properties":{"p":"0205D00011000000","a":"MCKEES ROCKS RD","m":"Robinson","u":"L","o":"individual","sf":6970,"v":600}},{"type":"Feature","geometry":{"type":"Point","coordinates":[-80.11736,40.45077]},"properties":{"p":"0205D00021000000","a":"MCKEES ROCKS RD","m":"Robinson","u":"L","o":"individual","sf":4922,"v":400}},{"type":"Feature","geometry":{"type":"Point","coordinates":[-80.11762,40.45076]},"properties":{"p":"0205D00027000000","a":"MCKEES ROCKS RD","m":"Robinson","u":"L","o":"individual","sf":13896,"v":26200}},{"type":"Feature","geometry":{"type":"Point","coordinates":[-80.11617,40.45129]},"properties":{"p":"0205D00180000000","a":"2284 MCKEES ROCKS RD","m":"Robinson","u":"L","o":"individual","sf":21960,"v":26900}},{"type":"Feature","geometry":{"type":"Point","coordinates":[-80.11263,40.45784]},"properties":{"p":"0153E00071000000","a":"MOON RUN RD","m":"Robinson","u":"L","o":"individual","sf":35130,"v":3200}},{"type":"Feature","geometry":{"type":"Point","coordinates":[-80.11527,40.46015]},"properties":{"p":"0153E00319000000","a":"SALOMEA RD","m":"Robinson","u":"L","o":"individual","sf":43560,"v":5000}},{"type":"Feature","geometry":{"type":"Point","coordinates":[-80.11915,40.45]},"properties":{"p":"0205H00193000000","a":"MCKEES ROCKS RD","m":"Robinson","u":"L","o":"individual","sf":6580,"v":20200}},{"type":"Feature","geometry":{"type":"Point","coordinates":[-80.11363,40.4551]},"properties":{"p":"0153N00279000000","a":"HELEN ST","m":"Robinson","u":"L","o":"individual","sf":10912,"v":24900}},{"type":"Feature","geometry":{"type":"Point","coordinates":[-80.1145,40.45411]},"properties":{"p":"0153N00293000000","a":"MOON RUN RD","m":"Robinson","u":"L","o":"individual","sf":3854,"v":400}},{"type":"Feature","geometry":{"type":"Point","coordinates":[-80.11653,40.46984]},"properties":{"p":"0207H00148000000","a":"DEANA DR","m":"Robinson","u":"L","o":"corp","sf":230933,"v":0}},{"type":"Feature","geometry":{"type":"Point","coordinates":[-80.11404,40.46305]},"properties":{"p":"0154J00120000000","a":"AIKEN RD EXT","m":"Robinson","u":"L","o":"individual","sf":1664428,"v":122700}},{"type":"Feature","geometry":{"type":"Point","coordinates":[-80.11935,40.46924]},"properties":{"p":"0207H00100000000","a":"DEANA DR","m":"Robinson","u":"L","o":"corp","sf":18294,"v":0}},{"type":"Feature","geometry":{"type":"Point","coordinates":[-80.1177,40.46286]},"properties":{"p":"0153A00059000000","a":"AIKEN RD","m":"Robinson","u":"L","o":"corp","sf":428465,"v":0}},{"type":"Feature","geometry":{"type":"Point","coordinates":[-80.11307,40.45629]},"properties":{"p":"0153J00099000000","a":"AIKEN RD EXT","m":"Robinson","u":"L","o":"individual","sf":44867,"v":500}},{"type":"Feature","geometry":{"type":"Point","coordinates":[-80.11412,40.45159]},"properties":{"p":"0152A00079000000","a":"MOON RUN RD","m":"Robinson","u":"L","o":"corp","sf":24640,"v":27200}},{"type":"Feature","geometry":{"type":"Point","coordinates":[-80.10637,40.46414]},"properties":{"p":"0154R00019000000","a":"MAPLE LN","m":"Kennedy","u":"L","o":"individual","sf":132501,"v":41100}},{"type":"Feature","geometry":{"type":"Point","coordinates":[-80.10936,40.45081]},"properties":{"p":"0152F00027000000","a":"STEUBENVILLE PIKE","m":"Robinson","u":"L","o":"corp","sf":67082,"v":56300}},{"type":"Feature","geometry":{"type":"Point","coordinates":[-80.11383,40.466]},"properties":{"p":"0154J00096000000","a":"CLEVER RD","m":"Robinson","u":"L","o":"individual","sf":37469,"v":52800}},{"type":"Feature","geometry":{"type":"Point","coordinates":[-80.11788,40.45834]},"properties":{"p":"0206H00314000000","a":"AIKEN RD","m":"Robinson","u":"L","o":"individual","sf":27558,"v":26700}},{"type":"Feature","geometry":{"type":"Point","coordinates":[-80.11749,40.45038]},"properties":{"p":"0205H00241000000","a":"STEUBENVILLE PIKE","m":"Robinson","u":"L","o":"individual","sf":17009,"v":26500}},{"type":"Feature","geometry":{"type":"Point","coordinates":[-80.11291,40.45684]},"properties":{"p":"0153J00163000000","a":"AIKEN RD EXT","m":"Robinson","u":"L","o":"individual","sf":18695,"v":26600}},{"type":"Feature","geometry":{"type":"Point","coordinates":[-80.10297,40.46861]},"properties":{"p":"0154H00071000000","a":"CORTLAND DR W","m":"Kennedy","u":"L","o":"corp","sf":9939,"v":900}},{"type":"Feature","geometry":{"type":"Point","coordinates":[-80.10933,40.45392]},"properties":{"p":"0153P00263000000","a":"LORISH RD","m":"Kennedy","u":"L","o":"individual","sf":18871,"v":15800}},{"type":"Feature","geometry":{"type":"Point","coordinates":[-80.11103,40.46687]},"properties":{"p":"0154K00147000000","a":"CRABAPPLE DR","m":"Kennedy","u":"L","o":"individual","sf":5227,"v":500}},{"type":"Feature","geometry":{"type":"Point","coordinates":[-80.11949,40.46038]},"properties":{"p":"0206H00073000000","a":"AIKEN RD","m":"Robinson","u":"B","o":"individual","sf":15096,"v":19000}},{"type":"Feature","geometry":{"type":"Point","coordinates":[-80.11816,40.46043]},"properties":{"p":"0206D00001000000","a":"1007 BIALOWAS RD","m":"Robinson","u":"B","o":"corp","sf":24149,"v":31300}},{"type":"Feature","geometry":{"type":"Point","coordinates":[-80.1195,40.46986]},"properties":{"p":"0207H00101000000","a":"103 DEANA DR","m":"Robinson","u":"B","o":"corp","sf":18042,"v":5000}}]}