{"type":"FeatureCollection","features":[{"type":"Feature","geometry":{"type":"Point","coordinates":[-80.11149,40.67371]},"properties":{"p":"2371F00002000000","a":"KEYSTONE DR","m":"Marshall","u":"I","o":"corp","sf":16260,"v":7500}},{"type":"Feature","geometry":{"type":"Point","coordinates":[-80.1158,40.67362]},"properties":{"p":"2371E00010000000","a":"THORN HILL RD","m":"Marshall","u":"I","o":"corp","sf":11064,"v":25500}},{"type":"Feature","geometry":{"type":"Point","coordinates":[-80.10152,40.67203]},"properties":{"p":"2180K00004000000","a":"COMMONWEALTH DR","m":"Marshall","u":"C","o":"corp","sf":601999,"v":41500}},{"type":"Feature","geometry":{"type":"Point","coordinates":[-80.10615,40.67158]},"properties":{"p":"2371L00005000000","a":"THORN HILL RD","m":"Marshall","u":"C","o":"corp","sf":63162,"v":145300}},{"type":"Feature","geometry":{"type":"Point","coordinates":[-80.10294,40.67233]},"properties":{"p":"2371H00004000000","a":"COMMONWEALTH DR","m":"Marshall","u":"C","o":"corp","sf":11587,"v":5300}},{"type":"Feature","geometry":{"type":"Point","coordinates":[-80.11924,40.67264]},"properties":{"p":"2370H00008000000","a":"WOODLAND RD","m":"Marshall","u":"C","o":"corp","sf":197457,"v":300000}},{"type":"Feature","geometry":{"type":"Point","coordinates":[-80.11724,40.67239]},"properties":{"p":"2370H00009000000","a":"2085 WOODLAND RD","m":"Marshall","u":"C","o":"corp","sf":217103,"v":99900}},{"type":"Feature","geometry":{"type":"Point","coordinates":[-80.11639,40.67308]},"properties":{"p":"2370H00011000000","a":"WOODLAND RD","m":"Marshall","u":"C","o":"corp","sf":65340,"v":299900}},{"type":"Feature","geometry":{"type":"Point","coordinates":[-80.11903,40.67362]},"properties":{"p":"2370H00015000000","a":"THORN HILL RD","m":"Marshall","u":"C","o":"corp","sf":35937,"v":82700}},{"type":"Feature","geometry":{"type":"Point","coordinates":[-80.11758,40.67079]},"properties":{"p":"2370M00009000000","a":"NOEL CREST DR","m":"Marshall","u":"L","o":"corp","sf":244372,"v":60000}},{"type":"Feature","geometry":{"type":"Point","coordinates":[-80.1005,40.67294]},"properties":{"p":"2371H00001000000","a":"EMERYVILLE DR","m":"Marshall","u":"B","o":"corp","sf":65318,"v":19100}}]}