{"type":"FeatureCollection","features":[{"type":"Feature","geometry":{"type":"Point","coordinates":[-80.10401,40.65274]},"properties":{"p":"1997H00014000000","a":"GLOBAL VIEW DR","m":"Marshall","u":"C","o":"corp","sf":292013,"v":143600}},{"type":"Feature","geometry":{"type":"Point","coordinates":[-80.10325,40.65239]},"properties":{"p":"1997H00024000000","a":"GLOBAL VIEW DR","m":"Marshall","u":"C","o":"corp","sf":90417,"v":6200}},{"type":"Feature","geometry":{"type":"Point","coordinates":[-80.10812,40.66178]},"properties":{"p":"2180G00001000000","a":"KNOB RD","m":"Marshall","u":"C","o":"corp","sf":933316,"v":1487200}},{"type":"Feature","geometry":{"type":"Point","coordinates":[-80.10574,40.65496]},"properties":{"p":"1997C00002000000","a":"INNOVATION DR","m":"Marshall","u":"C","o":"corp","sf":375884,"v":352600}},{"type":"Feature","geometry":{"type":"Point","coordinates":[-80.10725,40.65531]},"properties":{"p":"1997C00012000000","a":"INNOVATION DR","m":"Marshall","u":"C","o":"corp","sf":177908,"v":261700}},{"type":"Feature","geometry":{"type":"Point","coordinates":[-80.10799,40.65837]},"properties":{"p":"2180R00033000000","a":"GLOBAL VIEW DR","m":"Marshall","u":"C","o":"corp","sf":2030,"v":100}},{"type":"Feature","geometry":{"type":"Point","coordinates":[-80.10571,40.65622]},"properties":{"p":"1997C00022000000","a":"INNOVATION DR","m":"Marshall","u":"C","o":"corp","sf":126224,"v":238000}},{"type":"Feature","geometry":{"type":"Point","coordinates":[-80.10691,40.65719]},"properties":{"p":"1997C00042000000","a":"GLOBAL VIEW DR","m":"Marshall","u":"C","o":"corp","sf":4945,"v":2300}},{"type":"Feature","geometry":{"type":"Point","coordinates":[-80.10752,40.65396]},"properties":{"p":"1997G00001000000","a":"INNOVATION DR","m":"Marshall","u":"C","o":"corp","sf":134435,"v":241700}},{"type":"Feature","geometry":{"type":"Point","coordinates":[-80.10672,40.65363]},"properties":{"p":"1997G00011000000","a":"INNOVATION DR","m":"Marshall","u":"C","o":"corp","sf":35201,"v":1000}},{"type":"Feature","geometry":{"type":"Point","coordinates":[-80.10553,40.65253]},"properties":{"p":"1997G00031000000","a":"GLOBAL VIEW DR","m":"Marshall","u":"C","o":"corp","sf":290994,"v":313600}},{"type":"Feature","geometry":{"type":"Point","coordinates":[-80.10011,40.65418]},"properties":{"p":"1998A00015000000","a":"GLOBAL VIEW DR","m":"Marshall","u":"C","o":"corp","sf":261077,"v":141500}},{"type":"Feature","geometry":{"type":"Point","coordinates":[-80.10405,40.66252]},"properties":{"p":"2180G00002000000","a":"KNOB RD","m":"Marshall","u":"C","o":"corp","sf":331056,"v":1520000}},{"type":"Feature","geometry":{"type":"Point","coordinates":[-80.10164,40.6625]},"properties":{"p":"2180H00002000000","a":"KNOB RD","m":"Marshall","u":"C","o":"corp","sf":463914,"v":750000}},{"type":"Feature","geometry":{"type":"Point","coordinates":[-80.10882,40.65472]},"properties":{"p":"2180K00010000000","a":"INNOVATION DR","m":"Marshall","u":"C","o":"corp","sf":1655441,"v":64400}},{"type":"Feature","geometry":{"type":"Point","coordinates":[-80.1058,40.6588]},"properties":{"p":"2180L00021000000","a":"GLOBAL VIEW DR","m":"Marshall","u":"C","o":"corp","sf":90600,"v":2100}},{"type":"Feature","geometry":{"type":"Point","coordinates":[-80.10755,40.65261]},"properties":{"p":"1997G00041000000","a":"GLOBAL VIEW DR","m":"Marshall","u":"C","o":"corp","sf":281049,"v":309000}},{"type":"Feature","geometry":{"type":"Point","coordinates":[-80.1014,40.65271]},"properties":{"p":"1997H00004000000","a":"GLOBAL VIEW DR","m":"Marshall","u":"C","o":"corp","sf":602740,"v":41500}},{"type":"Feature","geometry":{"type":"Point","coordinates":[-80.10268,40.66738]},"properties":{"p":"2371S00006000000","a":"COMMONWEALTH DR","m":"Marshall","u":"C","o":"corp","sf":18976,"v":8700}},{"type":"Feature","geometry":{"type":"Point","coordinates":[-80.11247,40.662]},"properties":{"p":"9923X82274000000","a":"KNOB RD","m":"Marshall","u":"C","o":"individual","sf":1250477,"v":675000}},{"type":"Feature","geometry":{"type":"Point","coordinates":[-80.10253,40.65716]},"properties":{"p":"2180S00005000000","a":"ERICSSON DR","m":"Marshall","u":"C","o":"corp","sf":68389,"v":157000}},{"type":"Feature","geometry":{"type":"Point","coordinates":[-80.1179,40.65069]},"properties":{"p":"1996M00003000000","a":"WARRENDALE BAYNE RD","m":"Marshall","u":"L","o":"corp","sf":81022,"v":45600}},{"type":"Feature","geometry":{"type":"Point","coordinates":[-80.11965,40.65081]},"properties":{"p":"1996M00006000000","a":"WARRENDALE BAYNE RD","m":"Marshall","u":"L","o":"corp","sf":43573,"v":52400}},{"type":"Feature","geometry":{"type":"Point","coordinates":[-80.11557,40.65385]},"properties":{"p":"1996S00125000000","a":"527 PLEASANT HILL RD","m":"Marshall","u":"L","o":"individual","sf":423512,"v":181100}},{"type":"Feature","geometry":{"type":"Point","coordinates":[-80.11856,40.65007]},"properties":{"p":"1996M00010000000","a":"MARKMAN PARK RD","m":"Marshall","u":"L","o":"individual","sf":8503,"v":800}},{"type":"Feature","geometry":{"type":"Point","coordinates":[-80.11862,40.65112]},"properties":{"p":"1996M00011000000","a":"WARRENDALE BAYNE RD","m":"Marshall","u":"L","o":"corp","sf":6412,"v":600}},{"type":"Feature","geometry":{"type":"Point","coordinates":[-80.11867,40.65213]},"properties":{"p":"1996M00012000000","a":"PLEASANT HILL RD","m":"Marshall","u":"L","o":"corp","sf":793,"v":100}},{"type":"Feature","geometry":{"type":"Point","coordinates":[-80.11852,40.65045]},"properties":{"p":"1996M00014000000","a":"MARKMAN PARK RD","m":"Marshall","u":"L","o":"corp","sf":113,"v":100}},{"type":"Feature","geometry":{"type":"Point","coordinates":[-80.11516,40.66044]},"properties":{"p":"2180J00001000000","a":"KNOB RD","m":"Marshall","u":"L","o":"individual","sf":363386,"v":68200}},{"type":"Feature","geometry":{"type":"Point","coordinates":[-80.11753,40.66947]},"properties":{"p":"2370M00012000000","a":"NOEL CREST DR","m":"Marshall","u":"L","o":"corp","sf":140699,"v":100000}},{"type":"Feature","geometry":{"type":"Point","coordinates":[-80.11996,40.65396]},"properties":{"p":"1996H00005000000","a":"PLEASANT HILL RD","m":"Marshall","u":"L","o":"corp","sf":720064,"v":69700}},{"type":"Feature","geometry":{"type":"Point","coordinates":[-80.118,40.65439]},"properties":{"p":"1996H00105000000","a":"531 PLEASANT HILL RD","m":"Marshall","u":"L","o":"individual","sf":231530,"v":99000}},{"type":"Feature","geometry":{"type":"Point","coordinates":[-80.11762,40.66583]},"properties":{"p":"2179D00002000000","a":"NOEL CREST DR","m":"Marshall","u":"L","o":"individual","sf":131551,"v":90000}}]}