{"type":"FeatureCollection","features":[{"type":"Feature","geometry":{"type":"Point","coordinates":[-80.10321,40.61252]},"properties":{"p":"1345M00331000300","a":"2591 WEXFORD BAYNE RD","m":"Franklin Park","u":"C","o":"individual","sf":19907,"v":9200}},{"type":"Feature","geometry":{"type":"Point","coordinates":[-80.10336,40.61348]},"properties":{"p":"1345H00054000100","a":"WEXFORD BAYNE RD","m":"Franklin Park","u":"C","o":"individual","sf":21867,"v":10100}},{"type":"Feature","geometry":{"type":"Point","coordinates":[-80.11244,40.61108]},"properties":{"p":"1345J00011000000","a":"1513 FOX CHASE DR","m":"Franklin Park","u":"L","o":"individual","sf":1481,"v":300}},{"type":"Feature","geometry":{"type":"Point","coordinates":[-80.10975,40.61052]},"properties":{"p":"1345P00144000000","a":"WEXFORD BAYNE RD","m":"Franklin Park","u":"L","o":"individual","sf":124277,"v":41600}},{"type":"Feature","geometry":{"type":"Point","coordinates":[-80.10353,40.62487]},"properties":{"p":"1496H00005000000","a":"STATE GAMELANDS RD","m":"Marshall","u":"L","o":"individual","sf":70132,"v":5000}},{"type":"Feature","geometry":{"type":"Point","coordinates":[-80.10342,40.62404]},"properties":{"p":"1496G00002000000","a":"GAME PRESERVE RD","m":"Marshall","u":"L","o":"corp","sf":314503,"v":79000}},{"type":"Feature","geometry":{"type":"Point","coordinates":[-80.10143,40.62405]},"properties":{"p":"1496H00003000000","a":"STATE GAMELANDS RD","m":"Marshall","u":"L","o":"corp","sf":284011,"v":62700}}]}