{"type":"FeatureCollection","features":[{"type":"Feature","geometry":{"type":"Point","coordinates":[-80.10507,40.30915]},"properties":{"p":"0670R00020000000","a":"SYLVANIA DR","m":"Upper St. Clair","u":"L","o":"corp","sf":12898,"v":2100}},{"type":"Feature","geometry":{"type":"Point","coordinates":[-80.10352,40.30997]},"properties":{"p":"0670S00060000000","a":"REDFERN DR","m":"Upper St. Clair","u":"L","o":"corp","sf":518429,"v":168000}},{"type":"Feature","geometry":{"type":"Point","coordinates":[-80.10315,40.30881]},"properties":{"p":"0670S00080000000","a":"SYLVANIA DR","m":"Upper St. Clair","u":"L","o":"corp","sf":311890,"v":109600}}]}