{"type":"FeatureCollection","features":[{"type":"Feature","geometry":{"type":"Point","coordinates":[-80.10825,40.32875]},"properties":{"p":"0480P00046000000","a":"1426 -1440 HASTINGS CRES","m":"South Fayette","u":"C","o":"corp","sf":8761,"v":46900}},{"type":"Feature","geometry":{"type":"Point","coordinates":[-80.11469,40.31662]},"properties":{"p":"0670A00025000000","a":"BOYCE  RD","m":"Upper St. Clair","u":"C","o":"individual","sf":81000,"v":24300}},{"type":"Feature","geometry":{"type":"Point","coordinates":[-80.11677,40.31641]},"properties":{"p":"0571N00190000000","a":"BOYCE RD","m":"Upper St. Clair","u":"C","o":"corp","sf":522720,"v":48900}},{"type":"Feature","geometry":{"type":"Point","coordinates":[-80.1065,40.32899]},"properties":{"p":"0480L00202000000","a":"SYCAMORE LN","m":"South Fayette","u":"L","o":"corp","sf":41604,"v":0}},{"type":"Feature","geometry":{"type":"Point","coordinates":[-80.10478,40.32906]},"properties":{"p":"0480L00204000000","a":"STATION HOUSE","m":"South Fayette","u":"L","o":"corp","sf":2100,"v":0}},{"type":"Feature","geometry":{"type":"Point","coordinates":[-80.10456,40.32936]},"properties":{"p":"0480L00206000000","a":"CRANFORD LN","m":"South Fayette","u":"L","o":"corp","sf":6240,"v":0}},{"type":"Feature","geometry":{"type":"Point","coordinates":[-80.11088,40.32642]},"properties":{"p":"0480P00066000000","a":"MAYVIEW RD","m":"South Fayette","u":"L","o":"corp","sf":553,"v":100}},{"type":"Feature","geometry":{"type":"Point","coordinates":[-80.1112,40.32745]},"properties":{"p":"0480P00068000000","a":"MAYVIEW RD","m":"South Fayette","u":"L","o":"corp","sf":10513,"v":1100}},{"type":"Feature","geometry":{"type":"Point","coordinates":[-80.11183,40.32875]},"properties":{"p":"0480P00070000000","a":"MAYVIEW RD","m":"South Fayette","u":"L","o":"corp","sf":5034,"v":500}},{"type":"Feature","geometry":{"type":"Point","coordinates":[-80.11092,40.32803]},"properties":{"p":"0480P00072000000","a":"REGAL ST","m":"South Fayette","u":"L","o":"corp","sf":32202,"v":0}},{"type":"Feature","geometry":{"type":"Point","coordinates":[-80.10833,40.32691]},"properties":{"p":"0480P00030000000","a":"HASTINGS PARK DR","m":"South Fayette","u":"L","o":"corp","sf":33048,"v":0}},{"type":"Feature","geometry":{"type":"Point","coordinates":[-80.10716,40.32866]},"properties":{"p":"0480R00004000000","a":"HASTINGS CRES","m":"South Fayette","u":"L","o":"corp","sf":4548,"v":0}},{"type":"Feature","geometry":{"type":"Point","coordinates":[-80.1057,40.32802]},"properties":{"p":"0480R00200000000","a":"HASTINGS CRES","m":"South Fayette","u":"L","o":"corp","sf":28298,"v":0}},{"type":"Feature","geometry":{"type":"Point","coordinates":[-80.10461,40.32774]},"properties":{"p":"0480R00202000000","a":"HASTINGS CRES","m":"South Fayette","u":"L","o":"corp","sf":3130,"v":0}},{"type":"Feature","geometry":{"type":"Point","coordinates":[-80.10529,40.32848]},"properties":{"p":"0480R00204000000","a":"CHARTIERS RUN","m":"South Fayette","u":"L","o":"corp","sf":6476,"v":0}},{"type":"Feature","geometry":{"type":"Point","coordinates":[-80.10449,40.32871]},"properties":{"p":"0480R00206000000","a":"GARDEN LNDG","m":"South Fayette","u":"L","o":"corp","sf":3613,"v":0}},{"type":"Feature","geometry":{"type":"Point","coordinates":[-80.10898,40.32871]},"properties":{"p":"0480P00048000000","a":"HASTINGS CRES","m":"South Fayette","u":"L","o":"corp","sf":66638,"v":0}},{"type":"Feature","geometry":{"type":"Point","coordinates":[-80.1118,40.32895]},"properties":{"p":"0480P00056000000","a":"MAYVIEW RD","m":"South Fayette","u":"L","o":"corp","sf":71965,"v":0}},{"type":"Feature","geometry":{"type":"Point","coordinates":[-80.11859,40.32321]},"properties":{"p":"0572H00034000000","a":"SHANAHAN WAY","m":"South Fayette","u":"L","o":"corp","sf":480550,"v":0}},{"type":"Feature","geometry":{"type":"Point","coordinates":[-80.10693,40.32807]},"properties":{"p":"0480R00415000000","a":"LYNK ALY","m":"South Fayette","u":"L","o":"corp","sf":1464,"v":0}},{"type":"Feature","geometry":{"type":"Point","coordinates":[-80.10672,40.32796]},"properties":{"p":"0480R00416000000","a":"GOODWIN ALY","m":"South Fayette","u":"L","o":"corp","sf":788,"v":0}},{"type":"Feature","geometry":{"type":"Point","coordinates":[-80.10711,40.3277]},"properties":{"p":"0480R00417000000","a":"WEAVERS ALY","m":"South Fayette","u":"L","o":"corp","sf":2348,"v":0}},{"type":"Feature","geometry":{"type":"Point","coordinates":[-80.10638,40.32768]},"properties":{"p":"0480R00418000000","a":"ALLAN ST","m":"South Fayette","u":"L","o":"corp","sf":20737,"v":0}},{"type":"Feature","geometry":{"type":"Point","coordinates":[-80.10592,40.32757]},"properties":{"p":"0480R00419000000","a":"WESTOVER WAY","m":"South Fayette","u":"L","o":"corp","sf":537,"v":0}},{"type":"Feature","geometry":{"type":"Point","coordinates":[-80.1061,40.32698]},"properties":{"p":"0480R00420000000","a":"HASTINGS PARK DR","m":"South Fayette","u":"L","o":"corp","sf":9537,"v":0}},{"type":"Feature","geometry":{"type":"Point","coordinates":[-80.10375,40.32737]},"properties":{"p":"0480R00429000000","a":"HASTINGS CRES","m":"South Fayette","u":"L","o":"corp","sf":39376,"v":0}},{"type":"Feature","geometry":{"type":"Point","coordinates":[-80.10737,40.32833]},"properties":{"p":"0480R00413000000","a":"HASTINGS CRES","m":"South Fayette","u":"L","o":"corp","sf":5294,"v":0}},{"type":"Feature","geometry":{"type":"Point","coordinates":[-80.10727,40.32815]},"properties":{"p":"0480R00414000000","a":"PRESTON WAY","m":"South Fayette","u":"L","o":"corp","sf":684,"v":0}},{"type":"Feature","geometry":{"type":"Point","coordinates":[-80.11482,40.32349]},"properties":{"p":"0571A00001000000","a":"MAYVIEW RD","m":"South Fayette","u":"L","o":"corp","sf":346911,"v":27200}},{"type":"Feature","geometry":{"type":"Point","coordinates":[-80.11682,40.31807]},"properties":{"p":"0572S00006000000","a":"MAYVIEW RD","m":"South Fayette","u":"L","o":"corp","sf":461736,"v":55400}},{"type":"Feature","geometry":{"type":"Point","coordinates":[-80.11013,40.31852]},"properties":{"p":"0571P00065000000","a":"MAPLE LN","m":"Upper St. Clair","u":"L","o":"corp","sf":47045,"v":50000}},{"type":"Feature","geometry":{"type":"Point","coordinates":[-80.11336,40.31888]},"properties":{"p":"0571N00040000000","a":"BOYCE RD","m":"Upper St. Clair","u":"L","o":"individual","sf":41160,"v":67000}},{"type":"Feature","geometry":{"type":"Point","coordinates":[-80.11228,40.31914]},"properties":{"p":"0571N00070000000","a":"BOYCE RD","m":"Upper St. Clair","u":"L","o":"corp","sf":26468,"v":89900}},{"type":"Feature","geometry":{"type":"Point","coordinates":[-80.1064,40.31456]},"properties":{"p":"0670C00040000000","a":"BOYCE RD","m":"Upper St. Clair","u":"L","o":"individual","sf":51836,"v":76400}},{"type":"Feature","geometry":{"type":"Point","coordinates":[-80.10931,40.31758]},"properties":{"p":"0571P00093000000","a":"BOYCE RD","m":"Upper St. Clair","u":"L","o":"corp","sf":10458,"v":1700}},{"type":"Feature","geometry":{"type":"Point","coordinates":[-80.10933,40.31715]},"properties":{"p":"0571P00180000000","a":"1200 BOYCE RD","m":"Upper St. Clair","u":"L","o":"corp","sf":65384,"v":30000}},{"type":"Feature","geometry":{"type":"Point","coordinates":[-80.10552,40.32911]},"properties":{"p":"0480L00200000000","a":"LONGMORE LN","m":"South Fayette","u":"L","o":"corp","sf":6524,"v":0}},{"type":"Feature","geometry":{"type":"Point","coordinates":[-80.11278,40.32973]},"properties":{"p":"0480J00006000000","a":"MAYVIEW RD","m":"South Fayette","u":"L","o":"corp","sf":79706,"v":300}},{"type":"Feature","geometry":{"type":"Point","coordinates":[-80.11086,40.32778]},"properties":{"p":"0480P00230000000","a":"4033 BENTON WAY","m":"South Fayette","u":"B","o":"corp","sf":1496,"v":100}},{"type":"Feature","geometry":{"type":"Point","coordinates":[-80.1109,40.3279]},"properties":{"p":"0480P00234000000","a":"4037 BENTON WAY","m":"South Fayette","u":"B","o":"corp","sf":1496,"v":100}},{"type":"Feature","geometry":{"type":"Point","coordinates":[-80.11092,40.32796]},"properties":{"p":"0480P00236000000","a":"4039 BENTON WAY","m":"South Fayette","u":"B","o":"corp","sf":1858,"v":100}},{"type":"Feature","geometry":{"type":"Point","coordinates":[-80.11099,40.32829]},"properties":{"p":"0480P00242000000","a":"4006 EVERETT WAY","m":"South Fayette","u":"B","o":"corp","sf":7071,"v":600}},{"type":"Feature","geometry":{"type":"Point","coordinates":[-80.11117,40.32814]},"properties":{"p":"0480P00246000000","a":"4002 EVERETT WAY","m":"South Fayette","u":"B","o":"corp","sf":9165,"v":700}},{"type":"Feature","geometry":{"type":"Point","coordinates":[-80.1111,40.32774]},"properties":{"p":"0480P00250000000","a":"BENTON WAY","m":"South Fayette","u":"B","o":"corp","sf":6913,"v":600}},{"type":"Feature","geometry":{"type":"Point","coordinates":[-80.11105,40.32748]},"properties":{"p":"0480P00252000000","a":"4022 BENTON WAY","m":"South Fayette","u":"B","o":"individual","sf":1959,"v":100}},{"type":"Feature","geometry":{"type":"Point","coordinates":[-80.11104,40.3274]},"properties":{"p":"0480P00254000000","a":"4020 BENTON WAY","m":"South Fayette","u":"B","o":"corp","sf":1673,"v":100}},{"type":"Feature","geometry":{"type":"Point","coordinates":[-80.11098,40.3272]},"properties":{"p":"0480P00260000000","a":"4014 BENTON WAY","m":"South Fayette","u":"B","o":"individual","sf":2676,"v":100}},{"type":"Feature","geometry":{"type":"Point","coordinates":[-80.1097,40.32771]},"properties":{"p":"0480P00138000000","a":"4024 WINDSFIELD WAY","m":"South Fayette","u":"B","o":"corp","sf":1188,"v":100}},{"type":"Feature","geometry":{"type":"Point","coordinates":[-80.10968,40.32765]},"properties":{"p":"0480P00140000000","a":"4022 WINDSFIELD WAY","m":"South Fayette","u":"B","o":"corp","sf":1188,"v":100}},{"type":"Feature","geometry":{"type":"Point","coordinates":[-80.10966,40.32759]},"properties":{"p":"0480P00142000000","a":"4020 WINDSFIELD WAY","m":"South Fayette","u":"B","o":"corp","sf":1475,"v":100}},{"type":"Feature","geometry":{"type":"Point","coordinates":[-80.11009,40.32688]},"properties":{"p":"0480P00206000000","a":"4002 COTTAGE WAY","m":"South Fayette","u":"B","o":"individual","sf":1878,"v":100}},{"type":"Feature","geometry":{"type":"Point","coordinates":[-80.11046,40.32681]},"properties":{"p":"0480P00208000000","a":"4003 BENTON WAY","m":"South Fayette","u":"B","o":"individual","sf":2190,"v":100}},{"type":"Feature","geometry":{"type":"Point","coordinates":[-80.11052,40.32697]},"properties":{"p":"0480P00212000000","a":"4007 BENTON WAY","m":"South Fayette","u":"B","o":"individual","sf":1860,"v":100}},{"type":"Feature","geometry":{"type":"Point","coordinates":[-80.11055,40.32705]},"properties":{"p":"0480P00214000000","a":"4009 BENTON WAY","m":"South Fayette","u":"B","o":"individual","sf":1861,"v":100}},{"type":"Feature","geometry":{"type":"Point","coordinates":[-80.11059,40.32714]},"properties":{"p":"0480P00216000000","a":"4011 BENTON WAY","m":"South Fayette","u":"B","o":"corp","sf":2343,"v":100}},{"type":"Feature","geometry":{"type":"Point","coordinates":[-80.11063,40.32723]},"properties":{"p":"0480P00218000000","a":"4015 BENTON WAY","m":"South Fayette","u":"B","o":"corp","sf":2388,"v":100}},{"type":"Feature","geometry":{"type":"Point","coordinates":[-80.11067,40.32731]},"properties":{"p":"0480P00220000000","a":"4017 BENTON WAY","m":"South Fayette","u":"B","o":"corp","sf":1897,"v":100}},{"type":"Feature","geometry":{"type":"Point","coordinates":[-80.1107,40.32739]},"properties":{"p":"0480P00222000000","a":"4019 BENTON WAY","m":"South Fayette","u":"B","o":"corp","sf":1860,"v":100}},{"type":"Feature","geometry":{"type":"Point","coordinates":[-80.11073,40.32747]},"properties":{"p":"0480P00224000000","a":"4021 BENTON WAY","m":"South Fayette","u":"B","o":"corp","sf":1860,"v":100}},{"type":"Feature","geometry":{"type":"Point","coordinates":[-80.11076,40.32756]},"properties":{"p":"0480P00226000000","a":"4023 BENTON WAY","m":"South Fayette","u":"B","o":"corp","sf":2495,"v":100}},{"type":"Feature","geometry":{"type":"Point","coordinates":[-80.11083,40.32771]},"properties":{"p":"0480P00228000000","a":"4031 BENTON WAY","m":"South Fayette","u":"B","o":"corp","sf":2193,"v":100}},{"type":"Feature","geometry":{"type":"Point","coordinates":[-80.11263,40.32934]},"properties":{"p":"0480J00010000000","a":"MAYVIEW RD","m":"South Fayette","u":"B","o":"corp","sf":4249,"v":400}},{"type":"Feature","geometry":{"type":"Point","coordinates":[-80.11035,40.32826]},"properties":{"p":"0480P00110000000","a":"4049 WINDSFIELD WAY","m":"South Fayette","u":"B","o":"individual","sf":6456,"v":500}},{"type":"Feature","geometry":{"type":"Point","coordinates":[-80.11058,40.32835]},"properties":{"p":"0480P00114000000","a":"4051 REGAL ST","m":"South Fayette","u":"B","o":"corp","sf":6136,"v":500}},{"type":"Feature","geometry":{"type":"Point","coordinates":[-80.11059,40.32817]},"properties":{"p":"0480P00116000000","a":"4044 LEVI LN","m":"South Fayette","u":"B","o":"corp","sf":1476,"v":100}},{"type":"Feature","geometry":{"type":"Point","coordinates":[-80.11057,40.32811]},"properties":{"p":"0480P00118000000","a":"4042 LEVI LN","m":"South Fayette","u":"B","o":"corp","sf":1188,"v":100}},{"type":"Feature","geometry":{"type":"Point","coordinates":[-80.11038,40.32764]},"properties":{"p":"0480P00182000000","a":"4026 COTTAGE WAY","m":"South Fayette","u":"B","o":"individual","sf":1385,"v":100}},{"type":"Feature","geometry":{"type":"Point","coordinates":[-80.11036,40.32758]},"properties":{"p":"0480P00184000000","a":"4024 COTTAGE WAY","m":"South Fayette","u":"B","o":"individual","sf":1280,"v":100}},{"type":"Feature","geometry":{"type":"Point","coordinates":[-80.11034,40.32753]},"properties":{"p":"0480P00186000000","a":"4022 COTTAGE WAY","m":"South Fayette","u":"B","o":"corp","sf":1280,"v":100}},{"type":"Feature","geometry":{"type":"Point","coordinates":[-80.11029,40.3274]},"properties":{"p":"0480P00190000000","a":"4018 COTTAGE WAY","m":"South Fayette","u":"B","o":"corp","sf":1719,"v":100}},{"type":"Feature","geometry":{"type":"Point","coordinates":[-80.11026,40.32733]},"properties":{"p":"0480P00192000000","a":"4016 COTTAGE WAY","m":"South Fayette","u":"B","o":"corp","sf":1312,"v":100}},{"type":"Feature","geometry":{"type":"Point","coordinates":[-80.11055,40.32805]},"properties":{"p":"0480P00120000000","a":"4040 LEVI LN","m":"South Fayette","u":"B","o":"corp","sf":1188,"v":100}},{"type":"Feature","geometry":{"type":"Point","coordinates":[-80.11053,40.32799]},"properties":{"p":"0480P00122000000","a":"4038 LEVI LN","m":"South Fayette","u":"B","o":"corp","sf":1188,"v":100}},{"type":"Feature","geometry":{"type":"Point","coordinates":[-80.10971,40.32784]},"properties":{"p":"0480P00136000000","a":"4026 WINDSFIELD WAY","m":"South Fayette","u":"B","o":"corp","sf":2213,"v":100}},{"type":"Feature","geometry":{"type":"Point","coordinates":[-80.11023,40.32727]},"properties":{"p":"0480P00194000000","a":"4014 COTTAGE WAY","m":"South Fayette","u":"B","o":"corp","sf":1248,"v":100}},{"type":"Feature","geometry":{"type":"Point","coordinates":[-80.11021,40.32721]},"properties":{"p":"0480P00196000000","a":"4012 COTTAGE","m":"South Fayette","u":"B","o":"individual","sf":1530,"v":100}},{"type":"Feature","geometry":{"type":"Point","coordinates":[-80.11016,40.32707]},"properties":{"p":"0480P00200000000","a":"4008 COTTAGE WAY","m":"South Fayette","u":"B","o":"individual","sf":1232,"v":100}},{"type":"Feature","geometry":{"type":"Point","coordinates":[-80.11014,40.32701]},"properties":{"p":"0480P00202000000","a":"4006 COTTAGE WAY","m":"South Fayette","u":"B","o":"individual","sf":1232,"v":100}},{"type":"Feature","geometry":{"type":"Point","coordinates":[-80.11011,40.32696]},"properties":{"p":"0480P00204000000","a":"4004 COTTAGE WAY","m":"South Fayette","u":"B","o":"individual","sf":1232,"v":100}},{"type":"Feature","geometry":{"type":"Point","coordinates":[-80.1063,40.32877]},"properties":{"p":"0480L00132000000","a":"2004 ASHTON ROW","m":"South Fayette","u":"B","o":"individual","sf":11346,"v":700}},{"type":"Feature","geometry":{"type":"Point","coordinates":[-80.11095,40.32713]},"properties":{"p":"0480P00262000000","a":"4012 BENTON WAY","m":"South Fayette","u":"B","o":"individual","sf":2272,"v":100}},{"type":"Feature","geometry":{"type":"Point","coordinates":[-80.11092,40.32705]},"properties":{"p":"0480P00264000000","a":"4010 BENTON WAY","m":"South Fayette","u":"B","o":"individual","sf":2898,"v":200}},{"type":"Feature","geometry":{"type":"Point","coordinates":[-80.11086,40.32689]},"properties":{"p":"0480P00268000000","a":"4006 BENTON WAY","m":"South Fayette","u":"B","o":"individual","sf":2493,"v":100}},{"type":"Feature","geometry":{"type":"Point","coordinates":[-80.1108,40.32674]},"properties":{"p":"0480P00270000000","a":"4004 BENTON WAY","m":"South Fayette","u":"B","o":"individual","sf":2485,"v":100}},{"type":"Feature","geometry":{"type":"Point","coordinates":[-80.10979,40.3281]},"properties":{"p":"0480P00098000000","a":"4037 WINDSFIELD WAY","m":"South Fayette","u":"B","o":"corp","sf":4214,"v":400}},{"type":"Feature","geometry":{"type":"Point","coordinates":[-80.11015,40.32819]},"properties":{"p":"0480P00106000000","a":"4045 WINDSFIELD WAY","m":"South Fayette","u":"B","o":"corp","sf":4003,"v":400}},{"type":"Feature","geometry":{"type":"Point","coordinates":[-80.112,40.32463]},"properties":{"p":"0571A00010000000","a":"MAYVIEW RD","m":"South Fayette","u":"B","o":"corp","sf":269289,"v":13000}},{"type":"Feature","geometry":{"type":"Point","coordinates":[-80.10282,40.312]},"properties":{"p":"0670H00076000000","a":"1420 HOLLOW TREE DR","m":"Upper St. Clair","u":"B","o":"corp","sf":19466,"v":20900}},{"type":"Feature","geometry":{"type":"Point","coordinates":[-80.10524,40.3127]},"properties":{"p":"0670G00188000000","a":"1291 REDFERN DR","m":"Upper St. Clair","u":"B","o":"individual","sf":26620,"v":18400}},{"type":"Feature","geometry":{"type":"Point","coordinates":[-80.1105,40.32793]},"properties":{"p":"0480P00124000000","a":"4036 LEVI LN","m":"South Fayette","u":"B","o":"corp","sf":1799,"v":100}},{"type":"Feature","geometry":{"type":"Point","coordinates":[-80.11049,40.32689]},"properties":{"p":"0480P00210000000","a":"4005 BENTON WAY","m":"South Fayette","u":"B","o":"corp","sf":1860,"v":100}},{"type":"Feature","geometry":{"type":"Point","coordinates":[-80.11089,40.32697]},"properties":{"p":"0480P00266000000","a":"4008 BENTON WAY","m":"South Fayette","u":"B","o":"individual","sf":3012,"v":300}},{"type":"Feature","geometry":{"type":"Point","coordinates":[-80.11088,40.32784]},"properties":{"p":"0480P00232000000","a":"4035 BENTON WAY","m":"South Fayette","u":"B","o":"corp","sf":1496,"v":100}},{"type":"Feature","geometry":{"type":"Point","coordinates":[-80.10998,40.32814]},"properties":{"p":"0480P00102000000","a":"4041 WINDSFIELD WAY","m":"South Fayette","u":"B","o":"corp","sf":3452,"v":300}},{"type":"Feature","geometry":{"type":"Point","coordinates":[-80.11018,40.32714]},"properties":{"p":"0480P00198000000","a":"4010 COTTAGE WAY","m":"South Fayette","u":"B","o":"individual","sf":1530,"v":100}}]}