{"type":"FeatureCollection","features":[{"type":"Feature","geometry":{"type":"Point","coordinates":[-80.0836,40.42136]},"properties":{"p":"0067E00250000000","a":"BELLS RUN RD","m":"28th Ward - PITTSBURGH","u":"I","o":"individual","sf":302306,"v":25900}},{"type":"Feature","geometry":{"type":"Point","coordinates":[-80.08151,40.42057]},"properties":{"p":"0067E00300000000","a":"BELLS RUN RD","m":"28th Ward - PITTSBURGH","u":"I","o":"individual","sf":12240,"v":3700}},{"type":"Feature","geometry":{"type":"Point","coordinates":[-80.08369,40.41238]},"properties":{"p":"0103D00060000000","a":"VINE ST","m":"Carnegie","u":"I","o":"corp","sf":3827,"v":1200}},{"type":"Feature","geometry":{"type":"Point","coordinates":[-80.08384,40.41238]},"properties":{"p":"0103D00058000000","a":"400 ARCH ST","m":"Carnegie","u":"I","o":"corp","sf":3820,"v":1200}},{"type":"Feature","geometry":{"type":"Point","coordinates":[-80.0825,40.41663]},"properties":{"p":"0067J00201000000","a":"ARCH ST","m":"Rosslyn Farms","u":"I","o":"corp","sf":9932,"v":1400}},{"type":"Feature","geometry":{"type":"Point","coordinates":[-80.08016,40.42145]},"properties":{"p":"0067A00010000000","a":"IDLEWOOD RD","m":"28th Ward - PITTSBURGH","u":"C","o":"corp","sf":60766,"v":4200}},{"type":"Feature","geometry":{"type":"Point","coordinates":[-80.08177,40.41447]},"properties":{"p":"0067N00104000000","a":"BELL AVE","m":"Carnegie","u":"C","o":"corp","sf":7500,"v":5200}},{"type":"Feature","geometry":{"type":"Point","coordinates":[-80.08162,40.41439]},"properties":{"p":"0067N00110000000","a":"BELL AVE","m":"Carnegie","u":"C","o":"corp","sf":2500,"v":1700}},{"type":"Feature","geometry":{"type":"Point","coordinates":[-80.0811,40.41378]},"properties":{"p":"0067N00112000000","a":"NEAR ARCH ST","m":"Carnegie","u":"C","o":"corp","sf":24892,"v":7500}},{"type":"Feature","geometry":{"type":"Point","coordinates":[-80.08247,40.41176]},"properties":{"p":"0066A00231000000","a":"427 JANE ST","m":"Carnegie","u":"C","o":"individual","sf":3668,"v":12800}},{"type":"Feature","geometry":{"type":"Point","coordinates":[-80.08233,40.41462]},"properties":{"p":"0067N00082000000","a":"ARCH ST","m":"Carnegie","u":"C","o":"corp","sf":4789,"v":1400}},{"type":"Feature","geometry":{"type":"Point","coordinates":[-80.08243,40.41487]},"properties":{"p":"0067N00084000000","a":"BELL AVE","m":"Carnegie","u":"C","o":"corp","sf":8324,"v":5700}},{"type":"Feature","geometry":{"type":"Point","coordinates":[-80.08234,40.41481]},"properties":{"p":"0067N00090000000","a":"BELL AVE","m":"Carnegie","u":"C","o":"corp","sf":2500,"v":1700}},{"type":"Feature","geometry":{"type":"Point","coordinates":[-80.08227,40.41477]},"properties":{"p":"0067N00092000000","a":"BELL AVE","m":"Carnegie","u":"C","o":"corp","sf":2500,"v":1700}},{"type":"Feature","geometry":{"type":"Point","coordinates":[-80.08216,40.41471]},"properties":{"p":"0067N00094000000","a":"BELL AVE","m":"Carnegie","u":"C","o":"corp","sf":5000,"v":3500}},{"type":"Feature","geometry":{"type":"Point","coordinates":[-80.08198,40.4146]},"properties":{"p":"0067N00098000000","a":"BELL AVE","m":"Carnegie","u":"C","o":"corp","sf":7500,"v":5200}},{"type":"Feature","geometry":{"type":"Point","coordinates":[-80.08856,40.41067]},"properties":{"p":"0103G00168000000","a":"MORROW AVE","m":"Carnegie","u":"C","o":"individual","sf":2754,"v":19100}},{"type":"Feature","geometry":{"type":"Point","coordinates":[-80.08864,40.41052]},"properties":{"p":"0103G00168000100","a":"MORROW AVE","m":"Carnegie","u":"C","o":"individual","sf":1742,"v":500}},{"type":"Feature","geometry":{"type":"Point","coordinates":[-80.08315,40.41578]},"properties":{"p":"0104S00410000000","a":null,"m":"Carnegie","u":"C","o":"corp","sf":18034,"v":7200}},{"type":"Feature","geometry":{"type":"Point","coordinates":[-80.09421,40.41857]},"properties":{"p":"0104K00100000000","a":"N BELL AVE","m":"Carnegie","u":"C","o":"corp","sf":622167,"v":74300}},{"type":"Feature","geometry":{"type":"Point","coordinates":[-80.085,40.42705]},"properties":{"p":"0105M00020000000","a":"EWING RD","m":"Crafton","u":"C","o":"corp","sf":100319,"v":256800}},{"type":"Feature","geometry":{"type":"Point","coordinates":[-80.08436,40.42807]},"properties":{"p":"0105M00181000000","a":"LINCOLN AVE","m":"Crafton","u":"C","o":"corp","sf":8000,"v":2400}},{"type":"Feature","geometry":{"type":"Point","coordinates":[-80.08834,40.41062]},"properties":{"p":"0103G00170000100","a":"MORROW AVE","m":"Carnegie","u":"C","o":"individual","sf":958,"v":300}},{"type":"Feature","geometry":{"type":"Point","coordinates":[-80.08457,40.41624]},"properties":{"p":"0104S00005000000","a":"ROSSLYN RD","m":"Carnegie","u":"C","o":"individual","sf":4423,"v":8900}},{"type":"Feature","geometry":{"type":"Point","coordinates":[-80.08941,40.41749]},"properties":{"p":"0104L00265000000","a":"N BELL AVE","m":"Carnegie","u":"C","o":"corp","sf":13054,"v":4700}},{"type":"Feature","geometry":{"type":"Point","coordinates":[-80.0843,40.41304]},"properties":{"p":"0103D00140000000","a":"ARCH ST","m":"Carnegie","u":"C","o":"individual","sf":1840,"v":2800}},{"type":"Feature","geometry":{"type":"Point","coordinates":[-80.08802,40.41578]},"properties":{"p":"0104R00250000000","a":"WATSON ST","m":"Carnegie","u":"C","o":"corp","sf":65083,"v":13400}},{"type":"Feature","geometry":{"type":"Point","coordinates":[-80.08427,40.41309]},"properties":{"p":"0103D00141000000","a":"ARCH ST","m":"Carnegie","u":"C","o":"individual","sf":1840,"v":2800}},{"type":"Feature","geometry":{"type":"Point","coordinates":[-80.08421,40.41316]},"properties":{"p":"0103D00143000000","a":"ARCH ST","m":"Carnegie","u":"C","o":"individual","sf":3800,"v":5700}},{"type":"Feature","geometry":{"type":"Point","coordinates":[-80.08415,40.41326]},"properties":{"p":"0103D00145000000","a":"ARCH ST","m":"Carnegie","u":"C","o":"individual","sf":3700,"v":5600}},{"type":"Feature","geometry":{"type":"Point","coordinates":[-80.08384,40.41374]},"properties":{"p":"0103D00156000000","a":"605 ARCH ST","m":"Carnegie","u":"C","o":"corp","sf":3809,"v":5700}},{"type":"Feature","geometry":{"type":"Point","coordinates":[-80.08933,40.41828]},"properties":{"p":"0104L00075000000","a":"CARNEGIE OFFICE PARK DR","m":"Carnegie","u":"C","o":"corp","sf":1819,"v":3100}},{"type":"Feature","geometry":{"type":"Point","coordinates":[-80.09044,40.41761]},"properties":{"p":"0104L00246000000","a":"N BELL AVE","m":"Carnegie","u":"C","o":"corp","sf":50164,"v":42300}},{"type":"Feature","geometry":{"type":"Point","coordinates":[-80.08458,40.41192]},"properties":{"p":"0103D00100000000","a":"CHESTNUT ST","m":"Carnegie","u":"C","o":"corp","sf":2063,"v":600}},{"type":"Feature","geometry":{"type":"Point","coordinates":[-80.0849,40.41177]},"properties":{"p":"0103D00102000000","a":"CHESTNUT ST","m":"Carnegie","u":"C","o":"corp","sf":3434,"v":5200}},{"type":"Feature","geometry":{"type":"Point","coordinates":[-80.085,40.41182]},"properties":{"p":"0103D00106000000","a":"CHESTNUT ST","m":"Carnegie","u":"C","o":"corp","sf":3096,"v":4600}},{"type":"Feature","geometry":{"type":"Point","coordinates":[-80.08482,40.41202]},"properties":{"p":"0103D00108000000","a":"CHESTNUT ST","m":"Carnegie","u":"C","o":"corp","sf":1710,"v":500}},{"type":"Feature","geometry":{"type":"Point","coordinates":[-80.0845,40.41034]},"properties":{"p":"0103H00211000000","a":"JANE ST","m":"Carnegie","u":"C","o":"corp","sf":9976,"v":7000}},{"type":"Feature","geometry":{"type":"Point","coordinates":[-80.09771,40.41072]},"properties":{"p":"0103E00075000000","a":"DICK ST","m":"Carnegie","u":"C","o":"individual","sf":43560,"v":13100}},{"type":"Feature","geometry":{"type":"Point","coordinates":[-80.09311,40.41613]},"properties":{"p":"0104P00092000000","a":"REAMER AVE","m":"Carnegie","u":"C","o":"corp","sf":53927,"v":34400}},{"type":"Feature","geometry":{"type":"Point","coordinates":[-80.08351,40.4127]},"properties":{"p":"0103D00044000000","a":"490 ARCH ST","m":"Carnegie","u":"C","o":"individual","sf":33076,"v":64600}},{"type":"Feature","geometry":{"type":"Point","coordinates":[-80.08215,40.41631]},"properties":{"p":"0067J00090000100","a":"ARCH ST","m":"Rosslyn Farms","u":"C","o":"corp","sf":2439,"v":300}},{"type":"Feature","geometry":{"type":"Point","coordinates":[-80.08189,40.41662]},"properties":{"p":"0067J00150000100","a":"PVT RD","m":"Rosslyn Farms","u":"C","o":"corp","sf":6665,"v":3300}},{"type":"Feature","geometry":{"type":"Point","coordinates":[-80.09674,40.41946]},"properties":{"p":"0104E00200000000","a":"ROSSLYN RD","m":"Rosslyn Farms","u":"C","o":"corp","sf":1034768,"v":94800}},{"type":"Feature","geometry":{"type":"Point","coordinates":[-80.08713,40.4294]},"properties":{"p":"0105D00150000000","a":"HAMILTON RD","m":"Thornburg","u":"C","o":"corp","sf":391605,"v":43900}},{"type":"Feature","geometry":{"type":"Point","coordinates":[-80.09986,40.41963]},"properties":{"p":"0149H00274000000","a":"CAMPBELLS RUN RD","m":"Robinson","u":"C","o":"corp","sf":481991,"v":32100}},{"type":"Feature","geometry":{"type":"Point","coordinates":[-80.08391,40.41364]},"properties":{"p":"0103D00154000000","a":"605 ARCH ST","m":"Carnegie","u":"C","o":"corp","sf":3936,"v":5900}},{"type":"Feature","geometry":{"type":"Point","coordinates":[-80.08167,40.41767]},"properties":{"p":"0067J00190000000","a":"ARCH ST","m":"Rosslyn Farms","u":"C","o":"corp","sf":10228,"v":1400}},{"type":"Feature","geometry":{"type":"Point","coordinates":[-80.08262,40.41082]},"properties":{"p":"0066E00028000000","a":"HAYS ST","m":"Carnegie","u":"C","o":"corp","sf":3900,"v":13700}},{"type":"Feature","geometry":{"type":"Point","coordinates":[-80.08489,40.41184]},"properties":{"p":"0103D00104000000","a":"CHESTNUT ST","m":"Carnegie","u":"C","o":"corp","sf":3075,"v":4600}},{"type":"Feature","geometry":{"type":"Point","coordinates":[-80.08884,40.41048]},"properties":{"p":"0103G00166000100","a":"MORROW AVE","m":"Carnegie","u":"C","o":"individual","sf":1742,"v":500}},{"type":"Feature","geometry":{"type":"Point","coordinates":[-80.08619,40.41594]},"properties":{"p":"0104S00120000000","a":"N BELL AVE","m":"Carnegie","u":"C","o":"corp","sf":42010,"v":17100}},{"type":"Feature","geometry":{"type":"Point","coordinates":[-80.08425,40.42309]},"properties":{"p":"0104D00020000000","a":"CHARTIERS AVE","m":"28th Ward - PITTSBURGH","u":"L","o":"individual","sf":231304,"v":36500}},{"type":"Feature","geometry":{"type":"Point","coordinates":[-80.08069,40.41169]},"properties":{"p":"0066A00280000000","a":"E MAIN ST","m":"Carnegie","u":"L","o":"individual","sf":2729,"v":20100}},{"type":"Feature","geometry":{"type":"Point","coordinates":[-80.08131,40.41167]},"properties":{"p":"0066A00248000000","a":"BROWN WAY","m":"Carnegie","u":"L","o":"individual","sf":1775,"v":700}},{"type":"Feature","geometry":{"type":"Point","coordinates":[-80.08104,40.41177]},"properties":{"p":"0066A00254000000","a":"BROWN WAY","m":"Carnegie","u":"L","o":"corp","sf":4988,"v":26000}},{"type":"Feature","geometry":{"type":"Point","coordinates":[-80.08086,40.41188]},"properties":{"p":"0066A00260000000","a":"JANE ST","m":"Carnegie","u":"L","o":"individual","sf":640,"v":300}},{"type":"Feature","geometry":{"type":"Point","coordinates":[-80.08079,40.41194]},"properties":{"p":"0066A00262000000","a":"BROWN WAY","m":"Carnegie","u":"L","o":"individual","sf":827,"v":400}},{"type":"Feature","geometry":{"type":"Point","coordinates":[-80.08283,40.4108]},"properties":{"p":"0066E00030000000","a":"404 -406 JANE ST","m":"Carnegie","u":"L","o":"individual","sf":400,"v":1000}},{"type":"Feature","geometry":{"type":"Point","coordinates":[-80.09279,40.4138]},"properties":{"p":"0103B00028000000","a":"REAMER AVE","m":"Carnegie","u":"L","o":"individual","sf":9370,"v":30400}},{"type":"Feature","geometry":{"type":"Point","coordinates":[-80.09272,40.41367]},"properties":{"p":"0103B00030000000","a":"REAMER AVE","m":"Carnegie","u":"L","o":"individual","sf":9350,"v":30400}},{"type":"Feature","geometry":{"type":"Point","coordinates":[-80.09265,40.41354]},"properties":{"p":"0103B00032000000","a":"REAMER AVE","m":"Carnegie","u":"L","o":"individual","sf":9370,"v":30400}},{"type":"Feature","geometry":{"type":"Point","coordinates":[-80.09255,40.41337]},"properties":{"p":"0103B00034000000","a":"REAMER AVE","m":"Carnegie","u":"L","o":"corp","sf":18740,"v":31200}},{"type":"Feature","geometry":{"type":"Point","coordinates":[-80.08962,40.41004]},"properties":{"p":"0103G00114000000","a":"COURT ST","m":"Carnegie","u":"L","o":"corp","sf":5913,"v":2000}},{"type":"Feature","geometry":{"type":"Point","coordinates":[-80.09031,40.41532]},"properties":{"p":"0104R00162000000","a":"WATSON ST","m":"Carnegie","u":"L","o":"individual","sf":1170,"v":500}},{"type":"Feature","geometry":{"type":"Point","coordinates":[-80.09011,40.4154]},"properties":{"p":"0104R00163000000","a":"WATSON ST","m":"Carnegie","u":"L","o":"individual","sf":1761,"v":700}},{"type":"Feature","geometry":{"type":"Point","coordinates":[-80.08886,40.41052]},"properties":{"p":"0103G00166000000","a":"MORROW AVE","m":"Carnegie","u":"L","o":"individual","sf":2828,"v":1100}},{"type":"Feature","geometry":{"type":"Point","coordinates":[-80.08317,40.41361]},"properties":{"p":"0103D00013000000","a":"608 ARCH ST","m":"Carnegie","u":"L","o":"corp","sf":2280,"v":800}},{"type":"Feature","geometry":{"type":"Point","coordinates":[-80.08315,40.41342]},"properties":{"p":"0103D00018000000","a":"SYCAMORE ST","m":"Carnegie","u":"L","o":"corp","sf":4800,"v":1600}},{"type":"Feature","geometry":{"type":"Point","coordinates":[-80.0835,40.41317]},"properties":{"p":"0103D00024000000","a":"33 SYCAMORE ST","m":"Carnegie","u":"L","o":"individual","sf":4800,"v":11000}},{"type":"Feature","geometry":{"type":"Point","coordinates":[-80.08338,40.4131]},"properties":{"p":"0103D00030000000","a":"25 SYCAMORE ST","m":"Carnegie","u":"L","o":"individual","sf":4800,"v":11000}},{"type":"Feature","geometry":{"type":"Point","coordinates":[-80.09312,40.41288]},"properties":{"p":"0103B00088000000","a":"HANDY ST","m":"Carnegie","u":"L","o":"individual","sf":35450,"v":3400}},{"type":"Feature","geometry":{"type":"Point","coordinates":[-80.09315,40.4134]},"properties":{"p":"0103B00091000000","a":"HANDY ST","m":"Carnegie","u":"L","o":"individual","sf":4608,"v":1600}},{"type":"Feature","geometry":{"type":"Point","coordinates":[-80.09325,40.4135]},"properties":{"p":"0103B00092000000","a":"HANDY ST","m":"Carnegie","u":"L","o":"individual","sf":1313,"v":500}},{"type":"Feature","geometry":{"type":"Point","coordinates":[-80.09334,40.41369]},"properties":{"p":"0103B00094000000","a":"HANDY ST","m":"Carnegie","u":"L","o":"individual","sf":5754,"v":1900}},{"type":"Feature","geometry":{"type":"Point","coordinates":[-80.09298,40.41229]},"properties":{"p":"0103B00085000000","a":"HANDY ST","m":"Carnegie","u":"L","o":"corp","sf":33060,"v":25500}},{"type":"Feature","geometry":{"type":"Point","coordinates":[-80.08913,40.41218]},"properties":{"p":"0103C00286000000","a":"324 ALICE STREET EXT","m":"Carnegie","u":"L","o":"individual","sf":3750,"v":1400}},{"type":"Feature","geometry":{"type":"Point","coordinates":[-80.08878,40.41258]},"properties":{"p":"0103C00290000000","a":"316 GRANT AVE","m":"Carnegie","u":"L","o":"individual","sf":5332,"v":2000}},{"type":"Feature","geometry":{"type":"Point","coordinates":[-80.08425,40.42821]},"properties":{"p":"0105M00185000000","a":"LINCOLN AVE","m":"Crafton","u":"L","o":"corp","sf":4000,"v":1400}},{"type":"Feature","geometry":{"type":"Point","coordinates":[-80.08455,40.42835]},"properties":{"p":"0105M00190000000","a":null,"m":"Crafton","u":"L","o":"individual","sf":4000,"v":1400}},{"type":"Feature","geometry":{"type":"Point","coordinates":[-80.0847,40.42816]},"properties":{"p":"0105M00196000000","a":"DESOTO ST","m":"Crafton","u":"L","o":"individual","sf":12000,"v":2600}},{"type":"Feature","geometry":{"type":"Point","coordinates":[-80.08492,40.4279]},"properties":{"p":"0105M00202000000","a":"DESOTO ST","m":"Crafton","u":"L","o":"corp","sf":12000,"v":3900}},{"type":"Feature","geometry":{"type":"Point","coordinates":[-80.08509,40.4277]},"properties":{"p":"0105M00204000000","a":"DESOTO ST","m":"Crafton","u":"L","o":"individual","sf":4000,"v":1400}},{"type":"Feature","geometry":{"type":"Point","coordinates":[-80.08576,40.42746]},"properties":{"p":"0105M00242000000","a":"DESOTO ST","m":"Crafton","u":"L","o":"individual","sf":30318,"v":22300}},{"type":"Feature","geometry":{"type":"Point","coordinates":[-80.08549,40.4282]},"properties":{"p":"0105M00250000000","a":"DESOTO ST","m":"Crafton","u":"L","o":"individual","sf":48264,"v":8267}},{"type":"Feature","geometry":{"type":"Point","coordinates":[-80.08322,40.4239]},"properties":{"p":"0105S00017000000","a":"CHARTIERS AVE","m":"Crafton","u":"L","o":"individual","sf":7549,"v":2500}},{"type":"Feature","geometry":{"type":"Point","coordinates":[-80.08349,40.42389]},"properties":{"p":"0105S00018000000","a":"CHARTIERS AVE","m":"Crafton","u":"L","o":"individual","sf":2300,"v":800}},{"type":"Feature","geometry":{"type":"Point","coordinates":[-80.08392,40.4239]},"properties":{"p":"0105S00020000000","a":"CHARTIERS AVE","m":"Crafton","u":"L","o":"individual","sf":6800,"v":2300}},{"type":"Feature","geometry":{"type":"Point","coordinates":[-80.08194,40.4249]},"properties":{"p":"0068N00246000000","a":"FOUNTAIN ST","m":"Crafton","u":"L","o":"individual","sf":6500,"v":20100}},{"type":"Feature","geometry":{"type":"Point","coordinates":[-80.08176,40.42429]},"properties":{"p":"0068N00275000000","a":"FOUNTAIN ST","m":"Crafton","u":"L","o":"individual","sf":4042,"v":1400}},{"type":"Feature","geometry":{"type":"Point","coordinates":[-80.08165,40.42429]},"properties":{"p":"0068N00277000000","a":"FOUNTAIN ST","m":"Crafton","u":"L","o":"individual","sf":3185,"v":1100}},{"type":"Feature","geometry":{"type":"Point","coordinates":[-80.08201,40.42395]},"properties":{"p":"0068N00290000000","a":"CHARTIERS AVE","m":"Crafton","u":"L","o":"individual","sf":18355,"v":21200}},{"type":"Feature","geometry":{"type":"Point","coordinates":[-80.08241,40.42391]},"properties":{"p":"0068N00293000000","a":"CHARTIERS AVE","m":"Crafton","u":"L","o":"individual","sf":5744,"v":20100}},{"type":"Feature","geometry":{"type":"Point","coordinates":[-80.08119,40.42606]},"properties":{"p":"0068J00190000000","a":"S GRANDVIEW AVE","m":"Crafton","u":"L","o":"individual","sf":67692,"v":15800}},{"type":"Feature","geometry":{"type":"Point","coordinates":[-80.08387,40.42738]},"properties":{"p":"0105M00089000000","a":"DESOTO ST","m":"Crafton","u":"L","o":"individual","sf":4000,"v":1400}},{"type":"Feature","geometry":{"type":"Point","coordinates":[-80.08379,40.42747]},"properties":{"p":"0105M00091000000","a":"DESOTO ST","m":"Crafton","u":"L","o":"individual","sf":4000,"v":1400}},{"type":"Feature","geometry":{"type":"Point","coordinates":[-80.08371,40.42756]},"properties":{"p":"0105M00093000000","a":"LINCOLN AVE","m":"Crafton","u":"L","o":"individual","sf":4000,"v":1400}},{"type":"Feature","geometry":{"type":"Point","coordinates":[-80.08385,40.42776]},"properties":{"p":"0105M00095000000","a":"LINCOLN AVE","m":"Crafton","u":"L","o":"individual","sf":8000,"v":2700}},{"type":"Feature","geometry":{"type":"Point","coordinates":[-80.08402,40.42771]},"properties":{"p":"0105M00124000000","a":"LINCOLN AVE","m":"Crafton","u":"L","o":"individual","sf":4000,"v":1400}},{"type":"Feature","geometry":{"type":"Point","coordinates":[-80.08004,40.4245]},"properties":{"p":"0068N00060000000","a":"FOUNTAIN ST","m":"Crafton","u":"L","o":"corp","sf":884,"v":400}},{"type":"Feature","geometry":{"type":"Point","coordinates":[-80.08091,40.42414]},"properties":{"p":"0068N00065000000","a":"CHARTIERS AVE","m":"Crafton","u":"L","o":"individual","sf":4482,"v":1500}},{"type":"Feature","geometry":{"type":"Point","coordinates":[-80.08131,40.42428]},"properties":{"p":"0068N00075000000","a":"PROMENADE ST","m":"Crafton","u":"L","o":"individual","sf":2176,"v":800}},{"type":"Feature","geometry":{"type":"Point","coordinates":[-80.08126,40.42437]},"properties":{"p":"0068N00077000000","a":"FOUNTAIN ST","m":"Crafton","u":"L","o":"individual","sf":2551,"v":900}},{"type":"Feature","geometry":{"type":"Point","coordinates":[-80.0841,40.42761]},"properties":{"p":"0105M00126000000","a":"LINCOLN AVE","m":"Crafton","u":"L","o":"individual","sf":4000,"v":1400}},{"type":"Feature","geometry":{"type":"Point","coordinates":[-80.08417,40.42752]},"properties":{"p":"0105M00128000000","a":"LINCOLN ST","m":"Crafton","u":"L","o":"individual","sf":4000,"v":18000}},{"type":"Feature","geometry":{"type":"Point","coordinates":[-80.08425,40.42743]},"properties":{"p":"0105M00130000000","a":"DESOTO ST","m":"Crafton","u":"L","o":"individual","sf":4000,"v":1400}},{"type":"Feature","geometry":{"type":"Point","coordinates":[-80.08432,40.42733]},"properties":{"p":"0105M00132000000","a":"LINCOLN AVE","m":"Crafton","u":"L","o":"individual","sf":4000,"v":1400}},{"type":"Feature","geometry":{"type":"Point","coordinates":[-80.08478,40.42755]},"properties":{"p":"0105M00171000000","a":"LINCOLN AVE","m":"Crafton","u":"L","o":"individual","sf":4000,"v":1400}},{"type":"Feature","geometry":{"type":"Point","coordinates":[-80.0847,40.42765]},"properties":{"p":"0105M00173000000","a":"LINCOLN AVE","m":"Crafton","u":"L","o":"individual","sf":4000,"v":1400}},{"type":"Feature","geometry":{"type":"Point","coordinates":[-80.08463,40.42774]},"properties":{"p":"0105M00175000000","a":"LINCOLN AVE","m":"Crafton","u":"L","o":"individual","sf":4000,"v":1400}},{"type":"Feature","geometry":{"type":"Point","coordinates":[-80.08451,40.42788]},"properties":{"p":"0105M00177000000","a":"LINCOLN ST","m":"Crafton","u":"L","o":"individual","sf":8000,"v":20300}},{"type":"Feature","geometry":{"type":"Point","coordinates":[-80.08167,40.42587]},"properties":{"p":"0068N00215000000","a":"182 PROMENADE ST","m":"Crafton","u":"L","o":"individual","sf":41077,"v":23300}},{"type":"Feature","geometry":{"type":"Point","coordinates":[-80.0822,40.42578]},"properties":{"p":"0068N00225000000","a":"182 PROMENADE ST","m":"Crafton","u":"L","o":"individual","sf":31929,"v":10300}},{"type":"Feature","geometry":{"type":"Point","coordinates":[-80.08136,40.425]},"properties":{"p":"0068N00234000000","a":"PROMENADE ST","m":"Crafton","u":"L","o":"individual","sf":9200,"v":20400}},{"type":"Feature","geometry":{"type":"Point","coordinates":[-80.08016,40.4275]},"properties":{"p":"0068J00128000000","a":"FOUNTAIN ST","m":"Crafton","u":"L","o":"individual","sf":4782,"v":1600}},{"type":"Feature","geometry":{"type":"Point","coordinates":[-80.08006,40.42753]},"properties":{"p":"0068J00130000000","a":"EWING RD","m":"Crafton","u":"L","o":"corp","sf":4860,"v":1700}},{"type":"Feature","geometry":{"type":"Point","coordinates":[-80.08305,40.42673]},"properties":{"p":"0105M00032000000","a":"FOUNTAIN ST","m":"Crafton","u":"L","o":"corp","sf":6149,"v":20100}},{"type":"Feature","geometry":{"type":"Point","coordinates":[-80.08296,40.42681]},"properties":{"p":"0105M00034000000","a":"FOUNTAIN ST","m":"Crafton","u":"L","o":"individual","sf":6507,"v":20100}},{"type":"Feature","geometry":{"type":"Point","coordinates":[-80.08304,40.4275]},"properties":{"p":"0105M00046000000","a":"DESOTO ST","m":"Crafton","u":"L","o":"individual","sf":5600,"v":1900}},{"type":"Feature","geometry":{"type":"Point","coordinates":[-80.08312,40.42741]},"properties":{"p":"0105M00048000000","a":"DESOTO ST","m":"Crafton","u":"L","o":"individual","sf":5600,"v":1900}},{"type":"Feature","geometry":{"type":"Point","coordinates":[-80.0832,40.42732]},"properties":{"p":"0105M00050000000","a":"DESOTO ST","m":"Crafton","u":"L","o":"individual","sf":5600,"v":20100}},{"type":"Feature","geometry":{"type":"Point","coordinates":[-80.08327,40.42722]},"properties":{"p":"0105M00052000000","a":"DESOTO ST","m":"Crafton","u":"L","o":"individual","sf":5600,"v":20100}},{"type":"Feature","geometry":{"type":"Point","coordinates":[-80.08335,40.42713]},"properties":{"p":"0105M00054000000","a":"DESOTO ST","m":"Crafton","u":"L","o":"individual","sf":5600,"v":20100}},{"type":"Feature","geometry":{"type":"Point","coordinates":[-80.08342,40.42704]},"properties":{"p":"0105M00056000000","a":"DESOTO ST","m":"Crafton","u":"L","o":"individual","sf":5600,"v":1900}},{"type":"Feature","geometry":{"type":"Point","coordinates":[-80.08049,40.42511]},"properties":{"p":"0068N00154000000","a":"114 FOUNTAIN ST","m":"Crafton","u":"L","o":"individual","sf":7750,"v":10300}},{"type":"Feature","geometry":{"type":"Point","coordinates":[-80.0825,40.42724]},"properties":{"p":"0068J00080000000","a":"FOUNTAIN ST","m":"Crafton","u":"L","o":"individual","sf":8726,"v":20300}},{"type":"Feature","geometry":{"type":"Point","coordinates":[-80.08259,40.42716]},"properties":{"p":"0068J00082000000","a":"FOUNTAIN ST","m":"Crafton","u":"L","o":"corp","sf":4621,"v":1600}},{"type":"Feature","geometry":{"type":"Point","coordinates":[-80.08268,40.42707]},"properties":{"p":"0068J00084000000","a":"FOUNTAIN ST","m":"Crafton","u":"L","o":"individual","sf":7563,"v":20200}},{"type":"Feature","geometry":{"type":"Point","coordinates":[-80.08521,40.42859]},"properties":{"p":"0105H00198000000","a":"HOMESTEAD AVE","m":"Crafton","u":"L","o":"corp","sf":20024,"v":21400}},{"type":"Feature","geometry":{"type":"Point","coordinates":[-80.0834,40.42922]},"properties":{"p":"0105H00200000000","a":"EWING AVE","m":"Crafton","u":"L","o":"individual","sf":532477,"v":6500}},{"type":"Feature","geometry":{"type":"Point","coordinates":[-80.08404,40.4264]},"properties":{"p":"0105M00015000000","a":"EWING RD","m":"Crafton","u":"L","o":"individual","sf":15662,"v":5000}},{"type":"Feature","geometry":{"type":"Point","coordinates":[-80.08277,40.42698]},"properties":{"p":"0068J00086000000","a":"FOUNTAIN ST","m":"Crafton","u":"L","o":"individual","sf":7171,"v":20200}},{"type":"Feature","geometry":{"type":"Point","coordinates":[-80.08287,40.4269]},"properties":{"p":"0068J00088000000","a":"FOUNTAIN ST","m":"Crafton","u":"L","o":"individual","sf":6949,"v":20200}},{"type":"Feature","geometry":{"type":"Point","coordinates":[-80.08234,40.42636]},"properties":{"p":"0068J00098000000","a":"232 EWING AVE","m":"Crafton","u":"L","o":"individual","sf":12382,"v":20700}},{"type":"Feature","geometry":{"type":"Point","coordinates":[-80.08115,40.42705]},"properties":{"p":"0068J00112000000","a":"275 EWING RD","m":"Crafton","u":"L","o":"individual","sf":86584,"v":17500}},{"type":"Feature","geometry":{"type":"Point","coordinates":[-80.08017,40.42681]},"properties":{"p":"0068J00114000000","a":"PROMENADE ST","m":"Crafton","u":"L","o":"individual","sf":18663,"v":14500}},{"type":"Feature","geometry":{"type":"Point","coordinates":[-80.0803,40.42748]},"properties":{"p":"0068J00126000000","a":"EWING RD","m":"Crafton","u":"L","o":"individual","sf":11034,"v":3600}},{"type":"Feature","geometry":{"type":"Point","coordinates":[-80.08005,40.42641]},"properties":{"p":"0068J00239000000","a":"PROMENADE ST","m":"Crafton","u":"L","o":"individual","sf":12111,"v":9400}},{"type":"Feature","geometry":{"type":"Point","coordinates":[-80.08041,40.42454]},"properties":{"p":"0068N00096000000","a":"FOUNTAIN ST","m":"Crafton","u":"L","o":"individual","sf":4579,"v":1600}},{"type":"Feature","geometry":{"type":"Point","coordinates":[-80.08358,40.41188]},"properties":{"p":"0103D00084000000","a":"HAYS ST","m":"Carnegie","u":"L","o":"corp","sf":3126,"v":1100}},{"type":"Feature","geometry":{"type":"Point","coordinates":[-80.09587,40.41312]},"properties":{"p":"0103A00020000000","a":"CARNEGIE RD","m":"Carnegie","u":"L","o":"individual","sf":241758,"v":43100}},{"type":"Feature","geometry":{"type":"Point","coordinates":[-80.0875,40.41435]},"properties":{"p":"0104R00313000000","a":"5 MARYLAND AVE","m":"Carnegie","u":"L","o":"individual","sf":850,"v":400}},{"type":"Feature","geometry":{"type":"Point","coordinates":[-80.08768,40.41411]},"properties":{"p":"0104R00319000000","a":"4 MARYLAND AVE","m":"Carnegie","u":"L","o":"corp","sf":1700,"v":700}},{"type":"Feature","geometry":{"type":"Point","coordinates":[-80.09012,40.41114]},"properties":{"p":"0103G00250000000","a":"MODERN AVE","m":"Carnegie","u":"L","o":"corp","sf":4696,"v":1700}},{"type":"Feature","geometry":{"type":"Point","coordinates":[-80.08431,40.41582]},"properties":{"p":"0104S00035000000","a":"JUSTUS AVE","m":"Carnegie","u":"L","o":"corp","sf":13810,"v":4900}},{"type":"Feature","geometry":{"type":"Point","coordinates":[-80.09419,40.41123]},"properties":{"p":"0103F00230000000","a":"CHARTIERS AVE","m":"Carnegie","u":"L","o":"individual","sf":71482,"v":29100}},{"type":"Feature","geometry":{"type":"Point","coordinates":[-80.09932,40.41143]},"properties":{"p":"0103E00144000000","a":"SUNRISE DR","m":"Carnegie","u":"L","o":"corp","sf":275565,"v":0}},{"type":"Feature","geometry":{"type":"Point","coordinates":[-80.09464,40.4118]},"properties":{"p":"0103B00202000000","a":"CHARTIERS AVE","m":"Carnegie","u":"L","o":"individual","sf":15837,"v":5200}},{"type":"Feature","geometry":{"type":"Point","coordinates":[-80.09475,40.41192]},"properties":{"p":"0103B00204000000","a":"CHARTIERS AVE","m":"Carnegie","u":"L","o":"individual","sf":16226,"v":24000}},{"type":"Feature","geometry":{"type":"Point","coordinates":[-80.09486,40.41222]},"properties":{"p":"0103B00210000000","a":"CHARTIERS AVE","m":"Carnegie","u":"L","o":"individual","sf":67039,"v":6200}},{"type":"Feature","geometry":{"type":"Point","coordinates":[-80.09072,40.41537]},"properties":{"p":"0104P00141000000","a":"EDWARD DR","m":"Carnegie","u":"L","o":"individual","sf":1481,"v":600}},{"type":"Feature","geometry":{"type":"Point","coordinates":[-80.09308,40.4143]},"properties":{"p":"0104P00180000100","a":"REAMER AVE","m":"Carnegie","u":"L","o":"individual","sf":4796,"v":1800}},{"type":"Feature","geometry":{"type":"Point","coordinates":[-80.08835,40.41541]},"properties":{"p":"0104R00248000000","a":"THOMAS ST","m":"Carnegie","u":"L","o":"corp","sf":5237,"v":1900}},{"type":"Feature","geometry":{"type":"Point","coordinates":[-80.08753,40.41533]},"properties":{"p":"0104R00280000000","a":"THOMAS ST","m":"Carnegie","u":"L","o":"individual","sf":55321,"v":15900}},{"type":"Feature","geometry":{"type":"Point","coordinates":[-80.08399,40.4135]},"properties":{"p":"0103D00152000000","a":"605 ARCH ST","m":"Carnegie","u":"L","o":"corp","sf":1878,"v":700}},{"type":"Feature","geometry":{"type":"Point","coordinates":[-80.08396,40.41356]},"properties":{"p":"0103D00153000000","a":"605 ARCH ST","m":"Carnegie","u":"L","o":"corp","sf":1824,"v":700}},{"type":"Feature","geometry":{"type":"Point","coordinates":[-80.08486,40.41451]},"properties":{"p":"0104S00244000000","a":"MORROW AVE","m":"Carnegie","u":"L","o":"individual","sf":6500,"v":2400}},{"type":"Feature","geometry":{"type":"Point","coordinates":[-80.0905,40.41065]},"properties":{"p":"0103G00232000000","a":"REAMER AVE","m":"Carnegie","u":"L","o":"individual","sf":4800,"v":1800}},{"type":"Feature","geometry":{"type":"Point","coordinates":[-80.09598,40.41423]},"properties":{"p":"0104N00055000000","a":null,"m":"Carnegie","u":"L","o":"individual","sf":66516,"v":28700}},{"type":"Feature","geometry":{"type":"Point","coordinates":[-80.09328,40.41297]},"properties":{"p":"0130B00113000000","a":"POINT ALY","m":"Carnegie","u":"L","o":"individual","sf":9845,"v":3300}},{"type":"Feature","geometry":{"type":"Point","coordinates":[-80.08635,40.41558]},"properties":{"p":"0104S00117000000","a":"404 BELL AVE","m":"Carnegie","u":"L","o":"individual","sf":2432,"v":1000}},{"type":"Feature","geometry":{"type":"Point","coordinates":[-80.08575,40.41581]},"properties":{"p":"0104S00125000000","a":"JUSTUS AVE","m":"Carnegie","u":"L","o":"individual","sf":60069,"v":5500}},{"type":"Feature","geometry":{"type":"Point","coordinates":[-80.08971,40.4147]},"properties":{"p":"0104R00227000000","a":"THOMAS ST","m":"Carnegie","u":"L","o":"individual","sf":1600,"v":700}},{"type":"Feature","geometry":{"type":"Point","coordinates":[-80.0945,40.41166]},"properties":{"p":"0103B00200000000","a":"CHARTIERS AVE","m":"Carnegie","u":"L","o":"individual","sf":23043,"v":7500}},{"type":"Feature","geometry":{"type":"Point","coordinates":[-80.08733,40.41395]},"properties":{"p":"0104R00324000000","a":"JUSTUS AVE","m":"Carnegie","u":"L","o":"individual","sf":2000,"v":800}},{"type":"Feature","geometry":{"type":"Point","coordinates":[-80.08572,40.41346]},"properties":{"p":"0103D00195000000","a":"MORROW AVE","m":"Carnegie","u":"L","o":"corp","sf":11730,"v":15600}},{"type":"Feature","geometry":{"type":"Point","coordinates":[-80.08504,40.41358]},"properties":{"p":"0103D00199000000","a":"HARRISON ST","m":"Carnegie","u":"L","o":"individual","sf":11005,"v":15500}},{"type":"Feature","geometry":{"type":"Point","coordinates":[-80.0923,40.41063]},"properties":{"p":"0103F00116000000","a":"310 LEXINGTON CT","m":"Carnegie","u":"L","o":"individual","sf":3227,"v":1100}},{"type":"Feature","geometry":{"type":"Point","coordinates":[-80.09241,40.41605]},"properties":{"p":"0104P00030000000","a":"CENTER AVE","m":"Carnegie","u":"L","o":"corp","sf":1387,"v":600}},{"type":"Feature","geometry":{"type":"Point","coordinates":[-80.08656,40.41222]},"properties":{"p":"0103D00260000200","a":"MORROW AVE","m":"Carnegie","u":"L","o":"individual","sf":5000,"v":30000}},{"type":"Feature","geometry":{"type":"Point","coordinates":[-80.08494,40.41538]},"properties":{"p":"0104S00101000000","a":"BELL AVE","m":"Carnegie","u":"L","o":"corp","sf":486,"v":100}},{"type":"Feature","geometry":{"type":"Point","coordinates":[-80.09309,40.41563]},"properties":{"p":"0104P00090000000","a":"REAMER AVE","m":"Carnegie","u":"L","o":"individual","sf":6741,"v":2500}},{"type":"Feature","geometry":{"type":"Point","coordinates":[-80.08494,40.41616]},"properties":{"p":"0104S00200000000","a":"JUSTUS AVE","m":"Carnegie","u":"L","o":"individual","sf":4375,"v":1600}},{"type":"Feature","geometry":{"type":"Point","coordinates":[-80.0854,40.41465]},"properties":{"p":"0104S00208000000","a":"529 MORROW AVE","m":"Carnegie","u":"L","o":"individual","sf":4125,"v":1500}},{"type":"Feature","geometry":{"type":"Point","coordinates":[-80.0918,40.4221]},"properties":{"p":"0104B00040000000","a":"KINGS HWY","m":"Rosslyn Farms","u":"L","o":"individual","sf":5740,"v":800}},{"type":"Feature","geometry":{"type":"Point","coordinates":[-80.08859,40.42467]},"properties":{"p":"0105R00150000000","a":"EDGECLIFF RD","m":"Rosslyn Farms","u":"L","o":"individual","sf":255601,"v":5900}},{"type":"Feature","geometry":{"type":"Point","coordinates":[-80.08665,40.42141]},"properties":{"p":"0105R00200000000","a":"GOSHOCTON RD","m":"Rosslyn Farms","u":"L","o":"corp","sf":85704,"v":10800}},{"type":"Feature","geometry":{"type":"Point","coordinates":[-80.08981,40.42422]},"properties":{"p":"0105R00232000000","a":"EDGECLIFF RD","m":"Rosslyn Farms","u":"L","o":"individual","sf":13541,"v":21400}},{"type":"Feature","geometry":{"type":"Point","coordinates":[-80.0847,40.41812]},"properties":{"p":"0104M00212000000","a":"EDGECLIFF RD","m":"Rosslyn Farms","u":"L","o":"individual","sf":16011,"v":4400}},{"type":"Feature","geometry":{"type":"Point","coordinates":[-80.08441,40.41778]},"properties":{"p":"0104M00213000000","a":"EDGECLIFF RD","m":"Rosslyn Farms","u":"L","o":"individual","sf":11094,"v":4400}},{"type":"Feature","geometry":{"type":"Point","coordinates":[-80.08468,40.41773]},"properties":{"p":"0104M00214000000","a":"EDGECLIFF RD","m":"Rosslyn Farms","u":"L","o":"individual","sf":21437,"v":4400}},{"type":"Feature","geometry":{"type":"Point","coordinates":[-80.09481,40.42946]},"properties":{"p":"0105F00100000000","a":"BELL AVE","m":"Rosslyn Farms","u":"L","o":"individual","sf":206910,"v":75000}},{"type":"Feature","geometry":{"type":"Point","coordinates":[-80.09062,40.42298]},"properties":{"p":"0104C00190000000","a":"PRISCILLA LN","m":"Rosslyn Farms","u":"L","o":"individual","sf":21305,"v":65200}},{"type":"Feature","geometry":{"type":"Point","coordinates":[-80.08782,40.4263]},"properties":{"p":"0105R00100000000","a":"GOSHOCTON RD","m":"Rosslyn Farms","u":"L","o":"corp","sf":87669,"v":11100}},{"type":"Feature","geometry":{"type":"Point","coordinates":[-80.08952,40.42312]},"properties":{"p":"0104C00131000000","a":"HIGHLAND CT","m":"Rosslyn Farms","u":"L","o":"individual","sf":6570,"v":43100}},{"type":"Feature","geometry":{"type":"Point","coordinates":[-80.09397,40.42528]},"properties":{"p":"0105P00119000000","a":"415 KINGS HWY","m":"Rosslyn Farms","u":"L","o":"individual","sf":1122,"v":200}},{"type":"Feature","geometry":{"type":"Point","coordinates":[-80.08942,40.42044]},"properties":{"p":"0104G00138000000","a":"PARK RD","m":"Rosslyn Farms","u":"L","o":"individual","sf":6500,"v":900}},{"type":"Feature","geometry":{"type":"Point","coordinates":[-80.08403,40.41774]},"properties":{"p":"0104M00042000000","a":"WYANDOTTE LN","m":"Rosslyn Farms","u":"L","o":"corp","sf":41818,"v":58800}},{"type":"Feature","geometry":{"type":"Point","coordinates":[-80.08307,40.41689]},"properties":{"p":"0104M00055000100","a":"ROSSLYN RD","m":"Rosslyn Farms","u":"L","o":"individual","sf":8750,"v":11300}},{"type":"Feature","geometry":{"type":"Point","coordinates":[-80.08489,40.4191]},"properties":{"p":"0104H00275000000","a":"ANGORA RD","m":"Rosslyn Farms","u":"L","o":"corp","sf":270508,"v":5500}},{"type":"Feature","geometry":{"type":"Point","coordinates":[-80.08673,40.42263]},"properties":{"p":"0104H00175000000","a":"GOSHOCTON RD","m":"Rosslyn Farms","u":"L","o":"individual","sf":4280,"v":600}},{"type":"Feature","geometry":{"type":"Point","coordinates":[-80.08588,40.41768]},"properties":{"p":"0104M00172000000","a":"4 ROSSLYN RD","m":"Rosslyn Farms","u":"L","o":"corp","sf":5519,"v":700}},{"type":"Feature","geometry":{"type":"Point","coordinates":[-80.09581,40.42851]},"properties":{"p":"0105E00126000000","a":"KINGS HWY","m":"Robinson","u":"L","o":"individual","sf":32697,"v":20000}},{"type":"Feature","geometry":{"type":"Point","coordinates":[-80.09592,40.42912]},"properties":{"p":"0105E00141000000","a":"BELL AVE","m":"Robinson","u":"L","o":"individual","sf":43560,"v":20000}},{"type":"Feature","geometry":{"type":"Point","coordinates":[-80.09557,40.42983]},"properties":{"p":"0105E00156000000","a":"BELL AVE","m":"Robinson","u":"L","o":"individual","sf":37636,"v":20000}},{"type":"Feature","geometry":{"type":"Point","coordinates":[-80.09785,40.4279]},"properties":{"p":"0105J00260000000","a":"BALDWIN RD","m":"Robinson","u":"L","o":"individual","sf":6050,"v":900}},{"type":"Feature","geometry":{"type":"Point","coordinates":[-80.09664,40.42922]},"properties":{"p":"0105E00095000000","a":"BALDWIN RD","m":"Robinson","u":"L","o":"individual","sf":15064,"v":2100}},{"type":"Feature","geometry":{"type":"Point","coordinates":[-80.09919,40.41683]},"properties":{"p":"0104J00085000000","a":"1047 CAMPBELLS RUN RD","m":"Robinson","u":"L","o":"individual","sf":6903,"v":800}},{"type":"Feature","geometry":{"type":"Point","coordinates":[-80.09823,40.41714]},"properties":{"p":"0104J00119000000","a":"CAMPBELLS RUN RD","m":"Robinson","u":"L","o":"individual","sf":7773,"v":900}},{"type":"Feature","geometry":{"type":"Point","coordinates":[-80.09415,40.41442]},"properties":{"p":"0104P00198000000","a":"RUN ST","m":"Carnegie","u":"L","o":"individual","sf":13834,"v":10500}},{"type":"Feature","geometry":{"type":"Point","coordinates":[-80.09236,40.41304]},"properties":{"p":"0103B00040000000","a":"427 REAMER AVE","m":"Carnegie","u":"L","o":"individual","sf":9350,"v":15400}},{"type":"Feature","geometry":{"type":"Point","coordinates":[-80.08046,40.42556]},"properties":{"p":"0068N00172000000","a":"PROMENADE ST","m":"Crafton","u":"L","o":"individual","sf":16950,"v":12500}},{"type":"Feature","geometry":{"type":"Point","coordinates":[-80.08311,40.41782]},"properties":{"p":"0104M00052000000","a":"WYANDOTTE LN","m":"Rosslyn Farms","u":"L","o":"corp","sf":44039,"v":59100}},{"type":"Feature","geometry":{"type":"Point","coordinates":[-80.08402,40.42719]},"properties":{"p":"0105M00085000000","a":"DESOTO ST","m":"Crafton","u":"L","o":"individual","sf":5600,"v":20100}},{"type":"Feature","geometry":{"type":"Point","coordinates":[-80.09477,40.42151]},"properties":{"p":"0104B00176000000","a":"6 REVERE RD","m":"Rosslyn Farms","u":"L","o":"individual","sf":6960,"v":1000}},{"type":"Feature","geometry":{"type":"Point","coordinates":[-80.08088,40.42437]},"properties":{"p":"0068N00080000000","a":"FOUNTAIN ST","m":"Crafton","u":"L","o":"individual","sf":16691,"v":7000}},{"type":"Feature","geometry":{"type":"Point","coordinates":[-80.08429,40.41739]},"properties":{"p":"0104M00083000000","a":"LLAMA LN","m":"Carnegie","u":"L","o":"individual","sf":15960,"v":5700}},{"type":"Feature","geometry":{"type":"Point","coordinates":[-80.09036,40.41047]},"properties":{"p":"0103G00230000000","a":"REAMER AVE","m":"Carnegie","u":"L","o":"individual","sf":4707,"v":1700}},{"type":"Feature","geometry":{"type":"Point","coordinates":[-80.0835,40.42694]},"properties":{"p":"0105M00058000000","a":"DESOTO ST","m":"Crafton","u":"L","o":"individual","sf":5600,"v":20100}},{"type":"Feature","geometry":{"type":"Point","coordinates":[-80.09825,40.41628]},"properties":{"p":"0104J00098000000","a":"1049 CAMPBELLS RUN RD","m":"Robinson","u":"L","o":"individual","sf":189050,"v":70300}},{"type":"Feature","geometry":{"type":"Point","coordinates":[-80.0833,40.42506]},"properties":{"p":"0068N00272000000","a":"FOUNTAIN ST","m":"Crafton","u":"L","o":"individual","sf":47872,"v":23900}},{"type":"Feature","geometry":{"type":"Point","coordinates":[-80.08145,40.424]},"properties":{"p":"0068N00072000000","a":"CHARTIERS AVE","m":"Crafton","u":"L","o":"individual","sf":10993,"v":20500}},{"type":"Feature","geometry":{"type":"Point","coordinates":[-80.08954,40.42331]},"properties":{"p":"0104C00130000000","a":"HIGHLAND CT","m":"Rosslyn Farms","u":"L","o":"individual","sf":6676,"v":43300}},{"type":"Feature","geometry":{"type":"Point","coordinates":[-80.08394,40.42728]},"properties":{"p":"0105M00087000000","a":null,"m":"Crafton","u":"L","o":"individual","sf":4000,"v":18000}}]}