{"type":"FeatureCollection","features":[{"type":"Feature","geometry":{"type":"Point","coordinates":[-80.09052,40.60043]},"properties":{"p":"1203R00225000000","a":"WEDGEWOOD DR","m":"Franklin Park","u":"C","o":"corp","sf":210830,"v":107900}},{"type":"Feature","geometry":{"type":"Point","coordinates":[-80.08947,40.60739]},"properties":{"p":"1203C00140000000","a":"BRANDT SCHOOL RD","m":"Franklin Park","u":"L","o":"individual","sf":57935,"v":59800}},{"type":"Feature","geometry":{"type":"Point","coordinates":[-80.08206,40.59532]},"properties":{"p":"1069E00220000000","a":"CITATION CT","m":"Franklin Park","u":"L","o":"corp","sf":58806,"v":4100}},{"type":"Feature","geometry":{"type":"Point","coordinates":[-80.09873,40.5904]},"properties":{"p":"1068N00336000000","a":"NICHOLSON RD","m":"Franklin Park","u":"L","o":"individual","sf":12632,"v":2300}},{"type":"Feature","geometry":{"type":"Point","coordinates":[-80.09199,40.59138]},"properties":{"p":"1068K00371000000","a":"PIONEER DR","m":"Franklin Park","u":"L","o":"corp","sf":178448,"v":102300}},{"type":"Feature","geometry":{"type":"Point","coordinates":[-80.09893,40.60681]},"properties":{"p":"1203A00284000000","a":"NICHOLSON RD","m":"Franklin Park","u":"L","o":"individual","sf":44431,"v":12500}},{"type":"Feature","geometry":{"type":"Point","coordinates":[-80.09889,40.60626]},"properties":{"p":"1203A00310000000","a":"NICHOLSON RD","m":"Franklin Park","u":"L","o":"individual","sf":43461,"v":5000}},{"type":"Feature","geometry":{"type":"Point","coordinates":[-80.08024,40.60371]},"properties":{"p":"1204J00188000000","a":"COUNTRY SIDE LN","m":"Franklin Park","u":"L","o":"individual","sf":15595,"v":2700}},{"type":"Feature","geometry":{"type":"Point","coordinates":[-80.08132,40.60327]},"properties":{"p":"1204J00190000000","a":"COUNTRY SIDE LN","m":"Franklin Park","u":"L","o":"individual","sf":5924,"v":1000}},{"type":"Feature","geometry":{"type":"Point","coordinates":[-80.08671,40.60945]},"properties":{"p":"1346S00262000000","a":"GLENWOOD DR","m":"Franklin Park","u":"L","o":"individual","sf":1947,"v":300}},{"type":"Feature","geometry":{"type":"Point","coordinates":[-80.08311,40.60362]},"properties":{"p":"1204J00359000000","a":"BRANDT SCHOOL RD","m":"Franklin Park","u":"L","o":"individual","sf":20000,"v":2600}},{"type":"Feature","geometry":{"type":"Point","coordinates":[-80.0829,40.60322]},"properties":{"p":"1204J00365000000","a":"BRANDT SCHOOL RD","m":"Franklin Park","u":"L","o":"individual","sf":2335,"v":300}},{"type":"Feature","geometry":{"type":"Point","coordinates":[-80.09242,40.59208]},"properties":{"p":"1068K00064000000","a":"HOLMES DR","m":"Franklin Park","u":"L","o":"corp","sf":63380,"v":82500}},{"type":"Feature","geometry":{"type":"Point","coordinates":[-80.08646,40.60271]},"properties":{"p":"1203M00238000000","a":"SECRETARIAT DR","m":"Franklin Park","u":"L","o":"individual","sf":3877,"v":100}},{"type":"Feature","geometry":{"type":"Point","coordinates":[-80.08667,40.60259]},"properties":{"p":"1203M00265000000","a":"SECRETARIAT DR","m":"Franklin Park","u":"L","o":"individual","sf":34020,"v":18000}},{"type":"Feature","geometry":{"type":"Point","coordinates":[-80.09695,40.60544]},"properties":{"p":"1203E00085000000","a":"SERVICE RD","m":"Franklin Park","u":"L","o":"individual","sf":94569,"v":93700}},{"type":"Feature","geometry":{"type":"Point","coordinates":[-80.08584,40.60092]},"properties":{"p":"1203S00244000000","a":"RIVA RIDGE CT","m":"Franklin Park","u":"L","o":"individual","sf":20574,"v":75100}},{"type":"Feature","geometry":{"type":"Point","coordinates":[-80.0885,40.59935]},"properties":{"p":"1203R00001000000","a":"LONGMOUNT DR","m":"Franklin Park","u":"L","o":"corp","sf":126629,"v":8700}},{"type":"Feature","geometry":{"type":"Point","coordinates":[-80.09896,40.59997]},"properties":{"p":"1203N00338000000","a":"NICHOLSON RD","m":"Franklin Park","u":"L","o":"corp","sf":15397,"v":70800}},{"type":"Feature","geometry":{"type":"Point","coordinates":[-80.09548,40.60353]},"properties":{"p":"1203E00022000000","a":"SINGER LN","m":"Franklin Park","u":"L","o":"corp","sf":521849,"v":123300}},{"type":"Feature","geometry":{"type":"Point","coordinates":[-80.09667,40.59658]},"properties":{"p":"1068A00004000000","a":"1303 ADRIAN DR","m":"Franklin Park","u":"B","o":"corp","sf":16307,"v":3100}},{"type":"Feature","geometry":{"type":"Point","coordinates":[-80.09579,40.59752]},"properties":{"p":"1068A00010000000","a":"1317 ADRIAN DR","m":"Franklin Park","u":"B","o":"individual","sf":12856,"v":2400}},{"type":"Feature","geometry":{"type":"Point","coordinates":[-80.09582,40.59797]},"properties":{"p":"1068A00011000000","a":"1319 ADRIAN DR","m":"Franklin Park","u":"B","o":"individual","sf":12607,"v":2400}},{"type":"Feature","geometry":{"type":"Point","coordinates":[-80.09627,40.59508]},"properties":{"p":"1068E00047000000","a":"1215 MAGNOLIA CT","m":"Franklin Park","u":"B","o":"individual","sf":16713,"v":3900}},{"type":"Feature","geometry":{"type":"Point","coordinates":[-80.09582,40.59508]},"properties":{"p":"1068E00048000000","a":"1217 MAGNOLIA CT","m":"Franklin Park","u":"B","o":"corp","sf":33936,"v":7700}},{"type":"Feature","geometry":{"type":"Point","coordinates":[-80.09611,40.59428]},"properties":{"p":"1068E00049000000","a":"1218 MAGNOLIA CT","m":"Franklin Park","u":"B","o":"corp","sf":27247,"v":6200}},{"type":"Feature","geometry":{"type":"Point","coordinates":[-80.09664,40.59411]},"properties":{"p":"1068E00051000000","a":"1214 MAGNOLIA CT","m":"Franklin Park","u":"B","o":"individual","sf":25954,"v":6000}},{"type":"Feature","geometry":{"type":"Point","coordinates":[-80.09749,40.59394]},"properties":{"p":"1068E00054000000","a":"1208 MAGNOLIA CT","m":"Franklin Park","u":"B","o":"individual","sf":32634,"v":7400}},{"type":"Feature","geometry":{"type":"Point","coordinates":[-80.08876,40.59308]},"properties":{"p":"1068L00050000000","a":"COLONIAL CT","m":"Franklin Park","u":"B","o":"corp","sf":505078,"v":57100}},{"type":"Feature","geometry":{"type":"Point","coordinates":[-80.09168,40.60093]},"properties":{"p":"1203R00189000000","a":"WEDGEWOOD DR","m":"Franklin Park","u":"B","o":"corp","sf":26321,"v":12300}},{"type":"Feature","geometry":{"type":"Point","coordinates":[-80.09245,40.60152]},"properties":{"p":"1203K00027000000","a":"WEDGEWOOD DR","m":"Franklin Park","u":"B","o":"corp","sf":29511,"v":12800}},{"type":"Feature","geometry":{"type":"Point","coordinates":[-80.09986,40.59488]},"properties":{"p":"1068E00006000000","a":"1101 DEERFIELD DR","m":"Franklin Park","u":"B","o":"individual","sf":13095,"v":2600}},{"type":"Feature","geometry":{"type":"Point","coordinates":[-80.09643,40.59426]},"properties":{"p":"1068E00050000000","a":"1216 MAGNOLIA CT","m":"Franklin Park","u":"B","o":"individual","sf":20898,"v":4700}}]}