{"type":"FeatureCollection","features":[{"type":"Feature","geometry":{"type":"Point","coordinates":[-80.08609,40.65555]},"properties":{"p":"1998D00002000000","a":"PERRY HWY","m":"Marshall","u":"C","o":"corp","sf":23757,"v":32100}},{"type":"Feature","geometry":{"type":"Point","coordinates":[-80.0964,40.66135]},"properties":{"p":"2181J00001000000","a":"BRUSH CREEK RD","m":"Marshall","u":"C","o":"corp","sf":385027,"v":207700}},{"type":"Feature","geometry":{"type":"Point","coordinates":[-80.09584,40.66018]},"properties":{"p":"2181J00002000000","a":"BRUSH CREEK RD","m":"Marshall","u":"C","o":"corp","sf":11805,"v":27200}},{"type":"Feature","geometry":{"type":"Point","coordinates":[-80.08207,40.65531]},"properties":{"p":"1999A00032000000","a":"NORTHGATE DR","m":"Marshall","u":"C","o":"corp","sf":4512,"v":7800}},{"type":"Feature","geometry":{"type":"Point","coordinates":[-80.08732,40.65481]},"properties":{"p":"1998C00021000000","a":"PERRY HWY","m":"Marshall","u":"C","o":"corp","sf":2378,"v":25000}},{"type":"Feature","geometry":{"type":"Point","coordinates":[-80.09933,40.65611]},"properties":{"p":"1998A00010000000","a":"GLOBAL VIEW DR","m":"Marshall","u":"C","o":"corp","sf":907276,"v":259500}},{"type":"Feature","geometry":{"type":"Point","coordinates":[-80.09728,40.65616]},"properties":{"p":"1998A00020000000","a":"GLOBAL VIEW DR","m":"Marshall","u":"C","o":"corp","sf":44004,"v":1000}},{"type":"Feature","geometry":{"type":"Point","coordinates":[-80.09886,40.66264]},"properties":{"p":"2180H00001000000","a":"BRUSH CREEK RD","m":"Marshall","u":"C","o":"corp","sf":230432,"v":460000}},{"type":"Feature","geometry":{"type":"Point","coordinates":[-80.08497,40.6553]},"properties":{"p":"1998D00014000000","a":"WARRENDALE BAYNE RD","m":"Marshall","u":"C","o":"corp","sf":130671,"v":10000}},{"type":"Feature","geometry":{"type":"Point","coordinates":[-80.09867,40.65365]},"properties":{"p":"1998E00001000000","a":"GLOBAL VIEW DR","m":"Marshall","u":"C","o":"corp","sf":1004533,"v":222200}},{"type":"Feature","geometry":{"type":"Point","coordinates":[-80.09927,40.65249]},"properties":{"p":"1998E00005000000","a":"GLOBAL VIEW DR","m":"Marshall","u":"C","o":"corp","sf":236966,"v":288800}},{"type":"Feature","geometry":{"type":"Point","coordinates":[-80.0976,40.65254]},"properties":{"p":"1998E00009000000","a":"GLOBAL VIEW DR","m":"Marshall","u":"C","o":"corp","sf":89166,"v":41000}},{"type":"Feature","geometry":{"type":"Point","coordinates":[-80.09948,40.66822]},"properties":{"p":"2372N00001000000","a":"THORN HILL RD","m":"Marshall","u":"C","o":"corp","sf":114171,"v":50000}},{"type":"Feature","geometry":{"type":"Point","coordinates":[-80.08486,40.65239]},"properties":{"p":"1998H00009000000","a":"PERRY HWY","m":"Marshall","u":"C","o":"corp","sf":179380,"v":55300}},{"type":"Feature","geometry":{"type":"Point","coordinates":[-80.09757,40.65168]},"properties":{"p":"1998J00023000000","a":"GLOBAL VIEW DR","m":"Marshall","u":"C","o":"corp","sf":249756,"v":40200}},{"type":"Feature","geometry":{"type":"Point","coordinates":[-80.0967,40.65837]},"properties":{"p":"2181N00001000000","a":"BRUSH CREEK RD","m":"Marshall","u":"C","o":"corp","sf":164661,"v":445900}},{"type":"Feature","geometry":{"type":"Point","coordinates":[-80.09591,40.65776]},"properties":{"p":"2181P00003000000","a":"916 BRUSH CREEK RD","m":"Marshall","u":"C","o":"corp","sf":35196,"v":97000}},{"type":"Feature","geometry":{"type":"Point","coordinates":[-80.09967,40.66298]},"properties":{"p":"2180H00005000000","a":"BRUSH CREEK RD","m":"Marshall","u":"C","o":"corp","sf":115521,"v":100000}},{"type":"Feature","geometry":{"type":"Point","coordinates":[-80.09901,40.66074]},"properties":{"p":"2181J00025000000","a":"ERICSSON DR","m":"Marshall","u":"C","o":"corp","sf":256904,"v":17700}},{"type":"Feature","geometry":{"type":"Point","coordinates":[-80.0807,40.65575]},"properties":{"p":"1999A00026000000","a":"NORTHGATE DR","m":"Marshall","u":"L","o":"individual","sf":48700,"v":77000}},{"type":"Feature","geometry":{"type":"Point","coordinates":[-80.08902,40.6549]},"properties":{"p":"1998C00003000000","a":"WARRENDALE BAYNE RD","m":"Marshall","u":"L","o":"corp","sf":21910,"v":72700}},{"type":"Feature","geometry":{"type":"Point","coordinates":[-80.08783,40.65609]},"properties":{"p":"1998C00008000000","a":"ROUTE 246","m":"Marshall","u":"L","o":"individual","sf":12720,"v":5100}},{"type":"Feature","geometry":{"type":"Point","coordinates":[-80.08929,40.65491]},"properties":{"p":"1998C00020000000","a":"WARRENDALE BAYNE RD","m":"Marshall","u":"L","o":"corp","sf":43560,"v":76200}},{"type":"Feature","geometry":{"type":"Point","coordinates":[-80.08969,40.66123]},"properties":{"p":"2181L00003000000","a":"PERRY HWY","m":"Marshall","u":"L","o":"individual","sf":9337,"v":3700}},{"type":"Feature","geometry":{"type":"Point","coordinates":[-80.08139,40.66752]},"properties":{"p":"2373N00004000000","a":"RIDGE DR","m":"Marshall","u":"L","o":"individual","sf":43560,"v":40100}},{"type":"Feature","geometry":{"type":"Point","coordinates":[-80.08211,40.66215]},"properties":{"p":"2182N00596000000","a":"PENTICON LN","m":"Marshall","u":"L","o":"corp","sf":3678899,"v":199700}},{"type":"Feature","geometry":{"type":"Point","coordinates":[-80.09018,40.65107]},"properties":{"p":"1998L00007000000","a":"120 WHEATLAND RD","m":"Marshall","u":"L","o":"corp","sf":23391,"v":37900}},{"type":"Feature","geometry":{"type":"Point","coordinates":[-80.08514,40.65129]},"properties":{"p":"1998M00013000000","a":"HILLTOP LN","m":"Marshall","u":"L","o":"individual","sf":958,"v":500}},{"type":"Feature","geometry":{"type":"Point","coordinates":[-80.0851,40.65764]},"properties":{"p":"2181S00015000000","a":"NORTHGATE DR","m":"Marshall","u":"L","o":"corp","sf":24915,"v":9800}},{"type":"Feature","geometry":{"type":"Point","coordinates":[-80.08118,40.65391]},"properties":{"p":"1999E00016000000","a":"WARRENDALE BAYNE RD","m":"Marshall","u":"L","o":"corp","sf":112729,"v":1300}},{"type":"Feature","geometry":{"type":"Point","coordinates":[-80.08357,40.65261]},"properties":{"p":"1998H00001000000","a":"HARMONY RD","m":"Marshall","u":"L","o":"corp","sf":129726,"v":15600}},{"type":"Feature","geometry":{"type":"Point","coordinates":[-80.08781,40.66215]},"properties":{"p":"2181G00364000000","a":"652 CHILLIWACK LN","m":"Marshall","u":"B","o":"individual","sf":13403,"v":40000}}]}