{"type":"FeatureCollection","features":[{"type":"Feature","geometry":{"type":"Point","coordinates":[-80.0813,40.57805]},"properties":{"p":"0823A00065000000","a":"ROCHESTER RD","m":"Franklin Park","u":"C","o":"corp","sf":91258,"v":83200}},{"type":"Feature","geometry":{"type":"Point","coordinates":[-80.08925,40.57194]},"properties":{"p":"0822R00376000000","a":"MCALEER RD","m":"Franklin Park","u":"C","o":"corp","sf":1306800,"v":240200}},{"type":"Feature","geometry":{"type":"Point","coordinates":[-80.09242,40.57621]},"properties":{"p":"0822F00094000000","a":"MCALEER RD","m":"Franklin Park","u":"L","o":"individual","sf":177725,"v":68100}},{"type":"Feature","geometry":{"type":"Point","coordinates":[-80.0954,40.57426]},"properties":{"p":"0822F00308000000","a":"ROYAL OAK DR","m":"Franklin Park","u":"L","o":"corp","sf":47480,"v":85000}},{"type":"Feature","geometry":{"type":"Point","coordinates":[-80.09568,40.57534]},"properties":{"p":"0822F00319000000","a":"MCALEER RD","m":"Franklin Park","u":"L","o":"corp","sf":518800,"v":93300}},{"type":"Feature","geometry":{"type":"Point","coordinates":[-80.09056,40.57518]},"properties":{"p":"0822G00001000000","a":"STURBRIDGE DR","m":"Franklin Park","u":"L","o":"corp","sf":312325,"v":7200}},{"type":"Feature","geometry":{"type":"Point","coordinates":[-80.08092,40.57874]},"properties":{"p":"0823A00110000000","a":"ROCHESTER RD","m":"Franklin Park","u":"L","o":"individual","sf":193093,"v":29400}},{"type":"Feature","geometry":{"type":"Point","coordinates":[-80.08856,40.58633]},"properties":{"p":"0941C00251000000","a":"CHARLES WRAY DR","m":"Franklin Park","u":"L","o":"individual","sf":9676,"v":1100}},{"type":"Feature","geometry":{"type":"Point","coordinates":[-80.08652,40.58736]},"properties":{"p":"0941D00316000000","a":"TRACI DR","m":"Franklin Park","u":"L","o":"individual","sf":21601,"v":67000}},{"type":"Feature","geometry":{"type":"Point","coordinates":[-80.0893,40.57849]},"properties":{"p":"0822C00156000000","a":"1650 STURBRIDGE CT","m":"Franklin Park","u":"L","o":"individual","sf":20327,"v":25000}},{"type":"Feature","geometry":{"type":"Point","coordinates":[-80.08218,40.58542]},"properties":{"p":"0942E00272000000","a":"W INGOMAR RD","m":"Franklin Park","u":"L","o":"individual","sf":32149,"v":3500}},{"type":"Feature","geometry":{"type":"Point","coordinates":[-80.08632,40.57422]},"properties":{"p":"0882M00102000000","a":"BRIMFIELD DR","m":"Franklin Park","u":"L","o":"individual","sf":20249,"v":20900}},{"type":"Feature","geometry":{"type":"Point","coordinates":[-80.08496,40.57679]},"properties":{"p":"0822H00120000000","a":"BRIMFIELD DR","m":"Franklin Park","u":"L","o":"individual","sf":25796,"v":26600}},{"type":"Feature","geometry":{"type":"Point","coordinates":[-80.08805,40.57913]},"properties":{"p":"0941R00320000000","a":"MCALEER RD","m":"Franklin Park","u":"L","o":"individual","sf":28169,"v":50900}},{"type":"Feature","geometry":{"type":"Point","coordinates":[-80.09527,40.58956]},"properties":{"p":"0941F00100000000","a":"SETTLERS DR","m":"Franklin Park","u":"L","o":"corp","sf":109248,"v":18800}},{"type":"Feature","geometry":{"type":"Point","coordinates":[-80.08121,40.57558]},"properties":{"p":"0823E00048000000","a":"OAK LEAF LN","m":"Franklin Park","u":"L","o":"individual","sf":15305,"v":2600}},{"type":"Feature","geometry":{"type":"Point","coordinates":[-80.08621,40.58311]},"properties":{"p":"0941M00077000000","a":"ROCHESTER RD","m":"Franklin Park","u":"L","o":"individual","sf":21126,"v":25100}},{"type":"Feature","geometry":{"type":"Point","coordinates":[-80.08641,40.58372]},"properties":{"p":"0941M00091000000","a":"TRACI DR","m":"Franklin Park","u":"L","o":"individual","sf":24090,"v":75700}},{"type":"Feature","geometry":{"type":"Point","coordinates":[-80.09874,40.57271]},"properties":{"p":"0821S00261000000","a":"ROYAL OAK DR","m":"Franklin Park","u":"L","o":"corp","sf":25091,"v":20000}},{"type":"Feature","geometry":{"type":"Point","coordinates":[-80.09803,40.58783]},"properties":{"p":"0941A00161000000","a":"ROCHESTER RD","m":"Franklin Park","u":"L","o":"individual","sf":21585,"v":11700}},{"type":"Feature","geometry":{"type":"Point","coordinates":[-80.0922,40.57086]},"properties":{"p":"0822P00365000000","a":"MCALEER RD","m":"Franklin Park","u":"L","o":"individual","sf":37616,"v":8000}},{"type":"Feature","geometry":{"type":"Point","coordinates":[-80.09228,40.57141]},"properties":{"p":"0822P00369000000","a":"MCALEER RD","m":"Franklin Park","u":"L","o":"individual","sf":37176,"v":8000}},{"type":"Feature","geometry":{"type":"Point","coordinates":[-80.08895,40.58502]},"properties":{"p":"0941G00176000000","a":"ROCHESTER RD","m":"Franklin Park","u":"L","o":"individual","sf":16186,"v":1800}},{"type":"Feature","geometry":{"type":"Point","coordinates":[-80.09506,40.57355]},"properties":{"p":"0822K00055000000","a":"MCALEER RD","m":"Franklin Park","u":"L","o":"corp","sf":251341,"v":117100}},{"type":"Feature","geometry":{"type":"Point","coordinates":[-80.09376,40.57361]},"properties":{"p":"0822K00061000000","a":"MCALEER RD","m":"Franklin Park","u":"L","o":"corp","sf":24611,"v":60700}},{"type":"Feature","geometry":{"type":"Point","coordinates":[-80.09344,40.57314]},"properties":{"p":"0822K00073000000","a":"MCALEER RD","m":"Franklin Park","u":"L","o":"corp","sf":28350,"v":61200}},{"type":"Feature","geometry":{"type":"Point","coordinates":[-80.09262,40.57733]},"properties":{"p":"0822B00036000000","a":"MCALEER RD","m":"Franklin Park","u":"L","o":"individual","sf":27504,"v":3000}},{"type":"Feature","geometry":{"type":"Point","coordinates":[-80.09012,40.57786]},"properties":{"p":"0822C00004000000","a":"1660 STURBRIDGE DR","m":"Franklin Park","u":"L","o":"individual","sf":1179,"v":300}},{"type":"Feature","geometry":{"type":"Point","coordinates":[-80.08846,40.57777]},"properties":{"p":"0822C00030000000","a":"STURBRIDGE DR","m":"Franklin Park","u":"L","o":"individual","sf":6675,"v":700}},{"type":"Feature","geometry":{"type":"Point","coordinates":[-80.09445,40.58702]},"properties":{"p":"0941B00268000000","a":"ROCHESTER RD","m":"Franklin Park","u":"L","o":"individual","sf":27621,"v":3000}},{"type":"Feature","geometry":{"type":"Point","coordinates":[-80.08235,40.58736]},"properties":{"p":"0942A00306000000","a":"BELLWOOD DR","m":"Franklin Park","u":"L","o":"individual","sf":51444,"v":28600}},{"type":"Feature","geometry":{"type":"Point","coordinates":[-80.08201,40.57561]},"properties":{"p":"0823E00239000000","a":"1601 OAKLEAF LN","m":"Franklin Park","u":"L","o":"individual","sf":1437,"v":200}},{"type":"Feature","geometry":{"type":"Point","coordinates":[-80.09814,40.57998]},"properties":{"p":"0941N00002000000","a":"BLAINES WAY","m":"Franklin Park","u":"L","o":"corp","sf":143944,"v":3000}},{"type":"Feature","geometry":{"type":"Point","coordinates":[-80.08102,40.58515]},"properties":{"p":"0942E00202000000","a":"BELLWOOD DR","m":"Franklin Park","u":"L","o":"individual","sf":38573,"v":27000}},{"type":"Feature","geometry":{"type":"Point","coordinates":[-80.09152,40.5776]},"properties":{"p":"0822C00144000000","a":"MCALEER RD","m":"Franklin Park","u":"B","o":"corp","sf":108900,"v":25500}},{"type":"Feature","geometry":{"type":"Point","coordinates":[-80.09174,40.5783]},"properties":{"p":"0822C00282000000","a":"MCALEER RD","m":"Franklin Park","u":"B","o":"corp","sf":81022,"v":10700}},{"type":"Feature","geometry":{"type":"Point","coordinates":[-80.09248,40.58937]},"properties":{"p":"0941B00150000000","a":"SETTLERS DR","m":"Franklin Park","u":"B","o":"corp","sf":538358,"v":52700}}]}