{"type":"FeatureCollection","features":[{"type":"Feature","geometry":{"type":"Point","coordinates":[-80.09744,40.6138]},"properties":{"p":"1346J00025000000","a":"CARMODY CT","m":"Franklin Park","u":"C","o":"corp","sf":131116,"v":2000000}},{"type":"Feature","geometry":{"type":"Point","coordinates":[-80.09858,40.61283]},"properties":{"p":"1346J00033000000","a":"CARMODY CT","m":"Franklin Park","u":"C","o":"corp","sf":59207,"v":400000}},{"type":"Feature","geometry":{"type":"Point","coordinates":[-80.09971,40.61173]},"properties":{"p":"1346J00348000000","a":"NICHOLSON RD","m":"Franklin Park","u":"C","o":"corp","sf":1000,"v":500}},{"type":"Feature","geometry":{"type":"Point","coordinates":[-80.08864,40.6121]},"properties":{"p":"1346L00102000100","a":"BRANDT SCHOOL RD","m":"Franklin Park","u":"C","o":"corp","sf":69260,"v":121500}},{"type":"Feature","geometry":{"type":"Point","coordinates":[-80.09269,40.61593]},"properties":{"p":"1346C00002000000","a":"WEXFORD BAYNE RD","m":"Marshall","u":"C","o":"corp","sf":20072,"v":9200}},{"type":"Feature","geometry":{"type":"Point","coordinates":[-80.08783,40.61293]},"properties":{"p":"1346L00103000100","a":"FRANKLIN DR","m":"Franklin Park","u":"C","o":"corp","sf":323651,"v":546000}},{"type":"Feature","geometry":{"type":"Point","coordinates":[-80.08805,40.62958]},"properties":{"p":"1656R00065000000","a":"864 LAKE RD","m":"Bradford Woods","u":"L","o":"individual","sf":31102,"v":6500}},{"type":"Feature","geometry":{"type":"Point","coordinates":[-80.0874,40.62963]},"properties":{"p":"1656R00073000000","a":"856 LAKE RD","m":"Bradford Woods","u":"L","o":"individual","sf":32844,"v":22800}},{"type":"Feature","geometry":{"type":"Point","coordinates":[-80.09607,40.61026]},"properties":{"p":"1346N00091000000","a":"CARDINAL RIDGE CT","m":"Franklin Park","u":"L","o":"corp","sf":271004,"v":524700}},{"type":"Feature","geometry":{"type":"Point","coordinates":[-80.09803,40.61004]},"properties":{"p":"1346N00164000000","a":"ALDON DR","m":"Franklin Park","u":"L","o":"individual","sf":44867,"v":80000}},{"type":"Feature","geometry":{"type":"Point","coordinates":[-80.09941,40.61067]},"properties":{"p":"1346N00239000000","a":"2582 NICHOLSON RD","m":"Franklin Park","u":"L","o":"corp","sf":17119,"v":74200}},{"type":"Feature","geometry":{"type":"Point","coordinates":[-80.0983,40.61363]},"properties":{"p":"1346E00077000000","a":"WEXFORD BAYNE RD","m":"Franklin Park","u":"L","o":"corp","sf":32027,"v":82200}},{"type":"Feature","geometry":{"type":"Point","coordinates":[-80.09821,40.61562]},"properties":{"p":"1346E00237000000","a":"WEXFORD BAYNE RD","m":"Franklin Park","u":"L","o":"individual","sf":3484,"v":600}},{"type":"Feature","geometry":{"type":"Point","coordinates":[-80.09911,40.61015]},"properties":{"p":"1346N00274000000","a":"NICHOLSON RD","m":"Franklin Park","u":"L","o":"corp","sf":15751,"v":2800}},{"type":"Feature","geometry":{"type":"Point","coordinates":[-80.09916,40.61108]},"properties":{"p":"1346J00361000000","a":"2582 NICHOLSON RD","m":"Franklin Park","u":"L","o":"corp","sf":54886,"v":86400}},{"type":"Feature","geometry":{"type":"Point","coordinates":[-80.08645,40.61658]},"properties":{"p":"1346D00013000000","a":"DAVIDFORD DR","m":"Marshall","u":"L","o":"individual","sf":125888,"v":20200}},{"type":"Feature","geometry":{"type":"Point","coordinates":[-80.08606,40.61756]},"properties":{"p":"1346D00020000000","a":"750 WEXFORD BAYNE RD","m":"Marshall","u":"L","o":"individual","sf":19690,"v":72400}},{"type":"Feature","geometry":{"type":"Point","coordinates":[-80.0996,40.62211]},"properties":{"p":"1497J00001000000","a":"SUNNY HILL RD","m":"Marshall","u":"L","o":"corp","sf":391169,"v":62100}},{"type":"Feature","geometry":{"type":"Point","coordinates":[-80.09194,40.62768]},"properties":{"p":"1656P00010000000","a":"NEELY SCHOOL RD","m":"Marshall","u":"L","o":"corp","sf":327572,"v":314000}},{"type":"Feature","geometry":{"type":"Point","coordinates":[-80.09442,40.6293]},"properties":{"p":"1656P00015000000","a":"QUAIL HOLLOW LN","m":"Marshall","u":"L","o":"individual","sf":34282,"v":10000}},{"type":"Feature","geometry":{"type":"Point","coordinates":[-80.08851,40.62947]},"properties":{"p":"1656R00003000000","a":"LAKE RD","m":"Marshall","u":"L","o":"individual","sf":10123,"v":300}},{"type":"Feature","geometry":{"type":"Point","coordinates":[-80.08888,40.62993]},"properties":{"p":"1656R00004000000","a":"TURTLE LN","m":"Marshall","u":"L","o":"individual","sf":82328,"v":20200}},{"type":"Feature","geometry":{"type":"Point","coordinates":[-80.08975,40.62985]},"properties":{"p":"1656R00005000000","a":"LAKE RD","m":"Marshall","u":"L","o":"individual","sf":87120,"v":20400}},{"type":"Feature","geometry":{"type":"Point","coordinates":[-80.09853,40.62904]},"properties":{"p":"1656N00005000000","a":"ROUTE 856","m":"Marshall","u":"L","o":"individual","sf":65340,"v":800}},{"type":"Feature","geometry":{"type":"Point","coordinates":[-80.09203,40.62969]},"properties":{"p":"1656P00001000000","a":"NEELY SCHOOL RD","m":"Marshall","u":"L","o":"individual","sf":134600,"v":31400}},{"type":"Feature","geometry":{"type":"Point","coordinates":[-80.09987,40.62674]},"properties":{"p":"1497A00005000000","a":"MINGO RD","m":"Marshall","u":"L","o":"individual","sf":70132,"v":6400}},{"type":"Feature","geometry":{"type":"Point","coordinates":[-80.09801,40.62194]},"properties":{"p":"1497N00004000000","a":"SUNNY HILL RD","m":"Marshall","u":"L","o":"corp","sf":396396,"v":62300}},{"type":"Feature","geometry":{"type":"Point","coordinates":[-80.08457,40.61937]},"properties":{"p":"1497S00012000000","a":"LEIDECKER LN","m":"Marshall","u":"L","o":"corp","sf":41469,"v":16300}},{"type":"Feature","geometry":{"type":"Point","coordinates":[-80.08753,40.6162]},"properties":{"p":"1346C00001000000","a":"WEXFORD BAYNE RD","m":"Marshall","u":"L","o":"corp","sf":25134,"v":9900}},{"type":"Feature","geometry":{"type":"Point","coordinates":[-80.08908,40.61644]},"properties":{"p":"1346C00006000000","a":"WEXFORD BAYNE RD","m":"Marshall","u":"L","o":"corp","sf":53187,"v":77800}},{"type":"Feature","geometry":{"type":"Point","coordinates":[-80.08567,40.61748]},"properties":{"p":"1497S00006000000","a":"740 WEXFORD BAYNE RD","m":"Marshall","u":"L","o":"corp","sf":2157,"v":900}},{"type":"Feature","geometry":{"type":"Point","coordinates":[-80.08669,40.61835]},"properties":{"p":"1497S00007000000","a":"747 WEXFORD BAYNE RD","m":"Marshall","u":"L","o":"individual","sf":34848,"v":81400}},{"type":"Feature","geometry":{"type":"Point","coordinates":[-80.09891,40.62004]},"properties":{"p":"1497N00005000000","a":"170 SUNNY HILL RD","m":"Marshall","u":"L","o":"corp","sf":335978,"v":63100}},{"type":"Feature","geometry":{"type":"Point","coordinates":[-80.09773,40.61874]},"properties":{"p":"1497N00006000000","a":"128 SUNNY HILL RD","m":"Marshall","u":"L","o":"individual","sf":370,"v":100}},{"type":"Feature","geometry":{"type":"Point","coordinates":[-80.08744,40.617]},"properties":{"p":"1346C00010000000","a":"WEXFORD BAYNE RD","m":"Marshall","u":"L","o":"corp","sf":61855,"v":79200}},{"type":"Feature","geometry":{"type":"Point","coordinates":[-80.09922,40.61211]},"properties":{"p":"1346J00341000000","a":"NICHOLSON RD","m":"Franklin Park","u":"B","o":"corp","sf":43978,"v":16400}},{"type":"Feature","geometry":{"type":"Point","coordinates":[-80.0838,40.61588]},"properties":{"p":"1346H00004000000","a":"1828 WILLOW OAK DR","m":"Franklin Park","u":"B","o":"individual","sf":19994,"v":11200}}]}