{"type":"FeatureCollection","features":[{"type":"Feature","geometry":{"type":"Point","coordinates":[-80.08123,40.64509]},"properties":{"p":"1824A00305000000","a":"SHENOT RD","m":"Bradford Woods","u":"C","o":"corp","sf":97487,"v":250000}},{"type":"Feature","geometry":{"type":"Point","coordinates":[-80.08892,40.63828]},"properties":{"p":"1823R00066000000","a":"SELDOM SEEN RD","m":"Bradford Woods","u":"L","o":"corp","sf":8793,"v":1900}},{"type":"Feature","geometry":{"type":"Point","coordinates":[-80.08347,40.6339]},"properties":{"p":"1657E00386000000","a":"DELMAR RD","m":"Bradford Woods","u":"L","o":"individual","sf":43560,"v":94900}},{"type":"Feature","geometry":{"type":"Point","coordinates":[-80.08502,40.64005]},"properties":{"p":"1823S00362000000","a":"4929 WEXFORD RUN RD","m":"Bradford Woods","u":"L","o":"individual","sf":43560,"v":60000}},{"type":"Feature","geometry":{"type":"Point","coordinates":[-80.087,40.64151]},"properties":{"p":"1823M00399000000","a":"CRYSTAL SPRINGS RD","m":"Bradford Woods","u":"L","o":"individual","sf":40000,"v":20000}},{"type":"Feature","geometry":{"type":"Point","coordinates":[-80.09458,40.63803]},"properties":{"p":"1823P00118000000","a":"21 MARKET CT","m":"Bradford Woods","u":"L","o":"individual","sf":932,"v":200}},{"type":"Feature","geometry":{"type":"Point","coordinates":[-80.08547,40.63896]},"properties":{"p":"1823S00127000000","a":"WEXFORD RUN RD","m":"Bradford Woods","u":"L","o":"corp","sf":4262,"v":900}},{"type":"Feature","geometry":{"type":"Point","coordinates":[-80.08742,40.63611]},"properties":{"p":"1656C00018000000","a":"WOODLAND RD","m":"Bradford Woods","u":"L","o":"individual","sf":92783,"v":105000}},{"type":"Feature","geometry":{"type":"Point","coordinates":[-80.08854,40.63499]},"properties":{"p":"1656G00048000000","a":"BRADFORD RD","m":"Bradford Woods","u":"L","o":"corp","sf":5097,"v":1100}},{"type":"Feature","geometry":{"type":"Point","coordinates":[-80.09628,40.6358]},"properties":{"p":"1656A00083000000","a":"226 NEELY SCHOOL RD","m":"Bradford Woods","u":"L","o":"individual","sf":23261,"v":4900}},{"type":"Feature","geometry":{"type":"Point","coordinates":[-80.08044,40.63124]},"properties":{"p":"1657J00235000000","a":"BELLAIRE RD","m":"Bradford Woods","u":"L","o":"individual","sf":25141,"v":5300}},{"type":"Feature","geometry":{"type":"Point","coordinates":[-80.08077,40.6313]},"properties":{"p":"1657J00240000000","a":"BELLAIRE RD","m":"Bradford Woods","u":"L","o":"corp","sf":24657,"v":5200}},{"type":"Feature","geometry":{"type":"Point","coordinates":[-80.08307,40.63041]},"properties":{"p":"1656S00352000000","a":"759 WOODLAND RD","m":"Bradford Woods","u":"L","o":"individual","sf":131116,"v":215500}},{"type":"Feature","geometry":{"type":"Point","coordinates":[-80.08367,40.64163]},"properties":{"p":"1823M00081000000","a":"OAK GROVE RD","m":"Bradford Woods","u":"L","o":"corp","sf":43500,"v":9100}},{"type":"Feature","geometry":{"type":"Point","coordinates":[-80.08461,40.64068]},"properties":{"p":"1823M00121000000","a":"207 OAK GROVE RD","m":"Bradford Woods","u":"L","o":"individual","sf":14520,"v":3100}},{"type":"Feature","geometry":{"type":"Point","coordinates":[-80.08148,40.63145]},"properties":{"p":"1657J00335000000","a":"BELLAIRE RD","m":"Bradford Woods","u":"L","o":"individual","sf":79584,"v":102300}},{"type":"Feature","geometry":{"type":"Point","coordinates":[-80.08129,40.63042]},"properties":{"p":"1657J00346000000","a":"CENTERVUE RD","m":"Bradford Woods","u":"L","o":"individual","sf":64904,"v":20000}},{"type":"Feature","geometry":{"type":"Point","coordinates":[-80.08232,40.63032]},"properties":{"p":"1657J00351000000","a":"CENTERVUE RD","m":"Bradford Woods","u":"L","o":"individual","sf":40729,"v":8600}},{"type":"Feature","geometry":{"type":"Point","coordinates":[-80.08124,40.64074]},"properties":{"p":"1824J00317000000","a":"126 FOREST RD","m":"Bradford Woods","u":"L","o":"individual","sf":29959,"v":6300}},{"type":"Feature","geometry":{"type":"Point","coordinates":[-80.0883,40.63137]},"properties":{"p":"1656L00064000000","a":"728 WOODLAND RD","m":"Bradford Woods","u":"L","o":"individual","sf":5227,"v":1100}},{"type":"Feature","geometry":{"type":"Point","coordinates":[-80.08817,40.63079]},"properties":{"p":"1656L00072000000","a":"732 WOODLAND RD","m":"Bradford Woods","u":"L","o":"individual","sf":46174,"v":11000}},{"type":"Feature","geometry":{"type":"Point","coordinates":[-80.08351,40.63204]},"properties":{"p":"1656M00047000000","a":"DELMAR RD","m":"Bradford Woods","u":"L","o":"individual","sf":43560,"v":94900}},{"type":"Feature","geometry":{"type":"Point","coordinates":[-80.08394,40.6478]},"properties":{"p":"1998S00001000000","a":"HARMONY RD","m":"Marshall","u":"L","o":"individual","sf":6098,"v":2500}},{"type":"Feature","geometry":{"type":"Point","coordinates":[-80.0858,40.64856]},"properties":{"p":"1998S00007000000","a":"VANDER RD","m":"Marshall","u":"L","o":"individual","sf":21705,"v":72700}},{"type":"Feature","geometry":{"type":"Point","coordinates":[-80.08337,40.64629]},"properties":{"p":"1823D00019000000","a":"HARMONY RD","m":"Marshall","u":"L","o":"individual","sf":2998,"v":1300}},{"type":"Feature","geometry":{"type":"Point","coordinates":[-80.08899,40.63136]},"properties":{"p":"1656L00011000000","a":"WOODLAND RD","m":"Marshall","u":"L","o":"individual","sf":28314,"v":46600}},{"type":"Feature","geometry":{"type":"Point","coordinates":[-80.08895,40.64232]},"properties":{"p":"1823L00011000000","a":"SHENOT RD","m":"Marshall","u":"L","o":"individual","sf":43996,"v":30000}},{"type":"Feature","geometry":{"type":"Point","coordinates":[-80.08995,40.64109]},"properties":{"p":"1823L00014000000","a":"SHENOT RD","m":"Marshall","u":"L","o":"individual","sf":39378,"v":15500}},{"type":"Feature","geometry":{"type":"Point","coordinates":[-80.09635,40.63529]},"properties":{"p":"1656A00004000000","a":"NEELY SCHOOL RD","m":"Marshall","u":"L","o":"individual","sf":57499,"v":700}},{"type":"Feature","geometry":{"type":"Point","coordinates":[-80.09142,40.63396]},"properties":{"p":"1656F00022000000","a":"BRADFORD RD","m":"Marshall","u":"L","o":"individual","sf":7306,"v":3000}},{"type":"Feature","geometry":{"type":"Point","coordinates":[-80.09622,40.63548]},"properties":{"p":"1656A00003000000","a":"NEELY SCHOOL RD","m":"Marshall","u":"L","o":"individual","sf":1557,"v":700}},{"type":"Feature","geometry":{"type":"Point","coordinates":[-80.09853,40.64148]},"properties":{"p":"1823J00006000000","a":"WEXFORD RUN RD","m":"Marshall","u":"L","o":"individual","sf":4356,"v":400}},{"type":"Feature","geometry":{"type":"Point","coordinates":[-80.08705,40.64759]},"properties":{"p":"1998S00011000000","a":"WHEATLAND RD","m":"Marshall","u":"L","o":"individual","sf":17644,"v":7000}},{"type":"Feature","geometry":{"type":"Point","coordinates":[-80.08813,40.64142]},"properties":{"p":"1823L00044000000","a":"SHENOT RD","m":"Marshall","u":"L","o":"individual","sf":2352,"v":1000}},{"type":"Feature","geometry":{"type":"Point","coordinates":[-80.08813,40.64123]},"properties":{"p":"1823L00090000000","a":"CRYSTAL SPRINGS RD","m":"Marshall","u":"L","o":"individual","sf":2352,"v":1000}},{"type":"Feature","geometry":{"type":"Point","coordinates":[-80.09695,40.63787]},"properties":{"p":"1823N00014000000","a":"NEELY SCHOOL RD","m":"Marshall","u":"L","o":"individual","sf":8450,"v":3400}},{"type":"Feature","geometry":{"type":"Point","coordinates":[-80.09691,40.63832]},"properties":{"p":"1823N00015000000","a":"NEELY SCHOOL RD","m":"Marshall","u":"L","o":"individual","sf":5227,"v":2100}},{"type":"Feature","geometry":{"type":"Point","coordinates":[-80.08555,40.64962]},"properties":{"p":"1998M00020000000","a":"117 VANDER RD","m":"Marshall","u":"L","o":"individual","sf":9347,"v":3700}},{"type":"Feature","geometry":{"type":"Point","coordinates":[-80.09766,40.64773]},"properties":{"p":"1998N00005000000","a":"WARRENDALE BAYNE RD","m":"Marshall","u":"L","o":"corp","sf":74923,"v":45000}},{"type":"Feature","geometry":{"type":"Point","coordinates":[-80.09731,40.64832]},"properties":{"p":"1998N00006000000","a":"WARRENDALE BAYNE RD","m":"Marshall","u":"L","o":"individual","sf":7841,"v":700}},{"type":"Feature","geometry":{"type":"Point","coordinates":[-80.08274,40.63987]},"properties":{"p":"1824J00214000000","a":"FOREST RD","m":"Bradford Woods","u":"L","o":"individual","sf":46174,"v":73600}},{"type":"Feature","geometry":{"type":"Point","coordinates":[-80.08216,40.63167]},"properties":{"p":"1657J00370000000","a":"BELLAIRE RD","m":"Bradford Woods","u":"L","o":"individual","sf":37984,"v":8000}},{"type":"Feature","geometry":{"type":"Point","coordinates":[-80.08574,40.64825]},"properties":{"p":"1998S00006000000","a":"VANDER RD","m":"Marshall","u":"L","o":"individual","sf":7928,"v":3200}},{"type":"Feature","geometry":{"type":"Point","coordinates":[-80.08505,40.63763]},"properties":{"p":"1823S00048000000","a":"SELDOM SEEN RD","m":"Bradford Woods","u":"L","o":"individual","sf":43996,"v":85200}},{"type":"Feature","geometry":{"type":"Point","coordinates":[-80.08223,40.64688]},"properties":{"p":"1824A00113000000","a":"SHENOT RD","m":"Marshall","u":"L","o":"corp","sf":3798,"v":0}},{"type":"Feature","geometry":{"type":"Point","coordinates":[-80.09845,40.64772]},"properties":{"p":"1998N00004000000","a":"BAYNE RD","m":"Marshall","u":"L","o":"corp","sf":182081,"v":54900}},{"type":"Feature","geometry":{"type":"Point","coordinates":[-80.09197,40.64888]},"properties":{"p":"1998P00008000000","a":"BRIDLE PATH DR","m":"Marshall","u":"L","o":"individual","sf":12163,"v":1200}},{"type":"Feature","geometry":{"type":"Point","coordinates":[-80.09008,40.64142]},"properties":{"p":"1823L00015000000","a":"WEXFORD RUN RD","m":"Marshall","u":"L","o":"individual","sf":21000,"v":8300}},{"type":"Feature","geometry":{"type":"Point","coordinates":[-80.09014,40.63404]},"properties":{"p":"1656G00012000000","a":"BRADFORD RD","m":"Marshall","u":"B","o":"corp","sf":97531,"v":25400}}]}