{"type":"FeatureCollection","features":[{"type":"Feature","geometry":{"type":"Point","coordinates":[-80.08964,40.5517]},"properties":{"p":"0608R00175000000","a":"MT NEBO RD","m":"Ohio","u":"C","o":"corp","sf":495979,"v":34200}},{"type":"Feature","geometry":{"type":"Point","coordinates":[-80.08927,40.5548]},"properties":{"p":"0608L00078000000","a":"DOUGLAS RD","m":"Ohio","u":"C","o":"corp","sf":48177,"v":11100}},{"type":"Feature","geometry":{"type":"Point","coordinates":[-80.08138,40.55031]},"properties":{"p":"0609N00050000000","a":"100 -2728 BEAR RUN DR","m":"Ohio","u":"C","o":"corp","sf":865973,"v":110000}},{"type":"Feature","geometry":{"type":"Point","coordinates":[-80.08724,40.55682]},"properties":{"p":"0608H00175000000","a":"MCALEER RD","m":"Ohio","u":"C","o":"corp","sf":43560,"v":29500}},{"type":"Feature","geometry":{"type":"Point","coordinates":[-80.09028,40.55957]},"properties":{"p":"0608C00011000100","a":"ALAQUA DR","m":"Franklin Park","u":"L","o":"individual","sf":15507,"v":24000}},{"type":"Feature","geometry":{"type":"Point","coordinates":[-80.08282,40.55794]},"properties":{"p":"0608D00025000000","a":"VALLEY VIEW CT","m":"Franklin Park","u":"L","o":"corp","sf":226948,"v":6100}},{"type":"Feature","geometry":{"type":"Point","coordinates":[-80.08731,40.55825]},"properties":{"p":"0608D00374000000","a":"MCALEER RD","m":"Franklin Park","u":"L","o":"individual","sf":6789,"v":1200}},{"type":"Feature","geometry":{"type":"Point","coordinates":[-80.08002,40.56608]},"properties":{"p":"0712E00062000000","a":"AURORA DR","m":"Franklin Park","u":"L","o":"corp","sf":1873,"v":300}},{"type":"Feature","geometry":{"type":"Point","coordinates":[-80.0993,40.5684]},"properties":{"p":"0711A00029000000","a":"MONTGOMERY RD","m":"Franklin Park","u":"L","o":"individual","sf":16975,"v":2900}},{"type":"Feature","geometry":{"type":"Point","coordinates":[-80.09201,40.56915]},"properties":{"p":"0711B00191000000","a":"MCALEER RD","m":"Franklin Park","u":"L","o":"individual","sf":28128,"v":5000}},{"type":"Feature","geometry":{"type":"Point","coordinates":[-80.09206,40.56956]},"properties":{"p":"0711B00195000000","a":"MCALEER RD","m":"Franklin Park","u":"L","o":"individual","sf":28208,"v":25000}},{"type":"Feature","geometry":{"type":"Point","coordinates":[-80.0908,40.56306]},"properties":{"p":"0711L00270000000","a":"MCALEER RD","m":"Franklin Park","u":"L","o":"individual","sf":64904,"v":800}},{"type":"Feature","geometry":{"type":"Point","coordinates":[-80.09057,40.56231]},"properties":{"p":"0711L00316000000","a":"MCALEER RD","m":"Franklin Park","u":"L","o":"individual","sf":24786,"v":4500}},{"type":"Feature","geometry":{"type":"Point","coordinates":[-80.08642,40.5645]},"properties":{"p":"0711M00050000000","a":"INTERSTATE 279","m":"Franklin Park","u":"L","o":"corp","sf":303962,"v":12100}},{"type":"Feature","geometry":{"type":"Point","coordinates":[-80.08661,40.56046]},"properties":{"p":"0711S00032000000","a":"2212 MCALEER RD","m":"Franklin Park","u":"L","o":"individual","sf":144619,"v":1700}},{"type":"Feature","geometry":{"type":"Point","coordinates":[-80.08017,40.55411]},"properties":{"p":"0609J00176000000","a":"ARNDT RD","m":"Franklin Park","u":"L","o":"individual","sf":45302,"v":79400}},{"type":"Feature","geometry":{"type":"Point","coordinates":[-80.0972,40.56426]},"properties":{"p":"0711J00064000100","a":"SEBAGO LAKE DR","m":"Franklin Park","u":"L","o":"individual","sf":3485,"v":4500}},{"type":"Feature","geometry":{"type":"Point","coordinates":[-80.09374,40.56393]},"properties":{"p":"0711K00004000000","a":"NICHOLSON RD","m":"Franklin Park","u":"L","o":"individual","sf":43560,"v":7500}},{"type":"Feature","geometry":{"type":"Point","coordinates":[-80.08887,40.563]},"properties":{"p":"0711L00203000000","a":"MCALEER RD","m":"Franklin Park","u":"L","o":"individual","sf":53579,"v":25000}},{"type":"Feature","geometry":{"type":"Point","coordinates":[-80.08933,40.56335]},"properties":{"p":"0711L00214000000","a":"MCALEER RD","m":"Franklin Park","u":"L","o":"individual","sf":61855,"v":14600}},{"type":"Feature","geometry":{"type":"Point","coordinates":[-80.09179,40.56048]},"properties":{"p":"0711P00023000100","a":"1552 ALAQUA DR","m":"Franklin Park","u":"L","o":"individual","sf":11979,"v":18600}},{"type":"Feature","geometry":{"type":"Point","coordinates":[-80.0977,40.56522]},"properties":{"p":"0711E00068000000","a":"SEBAGO LAKE DR","m":"Franklin Park","u":"L","o":"individual","sf":15420,"v":2000}},{"type":"Feature","geometry":{"type":"Point","coordinates":[-80.09819,40.56492]},"properties":{"p":"0711E00070000000","a":"SEBAGO LAKE DR","m":"Franklin Park","u":"L","o":"individual","sf":4356,"v":5600}},{"type":"Feature","geometry":{"type":"Point","coordinates":[-80.08594,40.55053]},"properties":{"p":"0608S00092000000","a":"LOWRIES RUN RD","m":"Ohio","u":"L","o":"individual","sf":2787,"v":300}},{"type":"Feature","geometry":{"type":"Point","coordinates":[-80.08837,40.55471]},"properties":{"p":"0608L00076000000","a":"DOUGLAS RD","m":"Ohio","u":"L","o":"individual","sf":77624,"v":7100}},{"type":"Feature","geometry":{"type":"Point","coordinates":[-80.0826,40.55245]},"properties":{"p":"0609N00016000000","a":"217 ARNDT RD","m":"Ohio","u":"L","o":"individual","sf":10193,"v":900}},{"type":"Feature","geometry":{"type":"Point","coordinates":[-80.08861,40.55509]},"properties":{"p":"0608G00047000000","a":"DOUGLAS RD","m":"Ohio","u":"L","o":"corp","sf":6621,"v":27200}},{"type":"Feature","geometry":{"type":"Point","coordinates":[-80.08627,40.55572]},"properties":{"p":"0608H00088000000","a":"MCALEER RD","m":"Ohio","u":"L","o":"corp","sf":39770,"v":37500}},{"type":"Feature","geometry":{"type":"Point","coordinates":[-80.08876,40.55001]},"properties":{"p":"0608R00094000100","a":"MOUNT NEBO RD","m":"Ohio","u":"L","o":"corp","sf":198634,"v":18200}},{"type":"Feature","geometry":{"type":"Point","coordinates":[-80.09794,40.55905]},"properties":{"p":"0608A00014000100","a":"LAUREL OAK DR","m":"Ohio","u":"L","o":"individual","sf":218,"v":1000}},{"type":"Feature","geometry":{"type":"Point","coordinates":[-80.08344,40.55047]},"properties":{"p":"0513D00025000000","a":"MOUNT NEBO RD","m":"Ohio","u":"L","o":"corp","sf":423403,"v":12000}},{"type":"Feature","geometry":{"type":"Point","coordinates":[-80.09269,40.56126]},"properties":{"p":"0711P00017000100","a":"ALAQUA DR","m":"Ohio","u":"L","o":"corp","sf":5401,"v":1400}},{"type":"Feature","geometry":{"type":"Point","coordinates":[-80.09327,40.56168]},"properties":{"p":"0711P00018000100","a":"ALAQUA DR","m":"Ohio","u":"L","o":"individual","sf":566,"v":200}},{"type":"Feature","geometry":{"type":"Point","coordinates":[-80.09238,40.56101]},"properties":{"p":"0711P00019000100","a":"ALAQUA DR","m":"Ohio","u":"L","o":"individual","sf":4835,"v":1300}},{"type":"Feature","geometry":{"type":"Point","coordinates":[-80.09216,40.56079]},"properties":{"p":"0711P00021000100","a":"ALAQUA DR","m":"Ohio","u":"L","o":"corp","sf":14157,"v":10000}},{"type":"Feature","geometry":{"type":"Point","coordinates":[-80.0915,40.56028]},"properties":{"p":"0711R00004000100","a":"ALAQUA DR","m":"Ohio","u":"L","o":"individual","sf":12720,"v":3300}},{"type":"Feature","geometry":{"type":"Point","coordinates":[-80.09123,40.56017]},"properties":{"p":"0711R00006000100","a":"ALAQUA DR","m":"Ohio","u":"L","o":"individual","sf":11979,"v":3100}},{"type":"Feature","geometry":{"type":"Point","coordinates":[-80.09806,40.56473]},"properties":{"p":"0711E00067000100","a":"SEBAGO LAKE DR","m":"Ohio","u":"L","o":"individual","sf":6098,"v":1600}},{"type":"Feature","geometry":{"type":"Point","coordinates":[-80.09809,40.56298]},"properties":{"p":"0711J00010000000","a":"SEBAGO LAKE DR","m":"Ohio","u":"L","o":"individual","sf":3833,"v":18000}},{"type":"Feature","geometry":{"type":"Point","coordinates":[-80.08808,40.55336]},"properties":{"p":"0608M00050000100","a":"DOUGLAS RD","m":"Ohio","u":"L","o":"corp","sf":12284,"v":1100}},{"type":"Feature","geometry":{"type":"Point","coordinates":[-80.09774,40.56451]},"properties":{"p":"0711J00066000100","a":"133 SEBAGO LAKE DR","m":"Ohio","u":"L","o":"individual","sf":6098,"v":1600}},{"type":"Feature","geometry":{"type":"Point","coordinates":[-80.0953,40.55235]},"properties":{"p":"0608P00115000000","a":"CHERYL DR","m":"Ohio","u":"L","o":"corp","sf":32266,"v":15600}},{"type":"Feature","geometry":{"type":"Point","coordinates":[-80.08681,40.55347]},"properties":{"p":"0608S00121000000","a":"MCALEER RD","m":"Ohio","u":"L","o":"individual","sf":235747,"v":21200}},{"type":"Feature","geometry":{"type":"Point","coordinates":[-80.09011,40.55026]},"properties":{"p":"0608R00087000001","a":"LOWRIES RUN RD","m":"Ohio","u":"L","o":"individual","sf":35022,"v":3200}},{"type":"Feature","geometry":{"type":"Point","coordinates":[-80.08784,40.56836]},"properties":{"p":"0711C00341000000","a":"1730 STURBRIDGE DR","m":"Franklin Park","u":"B","o":"individual","sf":108234,"v":115000}},{"type":"Feature","geometry":{"type":"Point","coordinates":[-80.08809,40.56764]},"properties":{"p":"0711C00343000000","a":"1734 STURBRIDGE DR","m":"Franklin Park","u":"B","o":"individual","sf":106034,"v":134800}},{"type":"Feature","geometry":{"type":"Point","coordinates":[-80.08814,40.56726]},"properties":{"p":"0711C00344000000","a":"1736 STURBRIDGE DR","m":"Franklin Park","u":"B","o":"individual","sf":103468,"v":23100}},{"type":"Feature","geometry":{"type":"Point","coordinates":[-80.0882,40.56691]},"properties":{"p":"0711C00345000000","a":"1738 STURBRIDGE DR","m":"Franklin Park","u":"B","o":"individual","sf":85822,"v":19200}}]}