{"type":"FeatureCollection","features":[{"type":"Feature","geometry":{"type":"Point","coordinates":[-80.08052,40.32791]},"properties":{"p":"0478N00205000000","a":"OLD WASHINGTON RD","m":"Upper St. Clair","u":"C","o":"corp","sf":31754,"v":64000}},{"type":"Feature","geometry":{"type":"Point","coordinates":[-80.08023,40.32817]},"properties":{"p":"0478N00207000000","a":"OLD WASHINGTON RD","m":"Upper St. Clair","u":"C","o":"corp","sf":31284,"v":63300}},{"type":"Feature","geometry":{"type":"Point","coordinates":[-80.08115,40.32032]},"properties":{"p":"0569J00160000000","a":"HUNTINGTON DR","m":"Upper St. Clair","u":"C","o":"corp","sf":87120,"v":34900}},{"type":"Feature","geometry":{"type":"Point","coordinates":[-80.0884,40.31838]},"properties":{"p":"0570R00045000000","a":"WASHINGTON RD","m":"Upper St. Clair","u":"C","o":"corp","sf":16362,"v":7500}},{"type":"Feature","geometry":{"type":"Point","coordinates":[-80.09268,40.32951]},"properties":{"p":"0479K00150000000","a":"RIDGEWOOD RD","m":"Upper St. Clair","u":"L","o":"corp","sf":6882,"v":0}},{"type":"Feature","geometry":{"type":"Point","coordinates":[-80.09562,40.32931]},"properties":{"p":"0479J00175000000","a":"MORTON RD","m":"Upper St. Clair","u":"L","o":"corp","sf":26354,"v":0}},{"type":"Feature","geometry":{"type":"Point","coordinates":[-80.09341,40.32978]},"properties":{"p":"0479K00131000000","a":"HASTINGS MILL RD","m":"Upper St. Clair","u":"L","o":"individual","sf":3168,"v":500}},{"type":"Feature","geometry":{"type":"Point","coordinates":[-80.09297,40.32969]},"properties":{"p":"0479K00132000000","a":"RIDGEWOOD RD","m":"Upper St. Clair","u":"L","o":"corp","sf":4661,"v":0}},{"type":"Feature","geometry":{"type":"Point","coordinates":[-80.09409,40.32734]},"properties":{"p":"0479P00102000000","a":"GLENWOOD RD","m":"Upper St. Clair","u":"L","o":"corp","sf":4792,"v":0}},{"type":"Feature","geometry":{"type":"Point","coordinates":[-80.095,40.32811]},"properties":{"p":"0479P00139000000","a":"GLENWOOD RD","m":"Upper St. Clair","u":"L","o":"corp","sf":87991,"v":0}},{"type":"Feature","geometry":{"type":"Point","coordinates":[-80.09265,40.32274]},"properties":{"p":"0570R00230000002","a":"PARTRIDGE DR","m":"Upper St. Clair","u":"L","o":"corp","sf":2210,"v":400}},{"type":"Feature","geometry":{"type":"Point","coordinates":[-80.08339,40.32497]},"properties":{"p":"0570D00180000000","a":"WASHINGTON RD","m":"Upper St. Clair","u":"L","o":"corp","sf":38154,"v":74100}},{"type":"Feature","geometry":{"type":"Point","coordinates":[-80.09745,40.32265]},"properties":{"p":"0570E00074000000","a":"MORTON RD","m":"Upper St. Clair","u":"L","o":"individual","sf":17008,"v":2700}},{"type":"Feature","geometry":{"type":"Point","coordinates":[-80.0954,40.31379]},"properties":{"p":"0669E00047000000","a":"2643 QUAIL HILL DR","m":"Upper St. Clair","u":"L","o":"individual","sf":1293,"v":200}},{"type":"Feature","geometry":{"type":"Point","coordinates":[-80.08173,40.31771]},"properties":{"p":"0569N00280000000","a":"JOHNSTON RD","m":"Upper St. Clair","u":"L","o":"individual","sf":6335,"v":800}},{"type":"Feature","geometry":{"type":"Point","coordinates":[-80.08194,40.3122]},"properties":{"p":"0668E00070000000","a":"HARDY DR","m":"Upper St. Clair","u":"L","o":"individual","sf":65558,"v":15100}},{"type":"Feature","geometry":{"type":"Point","coordinates":[-80.08012,40.31553]},"properties":{"p":"0668A00164000000","a":"ORCHARD DR","m":"Upper St. Clair","u":"L","o":"individual","sf":29303,"v":57200}},{"type":"Feature","geometry":{"type":"Point","coordinates":[-80.08283,40.32259]},"properties":{"p":"0570H00030000000","a":"OLD WASHINGTON RD","m":"Upper St. Clair","u":"L","o":"individual","sf":38308,"v":30900}},{"type":"Feature","geometry":{"type":"Point","coordinates":[-80.08919,40.32391]},"properties":{"p":"0570G00110000000","a":"CHAPELWOOD DR","m":"Upper St. Clair","u":"L","o":"individual","sf":14878,"v":2400}},{"type":"Feature","geometry":{"type":"Point","coordinates":[-80.09558,40.31544]},"properties":{"p":"0669A00059000000","a":"BOYCE RD","m":"Upper St. Clair","u":"L","o":"individual","sf":13181,"v":2100}},{"type":"Feature","geometry":{"type":"Point","coordinates":[-80.0959,40.32206]},"properties":{"p":"0570E00025000000","a":"SHENANDOAH DR","m":"Upper St. Clair","u":"L","o":"individual","sf":2175,"v":400}},{"type":"Feature","geometry":{"type":"Point","coordinates":[-80.08201,40.32162]},"properties":{"p":"0569E00250000000","a":"HUNTINGTON DR","m":"Upper St. Clair","u":"L","o":"corp","sf":12192,"v":1600}},{"type":"Feature","geometry":{"type":"Point","coordinates":[-80.08598,40.31875]},"properties":{"p":"0570S00240000000","a":"2511 OLD WASHINGTON RD","m":"Upper St. Clair","u":"L","o":"corp","sf":100275,"v":66200}},{"type":"Feature","geometry":{"type":"Point","coordinates":[-80.09312,40.31025]},"properties":{"p":"0669K00119000000","a":"THORNTREE DR","m":"Upper St. Clair","u":"L","o":"individual","sf":7520,"v":1200}},{"type":"Feature","geometry":{"type":"Point","coordinates":[-80.09324,40.31012]},"properties":{"p":"0669K00120000000","a":"THORNTREE DR","m":"Upper St. Clair","u":"L","o":"corp","sf":3060,"v":500}},{"type":"Feature","geometry":{"type":"Point","coordinates":[-80.08751,40.3144]},"properties":{"p":"0669C00006000000","a":"OLD WASHINGTON RD","m":"Upper St. Clair","u":"L","o":"individual","sf":18770,"v":55800}},{"type":"Feature","geometry":{"type":"Point","coordinates":[-80.08816,40.31418]},"properties":{"p":"0669G00080000000","a":"OLD WASHINGTON RD","m":"Upper St. Clair","u":"L","o":"individual","sf":2837,"v":400}},{"type":"Feature","geometry":{"type":"Point","coordinates":[-80.08782,40.31374]},"properties":{"p":"0669G00094000000","a":"OLD WASHINGTON RD","m":"Upper St. Clair","u":"L","o":"individual","sf":11497,"v":1500}},{"type":"Feature","geometry":{"type":"Point","coordinates":[-80.08463,40.32569]},"properties":{"p":"0570D00110000000","a":"HASTINGS MILL RD","m":"Upper St. Clair","u":"L","o":"individual","sf":5746,"v":900}},{"type":"Feature","geometry":{"type":"Point","coordinates":[-80.08683,40.32599]},"properties":{"p":"0570C00012000000","a":"1711 HASTINGS MILL RD","m":"Upper St. Clair","u":"L","o":"corp","sf":31038,"v":73000}},{"type":"Feature","geometry":{"type":"Point","coordinates":[-80.09107,40.3262]},"properties":{"p":"0479R00395000000","a":"HASTINGS MILL RD","m":"Upper St. Clair","u":"L","o":"corp","sf":1808,"v":300}},{"type":"Feature","geometry":{"type":"Point","coordinates":[-80.08437,40.31082]},"properties":{"p":"0669M00024000000","a":"2550 FOREST BROOK DR","m":"Upper St. Clair","u":"B","o":"individual","sf":36778,"v":20700}},{"type":"Feature","geometry":{"type":"Point","coordinates":[-80.08486,40.31054]},"properties":{"p":"0669H00205000000","a":"FOREST BROOK DR","m":"Upper St. Clair","u":"B","o":"corp","sf":17589,"v":16300}},{"type":"Feature","geometry":{"type":"Point","coordinates":[-80.08352,40.31008]},"properties":{"p":"0669M00044000000","a":"404 FOREST ESTATES DR","m":"Upper St. Clair","u":"B","o":"individual","sf":17534,"v":16300}},{"type":"Feature","geometry":{"type":"Point","coordinates":[-80.08323,40.31026]},"properties":{"p":"0669M00046000000","a":"400 FOREST ESTATES DR","m":"Upper St. Clair","u":"B","o":"individual","sf":20331,"v":16900}},{"type":"Feature","geometry":{"type":"Point","coordinates":[-80.08404,40.31041]},"properties":{"p":"0669M00026000000","a":"405 FOREST ESTATES DR","m":"Upper St. Clair","u":"B","o":"individual","sf":34827,"v":20300}}]}