{"type":"FeatureCollection","features":[{"type":"Feature","geometry":{"type":"Point","coordinates":[-80.0834,40.34769]},"properties":{"p":"0320N00015000000","a":"MCLAUGHLIN RUN RD","m":"Upper St. Clair","u":"C","o":"corp","sf":141570,"v":117700}},{"type":"Feature","geometry":{"type":"Point","coordinates":[-80.08116,40.33956]},"properties":{"p":"0395J00250000000","a":"MCLAUGHLIN RUN RD","m":"Upper St. Clair","u":"C","o":"corp","sf":55321,"v":18800}},{"type":"Feature","geometry":{"type":"Point","coordinates":[-80.09246,40.34769]},"properties":{"p":"0321P00082000000","a":"1411 LESNETT RD","m":"Upper St. Clair","u":"L","o":"individual","sf":4735,"v":800}},{"type":"Feature","geometry":{"type":"Point","coordinates":[-80.09152,40.34817]},"properties":{"p":"0321P00002000000","a":"LESNETT RD","m":"Upper St. Clair","u":"L","o":"corp","sf":3200,"v":500}},{"type":"Feature","geometry":{"type":"Point","coordinates":[-80.0912,40.34817]},"properties":{"p":"0321K00399000000","a":"LESNETT RD","m":"Upper St. Clair","u":"L","o":"individual","sf":18818,"v":3000}},{"type":"Feature","geometry":{"type":"Point","coordinates":[-80.08935,40.3472]},"properties":{"p":"0321R00150000000","a":"LESNETT RD","m":"Upper St. Clair","u":"L","o":"individual","sf":44431,"v":7100}},{"type":"Feature","geometry":{"type":"Point","coordinates":[-80.08634,40.34832]},"properties":{"p":"0321M00183000100","a":"WINDSOR CT","m":"Upper St. Clair","u":"L","o":"individual","sf":2993,"v":700}},{"type":"Feature","geometry":{"type":"Point","coordinates":[-80.09333,40.34661]},"properties":{"p":"0321P00042000000","a":"2116 CLAIRMONT DR","m":"Upper St. Clair","u":"L","o":"individual","sf":10199,"v":1600}},{"type":"Feature","geometry":{"type":"Point","coordinates":[-80.09873,40.34946]},"properties":{"p":"0321J00105000000","a":"OLD LESNETT RD","m":"Upper St. Clair","u":"L","o":"individual","sf":28125,"v":4500}},{"type":"Feature","geometry":{"type":"Point","coordinates":[-80.09551,40.34406]},"properties":{"p":"0321J00205000000","a":"OLD LESNETT RD","m":"Upper St. Clair","u":"L","o":"corp","sf":105415,"v":16900}},{"type":"Feature","geometry":{"type":"Point","coordinates":[-80.08417,40.34253]},"properties":{"p":"0396H00017000000","a":"TIFFANY LN","m":"Upper St. Clair","u":"L","o":"individual","sf":60113,"v":48000}},{"type":"Feature","geometry":{"type":"Point","coordinates":[-80.0845,40.34191]},"properties":{"p":"0396H00019000000","a":"TIFFANY LN","m":"Upper St. Clair","u":"L","o":"individual","sf":14200,"v":2300}},{"type":"Feature","geometry":{"type":"Point","coordinates":[-80.08464,40.3419]},"properties":{"p":"0396H00020000000","a":"TIFFANY RDG","m":"Upper St. Clair","u":"L","o":"individual","sf":14200,"v":2300}},{"type":"Feature","geometry":{"type":"Point","coordinates":[-80.08625,40.33936]},"properties":{"p":"0396M00022000000","a":"MORROW RD","m":"Upper St. Clair","u":"L","o":"corp","sf":14563,"v":2300}},{"type":"Feature","geometry":{"type":"Point","coordinates":[-80.08096,40.33354]},"properties":{"p":"0478E00002000000","a":"2420 MILL GROVE RD","m":"Upper St. Clair","u":"L","o":"individual","sf":13815,"v":2200}},{"type":"Feature","geometry":{"type":"Point","coordinates":[-80.08317,40.33859]},"properties":{"p":"0396M00067000000","a":"HATHAWAY LN","m":"Upper St. Clair","u":"L","o":"individual","sf":20038,"v":3200}},{"type":"Feature","geometry":{"type":"Point","coordinates":[-80.09463,40.33711]},"properties":{"p":"0396P00116000000","a":"MORROW RD","m":"Upper St. Clair","u":"L","o":"individual","sf":50578,"v":76200}},{"type":"Feature","geometry":{"type":"Point","coordinates":[-80.09454,40.33303]},"properties":{"p":"0479F00052000100","a":"MORTON RD","m":"Upper St. Clair","u":"L","o":"individual","sf":6534,"v":1100}},{"type":"Feature","geometry":{"type":"Point","coordinates":[-80.08475,40.34331]},"properties":{"p":"0396D00052000000","a":"1224 SOUTHGATE DR","m":"Upper St. Clair","u":"L","o":"individual","sf":35937,"v":105500}},{"type":"Feature","geometry":{"type":"Point","coordinates":[-80.0911,40.33052]},"properties":{"p":"0479K00036000100","a":"SCENERY RIDGE DR","m":"Upper St. Clair","u":"L","o":"individual","sf":479,"v":100}},{"type":"Feature","geometry":{"type":"Point","coordinates":[-80.08245,40.3427]},"properties":{"p":"0395E00070000000","a":"MCLAUGHLIN RUN RD","m":"Upper St. Clair","u":"L","o":"corp","sf":205795,"v":52600}},{"type":"Feature","geometry":{"type":"Point","coordinates":[-80.09467,40.33591]},"properties":{"p":"0479B00010000000","a":"MORTON RD","m":"Upper St. Clair","u":"L","o":"corp","sf":27550,"v":72500}},{"type":"Feature","geometry":{"type":"Point","coordinates":[-80.09793,40.33993]},"properties":{"p":"0396J00098000000","a":"MORROW RD","m":"Upper St. Clair","u":"L","o":"individual","sf":4278,"v":400}},{"type":"Feature","geometry":{"type":"Point","coordinates":[-80.09809,40.33981]},"properties":{"p":"0396J00117000000","a":"MORROW RD","m":"Upper St. Clair","u":"L","o":"corp","sf":21985,"v":40900}},{"type":"Feature","geometry":{"type":"Point","coordinates":[-80.09737,40.33785]},"properties":{"p":"0396N00040000000","a":"MORROW RD","m":"Upper St. Clair","u":"L","o":"individual","sf":12916,"v":30000}},{"type":"Feature","geometry":{"type":"Point","coordinates":[-80.0978,40.3385]},"properties":{"p":"0396N00054000000","a":"1421 MORROW RD","m":"Upper St. Clair","u":"L","o":"individual","sf":7876,"v":700}},{"type":"Feature","geometry":{"type":"Point","coordinates":[-80.09712,40.34098]},"properties":{"p":"0396E00094000000","a":"1367 MORROW RD","m":"Upper St. Clair","u":"L","o":"individual","sf":17816,"v":40500}},{"type":"Feature","geometry":{"type":"Point","coordinates":[-80.09774,40.34014]},"properties":{"p":"0396J00094000000","a":"MORROW RD","m":"Upper St. Clair","u":"L","o":"individual","sf":3192,"v":300}},{"type":"Feature","geometry":{"type":"Point","coordinates":[-80.09797,40.34372]},"properties":{"p":"0396A00050000000","a":"1321 MAYVIEW RD","m":"Upper St. Clair","u":"L","o":"corp","sf":274171,"v":6300}},{"type":"Feature","geometry":{"type":"Point","coordinates":[-80.0988,40.3412]},"properties":{"p":"0396E00015000000","a":"1326 MORROW RD","m":"Upper St. Clair","u":"L","o":"individual","sf":32670,"v":41800}},{"type":"Feature","geometry":{"type":"Point","coordinates":[-80.0929,40.34219]},"properties":{"p":"0396F00034000000","a":"1284 GREYSTONE DR","m":"Upper St. Clair","u":"L","o":"individual","sf":18861,"v":71100}},{"type":"Feature","geometry":{"type":"Point","coordinates":[-80.08134,40.34225]},"properties":{"p":"0395E00196000000","a":"MCLAUGHLIN RUN RD","m":"Upper St. Clair","u":"L","o":"corp","sf":129809,"v":50800}},{"type":"Feature","geometry":{"type":"Point","coordinates":[-80.09168,40.33764]},"properties":{"p":"0396P00213000000","a":"2301 SOUTHAMPTON DR","m":"Upper St. Clair","u":"B","o":"individual","sf":48848,"v":23500}},{"type":"Feature","geometry":{"type":"Point","coordinates":[-80.09339,40.34067]},"properties":{"p":"0396K00100000000","a":"TALL TREES DR","m":"Upper St. Clair","u":"B","o":"corp","sf":93218,"v":33700}},{"type":"Feature","geometry":{"type":"Point","coordinates":[-80.08812,40.33902]},"properties":{"p":"0396L00112000000","a":"2202 TREE TOP LN","m":"Upper St. Clair","u":"B","o":"individual","sf":45298,"v":25600}},{"type":"Feature","geometry":{"type":"Point","coordinates":[-80.08944,40.33956]},"properties":{"p":"0396L00102000000","a":"2205 TREE TOP LN","m":"Upper St. Clair","u":"B","o":"individual","sf":52864,"v":29900}},{"type":"Feature","geometry":{"type":"Point","coordinates":[-80.08869,40.34013]},"properties":{"p":"0396L00106000000","a":"2214 TREE TOP LN","m":"Upper St. Clair","u":"B","o":"individual","sf":48295,"v":27300}},{"type":"Feature","geometry":{"type":"Point","coordinates":[-80.08808,40.34013]},"properties":{"p":"0396L00108000000","a":"2210 TREE TOP LN","m":"Upper St. Clair","u":"B","o":"corp","sf":47071,"v":26600}},{"type":"Feature","geometry":{"type":"Point","coordinates":[-80.08955,40.34008]},"properties":{"p":"0396L00104000000","a":"2209 TREE TOP LN","m":"Upper St. Clair","u":"B","o":"individual","sf":51993,"v":29400}}]}