{"type":"FeatureCollection","features":[{"type":"Feature","geometry":{"type":"Point","coordinates":[-80.079,40.54006]},"properties":{"p":"0514P00398000000","a":"531 MOUNT NEBO RD","m":"Ohio","u":"C","o":"individual","sf":61023,"v":50800}},{"type":"Feature","geometry":{"type":"Point","coordinates":[-80.07181,40.53249]},"properties":{"p":"0427R00002000000","a":"191 MOUNT NEBO RD","m":"Ohio","u":"C","o":"corp","sf":153998,"v":883800}},{"type":"Feature","geometry":{"type":"Point","coordinates":[-80.06325,40.53222]},"properties":{"p":"0428N00016000000","a":"MOUNT NEBO RD","m":"Ross","u":"C","o":"corp","sf":42779,"v":16600}},{"type":"Feature","geometry":{"type":"Point","coordinates":[-80.07767,40.53864]},"properties":{"p":"0427B00085000000","a":"MOUNT NEBO RD","m":"Ohio","u":"C","o":"individual","sf":156272,"v":237000}},{"type":"Feature","geometry":{"type":"Point","coordinates":[-80.0702,40.53302]},"properties":{"p":"0427L00245000000","a":"200 MOUNT NEBO RD","m":"Ohio","u":"C","o":"corp","sf":106517,"v":506400}},{"type":"Feature","geometry":{"type":"Point","coordinates":[-80.0702,40.54812]},"properties":{"p":"0514D00110000000","a":"MAINES LN","m":"Franklin Park","u":"L","o":"individual","sf":13672,"v":2300}},{"type":"Feature","geometry":{"type":"Point","coordinates":[-80.06506,40.54615]},"properties":{"p":"0515E00264000000","a":"REIS RUN RD","m":"Franklin Park","u":"L","o":"individual","sf":20473,"v":4500}},{"type":"Feature","geometry":{"type":"Point","coordinates":[-80.06609,40.54109]},"properties":{"p":"0515N00200000000","a":"ELIZABETH RD","m":"Ohio","u":"L","o":"individual","sf":358978,"v":56300}},{"type":"Feature","geometry":{"type":"Point","coordinates":[-80.07792,40.5345]},"properties":{"p":"0427J00075000000","a":"COBBLESTONE DR","m":"Ohio","u":"L","o":"corp","sf":269231,"v":0}},{"type":"Feature","geometry":{"type":"Point","coordinates":[-80.07975,40.53119]},"properties":{"p":"0427N00310000000","a":"GRANDVIEW RD","m":"Ohio","u":"L","o":"individual","sf":23522,"v":2100}},{"type":"Feature","geometry":{"type":"Point","coordinates":[-80.07424,40.5381]},"properties":{"p":"0427F00016000000","a":"MOUNT NEBO RD","m":"Ohio","u":"L","o":"individual","sf":304920,"v":45100}},{"type":"Feature","geometry":{"type":"Point","coordinates":[-80.07506,40.54835]},"properties":{"p":"0514B00270000000","a":"WIBLE LN","m":"Ohio","u":"L","o":"individual","sf":56802,"v":39100}},{"type":"Feature","geometry":{"type":"Point","coordinates":[-80.07437,40.54771]},"properties":{"p":"0514C00050000000","a":"WIBLE LN","m":"Ohio","u":"L","o":"individual","sf":40946,"v":3700}},{"type":"Feature","geometry":{"type":"Point","coordinates":[-80.07146,40.54387]},"properties":{"p":"0514L00110000000","a":"HERITAGE DR","m":"Ohio","u":"L","o":"corp","sf":124002,"v":0}},{"type":"Feature","geometry":{"type":"Point","coordinates":[-80.06952,40.53807]},"properties":{"p":"0427D00300000000","a":"MCADAMS LN","m":"Ohio","u":"L","o":"individual","sf":43590,"v":8900}},{"type":"Feature","geometry":{"type":"Point","coordinates":[-80.07613,40.54274]},"properties":{"p":"0514P00050000000","a":"HERITAGE DR","m":"Ohio","u":"L","o":"corp","sf":1308333,"v":0}},{"type":"Feature","geometry":{"type":"Point","coordinates":[-80.07068,40.54429]},"properties":{"p":"0514L00076000000","a":"ROBIN CT","m":"Ohio","u":"L","o":"corp","sf":1655,"v":200}},{"type":"Feature","geometry":{"type":"Point","coordinates":[-80.07026,40.53905]},"properties":{"p":"0427C00116000000","a":"317 MILLERS RIDGE CT","m":"Ohio","u":"L","o":"individual","sf":43391,"v":5100}},{"type":"Feature","geometry":{"type":"Point","coordinates":[-80.07052,40.53837]},"properties":{"p":"0427C00118000000","a":"319 MILLERS RIDGE CT","m":"Ohio","u":"L","o":"individual","sf":64865,"v":7700}},{"type":"Feature","geometry":{"type":"Point","coordinates":[-80.07147,40.53893]},"properties":{"p":"0427C00122000000","a":"316 MILLERS RIDGE CT","m":"Ohio","u":"L","o":"individual","sf":75825,"v":8900}},{"type":"Feature","geometry":{"type":"Point","coordinates":[-80.07166,40.53169]},"properties":{"p":"0427R00061000000","a":"MOUNT NEBO RD","m":"Ohio","u":"L","o":"individual","sf":56628,"v":700}},{"type":"Feature","geometry":{"type":"Point","coordinates":[-80.0648,40.53843]},"properties":{"p":"0428A00145000000","a":"LOUISE RD","m":"Ohio","u":"L","o":"individual","sf":152460,"v":6500}},{"type":"Feature","geometry":{"type":"Point","coordinates":[-80.06486,40.53891]},"properties":{"p":"0428A00147000000","a":"LOUISE RD","m":"Ohio","u":"L","o":"individual","sf":87120,"v":4000}},{"type":"Feature","geometry":{"type":"Point","coordinates":[-80.06495,40.53965]},"properties":{"p":"0428A00157000000","a":"LOUISE RD","m":"Ohio","u":"L","o":"individual","sf":152460,"v":6500}},{"type":"Feature","geometry":{"type":"Point","coordinates":[-80.06461,40.53723]},"properties":{"p":"0428E00020000000","a":"LOUISE RD","m":"Ohio","u":"L","o":"individual","sf":152460,"v":6500}},{"type":"Feature","geometry":{"type":"Point","coordinates":[-80.07438,40.54829]},"properties":{"p":"0514B00191000000","a":"WIBLE LN","m":"Ohio","u":"L","o":"individual","sf":37069,"v":3300}},{"type":"Feature","geometry":{"type":"Point","coordinates":[-80.0764,40.5484]},"properties":{"p":"0514B00210000000","a":"WIBLE LN","m":"Ohio","u":"L","o":"individual","sf":102366,"v":1200}},{"type":"Feature","geometry":{"type":"Point","coordinates":[-80.0772,40.53927]},"properties":{"p":"0427B00250000100","a":"MOUNT NEBO RD","m":"Ohio","u":"L","o":"corp","sf":31363,"v":2800}},{"type":"Feature","geometry":{"type":"Point","coordinates":[-80.07673,40.53096]},"properties":{"p":"0427P00078000000","a":"JOSEPHS LN","m":"Ohio","u":"L","o":"corp","sf":36353,"v":3500}},{"type":"Feature","geometry":{"type":"Point","coordinates":[-80.06712,40.54218]},"properties":{"p":"0514S00373000000","a":"ELIZABETH RD","m":"Ohio","u":"L","o":"individual","sf":137214,"v":46500}},{"type":"Feature","geometry":{"type":"Point","coordinates":[-80.06617,40.54304]},"properties":{"p":"0515J00199000000","a":"ELIZABETH RD","m":"Ohio","u":"L","o":"individual","sf":38246,"v":19900}},{"type":"Feature","geometry":{"type":"Point","coordinates":[-80.06091,40.54249]},"properties":{"p":"0515P00109000000","a":"REIS RUN RD","m":"Ross","u":"L","o":"individual","sf":36590,"v":52700}},{"type":"Feature","geometry":{"type":"Point","coordinates":[-80.06076,40.54177]},"properties":{"p":"0515P00125000000","a":"125 BROOKMEADE DR","m":"Ross","u":"L","o":"individual","sf":3524,"v":400}},{"type":"Feature","geometry":{"type":"Point","coordinates":[-80.0607,40.54158]},"properties":{"p":"0515P00126000000","a":"REIS RUN RD","m":"Ross","u":"L","o":"individual","sf":3819,"v":400}},{"type":"Feature","geometry":{"type":"Point","coordinates":[-80.06062,40.54149]},"properties":{"p":"0515P00127000000","a":"REIS RUN RD","m":"Ross","u":"L","o":"individual","sf":500,"v":100}},{"type":"Feature","geometry":{"type":"Point","coordinates":[-80.06358,40.54638]},"properties":{"p":"0515E00082000000","a":"SHARBOT DR","m":"Ross","u":"L","o":"corp","sf":6272,"v":700}},{"type":"Feature","geometry":{"type":"Point","coordinates":[-80.06268,40.54871]},"properties":{"p":"0515B00398000000","a":"CRESTHAVEN LN","m":"Ross","u":"L","o":"corp","sf":452,"v":100}},{"type":"Feature","geometry":{"type":"Point","coordinates":[-80.06092,40.543]},"properties":{"p":"0515K00003000000","a":"REIS RUN RD","m":"Ross","u":"L","o":"individual","sf":8573,"v":900}},{"type":"Feature","geometry":{"type":"Point","coordinates":[-80.06098,40.54319]},"properties":{"p":"0515K00004000000","a":"REIS RUN RD","m":"Ross","u":"L","o":"individual","sf":7114,"v":800}},{"type":"Feature","geometry":{"type":"Point","coordinates":[-80.06113,40.54346]},"properties":{"p":"0515K00007000000","a":"BROOKMEADE DR","m":"Ross","u":"L","o":"individual","sf":3689,"v":400}},{"type":"Feature","geometry":{"type":"Point","coordinates":[-80.06231,40.5307]},"properties":{"p":"0428N00058000000","a":"LOWRIES RUN RD","m":"Ross","u":"L","o":"corp","sf":290545,"v":20000}},{"type":"Feature","geometry":{"type":"Point","coordinates":[-80.06092,40.5327]},"properties":{"p":"0428P00024000000","a":"MOUNT NEBO RD","m":"Ross","u":"L","o":"individual","sf":19004,"v":6800}},{"type":"Feature","geometry":{"type":"Point","coordinates":[-80.06308,40.53351]},"properties":{"p":"0428J00009000000","a":"LOWRIES RUN RD","m":"Ross","u":"L","o":"individual","sf":36000,"v":42800}},{"type":"Feature","geometry":{"type":"Point","coordinates":[-80.06251,40.5323]},"properties":{"p":"0428N00032000000","a":"LOWRIES RUN RD","m":"Ross","u":"L","o":"corp","sf":20400,"v":7200}},{"type":"Feature","geometry":{"type":"Point","coordinates":[-80.06034,40.53726]},"properties":{"p":"0428F00125000000","a":"REIS RUN RD","m":"Ross","u":"L","o":"individual","sf":77101,"v":57500}},{"type":"Feature","geometry":{"type":"Point","coordinates":[-80.06732,40.54147]},"properties":{"p":"0514S00294000000","a":"ELIZABETH RD","m":"Ohio","u":"L","o":"individual","sf":206910,"v":52900}},{"type":"Feature","geometry":{"type":"Point","coordinates":[-80.0649,40.53922]},"properties":{"p":"0428A00149000000","a":"LOUISE RD","m":"Ohio","u":"L","o":"individual","sf":87120,"v":4000}},{"type":"Feature","geometry":{"type":"Point","coordinates":[-80.07497,40.54769]},"properties":{"p":"0514B00262000000","a":"WIBLE LN","m":"Ohio","u":"L","o":"individual","sf":40946,"v":3700}},{"type":"Feature","geometry":{"type":"Point","coordinates":[-80.06472,40.53785]},"properties":{"p":"0428E00025000000","a":"LOUISE RD","m":"Ohio","u":"L","o":"individual","sf":152460,"v":6500}},{"type":"Feature","geometry":{"type":"Point","coordinates":[-80.06306,40.54579]},"properties":{"p":"0515E00038000000","a":"REIS RUN RD","m":"Ross","u":"L","o":"corp","sf":121968,"v":62600}},{"type":"Feature","geometry":{"type":"Point","coordinates":[-80.06799,40.54618]},"properties":{"p":"0514H00197000100","a":"CLARE DR","m":"Franklin Park","u":"L","o":"individual","sf":1307,"v":200}},{"type":"Feature","geometry":{"type":"Point","coordinates":[-80.06868,40.54818]},"properties":{"p":"0514D00150000000","a":"1601 MEMORY LANE CT","m":"Franklin Park","u":"B","o":"corp","sf":29894,"v":18900}},{"type":"Feature","geometry":{"type":"Point","coordinates":[-80.06795,40.54807]},"properties":{"p":"0514D00151000000","a":"1600 MEMORY LANE CT","m":"Franklin Park","u":"B","o":"individual","sf":35694,"v":22700}},{"type":"Feature","geometry":{"type":"Point","coordinates":[-80.06834,40.54898]},"properties":{"p":"0514D00155000000","a":"1604 MEMORY LANE CT","m":"Franklin Park","u":"B","o":"individual","sf":32082,"v":20400}},{"type":"Feature","geometry":{"type":"Point","coordinates":[-80.06976,40.54893]},"properties":{"p":"0514D00156000000","a":"1607 MEMORY LANE CT","m":"Franklin Park","u":"B","o":"corp","sf":33088,"v":21000}},{"type":"Feature","geometry":{"type":"Point","coordinates":[-80.07014,40.5491]},"properties":{"p":"0514D00158000000","a":"1609 MEMORY LANE CT","m":"Franklin Park","u":"B","o":"corp","sf":56833,"v":36100}},{"type":"Feature","geometry":{"type":"Point","coordinates":[-80.07272,40.54409]},"properties":{"p":"0514L00122000000","a":"HERITAGE DR","m":"Ohio","u":"B","o":"corp","sf":73952,"v":16100}},{"type":"Feature","geometry":{"type":"Point","coordinates":[-80.07082,40.54417]},"properties":{"p":"0514L00078000000","a":"ROBIN CT","m":"Ohio","u":"B","o":"corp","sf":17681,"v":9000}}]}