{"type":"FeatureCollection","features":[{"type":"Feature","geometry":{"type":"Point","coordinates":[-80.06539,40.35763]},"properties":{"p":"0252N00196000000","a":"FORT COUCH RD","m":"Upper St. Clair","u":"C","o":"corp","sf":9017,"v":3600}},{"type":"Feature","geometry":{"type":"Point","coordinates":[-80.0702,40.36187]},"properties":{"p":"0253H00114000000","a":"PAINTERS RUN RD","m":"Upper St. Clair","u":"C","o":"corp","sf":9958,"v":63200}},{"type":"Feature","geometry":{"type":"Point","coordinates":[-80.06136,40.36455]},"properties":{"p":"0252B00239000000","a":"150 JAMES PL","m":"Mt.Lebanon","u":"L","o":"individual","sf":11700,"v":88900}},{"type":"Feature","geometry":{"type":"Point","coordinates":[-80.06369,40.36458]},"properties":{"p":"0252A00066000000","a":"FOLKSTONE DR","m":"Mt.Lebanon","u":"L","o":"individual","sf":2272,"v":1000}},{"type":"Feature","geometry":{"type":"Point","coordinates":[-80.0712,40.36829]},"properties":{"p":"0194L00295000000","a":"BOWER HILL RD","m":"Mt.Lebanon","u":"L","o":"corp","sf":79279,"v":12700}},{"type":"Feature","geometry":{"type":"Point","coordinates":[-80.07087,40.36376]},"properties":{"p":"0253C00191000000","a":"ROBB HOLLOW RD","m":"Mt.Lebanon","u":"L","o":"corp","sf":1619,"v":700}},{"type":"Feature","geometry":{"type":"Point","coordinates":[-80.07078,40.36356]},"properties":{"p":"0253C00192000000","a":"ROBB HOLLOW RD","m":"Mt.Lebanon","u":"L","o":"corp","sf":2837,"v":1200}},{"type":"Feature","geometry":{"type":"Point","coordinates":[-80.06936,40.36328]},"properties":{"p":"0253D00111000000","a":"1230 DRIFTWOOD DR","m":"Mt.Lebanon","u":"L","o":"corp","sf":30248,"v":11900}},{"type":"Feature","geometry":{"type":"Point","coordinates":[-80.06057,40.35903]},"properties":{"p":"0252K00190000000","a":"OLD GILKESON RD","m":"Mt.Lebanon","u":"L","o":"individual","sf":16962,"v":71900}},{"type":"Feature","geometry":{"type":"Point","coordinates":[-80.06385,40.36196]},"properties":{"p":"0252E00088000000","a":"GILKESON RD","m":"Mt.Lebanon","u":"L","o":"individual","sf":9269,"v":3700}},{"type":"Feature","geometry":{"type":"Point","coordinates":[-80.07145,40.36914]},"properties":{"p":"0194L00178000000","a":"ROBB HOLLOW RD","m":"Mt.Lebanon","u":"L","o":"individual","sf":12105,"v":71100}},{"type":"Feature","geometry":{"type":"Point","coordinates":[-80.0734,40.36431]},"properties":{"p":"0253C00100000000","a":"BETHANY DR","m":"Mt.Lebanon","u":"L","o":"corp","sf":432,"v":300}},{"type":"Feature","geometry":{"type":"Point","coordinates":[-80.07,40.36499]},"properties":{"p":"0253C00165000000","a":"1230 DRIFTWOOD DR","m":"Mt.Lebanon","u":"L","o":"corp","sf":156032,"v":25100}},{"type":"Feature","geometry":{"type":"Point","coordinates":[-80.06457,40.36246]},"properties":{"p":"0252E00010000002","a":"PAINTERS RUN RD","m":"Mt.Lebanon","u":"L","o":"corp","sf":163350,"v":95500}},{"type":"Feature","geometry":{"type":"Point","coordinates":[-80.06416,40.36212]},"properties":{"p":"0252E00050000000","a":"CEDAR BLVD","m":"Mt.Lebanon","u":"L","o":"corp","sf":9938,"v":70800}},{"type":"Feature","geometry":{"type":"Point","coordinates":[-80.07006,40.36391]},"properties":{"p":"0253B00150000000","a":"1230 DRIFTWOOD DR","m":"Mt.Lebanon","u":"L","o":"corp","sf":120879,"v":88600}},{"type":"Feature","geometry":{"type":"Point","coordinates":[-80.06167,40.36948]},"properties":{"p":"0193K00050000000","a":"LINDENDALE DR","m":"Mt.Lebanon","u":"L","o":"individual","sf":75489,"v":12100}},{"type":"Feature","geometry":{"type":"Point","coordinates":[-80.06168,40.36864]},"properties":{"p":"0193K00070000000","a":"CEDAR BLVD","m":"Mt.Lebanon","u":"L","o":"individual","sf":10042,"v":4000}},{"type":"Feature","geometry":{"type":"Point","coordinates":[-80.06355,40.36648]},"properties":{"p":"0193N00142000000","a":"FOLKSTONE DR","m":"Mt.Lebanon","u":"L","o":"individual","sf":7295,"v":10900}},{"type":"Feature","geometry":{"type":"Point","coordinates":[-80.06343,40.36745]},"properties":{"p":"0193N00175000000","a":"FOLKSTONE DR","m":"Mt.Lebanon","u":"L","o":"individual","sf":82764,"v":13300}},{"type":"Feature","geometry":{"type":"Point","coordinates":[-80.06365,40.36574]},"properties":{"p":"0193N00126000000","a":"FOLKSTONE DR","m":"Mt.Lebanon","u":"L","o":"individual","sf":52141,"v":8400}},{"type":"Feature","geometry":{"type":"Point","coordinates":[-80.06232,40.36975]},"properties":{"p":"0193J00170000000","a":"LINDENDALE DR","m":"Mt.Lebanon","u":"L","o":"individual","sf":26800,"v":10600}},{"type":"Feature","geometry":{"type":"Point","coordinates":[-80.06016,40.36672]},"properties":{"p":"0193P00150000000","a":"BEADLING RD","m":"Mt.Lebanon","u":"L","o":"individual","sf":6365,"v":2600}},{"type":"Feature","geometry":{"type":"Point","coordinates":[-80.06015,40.36658]},"properties":{"p":"0193P00154000000","a":"BEADLING RD","m":"Mt.Lebanon","u":"L","o":"individual","sf":5860,"v":2400}},{"type":"Feature","geometry":{"type":"Point","coordinates":[-80.06811,40.36559]},"properties":{"p":"0194S00160000000","a":"PINEWOOD DR","m":"Mt.Lebanon","u":"L","o":"corp","sf":30,"v":100}},{"type":"Feature","geometry":{"type":"Point","coordinates":[-80.07009,40.36678]},"properties":{"p":"0194R00230000000","a":"1230 DRIFTWOOD DR","m":"Mt.Lebanon","u":"L","o":"corp","sf":291852,"v":25400}},{"type":"Feature","geometry":{"type":"Point","coordinates":[-80.06323,40.36293]},"properties":{"p":"0252A00258000000","a":"CEDAR BLVD","m":"Mt.Lebanon","u":"L","o":"individual","sf":27698,"v":17100}},{"type":"Feature","geometry":{"type":"Point","coordinates":[-80.07794,40.36423]},"properties":{"p":"0253A00025000000","a":"MOYNELLE DR","m":"Scott","u":"L","o":"corp","sf":2329,"v":900}},{"type":"Feature","geometry":{"type":"Point","coordinates":[-80.07575,40.36383]},"properties":{"p":"0253B00072000100","a":"DORIS DR","m":"Scott","u":"L","o":"individual","sf":13481,"v":40800}},{"type":"Feature","geometry":{"type":"Point","coordinates":[-80.06999,40.3631]},"properties":{"p":"0253D00365000000","a":"1230 DRIFTWOOD DR","m":"Upper St. Clair","u":"L","o":"corp","sf":42538,"v":48100}},{"type":"Feature","geometry":{"type":"Point","coordinates":[-80.06391,40.35747]},"properties":{"p":"0252N00114000000","a":"CLAIR DR","m":"Upper St. Clair","u":"L","o":"corp","sf":17233,"v":2623}},{"type":"Feature","geometry":{"type":"Point","coordinates":[-80.06673,40.35187]},"properties":{"p":"0320H00114000000","a":"MANORDALE DR","m":"Upper St. Clair","u":"L","o":"corp","sf":9453,"v":62500}},{"type":"Feature","geometry":{"type":"Point","coordinates":[-80.06648,40.35156]},"properties":{"p":"0320H00140000002","a":"MANORDALE RD","m":"Upper St. Clair","u":"L","o":"corp","sf":5227,"v":800}},{"type":"Feature","geometry":{"type":"Point","coordinates":[-80.06992,40.35958]},"properties":{"p":"0253M00194000000","a":"ALJO DR","m":"Upper St. Clair","u":"L","o":"individual","sf":12510,"v":1100}},{"type":"Feature","geometry":{"type":"Point","coordinates":[-80.07885,40.36166]},"properties":{"p":"0253E00350000000","a":"SILLVIEW DR","m":"Upper St. Clair","u":"L","o":"corp","sf":105851,"v":48600}},{"type":"Feature","geometry":{"type":"Point","coordinates":[-80.07665,40.35734]},"properties":{"p":"0253P00022000000","a":"FOX CHASE LN","m":"Upper St. Clair","u":"L","o":"individual","sf":8973,"v":2100}},{"type":"Feature","geometry":{"type":"Point","coordinates":[-80.07744,40.35948]},"properties":{"p":"0253K00158000000","a":"PAINTERS RUN RD","m":"Upper St. Clair","u":"L","o":"individual","sf":23522,"v":2100}},{"type":"Feature","geometry":{"type":"Point","coordinates":[-80.07746,40.35916]},"properties":{"p":"0253K00253000000","a":"PAINTERS RUN RD","m":"Upper St. Clair","u":"L","o":"individual","sf":14129,"v":1300}},{"type":"Feature","geometry":{"type":"Point","coordinates":[-80.07779,40.35919]},"properties":{"p":"0253K00270000000","a":"PAINTERS RUN RD","m":"Upper St. Clair","u":"L","o":"individual","sf":8801,"v":800}},{"type":"Feature","geometry":{"type":"Point","coordinates":[-80.07107,40.3506]},"properties":{"p":"0320G00166000000","a":"1802 MURDSTONE RD","m":"Upper St. Clair","u":"L","o":"individual","sf":3624,"v":600}},{"type":"Feature","geometry":{"type":"Point","coordinates":[-80.07538,40.35338]},"properties":{"p":"0320B00065000000","a":"MCMILLAN RD","m":"Upper St. Clair","u":"L","o":"individual","sf":1728,"v":300}},{"type":"Feature","geometry":{"type":"Point","coordinates":[-80.07331,40.3602]},"properties":{"p":"0253G00501000000","a":"THORNWICK DR","m":"Upper St. Clair","u":"L","o":"corp","sf":2513,"v":200}},{"type":"Feature","geometry":{"type":"Point","coordinates":[-80.06875,40.3628]},"properties":{"p":"0253H00105000000","a":"1230 DRIFTWOOD DR","m":"Upper St. Clair","u":"L","o":"corp","sf":326700,"v":12300}},{"type":"Feature","geometry":{"type":"Point","coordinates":[-80.07375,40.35478]},"properties":{"p":"0320C00052000000","a":"MCMILLAN RD","m":"Upper St. Clair","u":"L","o":"individual","sf":623,"v":100}},{"type":"Feature","geometry":{"type":"Point","coordinates":[-80.06688,40.35785]},"properties":{"p":"0253S00310000000","a":"FORT COUCH RD","m":"Upper St. Clair","u":"L","o":"individual","sf":79715,"v":46200}},{"type":"Feature","geometry":{"type":"Point","coordinates":[-80.07411,40.35911]},"properties":{"p":"0253K00140000000","a":"1712 PAINTERS RUN RD","m":"Upper St. Clair","u":"L","o":"individual","sf":8291,"v":800}},{"type":"Feature","geometry":{"type":"Point","coordinates":[-80.07603,40.35052]},"properties":{"p":"0320F00050000000","a":"1818 TYBURN LN","m":"Upper St. Clair","u":"L","o":"individual","sf":15688,"v":70600}},{"type":"Feature","geometry":{"type":"Point","coordinates":[-80.07422,40.35154]},"properties":{"p":"0320G00056000000","a":"MCMILLAN RD","m":"Upper St. Clair","u":"L","o":"corp","sf":16500,"v":70700}},{"type":"Feature","geometry":{"type":"Point","coordinates":[-80.07427,40.35083]},"properties":{"p":"0320G00060000000","a":"MCMILLAN RD","m":"Upper St. Clair","u":"L","o":"individual","sf":38072,"v":20700}},{"type":"Feature","geometry":{"type":"Point","coordinates":[-80.07433,40.3575]},"properties":{"p":"0253R00149000000","a":"1636 WATTERSON CT","m":"Upper St. Clair","u":"L","o":"individual","sf":12153,"v":50100}},{"type":"Feature","geometry":{"type":"Point","coordinates":[-80.06969,40.36006]},"properties":{"p":"0253M00206000000","a":"PAINTERS RUN RD","m":"Upper St. Clair","u":"L","o":"individual","sf":30175,"v":2700}},{"type":"Feature","geometry":{"type":"Point","coordinates":[-80.07028,40.36014]},"properties":{"p":"0253M00218000000","a":"ALJO DR","m":"Upper St. Clair","u":"L","o":"individual","sf":5724,"v":500}},{"type":"Feature","geometry":{"type":"Point","coordinates":[-80.07415,40.354]},"properties":{"p":"0320C00027000000","a":"UPPER ST CLAIR DR","m":"Upper St. Clair","u":"L","o":"individual","sf":904,"v":100}},{"type":"Feature","geometry":{"type":"Point","coordinates":[-80.0776,40.36074]},"properties":{"p":"0253K00050000000","a":"PAINTERS RUN RD","m":"Upper St. Clair","u":"L","o":"individual","sf":104980,"v":9600}},{"type":"Feature","geometry":{"type":"Point","coordinates":[-80.07539,40.35944]},"properties":{"p":"0253K00070000000","a":"PAINTERS RUN RD","m":"Upper St. Clair","u":"L","o":"individual","sf":43560,"v":4000}},{"type":"Feature","geometry":{"type":"Point","coordinates":[-80.07143,40.35863]},"properties":{"p":"0253L00062000000","a":"FORT COUCH RD","m":"Upper St. Clair","u":"L","o":"individual","sf":19246,"v":40600}},{"type":"Feature","geometry":{"type":"Point","coordinates":[-80.06132,40.35103]},"properties":{"p":"0319F00215000000","a":"MEADOWCREST DR","m":"Upper St. Clair","u":"L","o":"individual","sf":6224,"v":600}},{"type":"Feature","geometry":{"type":"Point","coordinates":[-80.06117,40.35132]},"properties":{"p":"0319F00216000000","a":"LONG DR","m":"Upper St. Clair","u":"L","o":"individual","sf":5961,"v":500}},{"type":"Feature","geometry":{"type":"Point","coordinates":[-80.06145,40.35121]},"properties":{"p":"0319F00217000000","a":"LONG DR","m":"Upper St. Clair","u":"L","o":"individual","sf":6396,"v":600}},{"type":"Feature","geometry":{"type":"Point","coordinates":[-80.06104,40.35115]},"properties":{"p":"0319F00218000000","a":"LONG DR","m":"Upper St. Clair","u":"L","o":"individual","sf":6427,"v":600}},{"type":"Feature","geometry":{"type":"Point","coordinates":[-80.0744,40.35962]},"properties":{"p":"0253F00425000000","a":"NORSEN DR","m":"Upper St. Clair","u":"L","o":"corp","sf":11730,"v":1100}},{"type":"Feature","geometry":{"type":"Point","coordinates":[-80.07276,40.3529]},"properties":{"p":"0320G00230000000","a":"SEEGAR RD","m":"Upper St. Clair","u":"L","o":"individual","sf":5126,"v":800}},{"type":"Feature","geometry":{"type":"Point","coordinates":[-80.0666,40.3592]},"properties":{"p":"0253M00062000000","a":"ALJO DR","m":"Upper St. Clair","u":"L","o":"individual","sf":1491,"v":100}},{"type":"Feature","geometry":{"type":"Point","coordinates":[-80.07053,40.36277]},"properties":{"p":"0253G00131000000","a":"ROBB HOLLOW RD","m":"Upper St. Clair","u":"L","o":"individual","sf":12850,"v":1200}},{"type":"Feature","geometry":{"type":"Point","coordinates":[-80.07201,40.3609]},"properties":{"p":"0253G00150000000","a":"PAINTERS RUN RD","m":"Upper St. Clair","u":"L","o":"individual","sf":106853,"v":10000}},{"type":"Feature","geometry":{"type":"Point","coordinates":[-80.07084,40.3628]},"properties":{"p":"0253G00155000000","a":"PAINTERS RUN RD","m":"Upper St. Clair","u":"L","o":"corp","sf":170232,"v":15600}},{"type":"Feature","geometry":{"type":"Point","coordinates":[-80.06883,40.35969]},"properties":{"p":"0253M00182000000","a":"ALJO DR","m":"Upper St. Clair","u":"L","o":"individual","sf":10125,"v":900}},{"type":"Feature","geometry":{"type":"Point","coordinates":[-80.06935,40.35958]},"properties":{"p":"0253M00188000000","a":"ALJO DR","m":"Upper St. Clair","u":"L","o":"individual","sf":12929,"v":1200}},{"type":"Feature","geometry":{"type":"Point","coordinates":[-80.07913,40.35852]},"properties":{"p":"0253J00001000000","a":"WINCHESTER DR","m":"Upper St. Clair","u":"L","o":"corp","sf":2696,"v":900}},{"type":"Feature","geometry":{"type":"Point","coordinates":[-80.0623,40.36031]},"properties":{"p":"0252J00385000000","a":"OLD GILKESON RD","m":"Upper St. Clair","u":"L","o":"individual","sf":4576,"v":400}},{"type":"Feature","geometry":{"type":"Point","coordinates":[-80.06258,40.36049]},"properties":{"p":"0252J00390000000","a":"OLD GILKESON RD","m":"Upper St. Clair","u":"L","o":"individual","sf":6910,"v":600}},{"type":"Feature","geometry":{"type":"Point","coordinates":[-80.06188,40.36003]},"properties":{"p":"0252K00230000000","a":"OLD GILKESON RD","m":"Upper St. Clair","u":"L","o":"individual","sf":7756,"v":700}},{"type":"Feature","geometry":{"type":"Point","coordinates":[-80.06229,40.35883]},"properties":{"p":"0252K00240000000","a":"UPPER RD","m":"Upper St. Clair","u":"L","o":"individual","sf":21350,"v":40800}},{"type":"Feature","geometry":{"type":"Point","coordinates":[-80.06218,40.35877]},"properties":{"p":"0252K00242000000","a":"418 UPPER RD","m":"Upper St. Clair","u":"L","o":"individual","sf":6377,"v":600}},{"type":"Feature","geometry":{"type":"Point","coordinates":[-80.06418,40.36136]},"properties":{"p":"0252E00155000000","a":"OLD GILKESON RD","m":"Upper St. Clair","u":"L","o":"individual","sf":18520,"v":1700}},{"type":"Feature","geometry":{"type":"Point","coordinates":[-80.06438,40.36133]},"properties":{"p":"0252E00158000000","a":"PAINTERS RUN RD","m":"Upper St. Clair","u":"L","o":"individual","sf":4491,"v":400}},{"type":"Feature","geometry":{"type":"Point","coordinates":[-80.06459,40.36165]},"properties":{"p":"0252E00164000000","a":"PAINTERS RUN RD","m":"Upper St. Clair","u":"L","o":"individual","sf":4761,"v":400}},{"type":"Feature","geometry":{"type":"Point","coordinates":[-80.06011,40.35687]},"properties":{"p":"0252P00190000000","a":"LOCUST LN","m":"Upper St. Clair","u":"L","o":"individual","sf":60984,"v":44500}},{"type":"Feature","geometry":{"type":"Point","coordinates":[-80.0602,40.3564]},"properties":{"p":"0252P00200000000","a":"LOCUST LN","m":"Upper St. Clair","u":"L","o":"individual","sf":10890,"v":1000}},{"type":"Feature","geometry":{"type":"Point","coordinates":[-80.06019,40.35594]},"properties":{"p":"0252P00201000000","a":"LOCUST LN","m":"Upper St. Clair","u":"L","o":"individual","sf":17424,"v":1600}},{"type":"Feature","geometry":{"type":"Point","coordinates":[-80.06173,40.35681]},"properties":{"p":"0252P00258000000","a":"CLAIR DR","m":"Upper St. Clair","u":"L","o":"individual","sf":8570,"v":1400}},{"type":"Feature","geometry":{"type":"Point","coordinates":[-80.06274,40.35958]},"properties":{"p":"0252J00355000000","a":"UPPER RD","m":"Upper St. Clair","u":"L","o":"individual","sf":25439,"v":7200}},{"type":"Feature","geometry":{"type":"Point","coordinates":[-80.07836,40.36081]},"properties":{"p":"0253E00215000000","a":"PAINTERS RUN RD","m":"Upper St. Clair","u":"L","o":"individual","sf":222156,"v":10000}},{"type":"Feature","geometry":{"type":"Point","coordinates":[-80.06501,40.36047]},"properties":{"p":"0252E00272000100","a":"ALJO DR","m":"Upper St. Clair","u":"L","o":"individual","sf":9801,"v":900}},{"type":"Feature","geometry":{"type":"Point","coordinates":[-80.06539,40.36037]},"properties":{"p":"0252J00237000100","a":"ALJO DR","m":"Upper St. Clair","u":"L","o":"individual","sf":3528,"v":300}},{"type":"Feature","geometry":{"type":"Point","coordinates":[-80.06094,40.35912]},"properties":{"p":"0252K00254000000","a":"UPPER RD","m":"Upper St. Clair","u":"L","o":"individual","sf":16575,"v":20500}},{"type":"Feature","geometry":{"type":"Point","coordinates":[-80.0656,40.36161]},"properties":{"p":"0252E00202000000","a":"UPPER RD","m":"Upper St. Clair","u":"L","o":"corp","sf":8750,"v":800}},{"type":"Feature","geometry":{"type":"Point","coordinates":[-80.06004,40.35866]},"properties":{"p":"0252K00261000000","a":"UPPER RD","m":"Upper St. Clair","u":"L","o":"individual","sf":14434,"v":1300}},{"type":"Feature","geometry":{"type":"Point","coordinates":[-80.06506,40.36161]},"properties":{"p":"0252E00208000000","a":"UPPER RD","m":"Upper St. Clair","u":"L","o":"individual","sf":9996,"v":900}},{"type":"Feature","geometry":{"type":"Point","coordinates":[-80.06446,40.35785]},"properties":{"p":"0252J00150000000","a":"CLAIR DR","m":"Upper St. Clair","u":"L","o":"corp","sf":6419,"v":600}},{"type":"Feature","geometry":{"type":"Point","coordinates":[-80.06961,40.35952]},"properties":{"p":"0253M00191000000","a":"ALJO DR","m":"Upper St. Clair","u":"L","o":"individual","sf":13468,"v":1200}},{"type":"Feature","geometry":{"type":"Point","coordinates":[-80.07045,40.36797]},"properties":{"p":"0194M00015000000","a":"DRIFTWOOD DR","m":"Mt.Lebanon","u":"L","o":"individual","sf":7500,"v":3000}},{"type":"Feature","geometry":{"type":"Point","coordinates":[-80.07032,40.3609]},"properties":{"p":"0253H00154000000","a":"PAINTERS RUN RD","m":"Upper St. Clair","u":"L","o":"corp","sf":88701,"v":47100}},{"type":"Feature","geometry":{"type":"Point","coordinates":[-80.06358,40.35243]},"properties":{"p":"0319E00080000000","a":"FORT COUCH RD","m":"Upper St. Clair","u":"L","o":"individual","sf":2284,"v":400}},{"type":"Feature","geometry":{"type":"Point","coordinates":[-80.0665,40.36085]},"properties":{"p":"0253H00025000000","a":"UPPER RD","m":"Upper St. Clair","u":"L","o":"corp","sf":67954,"v":45100}},{"type":"Feature","geometry":{"type":"Point","coordinates":[-80.06024,40.35802]},"properties":{"p":"0252P00180000000","a":"UPPER RD","m":"Upper St. Clair","u":"L","o":"individual","sf":60984,"v":44500}},{"type":"Feature","geometry":{"type":"Point","coordinates":[-80.07765,40.35944]},"properties":{"p":"0253K00250000000","a":"PAINTERS RUN RD","m":"Upper St. Clair","u":"L","o":"individual","sf":5041,"v":500}},{"type":"Feature","geometry":{"type":"Point","coordinates":[-80.06131,40.36318]},"properties":{"p":"0252B00160000000","a":"MCCONNELL MILL LN","m":"Mt.Lebanon","u":"L","o":"individual","sf":1742,"v":400}},{"type":"Feature","geometry":{"type":"Point","coordinates":[-80.06579,40.36185]},"properties":{"p":"0252E00185000000","a":"UPPER RD","m":"Upper St. Clair","u":"L","o":"corp","sf":1250,"v":100}},{"type":"Feature","geometry":{"type":"Point","coordinates":[-80.06805,40.35985]},"properties":{"p":"0253M00173000000","a":"ALJO DR","m":"Upper St. Clair","u":"L","o":"individual","sf":10200,"v":37000}},{"type":"Feature","geometry":{"type":"Point","coordinates":[-80.06005,40.36475]},"properties":{"p":"0252B00192000000","a":"SENECA DR","m":"Mt.Lebanon","u":"L","o":"individual","sf":657,"v":100}},{"type":"Feature","geometry":{"type":"Point","coordinates":[-80.06877,40.3634]},"properties":{"p":"0253D00107000000","a":"PINEWOOD DR","m":"Mt.Lebanon","u":"L","o":"corp","sf":19645,"v":7800}},{"type":"Feature","geometry":{"type":"Point","coordinates":[-80.06111,40.3566]},"properties":{"p":"0252N00029000000","a":"1733 QUIGG DR","m":"Upper St. Clair","u":"L","o":"individual","sf":86902,"v":5000}},{"type":"Feature","geometry":{"type":"Point","coordinates":[-80.06176,40.35835]},"properties":{"p":"0252K00310000000","a":"UPPER RD","m":"Upper St. Clair","u":"L","o":"individual","sf":20612,"v":1900}},{"type":"Feature","geometry":{"type":"Point","coordinates":[-80.06048,40.36642]},"properties":{"p":"0193P00158000000","a":"BEADLING RD","m":"Mt.Lebanon","u":"B","o":"corp","sf":6500,"v":3000}},{"type":"Feature","geometry":{"type":"Point","coordinates":[-80.06058,40.3663]},"properties":{"p":"0193P00160000000","a":"HARTLE LN","m":"Mt.Lebanon","u":"B","o":"corp","sf":6502,"v":3000}},{"type":"Feature","geometry":{"type":"Point","coordinates":[-80.06011,40.36621]},"properties":{"p":"0193P00165000000","a":"JAMES PL","m":"Mt.Lebanon","u":"B","o":"corp","sf":22417,"v":86600}},{"type":"Feature","geometry":{"type":"Point","coordinates":[-80.07151,40.36654]},"properties":{"p":"0194R00177000000","a":"KELSO RD","m":"Mt.Lebanon","u":"B","o":"corp","sf":17777,"v":12500}},{"type":"Feature","geometry":{"type":"Point","coordinates":[-80.0713,40.36641]},"properties":{"p":"0194R00180000000","a":"KELSO RD","m":"Mt.Lebanon","u":"B","o":"corp","sf":10713,"v":11400}},{"type":"Feature","geometry":{"type":"Point","coordinates":[-80.07097,40.3668]},"properties":{"p":"0194R00183000000","a":"780 ROBB HOLLOW RD","m":"Mt.Lebanon","u":"B","o":"corp","sf":53507,"v":18300}},{"type":"Feature","geometry":{"type":"Point","coordinates":[-80.06038,40.36653]},"properties":{"p":"0193P00156000000","a":"BEADLING RD","m":"Mt.Lebanon","u":"B","o":"corp","sf":6500,"v":3000}}]}