{"type":"FeatureCollection","features":[{"type":"Feature","geometry":{"type":"Point","coordinates":[-80.07675,40.51157]},"properties":{"p":"0277P00120000000","a":"WILSON DR","m":"Ben Avon Heights","u":"C","o":"corp","sf":4356,"v":56100}},{"type":"Feature","geometry":{"type":"Point","coordinates":[-80.07424,40.5116]},"properties":{"p":"0277R00120000000","a":"CAMBRIDGE RD","m":"Ben Avon Heights","u":"C","o":"corp","sf":354578,"v":8300}},{"type":"Feature","geometry":{"type":"Point","coordinates":[-80.07451,40.51035]},"properties":{"p":"0214C00200000000","a":"CAMBRIDGE RD","m":"Ben Avon Heights","u":"C","o":"corp","sf":152460,"v":92600}},{"type":"Feature","geometry":{"type":"Point","coordinates":[-80.07639,40.5113]},"properties":{"p":"0214B00100000000","a":"6869 PERRYSVILLE AVE","m":"Kilbuck","u":"C","o":"corp","sf":233176,"v":9400}},{"type":"Feature","geometry":{"type":"Point","coordinates":[-80.07534,40.52444]},"properties":{"p":"0348K00002000000","a":"STONER RD","m":"Ohio","u":"C","o":"corp","sf":48992,"v":267020}},{"type":"Feature","geometry":{"type":"Point","coordinates":[-80.06998,40.52256]},"properties":{"p":"0348R00001000000","a":"BEN AVON HEIGHTS RD","m":"Ohio","u":"C","o":"corp","sf":25613,"v":26400}},{"type":"Feature","geometry":{"type":"Point","coordinates":[-80.06536,40.52844]},"properties":{"p":"0348H00101000000","a":"CREEKSIDE LN","m":"Ohio","u":"C","o":"corp","sf":2227920,"v":853400}},{"type":"Feature","geometry":{"type":"Point","coordinates":[-80.07055,40.52195]},"properties":{"p":"0348R00002000000","a":"132 -156 BEN AVON HEIGHTS RD","m":"Ohio","u":"C","o":"corp","sf":25003,"v":21800}},{"type":"Feature","geometry":{"type":"Point","coordinates":[-80.07307,40.52342]},"properties":{"p":"0348R00019000000","a":"CAMP HORNE RD","m":"Ohio","u":"C","o":"corp","sf":14898,"v":77000}},{"type":"Feature","geometry":{"type":"Point","coordinates":[-80.06484,40.52316]},"properties":{"p":"0349J00100000000","a":"CREEKSIDE LN","m":"Ohio","u":"C","o":"corp","sf":2080352,"v":358200}},{"type":"Feature","geometry":{"type":"Point","coordinates":[-80.07351,40.52553]},"properties":{"p":"0348L00004000000","a":"JOSEPHS LN","m":"Ohio","u":"C","o":"corp","sf":194992,"v":91000}},{"type":"Feature","geometry":{"type":"Point","coordinates":[-80.07204,40.52535]},"properties":{"p":"0348L00008000000","a":"112 JOSEPHS LN","m":"Ohio","u":"C","o":"corp","sf":44866,"v":18000}},{"type":"Feature","geometry":{"type":"Point","coordinates":[-80.06099,40.51793]},"properties":{"p":"0278F00072000000","a":"COURTNEY MILL RD","m":"Ross","u":"C","o":"corp","sf":110642,"v":7000}},{"type":"Feature","geometry":{"type":"Point","coordinates":[-80.07066,40.52072]},"properties":{"p":"0348R00003000000","a":"BEN AVON HEIGHTS RD","m":"Ohio","u":"C","o":"corp","sf":26615,"v":27400}},{"type":"Feature","geometry":{"type":"Point","coordinates":[-80.07972,40.51165]},"properties":{"p":"0277N00150000000","a":"PERRYSVILLE AVE","m":"Ben Avon","u":"L","o":"individual","sf":19946,"v":62100}},{"type":"Feature","geometry":{"type":"Point","coordinates":[-80.07516,40.51023]},"properties":{"p":"0214B00027000000","a":"WALNUT RD","m":"Ben Avon Heights","u":"L","o":"individual","sf":22725,"v":12000}},{"type":"Feature","geometry":{"type":"Point","coordinates":[-80.07186,40.51528]},"properties":{"p":"0277L00045000000","a":"2 NEW BRIGHTON RD","m":"Ben Avon Heights","u":"L","o":"individual","sf":1303,"v":200}},{"type":"Feature","geometry":{"type":"Point","coordinates":[-80.07716,40.51318]},"properties":{"p":"0277P00052000000","a":"NEWGATE RD","m":"Ben Avon Heights","u":"L","o":"individual","sf":5044,"v":800}},{"type":"Feature","geometry":{"type":"Point","coordinates":[-80.07746,40.51315]},"properties":{"p":"0277P00055000100","a":"WILSON DR","m":"Ben Avon Heights","u":"L","o":"individual","sf":17868,"v":70900}},{"type":"Feature","geometry":{"type":"Point","coordinates":[-80.07396,40.5126]},"properties":{"p":"0277R00140000000","a":"PERRYSVILLE RD","m":"Ben Avon Heights","u":"L","o":"corp","sf":19385,"v":71100}},{"type":"Feature","geometry":{"type":"Point","coordinates":[-80.0796,40.51111]},"properties":{"p":"0214A00012000000","a":"MERTON RD","m":"Ben Avon","u":"L","o":"individual","sf":44867,"v":17500}},{"type":"Feature","geometry":{"type":"Point","coordinates":[-80.07666,40.51488]},"properties":{"p":"0277K00090000000","a":"KENT RD","m":"Ben Avon Heights","u":"L","o":"individual","sf":43560,"v":7000}},{"type":"Feature","geometry":{"type":"Point","coordinates":[-80.07824,40.51436]},"properties":{"p":"0277K00130000000","a":"NEWGATE RD","m":"Ben Avon Heights","u":"L","o":"individual","sf":36063,"v":36000}},{"type":"Feature","geometry":{"type":"Point","coordinates":[-80.07728,40.51401]},"properties":{"p":"0277K00160000000","a":"WILSON DR","m":"Ben Avon Heights","u":"L","o":"individual","sf":47045,"v":75600}},{"type":"Feature","geometry":{"type":"Point","coordinates":[-80.07864,40.51045]},"properties":{"p":"0214B00052000000","a":"MERTON RD","m":"Ben Avon","u":"L","o":"individual","sf":15681,"v":23600}},{"type":"Feature","geometry":{"type":"Point","coordinates":[-80.06928,40.51646]},"properties":{"p":"0277H00098000000","a":"SHANNOPIN DR","m":"Kilbuck","u":"L","o":"individual","sf":28251,"v":4000}},{"type":"Feature","geometry":{"type":"Point","coordinates":[-80.06777,40.51583]},"properties":{"p":"0277H00018000000","a":"BEN AVON HEIGHTS RD","m":"Kilbuck","u":"L","o":"individual","sf":64861,"v":66200}},{"type":"Feature","geometry":{"type":"Point","coordinates":[-80.07023,40.51623]},"properties":{"p":"0277H00064000000","a":"BEN AVON HEIGHTS RD","m":"Kilbuck","u":"L","o":"corp","sf":28825,"v":61200}},{"type":"Feature","geometry":{"type":"Point","coordinates":[-80.069,40.51577]},"properties":{"p":"0277H00007000000","a":"12 BEN AVON HEIGHTS RD","m":"Kilbuck","u":"L","o":"individual","sf":5513,"v":800}},{"type":"Feature","geometry":{"type":"Point","coordinates":[-80.07912,40.51816]},"properties":{"p":"0348N00150000000","a":"CAMP HORNE RD","m":"Kilbuck","u":"L","o":"corp","sf":2756185,"v":145500}},{"type":"Feature","geometry":{"type":"Point","coordinates":[-80.06947,40.51719]},"properties":{"p":"0277H00189000000","a":"SHANNOPIN DR","m":"Kilbuck","u":"L","o":"individual","sf":18137,"v":57200}},{"type":"Feature","geometry":{"type":"Point","coordinates":[-80.06808,40.51661]},"properties":{"p":"0277H00200000000","a":"THORNRIDGE RD","m":"Kilbuck","u":"L","o":"individual","sf":43408,"v":6100}},{"type":"Feature","geometry":{"type":"Point","coordinates":[-80.07718,40.52038]},"properties":{"p":"0277B00001000000","a":"CAMP HORNE RD","m":"Kilbuck","u":"L","o":"individual","sf":14810,"v":22200}},{"type":"Feature","geometry":{"type":"Point","coordinates":[-80.07126,40.51836]},"properties":{"p":"0277C00006000000","a":"THORNRIDGE RD","m":"Kilbuck","u":"L","o":"individual","sf":15938,"v":53900}},{"type":"Feature","geometry":{"type":"Point","coordinates":[-80.0796,40.51338]},"properties":{"p":"0277N00253000000","a":"5 THE KNOB RD","m":"Kilbuck","u":"L","o":"individual","sf":76666,"v":67800}},{"type":"Feature","geometry":{"type":"Point","coordinates":[-80.07444,40.51651]},"properties":{"p":"0277G00067000000","a":"7 THORNRIDGE RD","m":"Kilbuck","u":"L","o":"individual","sf":34756,"v":4900}},{"type":"Feature","geometry":{"type":"Point","coordinates":[-80.07445,40.51665]},"properties":{"p":"0277G00068000000","a":"THORNRIDGE RD","m":"Kilbuck","u":"L","o":"individual","sf":34658,"v":4900}},{"type":"Feature","geometry":{"type":"Point","coordinates":[-80.07449,40.51882]},"properties":{"p":"0277G00169000000","a":"THORNRIDGE RD","m":"Kilbuck","u":"L","o":"individual","sf":170145,"v":80700}},{"type":"Feature","geometry":{"type":"Point","coordinates":[-80.07328,40.51828]},"properties":{"p":"0277G00181000100","a":"19 THORNRIDGE RD","m":"Kilbuck","u":"L","o":"individual","sf":3789,"v":500}},{"type":"Feature","geometry":{"type":"Point","coordinates":[-80.06385,40.51745]},"properties":{"p":"0278E00005000000","a":"BEN AVON HEIGHTS RD","m":"Kilbuck","u":"L","o":"individual","sf":1524164,"v":89600}},{"type":"Feature","geometry":{"type":"Point","coordinates":[-80.07749,40.5127]},"properties":{"p":"0277P00090000100","a":"NEWGATE RD","m":"Kilbuck","u":"L","o":"individual","sf":43560,"v":63200}},{"type":"Feature","geometry":{"type":"Point","coordinates":[-80.06672,40.51927]},"properties":{"p":"0277D00086000000","a":"SHANNOPIN DR","m":"Ohio","u":"L","o":"corp","sf":102950,"v":43400}},{"type":"Feature","geometry":{"type":"Point","coordinates":[-80.06755,40.51989]},"properties":{"p":"0277D00093000000","a":"BEN AVON HEIGHTS RD","m":"Ohio","u":"L","o":"corp","sf":199426,"v":52200}},{"type":"Feature","geometry":{"type":"Point","coordinates":[-80.0768,40.52519]},"properties":{"p":"0348K00203000000","a":"LYNHURST DR","m":"Ohio","u":"L","o":"individual","sf":49049,"v":59700}},{"type":"Feature","geometry":{"type":"Point","coordinates":[-80.07718,40.5226]},"properties":{"p":"0348P00250000000","a":"LEGROGAN DR","m":"Ohio","u":"L","o":"individual","sf":87120,"v":8000}},{"type":"Feature","geometry":{"type":"Point","coordinates":[-80.07695,40.5222]},"properties":{"p":"0348P00329000000","a":"CAMP HORNE RD","m":"Ohio","u":"L","o":"individual","sf":23522,"v":18600}},{"type":"Feature","geometry":{"type":"Point","coordinates":[-80.0772,40.52723]},"properties":{"p":"0348F00015000000","a":"NORTHFIELD DR","m":"Ohio","u":"L","o":"corp","sf":566,"v":100}},{"type":"Feature","geometry":{"type":"Point","coordinates":[-80.07672,40.52068]},"properties":{"p":"0348P00045000000","a":"CAMP HORNE RD","m":"Ohio","u":"L","o":"individual","sf":13678,"v":1200}},{"type":"Feature","geometry":{"type":"Point","coordinates":[-80.07629,40.52051]},"properties":{"p":"0348P00065000000","a":"CAMP HORNE RD","m":"Ohio","u":"L","o":"corp","sf":35893,"v":17400}},{"type":"Feature","geometry":{"type":"Point","coordinates":[-80.07036,40.51824]},"properties":{"p":"0277H00342000000","a":"HIGHLAND DR","m":"Ohio","u":"L","o":"individual","sf":22208,"v":28800}},{"type":"Feature","geometry":{"type":"Point","coordinates":[-80.06667,40.51693]},"properties":{"p":"0277H00127000000","a":"SHANNOPIN DR","m":"Ohio","u":"L","o":"individual","sf":65340,"v":800}},{"type":"Feature","geometry":{"type":"Point","coordinates":[-80.07537,40.527]},"properties":{"p":"0348L00002000000","a":"COTTON LN","m":"Ohio","u":"L","o":"corp","sf":172106,"v":75200}},{"type":"Feature","geometry":{"type":"Point","coordinates":[-80.0604,40.51121]},"properties":{"p":"0215B00350000000","a":"SPRUCE VALLEY DR","m":"Ross","u":"L","o":"individual","sf":358499,"v":13200}},{"type":"Feature","geometry":{"type":"Point","coordinates":[-80.06192,40.5213]},"properties":{"p":"0349P00053000000","a":"COURTNEY MILL RD","m":"Ross","u":"L","o":"individual","sf":223519,"v":17100}},{"type":"Feature","geometry":{"type":"Point","coordinates":[-80.06095,40.51875]},"properties":{"p":"0278F00068000000","a":"COURTNEY MILL RD","m":"Ross","u":"L","o":"corp","sf":352400,"v":62600}},{"type":"Feature","geometry":{"type":"Point","coordinates":[-80.06835,40.51031]},"properties":{"p":"0214D00183000000","a":"992 E RIDGE AVE","m":"Kilbuck","u":"L","o":"individual","sf":2123,"v":300}},{"type":"Feature","geometry":{"type":"Point","coordinates":[-80.07224,40.51542]},"properties":{"p":"0277L00157000000","a":"2 NEW BRIGHTON RD","m":"Kilbuck","u":"L","o":"individual","sf":4194,"v":600}},{"type":"Feature","geometry":{"type":"Point","coordinates":[-80.07184,40.51454]},"properties":{"p":"0277L00023000000","a":"NEW BRIGHTON RD","m":"Ben Avon Heights","u":"L","o":"individual","sf":3000,"v":500}}]}