{"type":"FeatureCollection","features":[{"type":"Feature","geometry":{"type":"Point","coordinates":[-80.07618,40.39123]},"properties":{"p":"0100F00118000000","a":"1260 HOPE HOLLOW RD","m":"Scott","u":"C","o":"individual","sf":4564,"v":5800}},{"type":"Feature","geometry":{"type":"Point","coordinates":[-80.07612,40.40994]},"properties":{"p":"0066F00121000000","a":"FOREST AVE","m":"Scott","u":"C","o":"corp","sf":224,"v":100}},{"type":"Feature","geometry":{"type":"Point","coordinates":[-80.0604,40.39214]},"properties":{"p":"0099B00100000000","a":"COCHRAN RD","m":"Scott","u":"C","o":"individual","sf":11252,"v":11600}},{"type":"Feature","geometry":{"type":"Point","coordinates":[-80.07838,40.39065]},"properties":{"p":"0100F00168000000","a":"OLD GREENTREE RD","m":"Scott","u":"C","o":"individual","sf":1463,"v":700}},{"type":"Feature","geometry":{"type":"Point","coordinates":[-80.06893,40.39299]},"properties":{"p":"0100D00045000000","a":"GREENTREE RD","m":"Scott","u":"C","o":"corp","sf":3829,"v":300}},{"type":"Feature","geometry":{"type":"Point","coordinates":[-80.07281,40.39154]},"properties":{"p":"0100G00040000000","a":"GREENTREE RD","m":"Scott","u":"C","o":"corp","sf":14113,"v":8000}},{"type":"Feature","geometry":{"type":"Point","coordinates":[-80.07252,40.39149]},"properties":{"p":"0100G00055000001","a":"GREENTREE RD","m":"Scott","u":"C","o":"corp","sf":9888,"v":5600}},{"type":"Feature","geometry":{"type":"Point","coordinates":[-80.07406,40.40906]},"properties":{"p":"0066G00110000000","a":"BELL AVE","m":"Scott","u":"C","o":"individual","sf":374616,"v":8600}},{"type":"Feature","geometry":{"type":"Point","coordinates":[-80.07311,40.4096]},"properties":{"p":"0066G00112000000","a":"BELL AVE","m":"Scott","u":"C","o":"individual","sf":218845,"v":6600}},{"type":"Feature","geometry":{"type":"Point","coordinates":[-80.07999,40.39024]},"properties":{"p":"0100E00062000000","a":"GREENTREE RD","m":"Scott","u":"C","o":"individual","sf":4325,"v":2000}},{"type":"Feature","geometry":{"type":"Point","coordinates":[-80.0714,40.40915]},"properties":{"p":"0066G00175000000","a":"BELL AVE","m":"Scott","u":"C","o":"corp","sf":453024,"v":1500}},{"type":"Feature","geometry":{"type":"Point","coordinates":[-80.07637,40.39126]},"properties":{"p":"0100F00116000000","a":"HOPE HOLLOW RD","m":"Scott","u":"C","o":"individual","sf":4284,"v":5700}},{"type":"Feature","geometry":{"type":"Point","coordinates":[-80.07543,40.40897]},"properties":{"p":"0066K00027000000","a":"GORMLEY AVE","m":"Carnegie","u":"C","o":"corp","sf":1019,"v":300}},{"type":"Feature","geometry":{"type":"Point","coordinates":[-80.0649,40.39898]},"properties":{"p":"0064J00162000000","a":"GREENTREE RD","m":"Scott","u":"C","o":"corp","sf":23975,"v":73500}},{"type":"Feature","geometry":{"type":"Point","coordinates":[-80.07623,40.4031]},"properties":{"p":"0065B00062000000","a":"21 COOKS LN","m":"Carnegie","u":"L","o":"corp","sf":59242,"v":5400}},{"type":"Feature","geometry":{"type":"Point","coordinates":[-80.07393,40.40761]},"properties":{"p":"0066L00100000000","a":"WOODRUFF DR","m":"Carnegie","u":"L","o":"corp","sf":97574,"v":2200}},{"type":"Feature","geometry":{"type":"Point","coordinates":[-80.07783,40.40638]},"properties":{"p":"0066P00041000000","a":"110 PATTERSON AVE","m":"Carnegie","u":"L","o":"individual","sf":2400,"v":900}},{"type":"Feature","geometry":{"type":"Point","coordinates":[-80.07409,40.40064]},"properties":{"p":"0065G00056000000","a":"21 HUSLER PL","m":"Carnegie","u":"L","o":"individual","sf":1721,"v":200}},{"type":"Feature","geometry":{"type":"Point","coordinates":[-80.07922,40.40958]},"properties":{"p":"0066E00341000000","a":"TERRACE AVE","m":"Carnegie","u":"L","o":"individual","sf":334,"v":200}},{"type":"Feature","geometry":{"type":"Point","coordinates":[-80.0787,40.40946]},"properties":{"p":"0066E00368000000","a":"TERRACE AVE","m":"Carnegie","u":"L","o":"individual","sf":6419,"v":26100}},{"type":"Feature","geometry":{"type":"Point","coordinates":[-80.07015,40.39961]},"properties":{"p":"0065H00096000000","a":"SWALLOW HILL RD","m":"Carnegie","u":"L","o":"individual","sf":18477,"v":40500}},{"type":"Feature","geometry":{"type":"Point","coordinates":[-80.07998,40.39952]},"properties":{"p":"0065E00170000000","a":null,"m":"Carnegie","u":"L","o":"individual","sf":43560,"v":29500}},{"type":"Feature","geometry":{"type":"Point","coordinates":[-80.07785,40.40633]},"properties":{"p":"0066P00042000000","a":"106 PATTERSON AVE","m":"Carnegie","u":"L","o":"individual","sf":2400,"v":900}},{"type":"Feature","geometry":{"type":"Point","coordinates":[-80.07891,40.40772]},"properties":{"p":"0066J00218000000","a":"DAWSON AVE","m":"Carnegie","u":"L","o":"individual","sf":5500,"v":26100}},{"type":"Feature","geometry":{"type":"Point","coordinates":[-80.07909,40.40767]},"properties":{"p":"0066J00220000000","a":"DAWSON AVE","m":"Carnegie","u":"L","o":"individual","sf":5250,"v":26000}},{"type":"Feature","geometry":{"type":"Point","coordinates":[-80.07934,40.40759]},"properties":{"p":"0066J00224000000","a":"DAWSON AVE","m":"Carnegie","u":"L","o":"individual","sf":10000,"v":26500}},{"type":"Feature","geometry":{"type":"Point","coordinates":[-80.07978,40.40612]},"properties":{"p":"0066N00027000000","a":"DOW AVE","m":"Carnegie","u":"L","o":"individual","sf":3900,"v":1300}},{"type":"Feature","geometry":{"type":"Point","coordinates":[-80.07832,40.40444]},"properties":{"p":"0066P00100000000","a":"FEDERAL AVE","m":"Carnegie","u":"L","o":"individual","sf":4400,"v":1500}},{"type":"Feature","geometry":{"type":"Point","coordinates":[-80.07857,40.40781]},"properties":{"p":"0066K00085000000","a":"CHESTNUT ST","m":"Carnegie","u":"L","o":"corp","sf":32670,"v":10600}},{"type":"Feature","geometry":{"type":"Point","coordinates":[-80.07861,40.40408]},"properties":{"p":"0065B00004000000","a":"FEDERAL AVE","m":"Carnegie","u":"L","o":"individual","sf":4400,"v":8300}},{"type":"Feature","geometry":{"type":"Point","coordinates":[-80.07991,40.40972]},"properties":{"p":"0066E00271000000","a":"ANTHONY ST","m":"Carnegie","u":"L","o":"individual","sf":1350,"v":500}},{"type":"Feature","geometry":{"type":"Point","coordinates":[-80.07994,40.4096]},"properties":{"p":"0066E00273000000","a":"ANTHONY ST","m":"Carnegie","u":"L","o":"individual","sf":2538,"v":900}},{"type":"Feature","geometry":{"type":"Point","coordinates":[-80.06965,40.40336]},"properties":{"p":"0065D00064000000","a":"GRIENBRIER DR","m":"Carnegie","u":"L","o":"individual","sf":15272,"v":20300}},{"type":"Feature","geometry":{"type":"Point","coordinates":[-80.07956,40.4091]},"properties":{"p":"0066E00332000000","a":"RIDGE AVE","m":"Carnegie","u":"L","o":"corp","sf":16947,"v":27100}},{"type":"Feature","geometry":{"type":"Point","coordinates":[-80.07945,40.40728]},"properties":{"p":"0066J00310000000","a":"625 DOW AVE","m":"Carnegie","u":"L","o":"individual","sf":3770,"v":1300}},{"type":"Feature","geometry":{"type":"Point","coordinates":[-80.0691,40.40154]},"properties":{"p":"0065H00045000000","a":"SWALLOW HILL RD","m":"Carnegie","u":"L","o":"individual","sf":1128,"v":100}},{"type":"Feature","geometry":{"type":"Point","coordinates":[-80.07077,40.40457]},"properties":{"p":"0066R00068000000","a":"WOODRIDGE DR","m":"Carnegie","u":"L","o":"individual","sf":15072,"v":40200}},{"type":"Feature","geometry":{"type":"Point","coordinates":[-80.07333,40.39909]},"properties":{"p":"0065L00038000100","a":"1869 SWALLOW HILL RD","m":"Carnegie","u":"L","o":"individual","sf":7885,"v":700}},{"type":"Feature","geometry":{"type":"Point","coordinates":[-80.07881,40.40349]},"properties":{"p":"0065A00298000000","a":"FEDERAL AVE","m":"Carnegie","u":"L","o":"individual","sf":15000,"v":26900}},{"type":"Feature","geometry":{"type":"Point","coordinates":[-80.07637,40.40774]},"properties":{"p":"0066K00200000000","a":"819 CHESTNUT ST","m":"Carnegie","u":"L","o":"individual","sf":7468,"v":26200}},{"type":"Feature","geometry":{"type":"Point","coordinates":[-80.07486,40.40828]},"properties":{"p":"0066K00235000000","a":"WOODRUFF DR","m":"Carnegie","u":"L","o":"individual","sf":80891,"v":4800}},{"type":"Feature","geometry":{"type":"Point","coordinates":[-80.07701,40.39956]},"properties":{"p":"0065F00187000000","a":"LORRAINE DR","m":"Carnegie","u":"L","o":"corp","sf":2160,"v":200}},{"type":"Feature","geometry":{"type":"Point","coordinates":[-80.07877,40.40391]},"properties":{"p":"0065A00028000000","a":"FEDERAL AVE","m":"Carnegie","u":"L","o":"individual","sf":4345,"v":24300}},{"type":"Feature","geometry":{"type":"Point","coordinates":[-80.07935,40.40361]},"properties":{"p":"0065A00037000000","a":"FEDERAL AVE","m":"Carnegie","u":"L","o":"individual","sf":55,"v":100}},{"type":"Feature","geometry":{"type":"Point","coordinates":[-80.07216,40.40224]},"properties":{"p":"0065C00098000000","a":"SIGRID DR","m":"Carnegie","u":"L","o":"individual","sf":2460,"v":200}},{"type":"Feature","geometry":{"type":"Point","coordinates":[-80.07027,40.40576]},"properties":{"p":"0066S00035000000","a":"HOFFMEYER DR","m":"Carnegie","u":"L","o":"individual","sf":25395,"v":41200}},{"type":"Feature","geometry":{"type":"Point","coordinates":[-80.06891,40.40203]},"properties":{"p":"0065D00047000000","a":"GRIENBRIER DR","m":"Carnegie","u":"L","o":"individual","sf":7357,"v":700}},{"type":"Feature","geometry":{"type":"Point","coordinates":[-80.07997,40.4026]},"properties":{"p":"0065A00260000000","a":"FRANKLIN AVE","m":"Carnegie","u":"L","o":"individual","sf":14375,"v":4700}},{"type":"Feature","geometry":{"type":"Point","coordinates":[-80.07998,40.40288]},"properties":{"p":"0065A00274000000","a":"FEDERAL AVE","m":"Carnegie","u":"L","o":"individual","sf":31241,"v":10100}},{"type":"Feature","geometry":{"type":"Point","coordinates":[-80.0791,40.40285]},"properties":{"p":"0065A00281000000","a":"424 FRANKLIN AVE","m":"Carnegie","u":"L","o":"individual","sf":3465,"v":1200}},{"type":"Feature","geometry":{"type":"Point","coordinates":[-80.07768,40.40335]},"properties":{"p":"0065B00036000000","a":"ANNABELLE ST","m":"Carnegie","u":"L","o":"corp","sf":4140,"v":1400}},{"type":"Feature","geometry":{"type":"Point","coordinates":[-80.0727,40.40124]},"properties":{"p":"0065G00022000000","a":"SIGRID DR","m":"Carnegie","u":"L","o":"corp","sf":16500,"v":40400}},{"type":"Feature","geometry":{"type":"Point","coordinates":[-80.07168,40.40215]},"properties":{"p":"0065C00075000000","a":"SIGRID DR","m":"Carnegie","u":"L","o":"individual","sf":2232,"v":200}},{"type":"Feature","geometry":{"type":"Point","coordinates":[-80.0732,40.39956]},"properties":{"p":"0065G00152000000","a":"SWALLOW HILL RD","m":"Carnegie","u":"L","o":"individual","sf":9750,"v":36200}},{"type":"Feature","geometry":{"type":"Point","coordinates":[-80.06462,40.40842]},"properties":{"p":"0037J00306000100","a":"SPREADING OAK DR","m":"Greentree","u":"L","o":"individual","sf":12778,"v":4800}},{"type":"Feature","geometry":{"type":"Point","coordinates":[-80.06247,40.39076]},"properties":{"p":"0099E00118000000","a":"LARCHMONT RD","m":"Mt.Lebanon","u":"L","o":"individual","sf":174,"v":100}},{"type":"Feature","geometry":{"type":"Point","coordinates":[-80.06219,40.40616]},"properties":{"p":"0037N00102000000","a":"STURDY OAK DR","m":"Scott","u":"L","o":"individual","sf":4485,"v":1800}},{"type":"Feature","geometry":{"type":"Point","coordinates":[-80.06336,40.40747]},"properties":{"p":"0037J00036000100","a":"ARLA DR","m":"Scott","u":"L","o":"individual","sf":4651,"v":1800}},{"type":"Feature","geometry":{"type":"Point","coordinates":[-80.06548,40.40657]},"properties":{"p":"0037J00248000000","a":"SPREADING OAK DR","m":"Scott","u":"L","o":"individual","sf":87686,"v":53600}},{"type":"Feature","geometry":{"type":"Point","coordinates":[-80.06446,40.40798]},"properties":{"p":"0037J00350000100","a":"SPREADING OAK DR","m":"Scott","u":"L","o":"corp","sf":169,"v":800}},{"type":"Feature","geometry":{"type":"Point","coordinates":[-80.06224,40.40654]},"properties":{"p":"0037P00174000000","a":"STURDY OAK DR","m":"Scott","u":"L","o":"corp","sf":41530,"v":48700}},{"type":"Feature","geometry":{"type":"Point","coordinates":[-80.06021,40.40438]},"properties":{"p":"0037P00312000000","a":"ORCHARDVIEW DR","m":"Scott","u":"L","o":"individual","sf":9000,"v":45400}},{"type":"Feature","geometry":{"type":"Point","coordinates":[-80.06012,40.40248]},"properties":{"p":"0064B00181000000","a":"RYAN DR","m":"Scott","u":"L","o":"individual","sf":900,"v":400}},{"type":"Feature","geometry":{"type":"Point","coordinates":[-80.06499,40.40285]},"properties":{"p":"0064A00258000000","a":"SPREADING OAK DR","m":"Scott","u":"L","o":"individual","sf":9126,"v":45400}},{"type":"Feature","geometry":{"type":"Point","coordinates":[-80.07964,40.39362]},"properties":{"p":"0100A00115000000","a":"HOPE HOLLOW RD","m":"Scott","u":"L","o":"individual","sf":7100,"v":2600}},{"type":"Feature","geometry":{"type":"Point","coordinates":[-80.0796,40.39316]},"properties":{"p":"0100A00120000000","a":"HOPE HOLLOW RD","m":"Scott","u":"L","o":"individual","sf":59851,"v":16000}},{"type":"Feature","geometry":{"type":"Point","coordinates":[-80.07593,40.39065]},"properties":{"p":"0100F00142000000","a":"OLD GREENTREE RD","m":"Scott","u":"L","o":"corp","sf":3850,"v":1400}},{"type":"Feature","geometry":{"type":"Point","coordinates":[-80.06737,40.4026]},"properties":{"p":"0065D00174000000","a":"FORSYTHE RD","m":"Scott","u":"L","o":"individual","sf":6105,"v":2400}},{"type":"Feature","geometry":{"type":"Point","coordinates":[-80.07269,40.39894]},"properties":{"p":"0065L00030000100","a":"61 SWALLOW HILL RD","m":"Scott","u":"L","o":"individual","sf":853,"v":400}},{"type":"Feature","geometry":{"type":"Point","coordinates":[-80.07293,40.39892]},"properties":{"p":"0065L00032000100","a":"65 SWALLOW HILL RD","m":"Scott","u":"L","o":"individual","sf":4825,"v":1900}},{"type":"Feature","geometry":{"type":"Point","coordinates":[-80.07662,40.3907]},"properties":{"p":"0100F00148000000","a":"OLD GREENTREE RD","m":"Scott","u":"L","o":"corp","sf":11498,"v":40600}},{"type":"Feature","geometry":{"type":"Point","coordinates":[-80.07586,40.39389]},"properties":{"p":"0100B00148000000","a":"SWALLOW RD","m":"Scott","u":"L","o":"corp","sf":6310,"v":2400}},{"type":"Feature","geometry":{"type":"Point","coordinates":[-80.07373,40.39462]},"properties":{"p":"0065R00321000000","a":"FOXWOOD LN","m":"Scott","u":"L","o":"individual","sf":8363,"v":3200}},{"type":"Feature","geometry":{"type":"Point","coordinates":[-80.0751,40.39248]},"properties":{"p":"0100B00162000000","a":"HOPE ST","m":"Scott","u":"L","o":"corp","sf":11630,"v":4400}},{"type":"Feature","geometry":{"type":"Point","coordinates":[-80.07932,40.39404]},"properties":{"p":"0100A00018000000","a":"HOPE ST","m":"Scott","u":"L","o":"individual","sf":6500,"v":2500}},{"type":"Feature","geometry":{"type":"Point","coordinates":[-80.07663,40.39943]},"properties":{"p":"0065F00186000100","a":"LORRAINE DR","m":"Scott","u":"L","o":"individual","sf":1045,"v":500}},{"type":"Feature","geometry":{"type":"Point","coordinates":[-80.06639,40.39985]},"properties":{"p":"0065H00159000000","a":"FORSYTHE RD","m":"Scott","u":"L","o":"individual","sf":840,"v":400}},{"type":"Feature","geometry":{"type":"Point","coordinates":[-80.06649,40.40446]},"properties":{"p":"0066S00300000000","a":"WISE RD","m":"Scott","u":"L","o":"individual","sf":2178,"v":900}},{"type":"Feature","geometry":{"type":"Point","coordinates":[-80.07411,40.3922]},"properties":{"p":"0100F00008000000","a":"SWALLOW HILL RD","m":"Scott","u":"L","o":"individual","sf":71874,"v":46200}},{"type":"Feature","geometry":{"type":"Point","coordinates":[-80.07977,40.39512]},"properties":{"p":"0065N00124000000","a":"HOPE ST","m":"Scott","u":"L","o":"individual","sf":2875,"v":1200}},{"type":"Feature","geometry":{"type":"Point","coordinates":[-80.0772,40.39139]},"properties":{"p":"0100F00106000000","a":"HOPE HOLLOW RD","m":"Scott","u":"L","o":"individual","sf":10264,"v":40500}},{"type":"Feature","geometry":{"type":"Point","coordinates":[-80.07695,40.39135]},"properties":{"p":"0100F00110000000","a":"HOPE HOLLOW RD","m":"Scott","u":"L","o":"individual","sf":5880,"v":40100}},{"type":"Feature","geometry":{"type":"Point","coordinates":[-80.07665,40.3913]},"properties":{"p":"0100F00112000000","a":"HOPE HOLLOW RD","m":"Scott","u":"L","o":"individual","sf":10416,"v":3700}},{"type":"Feature","geometry":{"type":"Point","coordinates":[-80.06733,40.40839]},"properties":{"p":"0066M00038000000","a":"BLACK OAK DR","m":"Scott","u":"L","o":"corp","sf":30056,"v":11200}},{"type":"Feature","geometry":{"type":"Point","coordinates":[-80.07178,40.39678]},"properties":{"p":"0065L00198000000","a":"ORCHARD SPRING RD","m":"Scott","u":"L","o":"individual","sf":5022,"v":2000}},{"type":"Feature","geometry":{"type":"Point","coordinates":[-80.06527,40.39509]},"properties":{"p":"0064N00176000000","a":"GREENBRIAR DR","m":"Scott","u":"L","o":"individual","sf":11087,"v":45600}},{"type":"Feature","geometry":{"type":"Point","coordinates":[-80.0769,40.3922]},"properties":{"p":"0100B00222000000","a":"HOPE HOLLOW RD","m":"Scott","u":"L","o":"individual","sf":91040,"v":47900}},{"type":"Feature","geometry":{"type":"Point","coordinates":[-80.0772,40.3957]},"properties":{"p":"0065P00074000000","a":"SWALLOW RD","m":"Scott","u":"L","o":"individual","sf":6360,"v":2500}},{"type":"Feature","geometry":{"type":"Point","coordinates":[-80.07673,40.39654]},"properties":{"p":"0065P00120000000","a":"SWALLOW HILL CT","m":"Scott","u":"L","o":"individual","sf":2522,"v":1000}},{"type":"Feature","geometry":{"type":"Point","coordinates":[-80.07689,40.39637]},"properties":{"p":"0065P00120000100","a":"SWALLOW HILL RD","m":"Scott","u":"L","o":"individual","sf":1504,"v":700}},{"type":"Feature","geometry":{"type":"Point","coordinates":[-80.07629,40.39637]},"properties":{"p":"0065P00123000100","a":"SWALLOW HILL CT","m":"Scott","u":"L","o":"individual","sf":2321,"v":1000}},{"type":"Feature","geometry":{"type":"Point","coordinates":[-80.06724,40.39324]},"properties":{"p":"0100D00064000000","a":"ORCHARD SPRING RD","m":"Scott","u":"L","o":"corp","sf":10602,"v":4000}},{"type":"Feature","geometry":{"type":"Point","coordinates":[-80.06723,40.39349]},"properties":{"p":"0100D00070000000","a":"ORCHARD SPRING RD","m":"Scott","u":"L","o":"corp","sf":16710,"v":6300}},{"type":"Feature","geometry":{"type":"Point","coordinates":[-80.07967,40.39035]},"properties":{"p":"0100E00150000002","a":"GREENTREE RD","m":"Scott","u":"L","o":"corp","sf":12845,"v":200}},{"type":"Feature","geometry":{"type":"Point","coordinates":[-80.06556,40.39905]},"properties":{"p":"0064J00004000000","a":"GREENTREE RD","m":"Scott","u":"L","o":"individual","sf":41,"v":200}},{"type":"Feature","geometry":{"type":"Point","coordinates":[-80.07113,40.40702]},"properties":{"p":"0066L00248000000","a":"111 FLORENCE DR","m":"Scott","u":"L","o":"individual","sf":7500,"v":22800}},{"type":"Feature","geometry":{"type":"Point","coordinates":[-80.07722,40.39073]},"properties":{"p":"0100F00154000000","a":"OLD GREENTREE RD","m":"Scott","u":"L","o":"individual","sf":17122,"v":41100}},{"type":"Feature","geometry":{"type":"Point","coordinates":[-80.07765,40.39068]},"properties":{"p":"0100F00158000000","a":"2306 OLD GREENTREE RD","m":"Scott","u":"L","o":"individual","sf":4946,"v":1500}},{"type":"Feature","geometry":{"type":"Point","coordinates":[-80.07767,40.39078]},"properties":{"p":"0100F00160000000","a":"GREENTREE RD","m":"Scott","u":"L","o":"individual","sf":11250,"v":4000}},{"type":"Feature","geometry":{"type":"Point","coordinates":[-80.07779,40.39078]},"properties":{"p":"0100F00162000000","a":"OLD GREENTREE RD","m":"Scott","u":"L","o":"individual","sf":9507,"v":40400}},{"type":"Feature","geometry":{"type":"Point","coordinates":[-80.07707,40.39422]},"properties":{"p":"0100B00023000000","a":"BYGATE CIR","m":"Scott","u":"L","o":"individual","sf":575,"v":300}},{"type":"Feature","geometry":{"type":"Point","coordinates":[-80.07515,40.39873]},"properties":{"p":"0065K00160000002","a":"SWALLOW HILL RD","m":"Scott","u":"L","o":"individual","sf":2787,"v":1100}},{"type":"Feature","geometry":{"type":"Point","coordinates":[-80.07778,40.39126]},"properties":{"p":"0100F00170000000","a":"GREENTREE RD","m":"Scott","u":"L","o":"individual","sf":962,"v":400}},{"type":"Feature","geometry":{"type":"Point","coordinates":[-80.07796,40.39126]},"properties":{"p":"0100F00174000000","a":"GREENTREE RD","m":"Scott","u":"L","o":"individual","sf":4032,"v":36100}},{"type":"Feature","geometry":{"type":"Point","coordinates":[-80.07816,40.3913]},"properties":{"p":"0100F00178000000","a":"GREENTREE RD","m":"Scott","u":"L","o":"individual","sf":7363,"v":15000}},{"type":"Feature","geometry":{"type":"Point","coordinates":[-80.07584,40.39397]},"properties":{"p":"0100B00094000000","a":"FIELDSTONE DR","m":"Scott","u":"L","o":"corp","sf":4225,"v":1700}},{"type":"Feature","geometry":{"type":"Point","coordinates":[-80.0676,40.40738]},"properties":{"p":"0066M00319000000","a":"18 FLORENCE DR","m":"Scott","u":"L","o":"individual","sf":8617,"v":22900}},{"type":"Feature","geometry":{"type":"Point","coordinates":[-80.06812,40.40747]},"properties":{"p":"0066M00323000000","a":"24 FLORENCE DR","m":"Scott","u":"L","o":"individual","sf":14471,"v":46000}},{"type":"Feature","geometry":{"type":"Point","coordinates":[-80.06939,40.39366]},"properties":{"p":"0100D00038000000","a":"ORCHARD SPRING RD","m":"Scott","u":"L","o":"individual","sf":1487,"v":700}},{"type":"Feature","geometry":{"type":"Point","coordinates":[-80.06914,40.39344]},"properties":{"p":"0100D00040000000","a":"ORCHARD SPRING RD","m":"Scott","u":"L","o":"individual","sf":1814,"v":800}},{"type":"Feature","geometry":{"type":"Point","coordinates":[-80.0683,40.39344]},"properties":{"p":"0100D00056000000","a":"ORCHARD SPRING RD","m":"Scott","u":"L","o":"individual","sf":422,"v":1900}},{"type":"Feature","geometry":{"type":"Point","coordinates":[-80.07977,40.39012]},"properties":{"p":"0100E00057000000","a":"GREENTREE RD","m":"Scott","u":"L","o":"corp","sf":812,"v":400}},{"type":"Feature","geometry":{"type":"Point","coordinates":[-80.07857,40.3913]},"properties":{"p":"0100E00070000000","a":"GREENTREE RD","m":"Scott","u":"L","o":"individual","sf":38195,"v":43000}},{"type":"Feature","geometry":{"type":"Point","coordinates":[-80.07868,40.39076]},"properties":{"p":"0100E00072000000","a":"GREENTREE RD","m":"Scott","u":"L","o":"individual","sf":2867,"v":1100}},{"type":"Feature","geometry":{"type":"Point","coordinates":[-80.07563,40.40921]},"properties":{"p":"0066K00028000100","a":"GORMLEY AVE","m":"Scott","u":"L","o":"individual","sf":226,"v":900}},{"type":"Feature","geometry":{"type":"Point","coordinates":[-80.06566,40.39503]},"properties":{"p":"0064N00172000000","a":"1899 GREENTREE RD","m":"Scott","u":"L","o":"individual","sf":24102,"v":46900}},{"type":"Feature","geometry":{"type":"Point","coordinates":[-80.06796,40.39264]},"properties":{"p":"0100D00140000000","a":"COCHRAN RD","m":"Scott","u":"L","o":"individual","sf":98446,"v":10200}},{"type":"Feature","geometry":{"type":"Point","coordinates":[-80.07305,40.39275]},"properties":{"p":"0100C00203000000","a":"400 FOXWOOD LN","m":"Scott","u":"L","o":"individual","sf":11979,"v":45700}},{"type":"Feature","geometry":{"type":"Point","coordinates":[-80.06681,40.40956]},"properties":{"p":"0066H00065000000","a":"WOODRIDGE DR","m":"Greentree","u":"L","o":"individual","sf":3398,"v":1400}},{"type":"Feature","geometry":{"type":"Point","coordinates":[-80.07816,40.4004]},"properties":{"p":"0065F00234000000","a":"LORRAINE PL","m":"Carnegie","u":"L","o":"individual","sf":3703,"v":1300}},{"type":"Feature","geometry":{"type":"Point","coordinates":[-80.07911,40.40989]},"properties":{"p":"0066E00343000000","a":"RIDGE AVE","m":"Carnegie","u":"L","o":"individual","sf":13632,"v":2000}},{"type":"Feature","geometry":{"type":"Point","coordinates":[-80.07878,40.40327]},"properties":{"p":"0065A00273000000","a":"426 FRANKLIN AVE","m":"Carnegie","u":"L","o":"individual","sf":7405,"v":2500}},{"type":"Feature","geometry":{"type":"Point","coordinates":[-80.07101,40.40697]},"properties":{"p":"0066L00247000000","a":"FLORENCE DR","m":"Scott","u":"L","o":"individual","sf":3000,"v":1200}},{"type":"Feature","geometry":{"type":"Point","coordinates":[-80.07566,40.39368]},"properties":{"p":"0100B00300000000","a":"ROBIN DR","m":"Scott","u":"L","o":"corp","sf":8724,"v":3300}},{"type":"Feature","geometry":{"type":"Point","coordinates":[-80.07929,40.39]},"properties":{"p":"0100E00132000000","a":"2351 OLD GREENTREE RD","m":"Scott","u":"B","o":"individual","sf":1998,"v":600}},{"type":"Feature","geometry":{"type":"Point","coordinates":[-80.07899,40.39013]},"properties":{"p":"0100E00231000000","a":"2343 OLD GREENTREE RD","m":"Scott","u":"B","o":"individual","sf":3785,"v":600}},{"type":"Feature","geometry":{"type":"Point","coordinates":[-80.07908,40.39009]},"properties":{"p":"0100E00235000000","a":"2345 OLD GREENTREE RD","m":"Scott","u":"B","o":"individual","sf":1998,"v":600}},{"type":"Feature","geometry":{"type":"Point","coordinates":[-80.07915,40.39006]},"properties":{"p":"0100E00236000000","a":"2347 OLD GREENTREE RD","m":"Scott","u":"B","o":"individual","sf":1998,"v":600}},{"type":"Feature","geometry":{"type":"Point","coordinates":[-80.07922,40.39003]},"properties":{"p":"0100E00130000000","a":"2349 OLD GREENTREE RD","m":"Scott","u":"B","o":"individual","sf":1998,"v":600}}]}