{"type":"FeatureCollection","features":[{"type":"Feature","geometry":{"type":"Point","coordinates":[-80.07284,40.57813]},"properties":{"p":"0823C00166000000","a":"INGOMAR HEIGHTS RD","m":"Franklin Park","u":"C","o":"corp","sf":109074,"v":277800}},{"type":"Feature","geometry":{"type":"Point","coordinates":[-80.06741,40.58602]},"properties":{"p":"0942H00150000000","a":"W INGOMAR RD","m":"Franklin Park","u":"C","o":"corp","sf":148579,"v":77400}},{"type":"Feature","geometry":{"type":"Point","coordinates":[-80.07977,40.57958]},"properties":{"p":"0942N00051000000","a":"MILBERT DR","m":"Franklin Park","u":"C","o":"individual","sf":28312,"v":14500}},{"type":"Feature","geometry":{"type":"Point","coordinates":[-80.0646,40.5747]},"properties":{"p":"0824E00149000000","a":"TANBARK DR","m":"McCandless","u":"C","o":"corp","sf":140198,"v":123000}},{"type":"Feature","geometry":{"type":"Point","coordinates":[-80.07385,40.58765]},"properties":{"p":"0942C00268000000","a":"BONNETT DR","m":"Franklin Park","u":"L","o":"individual","sf":20139,"v":25000}},{"type":"Feature","geometry":{"type":"Point","coordinates":[-80.07811,40.5701]},"properties":{"p":"0823P00329000100","a":"REIS RUN RD","m":"Franklin Park","u":"L","o":"individual","sf":20804,"v":25100}},{"type":"Feature","geometry":{"type":"Point","coordinates":[-80.06832,40.57057]},"properties":{"p":"0823S00096000100","a":"POOR RICHARDS LN","m":"Franklin Park","u":"L","o":"individual","sf":3251,"v":600}},{"type":"Feature","geometry":{"type":"Point","coordinates":[-80.07718,40.57787]},"properties":{"p":"0823B00275000000","a":"ROCHESTER RD","m":"Franklin Park","u":"L","o":"individual","sf":20082,"v":25000}},{"type":"Feature","geometry":{"type":"Point","coordinates":[-80.06804,40.57976]},"properties":{"p":"0942S00113000000","a":"CLEARVUE RD","m":"Franklin Park","u":"L","o":"individual","sf":46174,"v":51600}},{"type":"Feature","geometry":{"type":"Point","coordinates":[-80.06927,40.5798]},"properties":{"p":"0942S00198000000","a":"INGOMAR HEIGHTS RD","m":"Franklin Park","u":"L","o":"individual","sf":50530,"v":51600}},{"type":"Feature","geometry":{"type":"Point","coordinates":[-80.06879,40.58011]},"properties":{"p":"0942S00216000000","a":"INGOMAR HEIGHTS RD","m":"Franklin Park","u":"L","o":"individual","sf":52490,"v":51600}},{"type":"Feature","geometry":{"type":"Point","coordinates":[-80.06785,40.58054]},"properties":{"p":"0942S00249000000","a":"INGOMAR HEIGHTS RD","m":"Franklin Park","u":"L","o":"individual","sf":75359,"v":51600}},{"type":"Feature","geometry":{"type":"Point","coordinates":[-80.07924,40.58778]},"properties":{"p":"0942B00360000000","a":"KUHLVIEW DR","m":"Franklin Park","u":"L","o":"individual","sf":6145,"v":700}},{"type":"Feature","geometry":{"type":"Point","coordinates":[-80.07955,40.58456]},"properties":{"p":"0942E00087000000","a":"2366 BELLWOOD DR","m":"Franklin Park","u":"L","o":"corp","sf":4084,"v":5100}},{"type":"Feature","geometry":{"type":"Point","coordinates":[-80.07462,40.57613]},"properties":{"p":"0823G00206000100","a":"ROCHESTER RD","m":"Franklin Park","u":"L","o":"individual","sf":7793,"v":900}},{"type":"Feature","geometry":{"type":"Point","coordinates":[-80.07306,40.58312]},"properties":{"p":"0942L00133000000","a":"1531 ROBERTSON DR","m":"Franklin Park","u":"L","o":"individual","sf":10900,"v":1200}},{"type":"Feature","geometry":{"type":"Point","coordinates":[-80.07391,40.58582]},"properties":{"p":"0942G00251000000","a":"W INGOMAR RD","m":"Franklin Park","u":"L","o":"individual","sf":30463,"v":51200}},{"type":"Feature","geometry":{"type":"Point","coordinates":[-80.07575,40.58724]},"properties":{"p":"0942B00029000100","a":"OAKVIEW DR","m":"Franklin Park","u":"L","o":"individual","sf":174,"v":10100}},{"type":"Feature","geometry":{"type":"Point","coordinates":[-80.07577,40.5871]},"properties":{"p":"0942B00029000200","a":"OAKVIEW DR","m":"Franklin Park","u":"L","o":"individual","sf":1394,"v":200}},{"type":"Feature","geometry":{"type":"Point","coordinates":[-80.06992,40.58474]},"properties":{"p":"0942H00274000000","a":"2365 JAMES DR","m":"Franklin Park","u":"L","o":"individual","sf":23508,"v":25400}},{"type":"Feature","geometry":{"type":"Point","coordinates":[-80.07468,40.57318]},"properties":{"p":"0823L00357000000","a":"1546 CRESTVIEW DR","m":"Franklin Park","u":"L","o":"individual","sf":2330,"v":300}},{"type":"Feature","geometry":{"type":"Point","coordinates":[-80.07649,40.58077]},"properties":{"p":"0942P00300000000","a":"NEVIN DR","m":"Franklin Park","u":"L","o":"corp","sf":3050,"v":300}},{"type":"Feature","geometry":{"type":"Point","coordinates":[-80.07415,40.58953]},"properties":{"p":"1069R00261000000","a":"QUARRY RD","m":"Franklin Park","u":"L","o":"individual","sf":43560,"v":27700}},{"type":"Feature","geometry":{"type":"Point","coordinates":[-80.06282,40.58561]},"properties":{"p":"0943E00095000000","a":"WOODLAND RD","m":"McCandless","u":"L","o":"corp","sf":21750,"v":30000}},{"type":"Feature","geometry":{"type":"Point","coordinates":[-80.06651,40.58357]},"properties":{"p":"0943J00361000100","a":"W INGOMAR RD","m":"McCandless","u":"L","o":"corp","sf":14418,"v":1300}},{"type":"Feature","geometry":{"type":"Point","coordinates":[-80.06609,40.58877]},"properties":{"p":"0943A00380000000","a":"VAN DR","m":"McCandless","u":"L","o":"corp","sf":25700,"v":18000}},{"type":"Feature","geometry":{"type":"Point","coordinates":[-80.06151,40.58013]},"properties":{"p":"0943P00322000000","a":"ORCHARD RD","m":"McCandless","u":"L","o":"individual","sf":27261,"v":36400}},{"type":"Feature","geometry":{"type":"Point","coordinates":[-80.06534,40.58466]},"properties":{"p":"0943E00243000000","a":"WOODLAND RD","m":"McCandless","u":"L","o":"individual","sf":25583,"v":36300}},{"type":"Feature","geometry":{"type":"Point","coordinates":[-80.0639,40.58969]},"properties":{"p":"1070N00117000000","a":"VAN DR","m":"McCandless","u":"L","o":"corp","sf":142737,"v":13300}},{"type":"Feature","geometry":{"type":"Point","coordinates":[-80.06598,40.58032]},"properties":{"p":"0943N00268000000","a":"HILLIARD RD","m":"McCandless","u":"L","o":"individual","sf":20850,"v":35800}},{"type":"Feature","geometry":{"type":"Point","coordinates":[-80.06438,40.57837]},"properties":{"p":"0824A00206000000","a":"HILLIARD RD","m":"McCandless","u":"L","o":"individual","sf":21401,"v":1900}},{"type":"Feature","geometry":{"type":"Point","coordinates":[-80.0627,40.58848]},"properties":{"p":"0943A00052000000","a":"BRANT AVE","m":"McCandless","u":"L","o":"individual","sf":37000,"v":37300}},{"type":"Feature","geometry":{"type":"Point","coordinates":[-80.06311,40.5706]},"properties":{"p":"0824N00026000000","a":"SLOOP RD","m":"McCandless","u":"L","o":"corp","sf":104980,"v":10000}},{"type":"Feature","geometry":{"type":"Point","coordinates":[-80.06038,40.57373]},"properties":{"p":"0824K00305000000","a":"MARYMONT DR","m":"McCandless","u":"L","o":"individual","sf":58806,"v":30600}},{"type":"Feature","geometry":{"type":"Point","coordinates":[-80.07766,40.58247]},"properties":{"p":"0942K00175000100","a":"NEVIN DR","m":"Franklin Park","u":"L","o":"individual","sf":16379,"v":1800}},{"type":"Feature","geometry":{"type":"Point","coordinates":[-80.0702,40.57076]},"properties":{"p":"0823R00066000000","a":"ROCHESTER RD","m":"Franklin Park","u":"L","o":"individual","sf":32670,"v":5600}},{"type":"Feature","geometry":{"type":"Point","coordinates":[-80.0764,40.5775]},"properties":{"p":"0823B00281000000","a":"1001 TAYLOR LN","m":"Franklin Park","u":"B","o":"corp","sf":26890,"v":8400}},{"type":"Feature","geometry":{"type":"Point","coordinates":[-80.07581,40.57752]},"properties":{"p":"0823B00282000000","a":"1003 TAYLOR LN","m":"Franklin Park","u":"B","o":"corp","sf":26717,"v":8300}},{"type":"Feature","geometry":{"type":"Point","coordinates":[-80.07214,40.57565]},"properties":{"p":"0823G00278000000","a":"INGOMAR HEIGHTS RD","m":"Franklin Park","u":"B","o":"individual","sf":34363,"v":9200}},{"type":"Feature","geometry":{"type":"Point","coordinates":[-80.0624,40.58218]},"properties":{"p":"0943J00035000000","a":"W INGOMAR RD","m":"McCandless","u":"B","o":"corp","sf":14700,"v":5500}}]}