{"type":"FeatureCollection","features":[{"type":"Feature","geometry":{"type":"Point","coordinates":[-80.06878,40.56578]},"properties":{"p":"0712D00065000000","a":"KING HENRY DR","m":"Franklin Park","u":"L","o":"corp","sf":61158,"v":82100}},{"type":"Feature","geometry":{"type":"Point","coordinates":[-80.07854,40.56099]},"properties":{"p":"0712P00370000000","a":"FOREST RIDGE DR","m":"Franklin Park","u":"L","o":"individual","sf":24356,"v":32600}},{"type":"Feature","geometry":{"type":"Point","coordinates":[-80.07977,40.55456]},"properties":{"p":"0609J00162000000","a":"ARNDT RD","m":"Franklin Park","u":"L","o":"corp","sf":29621,"v":38500}},{"type":"Feature","geometry":{"type":"Point","coordinates":[-80.06512,40.55012]},"properties":{"p":"0610N00025000000","a":"FRANKLIN RUN CT","m":"Franklin Park","u":"L","o":"corp","sf":140089,"v":0}},{"type":"Feature","geometry":{"type":"Point","coordinates":[-80.07911,40.56674]},"properties":{"p":"0712F00362000000","a":"REIS RUN RD","m":"Franklin Park","u":"L","o":"individual","sf":25352,"v":65000}},{"type":"Feature","geometry":{"type":"Point","coordinates":[-80.0791,40.56651]},"properties":{"p":"0712F00364000000","a":"REIS RUN RD","m":"Franklin Park","u":"L","o":"corp","sf":25352,"v":65000}},{"type":"Feature","geometry":{"type":"Point","coordinates":[-80.07909,40.56622]},"properties":{"p":"0712F00366000000","a":"REIS RUN RD","m":"Franklin Park","u":"L","o":"corp","sf":25352,"v":65000}},{"type":"Feature","geometry":{"type":"Point","coordinates":[-80.07868,40.56748]},"properties":{"p":"0712B00182000100","a":"LACOSTA CT","m":"Franklin Park","u":"L","o":"individual","sf":1220,"v":200}},{"type":"Feature","geometry":{"type":"Point","coordinates":[-80.07839,40.56941]},"properties":{"p":"0712B00264000100","a":"SAW GRASS CT","m":"Franklin Park","u":"L","o":"individual","sf":1045,"v":100}},{"type":"Feature","geometry":{"type":"Point","coordinates":[-80.0784,40.56951]},"properties":{"p":"0712B00266000100","a":"1705 SAW GRASS CT","m":"Franklin Park","u":"L","o":"individual","sf":322,"v":19500}},{"type":"Feature","geometry":{"type":"Point","coordinates":[-80.07117,40.56775]},"properties":{"p":"0712C00031000000","a":"1511 SANHURST DR","m":"Franklin Park","u":"L","o":"individual","sf":2225,"v":400}},{"type":"Feature","geometry":{"type":"Point","coordinates":[-80.07368,40.5502]},"properties":{"p":"0609R00302000000","a":"REIS RUN RD","m":"Franklin Park","u":"L","o":"individual","sf":76230,"v":16400}},{"type":"Feature","geometry":{"type":"Point","coordinates":[-80.07669,40.55712]},"properties":{"p":"0609F00057000000","a":"REIS RUN RD","m":"Franklin Park","u":"L","o":"corp","sf":203033,"v":106500}},{"type":"Feature","geometry":{"type":"Point","coordinates":[-80.07624,40.55357]},"properties":{"p":"0609K00140000100","a":"WINDCREST DR","m":"Franklin Park","u":"L","o":"individual","sf":5127,"v":900}},{"type":"Feature","geometry":{"type":"Point","coordinates":[-80.07548,40.55381]},"properties":{"p":"0609K00151000100","a":"WINDCREST DR","m":"Franklin Park","u":"L","o":"individual","sf":15390,"v":2600}},{"type":"Feature","geometry":{"type":"Point","coordinates":[-80.0748,40.55426]},"properties":{"p":"0609K00167000000","a":"REIS RUN RD","m":"Franklin Park","u":"L","o":"corp","sf":92347,"v":92900}},{"type":"Feature","geometry":{"type":"Point","coordinates":[-80.0771,40.55331]},"properties":{"p":"0609K00186000100","a":"WINDCREST DR","m":"Franklin Park","u":"L","o":"corp","sf":22443,"v":3800}},{"type":"Feature","geometry":{"type":"Point","coordinates":[-80.07318,40.55411]},"properties":{"p":"0609L00212000000","a":"REIS RUN RD","m":"Franklin Park","u":"L","o":"individual","sf":7685,"v":1700}},{"type":"Feature","geometry":{"type":"Point","coordinates":[-80.07958,40.55574]},"properties":{"p":"0609E00113000000","a":"SHADOW RIDGE CT","m":"Franklin Park","u":"L","o":"individual","sf":46609,"v":56000}},{"type":"Feature","geometry":{"type":"Point","coordinates":[-80.06312,40.56194]},"properties":{"p":"0713K00263000000","a":"ROCHESTER RD","m":"McCandless","u":"L","o":"individual","sf":444560,"v":19900}},{"type":"Feature","geometry":{"type":"Point","coordinates":[-80.06114,40.55991]},"properties":{"p":"0713P00157000000","a":"ROCHESTER RD","m":"McCandless","u":"L","o":"corp","sf":47045,"v":38200}},{"type":"Feature","geometry":{"type":"Point","coordinates":[-80.06016,40.56054]},"properties":{"p":"0713P00256000000","a":"ROCHESTER RD","m":"McCandless","u":"L","o":"individual","sf":107158,"v":32500}},{"type":"Feature","geometry":{"type":"Point","coordinates":[-80.06396,40.56509]},"properties":{"p":"0713E00072000000","a":"PRINCE ANDREW CT","m":"McCandless","u":"L","o":"corp","sf":20013,"v":35800}},{"type":"Feature","geometry":{"type":"Point","coordinates":[-80.06262,40.56424]},"properties":{"p":"0713E00087000000","a":"ROCHESTER RD","m":"McCandless","u":"L","o":"corp","sf":174240,"v":49900}},{"type":"Feature","geometry":{"type":"Point","coordinates":[-80.06454,40.56055]},"properties":{"p":"0713N00289000000","a":"BROAD HILL DR","m":"McCandless","u":"L","o":"individual","sf":87120,"v":41900}},{"type":"Feature","geometry":{"type":"Point","coordinates":[-80.0623,40.55206]},"properties":{"p":"0610J00040000000","a":"ROCHESTER RD","m":"Ross","u":"L","o":"individual","sf":159430,"v":66900}},{"type":"Feature","geometry":{"type":"Point","coordinates":[-80.07718,40.55388]},"properties":{"p":"0609K00186000000","a":"REIS RUN RD","m":"Franklin Park","u":"L","o":"corp","sf":200812,"v":13800}},{"type":"Feature","geometry":{"type":"Point","coordinates":[-80.07489,40.55992]},"properties":{"p":"0712P00176000000","a":"REIS RUN RD","m":"Franklin Park","u":"L","o":"individual","sf":146362,"v":18900}},{"type":"Feature","geometry":{"type":"Point","coordinates":[-80.06161,40.56391]},"properties":{"p":"0713K00232000000","a":"SLOOP RD","m":"McCandless","u":"L","o":"individual","sf":147799,"v":27000}},{"type":"Feature","geometry":{"type":"Point","coordinates":[-80.07661,40.55617]},"properties":{"p":"0609F00088000000","a":"REIS RUN RD","m":"Franklin Park","u":"L","o":"corp","sf":163786,"v":106500}},{"type":"Feature","geometry":{"type":"Point","coordinates":[-80.06973,40.56758]},"properties":{"p":"0712D00043000000","a":"KING EDWARD DR","m":"Franklin Park","u":"B","o":"corp","sf":13882,"v":6900}}]}