{"type":"FeatureCollection","features":[{"type":"Feature","geometry":{"type":"Point","coordinates":[-80.06662,40.62849]},"properties":{"p":"1657S00035000000","a":"MANOR RD","m":"Pine","u":"C","o":"corp","sf":6534,"v":1000}},{"type":"Feature","geometry":{"type":"Point","coordinates":[-80.0669,40.62817]},"properties":{"p":"1657S00030000000","a":"LAUREL HILL ST","m":"Pine","u":"C","o":"corp","sf":27137,"v":61000}},{"type":"Feature","geometry":{"type":"Point","coordinates":[-80.06661,40.62901]},"properties":{"p":"1657S00032000000","a":"MANOR RD","m":"Pine","u":"C","o":"corp","sf":22542,"v":60400}},{"type":"Feature","geometry":{"type":"Point","coordinates":[-80.06269,40.61559]},"properties":{"p":"1348E00021000000","a":"BROOKTREE RD","m":"Pine","u":"C","o":"corp","sf":70393,"v":24200}},{"type":"Feature","geometry":{"type":"Point","coordinates":[-80.07816,40.6144]},"properties":{"p":"1347F00268000000","a":"2581 WEXFORD RUN RD","m":"Franklin Park","u":"L","o":"corp","sf":380017,"v":39200}},{"type":"Feature","geometry":{"type":"Point","coordinates":[-80.07367,40.6121]},"properties":{"p":"1347L00187000000","a":"DIXON LN","m":"Franklin Park","u":"L","o":"individual","sf":87120,"v":15000}},{"type":"Feature","geometry":{"type":"Point","coordinates":[-80.07027,40.62042]},"properties":{"p":"1498S00027000000","a":"2755 COLE RD","m":"Marshall","u":"L","o":"individual","sf":29494,"v":13400}},{"type":"Feature","geometry":{"type":"Point","coordinates":[-80.07452,40.62932]},"properties":{"p":"1657R00022000000","a":"MANOR RD","m":"Marshall","u":"L","o":"individual","sf":26877,"v":52000}},{"type":"Feature","geometry":{"type":"Point","coordinates":[-80.07235,40.62944]},"properties":{"p":"1657R00013000000","a":"GUCKERT LN","m":"Marshall","u":"L","o":"individual","sf":3833,"v":600}},{"type":"Feature","geometry":{"type":"Point","coordinates":[-80.07494,40.62929]},"properties":{"p":"1657P00012000000","a":"MANOR RD","m":"Marshall","u":"L","o":"individual","sf":28532,"v":72600}},{"type":"Feature","geometry":{"type":"Point","coordinates":[-80.07723,40.62891]},"properties":{"p":"1657P00015000000","a":"MANOR RD","m":"Marshall","u":"L","o":"corp","sf":83635,"v":1000}},{"type":"Feature","geometry":{"type":"Point","coordinates":[-80.06991,40.62415]},"properties":{"p":"1498H00020000000","a":"1388 ROYAL OAK DR","m":"Marshall","u":"L","o":"individual","sf":435,"v":100}},{"type":"Feature","geometry":{"type":"Point","coordinates":[-80.07592,40.62019]},"properties":{"p":"1498P00008000000","a":"WEXFORD BAYNE RD","m":"Marshall","u":"L","o":"individual","sf":104544,"v":36600}},{"type":"Feature","geometry":{"type":"Point","coordinates":[-80.07616,40.6173]},"properties":{"p":"1347B00007000000","a":"2640 LANSDALE DR","m":"Marshall","u":"L","o":"individual","sf":405,"v":100}},{"type":"Feature","geometry":{"type":"Point","coordinates":[-80.06243,40.61814]},"properties":{"p":"1499P00019000000","a":"MCCANDLESS PL","m":"Pine","u":"L","o":"individual","sf":34860,"v":6300}},{"type":"Feature","geometry":{"type":"Point","coordinates":[-80.06781,40.6171]},"properties":{"p":"1347D00150000000","a":"2710 COLE RD","m":"Pine","u":"L","o":"individual","sf":174240,"v":121900}},{"type":"Feature","geometry":{"type":"Point","coordinates":[-80.06348,40.62388]},"properties":{"p":"1499E00004000000","a":"BRENNAN RD","m":"Pine","u":"L","o":"individual","sf":29926,"v":4200}},{"type":"Feature","geometry":{"type":"Point","coordinates":[-80.06243,40.62361]},"properties":{"p":"1499E00011000000","a":"WEXFORD BAYNE RD","m":"Pine","u":"L","o":"corp","sf":23958,"v":3400}},{"type":"Feature","geometry":{"type":"Point","coordinates":[-80.06333,40.62331]},"properties":{"p":"1499E00015000000","a":"BRENNAN RD","m":"Pine","u":"L","o":"individual","sf":21780,"v":3100}},{"type":"Feature","geometry":{"type":"Point","coordinates":[-80.0641,40.61607]},"properties":{"p":"1348A00003000000","a":"BOWMAN LN","m":"Pine","u":"L","o":"corp","sf":22390,"v":4700}},{"type":"Feature","geometry":{"type":"Point","coordinates":[-80.06437,40.61632]},"properties":{"p":"1348A00005000000","a":"BOWMAN LN","m":"Pine","u":"L","o":"corp","sf":44867,"v":95100}},{"type":"Feature","geometry":{"type":"Point","coordinates":[-80.0631,40.61634]},"properties":{"p":"1348A00006000000","a":"3060 BROOKTREE RD","m":"Pine","u":"L","o":"corp","sf":33192,"v":6000}},{"type":"Feature","geometry":{"type":"Point","coordinates":[-80.06786,40.6181]},"properties":{"p":"1498S00204000000","a":"ASH CT","m":"Pine","u":"L","o":"individual","sf":43560,"v":25000}},{"type":"Feature","geometry":{"type":"Point","coordinates":[-80.06273,40.62603]},"properties":{"p":"1499B00024000000","a":"LLOYDMONT DR","m":"Pine","u":"L","o":"corp","sf":54929,"v":64900}},{"type":"Feature","geometry":{"type":"Point","coordinates":[-80.06659,40.61975]},"properties":{"p":"1498S00122000000","a":"509 EAGLE CT","m":"Pine","u":"L","o":"individual","sf":229,"v":100}},{"type":"Feature","geometry":{"type":"Point","coordinates":[-80.06793,40.6193]},"properties":{"p":"1498S00201000000","a":"ASH CT","m":"Pine","u":"L","o":"individual","sf":45128,"v":29694}},{"type":"Feature","geometry":{"type":"Point","coordinates":[-80.06382,40.61299]},"properties":{"p":"1348J00100000300","a":"OAK GROVE CT","m":"Pine","u":"L","o":"individual","sf":201683,"v":2300}},{"type":"Feature","geometry":{"type":"Point","coordinates":[-80.06812,40.62808]},"properties":{"p":"1657S00024000000","a":"WEXFORD RD","m":"Pine","u":"L","o":"individual","sf":18971,"v":2700}},{"type":"Feature","geometry":{"type":"Point","coordinates":[-80.06849,40.62902]},"properties":{"p":"1657S00033000000","a":"MANOR RD","m":"Pine","u":"L","o":"individual","sf":33694,"v":61900}},{"type":"Feature","geometry":{"type":"Point","coordinates":[-80.06242,40.62439]},"properties":{"p":"1499F00014000000","a":"241 WEXFORD BAYNE RD","m":"Pine","u":"L","o":"individual","sf":335412,"v":89900}},{"type":"Feature","geometry":{"type":"Point","coordinates":[-80.06349,40.61786]},"properties":{"p":"9935X89021000000","a":"3060 BROOKTREE RD","m":"Pine","u":"L","o":"corp","sf":88645,"v":1000}},{"type":"Feature","geometry":{"type":"Point","coordinates":[-80.06763,40.62763]},"properties":{"p":"1498D00022000000","a":"WEXFORD RD","m":"Pine","u":"L","o":"individual","sf":23216,"v":3300}},{"type":"Feature","geometry":{"type":"Point","coordinates":[-80.07105,40.61764]},"properties":{"p":"1347C00004000000","a":"COLE RD","m":"Marshall","u":"L","o":"individual","sf":17903,"v":2900}},{"type":"Feature","geometry":{"type":"Point","coordinates":[-80.06789,40.61853]},"properties":{"p":"1498S00203000000","a":"ASH CT","m":"Pine","u":"L","o":"individual","sf":43560,"v":49900}},{"type":"Feature","geometry":{"type":"Point","coordinates":[-80.06055,40.61889]},"properties":{"p":"1499P00016000000","a":"MCCANDLESS PL","m":"Pine","u":"L","o":"individual","sf":67518,"v":12400}},{"type":"Feature","geometry":{"type":"Point","coordinates":[-80.07686,40.61499]},"properties":{"p":"1347F00100000000","a":"WOODMONT LN","m":"Franklin Park","u":"L","o":"individual","sf":21317,"v":3600}},{"type":"Feature","geometry":{"type":"Point","coordinates":[-80.06414,40.61447]},"properties":{"p":"1348E00001000000","a":"FOUNTAIN HILLS DR","m":"Pine","u":"L","o":"corp","sf":321037,"v":133200}},{"type":"Feature","geometry":{"type":"Point","coordinates":[-80.07878,40.61793]},"properties":{"p":"1498N00025000000","a":"RAINIER LN","m":"Marshall","u":"B","o":"corp","sf":501493,"v":301400}},{"type":"Feature","geometry":{"type":"Point","coordinates":[-80.0789,40.62002]},"properties":{"p":"1498P00006000000","a":"BARTLETT LN","m":"Marshall","u":"B","o":"corp","sf":87364,"v":18900}},{"type":"Feature","geometry":{"type":"Point","coordinates":[-80.07838,40.61993]},"properties":{"p":"1498P00014000000","a":"102 BARTLETT LN","m":"Marshall","u":"B","o":"individual","sf":5009,"v":1100}},{"type":"Feature","geometry":{"type":"Point","coordinates":[-80.07529,40.61909]},"properties":{"p":"1498P00020000000","a":"WEXFORD BAYNE RD","m":"Marshall","u":"B","o":"corp","sf":61176,"v":29200}},{"type":"Feature","geometry":{"type":"Point","coordinates":[-80.07048,40.62001]},"properties":{"p":"1498S00031000000","a":"COLE RD","m":"Marshall","u":"B","o":"individual","sf":25474,"v":12700}}]}