{"type":"FeatureCollection","features":[{"type":"Feature","geometry":{"type":"Point","coordinates":[-80.07444,40.6738]},"properties":{"p":"2373G00010000000","a":"FREEPORT RD","m":"Marshall","u":"L","o":"individual","sf":287496,"v":16600}},{"type":"Feature","geometry":{"type":"Point","coordinates":[-80.0772,40.67235]},"properties":{"p":"2373F00003000000","a":"FREEPORT RD","m":"Marshall","u":"L","o":"corp","sf":70132,"v":80500}},{"type":"Feature","geometry":{"type":"Point","coordinates":[-80.07728,40.67439]},"properties":{"p":"2373F00009000000","a":"FREEPORT RD","m":"Marshall","u":"L","o":"individual","sf":49658,"v":600}},{"type":"Feature","geometry":{"type":"Point","coordinates":[-80.06378,40.673]},"properties":{"p":"2374E00014000000","a":"MOUNT PLEASANT RD","m":"Pine","u":"L","o":"individual","sf":782,"v":200}},{"type":"Feature","geometry":{"type":"Point","coordinates":[-80.06816,40.67029]},"properties":{"p":"2373M00012000000","a":"206 E WILD CHERRY DR","m":"Pine","u":"L","o":"individual","sf":47219,"v":95600}},{"type":"Feature","geometry":{"type":"Point","coordinates":[-80.06859,40.672]},"properties":{"p":"2373H00009000000","a":"MOUNT PLEASANT RD","m":"Pine","u":"L","o":"individual","sf":326700,"v":138400}},{"type":"Feature","geometry":{"type":"Point","coordinates":[-80.07349,40.67278]},"properties":{"p":"2373G00011000000","a":"NORTH COUNTRY DR","m":"Marshall","u":"L","o":"individual","sf":27268,"v":12500}},{"type":"Feature","geometry":{"type":"Point","coordinates":[-80.06168,40.67194]},"properties":{"p":"2374F00072000000","a":"805 MOUNT PLEASANT RD","m":"Pine","u":"B","o":"individual","sf":133694,"v":46400}}]}