{"type":"FeatureCollection","features":[{"type":"Feature","geometry":{"type":"Point","coordinates":[-80.07876,40.60008]},"properties":{"p":"1204P00371000000","a":"BRANDT SCHOOL RD","m":"Franklin Park","u":"L","o":"individual","sf":11380,"v":1500}},{"type":"Feature","geometry":{"type":"Point","coordinates":[-80.07897,40.60059]},"properties":{"p":"1204P00381000000","a":"BRANDT SCHOOL RD","m":"Franklin Park","u":"L","o":"corp","sf":85770,"v":63300}},{"type":"Feature","geometry":{"type":"Point","coordinates":[-80.0785,40.59501]},"properties":{"p":"1069F00291000000","a":"BRANDT SCHOOL RD","m":"Franklin Park","u":"L","o":"individual","sf":49658,"v":58700}},{"type":"Feature","geometry":{"type":"Point","coordinates":[-80.07749,40.59711]},"properties":{"p":"1069B00165000000","a":"BRANDT SCHOOL RD","m":"Franklin Park","u":"L","o":"individual","sf":18956,"v":2500}},{"type":"Feature","geometry":{"type":"Point","coordinates":[-80.07504,40.59146]},"properties":{"p":"1069R00240000100","a":"BRANDT SCHOOL RD","m":"Franklin Park","u":"L","o":"individual","sf":5009,"v":600}},{"type":"Feature","geometry":{"type":"Point","coordinates":[-80.06879,40.59264]},"properties":{"p":"1069M00299000000","a":"1501 PINE CREEK RD","m":"Franklin Park","u":"L","o":"individual","sf":582441,"v":24300}},{"type":"Feature","geometry":{"type":"Point","coordinates":[-80.07614,40.59801]},"properties":{"p":"1069B00041000000","a":"RAMBLEWOOD DR","m":"Franklin Park","u":"L","o":"individual","sf":21948,"v":3500}},{"type":"Feature","geometry":{"type":"Point","coordinates":[-80.07937,40.60283]},"properties":{"p":"1204J00068000000","a":"KELLY LN","m":"Franklin Park","u":"L","o":"individual","sf":45738,"v":7900}},{"type":"Feature","geometry":{"type":"Point","coordinates":[-80.07748,40.59351]},"properties":{"p":"1069K00082000000","a":"BRANDT SCHOOL RD","m":"Franklin Park","u":"L","o":"individual","sf":10650,"v":1800}},{"type":"Feature","geometry":{"type":"Point","coordinates":[-80.07886,40.59485]},"properties":{"p":"1069F00356000000","a":"1577 ROSEMARY DR","m":"Franklin Park","u":"L","o":"individual","sf":3565,"v":600}},{"type":"Feature","geometry":{"type":"Point","coordinates":[-80.07567,40.60817]},"properties":{"p":"1204B00044000000","a":"WEXFORD RUN RD","m":"Franklin Park","u":"L","o":"individual","sf":25806,"v":11000}},{"type":"Feature","geometry":{"type":"Point","coordinates":[-80.07816,40.59657]},"properties":{"p":"1069B00305000000","a":"BRANDT SCHOOL RD","m":"Franklin Park","u":"L","o":"individual","sf":18321,"v":3100}},{"type":"Feature","geometry":{"type":"Point","coordinates":[-80.07725,40.59372]},"properties":{"p":"1069K00265000000","a":"BRANDT SCHOOL RD","m":"Franklin Park","u":"L","o":"individual","sf":19997,"v":37600}},{"type":"Feature","geometry":{"type":"Point","coordinates":[-80.07323,40.60712]},"properties":{"p":"1204D00318000000","a":"RICHARD RD","m":"Franklin Park","u":"L","o":"corp","sf":246114,"v":109700}},{"type":"Feature","geometry":{"type":"Point","coordinates":[-80.07426,40.60301]},"properties":{"p":"1204L00339000000","a":"1601 WEXFORD RUN RD","m":"Franklin Park","u":"L","o":"individual","sf":28558,"v":3700}},{"type":"Feature","geometry":{"type":"Point","coordinates":[-80.07253,40.6093]},"properties":{"p":"1347R00192000000","a":"DIXON LN","m":"Franklin Park","u":"L","o":"individual","sf":43267,"v":33900}},{"type":"Feature","geometry":{"type":"Point","coordinates":[-80.07169,40.60869]},"properties":{"p":"1347R00061000000","a":"RICHARD RD","m":"Franklin Park","u":"L","o":"corp","sf":30318,"v":76800}},{"type":"Feature","geometry":{"type":"Point","coordinates":[-80.07573,40.60863]},"properties":{"p":"1347P00068000000","a":"WEXFORD RUN RD","m":"Franklin Park","u":"L","o":"individual","sf":36721,"v":4800}},{"type":"Feature","geometry":{"type":"Point","coordinates":[-80.07589,40.609]},"properties":{"p":"1347P00070000000","a":"WEXFORD RUN RD","m":"Franklin Park","u":"L","o":"individual","sf":36634,"v":4800}},{"type":"Feature","geometry":{"type":"Point","coordinates":[-80.07665,40.6086]},"properties":{"p":"1347P00204000000","a":"2547 WEXFORD RUN RD","m":"Franklin Park","u":"L","o":"corp","sf":37308,"v":24300}},{"type":"Feature","geometry":{"type":"Point","coordinates":[-80.07713,40.60844]},"properties":{"p":"1347P00206000000","a":"2097 HUNTINGTON CT S","m":"Franklin Park","u":"L","o":"corp","sf":41528,"v":27100}},{"type":"Feature","geometry":{"type":"Point","coordinates":[-80.07474,40.60977]},"properties":{"p":"1347K00125000000","a":"GLENCHESTER RD","m":"Franklin Park","u":"L","o":"corp","sf":111514,"v":19200}},{"type":"Feature","geometry":{"type":"Point","coordinates":[-80.06768,40.60738]},"properties":{"p":"1204D00066000000","a":"MEINERT RD","m":"McCandless","u":"L","o":"individual","sf":3707,"v":300}},{"type":"Feature","geometry":{"type":"Point","coordinates":[-80.06775,40.60703]},"properties":{"p":"1205A00307000000","a":"MEINERT RD","m":"McCandless","u":"L","o":"individual","sf":59242,"v":700}},{"type":"Feature","geometry":{"type":"Point","coordinates":[-80.06665,40.60643]},"properties":{"p":"1205A00309000000","a":"MEINERT RD","m":"McCandless","u":"L","o":"individual","sf":253519,"v":56400}},{"type":"Feature","geometry":{"type":"Point","coordinates":[-80.06288,40.60683]},"properties":{"p":"1205A00089000000","a":"RICHARD RD","m":"McCandless","u":"L","o":"individual","sf":100624,"v":7100}},{"type":"Feature","geometry":{"type":"Point","coordinates":[-80.06169,40.59291]},"properties":{"p":"1070K00226000000","a":"HIGHVIEW RD","m":"McCandless","u":"L","o":"individual","sf":152896,"v":47900}},{"type":"Feature","geometry":{"type":"Point","coordinates":[-80.06668,40.59735]},"properties":{"p":"1070A00327000000","a":"MEINERT RD","m":"McCandless","u":"L","o":"corp","sf":217800,"v":87000}},{"type":"Feature","geometry":{"type":"Point","coordinates":[-80.06205,40.59088]},"properties":{"p":"1070P00317000000","a":"HIGHVIEW RD","m":"McCandless","u":"L","o":"individual","sf":68389,"v":80000}},{"type":"Feature","geometry":{"type":"Point","coordinates":[-80.06449,40.60081]},"properties":{"p":"1205N00240000000","a":"10250 TWIN HILL ROAD EXT","m":"McCandless","u":"L","o":"individual","sf":51401,"v":38600}},{"type":"Feature","geometry":{"type":"Point","coordinates":[-80.06634,40.59941]},"properties":{"p":"1205N00324000000","a":"TWIN HILL RD EXT","m":"McCandless","u":"L","o":"individual","sf":78408,"v":41100}},{"type":"Feature","geometry":{"type":"Point","coordinates":[-80.06192,40.6026]},"properties":{"p":"1205K00201000000","a":"MEINERT RD","m":"McCandless","u":"L","o":"individual","sf":18905,"v":35700}},{"type":"Feature","geometry":{"type":"Point","coordinates":[-80.06668,40.59602]},"properties":{"p":"1069H00052000000","a":"PINE CREEK RD","m":"McCandless","u":"L","o":"corp","sf":182516,"v":54000}},{"type":"Feature","geometry":{"type":"Point","coordinates":[-80.06629,40.60125]},"properties":{"p":"1205J00239000000","a":"SCHOLL RD","m":"McCandless","u":"L","o":"individual","sf":21761,"v":3600}},{"type":"Feature","geometry":{"type":"Point","coordinates":[-80.06615,40.60171]},"properties":{"p":"1205J00243000100","a":"SCHOLL RD","m":"McCandless","u":"L","o":"individual","sf":10323,"v":900}},{"type":"Feature","geometry":{"type":"Point","coordinates":[-80.06763,40.6032]},"properties":{"p":"1205J00057000000","a":"FOXWOOD DR","m":"McCandless","u":"L","o":"individual","sf":11121,"v":1000}},{"type":"Feature","geometry":{"type":"Point","coordinates":[-80.06699,40.60194]},"properties":{"p":"1204M00005000000","a":"SCHOLL RD","m":"McCandless","u":"L","o":"individual","sf":57935,"v":39200}},{"type":"Feature","geometry":{"type":"Point","coordinates":[-80.06643,40.60194]},"properties":{"p":"1205J00241000000","a":"SCHOLL RD","m":"McCandless","u":"L","o":"individual","sf":21998,"v":2000}},{"type":"Feature","geometry":{"type":"Point","coordinates":[-80.06238,40.594]},"properties":{"p":"1070J00034000000","a":"PINE CREEK RD","m":"McCandless","u":"L","o":"corp","sf":23048,"v":19000}},{"type":"Feature","geometry":{"type":"Point","coordinates":[-80.075,40.59071]},"properties":{"p":"1069P00139000100","a":"1550 QUARRY RD","m":"Franklin Park","u":"L","o":"individual","sf":4992,"v":600}},{"type":"Feature","geometry":{"type":"Point","coordinates":[-80.06136,40.60531]},"properties":{"p":"1205F00286000000","a":"HARMONY RD","m":"McCandless","u":"L","o":"individual","sf":147668,"v":47500}},{"type":"Feature","geometry":{"type":"Point","coordinates":[-80.06688,40.60121]},"properties":{"p":"1204M00001000000","a":"SCHOLL RD","m":"McCandless","u":"B","o":"individual","sf":55670,"v":9300}},{"type":"Feature","geometry":{"type":"Point","coordinates":[-80.06728,40.60151]},"properties":{"p":"1204M00003000000","a":"SCHOLL RD","m":"McCandless","u":"B","o":"individual","sf":87556,"v":12200}},{"type":"Feature","geometry":{"type":"Point","coordinates":[-80.06467,40.60813]},"properties":{"p":"1348N00100000000","a":"RICHARD RD","m":"McCandless","u":"B","o":"individual","sf":100667,"v":4400}},{"type":"Feature","geometry":{"type":"Point","coordinates":[-80.06599,40.60088]},"properties":{"p":"1205N00342000000","a":"TWIN HILL RD EXT","m":"McCandless","u":"B","o":"individual","sf":42776,"v":8100}},{"type":"Feature","geometry":{"type":"Point","coordinates":[-80.07016,40.59508]},"properties":{"p":"1069H00005000000","a":"1554 BARRINGTON DR","m":"Franklin Park","u":"B","o":"individual","sf":54829,"v":15800}}]}