{"type":"FeatureCollection","features":[{"type":"Feature","geometry":{"type":"Point","coordinates":[-80.06859,40.6442]},"properties":{"p":"1824H00013000000","a":"PERRY HWY","m":"Pine","u":"C","o":"corp","sf":35806,"v":2500}},{"type":"Feature","geometry":{"type":"Point","coordinates":[-80.06906,40.64348]},"properties":{"p":"1824H00019000000","a":"BRADFORD RD","m":"Pine","u":"C","o":"corp","sf":24568,"v":11300}},{"type":"Feature","geometry":{"type":"Point","coordinates":[-80.06789,40.64248]},"properties":{"p":"1824H00025000000","a":"BRADFORD RD","m":"Pine","u":"C","o":"corp","sf":2985,"v":19500}},{"type":"Feature","geometry":{"type":"Point","coordinates":[-80.06792,40.64274]},"properties":{"p":"1824H00034000000","a":"BRADFORD RD","m":"Pine","u":"C","o":"corp","sf":802,"v":400}},{"type":"Feature","geometry":{"type":"Point","coordinates":[-80.06444,40.63977]},"properties":{"p":"1825J00027000000","a":"STONEWOOD DR","m":"Pine","u":"C","o":"corp","sf":41827,"v":28900}},{"type":"Feature","geometry":{"type":"Point","coordinates":[-80.06737,40.63745]},"properties":{"p":"1657D00041000000","a":"PERRY HWY","m":"Pine","u":"C","o":"individual","sf":26049,"v":3900}},{"type":"Feature","geometry":{"type":"Point","coordinates":[-80.06865,40.63743]},"properties":{"p":"1657D00040000000","a":"PERRY HWY","m":"Pine","u":"C","o":"individual","sf":54363,"v":8200}},{"type":"Feature","geometry":{"type":"Point","coordinates":[-80.07475,40.63584]},"properties":{"p":"1657B00040000000","a":"LINCOLN RD","m":"Bradford Woods","u":"L","o":"individual","sf":43560,"v":68500}},{"type":"Feature","geometry":{"type":"Point","coordinates":[-80.0788,40.63498]},"properties":{"p":"1657B00175000000","a":"FOREST RD","m":"Bradford Woods","u":"L","o":"individual","sf":35719,"v":7500}},{"type":"Feature","geometry":{"type":"Point","coordinates":[-80.07769,40.63699]},"properties":{"p":"1657B00289000000","a":"WASHINGTON RD","m":"Bradford Woods","u":"L","o":"individual","sf":44867,"v":68700}},{"type":"Feature","geometry":{"type":"Point","coordinates":[-80.07824,40.63775]},"properties":{"p":"1824P00308000000","a":"WALNUT RD","m":"Bradford Woods","u":"L","o":"individual","sf":77101,"v":73500}},{"type":"Feature","geometry":{"type":"Point","coordinates":[-80.07403,40.63577]},"properties":{"p":"1657C00120000000","a":"LINCOLN RD","m":"Bradford Woods","u":"L","o":"individual","sf":43560,"v":68500}},{"type":"Feature","geometry":{"type":"Point","coordinates":[-80.06989,40.63769]},"properties":{"p":"1824S00002000000","a":"COOLIDGE RD","m":"Bradford Woods","u":"L","o":"individual","sf":43393,"v":36100}},{"type":"Feature","geometry":{"type":"Point","coordinates":[-80.07047,40.63768]},"properties":{"p":"1824S00003000000","a":"COOLIDGE RD","m":"Bradford Woods","u":"L","o":"individual","sf":43560,"v":31400}},{"type":"Feature","geometry":{"type":"Point","coordinates":[-80.07569,40.63409]},"properties":{"p":"1657F00175000000","a":"FOREST RD","m":"Bradford Woods","u":"L","o":"individual","sf":43972,"v":75000}},{"type":"Feature","geometry":{"type":"Point","coordinates":[-80.0772,40.63559]},"properties":{"p":"1657B00324000000","a":"64 FOREST RD","m":"Bradford Woods","u":"L","o":"individual","sf":3160,"v":700}},{"type":"Feature","geometry":{"type":"Point","coordinates":[-80.07121,40.63696]},"properties":{"p":"1657C00016000000","a":"E HARDING RD","m":"Bradford Woods","u":"L","o":"individual","sf":45272,"v":68800}},{"type":"Feature","geometry":{"type":"Point","coordinates":[-80.07106,40.63767]},"properties":{"p":"1824R00009000000","a":"COOLIDGE RD","m":"Bradford Woods","u":"L","o":"individual","sf":43560,"v":36000}},{"type":"Feature","geometry":{"type":"Point","coordinates":[-80.07377,40.63876]},"properties":{"p":"1824R00120000000","a":"LINCOLN RD","m":"Bradford Woods","u":"L","o":"individual","sf":47916,"v":69200}},{"type":"Feature","geometry":{"type":"Point","coordinates":[-80.07883,40.6394]},"properties":{"p":"1824N00035000000","a":"808 OAK RD","m":"Bradford Woods","u":"L","o":"corp","sf":18750,"v":2800}},{"type":"Feature","geometry":{"type":"Point","coordinates":[-80.07595,40.64133]},"properties":{"p":"1824K00180000000","a":"ELM RD","m":"Bradford Woods","u":"L","o":"individual","sf":50530,"v":69600}},{"type":"Feature","geometry":{"type":"Point","coordinates":[-80.07707,40.64201]},"properties":{"p":"1824K00280000000","a":"840 OAK RD","m":"Bradford Woods","u":"L","o":"individual","sf":12500,"v":1900}},{"type":"Feature","geometry":{"type":"Point","coordinates":[-80.07655,40.64018]},"properties":{"p":"1824K00106000000","a":"ELM RD","m":"Bradford Woods","u":"L","o":"individual","sf":13678,"v":2100}},{"type":"Feature","geometry":{"type":"Point","coordinates":[-80.07916,40.63041]},"properties":{"p":"1657K00225000000","a":"WEXFORD RUN RD","m":"Bradford Woods","u":"L","o":"individual","sf":12890,"v":2700}},{"type":"Feature","geometry":{"type":"Point","coordinates":[-80.07931,40.63095]},"properties":{"p":"1657K00240000000","a":"WEXFORD RUN RD","m":"Bradford Woods","u":"L","o":"individual","sf":11408,"v":2400}},{"type":"Feature","geometry":{"type":"Point","coordinates":[-80.07817,40.63282]},"properties":{"p":"1657F00310000000","a":"EDGEWOOD RD","m":"Bradford Woods","u":"L","o":"corp","sf":41250,"v":8700}},{"type":"Feature","geometry":{"type":"Point","coordinates":[-80.077,40.64882]},"properties":{"p":"1999P00010000000","a":"PERRY HWY","m":"Marshall","u":"L","o":"individual","sf":7579,"v":0}},{"type":"Feature","geometry":{"type":"Point","coordinates":[-80.07597,40.64885]},"properties":{"p":"1999P00012000000","a":"PERRY HWY","m":"Marshall","u":"L","o":"corp","sf":12518,"v":0}},{"type":"Feature","geometry":{"type":"Point","coordinates":[-80.07685,40.64929]},"properties":{"p":"1999P00014000000","a":"PERRY HWY","m":"Marshall","u":"L","o":"corp","sf":15301,"v":0}},{"type":"Feature","geometry":{"type":"Point","coordinates":[-80.0713,40.64964]},"properties":{"p":"1999P00018000000","a":"FOWLER RD","m":"Marshall","u":"L","o":"corp","sf":562813,"v":0}},{"type":"Feature","geometry":{"type":"Point","coordinates":[-80.07708,40.64593]},"properties":{"p":"1824B00020000000","a":"RANGE DR","m":"Marshall","u":"L","o":"individual","sf":339,"v":200}},{"type":"Feature","geometry":{"type":"Point","coordinates":[-80.07411,40.64973]},"properties":{"p":"1999L00018000000","a":"FAIRMONT DR","m":"Marshall","u":"L","o":"corp","sf":31820,"v":0}},{"type":"Feature","geometry":{"type":"Point","coordinates":[-80.07869,40.64493]},"properties":{"p":"1824B00039000000","a":"SEASONS DR","m":"Marshall","u":"L","o":"corp","sf":14960,"v":45300}},{"type":"Feature","geometry":{"type":"Point","coordinates":[-80.07418,40.63016]},"properties":{"p":"1657R00025000000","a":"MANOR RD","m":"Marshall","u":"L","o":"corp","sf":54511,"v":76800}},{"type":"Feature","geometry":{"type":"Point","coordinates":[-80.07687,40.64558]},"properties":{"p":"1824B00021000000","a":"RANGE DR","m":"Marshall","u":"L","o":"individual","sf":44431,"v":41300}},{"type":"Feature","geometry":{"type":"Point","coordinates":[-80.07576,40.6465]},"properties":{"p":"1824B00028000000","a":"RANGE DR","m":"Marshall","u":"L","o":"individual","sf":56628,"v":44000}},{"type":"Feature","geometry":{"type":"Point","coordinates":[-80.07074,40.6429]},"properties":{"p":"1824G00001000000","a":"SLICK LN","m":"Marshall","u":"L","o":"individual","sf":43560,"v":500}},{"type":"Feature","geometry":{"type":"Point","coordinates":[-80.07142,40.64361]},"properties":{"p":"1824G00003000000","a":"PERRY HWY","m":"Marshall","u":"L","o":"corp","sf":43560,"v":30000}},{"type":"Feature","geometry":{"type":"Point","coordinates":[-80.07276,40.64957]},"properties":{"p":"1999R00014000000","a":"FAIRMONT DR","m":"Marshall","u":"L","o":"corp","sf":1678,"v":0}},{"type":"Feature","geometry":{"type":"Point","coordinates":[-80.07023,40.63084]},"properties":{"p":"1657M00002000000","a":"WOODLAWN ST","m":"Marshall","u":"L","o":"individual","sf":40511,"v":74500}},{"type":"Feature","geometry":{"type":"Point","coordinates":[-80.06294,40.63025]},"properties":{"p":"1658J00010000000","a":"FAIR OAKS ST","m":"Pine","u":"L","o":"individual","sf":28013,"v":3900}},{"type":"Feature","geometry":{"type":"Point","coordinates":[-80.06293,40.63098]},"properties":{"p":"1658J00011000000","a":"FAIR OAKS ST","m":"Pine","u":"L","o":"individual","sf":30322,"v":4300}},{"type":"Feature","geometry":{"type":"Point","coordinates":[-80.06437,40.6454]},"properties":{"p":"1825A00013000000","a":"MEADOWBROOK AVE","m":"Pine","u":"L","o":"individual","sf":12502,"v":2300}},{"type":"Feature","geometry":{"type":"Point","coordinates":[-80.0646,40.6454]},"properties":{"p":"1825A00014000000","a":"MEADOWBROOK AVE","m":"Pine","u":"L","o":"individual","sf":12502,"v":2300}},{"type":"Feature","geometry":{"type":"Point","coordinates":[-80.0657,40.6454]},"properties":{"p":"1825A00016000000","a":"MEADOWBROOK AVE","m":"Pine","u":"L","o":"individual","sf":22000,"v":4000}},{"type":"Feature","geometry":{"type":"Point","coordinates":[-80.06842,40.64729]},"properties":{"p":"1824D00013000000","a":"PIKEMONT DR","m":"Pine","u":"L","o":"individual","sf":54450,"v":28000}},{"type":"Feature","geometry":{"type":"Point","coordinates":[-80.06761,40.64729]},"properties":{"p":"1824D00016000000","a":"PIKEMONT DR","m":"Pine","u":"L","o":"individual","sf":27373,"v":4900}},{"type":"Feature","geometry":{"type":"Point","coordinates":[-80.06136,40.64272]},"properties":{"p":"1825K00040000000","a":"CLOVERDALE DR","m":"Pine","u":"L","o":"individual","sf":147668,"v":30500}},{"type":"Feature","geometry":{"type":"Point","coordinates":[-80.06293,40.64575]},"properties":{"p":"1825A00036000000","a":"MEADCREST ST","m":"Pine","u":"L","o":"individual","sf":15080,"v":2700}},{"type":"Feature","geometry":{"type":"Point","coordinates":[-80.06773,40.63091]},"properties":{"p":"1657M00026000000","a":"FAIR OAKS ST","m":"Pine","u":"L","o":"individual","sf":8500,"v":1200}},{"type":"Feature","geometry":{"type":"Point","coordinates":[-80.06453,40.64474]},"properties":{"p":"1825A00005000000","a":"MEADOWBROOK AVE","m":"Pine","u":"L","o":"individual","sf":14830,"v":2700}},{"type":"Feature","geometry":{"type":"Point","coordinates":[-80.06174,40.64201]},"properties":{"p":"1825K00002000000","a":"CLOVERDALE DR","m":"Pine","u":"L","o":"individual","sf":6752,"v":1400}},{"type":"Feature","geometry":{"type":"Point","coordinates":[-80.06937,40.64591]},"properties":{"p":"1824D00004000000","a":"GATEWAY AVE","m":"Pine","u":"L","o":"corp","sf":26000,"v":4700}},{"type":"Feature","geometry":{"type":"Point","coordinates":[-80.06317,40.63968]},"properties":{"p":"1825N00011000000","a":"320 BRADFORD DR","m":"Pine","u":"L","o":"corp","sf":16006,"v":54000}},{"type":"Feature","geometry":{"type":"Point","coordinates":[-80.0669,40.63027]},"properties":{"p":"1657M00017000000","a":"FAIR OAKS ST","m":"Pine","u":"L","o":"individual","sf":58806,"v":45900}},{"type":"Feature","geometry":{"type":"Point","coordinates":[-80.06264,40.641]},"properties":{"p":"1825J00008000000","a":"LILLIAN ST","m":"Pine","u":"L","o":"individual","sf":0,"v":0}},{"type":"Feature","geometry":{"type":"Point","coordinates":[-80.06287,40.64057]},"properties":{"p":"1825J00012000000","a":"HUFHAND LN","m":"Pine","u":"L","o":"individual","sf":0,"v":0}},{"type":"Feature","geometry":{"type":"Point","coordinates":[-80.06217,40.64064]},"properties":{"p":"1825K00046000000","a":"BROADWAY","m":"Pine","u":"L","o":"individual","sf":7171,"v":1000}},{"type":"Feature","geometry":{"type":"Point","coordinates":[-80.06806,40.64153]},"properties":{"p":"1824M00009000000","a":"OLD PERRY HWY","m":"Pine","u":"L","o":"individual","sf":1036,"v":200}},{"type":"Feature","geometry":{"type":"Point","coordinates":[-80.06952,40.64193]},"properties":{"p":"1824M00012000000","a":"BRADFORD RD","m":"Pine","u":"L","o":"individual","sf":46174,"v":6400}},{"type":"Feature","geometry":{"type":"Point","coordinates":[-80.06936,40.6367]},"properties":{"p":"1657D00030000000","a":"WEXFORD RD","m":"Pine","u":"L","o":"individual","sf":43560,"v":6000}},{"type":"Feature","geometry":{"type":"Point","coordinates":[-80.06932,40.63544]},"properties":{"p":"1657D00031000000","a":"WEXFORD RD","m":"Pine","u":"L","o":"individual","sf":43560,"v":63200}},{"type":"Feature","geometry":{"type":"Point","coordinates":[-80.06387,40.64718]},"properties":{"p":"2000N00021000000","a":"E BELMERE LN","m":"Pine","u":"L","o":"individual","sf":45259,"v":30000}},{"type":"Feature","geometry":{"type":"Point","coordinates":[-80.06779,40.64804]},"properties":{"p":"1999S00008000000","a":"PIKEMONT DR","m":"Pine","u":"L","o":"individual","sf":56192,"v":28000}},{"type":"Feature","geometry":{"type":"Point","coordinates":[-80.06526,40.6471]},"properties":{"p":"2000N00001000000","a":"E BELMERE LN","m":"Pine","u":"L","o":"individual","sf":22660,"v":4100}},{"type":"Feature","geometry":{"type":"Point","coordinates":[-80.06497,40.64888]},"properties":{"p":"2000N00011000000","a":"PIKEMONT DR","m":"Pine","u":"L","o":"individual","sf":43691,"v":22500}},{"type":"Feature","geometry":{"type":"Point","coordinates":[-80.06499,40.64942]},"properties":{"p":"2000N00012000000","a":"WARRENDALE RD","m":"Pine","u":"L","o":"individual","sf":57064,"v":30000}},{"type":"Feature","geometry":{"type":"Point","coordinates":[-80.06766,40.64596]},"properties":{"p":"1824D00024000000","a":"GATEWAY AVE","m":"Pine","u":"L","o":"individual","sf":22000,"v":4000}},{"type":"Feature","geometry":{"type":"Point","coordinates":[-80.06923,40.64522]},"properties":{"p":"1824D00001000000","a":"109 GATEWAY AVE","m":"Pine","u":"L","o":"corp","sf":43560,"v":63200}},{"type":"Feature","geometry":{"type":"Point","coordinates":[-80.06612,40.64784]},"properties":{"p":"2000N00008000000","a":"PIKEMONT DR","m":"Pine","u":"L","o":"individual","sf":18270,"v":3300}},{"type":"Feature","geometry":{"type":"Point","coordinates":[-80.06897,40.64462]},"properties":{"p":"1824H00001000000","a":"109 GATEWAY AVE","m":"Pine","u":"L","o":"corp","sf":51401,"v":64300}},{"type":"Feature","geometry":{"type":"Point","coordinates":[-80.06486,40.6471]},"properties":{"p":"2000N00002000000","a":"E BELMERE LN","m":"Pine","u":"L","o":"individual","sf":45302,"v":8300}},{"type":"Feature","geometry":{"type":"Point","coordinates":[-80.06489,40.64595]},"properties":{"p":"1825A00021000000","a":"BROADWAY","m":"Pine","u":"L","o":"individual","sf":22000,"v":4000}},{"type":"Feature","geometry":{"type":"Point","coordinates":[-80.07059,40.63512]},"properties":{"p":"1657C00002000000","a":"918 DALE AVE","m":"Bradford Woods","u":"L","o":"individual","sf":3000,"v":600}}]}