{"type":"FeatureCollection","features":[{"type":"Feature","geometry":{"type":"Point","coordinates":[-80.06858,40.33163]},"properties":{"p":"0478H00043000000","a":"MCMURRAY RD","m":"Upper St. Clair","u":"C","o":"corp","sf":111513,"v":448300}},{"type":"Feature","geometry":{"type":"Point","coordinates":[-80.07755,40.33864]},"properties":{"p":"0395K00170000000","a":"MCLAUGHLIN RUN RD","m":"Upper St. Clair","u":"C","o":"corp","sf":23887,"v":8100}},{"type":"Feature","geometry":{"type":"Point","coordinates":[-80.0675,40.33511]},"properties":{"p":"0478D00136000000","a":"WASHINGTON RD","m":"Upper St. Clair","u":"C","o":"individual","sf":25216,"v":10100}},{"type":"Feature","geometry":{"type":"Point","coordinates":[-80.06668,40.33138]},"properties":{"p":"0478H00075000000","a":"WALTHER LN","m":"Upper St. Clair","u":"C","o":"individual","sf":36432,"v":25100}},{"type":"Feature","geometry":{"type":"Point","coordinates":[-80.06135,40.33934]},"properties":{"p":"0394K00026000000","a":"BROOKSIDE BLVD","m":"Upper St. Clair","u":"C","o":"corp","sf":2827,"v":700}},{"type":"Feature","geometry":{"type":"Point","coordinates":[-80.06326,40.34024]},"properties":{"p":"0394J00147000000","a":"WASHINGTON RD","m":"Upper St. Clair","u":"C","o":"corp","sf":17594,"v":55700}},{"type":"Feature","geometry":{"type":"Point","coordinates":[-80.07453,40.34754]},"properties":{"p":"0320P00072000000","a":"WARWICK DR","m":"Upper St. Clair","u":"L","o":"individual","sf":75533,"v":114600}},{"type":"Feature","geometry":{"type":"Point","coordinates":[-80.06974,40.34733]},"properties":{"p":"0320S00024000000","a":"BOXFIELD RD","m":"Upper St. Clair","u":"L","o":"individual","sf":44083,"v":75200}},{"type":"Feature","geometry":{"type":"Point","coordinates":[-80.07363,40.34924]},"properties":{"p":"0320L00116000000","a":"KENT RD","m":"Upper St. Clair","u":"L","o":"individual","sf":33502,"v":30700}},{"type":"Feature","geometry":{"type":"Point","coordinates":[-80.07117,40.34871]},"properties":{"p":"0320L00138000000","a":"KENT RD","m":"Upper St. Clair","u":"L","o":"individual","sf":19152,"v":4400}},{"type":"Feature","geometry":{"type":"Point","coordinates":[-80.0602,40.34649]},"properties":{"p":"0319P00052000000","a":"171 FIELDGATE DR","m":"Upper St. Clair","u":"L","o":"individual","sf":14059,"v":3200}},{"type":"Feature","geometry":{"type":"Point","coordinates":[-80.074,40.34668]},"properties":{"p":"0320R00096000000","a":"WARWICK DR","m":"Upper St. Clair","u":"L","o":"individual","sf":7131,"v":1600}},{"type":"Feature","geometry":{"type":"Point","coordinates":[-80.07727,40.34903]},"properties":{"p":"0320K00175000000","a":"TILTON DR","m":"Upper St. Clair","u":"L","o":"individual","sf":115425,"v":8000}},{"type":"Feature","geometry":{"type":"Point","coordinates":[-80.06769,40.34972]},"properties":{"p":"0320M00148000000","a":"KENT DR","m":"Upper St. Clair","u":"L","o":"corp","sf":3003,"v":900}},{"type":"Feature","geometry":{"type":"Point","coordinates":[-80.06485,40.34854]},"properties":{"p":"0319J00079000000","a":"134 BOXFIELD RD","m":"Upper St. Clair","u":"L","o":"individual","sf":96,"v":300}},{"type":"Feature","geometry":{"type":"Point","coordinates":[-80.07303,40.34569]},"properties":{"p":"0320R00021000000","a":"SALEM DR","m":"Upper St. Clair","u":"L","o":"individual","sf":16500,"v":101000}},{"type":"Feature","geometry":{"type":"Point","coordinates":[-80.0656,40.33035]},"properties":{"p":"0477J00165000000","a":"BROOKDALE DR","m":"Upper St. Clair","u":"L","o":"corp","sf":37157,"v":4800}},{"type":"Feature","geometry":{"type":"Point","coordinates":[-80.06898,40.33284]},"properties":{"p":"0478H00160000000","a":"WASHINGTON RD","m":"Upper St. Clair","u":"L","o":"individual","sf":46914,"v":23200}},{"type":"Feature","geometry":{"type":"Point","coordinates":[-80.06351,40.33587]},"properties":{"p":"0394N00105000000","a":"COMANCHE RD","m":"Upper St. Clair","u":"L","o":"individual","sf":6345,"v":800}},{"type":"Feature","geometry":{"type":"Point","coordinates":[-80.07403,40.33885]},"properties":{"p":"0395L00068000000","a":"MURDSTONE RD","m":"Upper St. Clair","u":"L","o":"individual","sf":17799,"v":101300}},{"type":"Feature","geometry":{"type":"Point","coordinates":[-80.06709,40.33931]},"properties":{"p":"0395M00214000000","a":"DEVONWOOD DR","m":"Upper St. Clair","u":"L","o":"corp","sf":5030,"v":500}},{"type":"Feature","geometry":{"type":"Point","coordinates":[-80.06751,40.33876]},"properties":{"p":"0395M00229000000","a":"BLAIRMONT DR","m":"Upper St. Clair","u":"L","o":"individual","sf":4995,"v":1200}},{"type":"Feature","geometry":{"type":"Point","coordinates":[-80.06238,40.33423]},"properties":{"p":"0477A00094000000","a":"117 CONEWANTA RD","m":"Upper St. Clair","u":"L","o":"individual","sf":5775,"v":800}},{"type":"Feature","geometry":{"type":"Point","coordinates":[-80.06464,40.33674]},"properties":{"p":"0394N00067000000","a":"COMANCHE RD","m":"Upper St. Clair","u":"L","o":"corp","sf":80,"v":0}},{"type":"Feature","geometry":{"type":"Point","coordinates":[-80.07869,40.33677]},"properties":{"p":"0395P00250000000","a":"1750 MCLAUGHLIN RUN RD","m":"Upper St. Clair","u":"L","o":"corp","sf":91912,"v":47300}},{"type":"Feature","geometry":{"type":"Point","coordinates":[-80.07879,40.33738]},"properties":{"p":"0395P00258000000","a":"MCLAUGHLIN RUN RD","m":"Upper St. Clair","u":"L","o":"corp","sf":36088,"v":79100}},{"type":"Feature","geometry":{"type":"Point","coordinates":[-80.0785,40.33757]},"properties":{"p":"0395P00260000000","a":"MCLAUGHLIN RUN RD","m":"Upper St. Clair","u":"L","o":"corp","sf":21972,"v":8200}},{"type":"Feature","geometry":{"type":"Point","coordinates":[-80.06253,40.33046]},"properties":{"p":"0477J00190000000","a":"BROOKDALE DR","m":"Upper St. Clair","u":"L","o":"corp","sf":19897,"v":56000}},{"type":"Feature","geometry":{"type":"Point","coordinates":[-80.06173,40.33014]},"properties":{"p":"0477J00222000000","a":"BROOKSIDE BLVD","m":"Upper St. Clair","u":"L","o":"individual","sf":27000,"v":3500}},{"type":"Feature","geometry":{"type":"Point","coordinates":[-80.07838,40.34181]},"properties":{"p":"0395F00240000000","a":"MCLAUGHLIN RUN RD","m":"Upper St. Clair","u":"L","o":"individual","sf":76230,"v":45900}},{"type":"Feature","geometry":{"type":"Point","coordinates":[-80.07629,40.3301]},"properties":{"p":"0478K00130000000","a":"2288 GLENDALE DR","m":"Upper St. Clair","u":"L","o":"individual","sf":15876,"v":75000}},{"type":"Feature","geometry":{"type":"Point","coordinates":[-80.0671,40.33666]},"properties":{"p":"0395S00080000000","a":"WASHINGTON RD","m":"Upper St. Clair","u":"L","o":"individual","sf":17032,"v":20100}},{"type":"Feature","geometry":{"type":"Point","coordinates":[-80.0663,40.33409]},"properties":{"p":"0478D00022000000","a":"LAMAR RD","m":"Upper St. Clair","u":"L","o":"individual","sf":13007,"v":55100}},{"type":"Feature","geometry":{"type":"Point","coordinates":[-80.06494,40.33195]},"properties":{"p":"0477E00137000000","a":"3321 PONOKA RD","m":"Upper St. Clair","u":"L","o":"corp","sf":161259,"v":74400}},{"type":"Feature","geometry":{"type":"Point","coordinates":[-80.06301,40.3387]},"properties":{"p":"0394J00036000000","a":"BROOKSIDE BLVD","m":"Upper St. Clair","u":"L","o":"individual","sf":4932,"v":600}},{"type":"Feature","geometry":{"type":"Point","coordinates":[-80.06819,40.33869]},"properties":{"p":"0395M00105000000","a":"BLAIRMONT DR","m":"Upper St. Clair","u":"L","o":"individual","sf":30885,"v":7700}},{"type":"Feature","geometry":{"type":"Point","coordinates":[-80.0639,40.33999]},"properties":{"p":"0394J00159000000","a":"WASHINGTON RD","m":"Upper St. Clair","u":"L","o":"corp","sf":46783,"v":108000}},{"type":"Feature","geometry":{"type":"Point","coordinates":[-80.06354,40.33844]},"properties":{"p":"0394J00069000000","a":"BROOKSIDE BLVD","m":"Upper St. Clair","u":"L","o":"individual","sf":12056,"v":1900}},{"type":"Feature","geometry":{"type":"Point","coordinates":[-80.0784,40.3427]},"properties":{"p":"0395F00064000000","a":"621 TROTWOOD CIR","m":"Upper St. Clair","u":"L","o":"individual","sf":34703,"v":8000}},{"type":"Feature","geometry":{"type":"Point","coordinates":[-80.07794,40.34195]},"properties":{"p":"0395F00066000000","a":"621 TROTWOOD CIR","m":"Upper St. Clair","u":"L","o":"individual","sf":21985,"v":5100}},{"type":"Feature","geometry":{"type":"Point","coordinates":[-80.06434,40.33963]},"properties":{"p":"0394J00165000000","a":"WASHINGTON RD","m":"Upper St. Clair","u":"L","o":"corp","sf":23400,"v":102600}},{"type":"Feature","geometry":{"type":"Point","coordinates":[-80.06576,40.33724]},"properties":{"p":"0394N00020000000","a":"MOHAWK RD","m":"Upper St. Clair","u":"L","o":"individual","sf":8000,"v":1000}},{"type":"Feature","geometry":{"type":"Point","coordinates":[-80.07842,40.34862]},"properties":{"p":"0320K00116000000","a":"TILTON DR","m":"Upper St. Clair","u":"L","o":"corp","sf":136,"v":100}}]}