{"type":"FeatureCollection","features":[{"type":"Feature","geometry":{"type":"Point","coordinates":[-80.04302,40.51913]},"properties":{"p":"0279B00218000000","a":"CORNELL AVE","m":"West View","u":"C","o":"corp","sf":18356,"v":1300}},{"type":"Feature","geometry":{"type":"Point","coordinates":[-80.04304,40.51881]},"properties":{"p":"0279B00222000000","a":"CORNELL AVE","m":"West View","u":"C","o":"corp","sf":9600,"v":3800}},{"type":"Feature","geometry":{"type":"Point","coordinates":[-80.0478,40.52251]},"properties":{"p":"0350N00242000000","a":"HIGHLAND AVE","m":"Ross","u":"C","o":"corp","sf":82834,"v":0}},{"type":"Feature","geometry":{"type":"Point","coordinates":[-80.04307,40.51865]},"properties":{"p":"0279B00224000000","a":"PRINCETON AVE","m":"West View","u":"C","o":"corp","sf":4800,"v":1900}},{"type":"Feature","geometry":{"type":"Point","coordinates":[-80.04133,40.52004]},"properties":{"p":"0279C00005000000","a":"CARLISLE AVE","m":"West View","u":"L","o":"individual","sf":7994,"v":2900}},{"type":"Feature","geometry":{"type":"Point","coordinates":[-80.04134,40.51981]},"properties":{"p":"0279C00009000000","a":"CARLISLE AVE","m":"West View","u":"L","o":"individual","sf":9779,"v":3500}},{"type":"Feature","geometry":{"type":"Point","coordinates":[-80.04136,40.5196]},"properties":{"p":"0279C00014000000","a":"CARLISLE AVE","m":"West View","u":"L","o":"individual","sf":7320,"v":35200}},{"type":"Feature","geometry":{"type":"Point","coordinates":[-80.04579,40.51873]},"properties":{"p":"0279A00139000000","a":"224 PRINCETON AVE","m":"West View","u":"L","o":"individual","sf":4800,"v":16800}},{"type":"Feature","geometry":{"type":"Point","coordinates":[-80.04254,40.519]},"properties":{"p":"0279B00242000000","a":"COLUMBIA AVE","m":"West View","u":"L","o":"individual","sf":3300,"v":1300}},{"type":"Feature","geometry":{"type":"Point","coordinates":[-80.04253,40.51908]},"properties":{"p":"0279B00244000000","a":"COLUMBIA AVE","m":"West View","u":"L","o":"individual","sf":3300,"v":1300}},{"type":"Feature","geometry":{"type":"Point","coordinates":[-80.04251,40.5192]},"properties":{"p":"0279B00248000000","a":"COLUMBIA AVE","m":"West View","u":"L","o":"corp","sf":6600,"v":35100}},{"type":"Feature","geometry":{"type":"Point","coordinates":[-80.04243,40.51966]},"properties":{"p":"0279B00258000000","a":"122 COLUMBIA AVE","m":"West View","u":"L","o":"individual","sf":3300,"v":1300}},{"type":"Feature","geometry":{"type":"Point","coordinates":[-80.04115,40.52068]},"properties":{"p":"0279C00387000000","a":"81 GEORGETOWN AVE","m":"West View","u":"L","o":"individual","sf":6904,"v":35200}},{"type":"Feature","geometry":{"type":"Point","coordinates":[-80.04595,40.52006]},"properties":{"p":"0279A00225000000","a":"FORDHAM AVE","m":"West View","u":"L","o":"individual","sf":4400,"v":32900}},{"type":"Feature","geometry":{"type":"Point","coordinates":[-80.04488,40.51957]},"properties":{"p":"0279B00095000000","a":"AMHERST AVE","m":"West View","u":"L","o":"individual","sf":4400,"v":32900}},{"type":"Feature","geometry":{"type":"Point","coordinates":[-80.04337,40.52001]},"properties":{"p":"0279B00180000000","a":"CENTER AVE","m":"West View","u":"L","o":"individual","sf":38168,"v":5400}},{"type":"Feature","geometry":{"type":"Point","coordinates":[-80.04283,40.51986]},"properties":{"p":"0279B00200000000","a":"CENTER AVE","m":"West View","u":"L","o":"individual","sf":20715,"v":36400}},{"type":"Feature","geometry":{"type":"Point","coordinates":[-80.04261,40.51859]},"properties":{"p":"0279B00232000000","a":"COLUMBIA AVE","m":"West View","u":"L","o":"individual","sf":3300,"v":1300}},{"type":"Feature","geometry":{"type":"Point","coordinates":[-80.0426,40.51866]},"properties":{"p":"0279B00234000000","a":"COLUMBIA AVE","m":"West View","u":"L","o":"individual","sf":3300,"v":1300}},{"type":"Feature","geometry":{"type":"Point","coordinates":[-80.04258,40.51875]},"properties":{"p":"0279B00236000000","a":"COLUMBIA AVE","m":"West View","u":"L","o":"corp","sf":3300,"v":1300}},{"type":"Feature","geometry":{"type":"Point","coordinates":[-80.04256,40.51887]},"properties":{"p":"0279B00240000000","a":"COLUMBIA AVE","m":"West View","u":"L","o":"individual","sf":6600,"v":2400}},{"type":"Feature","geometry":{"type":"Point","coordinates":[-80.04744,40.51597]},"properties":{"p":"0279E00014000000","a":"VASSAR AVE","m":"West View","u":"L","o":"corp","sf":3122,"v":1200}},{"type":"Feature","geometry":{"type":"Point","coordinates":[-80.0471,40.51636]},"properties":{"p":"0279E00023000000","a":"38 VASSAR AVE","m":"West View","u":"L","o":"individual","sf":4800,"v":1800}},{"type":"Feature","geometry":{"type":"Point","coordinates":[-80.04696,40.51635]},"properties":{"p":"0279E00025000000","a":"VASSAR AVE","m":"West View","u":"L","o":"individual","sf":4800,"v":16800}},{"type":"Feature","geometry":{"type":"Point","coordinates":[-80.0429,40.52047]},"properties":{"p":"0279B00345000000","a":"113 GEORGETOWN AVE","m":"West View","u":"L","o":"individual","sf":4350,"v":15200}},{"type":"Feature","geometry":{"type":"Point","coordinates":[-80.04138,40.51941]},"properties":{"p":"0279C00017000000","a":"CARLISLE AVE","m":"West View","u":"L","o":"corp","sf":6195,"v":35100}},{"type":"Feature","geometry":{"type":"Point","coordinates":[-80.0414,40.51928]},"properties":{"p":"0279C00020000000","a":"CARLISLE AVE","m":"West View","u":"L","o":"individual","sf":3825,"v":1400}},{"type":"Feature","geometry":{"type":"Point","coordinates":[-80.04143,40.51911]},"properties":{"p":"0279C00022000000","a":"CARLISLE AVE","m":"West View","u":"L","o":"individual","sf":11475,"v":35600}},{"type":"Feature","geometry":{"type":"Point","coordinates":[-80.04148,40.51882]},"properties":{"p":"0279C00026000000","a":"CARLISLE AVE","m":"West View","u":"L","o":"individual","sf":15300,"v":5500}},{"type":"Feature","geometry":{"type":"Point","coordinates":[-80.04152,40.51861]},"properties":{"p":"0279C00031000000","a":"CARLISLE AVE","m":"West View","u":"L","o":"individual","sf":3825,"v":1400}},{"type":"Feature","geometry":{"type":"Point","coordinates":[-80.04153,40.51854]},"properties":{"p":"0279C00033000000","a":"CARLISLE AVE","m":"West View","u":"L","o":"individual","sf":3825,"v":1400}},{"type":"Feature","geometry":{"type":"Point","coordinates":[-80.04104,40.51875]},"properties":{"p":"0279C00035000000","a":"CARLISLE AVE","m":"West View","u":"L","o":"individual","sf":11830,"v":4200}},{"type":"Feature","geometry":{"type":"Point","coordinates":[-80.04552,40.52001]},"properties":{"p":"0279B00059000000","a":"47 FORDHAM AVE","m":"West View","u":"L","o":"individual","sf":4400,"v":15200}},{"type":"Feature","geometry":{"type":"Point","coordinates":[-80.04197,40.51898]},"properties":{"p":"0279B00288000000","a":"COLUMBIA AVE","m":"West View","u":"L","o":"individual","sf":15300,"v":35900}},{"type":"Feature","geometry":{"type":"Point","coordinates":[-80.04201,40.51877]},"properties":{"p":"0279B00296000000","a":"COLUMBIA AVE","m":"West View","u":"L","o":"individual","sf":3825,"v":1400}},{"type":"Feature","geometry":{"type":"Point","coordinates":[-80.04202,40.51869]},"properties":{"p":"0279B00298000000","a":"COLUMBIA AVE","m":"West View","u":"L","o":"individual","sf":3825,"v":1400}},{"type":"Feature","geometry":{"type":"Point","coordinates":[-80.04204,40.5186]},"properties":{"p":"0279B00300000000","a":"COLUMBIA AVE","m":"West View","u":"L","o":"individual","sf":3825,"v":1400}},{"type":"Feature","geometry":{"type":"Point","coordinates":[-80.04205,40.51852]},"properties":{"p":"0279B00302000000","a":"COLUMBIA AVE","m":"West View","u":"L","o":"individual","sf":3825,"v":1400}},{"type":"Feature","geometry":{"type":"Point","coordinates":[-80.0419,40.52054]},"properties":{"p":"0279B00332000000","a":"GEORGETOWN AVE","m":"West View","u":"L","o":"individual","sf":7463,"v":35200}},{"type":"Feature","geometry":{"type":"Point","coordinates":[-80.04619,40.51553]},"properties":{"p":"0279J00037000000","a":"HARVARD AVE","m":"West View","u":"L","o":"individual","sf":17152,"v":6100}},{"type":"Feature","geometry":{"type":"Point","coordinates":[-80.04655,40.51553]},"properties":{"p":"0279J00039000000","a":"HARVARD AVE","m":"West View","u":"L","o":"individual","sf":4288,"v":32500}},{"type":"Feature","geometry":{"type":"Point","coordinates":[-80.04669,40.51555]},"properties":{"p":"0279J00041000000","a":"HARVARD AVE","m":"West View","u":"L","o":"individual","sf":4288,"v":32500}},{"type":"Feature","geometry":{"type":"Point","coordinates":[-80.04732,40.51677]},"properties":{"p":"0279E00073000000","a":"YALE AVE","m":"West View","u":"L","o":"corp","sf":4800,"v":34300}},{"type":"Feature","geometry":{"type":"Point","coordinates":[-80.04748,40.51679]},"properties":{"p":"0279E00074000000","a":"YALE AVE","m":"West View","u":"L","o":"individual","sf":6197,"v":35100}},{"type":"Feature","geometry":{"type":"Point","coordinates":[-80.04625,40.5171]},"properties":{"p":"0279E00090000001","a":"YALE AVE","m":"West View","u":"L","o":"individual","sf":4800,"v":1900}},{"type":"Feature","geometry":{"type":"Point","coordinates":[-80.04151,40.52165]},"properties":{"p":"0350P00151000000","a":"HIGHLAND AVE","m":"West View","u":"L","o":"individual","sf":4500,"v":7000}},{"type":"Feature","geometry":{"type":"Point","coordinates":[-80.04112,40.52177]},"properties":{"p":"0350R00005000000","a":"HIGHLAND AVE","m":"West View","u":"L","o":"individual","sf":5072,"v":1900}},{"type":"Feature","geometry":{"type":"Point","coordinates":[-80.04136,40.52121]},"properties":{"p":"0350R00020000000","a":"GEORGETOWN AVE","m":"West View","u":"L","o":"individual","sf":4200,"v":32200}},{"type":"Feature","geometry":{"type":"Point","coordinates":[-80.04411,40.51444]},"properties":{"p":"0279K00152000000","a":"CORNELL AVE","m":"West View","u":"L","o":"individual","sf":3600,"v":12600}},{"type":"Feature","geometry":{"type":"Point","coordinates":[-80.04415,40.51436]},"properties":{"p":"0279K00154000000","a":"CORNELL AVE","m":"West View","u":"L","o":"individual","sf":3600,"v":1400}},{"type":"Feature","geometry":{"type":"Point","coordinates":[-80.04341,40.52145]},"properties":{"p":"0350P00120000000","a":"HIGHLAND AVE","m":"West View","u":"L","o":"individual","sf":4500,"v":15800}},{"type":"Feature","geometry":{"type":"Point","coordinates":[-80.04004,40.51825]},"properties":{"p":"0279G00134000000","a":"PRINCETON AVE","m":"West View","u":"L","o":"individual","sf":11283,"v":35600}},{"type":"Feature","geometry":{"type":"Point","coordinates":[-80.04024,40.51824]},"properties":{"p":"0279G00138000000","a":"PRINCETON AVE","m":"West View","u":"L","o":"individual","sf":15893,"v":36000}},{"type":"Feature","geometry":{"type":"Point","coordinates":[-80.04081,40.51819]},"properties":{"p":"0279G00148000000","a":"PRINCETON AVE","m":"West View","u":"L","o":"individual","sf":9227,"v":17900}},{"type":"Feature","geometry":{"type":"Point","coordinates":[-80.04097,40.51818]},"properties":{"p":"0279G00150000000","a":"PRINCETON AVE","m":"West View","u":"L","o":"individual","sf":3884,"v":1500}},{"type":"Feature","geometry":{"type":"Point","coordinates":[-80.04114,40.51819]},"properties":{"p":"0279G00152000000","a":"PRINCETON AVE","m":"West View","u":"L","o":"individual","sf":6821,"v":35200}},{"type":"Feature","geometry":{"type":"Point","coordinates":[-80.04702,40.51457]},"properties":{"p":"0279J00082000000","a":"KENYON AVE","m":"West View","u":"L","o":"individual","sf":6678,"v":2400}},{"type":"Feature","geometry":{"type":"Point","coordinates":[-80.04595,40.51663]},"properties":{"p":"0279E00054000001","a":"YALE AVE","m":"West View","u":"L","o":"individual","sf":2400,"v":900}},{"type":"Feature","geometry":{"type":"Point","coordinates":[-80.04606,40.51664]},"properties":{"p":"0279E00056000000","a":"YALE AVE","m":"West View","u":"L","o":"individual","sf":4800,"v":1900}},{"type":"Feature","geometry":{"type":"Point","coordinates":[-80.04661,40.5167]},"properties":{"p":"0279E00060000000","a":"225 YALE AVE","m":"West View","u":"L","o":"individual","sf":2160,"v":900}},{"type":"Feature","geometry":{"type":"Point","coordinates":[-80.04707,40.51432]},"properties":{"p":"0279J00088000000","a":"KENYON AVE","m":"West View","u":"L","o":"individual","sf":5225,"v":6500}},{"type":"Feature","geometry":{"type":"Point","coordinates":[-80.04282,40.51754]},"properties":{"p":"0279F00118000000","a":"COLUMBIA AVE","m":"West View","u":"L","o":"corp","sf":8800,"v":3200}},{"type":"Feature","geometry":{"type":"Point","coordinates":[-80.04279,40.51771]},"properties":{"p":"0279F00122000000","a":"COLUMBIA AVE","m":"West View","u":"L","o":"individual","sf":4400,"v":1600}},{"type":"Feature","geometry":{"type":"Point","coordinates":[-80.04277,40.51782]},"properties":{"p":"0279F00124000000","a":"COLUMBIA AVE","m":"West View","u":"L","o":"individual","sf":4800,"v":1800}},{"type":"Feature","geometry":{"type":"Point","coordinates":[-80.04275,40.51793]},"properties":{"p":"0279F00126000000","a":"COLUMBIA AVE","m":"West View","u":"L","o":"individual","sf":4400,"v":1600}},{"type":"Feature","geometry":{"type":"Point","coordinates":[-80.04035,40.516]},"properties":{"p":"0279G00279000000","a":"YALE AVE","m":"West View","u":"L","o":"individual","sf":7200,"v":9000}},{"type":"Feature","geometry":{"type":"Point","coordinates":[-80.04019,40.51598]},"properties":{"p":"0279G00281000000","a":"YALE AVE","m":"West View","u":"L","o":"individual","sf":3600,"v":1400}},{"type":"Feature","geometry":{"type":"Point","coordinates":[-80.04311,40.51842]},"properties":{"p":"0279F00350000000","a":"PRINCETON AVE","m":"West View","u":"L","o":"corp","sf":13750,"v":35800}},{"type":"Feature","geometry":{"type":"Point","coordinates":[-80.04283,40.51839]},"properties":{"p":"0279F00358000000","a":"PRINCETON AVE","m":"West View","u":"L","o":"individual","sf":3300,"v":1300}},{"type":"Feature","geometry":{"type":"Point","coordinates":[-80.04056,40.51564]},"properties":{"p":"0279L00020000000","a":"ADRIAN AVE","m":"West View","u":"L","o":"individual","sf":3600,"v":1400}},{"type":"Feature","geometry":{"type":"Point","coordinates":[-80.04731,40.5176]},"properties":{"p":"0279E00132000000","a":"DARTMOUTH AVE","m":"West View","u":"L","o":"individual","sf":4800,"v":1800}},{"type":"Feature","geometry":{"type":"Point","coordinates":[-80.04745,40.51761]},"properties":{"p":"0279E00134000000","a":"DARTMOUTH AVE","m":"West View","u":"L","o":"individual","sf":4800,"v":34300}},{"type":"Feature","geometry":{"type":"Point","coordinates":[-80.04758,40.51763]},"properties":{"p":"0279E00136000000","a":"DARTMOUTH AVE","m":"West View","u":"L","o":"corp","sf":4126,"v":1500}},{"type":"Feature","geometry":{"type":"Point","coordinates":[-80.04763,40.51807]},"properties":{"p":"0279E00140000000","a":"DARTMOUTH AVE","m":"West View","u":"L","o":"individual","sf":4641,"v":1700}},{"type":"Feature","geometry":{"type":"Point","coordinates":[-80.0475,40.51806]},"properties":{"p":"0279E00142000000","a":"DARTMOUTH AVE","m":"West View","u":"L","o":"individual","sf":4800,"v":34300}},{"type":"Feature","geometry":{"type":"Point","coordinates":[-80.04708,40.51802]},"properties":{"p":"0279E00150000000","a":"DARTMOUTH AVE","m":"West View","u":"L","o":"individual","sf":4800,"v":34300}},{"type":"Feature","geometry":{"type":"Point","coordinates":[-80.04693,40.518]},"properties":{"p":"0279E00152000000","a":"DARTMOUTH AVE","m":"West View","u":"L","o":"individual","sf":4800,"v":34300}},{"type":"Feature","geometry":{"type":"Point","coordinates":[-80.04673,40.51512]},"properties":{"p":"0279J00063000000","a":"HARVARD AVE","m":"West View","u":"L","o":"individual","sf":10800,"v":35500}},{"type":"Feature","geometry":{"type":"Point","coordinates":[-80.04721,40.51493]},"properties":{"p":"0279J00075000000","a":"KENYON AVE","m":"West View","u":"L","o":"individual","sf":5922,"v":2200}},{"type":"Feature","geometry":{"type":"Point","coordinates":[-80.04699,40.51469]},"properties":{"p":"0279J00079000000","a":"KENYON AVE","m":"West View","u":"L","o":"individual","sf":14986,"v":35900}},{"type":"Feature","geometry":{"type":"Point","coordinates":[-80.04501,40.5163]},"properties":{"p":"0279F00292000000","a":"STANFORD AVE","m":"West View","u":"L","o":"individual","sf":6000,"v":35100}},{"type":"Feature","geometry":{"type":"Point","coordinates":[-80.04002,40.52429]},"properties":{"p":"0350L00135000000","a":"HIDDEN VALLEY DR","m":"West View","u":"L","o":"individual","sf":55,"v":100}},{"type":"Feature","geometry":{"type":"Point","coordinates":[-80.04618,40.51747]},"properties":{"p":"0279E00116000000","a":"23 DARTMOUTH AVE","m":"West View","u":"L","o":"individual","sf":4800,"v":34300}},{"type":"Feature","geometry":{"type":"Point","coordinates":[-80.04632,40.51749]},"properties":{"p":"0279E00118000000","a":"DARTMOUTH AVE","m":"West View","u":"L","o":"individual","sf":4800,"v":34300}},{"type":"Feature","geometry":{"type":"Point","coordinates":[-80.0466,40.51752]},"properties":{"p":"0279E00122000000","a":"DARTMOUTH AVE","m":"West View","u":"L","o":"individual","sf":4800,"v":34300}},{"type":"Feature","geometry":{"type":"Point","coordinates":[-80.04688,40.51755]},"properties":{"p":"0279E00126000000","a":"DARTMOUTH AVE","m":"West View","u":"L","o":"individual","sf":4800,"v":34300}},{"type":"Feature","geometry":{"type":"Point","coordinates":[-80.0422,40.51777]},"properties":{"p":"0279F00052000000","a":"COLUMBIA AVE","m":"West View","u":"L","o":"individual","sf":3825,"v":1400}},{"type":"Feature","geometry":{"type":"Point","coordinates":[-80.04222,40.51769]},"properties":{"p":"0279F00054000000","a":"COLUMBIA AVE","m":"West View","u":"L","o":"individual","sf":3825,"v":1400}},{"type":"Feature","geometry":{"type":"Point","coordinates":[-80.04224,40.51761]},"properties":{"p":"0279F00056000000","a":"COLUMBIA AVE","m":"West View","u":"L","o":"individual","sf":3825,"v":1400}},{"type":"Feature","geometry":{"type":"Point","coordinates":[-80.04225,40.51753]},"properties":{"p":"0279F00058000000","a":"COLUMBIA AVE","m":"West View","u":"L","o":"individual","sf":3825,"v":1400}},{"type":"Feature","geometry":{"type":"Point","coordinates":[-80.04227,40.51745]},"properties":{"p":"0279F00060000000","a":"COLUMBIA AVE","m":"West View","u":"L","o":"individual","sf":3825,"v":1400}},{"type":"Feature","geometry":{"type":"Point","coordinates":[-80.04229,40.51737]},"properties":{"p":"0279F00062000000","a":"COLUMBIA AVE","m":"West View","u":"L","o":"individual","sf":3825,"v":1400}},{"type":"Feature","geometry":{"type":"Point","coordinates":[-80.04046,40.51684]},"properties":{"p":"0279G00225000000","a":"OBERLIN AVE","m":"West View","u":"L","o":"individual","sf":3600,"v":1400}},{"type":"Feature","geometry":{"type":"Point","coordinates":[-80.04035,40.51683]},"properties":{"p":"0279G00227000000","a":"OBERLIN AVE","m":"West View","u":"L","o":"individual","sf":3600,"v":1400}},{"type":"Feature","geometry":{"type":"Point","coordinates":[-80.04017,40.51681]},"properties":{"p":"0279G00229000000","a":"OBERLIN AVE","m":"West View","u":"L","o":"individual","sf":8635,"v":35300}},{"type":"Feature","geometry":{"type":"Point","coordinates":[-80.04139,40.51574]},"properties":{"p":"0279K00002000000","a":"ADRIAN AVE","m":"West View","u":"L","o":"corp","sf":3600,"v":1400}},{"type":"Feature","geometry":{"type":"Point","coordinates":[-80.0415,40.51576]},"properties":{"p":"0279K00004000000","a":"ADRIAN AVE","m":"West View","u":"L","o":"individual","sf":3600,"v":1400}},{"type":"Feature","geometry":{"type":"Point","coordinates":[-80.04181,40.51704]},"properties":{"p":"0279F00025000100","a":"CARLISLE AVE","m":"West View","u":"L","o":"individual","sf":383,"v":200}},{"type":"Feature","geometry":{"type":"Point","coordinates":[-80.04098,40.5169]},"properties":{"p":"0279G00215000000","a":"OBERLIN AVE","m":"West View","u":"L","o":"individual","sf":3600,"v":1400}},{"type":"Feature","geometry":{"type":"Point","coordinates":[-80.04073,40.519]},"properties":{"p":"0279C00072000000","a":"HOMEKORT AVE","m":"West View","u":"L","o":"individual","sf":4875,"v":34600}},{"type":"Feature","geometry":{"type":"Point","coordinates":[-80.04195,40.51631]},"properties":{"p":"0279F00012000000","a":"CARLISLE AVE","m":"West View","u":"L","o":"individual","sf":5100,"v":35000}},{"type":"Feature","geometry":{"type":"Point","coordinates":[-80.04083,40.51772]},"properties":{"p":"0279G00164000000","a":"PRINCETON AVE","m":"West View","u":"L","o":"individual","sf":3600,"v":1400}},{"type":"Feature","geometry":{"type":"Point","coordinates":[-80.04073,40.51771]},"properties":{"p":"0279G00166000000","a":"PRINCETON AVE","m":"West View","u":"L","o":"individual","sf":3600,"v":1400}},{"type":"Feature","geometry":{"type":"Point","coordinates":[-80.04062,40.5177]},"properties":{"p":"0279G00168000000","a":"PRINCETON AVE","m":"West View","u":"L","o":"individual","sf":3600,"v":1400}},{"type":"Feature","geometry":{"type":"Point","coordinates":[-80.04052,40.51768]},"properties":{"p":"0279G00170000000","a":"PRINCETON AVE","m":"West View","u":"L","o":"individual","sf":3600,"v":1400}},{"type":"Feature","geometry":{"type":"Point","coordinates":[-80.04039,40.51767]},"properties":{"p":"0279G00172000000","a":"PRINCETON AVE","m":"West View","u":"L","o":"individual","sf":3600,"v":1400}},{"type":"Feature","geometry":{"type":"Point","coordinates":[-80.04026,40.51766]},"properties":{"p":"0279G00174000000","a":"PRINCETON AVE","m":"West View","u":"L","o":"individual","sf":3600,"v":1400}},{"type":"Feature","geometry":{"type":"Point","coordinates":[-80.04016,40.51764]},"properties":{"p":"0279G00176000000","a":"PRINCETON AVE","m":"West View","u":"L","o":"individual","sf":3600,"v":1400}},{"type":"Feature","geometry":{"type":"Point","coordinates":[-80.04002,40.51763]},"properties":{"p":"0279G00178000000","a":"PRINCETON AVE","m":"West View","u":"L","o":"individual","sf":5665,"v":35100}},{"type":"Feature","geometry":{"type":"Point","coordinates":[-80.04016,40.51726]},"properties":{"p":"0279G00186000000","a":"OBERLIN AVE","m":"West View","u":"L","o":"individual","sf":8777,"v":3200}},{"type":"Feature","geometry":{"type":"Point","coordinates":[-80.04035,40.51728]},"properties":{"p":"0279G00188000000","a":"OBERLIN AVE","m":"West View","u":"L","o":"individual","sf":3600,"v":1400}},{"type":"Feature","geometry":{"type":"Point","coordinates":[-80.04771,40.52005]},"properties":{"p":"0279A00350000000","a":"44 ANN ARBOR AVE","m":"West View","u":"L","o":"individual","sf":1100,"v":500}},{"type":"Feature","geometry":{"type":"Point","coordinates":[-80.04235,40.51704]},"properties":{"p":"0279F00070000000","a":"COLUMBIA AVE","m":"West View","u":"L","o":"corp","sf":3825,"v":1400}},{"type":"Feature","geometry":{"type":"Point","coordinates":[-80.04237,40.51696]},"properties":{"p":"0279F00072000000","a":"COLUMBIA AVE","m":"West View","u":"L","o":"individual","sf":3825,"v":1400}},{"type":"Feature","geometry":{"type":"Point","coordinates":[-80.04251,40.5162]},"properties":{"p":"0279F00090000000","a":"COLUMBIA AVE","m":"West View","u":"L","o":"individual","sf":10200,"v":35500}},{"type":"Feature","geometry":{"type":"Point","coordinates":[-80.04005,40.52544]},"properties":{"p":"0350L00177000000","a":"CROSS CREEK CT","m":"West View","u":"L","o":"individual","sf":11103,"v":15000}},{"type":"Feature","geometry":{"type":"Point","coordinates":[-80.04005,40.52519]},"properties":{"p":"0350L00179000000","a":"CROSS CREEK CT","m":"West View","u":"L","o":"individual","sf":14183,"v":15000}},{"type":"Feature","geometry":{"type":"Point","coordinates":[-80.04112,40.51609]},"properties":{"p":"0279G00268000000","a":"17 YALE AVE","m":"West View","u":"L","o":"individual","sf":2400,"v":900}},{"type":"Feature","geometry":{"type":"Point","coordinates":[-80.04103,40.51608]},"properties":{"p":"0279G00270000000","a":"17 YALE AVE","m":"West View","u":"L","o":"individual","sf":3600,"v":1400}},{"type":"Feature","geometry":{"type":"Point","coordinates":[-80.04062,40.51603]},"properties":{"p":"0279G00277000000","a":"YALE AVE","m":"West View","u":"L","o":"individual","sf":3600,"v":1400}},{"type":"Feature","geometry":{"type":"Point","coordinates":[-80.04204,40.51587]},"properties":{"p":"0279K00049000000","a":"CARLISLE AVE","m":"West View","u":"L","o":"individual","sf":6375,"v":17600}},{"type":"Feature","geometry":{"type":"Point","coordinates":[-80.04247,40.51443]},"properties":{"p":"0279K00312000000","a":"HARVARD AVE","m":"Ross","u":"L","o":"individual","sf":8459,"v":3100}},{"type":"Feature","geometry":{"type":"Point","coordinates":[-80.05753,40.51072]},"properties":{"p":"0215C00038000000","a":"EDIES WAY","m":"Ross","u":"L","o":"individual","sf":66072,"v":11600}},{"type":"Feature","geometry":{"type":"Point","coordinates":[-80.05147,40.51061]},"properties":{"p":"0215D00075000000","a":"WILLIAM ST","m":"Ross","u":"L","o":"corp","sf":17901,"v":6400}},{"type":"Feature","geometry":{"type":"Point","coordinates":[-80.05123,40.51076]},"properties":{"p":"0215D00078000000","a":"WILLIAM ST","m":"Ross","u":"L","o":"individual","sf":11789,"v":4200}},{"type":"Feature","geometry":{"type":"Point","coordinates":[-80.05105,40.51079]},"properties":{"p":"0215D00079000000","a":"WILLIAM ST","m":"Ross","u":"L","o":"individual","sf":11807,"v":4200}},{"type":"Feature","geometry":{"type":"Point","coordinates":[-80.05082,40.51085]},"properties":{"p":"0215D00080000000","a":"WILLIAM ST","m":"Ross","u":"L","o":"corp","sf":17677,"v":6300}},{"type":"Feature","geometry":{"type":"Point","coordinates":[-80.0506,40.51089]},"properties":{"p":"0215D00084000000","a":"WILLIAM ST","m":"Ross","u":"L","o":"individual","sf":11411,"v":4100}},{"type":"Feature","geometry":{"type":"Point","coordinates":[-80.05349,40.5112]},"properties":{"p":"0215D00016000000","a":"WILLIAM ST","m":"Ross","u":"L","o":"individual","sf":91585,"v":28000}},{"type":"Feature","geometry":{"type":"Point","coordinates":[-80.05345,40.5102]},"properties":{"p":"0215D00020000000","a":"WILLIAM ST","m":"Ross","u":"L","o":"individual","sf":17582,"v":41100}},{"type":"Feature","geometry":{"type":"Point","coordinates":[-80.05292,40.51036]},"properties":{"p":"0215D00029000000","a":"WILLIAM ST","m":"Ross","u":"L","o":"individual","sf":26535,"v":9400}},{"type":"Feature","geometry":{"type":"Point","coordinates":[-80.05201,40.51055]},"properties":{"p":"0215D00044000000","a":"WILLIAM ST","m":"Ross","u":"L","o":"individual","sf":10584,"v":3800}},{"type":"Feature","geometry":{"type":"Point","coordinates":[-80.0524,40.51087]},"properties":{"p":"0215D00060000000","a":"WILLIAM ST","m":"Ross","u":"L","o":"corp","sf":3646,"v":1400}},{"type":"Feature","geometry":{"type":"Point","coordinates":[-80.05179,40.51057]},"properties":{"p":"0215D00070000000","a":"WILLIAM ST","m":"Ross","u":"L","o":"corp","sf":15041,"v":5400}},{"type":"Feature","geometry":{"type":"Point","coordinates":[-80.05683,40.5111]},"properties":{"p":"0215C00073000000","a":"UNION AVE","m":"Ross","u":"L","o":"individual","sf":16919,"v":6000}},{"type":"Feature","geometry":{"type":"Point","coordinates":[-80.05689,40.51043]},"properties":{"p":"0215C00100000000","a":"UNION AVE","m":"Ross","u":"L","o":"individual","sf":47284,"v":4300}},{"type":"Feature","geometry":{"type":"Point","coordinates":[-80.05438,40.51015]},"properties":{"p":"0215C00133000000","a":"WILLIAM ST","m":"Ross","u":"L","o":"individual","sf":14398,"v":5100}},{"type":"Feature","geometry":{"type":"Point","coordinates":[-80.05505,40.51015]},"properties":{"p":"0215C00139000000","a":"WILLIAM ST","m":"Ross","u":"L","o":"individual","sf":13167,"v":4700}},{"type":"Feature","geometry":{"type":"Point","coordinates":[-80.05538,40.51015]},"properties":{"p":"0215C00142000000","a":"WILLIAM ST","m":"Ross","u":"L","o":"individual","sf":11260,"v":4000}},{"type":"Feature","geometry":{"type":"Point","coordinates":[-80.04924,40.52342]},"properties":{"p":"0350J00095000000","a":"LILY AVE","m":"Ross","u":"L","o":"individual","sf":3474,"v":1300}},{"type":"Feature","geometry":{"type":"Point","coordinates":[-80.04914,40.52342]},"properties":{"p":"0350J00096000000","a":"LILY AVE","m":"Ross","u":"L","o":"individual","sf":3455,"v":1300}},{"type":"Feature","geometry":{"type":"Point","coordinates":[-80.04905,40.52342]},"properties":{"p":"0350J00097000000","a":"LILY AVE","m":"Ross","u":"L","o":"individual","sf":3425,"v":1300}},{"type":"Feature","geometry":{"type":"Point","coordinates":[-80.05283,40.52402]},"properties":{"p":"0349M00206000000","a":"PEONY AVE","m":"Ross","u":"L","o":"individual","sf":7500,"v":2700}},{"type":"Feature","geometry":{"type":"Point","coordinates":[-80.05292,40.52402]},"properties":{"p":"0349M00208000000","a":"PEONY AVE","m":"Ross","u":"L","o":"individual","sf":7500,"v":2700}},{"type":"Feature","geometry":{"type":"Point","coordinates":[-80.04903,40.52299]},"properties":{"p":"0350N00024000000","a":"VIOLET ST","m":"Ross","u":"L","o":"individual","sf":3375,"v":1300}},{"type":"Feature","geometry":{"type":"Point","coordinates":[-80.04913,40.52299]},"properties":{"p":"0350N00026000000","a":"VIOLET ST","m":"Ross","u":"L","o":"individual","sf":3375,"v":1300}},{"type":"Feature","geometry":{"type":"Point","coordinates":[-80.04922,40.52298]},"properties":{"p":"0350N00028000000","a":"VIOLET ST","m":"Ross","u":"L","o":"individual","sf":3375,"v":1300}},{"type":"Feature","geometry":{"type":"Point","coordinates":[-80.04931,40.52298]},"properties":{"p":"0350N00030000000","a":"VIOLET ST","m":"Ross","u":"L","o":"corp","sf":3375,"v":1300}},{"type":"Feature","geometry":{"type":"Point","coordinates":[-80.04945,40.52298]},"properties":{"p":"0350N00034000000","a":"VIOLET ST","m":"Ross","u":"L","o":"individual","sf":6750,"v":2500}},{"type":"Feature","geometry":{"type":"Point","coordinates":[-80.05369,40.52501]},"properties":{"p":"0349M00301000000","a":"SUNSETVIEW DR","m":"Ross","u":"L","o":"individual","sf":10977,"v":40500}},{"type":"Feature","geometry":{"type":"Point","coordinates":[-80.04835,40.52864]},"properties":{"p":"0350A00238000000","a":"GOLF DR","m":"Ross","u":"L","o":"individual","sf":4925,"v":1800}},{"type":"Feature","geometry":{"type":"Point","coordinates":[-80.05115,40.52936]},"properties":{"p":"0349D00145000000","a":"IVY RD","m":"Ross","u":"L","o":"individual","sf":182952,"v":56400}},{"type":"Feature","geometry":{"type":"Point","coordinates":[-80.04845,40.52289]},"properties":{"p":"0350N00014000000","a":"GASS RD","m":"Ross","u":"L","o":"individual","sf":6153,"v":2300}},{"type":"Feature","geometry":{"type":"Point","coordinates":[-80.04881,40.523]},"properties":{"p":"0350N00020000000","a":"VIOLET ST","m":"Ross","u":"L","o":"individual","sf":6556,"v":2400}},{"type":"Feature","geometry":{"type":"Point","coordinates":[-80.04894,40.52299]},"properties":{"p":"0350N00022000000","a":"VIOLET ST","m":"Ross","u":"L","o":"individual","sf":3375,"v":1300}},{"type":"Feature","geometry":{"type":"Point","coordinates":[-80.05498,40.52853]},"properties":{"p":"0349C00121000000","a":"LORLEI LN","m":"Ross","u":"L","o":"individual","sf":1905,"v":800}},{"type":"Feature","geometry":{"type":"Point","coordinates":[-80.05502,40.52864]},"properties":{"p":"0349C00124000000","a":"GASS RD","m":"Ross","u":"L","o":"individual","sf":7500,"v":2700}},{"type":"Feature","geometry":{"type":"Point","coordinates":[-80.05512,40.5294]},"properties":{"p":"0349C00138000000","a":"GASS RD","m":"Ross","u":"L","o":"individual","sf":17282,"v":21100}},{"type":"Feature","geometry":{"type":"Point","coordinates":[-80.04658,40.52991]},"properties":{"p":"0350A00204000000","a":"WILLOW AVE","m":"Ross","u":"L","o":"individual","sf":2500,"v":1000}},{"type":"Feature","geometry":{"type":"Point","coordinates":[-80.04704,40.52961]},"properties":{"p":"0350A00214000000","a":"WILLOW AVE","m":"Ross","u":"L","o":"individual","sf":2378,"v":900}},{"type":"Feature","geometry":{"type":"Point","coordinates":[-80.0471,40.52957]},"properties":{"p":"0350A00215000000","a":"WILLOW AVE","m":"Ross","u":"L","o":"individual","sf":2500,"v":1000}},{"type":"Feature","geometry":{"type":"Point","coordinates":[-80.04724,40.52948]},"properties":{"p":"0350A00217000000","a":"WILLOW AVE","m":"Ross","u":"L","o":"individual","sf":2500,"v":1000}},{"type":"Feature","geometry":{"type":"Point","coordinates":[-80.04731,40.52944]},"properties":{"p":"0350A00218000000","a":"WILLOW AVE","m":"Ross","u":"L","o":"corp","sf":2500,"v":1000}},{"type":"Feature","geometry":{"type":"Point","coordinates":[-80.04737,40.52939]},"properties":{"p":"0350A00219000000","a":"WILLOW AVE","m":"Ross","u":"L","o":"individual","sf":2500,"v":1000}},{"type":"Feature","geometry":{"type":"Point","coordinates":[-80.04744,40.52935]},"properties":{"p":"0350A00220000000","a":"WILLOW AVE","m":"Ross","u":"L","o":"individual","sf":2500,"v":1000}},{"type":"Feature","geometry":{"type":"Point","coordinates":[-80.04751,40.5293]},"properties":{"p":"0350A00221000000","a":"WILLOW AVE","m":"Ross","u":"L","o":"individual","sf":2500,"v":1000}},{"type":"Feature","geometry":{"type":"Point","coordinates":[-80.04762,40.52924]},"properties":{"p":"0350A00223000000","a":"WILLOW AVE","m":"Ross","u":"L","o":"individual","sf":5000,"v":1900}},{"type":"Feature","geometry":{"type":"Point","coordinates":[-80.04775,40.52915]},"properties":{"p":"0350A00225000000","a":"WILLOW AVE","m":"Ross","u":"L","o":"individual","sf":10000,"v":40500}},{"type":"Feature","geometry":{"type":"Point","coordinates":[-80.04881,40.5264]},"properties":{"p":"0350E00073000000","a":"GASS RD","m":"Ross","u":"L","o":"individual","sf":2241,"v":900}},{"type":"Feature","geometry":{"type":"Point","coordinates":[-80.04871,40.5263]},"properties":{"p":"0350E00077000000","a":"GASS RD","m":"Ross","u":"L","o":"corp","sf":4482,"v":1700}},{"type":"Feature","geometry":{"type":"Point","coordinates":[-80.05031,40.527]},"properties":{"p":"0349H00138000000","a":"160 GASS RD","m":"Ross","u":"L","o":"individual","sf":1077,"v":500}},{"type":"Feature","geometry":{"type":"Point","coordinates":[-80.04989,40.52661]},"properties":{"p":"0349H00156000000","a":"GASS RD","m":"Ross","u":"L","o":"individual","sf":6000,"v":2200}},{"type":"Feature","geometry":{"type":"Point","coordinates":[-80.05024,40.52665]},"properties":{"p":"0349H00160000000","a":"159 GASS RD","m":"Ross","u":"L","o":"individual","sf":5073,"v":1900}},{"type":"Feature","geometry":{"type":"Point","coordinates":[-80.04994,40.52425]},"properties":{"p":"0349M00104000000","a":"PEONY AVE","m":"Ross","u":"L","o":"individual","sf":5500,"v":2000}},{"type":"Feature","geometry":{"type":"Point","coordinates":[-80.04978,40.52341]},"properties":{"p":"0349M00117000000","a":"LILY AVE","m":"Ross","u":"L","o":"individual","sf":3575,"v":1400}},{"type":"Feature","geometry":{"type":"Point","coordinates":[-80.05005,40.52342]},"properties":{"p":"0349M00120000000","a":"LILY AVE","m":"Ross","u":"L","o":"individual","sf":3645,"v":1400}},{"type":"Feature","geometry":{"type":"Point","coordinates":[-80.05016,40.52342]},"properties":{"p":"0349M00122000000","a":"LILY AVE","m":"Ross","u":"L","o":"individual","sf":4694,"v":1700}},{"type":"Feature","geometry":{"type":"Point","coordinates":[-80.0525,40.5239]},"properties":{"p":"0349M00152000000","a":"LILY AVE","m":"Ross","u":"L","o":"individual","sf":4562,"v":1700}},{"type":"Feature","geometry":{"type":"Point","coordinates":[-80.05153,40.5239]},"properties":{"p":"0349M00163000000","a":"LILY AVE","m":"Ross","u":"L","o":"individual","sf":5500,"v":2000}},{"type":"Feature","geometry":{"type":"Point","coordinates":[-80.05116,40.52389]},"properties":{"p":"0349M00165000000","a":"LILY AVE","m":"Ross","u":"L","o":"corp","sf":16830,"v":21100}},{"type":"Feature","geometry":{"type":"Point","coordinates":[-80.04922,40.52976]},"properties":{"p":"0350A00097000000","a":"IVY RD","m":"Ross","u":"L","o":"individual","sf":2500,"v":1000}},{"type":"Feature","geometry":{"type":"Point","coordinates":[-80.04929,40.52972]},"properties":{"p":"0350A00098000000","a":"IVORY AVE","m":"Ross","u":"L","o":"individual","sf":2500,"v":1000}},{"type":"Feature","geometry":{"type":"Point","coordinates":[-80.04936,40.52968]},"properties":{"p":"0350A00099000000","a":"IVY RD","m":"Ross","u":"L","o":"individual","sf":2500,"v":1000}},{"type":"Feature","geometry":{"type":"Point","coordinates":[-80.04943,40.52964]},"properties":{"p":"0350A00100000000","a":"IVY RD","m":"Ross","u":"L","o":"individual","sf":2500,"v":1000}},{"type":"Feature","geometry":{"type":"Point","coordinates":[-80.04652,40.52995]},"properties":{"p":"0350A00203000000","a":"WILLOW AVE","m":"Ross","u":"L","o":"individual","sf":2500,"v":1000}},{"type":"Feature","geometry":{"type":"Point","coordinates":[-80.04863,40.52711]},"properties":{"p":"0350E00044000000","a":"GOLF DR","m":"Ross","u":"L","o":"corp","sf":3102,"v":1200}},{"type":"Feature","geometry":{"type":"Point","coordinates":[-80.04922,40.52652]},"properties":{"p":"0350E00067000000","a":"GASS RD","m":"Ross","u":"L","o":"corp","sf":3000,"v":1200}},{"type":"Feature","geometry":{"type":"Point","coordinates":[-80.04942,40.52342]},"properties":{"p":"0350J00093000000","a":"LILY AVE","m":"Ross","u":"L","o":"individual","sf":3514,"v":1300}},{"type":"Feature","geometry":{"type":"Point","coordinates":[-80.04933,40.52342]},"properties":{"p":"0350J00094000000","a":"LILY AVE","m":"Ross","u":"L","o":"individual","sf":3500,"v":1300}},{"type":"Feature","geometry":{"type":"Point","coordinates":[-80.05434,40.51256]},"properties":{"p":"0278R00200000000","a":"VASSAR AVE","m":"Ross","u":"L","o":"individual","sf":322213,"v":62000}},{"type":"Feature","geometry":{"type":"Point","coordinates":[-80.05773,40.51164]},"properties":{"p":"0278R00235000000","a":"UNION AVE EXT","m":"Ross","u":"L","o":"individual","sf":261360,"v":60600}},{"type":"Feature","geometry":{"type":"Point","coordinates":[-80.05195,40.51101]},"properties":{"p":"0278S00032000000","a":"WILLIAM ST","m":"Ross","u":"L","o":"individual","sf":7543,"v":2700}},{"type":"Feature","geometry":{"type":"Point","coordinates":[-80.05212,40.511]},"properties":{"p":"0278S00034000000","a":"WILLIAM ST","m":"Ross","u":"L","o":"individual","sf":4612,"v":1700}},{"type":"Feature","geometry":{"type":"Point","coordinates":[-80.05113,40.51861]},"properties":{"p":"0278D00098000000","a":"SPRINGVIEW AVE","m":"Ross","u":"L","o":"individual","sf":27205,"v":22000}},{"type":"Feature","geometry":{"type":"Point","coordinates":[-80.05122,40.52014]},"properties":{"p":"0278D00156000000","a":"AMHERST AVE","m":"Ross","u":"L","o":"individual","sf":15352,"v":20900}},{"type":"Feature","geometry":{"type":"Point","coordinates":[-80.04789,40.5157]},"properties":{"p":"0279J00324000000","a":"KENYON AVE","m":"Ross","u":"L","o":"individual","sf":12000,"v":40600}},{"type":"Feature","geometry":{"type":"Point","coordinates":[-80.04733,40.51093]},"properties":{"p":"0279N00117000000","a":"OAKRIDGE RD","m":"Ross","u":"L","o":"individual","sf":19228,"v":41300}},{"type":"Feature","geometry":{"type":"Point","coordinates":[-80.04754,40.51152]},"properties":{"p":"0279N00128000000","a":"514 KENYON AVE","m":"Ross","u":"L","o":"individual","sf":32450,"v":22500}},{"type":"Feature","geometry":{"type":"Point","coordinates":[-80.05144,40.51811]},"properties":{"p":"0278H00122000000","a":"SPRINGVIEW AVE","m":"Ross","u":"L","o":"individual","sf":32289,"v":11400}},{"type":"Feature","geometry":{"type":"Point","coordinates":[-80.05036,40.51947]},"properties":{"p":"0278D00052000100","a":"AMHERST AVE","m":"Ross","u":"L","o":"individual","sf":292,"v":200}},{"type":"Feature","geometry":{"type":"Point","coordinates":[-80.04125,40.51157]},"properties":{"p":"0279P00006000100","a":"MEADOW CT","m":"Ross","u":"L","o":"individual","sf":4792,"v":1800}},{"type":"Feature","geometry":{"type":"Point","coordinates":[-80.05035,40.51961]},"properties":{"p":"0278D00054000100","a":"AMHERST AVE","m":"Ross","u":"L","o":"corp","sf":108,"v":100}},{"type":"Feature","geometry":{"type":"Point","coordinates":[-80.05005,40.51875]},"properties":{"p":"0278D00076000000","a":"PRINCETON AVE","m":"Ross","u":"L","o":"individual","sf":6500,"v":2400}},{"type":"Feature","geometry":{"type":"Point","coordinates":[-80.04132,40.51466]},"properties":{"p":"0279L00100000000","a":"WILLIAM ST","m":"Ross","u":"L","o":"corp","sf":6500,"v":20100}},{"type":"Feature","geometry":{"type":"Point","coordinates":[-80.05161,40.51139]},"properties":{"p":"0278S00072000000","a":"WILLIAM ST","m":"Ross","u":"L","o":"individual","sf":52272,"v":44400}},{"type":"Feature","geometry":{"type":"Point","coordinates":[-80.05272,40.51148]},"properties":{"p":"0278S00115000000","a":"STONE QUARRY RD","m":"Ross","u":"L","o":"individual","sf":79323,"v":46800}},{"type":"Feature","geometry":{"type":"Point","coordinates":[-80.04982,40.51316]},"properties":{"p":"0278S00235000000","a":"STANFORD AVE","m":"Ross","u":"L","o":"individual","sf":7500,"v":2700}},{"type":"Feature","geometry":{"type":"Point","coordinates":[-80.04913,40.51376]},"properties":{"p":"0279J00210000000","a":"STANFORD AVE","m":"Ross","u":"L","o":"individual","sf":6000,"v":2200}},{"type":"Feature","geometry":{"type":"Point","coordinates":[-80.04429,40.51267]},"properties":{"p":"0279P00106000000","a":"CORNELL AVE EXT","m":"Ross","u":"L","o":"individual","sf":2917,"v":1100}},{"type":"Feature","geometry":{"type":"Point","coordinates":[-80.04404,40.51219]},"properties":{"p":"0279P00112000000","a":"CORNELL AVE","m":"Ross","u":"L","o":"individual","sf":23033,"v":14250}},{"type":"Feature","geometry":{"type":"Point","coordinates":[-80.0435,40.51253]},"properties":{"p":"0279P00122000000","a":"CORNELL AVE EXT","m":"Ross","u":"L","o":"individual","sf":13274,"v":20700}},{"type":"Feature","geometry":{"type":"Point","coordinates":[-80.05476,40.52398]},"properties":{"p":"0349L00035000000","a":"PEONY AVE","m":"Ross","u":"L","o":"individual","sf":4376,"v":1600}},{"type":"Feature","geometry":{"type":"Point","coordinates":[-80.04953,40.52863]},"properties":{"p":"0350A00012000000","a":"PETUNIA AVE","m":"Ross","u":"L","o":"individual","sf":5500,"v":2000}},{"type":"Feature","geometry":{"type":"Point","coordinates":[-80.0492,40.52892]},"properties":{"p":"0350A00033000000","a":"WILLOW AVE","m":"Ross","u":"L","o":"individual","sf":5500,"v":2000}},{"type":"Feature","geometry":{"type":"Point","coordinates":[-80.04938,40.52898]},"properties":{"p":"0350A00035000000","a":"WILLOW AVE","m":"Ross","u":"L","o":"individual","sf":5500,"v":2000}},{"type":"Feature","geometry":{"type":"Point","coordinates":[-80.04955,40.52897]},"properties":{"p":"0350A00037000000","a":"WILLOW AVE","m":"Ross","u":"L","o":"individual","sf":5500,"v":2000}},{"type":"Feature","geometry":{"type":"Point","coordinates":[-80.04862,40.52952]},"properties":{"p":"0350A00051000000","a":"WILLOW AVE","m":"Ross","u":"L","o":"individual","sf":8412,"v":3000}},{"type":"Feature","geometry":{"type":"Point","coordinates":[-80.0486,40.52994]},"properties":{"p":"0350A00083000000","a":"IVORY AVE","m":"Ross","u":"L","o":"individual","sf":2090,"v":800}},{"type":"Feature","geometry":{"type":"Point","coordinates":[-80.04868,40.52993]},"properties":{"p":"0350A00085000000","a":"IVY RD","m":"Ross","u":"L","o":"individual","sf":2886,"v":1100}},{"type":"Feature","geometry":{"type":"Point","coordinates":[-80.04876,40.52992]},"properties":{"p":"0350A00087000000","a":"IVORY AVE","m":"Ross","u":"L","o":"individual","sf":2856,"v":1100}},{"type":"Feature","geometry":{"type":"Point","coordinates":[-80.04956,40.52467]},"properties":{"p":"0350J00058000000","a":"PEONY AVE","m":"Ross","u":"L","o":"individual","sf":2750,"v":1100}},{"type":"Feature","geometry":{"type":"Point","coordinates":[-80.04884,40.52391]},"properties":{"p":"0350J00079000000","a":"MAPLE DR","m":"Ross","u":"L","o":"individual","sf":6738,"v":2500}},{"type":"Feature","geometry":{"type":"Point","coordinates":[-80.0492,40.5239]},"properties":{"p":"0350J00083000000","a":"LILY AVE","m":"Ross","u":"L","o":"individual","sf":6269,"v":2300}},{"type":"Feature","geometry":{"type":"Point","coordinates":[-80.05937,40.52368]},"properties":{"p":"0349K00155000000","a":"GASS RD","m":"Ross","u":"L","o":"individual","sf":360677,"v":8300}},{"type":"Feature","geometry":{"type":"Point","coordinates":[-80.05108,40.52097]},"properties":{"p":"0349S00002000000","a":"GASS RD","m":"Ross","u":"L","o":"corp","sf":7163,"v":2600}},{"type":"Feature","geometry":{"type":"Point","coordinates":[-80.0499,40.52111]},"properties":{"p":"0349S00018000000","a":"GASS RD","m":"Ross","u":"L","o":"individual","sf":13800,"v":40800}},{"type":"Feature","geometry":{"type":"Point","coordinates":[-80.05014,40.52297]},"properties":{"p":"0349S00050000000","a":"VIOLET ST","m":"Ross","u":"L","o":"individual","sf":4643,"v":1700}},{"type":"Feature","geometry":{"type":"Point","coordinates":[-80.04876,40.52637]},"properties":{"p":"0350E00075000000","a":"GASS RD","m":"Ross","u":"L","o":"corp","sf":2241,"v":900}},{"type":"Feature","geometry":{"type":"Point","coordinates":[-80.05881,40.52232]},"properties":{"p":"0349R00019000000","a":"TIMBERLANE DR","m":"Ross","u":"L","o":"individual","sf":110207,"v":5000}},{"type":"Feature","geometry":{"type":"Point","coordinates":[-80.04378,40.51426]},"properties":{"p":"0295K00085000000","a":"COLUMBIA AVE","m":"West View","u":"L","o":"individual","sf":900,"v":400}},{"type":"Feature","geometry":{"type":"Point","coordinates":[-80.04072,40.51604]},"properties":{"p":"0279G00276000000","a":"YALE AVE","m":"West View","u":"L","o":"individual","sf":3600,"v":1400}},{"type":"Feature","geometry":{"type":"Point","coordinates":[-80.04155,40.51846]},"properties":{"p":"0279G00154000000","a":"CARLISLE AVE","m":"West View","u":"L","o":"individual","sf":3825,"v":1400}},{"type":"Feature","geometry":{"type":"Point","coordinates":[-80.04061,40.51686]},"properties":{"p":"0279G00221000000","a":"OBERLIN AVE","m":"West View","u":"L","o":"individual","sf":7200,"v":9700}},{"type":"Feature","geometry":{"type":"Point","coordinates":[-80.04248,40.51636]},"properties":{"p":"0279F00084000000","a":"COLUMBIA AVE","m":"West View","u":"L","o":"corp","sf":5100,"v":35000}},{"type":"Feature","geometry":{"type":"Point","coordinates":[-80.04229,40.51497]},"properties":{"p":"0279K00030000000","a":"CARLISLE AVE","m":"West View","u":"L","o":"individual","sf":3111,"v":1200}},{"type":"Feature","geometry":{"type":"Point","coordinates":[-80.0401,40.51597]},"properties":{"p":"0279G00283000000","a":"YALE AVE","m":"West View","u":"L","o":"corp","sf":1318,"v":600}},{"type":"Feature","geometry":{"type":"Point","coordinates":[-80.05776,40.51272]},"properties":{"p":"0278R00310000000","a":"UNION AVE","m":"Ross","u":"L","o":"individual","sf":276606,"v":60600}},{"type":"Feature","geometry":{"type":"Point","coordinates":[-80.04709,40.51757]},"properties":{"p":"0279E00130000000","a":"DARTMOUTH AVE","m":"West View","u":"L","o":"individual","sf":9600,"v":3500}},{"type":"Feature","geometry":{"type":"Point","coordinates":[-80.04896,40.52342]},"properties":{"p":"0350J00098000000","a":"LILY AVE","m":"Ross","u":"L","o":"individual","sf":3425,"v":1300}},{"type":"Feature","geometry":{"type":"Point","coordinates":[-80.0547,40.51015]},"properties":{"p":"0215C00136000000","a":"WILLIAM ST","m":"Ross","u":"L","o":"individual","sf":13783,"v":4900}},{"type":"Feature","geometry":{"type":"Point","coordinates":[-80.04717,40.52953]},"properties":{"p":"0350A00216000000","a":"WILLOW AVE","m":"Ross","u":"L","o":"individual","sf":2500,"v":1000}},{"type":"Feature","geometry":{"type":"Point","coordinates":[-80.05202,40.5239]},"properties":{"p":"0349M00154000000","a":"LILY AVE","m":"Ross","u":"L","o":"corp","sf":24750,"v":21800}},{"type":"Feature","geometry":{"type":"Point","coordinates":[-80.04981,40.52298]},"properties":{"p":"0350J00300000000","a":"GASS RD","m":"Ross","u":"L","o":"individual","sf":102366,"v":49000}},{"type":"Feature","geometry":{"type":"Point","coordinates":[-80.04132,40.52172]},"properties":{"p":"0350P00155000000","a":"329 HIGHLAND AVE","m":"West View","u":"L","o":"individual","sf":4500,"v":1700}},{"type":"Feature","geometry":{"type":"Point","coordinates":[-80.0419,40.51935]},"properties":{"p":"0279B00282000000","a":"COLUMBIA AVE","m":"West View","u":"L","o":"individual","sf":3825,"v":1400}},{"type":"Feature","geometry":{"type":"Point","coordinates":[-80.04796,40.51938]},"properties":{"p":"0279A00079000000","a":"AMHERST AVE","m":"Ross","u":"L","o":"individual","sf":2790,"v":400}},{"type":"Feature","geometry":{"type":"Point","coordinates":[-80.05506,40.52896]},"properties":{"p":"0349C00130000000","a":"GASS RD","m":"Ross","u":"L","o":"individual","sf":15000,"v":20900}},{"type":"Feature","geometry":{"type":"Point","coordinates":[-80.05476,40.52778]},"properties":{"p":"0349G00128000000","a":"WEDGEWOOD DR","m":"Ross","u":"L","o":"individual","sf":3375,"v":1300}},{"type":"Feature","geometry":{"type":"Point","coordinates":[-80.04907,40.52984]},"properties":{"p":"0350A00095000000","a":"IVY RD","m":"Ross","u":"L","o":"individual","sf":2500,"v":1000}},{"type":"Feature","geometry":{"type":"Point","coordinates":[-80.04934,40.52822]},"properties":{"p":"0350A00008000000","a":"PETUNIA AVE","m":"Ross","u":"L","o":"individual","sf":5500,"v":2000}},{"type":"Feature","geometry":{"type":"Point","coordinates":[-80.04799,40.52964]},"properties":{"p":"0350A00300000000","a":"WILLOW AVE","m":"Ross","u":"B","o":"corp","sf":152460,"v":19500}}]}