{"type":"FeatureCollection","features":[{"type":"Feature","geometry":{"type":"Point","coordinates":[-80.05939,40.47178]},"properties":{"p":"0043B00170000000","a":"INTERMODAL WAY","m":"McKees Rocks","u":"I","o":"corp","sf":193576,"v":702500}},{"type":"Feature","geometry":{"type":"Point","coordinates":[-80.05843,40.47042]},"properties":{"p":"0043B00175000000","a":"INTERMODAL WAY","m":"McKees Rocks","u":"I","o":"corp","sf":271435,"v":970100}},{"type":"Feature","geometry":{"type":"Point","coordinates":[-80.05004,40.47179]},"properties":{"p":"0043D00110000000","a":"501 ROBB ST","m":"McKees Rocks","u":"I","o":"corp","sf":39131,"v":36000}},{"type":"Feature","geometry":{"type":"Point","coordinates":[-80.0572,40.47136]},"properties":{"p":"0043C00205000000","a":"190 CATHERINE ST","m":"McKees Rocks","u":"I","o":"corp","sf":165092,"v":51200}},{"type":"Feature","geometry":{"type":"Point","coordinates":[-80.05332,40.48018]},"properties":{"p":"0074D00012000000","a":"GRAHAM ST","m":"Stowe","u":"I","o":"individual","sf":18467,"v":3300}},{"type":"Feature","geometry":{"type":"Point","coordinates":[-80.05267,40.47966]},"properties":{"p":"0074D00022000000","a":"GRAHAM ST","m":"Stowe","u":"I","o":"corp","sf":22433,"v":4000}},{"type":"Feature","geometry":{"type":"Point","coordinates":[-80.05145,40.47838]},"properties":{"p":"0074H00040000000","a":"GRAHAM ST","m":"Stowe","u":"I","o":"individual","sf":58519,"v":6500}},{"type":"Feature","geometry":{"type":"Point","coordinates":[-80.05107,40.47028]},"properties":{"p":"0043D00255000000","a":"5 RIVER RD","m":"McKees Rocks","u":"I","o":"corp","sf":207781,"v":113300}},{"type":"Feature","geometry":{"type":"Point","coordinates":[-80.04402,40.47919]},"properties":{"p":"0075F00158000001","a":"VERNER AVE","m":"27th Ward - PITTSBURGH","u":"I","o":"corp","sf":4312,"v":1300}},{"type":"Feature","geometry":{"type":"Point","coordinates":[-80.0438,40.47246]},"properties":{"p":"0075R00272000000","a":"3300 PREBLE AVE","m":"27th Ward - PITTSBURGH","u":"C","o":"corp","sf":39958,"v":140600}},{"type":"Feature","geometry":{"type":"Point","coordinates":[-80.04327,40.4858]},"properties":{"p":"0114K00200000000","a":"3941 CALIFORNIA AVE","m":"27th Ward - PITTSBURGH","u":"C","o":"corp","sf":10080,"v":15100}},{"type":"Feature","geometry":{"type":"Point","coordinates":[-80.04573,40.487]},"properties":{"p":"0114E00001000000","a":"CALIFORNIA AVE","m":"27th Ward - PITTSBURGH","u":"C","o":"corp","sf":59590,"v":30900}},{"type":"Feature","geometry":{"type":"Point","coordinates":[-80.04178,40.4805]},"properties":{"p":"0075B00334000000","a":"MEXICO ST","m":"27th Ward - PITTSBURGH","u":"C","o":"corp","sf":3926,"v":11800}},{"type":"Feature","geometry":{"type":"Point","coordinates":[-80.04228,40.48178]},"properties":{"p":"0075B00104000000","a":"TERMON AVE","m":"27th Ward - PITTSBURGH","u":"C","o":"corp","sf":7576,"v":20200}},{"type":"Feature","geometry":{"type":"Point","coordinates":[-80.05502,40.48559]},"properties":{"p":"0113S00100000000","a":"RIVER","m":"Bellevue","u":"C","o":"corp","sf":2920,"v":18100}},{"type":"Feature","geometry":{"type":"Point","coordinates":[-80.05768,40.48904]},"properties":{"p":"0113G00002000000","a":"SPRING AVE","m":"Bellevue","u":"C","o":"individual","sf":7041,"v":34100}},{"type":"Feature","geometry":{"type":"Point","coordinates":[-80.0541,40.48652]},"properties":{"p":"0113L00012000000","a":"KENDALL AVE","m":"Bellevue","u":"C","o":"individual","sf":4860,"v":2100}},{"type":"Feature","geometry":{"type":"Point","coordinates":[-80.04996,40.48581]},"properties":{"p":"0113M00052000000","a":"FARRAGUT AVE","m":"Bellevue","u":"C","o":"corp","sf":7382,"v":104800}},{"type":"Feature","geometry":{"type":"Point","coordinates":[-80.05845,40.48869]},"properties":{"p":"0113F00030000000","a":"OHIO RIVER BLVD","m":"Bellevue","u":"C","o":"corp","sf":27708,"v":12800}},{"type":"Feature","geometry":{"type":"Point","coordinates":[-80.04916,40.48834]},"properties":{"p":"0114E00260000000","a":"101 DAVIS AVE","m":"Bellevue","u":"C","o":"corp","sf":9210,"v":3700}},{"type":"Feature","geometry":{"type":"Point","coordinates":[-80.04935,40.48613]},"properties":{"p":"0114J00277000000","a":"FARRAGUT AVE","m":"Bellevue","u":"C","o":"corp","sf":1800,"v":54100}},{"type":"Feature","geometry":{"type":"Point","coordinates":[-80.05977,40.48988]},"properties":{"p":"0113B00168000000","a":"4449 OHIO RIVER BLVD","m":"Bellevue","u":"C","o":"corp","sf":19240,"v":116300}},{"type":"Feature","geometry":{"type":"Point","coordinates":[-80.05152,40.48489]},"properties":{"p":"0113M00253000000","a":"SHADE AVE","m":"Bellevue","u":"C","o":"individual","sf":9600,"v":3800}},{"type":"Feature","geometry":{"type":"Point","coordinates":[-80.05178,40.48465]},"properties":{"p":"0113M00255000000","a":"SHADE AVE","m":"Bellevue","u":"C","o":"individual","sf":6000,"v":2400}},{"type":"Feature","geometry":{"type":"Point","coordinates":[-80.05025,40.48481]},"properties":{"p":"0113M00128000000","a":"FARRAGUT AVE","m":"Bellevue","u":"C","o":"corp","sf":4280,"v":1700}},{"type":"Feature","geometry":{"type":"Point","coordinates":[-80.05034,40.48476]},"properties":{"p":"0113M00132000000","a":"FARRAGUT AVE","m":"Bellevue","u":"C","o":"corp","sf":7802,"v":48300}},{"type":"Feature","geometry":{"type":"Point","coordinates":[-80.05148,40.48436]},"properties":{"p":"0113M00139000000","a":"OHIO RIVER BLVD","m":"Bellevue","u":"C","o":"individual","sf":32674,"v":162500}},{"type":"Feature","geometry":{"type":"Point","coordinates":[-80.04712,40.48839]},"properties":{"p":"0114E00146000000","a":"W ROSERIDGE AVE","m":"Bellevue","u":"C","o":"corp","sf":10570,"v":4200}},{"type":"Feature","geometry":{"type":"Point","coordinates":[-80.04702,40.48796]},"properties":{"p":"0114E00150000000","a":"W ROSERIDGE AVE","m":"Bellevue","u":"C","o":"corp","sf":5025,"v":2000}},{"type":"Feature","geometry":{"type":"Point","coordinates":[-80.05999,40.4704]},"properties":{"p":"0043B00139000000","a":"428 ISLAND AVE","m":"McKees Rocks","u":"C","o":"corp","sf":4935,"v":16400}},{"type":"Feature","geometry":{"type":"Point","coordinates":[-80.05662,40.4728]},"properties":{"p":"0074R00286000000","a":"HELEN ST","m":"McKees Rocks","u":"C","o":"individual","sf":5200,"v":600}},{"type":"Feature","geometry":{"type":"Point","coordinates":[-80.05789,40.47447]},"properties":{"p":"0074P00005000000","a":"MUNSON AVE","m":"McKees Rocks","u":"C","o":"corp","sf":1535,"v":300}},{"type":"Feature","geometry":{"type":"Point","coordinates":[-80.05794,40.47452]},"properties":{"p":"0074P00007000000","a":"318 -320 MUNSON AVE","m":"McKees Rocks","u":"C","o":"corp","sf":1525,"v":1200}},{"type":"Feature","geometry":{"type":"Point","coordinates":[-80.05732,40.4744]},"properties":{"p":"0074R00348000000","a":"HELEN ST","m":"McKees Rocks","u":"C","o":"individual","sf":2000,"v":9600}},{"type":"Feature","geometry":{"type":"Point","coordinates":[-80.05919,40.47551]},"properties":{"p":"0074K00500000000","a":"MUNSON AVE","m":"McKees Rocks","u":"C","o":"individual","sf":3441,"v":1600}},{"type":"Feature","geometry":{"type":"Point","coordinates":[-80.05372,40.47247]},"properties":{"p":"0074S00010000000","a":"MARTHA ST","m":"McKees Rocks","u":"C","o":"corp","sf":4800,"v":11800}},{"type":"Feature","geometry":{"type":"Point","coordinates":[-80.05805,40.47466]},"properties":{"p":"0074K00080000000","a":"HELEN ST","m":"McKees Rocks","u":"C","o":"individual","sf":1800,"v":2300}},{"type":"Feature","geometry":{"type":"Point","coordinates":[-80.05801,40.47461]},"properties":{"p":"0074K00080000B00","a":"HELEN ST","m":"McKees Rocks","u":"C","o":"individual","sf":900,"v":100}},{"type":"Feature","geometry":{"type":"Point","coordinates":[-80.05762,40.47524]},"properties":{"p":"0074L00243000000","a":"OLIVIA ST","m":"McKees Rocks","u":"C","o":"corp","sf":1900,"v":1863}},{"type":"Feature","geometry":{"type":"Point","coordinates":[-80.05757,40.47518]},"properties":{"p":"0074L00244000000","a":"OLIVIA ST","m":"McKees Rocks","u":"C","o":"corp","sf":1900,"v":1900}},{"type":"Feature","geometry":{"type":"Point","coordinates":[-80.05747,40.47507]},"properties":{"p":"0074L00246000000","a":"OLIVIA ST","m":"McKees Rocks","u":"C","o":"corp","sf":1900,"v":1900}},{"type":"Feature","geometry":{"type":"Point","coordinates":[-80.05743,40.47501]},"properties":{"p":"0074L00247000000","a":"OLIVIA ST","m":"McKees Rocks","u":"C","o":"corp","sf":1900,"v":1900}},{"type":"Feature","geometry":{"type":"Point","coordinates":[-80.05738,40.47495]},"properties":{"p":"0074L00248000000","a":"OLIVIA ST","m":"McKees Rocks","u":"C","o":"corp","sf":1900,"v":1900}},{"type":"Feature","geometry":{"type":"Point","coordinates":[-80.05728,40.47483]},"properties":{"p":"0074L00250000000","a":"OLIVIA ST","m":"McKees Rocks","u":"C","o":"corp","sf":2204,"v":1900}},{"type":"Feature","geometry":{"type":"Point","coordinates":[-80.05723,40.47477]},"properties":{"p":"0074L00251000000","a":"OLIVIA ST","m":"McKees Rocks","u":"C","o":"corp","sf":1596,"v":1700}},{"type":"Feature","geometry":{"type":"Point","coordinates":[-80.05752,40.47465]},"properties":{"p":"0074L00256000000","a":"HELEN ST","m":"McKees Rocks","u":"C","o":"individual","sf":2000,"v":9600}},{"type":"Feature","geometry":{"type":"Point","coordinates":[-80.05756,40.4747]},"properties":{"p":"0074L00257000000","a":"HELEN ST","m":"McKees Rocks","u":"C","o":"individual","sf":2000,"v":9600}},{"type":"Feature","geometry":{"type":"Point","coordinates":[-80.05693,40.47438]},"properties":{"p":"0074R00358000000","a":"OLIVIA ST","m":"McKees Rocks","u":"C","o":"corp","sf":3800,"v":11000}},{"type":"Feature","geometry":{"type":"Point","coordinates":[-80.057,40.47446]},"properties":{"p":"0074R00360000000","a":"OLIVIA ST","m":"McKees Rocks","u":"C","o":"individual","sf":1900,"v":9500}},{"type":"Feature","geometry":{"type":"Point","coordinates":[-80.0585,40.47511]},"properties":{"p":"0074K00071000000","a":"HELEN ST","m":"McKees Rocks","u":"C","o":"corp","sf":3473,"v":10800}},{"type":"Feature","geometry":{"type":"Point","coordinates":[-80.05842,40.47499]},"properties":{"p":"0074K00073000000","a":"HELEN ST","m":"McKees Rocks","u":"C","o":"individual","sf":5667,"v":12500}},{"type":"Feature","geometry":{"type":"Point","coordinates":[-80.05836,40.47489]},"properties":{"p":"0074K00075000000","a":"HELEN ST","m":"McKees Rocks","u":"C","o":"individual","sf":3000,"v":10400}},{"type":"Feature","geometry":{"type":"Point","coordinates":[-80.0525,40.47473]},"properties":{"p":"0074M00043000000","a":"HAMILTON ST","m":"McKees Rocks","u":"C","o":"corp","sf":9164,"v":15300}},{"type":"Feature","geometry":{"type":"Point","coordinates":[-80.04574,40.4882]},"properties":{"p":"0114E00050000000","a":"JACKS RUN RD","m":"Ross","u":"C","o":"corp","sf":13591,"v":6300}},{"type":"Feature","geometry":{"type":"Point","coordinates":[-80.05871,40.47617]},"properties":{"p":"0074K00166000000","a":"HELEN ST","m":"Stowe","u":"C","o":"individual","sf":2500,"v":11300}},{"type":"Feature","geometry":{"type":"Point","coordinates":[-80.05802,40.47591]},"properties":{"p":"0074K00112000000","a":"OLIVIA ST","m":"Stowe","u":"C","o":"corp","sf":3128,"v":11800}},{"type":"Feature","geometry":{"type":"Point","coordinates":[-80.05469,40.47623]},"properties":{"p":"0074L00355000000","a":"NICHOL AVE","m":"Stowe","u":"C","o":"corp","sf":21721,"v":2000}},{"type":"Feature","geometry":{"type":"Point","coordinates":[-80.051,40.4761]},"properties":{"p":"0074M00150000100","a":"1000 ELLA ST","m":"Stowe","u":"C","o":"corp","sf":87120,"v":76800}},{"type":"Feature","geometry":{"type":"Point","coordinates":[-80.05426,40.48838]},"properties":{"p":"0113G00140000000","a":"GRANT AVE","m":"Bellevue","u":"C","o":"corp","sf":800,"v":300}},{"type":"Feature","geometry":{"type":"Point","coordinates":[-80.05728,40.47434]},"properties":{"p":"0074R00349000000","a":"HELEN ST","m":"McKees Rocks","u":"C","o":"corp","sf":2000,"v":9600}},{"type":"Feature","geometry":{"type":"Point","coordinates":[-80.05861,40.47491]},"properties":{"p":"0074K00048000000","a":"LAWRENCE ST","m":"McKees Rocks","u":"C","o":"corp","sf":5287,"v":900}},{"type":"Feature","geometry":{"type":"Point","coordinates":[-80.05986,40.48893]},"properties":{"p":"0113F00035000001","a":"RIVER","m":"Bellevue","u":"C","o":"individual","sf":33600,"v":13400}},{"type":"Feature","geometry":{"type":"Point","coordinates":[-80.05948,40.48089]},"properties":{"p":"0074B00080000000","a":"NICHOL AVE","m":"Stowe","u":"C","o":"corp","sf":3090355,"v":5148100}},{"type":"Feature","geometry":{"type":"Point","coordinates":[-80.0483,40.48566]},"properties":{"p":"0114J00250000000","a":"85 FARRAGUT AVE","m":"27th Ward - PITTSBURGH","u":"L","o":"individual","sf":152460,"v":23000}},{"type":"Feature","geometry":{"type":"Point","coordinates":[-80.04846,40.48602]},"properties":{"p":"0114J00265000000","a":"65 FARRAGUT AVE","m":"27th Ward - PITTSBURGH","u":"L","o":"individual","sf":43562,"v":16500}},{"type":"Feature","geometry":{"type":"Point","coordinates":[-80.04362,40.48562]},"properties":{"p":"0114K00139000000","a":"3946 OSWALD ST","m":"27th Ward - PITTSBURGH","u":"L","o":"corp","sf":4725,"v":25300}},{"type":"Feature","geometry":{"type":"Point","coordinates":[-80.04343,40.48551]},"properties":{"p":"0114K00140000000","a":"OSWALD ST","m":"27th Ward - PITTSBURGH","u":"L","o":"corp","sf":9540,"v":26400}},{"type":"Feature","geometry":{"type":"Point","coordinates":[-80.04405,40.48751]},"properties":{"p":"0114F00218000000","a":"NORTHMINSTER ST","m":"27th Ward - PITTSBURGH","u":"L","o":"individual","sf":6000,"v":26100}},{"type":"Feature","geometry":{"type":"Point","coordinates":[-80.04078,40.48521]},"properties":{"p":"0114L00144000000","a":"NORMANDIE PL","m":"27th Ward - PITTSBURGH","u":"L","o":"individual","sf":1715,"v":4500}},{"type":"Feature","geometry":{"type":"Point","coordinates":[-80.04873,40.48597]},"properties":{"p":"0114J00269000000","a":"JACKS RUN RD","m":"27th Ward - PITTSBURGH","u":"L","o":"individual","sf":9500,"v":26400}},{"type":"Feature","geometry":{"type":"Point","coordinates":[-80.04746,40.48173]},"properties":{"p":"0114N00200000000","a":"0 OHIO RIVER BLVD BLVD","m":"27th Ward - PITTSBURGH","u":"L","o":"corp","sf":62722,"v":31300}},{"type":"Feature","geometry":{"type":"Point","coordinates":[-80.04001,40.48873]},"properties":{"p":"0114G00199000000","a":"NORTH SHORE DR","m":"27th Ward - PITTSBURGH","u":"L","o":"corp","sf":2328,"v":6100}},{"type":"Feature","geometry":{"type":"Point","coordinates":[-80.04046,40.48277]},"properties":{"p":"0114R00157000000","a":"COOPER AVE","m":"27th Ward - PITTSBURGH","u":"L","o":"individual","sf":10718,"v":26500}},{"type":"Feature","geometry":{"type":"Point","coordinates":[-80.04,40.48295]},"properties":{"p":"0114R00162000000","a":"1545 COOPER AVE","m":"27th Ward - PITTSBURGH","u":"L","o":"individual","sf":6173,"v":15000}},{"type":"Feature","geometry":{"type":"Point","coordinates":[-80.04299,40.48856]},"properties":{"p":"0114F00088000000","a":"CAMBRONNE ST","m":"27th Ward - PITTSBURGH","u":"L","o":"individual","sf":4080,"v":23600}},{"type":"Feature","geometry":{"type":"Point","coordinates":[-80.04876,40.48414]},"properties":{"p":"0114N00006000000","a":"MCFARLAND ST","m":"27th Ward - PITTSBURGH","u":"L","o":"individual","sf":37700,"v":6000}},{"type":"Feature","geometry":{"type":"Point","coordinates":[-80.04098,40.48626]},"properties":{"p":"0114L00061000000","a":"WINSHIRE ST","m":"27th Ward - PITTSBURGH","u":"L","o":"individual","sf":6266,"v":26100}},{"type":"Feature","geometry":{"type":"Point","coordinates":[-80.04002,40.48253]},"properties":{"p":"0114R00265000000","a":"TERMON AVE","m":"27th Ward - PITTSBURGH","u":"L","o":"individual","sf":3775,"v":3200}},{"type":"Feature","geometry":{"type":"Point","coordinates":[-80.04319,40.48868]},"properties":{"p":"0114F00093000000","a":"CAMBRONNE ST","m":"27th Ward - PITTSBURGH","u":"L","o":"corp","sf":4200,"v":23900}},{"type":"Feature","geometry":{"type":"Point","coordinates":[-80.04323,40.4881]},"properties":{"p":"0114F00104000000","a":"CAMBRONNE ST","m":"27th Ward - PITTSBURGH","u":"L","o":"individual","sf":5640,"v":13100}},{"type":"Feature","geometry":{"type":"Point","coordinates":[-80.0498,40.48477]},"properties":{"p":"0113M00011000000","a":"JACKS RUN RD","m":"27th Ward - PITTSBURGH","u":"L","o":"individual","sf":2755,"v":3600}},{"type":"Feature","geometry":{"type":"Point","coordinates":[-80.04048,40.48327]},"properties":{"p":"0114R00137000000","a":"COOPER AVE","m":"27th Ward - PITTSBURGH","u":"L","o":"individual","sf":1575,"v":4100}},{"type":"Feature","geometry":{"type":"Point","coordinates":[-80.04114,40.48408]},"properties":{"p":"0114R00008000000","a":"BONAVENTURE WAY","m":"27th Ward - PITTSBURGH","u":"L","o":"corp","sf":3545,"v":22200}},{"type":"Feature","geometry":{"type":"Point","coordinates":[-80.04237,40.4808]},"properties":{"p":"0075B00302000000","a":"MEXICO ST","m":"27th Ward - PITTSBURGH","u":"L","o":"individual","sf":2374,"v":1300}},{"type":"Feature","geometry":{"type":"Point","coordinates":[-80.04447,40.48106]},"properties":{"p":"0075B00048000000","a":"ELMHURST AVE","m":"27th Ward - PITTSBURGH","u":"L","o":"individual","sf":3000,"v":20800}},{"type":"Feature","geometry":{"type":"Point","coordinates":[-80.04118,40.48169]},"properties":{"p":"0075B00358000000","a":"CALIFORNIA AVE","m":"27th Ward - PITTSBURGH","u":"L","o":"individual","sf":6360,"v":26100}},{"type":"Feature","geometry":{"type":"Point","coordinates":[-80.04147,40.48465]},"properties":{"p":"0114K00174000000","a":"CALIFORNIA AVE","m":"27th Ward - PITTSBURGH","u":"L","o":"corp","sf":3500,"v":1200}},{"type":"Feature","geometry":{"type":"Point","coordinates":[-80.04154,40.48469]},"properties":{"p":"0114K00175000000","a":"CALIFORNIA AVE","m":"27th Ward - PITTSBURGH","u":"L","o":"corp","sf":3500,"v":1200}},{"type":"Feature","geometry":{"type":"Point","coordinates":[-80.04174,40.48482]},"properties":{"p":"0114K00182000000","a":"CALIFORNIA AVE","m":"27th Ward - PITTSBURGH","u":"L","o":"individual","sf":3500,"v":22100}},{"type":"Feature","geometry":{"type":"Point","coordinates":[-80.0427,40.48051]},"properties":{"p":"0075B00307000000","a":"GRENADA ST","m":"27th Ward - PITTSBURGH","u":"L","o":"corp","sf":3528,"v":7100}},{"type":"Feature","geometry":{"type":"Point","coordinates":[-80.04271,40.48061]},"properties":{"p":"0075B00309000000","a":"GRENADA ST","m":"27th Ward - PITTSBURGH","u":"L","o":"corp","sf":3528,"v":17100}},{"type":"Feature","geometry":{"type":"Point","coordinates":[-80.04273,40.4807]},"properties":{"p":"0075B00310000000","a":"GRENADA ST","m":"27th Ward - PITTSBURGH","u":"L","o":"corp","sf":2871,"v":15700}},{"type":"Feature","geometry":{"type":"Point","coordinates":[-80.04029,40.48147]},"properties":{"p":"0075C00108000000","a":"ORCHLEE ST","m":"27th Ward - PITTSBURGH","u":"L","o":"individual","sf":4864,"v":25700}},{"type":"Feature","geometry":{"type":"Point","coordinates":[-80.04068,40.48434]},"properties":{"p":"0114L00182000000","a":"3811 CALIFORNIA AVE","m":"27th Ward - PITTSBURGH","u":"L","o":"corp","sf":1871,"v":17900}},{"type":"Feature","geometry":{"type":"Point","coordinates":[-80.04369,40.48144]},"properties":{"p":"0075B00087000000","a":"ELMHURST AVE","m":"27th Ward - PITTSBURGH","u":"L","o":"individual","sf":2958,"v":20700}},{"type":"Feature","geometry":{"type":"Point","coordinates":[-80.04187,40.47803]},"properties":{"p":"0075F00065000000","a":"WORTMAN ST","m":"27th Ward - PITTSBURGH","u":"L","o":"individual","sf":18011,"v":21200}},{"type":"Feature","geometry":{"type":"Point","coordinates":[-80.04382,40.48117]},"properties":{"p":"0075B00083000000","a":"ELMHURST AVE","m":"27th Ward - PITTSBURGH","u":"L","o":"individual","sf":2938,"v":7600}},{"type":"Feature","geometry":{"type":"Point","coordinates":[-80.04376,40.48129]},"properties":{"p":"0075B00085000000","a":"ELMHURST AVE","m":"27th Ward - PITTSBURGH","u":"L","o":"individual","sf":2880,"v":1000}},{"type":"Feature","geometry":{"type":"Point","coordinates":[-80.04358,40.47967]},"properties":{"p":"0075B00166000000","a":"MOALE ST","m":"27th Ward - PITTSBURGH","u":"L","o":"corp","sf":3300,"v":8600}},{"type":"Feature","geometry":{"type":"Point","coordinates":[-80.04359,40.4798]},"properties":{"p":"0075B00167000000","a":"MOALE ST","m":"27th Ward - PITTSBURGH","u":"L","o":"corp","sf":3960,"v":10300}},{"type":"Feature","geometry":{"type":"Point","coordinates":[-80.04362,40.47988]},"properties":{"p":"0075B00168000000","a":"VERNER AVE","m":"27th Ward - PITTSBURGH","u":"L","o":"corp","sf":2919,"v":1700}},{"type":"Feature","geometry":{"type":"Point","coordinates":[-80.04354,40.48038]},"properties":{"p":"0075B00176000000","a":"VERNER AVE","m":"27th Ward - PITTSBURGH","u":"L","o":"individual","sf":3444,"v":2500}},{"type":"Feature","geometry":{"type":"Point","coordinates":[-80.04234,40.47902]},"properties":{"p":"0075F00045000000","a":"FAIRLEE ST","m":"27th Ward - PITTSBURGH","u":"L","o":"individual","sf":1600,"v":3200}},{"type":"Feature","geometry":{"type":"Point","coordinates":[-80.04262,40.48153]},"properties":{"p":"0075B00126000000","a":"VERNER AVE","m":"27th Ward - PITTSBURGH","u":"L","o":"individual","sf":3150,"v":1100}},{"type":"Feature","geometry":{"type":"Point","coordinates":[-80.04274,40.48153]},"properties":{"p":"0075B00127000000","a":"1728 VERNER AVE","m":"27th Ward - PITTSBURGH","u":"L","o":"individual","sf":3826,"v":4500}},{"type":"Feature","geometry":{"type":"Point","coordinates":[-80.04285,40.48154]},"properties":{"p":"0075B00128000000","a":"1728 VERNER AVE","m":"27th Ward - PITTSBURGH","u":"L","o":"corp","sf":3978,"v":10300}},{"type":"Feature","geometry":{"type":"Point","coordinates":[-80.04319,40.4815]},"properties":{"p":"0075B00131000000","a":"VERNER AVE","m":"27th Ward - PITTSBURGH","u":"L","o":"corp","sf":4249,"v":5000}},{"type":"Feature","geometry":{"type":"Point","coordinates":[-80.04268,40.48016]},"properties":{"p":"0075B00286000000","a":"GRENADA ST","m":"27th Ward - PITTSBURGH","u":"L","o":"individual","sf":2100,"v":14200}},{"type":"Feature","geometry":{"type":"Point","coordinates":[-80.0545,40.48703]},"properties":{"p":"0113G00235000000","a":"GRANT AVE","m":"Bellevue","u":"L","o":"individual","sf":5150,"v":23000}},{"type":"Feature","geometry":{"type":"Point","coordinates":[-80.04608,40.4885]},"properties":{"p":"0114E00053000000","a":"8 FARRAGUT AVE","m":"Bellevue","u":"L","o":"corp","sf":2500,"v":10000}},{"type":"Feature","geometry":{"type":"Point","coordinates":[-80.04601,40.48854]},"properties":{"p":"0114E00054000000","a":"FARRAGUT AVE","m":"Bellevue","u":"L","o":"corp","sf":1925,"v":700}},{"type":"Feature","geometry":{"type":"Point","coordinates":[-80.04589,40.48868]},"properties":{"p":"0114E00055000000","a":"FARRAGUT AVE","m":"Bellevue","u":"L","o":"corp","sf":18000,"v":12000}},{"type":"Feature","geometry":{"type":"Point","coordinates":[-80.0462,40.48887]},"properties":{"p":"0114E00070000000","a":"ROSERIDGE AVE","m":"Bellevue","u":"L","o":"individual","sf":3781,"v":20200}},{"type":"Feature","geometry":{"type":"Point","coordinates":[-80.04893,40.48722]},"properties":{"p":"0114E00251000000","a":"101 DAVIS AVE","m":"Bellevue","u":"L","o":"corp","sf":93502,"v":240400}},{"type":"Feature","geometry":{"type":"Point","coordinates":[-80.04642,40.48986]},"properties":{"p":"0114A00074000000","a":"MARGARETTA ST","m":"Bellevue","u":"L","o":"individual","sf":17437,"v":24100}},{"type":"Feature","geometry":{"type":"Point","coordinates":[-80.04648,40.48947]},"properties":{"p":"0114A00085000000","a":"E ROSERIDGE AVE","m":"Bellevue","u":"L","o":"individual","sf":2407,"v":17000}},{"type":"Feature","geometry":{"type":"Point","coordinates":[-80.05792,40.48972]},"properties":{"p":"0113B00130000000","a":"CARSON AVE","m":"Bellevue","u":"L","o":"individual","sf":16262,"v":5300}},{"type":"Feature","geometry":{"type":"Point","coordinates":[-80.04972,40.4871]},"properties":{"p":"0113H00273000000","a":"STAUNTON AVE","m":"Bellevue","u":"L","o":"individual","sf":4350,"v":1500}},{"type":"Feature","geometry":{"type":"Point","coordinates":[-80.04981,40.48706]},"properties":{"p":"0113H00274000000","a":"STAUNTON AVE","m":"Bellevue","u":"L","o":"individual","sf":3625,"v":1300}},{"type":"Feature","geometry":{"type":"Point","coordinates":[-80.04992,40.48703]},"properties":{"p":"0113H00276000000","a":"STAUNTON AVE","m":"Bellevue","u":"L","o":"individual","sf":5250,"v":1800}},{"type":"Feature","geometry":{"type":"Point","coordinates":[-80.05003,40.487]},"properties":{"p":"0113H00277000000","a":"STAUNTON AVE","m":"Bellevue","u":"L","o":"individual","sf":4410,"v":21600}},{"type":"Feature","geometry":{"type":"Point","coordinates":[-80.05022,40.48693]},"properties":{"p":"0113H00279000000","a":"STAUNTON AVE","m":"Bellevue","u":"L","o":"individual","sf":3500,"v":1200}},{"type":"Feature","geometry":{"type":"Point","coordinates":[-80.05429,40.48721]},"properties":{"p":"0113G00217000000","a":"GRANT AVE","m":"Bellevue","u":"L","o":"individual","sf":4120,"v":21000}},{"type":"Feature","geometry":{"type":"Point","coordinates":[-80.05161,40.4871]},"properties":{"p":"0113M00200000000","a":"RIVERSIDE CT","m":"Bellevue","u":"L","o":"individual","sf":17892,"v":5800}},{"type":"Feature","geometry":{"type":"Point","coordinates":[-80.05116,40.48635]},"properties":{"p":"0113M00201000000","a":"WATSON AVE","m":"Bellevue","u":"L","o":"individual","sf":61420,"v":28200}},{"type":"Feature","geometry":{"type":"Point","coordinates":[-80.05122,40.48556]},"properties":{"p":"0113M00210000000","a":"OHIO RIVER BLVD","m":"Bellevue","u":"L","o":"individual","sf":57935,"v":27900}},{"type":"Feature","geometry":{"type":"Point","coordinates":[-80.05133,40.48508]},"properties":{"p":"0113M00250000000","a":"SHADE AVE","m":"Bellevue","u":"L","o":"individual","sf":18075,"v":24200}},{"type":"Feature","geometry":{"type":"Point","coordinates":[-80.05339,40.48781]},"properties":{"p":"0113H00033000000","a":"GRANT AVE","m":"Bellevue","u":"L","o":"individual","sf":7150,"v":23200}},{"type":"Feature","geometry":{"type":"Point","coordinates":[-80.04918,40.4892]},"properties":{"p":"0114E00197000000","a":"119 DAVIS AVE","m":"Bellevue","u":"L","o":"corp","sf":14973,"v":23900}},{"type":"Feature","geometry":{"type":"Point","coordinates":[-80.04897,40.48898]},"properties":{"p":"0114E00199000000","a":"119 DAVIS AVE","m":"Bellevue","u":"L","o":"corp","sf":13434,"v":23800}},{"type":"Feature","geometry":{"type":"Point","coordinates":[-80.04877,40.48883]},"properties":{"p":"0114E00203000000","a":"119 DAVIS AVE","m":"Bellevue","u":"L","o":"corp","sf":8150,"v":23300}},{"type":"Feature","geometry":{"type":"Point","coordinates":[-80.04587,40.48935]},"properties":{"p":"0114A00062000000","a":"JACKS RUN RD","m":"Bellevue","u":"L","o":"individual","sf":41764,"v":26300}},{"type":"Feature","geometry":{"type":"Point","coordinates":[-80.05013,40.48749]},"properties":{"p":"0113H00258000000","a":"JACKS RUN RD","m":"Bellevue","u":"L","o":"individual","sf":101059,"v":31700}},{"type":"Feature","geometry":{"type":"Point","coordinates":[-80.05056,40.48737]},"properties":{"p":"0113H00260000000","a":"STANTON AVE","m":"Bellevue","u":"L","o":"individual","sf":5939,"v":23100}},{"type":"Feature","geometry":{"type":"Point","coordinates":[-80.05184,40.48907]},"properties":{"p":"0113H00076000000","a":"143 GRANT AVE","m":"Bellevue","u":"L","o":"individual","sf":7088,"v":23200}},{"type":"Feature","geometry":{"type":"Point","coordinates":[-80.04975,40.48589]},"properties":{"p":"0113M00055000000","a":"MELROSE AVE","m":"Bellevue","u":"L","o":"corp","sf":2250,"v":1800}},{"type":"Feature","geometry":{"type":"Point","coordinates":[-80.04955,40.48602]},"properties":{"p":"0113M00058000000","a":"MELROSE AVE","m":"Bellevue","u":"L","o":"individual","sf":2042,"v":800}},{"type":"Feature","geometry":{"type":"Point","coordinates":[-80.04981,40.48614]},"properties":{"p":"0113M00063000000","a":"MELROSE AVE","m":"Bellevue","u":"L","o":"individual","sf":2433,"v":900}},{"type":"Feature","geometry":{"type":"Point","coordinates":[-80.04992,40.48608]},"properties":{"p":"0113M00064000000","a":"MELROSE AVE","m":"Bellevue","u":"L","o":"individual","sf":1625,"v":600}},{"type":"Feature","geometry":{"type":"Point","coordinates":[-80.0499,40.48633]},"properties":{"p":"0113M00070000000","a":"FRANK ST","m":"Bellevue","u":"L","o":"individual","sf":2100,"v":800}},{"type":"Feature","geometry":{"type":"Point","coordinates":[-80.0497,40.48635]},"properties":{"p":"0113M00071000000","a":"FRANK ST","m":"Bellevue","u":"L","o":"individual","sf":9000,"v":23400}},{"type":"Feature","geometry":{"type":"Point","coordinates":[-80.05626,40.4894]},"properties":{"p":"0113C00183000000","a":"220 IRWIN AVE","m":"Bellevue","u":"L","o":"individual","sf":8174,"v":23300}},{"type":"Feature","geometry":{"type":"Point","coordinates":[-80.05058,40.48641]},"properties":{"p":"0113M00100000000","a":"WATSON AVE","m":"Bellevue","u":"L","o":"corp","sf":59677,"v":28000}},{"type":"Feature","geometry":{"type":"Point","coordinates":[-80.04719,40.48751]},"properties":{"p":"0114E00126000000","a":"W ROSERIDGE AVE","m":"Bellevue","u":"L","o":"individual","sf":1600,"v":600}},{"type":"Feature","geometry":{"type":"Point","coordinates":[-80.04664,40.48847]},"properties":{"p":"0114E00140000000","a":"W ROSERIDGE AVE","m":"Bellevue","u":"L","o":"individual","sf":23051,"v":24600}},{"type":"Feature","geometry":{"type":"Point","coordinates":[-80.04712,40.48772]},"properties":{"p":"0114E00156000000","a":"W ROSERIDGE AVE","m":"Bellevue","u":"L","o":"individual","sf":21300,"v":24500}},{"type":"Feature","geometry":{"type":"Point","coordinates":[-80.05149,40.48767]},"properties":{"p":"0113H00156000000","a":"WOODLAWN AVE","m":"Bellevue","u":"L","o":"corp","sf":3153,"v":9900}},{"type":"Feature","geometry":{"type":"Point","coordinates":[-80.05615,40.47209]},"properties":{"p":"0043C00129000000","a":"HELEN ST","m":"McKees Rocks","u":"L","o":"individual","sf":2860,"v":900}},{"type":"Feature","geometry":{"type":"Point","coordinates":[-80.05287,40.47169]},"properties":{"p":"0043D00053000000","a":"SHINGISS ST","m":"McKees Rocks","u":"L","o":"corp","sf":4783,"v":1400}},{"type":"Feature","geometry":{"type":"Point","coordinates":[-80.05592,40.47148]},"properties":{"p":"0043C00153000000","a":"SPROUL ST","m":"McKees Rocks","u":"L","o":"individual","sf":800,"v":300}},{"type":"Feature","geometry":{"type":"Point","coordinates":[-80.05596,40.47152]},"properties":{"p":"0043C00154000000","a":"SPROUL ST","m":"McKees Rocks","u":"L","o":"individual","sf":800,"v":300}},{"type":"Feature","geometry":{"type":"Point","coordinates":[-80.05599,40.47156]},"properties":{"p":"0043C00155000000","a":"SPROUL ST","m":"McKees Rocks","u":"L","o":"corp","sf":800,"v":300}},{"type":"Feature","geometry":{"type":"Point","coordinates":[-80.05602,40.4716]},"properties":{"p":"0043C00156000000","a":"SPROUL ST","m":"McKees Rocks","u":"L","o":"individual","sf":800,"v":300}},{"type":"Feature","geometry":{"type":"Point","coordinates":[-80.05586,40.47141]},"properties":{"p":"0043C00151000000","a":"SPROUL ST","m":"McKees Rocks","u":"L","o":"individual","sf":800,"v":300}},{"type":"Feature","geometry":{"type":"Point","coordinates":[-80.05454,40.47493]},"properties":{"p":"0074L00018000000","a":"ELLA ST","m":"McKees Rocks","u":"L","o":"individual","sf":2500,"v":800}},{"type":"Feature","geometry":{"type":"Point","coordinates":[-80.05446,40.47496]},"properties":{"p":"0074L00019000000","a":"ELLA ST","m":"McKees Rocks","u":"L","o":"individual","sf":2500,"v":800}},{"type":"Feature","geometry":{"type":"Point","coordinates":[-80.05838,40.47317]},"properties":{"p":"0074P00059000A00","a":"ELLA ST","m":"McKees Rocks","u":"L","o":"individual","sf":662,"v":300}},{"type":"Feature","geometry":{"type":"Point","coordinates":[-80.05834,40.47319]},"properties":{"p":"0074P00060000000","a":"ELLA ST","m":"McKees Rocks","u":"L","o":"individual","sf":662,"v":300}},{"type":"Feature","geometry":{"type":"Point","coordinates":[-80.05589,40.4738]},"properties":{"p":"0074R00232000000","a":"OLIVIA ST","m":"McKees Rocks","u":"L","o":"individual","sf":2500,"v":800}},{"type":"Feature","geometry":{"type":"Point","coordinates":[-80.05562,40.4735]},"properties":{"p":"0074R00238000000","a":"OLIVIA ST","m":"McKees Rocks","u":"L","o":"individual","sf":2500,"v":800}},{"type":"Feature","geometry":{"type":"Point","coordinates":[-80.05521,40.47443]},"properties":{"p":"0074R00215000000","a":"ELLA ST","m":"McKees Rocks","u":"L","o":"individual","sf":1000,"v":400}},{"type":"Feature","geometry":{"type":"Point","coordinates":[-80.05826,40.47323]},"properties":{"p":"0074P00062000000","a":"ELLA ST","m":"McKees Rocks","u":"L","o":"individual","sf":662,"v":300}},{"type":"Feature","geometry":{"type":"Point","coordinates":[-80.05818,40.47327]},"properties":{"p":"0074P00064000000","a":"ELLA ST","m":"McKees Rocks","u":"L","o":"individual","sf":662,"v":300}},{"type":"Feature","geometry":{"type":"Point","coordinates":[-80.05545,40.47494]},"properties":{"p":"0074L00135000000","a":"ELLA ST","m":"McKees Rocks","u":"L","o":"corp","sf":3150,"v":1000}},{"type":"Feature","geometry":{"type":"Point","coordinates":[-80.05431,40.47343]},"properties":{"p":"0074R00018000000","a":"CATHERINE ST","m":"McKees Rocks","u":"L","o":"corp","sf":2500,"v":800}},{"type":"Feature","geometry":{"type":"Point","coordinates":[-80.05627,40.47559]},"properties":{"p":"0074L00178000000","a":"102 PHOENIX ST","m":"McKees Rocks","u":"L","o":"individual","sf":6488,"v":9100}},{"type":"Feature","geometry":{"type":"Point","coordinates":[-80.05656,40.47234]},"properties":{"p":"0074R00105000000","a":"CATHERINE ST","m":"McKees Rocks","u":"L","o":"individual","sf":2400,"v":6700}},{"type":"Feature","geometry":{"type":"Point","coordinates":[-80.05336,40.475]},"properties":{"p":"0074M00015000000","a":"HAMILTON ST","m":"McKees Rocks","u":"L","o":"individual","sf":4550,"v":1400}},{"type":"Feature","geometry":{"type":"Point","coordinates":[-80.05322,40.47309]},"properties":{"p":"0074S00067000000","a":"SHINGISS ST","m":"McKees Rocks","u":"L","o":"individual","sf":1000,"v":400}},{"type":"Feature","geometry":{"type":"Point","coordinates":[-80.05313,40.47547]},"properties":{"p":"0074M00031000000","a":"HAMILTON ST","m":"McKees Rocks","u":"L","o":"corp","sf":1700,"v":600}},{"type":"Feature","geometry":{"type":"Point","coordinates":[-80.05303,40.47536]},"properties":{"p":"0074M00032000000","a":"320 HAMILTON ST","m":"McKees Rocks","u":"L","o":"individual","sf":7050,"v":9200}},{"type":"Feature","geometry":{"type":"Point","coordinates":[-80.05698,40.47334]},"properties":{"p":"0074R00295000000","a":"HELEN ST","m":"McKees Rocks","u":"L","o":"individual","sf":866,"v":300}},{"type":"Feature","geometry":{"type":"Point","coordinates":[-80.054,40.47405]},"properties":{"p":"0074R00167000000","a":"SHINGISS ST","m":"McKees Rocks","u":"L","o":"individual","sf":9713,"v":9400}},{"type":"Feature","geometry":{"type":"Point","coordinates":[-80.05471,40.4741]},"properties":{"p":"0074R00178000000","a":"SHINGISS ST","m":"McKees Rocks","u":"L","o":"individual","sf":5638,"v":4600}},{"type":"Feature","geometry":{"type":"Point","coordinates":[-80.05485,40.47399]},"properties":{"p":"0074R00182000000","a":"CAMPBELL ST","m":"McKees Rocks","u":"L","o":"corp","sf":5250,"v":9000}},{"type":"Feature","geometry":{"type":"Point","coordinates":[-80.05702,40.47339]},"properties":{"p":"0074R00296000000","a":"HELEN ST","m":"McKees Rocks","u":"L","o":"individual","sf":1155,"v":400}},{"type":"Feature","geometry":{"type":"Point","coordinates":[-80.05585,40.47569]},"properties":{"p":"0074L00119000000","a":"SHINGISS ST","m":"McKees Rocks","u":"L","o":"individual","sf":1750,"v":600}},{"type":"Feature","geometry":{"type":"Point","coordinates":[-80.05406,40.47291]},"properties":{"p":"0074R00009000000","a":"MARTHA ST","m":"McKees Rocks","u":"L","o":"corp","sf":7058,"v":8600}},{"type":"Feature","geometry":{"type":"Point","coordinates":[-80.05419,40.47306]},"properties":{"p":"0074R00012000000","a":"MARTHA ST","m":"McKees Rocks","u":"L","o":"corp","sf":5000,"v":4500}},{"type":"Feature","geometry":{"type":"Point","coordinates":[-80.05421,40.47322]},"properties":{"p":"0074R00013000000","a":"MARTHA ST","m":"McKees Rocks","u":"L","o":"corp","sf":7283,"v":5800}},{"type":"Feature","geometry":{"type":"Point","coordinates":[-80.05638,40.47255]},"properties":{"p":"0074R00101000000","a":"CATHERINE ST","m":"McKees Rocks","u":"L","o":"individual","sf":1200,"v":400}},{"type":"Feature","geometry":{"type":"Point","coordinates":[-80.05343,40.47261]},"properties":{"p":"0074S00008000000","a":"SHINGISS ST","m":"McKees Rocks","u":"L","o":"individual","sf":4664,"v":8700}},{"type":"Feature","geometry":{"type":"Point","coordinates":[-80.05318,40.4748]},"properties":{"p":"0074M00011000000","a":"313 HAMILTON ST","m":"McKees Rocks","u":"L","o":"corp","sf":2275,"v":700}},{"type":"Feature","geometry":{"type":"Point","coordinates":[-80.05456,40.4754]},"properties":{"p":"0074L00092000000","a":"413 ELLA ST","m":"McKees Rocks","u":"L","o":"individual","sf":5000,"v":9000}},{"type":"Feature","geometry":{"type":"Point","coordinates":[-80.05436,40.47449]},"properties":{"p":"0074R00161000000","a":"SHINGISS ST","m":"McKees Rocks","u":"L","o":"individual","sf":2313,"v":700}},{"type":"Feature","geometry":{"type":"Point","coordinates":[-80.05826,40.47394]},"properties":{"p":"0074P00031000000","a":"5 CLAY WAY","m":"McKees Rocks","u":"L","o":"corp","sf":544,"v":300}},{"type":"Feature","geometry":{"type":"Point","coordinates":[-80.05644,40.47485]},"properties":{"p":"0074L00154000000","a":"WASHINGTON ST","m":"McKees Rocks","u":"L","o":"individual","sf":2625,"v":800}},{"type":"Feature","geometry":{"type":"Point","coordinates":[-80.056,40.47495]},"properties":{"p":"0074L00159000A00","a":"WASHINGTON ST","m":"McKees Rocks","u":"L","o":"individual","sf":846,"v":300}},{"type":"Feature","geometry":{"type":"Point","coordinates":[-80.05699,40.47453]},"properties":{"p":"0074R00362000000","a":"OLIVIA ST","m":"McKees Rocks","u":"L","o":"individual","sf":727,"v":300}},{"type":"Feature","geometry":{"type":"Point","coordinates":[-80.05705,40.47456]},"properties":{"p":"0074R00363000000","a":"OLIVIA ST","m":"McKees Rocks","u":"L","o":"individual","sf":1192,"v":400}},{"type":"Feature","geometry":{"type":"Point","coordinates":[-80.0571,40.47459]},"properties":{"p":"0074R00364000000","a":"OLIVIA ST","m":"McKees Rocks","u":"L","o":"individual","sf":1153,"v":400}},{"type":"Feature","geometry":{"type":"Point","coordinates":[-80.05666,40.47266]},"properties":{"p":"0074R00119000000","a":"CATHERINE ST","m":"McKees Rocks","u":"L","o":"corp","sf":825,"v":300}},{"type":"Feature","geometry":{"type":"Point","coordinates":[-80.05291,40.47518]},"properties":{"p":"0074M00036000000","a":"HAMILTON ST","m":"McKees Rocks","u":"L","o":"individual","sf":2883,"v":900}},{"type":"Feature","geometry":{"type":"Point","coordinates":[-80.05286,40.47512]},"properties":{"p":"0074M00037000000","a":"HAMILTON ST","m":"McKees Rocks","u":"L","o":"individual","sf":2900,"v":900}},{"type":"Feature","geometry":{"type":"Point","coordinates":[-80.05545,40.4752]},"properties":{"p":"0074L00129000000","a":"SHINGISS ST","m":"McKees Rocks","u":"L","o":"individual","sf":1750,"v":600}},{"type":"Feature","geometry":{"type":"Point","coordinates":[-80.05538,40.47511]},"properties":{"p":"0074L00130000000","a":"SHINGISS ST","m":"McKees Rocks","u":"L","o":"corp","sf":3501,"v":2400}},{"type":"Feature","geometry":{"type":"Point","coordinates":[-80.05817,40.47597]},"properties":{"p":"0074K00145000000","a":"GILLEN WAY","m":"Stowe","u":"L","o":"individual","sf":795,"v":1300}},{"type":"Feature","geometry":{"type":"Point","coordinates":[-80.05814,40.47593]},"properties":{"p":"0074K00146000000","a":"GILLEN WAY","m":"Stowe","u":"L","o":"corp","sf":792,"v":1300}},{"type":"Feature","geometry":{"type":"Point","coordinates":[-80.05875,40.47623]},"properties":{"p":"0074K00164000000","a":"HELEN ST","m":"Stowe","u":"L","o":"individual","sf":2500,"v":3000}},{"type":"Feature","geometry":{"type":"Point","coordinates":[-80.05926,40.47594]},"properties":{"p":"0074K00182000000","a":"HELEN ST","m":"Stowe","u":"L","o":"corp","sf":5020,"v":4000}},{"type":"Feature","geometry":{"type":"Point","coordinates":[-80.05918,40.47612]},"properties":{"p":"0074K00183000000","a":"HELEN ST","m":"Stowe","u":"L","o":"corp","sf":765,"v":200}},{"type":"Feature","geometry":{"type":"Point","coordinates":[-80.05921,40.47615]},"properties":{"p":"0074K00184000000","a":"HELEN ST","m":"Stowe","u":"L","o":"corp","sf":747,"v":200}},{"type":"Feature","geometry":{"type":"Point","coordinates":[-80.05939,40.47612]},"properties":{"p":"0074K00185000000","a":"HELEN ST","m":"Stowe","u":"L","o":"corp","sf":3000,"v":3200}},{"type":"Feature","geometry":{"type":"Point","coordinates":[-80.05799,40.476]},"properties":{"p":"0074K00113000000","a":"OLIVIA ST","m":"Stowe","u":"L","o":"corp","sf":790,"v":300}},{"type":"Feature","geometry":{"type":"Point","coordinates":[-80.05801,40.47604]},"properties":{"p":"0074K00114000000","a":"OLIVIA ST","m":"Stowe","u":"L","o":"individual","sf":784,"v":300}},{"type":"Feature","geometry":{"type":"Point","coordinates":[-80.05804,40.47608]},"properties":{"p":"0074K00115000000","a":"OLIVIA ST","m":"Stowe","u":"L","o":"individual","sf":884,"v":300}},{"type":"Feature","geometry":{"type":"Point","coordinates":[-80.05929,40.47626]},"properties":{"p":"0074K00186000000","a":"HELEN ST","m":"Stowe","u":"L","o":"corp","sf":795,"v":300}},{"type":"Feature","geometry":{"type":"Point","coordinates":[-80.05577,40.47236]},"properties":{"p":"0074R00090000000","a":"118 HELEN ST","m":"McKees Rocks","u":"L","o":"corp","sf":10600,"v":9500}},{"type":"Feature","geometry":{"type":"Point","coordinates":[-80.05706,40.47345]},"properties":{"p":"0074R00297000A00","a":"HELEN ST","m":"McKees Rocks","u":"L","o":"individual","sf":1952,"v":600}},{"type":"Feature","geometry":{"type":"Point","coordinates":[-80.05577,40.47166]},"properties":{"p":"0043C00122000000","a":"HELEN ST","m":"McKees Rocks","u":"L","o":"individual","sf":4800,"v":8800}},{"type":"Feature","geometry":{"type":"Point","coordinates":[-80.0583,40.47321]},"properties":{"p":"0074P00061000000","a":"ELLA ST","m":"McKees Rocks","u":"L","o":"individual","sf":687,"v":300}},{"type":"Feature","geometry":{"type":"Point","coordinates":[-80.05711,40.47449]},"properties":{"p":"0074R00361000000","a":"OLIVIA ST","m":"McKees Rocks","u":"L","o":"individual","sf":713,"v":300}},{"type":"Feature","geometry":{"type":"Point","coordinates":[-80.04361,40.47994]},"properties":{"p":"0075B00169000000","a":"VERNER AVE","m":"27th Ward - PITTSBURGH","u":"L","o":"corp","sf":2660,"v":6900}},{"type":"Feature","geometry":{"type":"Point","coordinates":[-80.05723,40.47334]},"properties":{"p":"0074R00297000000","a":"HELEN ST","m":"McKees Rocks","u":"L","o":"individual","sf":951,"v":400}},{"type":"Feature","geometry":{"type":"Point","coordinates":[-80.05834,40.47397]},"properties":{"p":"0074P00027000000","a":"318 -320 MUNSON AVE","m":"McKees Rocks","u":"L","o":"corp","sf":927,"v":400}},{"type":"Feature","geometry":{"type":"Point","coordinates":[-80.05589,40.47144]},"properties":{"p":"0043C00152000000","a":"SPROUL ST","m":"McKees Rocks","u":"L","o":"individual","sf":800,"v":300}},{"type":"Feature","geometry":{"type":"Point","coordinates":[-80.05591,40.47477]},"properties":{"p":"0074L00140000000","a":"ELLA ST","m":"McKees Rocks","u":"L","o":"individual","sf":5250,"v":800}},{"type":"Feature","geometry":{"type":"Point","coordinates":[-80.05677,40.47398]},"properties":{"p":"0074R00263000000","a":"241 ELLA ST","m":"McKees Rocks","u":"L","o":"individual","sf":575,"v":300}},{"type":"Feature","geometry":{"type":"Point","coordinates":[-80.04678,40.48419]},"properties":{"p":"0114N00076000000","a":"WILKSBORO AVE","m":"27th Ward - PITTSBURGH","u":"L","o":"individual","sf":14455,"v":26900}},{"type":"Feature","geometry":{"type":"Point","coordinates":[-80.04092,40.48414]},"properties":{"p":"0114R00005000000","a":"3805 CALIFORNIA AVE","m":"27th Ward - PITTSBURGH","u":"L","o":"corp","sf":4968,"v":12900}},{"type":"Feature","geometry":{"type":"Point","coordinates":[-80.04622,40.48866]},"properties":{"p":"0114E00078000000","a":"LINCOLN AVE","m":"Bellevue","u":"L","o":"individual","sf":1173,"v":500}},{"type":"Feature","geometry":{"type":"Point","coordinates":[-80.04861,40.48665]},"properties":{"p":"0114E00295000000","a":"70 FARRAGUT AVE","m":"Bellevue","u":"L","o":"individual","sf":43560,"v":45100}},{"type":"Feature","geometry":{"type":"Point","coordinates":[-80.04988,40.48667]},"properties":{"p":"0113M00083000000","a":"FARRAGUT AVE","m":"Bellevue","u":"L","o":"individual","sf":65340,"v":28500}},{"type":"Feature","geometry":{"type":"Point","coordinates":[-80.0582,40.47601]},"properties":{"p":"0074K00144000000","a":"GILLEN WAY","m":"Stowe","u":"L","o":"individual","sf":909,"v":1400}},{"type":"Feature","geometry":{"type":"Point","coordinates":[-80.04702,40.48811]},"properties":{"p":"0114E00148000000","a":"W ROSERIDGE AVE","m":"Bellevue","u":"L","o":"individual","sf":5605,"v":1900}},{"type":"Feature","geometry":{"type":"Point","coordinates":[-80.04351,40.4818]},"properties":{"p":"0075B00094000000","a":"3620 ELMHURST AVE","m":"27th Ward - PITTSBURGH","u":"L","o":"individual","sf":2938,"v":7600}},{"type":"Feature","geometry":{"type":"Point","coordinates":[-80.05814,40.47329]},"properties":{"p":"0074P00065000000","a":"ELLA ST","m":"McKees Rocks","u":"L","o":"individual","sf":678,"v":300}},{"type":"Feature","geometry":{"type":"Point","coordinates":[-80.04692,40.48298]},"properties":{"p":"0114N00344000000","a":"226 TERMON GARDENS CIR","m":"27th Ward - PITTSBURGH","u":"B","o":"corp","sf":3234,"v":1500}},{"type":"Feature","geometry":{"type":"Point","coordinates":[-80.04697,40.4829]},"properties":{"p":"0114N00346000000","a":"220 TERMON GARDENS CIR","m":"27th Ward - PITTSBURGH","u":"B","o":"corp","sf":3234,"v":1500}},{"type":"Feature","geometry":{"type":"Point","coordinates":[-80.04701,40.48281]},"properties":{"p":"0114N00348000000","a":"214 TERMON GARDENS CIR","m":"27th Ward - PITTSBURGH","u":"B","o":"corp","sf":3234,"v":1500}},{"type":"Feature","geometry":{"type":"Point","coordinates":[-80.04705,40.48273]},"properties":{"p":"0114N00350000000","a":"208 TERMON GARDENS CIR","m":"27th Ward - PITTSBURGH","u":"B","o":"corp","sf":3234,"v":1500}},{"type":"Feature","geometry":{"type":"Point","coordinates":[-80.04708,40.48264]},"properties":{"p":"0114N00352000000","a":"200 TERMON GARDENS CIR","m":"27th Ward - PITTSBURGH","u":"B","o":"corp","sf":3203,"v":1500}},{"type":"Feature","geometry":{"type":"Point","coordinates":[-80.04724,40.48331]},"properties":{"p":"0114N00354000000","a":"237 TERMON GARDENS CIR","m":"27th Ward - PITTSBURGH","u":"B","o":"corp","sf":5771,"v":2600}},{"type":"Feature","geometry":{"type":"Point","coordinates":[-80.0473,40.48319]},"properties":{"p":"0114N00356000000","a":"231 TERMON GARDENS CIR","m":"27th Ward - PITTSBURGH","u":"B","o":"corp","sf":3234,"v":1500}},{"type":"Feature","geometry":{"type":"Point","coordinates":[-80.04734,40.48311]},"properties":{"p":"0114N00358000000","a":"225 TERMON GARDENS CIR","m":"27th Ward - PITTSBURGH","u":"B","o":"corp","sf":3234,"v":1500}},{"type":"Feature","geometry":{"type":"Point","coordinates":[-80.04738,40.48302]},"properties":{"p":"0114N00360000000","a":"219 TERMON GARDENS CIR","m":"27th Ward - PITTSBURGH","u":"B","o":"corp","sf":3234,"v":1500}},{"type":"Feature","geometry":{"type":"Point","coordinates":[-80.04742,40.48294]},"properties":{"p":"0114N00362000000","a":"213 TERMON GARDENS CIR","m":"27th Ward - PITTSBURGH","u":"B","o":"corp","sf":3234,"v":1500}},{"type":"Feature","geometry":{"type":"Point","coordinates":[-80.04746,40.48285]},"properties":{"p":"0114N00364000000","a":"207 TERMON GARDENS CIR","m":"27th Ward - PITTSBURGH","u":"B","o":"corp","sf":3234,"v":1500}},{"type":"Feature","geometry":{"type":"Point","coordinates":[-80.04636,40.48238]},"properties":{"p":"0114N00316000000","a":"147 TERMON GARDENS CIR","m":"27th Ward - PITTSBURGH","u":"B","o":"corp","sf":3240,"v":1500}},{"type":"Feature","geometry":{"type":"Point","coordinates":[-80.04642,40.4823]},"properties":{"p":"0114N00318000000","a":"153 TERMON GARDENS CIR","m":"27th Ward - PITTSBURGH","u":"B","o":"corp","sf":3337,"v":1500}},{"type":"Feature","geometry":{"type":"Point","coordinates":[-80.04646,40.48222]},"properties":{"p":"0114N00320000000","a":"157 TERMON GARDENS CIR","m":"27th Ward - PITTSBURGH","u":"B","o":"corp","sf":3725,"v":1700}},{"type":"Feature","geometry":{"type":"Point","coordinates":[-80.04662,40.4821]},"properties":{"p":"0114N00322000000","a":"161 TERMON GARDENS CIR","m":"27th Ward - PITTSBURGH","u":"B","o":"corp","sf":20545,"v":8400}},{"type":"Feature","geometry":{"type":"Point","coordinates":[-80.04649,40.48309]},"properties":{"p":"0114N00324000000","a":"108 TERMON GARDENS CIR","m":"27th Ward - PITTSBURGH","u":"B","o":"corp","sf":5684,"v":2600}},{"type":"Feature","geometry":{"type":"Point","coordinates":[-80.04655,40.48298]},"properties":{"p":"0114N00326000000","a":"114 TERMON GARDENS CIR","m":"27th Ward - PITTSBURGH","u":"B","o":"corp","sf":3234,"v":1500}},{"type":"Feature","geometry":{"type":"Point","coordinates":[-80.0466,40.48289]},"properties":{"p":"0114N00328000000","a":"120 TERMON GARDENS CIR","m":"27th Ward - PITTSBURGH","u":"B","o":"corp","sf":3234,"v":1500}},{"type":"Feature","geometry":{"type":"Point","coordinates":[-80.04663,40.48281]},"properties":{"p":"0114N00330000000","a":"126 TERMON GARDENS CIR","m":"27th Ward - PITTSBURGH","u":"B","o":"corp","sf":3234,"v":1500}},{"type":"Feature","geometry":{"type":"Point","coordinates":[-80.04676,40.48255]},"properties":{"p":"0114N00336000000","a":"144 TERMON GARDENS CIR","m":"27th Ward - PITTSBURGH","u":"B","o":"corp","sf":3234,"v":1500}},{"type":"Feature","geometry":{"type":"Point","coordinates":[-80.0468,40.48246]},"properties":{"p":"0114N00338000000","a":"150 TERMON GARDENS CIR","m":"27th Ward - PITTSBURGH","u":"B","o":"corp","sf":3216,"v":1500}},{"type":"Feature","geometry":{"type":"Point","coordinates":[-80.04704,40.48251]},"properties":{"p":"0114N00300000000","a":"TERMON GARDENS DR","m":"27th Ward - PITTSBURGH","u":"B","o":"corp","sf":4409,"v":2000}},{"type":"Feature","geometry":{"type":"Point","coordinates":[-80.04607,40.48297]},"properties":{"p":"0114N00302000000","a":"107 TERMON GARDENS CIR","m":"27th Ward - PITTSBURGH","u":"B","o":"corp","sf":6061,"v":2800}},{"type":"Feature","geometry":{"type":"Point","coordinates":[-80.04617,40.48278]},"properties":{"p":"0114N00306000000","a":"119 TERMON GARDENS CIR","m":"27th Ward - PITTSBURGH","u":"B","o":"corp","sf":3240,"v":1500}},{"type":"Feature","geometry":{"type":"Point","coordinates":[-80.04621,40.4827]},"properties":{"p":"0114N00308000000","a":"125 TERMON GARDENS CIR","m":"27th Ward - PITTSBURGH","u":"B","o":"corp","sf":3240,"v":1500}},{"type":"Feature","geometry":{"type":"Point","coordinates":[-80.04628,40.48254]},"properties":{"p":"0114N00312000000","a":"135 TERMON GARDENS CIR","m":"27th Ward - PITTSBURGH","u":"B","o":"corp","sf":3240,"v":1500}},{"type":"Feature","geometry":{"type":"Point","coordinates":[-80.04632,40.48246]},"properties":{"p":"0114N00314000000","a":"141 TERMON GARDENS CIR","m":"27th Ward - PITTSBURGH","u":"B","o":"corp","sf":3240,"v":1500}},{"type":"Feature","geometry":{"type":"Point","coordinates":[-80.04751,40.48277]},"properties":{"p":"0114N00366000000","a":"201 TERMON GARDENS CIR","m":"27th Ward - PITTSBURGH","u":"B","o":"corp","sf":3246,"v":1500}},{"type":"Feature","geometry":{"type":"Point","coordinates":[-80.04742,40.48246]},"properties":{"p":"0114N00368000000","a":"197 TERMON GARDENS CIR","m":"27th Ward - PITTSBURGH","u":"B","o":"corp","sf":20297,"v":8300}},{"type":"Feature","geometry":{"type":"Point","coordinates":[-80.04672,40.48263]},"properties":{"p":"0114N00334000000","a":"138 TERMON GARDENS CIR","m":"27th Ward - PITTSBURGH","u":"B","o":"corp","sf":3234,"v":1500}},{"type":"Feature","geometry":{"type":"Point","coordinates":[-80.04668,40.48272]},"properties":{"p":"0114N00332000000","a":"132 TERMON GARDENS CIR","m":"27th Ward - PITTSBURGH","u":"B","o":"corp","sf":3234,"v":1500}},{"type":"Feature","geometry":{"type":"Point","coordinates":[-80.04688,40.48307]},"properties":{"p":"0114N00342000000","a":"232 TERMON GARDENS DR","m":"27th Ward - PITTSBURGH","u":"B","o":"corp","sf":3234,"v":1500}},{"type":"Feature","geometry":{"type":"Point","coordinates":[-80.04625,40.48262]},"properties":{"p":"0114N00310000000","a":"131 TERMON GARDENS CIR","m":"27th Ward - PITTSBURGH","u":"B","o":"corp","sf":3240,"v":1500}}]}