{"type":"FeatureCollection","features":[{"type":"Feature","geometry":{"type":"Point","coordinates":[-80.05325,40.53571]},"properties":{"p":"0428M00174000000","a":"LOWRIES RUN RD","m":"Ross","u":"C","o":"corp","sf":65445,"v":4500}},{"type":"Feature","geometry":{"type":"Point","coordinates":[-80.05391,40.53584]},"properties":{"p":"0428M00176000000","a":"LOWRIES RUN RD","m":"Ross","u":"C","o":"corp","sf":65353,"v":13000}},{"type":"Feature","geometry":{"type":"Point","coordinates":[-80.05509,40.53614]},"properties":{"p":"0428G00002000000","a":"LOWRIES RUN RD","m":"Ross","u":"C","o":"corp","sf":66294,"v":13000}},{"type":"Feature","geometry":{"type":"Point","coordinates":[-80.05334,40.53643]},"properties":{"p":"0428H00002000000","a":"LOWRIES RUN RD","m":"Ross","u":"C","o":"corp","sf":635497,"v":37000}},{"type":"Feature","geometry":{"type":"Point","coordinates":[-80.05073,40.53923]},"properties":{"p":"0428D00090000000","a":"ROCHESTER RD","m":"Ross","u":"C","o":"individual","sf":9873,"v":4000}},{"type":"Feature","geometry":{"type":"Point","coordinates":[-80.05093,40.53377]},"properties":{"p":"0428M00040000000","a":"MOUNT NEBO RD","m":"Ross","u":"C","o":"corp","sf":74000,"v":136000}},{"type":"Feature","geometry":{"type":"Point","coordinates":[-80.05177,40.53551]},"properties":{"p":"0428M00170000000","a":"LOWRIES RUN RD","m":"Ross","u":"C","o":"corp","sf":114563,"v":24900}},{"type":"Feature","geometry":{"type":"Point","coordinates":[-80.05192,40.532]},"properties":{"p":"0428M00085000000","a":"MOUNT NEBO RD","m":"Ross","u":"C","o":"corp","sf":709200,"v":82900}},{"type":"Feature","geometry":{"type":"Point","coordinates":[-80.05118,40.53518]},"properties":{"p":"0428M00168000000","a":"LOWRIES RUN RD","m":"Ross","u":"C","o":"corp","sf":26401,"v":1}},{"type":"Feature","geometry":{"type":"Point","coordinates":[-80.04893,40.53929]},"properties":{"p":"0429A00122000000","a":"SEWICKLEY OAKMONT RD","m":"Ross","u":"C","o":"corp","sf":278784,"v":58400}},{"type":"Feature","geometry":{"type":"Point","coordinates":[-80.05755,40.54192]},"properties":{"p":"0515R00012000000","a":"REIS RUN RD","m":"Ross","u":"L","o":"individual","sf":69696,"v":800}},{"type":"Feature","geometry":{"type":"Point","coordinates":[-80.05684,40.54193]},"properties":{"p":"0515R00035000000","a":"REIS RUN RD","m":"Ross","u":"L","o":"individual","sf":69696,"v":800}},{"type":"Feature","geometry":{"type":"Point","coordinates":[-80.05594,40.54213]},"properties":{"p":"0515R00054000000","a":"R OF W","m":"Ross","u":"L","o":"individual","sf":110642,"v":1300}},{"type":"Feature","geometry":{"type":"Point","coordinates":[-80.04374,40.54936]},"properties":{"p":"0516B00085000000","a":"PINE ST","m":"Ross","u":"L","o":"individual","sf":6578,"v":2400}},{"type":"Feature","geometry":{"type":"Point","coordinates":[-80.04368,40.54952]},"properties":{"p":"0516B00088000000","a":"PINE ST","m":"Ross","u":"L","o":"individual","sf":5000,"v":1900}},{"type":"Feature","geometry":{"type":"Point","coordinates":[-80.04555,40.54632]},"properties":{"p":"0516F00327000000","a":"BUCKHILL RD","m":"Ross","u":"L","o":"individual","sf":10236,"v":3000}},{"type":"Feature","geometry":{"type":"Point","coordinates":[-80.05818,40.54942]},"properties":{"p":"0515C00088000000","a":"ROCHESTER RD","m":"Ross","u":"L","o":"corp","sf":1301329,"v":82300}},{"type":"Feature","geometry":{"type":"Point","coordinates":[-80.05449,40.54877]},"properties":{"p":"0515C00305000000","a":"ROCHESTER RD","m":"Ross","u":"L","o":"corp","sf":85378,"v":58400}},{"type":"Feature","geometry":{"type":"Point","coordinates":[-80.04468,40.54251]},"properties":{"p":"0516P00028000000","a":"SEWICKLEY OAKMONT RD","m":"Ross","u":"L","o":"individual","sf":31055,"v":52100}},{"type":"Feature","geometry":{"type":"Point","coordinates":[-80.04756,40.54995]},"properties":{"p":"0516A00094000000","a":"MAIN BLVD","m":"Ross","u":"L","o":"individual","sf":2500,"v":1000}},{"type":"Feature","geometry":{"type":"Point","coordinates":[-80.04765,40.54995]},"properties":{"p":"0516A00096000000","a":"MAIN BLVD","m":"Ross","u":"L","o":"individual","sf":2500,"v":1000}},{"type":"Feature","geometry":{"type":"Point","coordinates":[-80.04774,40.54994]},"properties":{"p":"0516A00098000000","a":"MAIN BLVD","m":"Ross","u":"L","o":"individual","sf":2500,"v":1000}},{"type":"Feature","geometry":{"type":"Point","coordinates":[-80.0482,40.54926]},"properties":{"p":"0516A00124000000","a":"MAYER DR","m":"Ross","u":"L","o":"corp","sf":7200,"v":800}},{"type":"Feature","geometry":{"type":"Point","coordinates":[-80.04312,40.54263]},"properties":{"p":"0516P00153000000","a":"LINK AVE","m":"Ross","u":"L","o":"corp","sf":14871,"v":1640}},{"type":"Feature","geometry":{"type":"Point","coordinates":[-80.04179,40.54945]},"properties":{"p":"0516B00006000000","a":"CHESTNUT ST","m":"Ross","u":"L","o":"individual","sf":8367,"v":40300}},{"type":"Feature","geometry":{"type":"Point","coordinates":[-80.04174,40.54959]},"properties":{"p":"0516B00008000000","a":"CHESTNUT ST","m":"Ross","u":"L","o":"individual","sf":5000,"v":40000}},{"type":"Feature","geometry":{"type":"Point","coordinates":[-80.04697,40.54498]},"properties":{"p":"0516J00118000000","a":"MAYER DR","m":"Ross","u":"L","o":"individual","sf":14702,"v":1600}},{"type":"Feature","geometry":{"type":"Point","coordinates":[-80.04702,40.54527]},"properties":{"p":"0516J00128000000","a":"MAYER DR","m":"Ross","u":"L","o":"individual","sf":15080,"v":1700}},{"type":"Feature","geometry":{"type":"Point","coordinates":[-80.04648,40.54182]},"properties":{"p":"0516N00036000000","a":"SEWICKLEY OAKMONT RD","m":"Ross","u":"L","o":"individual","sf":160710,"v":67100}},{"type":"Feature","geometry":{"type":"Point","coordinates":[-80.04735,40.54286]},"properties":{"p":"0516N00048000000","a":"MAYER DR","m":"Ross","u":"L","o":"individual","sf":1651,"v":200}},{"type":"Feature","geometry":{"type":"Point","coordinates":[-80.04695,40.54286]},"properties":{"p":"0516N00052000000","a":"WALLY DR","m":"Ross","u":"L","o":"individual","sf":1651,"v":200}},{"type":"Feature","geometry":{"type":"Point","coordinates":[-80.04569,40.54186]},"properties":{"p":"0516N00080000000","a":"SEWICKLEY OAKMONT RD","m":"Ross","u":"L","o":"individual","sf":11411,"v":1300}},{"type":"Feature","geometry":{"type":"Point","coordinates":[-80.04664,40.54998]},"properties":{"p":"0516A00044000000","a":"MAIN BLVD","m":"Ross","u":"L","o":"individual","sf":5000,"v":1900}},{"type":"Feature","geometry":{"type":"Point","coordinates":[-80.04685,40.54997]},"properties":{"p":"0516A00047000000","a":"MAIN BLVD","m":"Ross","u":"L","o":"individual","sf":6884,"v":2500}},{"type":"Feature","geometry":{"type":"Point","coordinates":[-80.047,40.54944]},"properties":{"p":"0516A00058000000","a":"MAPLE AVE","m":"Ross","u":"L","o":"individual","sf":5000,"v":1900}},{"type":"Feature","geometry":{"type":"Point","coordinates":[-80.05804,40.54173]},"properties":{"p":"0515P00049000000","a":"REIS RUN RD","m":"Ross","u":"L","o":"individual","sf":74052,"v":8500}},{"type":"Feature","geometry":{"type":"Point","coordinates":[-80.05899,40.54277]},"properties":{"p":"0515P00099000000","a":"REIS RUN RD","m":"Ross","u":"L","o":"individual","sf":13326,"v":1500}},{"type":"Feature","geometry":{"type":"Point","coordinates":[-80.04452,40.5498]},"properties":{"p":"0516B00144000000","a":"ELM ST","m":"Ross","u":"L","o":"individual","sf":7106,"v":2600}},{"type":"Feature","geometry":{"type":"Point","coordinates":[-80.04496,40.54979]},"properties":{"p":"0516B00170000000","a":"SPRUCE ST","m":"Ross","u":"L","o":"individual","sf":7108,"v":2600}},{"type":"Feature","geometry":{"type":"Point","coordinates":[-80.0452,40.54485]},"properties":{"p":"0516K00214000000","a":"BUCKHILL RD","m":"Ross","u":"L","o":"individual","sf":29113,"v":18000}},{"type":"Feature","geometry":{"type":"Point","coordinates":[-80.04694,40.54928]},"properties":{"p":"0516A00060000000","a":"MAPLE AVE","m":"Ross","u":"L","o":"individual","sf":1105,"v":500}},{"type":"Feature","geometry":{"type":"Point","coordinates":[-80.04713,40.54929]},"properties":{"p":"0516A00063000000","a":"MAPLE AVE","m":"Ross","u":"L","o":"individual","sf":4802,"v":1800}},{"type":"Feature","geometry":{"type":"Point","coordinates":[-80.04754,40.54928]},"properties":{"p":"0516A00065000000","a":"332 HOLIDAY DR","m":"Ross","u":"L","o":"individual","sf":4231,"v":1600}},{"type":"Feature","geometry":{"type":"Point","coordinates":[-80.04779,40.54928]},"properties":{"p":"0516A00068000000","a":"MAPLE ST","m":"Ross","u":"L","o":"corp","sf":2958,"v":1100}},{"type":"Feature","geometry":{"type":"Point","coordinates":[-80.0478,40.54942]},"properties":{"p":"0516A00071000000","a":"MAPLE ST","m":"Ross","u":"L","o":"corp","sf":3216,"v":1200}},{"type":"Feature","geometry":{"type":"Point","coordinates":[-80.04752,40.54942]},"properties":{"p":"0516A00072000000","a":"MAPLE ST","m":"Ross","u":"L","o":"individual","sf":4873,"v":1800}},{"type":"Feature","geometry":{"type":"Point","coordinates":[-80.04747,40.54995]},"properties":{"p":"0516A00092000000","a":"545 MAIN BLVD","m":"Ross","u":"L","o":"individual","sf":2500,"v":1000}},{"type":"Feature","geometry":{"type":"Point","coordinates":[-80.04502,40.54963]},"properties":{"p":"0516B00174000000","a":"SPRUCE ST","m":"Ross","u":"L","o":"individual","sf":51880,"v":4800}},{"type":"Feature","geometry":{"type":"Point","coordinates":[-80.04506,40.54951]},"properties":{"p":"0516B00178000000","a":"SPRUCE ST","m":"Ross","u":"L","o":"individual","sf":5000,"v":1900}},{"type":"Feature","geometry":{"type":"Point","coordinates":[-80.04512,40.54934]},"properties":{"p":"0516B00183000000","a":"SPRUCE ST","m":"Ross","u":"L","o":"individual","sf":6204,"v":2300}},{"type":"Feature","geometry":{"type":"Point","coordinates":[-80.04565,40.54932]},"properties":{"p":"0516B00185000000","a":"SPRUCE ST","m":"Ross","u":"L","o":"individual","sf":6105,"v":2200}},{"type":"Feature","geometry":{"type":"Point","coordinates":[-80.0456,40.54948]},"properties":{"p":"0516B00187000000","a":"SPRUCE ST","m":"Ross","u":"L","o":"individual","sf":5000,"v":1900}},{"type":"Feature","geometry":{"type":"Point","coordinates":[-80.04555,40.54961]},"properties":{"p":"0516B00189000000","a":"SPRUCE ST","m":"Ross","u":"L","o":"individual","sf":5000,"v":1900}},{"type":"Feature","geometry":{"type":"Point","coordinates":[-80.04549,40.54978]},"properties":{"p":"0516B00191000000","a":"SPRUCE ST","m":"Ross","u":"L","o":"individual","sf":7108,"v":2600}},{"type":"Feature","geometry":{"type":"Point","coordinates":[-80.0488,40.54955]},"properties":{"p":"0516A00288000000","a":"MAYER DR","m":"Ross","u":"L","o":"individual","sf":2475,"v":300}},{"type":"Feature","geometry":{"type":"Point","coordinates":[-80.04028,40.54416]},"properties":{"p":"0516L00228000000","a":"SEWICKLEY OAKMONT RD","m":"Ross","u":"L","o":"individual","sf":85029,"v":13800}},{"type":"Feature","geometry":{"type":"Point","coordinates":[-80.04033,40.54346]},"properties":{"p":"0516L00235000000","a":"SEWICKLEY OAKMONT RD","m":"Ross","u":"L","o":"individual","sf":33975,"v":27400}},{"type":"Feature","geometry":{"type":"Point","coordinates":[-80.04124,40.54423]},"properties":{"p":"0516L00286000000","a":"SEWICKLEY OAKMONT RD","m":"Ross","u":"L","o":"individual","sf":1250,"v":100}},{"type":"Feature","geometry":{"type":"Point","coordinates":[-80.04249,40.54823]},"properties":{"p":"0516B00280000000","a":"HIGHLAND PINES DR","m":"Ross","u":"L","o":"individual","sf":20256,"v":2200}},{"type":"Feature","geometry":{"type":"Point","coordinates":[-80.04238,40.5486]},"properties":{"p":"0516B00282000000","a":"HIGHLAND PINES DR","m":"Ross","u":"L","o":"individual","sf":15542,"v":1700}},{"type":"Feature","geometry":{"type":"Point","coordinates":[-80.05344,40.54599]},"properties":{"p":"0515G00002000000","a":"ROCHESTER RD","m":"Ross","u":"L","o":"individual","sf":86837,"v":14000}},{"type":"Feature","geometry":{"type":"Point","coordinates":[-80.04363,40.54965]},"properties":{"p":"0516B00091000000","a":"PINE ST","m":"Ross","u":"L","o":"individual","sf":5000,"v":1900}},{"type":"Feature","geometry":{"type":"Point","coordinates":[-80.04357,40.54979]},"properties":{"p":"0516B00095000000","a":"PINE ST","m":"Ross","u":"L","o":"individual","sf":7297,"v":40200}},{"type":"Feature","geometry":{"type":"Point","coordinates":[-80.04399,40.54981]},"properties":{"p":"0516B00120000000","a":"ELM ST","m":"Ross","u":"L","o":"corp","sf":7107,"v":2600}},{"type":"Feature","geometry":{"type":"Point","coordinates":[-80.0531,40.54672]},"properties":{"p":"0515H00030000000","a":"MILBERT LN","m":"Ross","u":"L","o":"individual","sf":12489,"v":2000}},{"type":"Feature","geometry":{"type":"Point","coordinates":[-80.05231,40.54082]},"properties":{"p":"0515S00322000000","a":"25 SUNNY DR","m":"Ross","u":"L","o":"individual","sf":100502,"v":35200}},{"type":"Feature","geometry":{"type":"Point","coordinates":[-80.04591,40.54999]},"properties":{"p":"0516A00006000000","a":"MAIN BLVD","m":"Ross","u":"L","o":"individual","sf":6884,"v":2500}},{"type":"Feature","geometry":{"type":"Point","coordinates":[-80.04594,40.54931]},"properties":{"p":"0516A00007000000","a":"HEMLOCK ST","m":"Ross","u":"L","o":"individual","sf":1431,"v":600}},{"type":"Feature","geometry":{"type":"Point","coordinates":[-80.04594,40.5497]},"properties":{"p":"0516A00013000000","a":"HEMLOCK ST","m":"Ross","u":"L","o":"individual","sf":11650,"v":40600}},{"type":"Feature","geometry":{"type":"Point","coordinates":[-80.04603,40.54947]},"properties":{"p":"0516A00016000000","a":"HEMLOCK ST","m":"Ross","u":"L","o":"individual","sf":5000,"v":1900}},{"type":"Feature","geometry":{"type":"Point","coordinates":[-80.04405,40.54965]},"properties":{"p":"0516B00123000000","a":"ELM ST","m":"Ross","u":"L","o":"individual","sf":5000,"v":1900}},{"type":"Feature","geometry":{"type":"Point","coordinates":[-80.04463,40.54951]},"properties":{"p":"0516B00136000000","a":"ELM ST","m":"Ross","u":"L","o":"individual","sf":5000,"v":1900}},{"type":"Feature","geometry":{"type":"Point","coordinates":[-80.04458,40.54964]},"properties":{"p":"0516B00140000000","a":"ELM ST","m":"Ross","u":"L","o":"individual","sf":5000,"v":1900}},{"type":"Feature","geometry":{"type":"Point","coordinates":[-80.04459,40.54503]},"properties":{"p":"0516K00138000000","a":"BUCKHILL RD","m":"Ross","u":"L","o":"individual","sf":30671,"v":3400}},{"type":"Feature","geometry":{"type":"Point","coordinates":[-80.04449,40.54465]},"properties":{"p":"0516K00140000000","a":"BUCKHILL RD","m":"Ross","u":"L","o":"individual","sf":16929,"v":1900}},{"type":"Feature","geometry":{"type":"Point","coordinates":[-80.04449,40.54438]},"properties":{"p":"0516K00142000000","a":"BUCKHILL RD","m":"Ross","u":"L","o":"individual","sf":17445,"v":1900}},{"type":"Feature","geometry":{"type":"Point","coordinates":[-80.04613,40.54932]},"properties":{"p":"0516A00020000000","a":"HEMLOCK ST","m":"Ross","u":"L","o":"individual","sf":4728,"v":1800}},{"type":"Feature","geometry":{"type":"Point","coordinates":[-80.04674,40.54936]},"properties":{"p":"0516A00021000000","a":"HOLIDAY DR","m":"Ross","u":"L","o":"individual","sf":3179,"v":1200}},{"type":"Feature","geometry":{"type":"Point","coordinates":[-80.04656,40.54932]},"properties":{"p":"0516A00022000000","a":"HEMLOCK ST","m":"Ross","u":"L","o":"individual","sf":5267,"v":1900}},{"type":"Feature","geometry":{"type":"Point","coordinates":[-80.04069,40.54984]},"properties":{"p":"0516C00085000000","a":"GRANT AVE","m":"Ross","u":"L","o":"individual","sf":5000,"v":1900}},{"type":"Feature","geometry":{"type":"Point","coordinates":[-80.04122,40.54982]},"properties":{"p":"0516C00098000000","a":"GRANT AVE","m":"Ross","u":"L","o":"individual","sf":4356,"v":1600}},{"type":"Feature","geometry":{"type":"Point","coordinates":[-80.04133,40.54947]},"properties":{"p":"0516C00099000000","a":"GRANT AVE","m":"Ross","u":"L","o":"individual","sf":2469,"v":29900}},{"type":"Feature","geometry":{"type":"Point","coordinates":[-80.04113,40.54947]},"properties":{"p":"0516C00103000000","a":"GRANT AVE","m":"Ross","u":"L","o":"individual","sf":4937,"v":39800}},{"type":"Feature","geometry":{"type":"Point","coordinates":[-80.04059,40.54949]},"properties":{"p":"0516C00115000000","a":"GRANT AVE","m":"Ross","u":"L","o":"individual","sf":4999,"v":1900}},{"type":"Feature","geometry":{"type":"Point","coordinates":[-80.04041,40.54949]},"properties":{"p":"0516C00119000000","a":"GRANT AVE","m":"Ross","u":"L","o":"individual","sf":5034,"v":20000}},{"type":"Feature","geometry":{"type":"Point","coordinates":[-80.04167,40.54976]},"properties":{"p":"0516B00010000000","a":"CHESTNUT ST","m":"Ross","u":"L","o":"individual","sf":17244,"v":6100}},{"type":"Feature","geometry":{"type":"Point","coordinates":[-80.04296,40.54999]},"properties":{"p":"0516B00064000000","a":"PINE ST","m":"Ross","u":"L","o":"individual","sf":2500,"v":1000}},{"type":"Feature","geometry":{"type":"Point","coordinates":[-80.04299,40.54992]},"properties":{"p":"0516B00066000000","a":"PINE ST","m":"Ross","u":"L","o":"individual","sf":2500,"v":1000}},{"type":"Feature","geometry":{"type":"Point","coordinates":[-80.04301,40.54986]},"properties":{"p":"0516B00068000000","a":"PINE ST","m":"Ross","u":"L","o":"individual","sf":2500,"v":1000}},{"type":"Feature","geometry":{"type":"Point","coordinates":[-80.04307,40.54973]},"properties":{"p":"0516B00072000000","a":"PINE ST","m":"Ross","u":"L","o":"individual","sf":2500,"v":1000}},{"type":"Feature","geometry":{"type":"Point","coordinates":[-80.04835,40.5304]},"properties":{"p":"0350A00140000000","a":"GERANIUM AVE","m":"Ross","u":"L","o":"individual","sf":2500,"v":1000}},{"type":"Feature","geometry":{"type":"Point","coordinates":[-80.04571,40.53053]},"properties":{"p":"0350A00192000000","a":"WILLOW AVE","m":"Ross","u":"L","o":"individual","sf":11444,"v":40600}},{"type":"Feature","geometry":{"type":"Point","coordinates":[-80.04591,40.53037]},"properties":{"p":"0350A00196000000","a":"WILLOW AVE","m":"Ross","u":"L","o":"corp","sf":14994,"v":40900}},{"type":"Feature","geometry":{"type":"Point","coordinates":[-80.04611,40.53022]},"properties":{"p":"0350A00197000000","a":"WILLOW AVE","m":"Ross","u":"L","o":"corp","sf":2500,"v":1000}},{"type":"Feature","geometry":{"type":"Point","coordinates":[-80.04617,40.53017]},"properties":{"p":"0350A00198000000","a":"WILLOW AVE","m":"Ross","u":"L","o":"individual","sf":2500,"v":1000}},{"type":"Feature","geometry":{"type":"Point","coordinates":[-80.04624,40.53013]},"properties":{"p":"0350A00199000000","a":"WILLOW AVE","m":"Ross","u":"L","o":"individual","sf":2500,"v":1000}},{"type":"Feature","geometry":{"type":"Point","coordinates":[-80.04631,40.53008]},"properties":{"p":"0350A00200000000","a":"WILLOW AVE","m":"Ross","u":"L","o":"individual","sf":2500,"v":1000}},{"type":"Feature","geometry":{"type":"Point","coordinates":[-80.04638,40.53004]},"properties":{"p":"0350A00201000000","a":"WILLOW AVE","m":"Ross","u":"L","o":"individual","sf":2500,"v":1000}},{"type":"Feature","geometry":{"type":"Point","coordinates":[-80.04645,40.53]},"properties":{"p":"0350A00202000000","a":"WILLOW AVE","m":"Ross","u":"L","o":"individual","sf":2500,"v":1000}},{"type":"Feature","geometry":{"type":"Point","coordinates":[-80.05693,40.54]},"properties":{"p":"0428C00222000000","a":"REIS RUN RD","m":"Ross","u":"L","o":"individual","sf":21780,"v":51100}},{"type":"Feature","geometry":{"type":"Point","coordinates":[-80.05643,40.53987]},"properties":{"p":"0428C00224000000","a":"REIS RUN RD","m":"Ross","u":"L","o":"individual","sf":21780,"v":51100}},{"type":"Feature","geometry":{"type":"Point","coordinates":[-80.05553,40.53966]},"properties":{"p":"0428C00228000000","a":"REIS RUN RD","m":"Ross","u":"L","o":"individual","sf":27704,"v":10000}},{"type":"Feature","geometry":{"type":"Point","coordinates":[-80.05444,40.53973]},"properties":{"p":"0428C00335000000","a":"REIS RUN RD","m":"Ross","u":"L","o":"individual","sf":64904,"v":6000}},{"type":"Feature","geometry":{"type":"Point","coordinates":[-80.05938,40.53417]},"properties":{"p":"0428K00153000000","a":"MOUNT NEBO RD","m":"Ross","u":"L","o":"individual","sf":19170,"v":41300}},{"type":"Feature","geometry":{"type":"Point","coordinates":[-80.05859,40.53438]},"properties":{"p":"0428K00155000000","a":"LOWRIES RUN RD","m":"Ross","u":"L","o":"individual","sf":213008,"v":59100}},{"type":"Feature","geometry":{"type":"Point","coordinates":[-80.05676,40.53545]},"properties":{"p":"0428L00155000000","a":"LOWRIES RUN RD","m":"Ross","u":"L","o":"individual","sf":522720,"v":54600}},{"type":"Feature","geometry":{"type":"Point","coordinates":[-80.04877,40.53636]},"properties":{"p":"0429E00285000000","a":"NOCKLYN DR","m":"Ross","u":"L","o":"individual","sf":19177,"v":3600}},{"type":"Feature","geometry":{"type":"Point","coordinates":[-80.054,40.53984]},"properties":{"p":"0428C00365000000","a":"REIS RUN RD","m":"Ross","u":"L","o":"individual","sf":88383,"v":1600}},{"type":"Feature","geometry":{"type":"Point","coordinates":[-80.04986,40.53772]},"properties":{"p":"0429H00048000000","a":"NOCKLYN DR","m":"Ross","u":"L","o":"individual","sf":14240,"v":50300}},{"type":"Feature","geometry":{"type":"Point","coordinates":[-80.04424,40.53731]},"properties":{"p":"0429F00078000000","a":"WESTMONT RD","m":"Ross","u":"L","o":"individual","sf":10653,"v":11100}},{"type":"Feature","geometry":{"type":"Point","coordinates":[-80.05805,40.53194]},"properties":{"p":"0428P00285000000","a":"LOWRIES RUN RD","m":"Ross","u":"L","o":"corp","sf":782774,"v":33400}},{"type":"Feature","geometry":{"type":"Point","coordinates":[-80.05147,40.53594]},"properties":{"p":"0428H00064000000","a":"ROCHESTER RD","m":"Ross","u":"L","o":"corp","sf":41878,"v":53300}},{"type":"Feature","geometry":{"type":"Point","coordinates":[-80.04091,40.53711]},"properties":{"p":"0429G00200000000","a":"1ST AVE","m":"Ross","u":"L","o":"corp","sf":223855,"v":73800}},{"type":"Feature","geometry":{"type":"Point","coordinates":[-80.04634,40.53434]},"properties":{"p":"0429J00040000000","a":"HILLENDALE RD","m":"Ross","u":"L","o":"individual","sf":18396,"v":50700}},{"type":"Feature","geometry":{"type":"Point","coordinates":[-80.04647,40.53416]},"properties":{"p":"0429J00044000000","a":"HILLENDALE RD","m":"Ross","u":"L","o":"individual","sf":18434,"v":25700}},{"type":"Feature","geometry":{"type":"Point","coordinates":[-80.04703,40.53371]},"properties":{"p":"0429J00047000000","a":"HILLENDALE RD","m":"Ross","u":"L","o":"individual","sf":17925,"v":10000}},{"type":"Feature","geometry":{"type":"Point","coordinates":[-80.05201,40.53972]},"properties":{"p":"0428D00149000000","a":"SUNNY DR","m":"Ross","u":"L","o":"individual","sf":33935,"v":3700}},{"type":"Feature","geometry":{"type":"Point","coordinates":[-80.05201,40.54006]},"properties":{"p":"0428D00159000000","a":"SUNNY DR","m":"Ross","u":"L","o":"individual","sf":7667,"v":800}},{"type":"Feature","geometry":{"type":"Point","coordinates":[-80.05214,40.54022]},"properties":{"p":"0428D00162000000","a":"SUNNY DR","m":"Ross","u":"L","o":"individual","sf":6308,"v":700}},{"type":"Feature","geometry":{"type":"Point","coordinates":[-80.05312,40.53964]},"properties":{"p":"0428D00221000000","a":"SUNNY DR","m":"Ross","u":"L","o":"individual","sf":17409,"v":50600}},{"type":"Feature","geometry":{"type":"Point","coordinates":[-80.0525,40.53868]},"properties":{"p":"0428D00256000000","a":"SUNNY DR","m":"Ross","u":"L","o":"individual","sf":70567,"v":8100}},{"type":"Feature","geometry":{"type":"Point","coordinates":[-80.05326,40.53901]},"properties":{"p":"0428D00269000000","a":"REIS RUN RD","m":"Ross","u":"L","o":"individual","sf":50094,"v":20000}},{"type":"Feature","geometry":{"type":"Point","coordinates":[-80.04317,40.53123]},"properties":{"p":"0429P00290000000","a":"ROCHESTER RD","m":"Ross","u":"L","o":"individual","sf":124146,"v":51000}},{"type":"Feature","geometry":{"type":"Point","coordinates":[-80.05935,40.537]},"properties":{"p":"0428F00050000000","a":"REIS RUN RD","m":"Ross","u":"L","o":"individual","sf":8860,"v":1000}},{"type":"Feature","geometry":{"type":"Point","coordinates":[-80.0497,40.53309]},"properties":{"p":"0428S00340000000","a":"LAUREL CT","m":"Ross","u":"L","o":"individual","sf":124974,"v":1400}},{"type":"Feature","geometry":{"type":"Point","coordinates":[-80.04142,40.53721]},"properties":{"p":"0429F00249000000","a":"LINK AVE","m":"Ross","u":"L","o":"corp","sf":18164,"v":2000}},{"type":"Feature","geometry":{"type":"Point","coordinates":[-80.04792,40.53813]},"properties":{"p":"0429A00095000000","a":"SEWICKLEY OAKMONT RD","m":"Ross","u":"L","o":"individual","sf":30699,"v":27000}},{"type":"Feature","geometry":{"type":"Point","coordinates":[-80.05489,40.53499]},"properties":{"p":"0428L00240000000","a":"MOUNT NEBO RD","m":"Ross","u":"L","o":"individual","sf":98406,"v":5300}},{"type":"Feature","geometry":{"type":"Point","coordinates":[-80.04637,40.53275]},"properties":{"p":"0429N00025000000","a":"HILLENDALE RD","m":"Ross","u":"L","o":"corp","sf":104544,"v":49200}},{"type":"Feature","geometry":{"type":"Point","coordinates":[-80.04762,40.53299]},"properties":{"p":"0429N00100000000","a":"ROCHESTER RD","m":"Ross","u":"L","o":"individual","sf":8800,"v":3200}},{"type":"Feature","geometry":{"type":"Point","coordinates":[-80.0438,40.53839]},"properties":{"p":"0429B00103000000","a":"RIDGESIDE RD","m":"Ross","u":"L","o":"corp","sf":12750,"v":50100}},{"type":"Feature","geometry":{"type":"Point","coordinates":[-80.04846,40.53673]},"properties":{"p":"0429E00297000000","a":"NOCKLYN DR","m":"Ross","u":"L","o":"individual","sf":11352,"v":23600}},{"type":"Feature","geometry":{"type":"Point","coordinates":[-80.04797,40.53717]},"properties":{"p":"0429E00298000000","a":"NOCKLYN DR","m":"Ross","u":"L","o":"individual","sf":38741,"v":27900}},{"type":"Feature","geometry":{"type":"Point","coordinates":[-80.04922,40.53733]},"properties":{"p":"0429E00352000000","a":"NOCKLYN DR","m":"Ross","u":"L","o":"individual","sf":21393,"v":51100}},{"type":"Feature","geometry":{"type":"Point","coordinates":[-80.05225,40.5389]},"properties":{"p":"0428D00128000000","a":"SUNNY DR","m":"Ross","u":"L","o":"individual","sf":23851,"v":26300}},{"type":"Feature","geometry":{"type":"Point","coordinates":[-80.05368,40.53312]},"properties":{"p":"0428M00038000000","a":"LOWRIES RUN RD","m":"Ross","u":"L","o":"corp","sf":293594,"v":61300}},{"type":"Feature","geometry":{"type":"Point","coordinates":[-80.05991,40.53897]},"properties":{"p":"0428B00098000000","a":"BROOKMEADE DR","m":"Ross","u":"L","o":"individual","sf":10674,"v":1200}},{"type":"Feature","geometry":{"type":"Point","coordinates":[-80.04688,40.54974]},"properties":{"p":"0516A00052000000","a":"MAPLE AVE","m":"Ross","u":"L","o":"individual","sf":6488,"v":2400}},{"type":"Feature","geometry":{"type":"Point","coordinates":[-80.05002,40.53657]},"properties":{"p":"0428H00011000000","a":"NOCKLYN DR","m":"Ross","u":"L","o":"individual","sf":20815,"v":2300}},{"type":"Feature","geometry":{"type":"Point","coordinates":[-80.04635,40.54977]},"properties":{"p":"0516A00026000000","a":"HEMLOCK ST","m":"Ross","u":"L","o":"individual","sf":1997,"v":800}},{"type":"Feature","geometry":{"type":"Point","coordinates":[-80.05417,40.54215]},"properties":{"p":"0515S00140000000","a":"ROCHESTER RD","m":"Ross","u":"L","o":"individual","sf":169797,"v":43100}},{"type":"Feature","geometry":{"type":"Point","coordinates":[-80.04309,40.54967]},"properties":{"p":"0516B00074000000","a":"PINE ST","m":"Ross","u":"L","o":"individual","sf":2500,"v":1000}},{"type":"Feature","geometry":{"type":"Point","coordinates":[-80.05232,40.54714]},"properties":{"p":"0515H00022000000","a":"MILBERT LN","m":"Ross","u":"L","o":"individual","sf":129142,"v":3000}},{"type":"Feature","geometry":{"type":"Point","coordinates":[-80.04304,40.54979]},"properties":{"p":"0516B00070000000","a":"PINE ST","m":"Ross","u":"L","o":"individual","sf":2500,"v":1000}},{"type":"Feature","geometry":{"type":"Point","coordinates":[-80.04694,40.54957]},"properties":{"p":"0516A00055000000","a":"MAPLE AVE","m":"Ross","u":"L","o":"individual","sf":5000,"v":1900}},{"type":"Feature","geometry":{"type":"Point","coordinates":[-80.05562,40.54691]},"properties":{"p":"0515C00085000000","a":"ROCHESTER RD","m":"Ross","u":"L","o":"corp","sf":211266,"v":72900}},{"type":"Feature","geometry":{"type":"Point","coordinates":[-80.0447,40.54935]},"properties":{"p":"0516B00133000000","a":"ELM ST","m":"Ross","u":"L","o":"individual","sf":6339,"v":2300}},{"type":"Feature","geometry":{"type":"Point","coordinates":[-80.04387,40.54113]},"properties":{"p":"0516P00145000000","a":"LINK AVE","m":"Ross","u":"B","o":"corp","sf":499633,"v":25000}},{"type":"Feature","geometry":{"type":"Point","coordinates":[-80.0437,40.54519]},"properties":{"p":"0516F00226000000","a":"BUCKHILL RD","m":"Ross","u":"B","o":"individual","sf":27618,"v":9300}},{"type":"Feature","geometry":{"type":"Point","coordinates":[-80.04354,40.54559]},"properties":{"p":"0516F00229000000","a":"BUCKHILL RD","m":"Ross","u":"B","o":"individual","sf":31040,"v":9700}},{"type":"Feature","geometry":{"type":"Point","coordinates":[-80.04481,40.54668]},"properties":{"p":"0516F00230000000","a":"BUCKHILL RD","m":"Ross","u":"B","o":"individual","sf":22168,"v":8700}},{"type":"Feature","geometry":{"type":"Point","coordinates":[-80.04371,40.54586]},"properties":{"p":"0516F00232000000","a":"BUCKHILL RD","m":"Ross","u":"B","o":"individual","sf":44592,"v":11200}},{"type":"Feature","geometry":{"type":"Point","coordinates":[-80.04402,40.54603]},"properties":{"p":"0516F00235000000","a":"BUCKHILL RD","m":"Ross","u":"B","o":"individual","sf":39998,"v":10600}},{"type":"Feature","geometry":{"type":"Point","coordinates":[-80.05938,40.54054]},"properties":{"p":"0515P00138000000","a":"REIS RUN RD","m":"Ross","u":"B","o":"corp","sf":189486,"v":9100}},{"type":"Feature","geometry":{"type":"Point","coordinates":[-80.04745,40.53038]},"properties":{"p":"0350A00150000000","a":"GERANIUM AVE","m":"Ross","u":"B","o":"corp","sf":95279,"v":14300}}]}