{"type":"FeatureCollection","features":[{"type":"Feature","geometry":{"type":"Point","coordinates":[-80.05408,40.63032]},"properties":{"p":"1658M00200000000","a":"FAIRGATE DR","m":"Pine","u":"C","o":"corp","sf":99925,"v":10}},{"type":"Feature","geometry":{"type":"Point","coordinates":[-80.05897,40.6347]},"properties":{"p":"1658F00001000000","a":"PERRY HWY","m":"Pine","u":"C","o":"corp","sf":22680,"v":17000}},{"type":"Feature","geometry":{"type":"Point","coordinates":[-80.05494,40.64318]},"properties":{"p":"1825H00002000000","a":"WALLACE RD","m":"Pine","u":"L","o":"individual","sf":74488,"v":10300}},{"type":"Feature","geometry":{"type":"Point","coordinates":[-80.05237,40.64694]},"properties":{"p":"1825D00003000000","a":"350 TWIN OAK DR","m":"Pine","u":"L","o":"individual","sf":51248,"v":34300}},{"type":"Feature","geometry":{"type":"Point","coordinates":[-80.05182,40.64347]},"properties":{"p":"1825H00007000000","a":"WALLACE RD","m":"Pine","u":"L","o":"individual","sf":90169,"v":69700}},{"type":"Feature","geometry":{"type":"Point","coordinates":[-80.04703,40.64035]},"properties":{"p":"1826J00036000000","a":"FOX MEADOW DR","m":"Pine","u":"L","o":"corp","sf":22999,"v":90600}},{"type":"Feature","geometry":{"type":"Point","coordinates":[-80.04768,40.64036]},"properties":{"p":"1826J00037000000","a":"ENGLISH RD","m":"Pine","u":"L","o":"individual","sf":30927,"v":6500}},{"type":"Feature","geometry":{"type":"Point","coordinates":[-80.0483,40.64025]},"properties":{"p":"1826J00038000000","a":"FOX MEADOW DR","m":"Pine","u":"L","o":"individual","sf":25831,"v":5400}},{"type":"Feature","geometry":{"type":"Point","coordinates":[-80.04868,40.64018]},"properties":{"p":"1826J00039000000","a":"FOX MEADOW DR","m":"Pine","u":"L","o":"individual","sf":12196,"v":2600}},{"type":"Feature","geometry":{"type":"Point","coordinates":[-80.05238,40.64505]},"properties":{"p":"1825D00040000000","a":"WALLACE RD","m":"Pine","u":"L","o":"individual","sf":28357,"v":4000}},{"type":"Feature","geometry":{"type":"Point","coordinates":[-80.05091,40.63841]},"properties":{"p":"1825S00009000000","a":"ENGLISH RD","m":"Pine","u":"L","o":"individual","sf":8015,"v":1100}},{"type":"Feature","geometry":{"type":"Point","coordinates":[-80.05016,40.63892]},"properties":{"p":"1825S00040000000","a":"ENGLISH RD","m":"Pine","u":"L","o":"individual","sf":163786,"v":119700}},{"type":"Feature","geometry":{"type":"Point","coordinates":[-80.04055,40.63232]},"properties":{"p":"1659L00007000000","a":"HILL RD","m":"Pine","u":"L","o":"corp","sf":60113,"v":40000}},{"type":"Feature","geometry":{"type":"Point","coordinates":[-80.0433,40.63826]},"properties":{"p":"1826P00015000000","a":"ENGLISH RD","m":"Pine","u":"L","o":"corp","sf":186306,"v":17100}},{"type":"Feature","geometry":{"type":"Point","coordinates":[-80.05152,40.64175]},"properties":{"p":"1825M00038000000","a":"WALLACE RD","m":"Pine","u":"L","o":"corp","sf":0,"v":14000}},{"type":"Feature","geometry":{"type":"Point","coordinates":[-80.05056,40.63223]},"properties":{"p":"1658M00001000000","a":"763 VILLAGE CLUB DR","m":"Pine","u":"L","o":"corp","sf":697596,"v":0}},{"type":"Feature","geometry":{"type":"Point","coordinates":[-80.05261,40.6314]},"properties":{"p":"1658M00029000000","a":"FAIRGATE DR","m":"Pine","u":"L","o":"corp","sf":103425,"v":30900}},{"type":"Feature","geometry":{"type":"Point","coordinates":[-80.05864,40.64993]},"properties":{"p":"2000K00003000000","a":"WALLACE RD","m":"Pine","u":"L","o":"corp","sf":234440,"v":45500}},{"type":"Feature","geometry":{"type":"Point","coordinates":[-80.05616,40.63409]},"properties":{"p":"1658G00072000000","a":"PARK PLZ E","m":"Pine","u":"B","o":"corp","sf":4320,"v":0}},{"type":"Feature","geometry":{"type":"Point","coordinates":[-80.05582,40.63458]},"properties":{"p":"1658G00064000000","a":"VILLAGE PL","m":"Pine","u":"B","o":"corp","sf":1061,"v":0}},{"type":"Feature","geometry":{"type":"Point","coordinates":[-80.0552,40.63358]},"properties":{"p":"1658G00121000000","a":"3001 VILLAGE RUN RD","m":"Pine","u":"B","o":"corp","sf":4748,"v":8400}},{"type":"Feature","geometry":{"type":"Point","coordinates":[-80.05544,40.63407]},"properties":{"p":"1658G00135000000","a":"PARK PLZ","m":"Pine","u":"B","o":"corp","sf":31448,"v":0}},{"type":"Feature","geometry":{"type":"Point","coordinates":[-80.05736,40.64862]},"properties":{"p":"2000R00006000000","a":"510 WALLACE RD","m":"Pine","u":"B","o":"individual","sf":229091,"v":150900}},{"type":"Feature","geometry":{"type":"Point","coordinates":[-80.0561,40.63453]},"properties":{"p":"1658G00065000000","a":"VILLAGE PL","m":"Pine","u":"B","o":"corp","sf":1649,"v":0}}]}