{"type":"FeatureCollection","features":[{"type":"Feature","geometry":{"type":"Point","coordinates":[-80.05639,40.6508]},"properties":{"p":"2000L00001000000","a":"WALLACE RD","m":"Pine","u":"C","o":"individual","sf":98446,"v":73800}},{"type":"Feature","geometry":{"type":"Point","coordinates":[-80.04996,40.65786]},"properties":{"p":"2184N00012000000","a":"WARRENDALE RD","m":"Pine","u":"L","o":"corp","sf":50094,"v":64100}},{"type":"Feature","geometry":{"type":"Point","coordinates":[-80.04219,40.65794]},"properties":{"p":"2184P00012000000","a":"WINDWOOD DR","m":"Pine","u":"L","o":"corp","sf":15730,"v":3300}},{"type":"Feature","geometry":{"type":"Point","coordinates":[-80.04377,40.66297]},"properties":{"p":"2184F00006000000","a":"WARRENDALE RD","m":"Pine","u":"L","o":"individual","sf":274864,"v":95000}},{"type":"Feature","geometry":{"type":"Point","coordinates":[-80.05349,40.65131]},"properties":{"p":"2000M00003000000","a":"521 WALLACE RD","m":"Pine","u":"L","o":"corp","sf":183823,"v":0}},{"type":"Feature","geometry":{"type":"Point","coordinates":[-80.04668,40.66137]},"properties":{"p":"2184E00003000000","a":"DEAN RD","m":"Pine","u":"L","o":"individual","sf":435600,"v":102200}},{"type":"Feature","geometry":{"type":"Point","coordinates":[-80.05968,40.65757]},"properties":{"p":"2183P00001000000","a":"TRILLIUM CT","m":"Pine","u":"L","o":"corp","sf":348262,"v":25700}},{"type":"Feature","geometry":{"type":"Point","coordinates":[-80.05748,40.6514]},"properties":{"p":"2000L00002000000","a":"WARRENDALE RD","m":"Pine","u":"L","o":"corp","sf":65340,"v":75000}},{"type":"Feature","geometry":{"type":"Point","coordinates":[-80.05572,40.65179]},"properties":{"p":"2000L00005000000","a":"WARRENDALE RD","m":"Pine","u":"L","o":"corp","sf":50094,"v":31300}},{"type":"Feature","geometry":{"type":"Point","coordinates":[-80.05533,40.65165]},"properties":{"p":"2000L00006000000","a":"WALLACE RD","m":"Pine","u":"L","o":"corp","sf":23522,"v":3300}},{"type":"Feature","geometry":{"type":"Point","coordinates":[-80.04242,40.66509]},"properties":{"p":"2184B00008000000","a":"WARRENDALE RD","m":"Pine","u":"L","o":"corp","sf":42660,"v":63200}},{"type":"Feature","geometry":{"type":"Point","coordinates":[-80.04113,40.66449]},"properties":{"p":"2184B00015000000","a":"WARRENDALE RD","m":"Pine","u":"L","o":"individual","sf":89734,"v":12400}},{"type":"Feature","geometry":{"type":"Point","coordinates":[-80.0419,40.66547]},"properties":{"p":"2184B00020000000","a":"WARRENDALE RD","m":"Pine","u":"L","o":"individual","sf":47045,"v":6500}},{"type":"Feature","geometry":{"type":"Point","coordinates":[-80.04075,40.66522]},"properties":{"p":"2184C00002000000","a":"WARRENDALE RD","m":"Pine","u":"L","o":"individual","sf":47916,"v":6600}},{"type":"Feature","geometry":{"type":"Point","coordinates":[-80.04059,40.66554]},"properties":{"p":"2184C00003000000","a":"WARRENDALE RD","m":"Pine","u":"L","o":"individual","sf":50965,"v":7000}},{"type":"Feature","geometry":{"type":"Point","coordinates":[-80.0566,40.65305]},"properties":{"p":"2000G00006000000","a":"PINKERTON RD","m":"Pine","u":"L","o":"individual","sf":112206,"v":15500}},{"type":"Feature","geometry":{"type":"Point","coordinates":[-80.05454,40.65243]},"properties":{"p":"2000G00010000000","a":"TULLAMORE TRL","m":"Pine","u":"L","o":"corp","sf":6795,"v":1000}},{"type":"Feature","geometry":{"type":"Point","coordinates":[-80.05507,40.66181]},"properties":{"p":"2183L00015000000","a":"PINKERTON RD","m":"Pine","u":"L","o":"corp","sf":232262,"v":117300}},{"type":"Feature","geometry":{"type":"Point","coordinates":[-80.04252,40.66472]},"properties":{"p":"2184B00007000000","a":"WARRENDALE RD","m":"Pine","u":"L","o":"corp","sf":45738,"v":6300}},{"type":"Feature","geometry":{"type":"Point","coordinates":[-80.05465,40.65341]},"properties":{"p":"2000G00002000000","a":"WARRENDALE RD","m":"Pine","u":"L","o":"corp","sf":102802,"v":6400}},{"type":"Feature","geometry":{"type":"Point","coordinates":[-80.05101,40.65082]},"properties":{"p":"2000M00054000000","a":"TRINITY WAY","m":"Pine","u":"L","o":"corp","sf":230520,"v":0}},{"type":"Feature","geometry":{"type":"Point","coordinates":[-80.0564,40.65169]},"properties":{"p":"2000L00017000000","a":"WARRENDALE RD","m":"Pine","u":"L","o":"corp","sf":9757,"v":1400}},{"type":"Feature","geometry":{"type":"Point","coordinates":[-80.05902,40.6513]},"properties":{"p":"2000K00004000000","a":"328 WARRENDALE RD","m":"Pine","u":"L","o":"corp","sf":109771,"v":82500}},{"type":"Feature","geometry":{"type":"Point","coordinates":[-80.04478,40.65827]},"properties":{"p":"2184P00004000000","a":"WINDWOOD DR","m":"Pine","u":"L","o":"corp","sf":43560,"v":49900}},{"type":"Feature","geometry":{"type":"Point","coordinates":[-80.04022,40.66656]},"properties":{"p":"2184C00006000000","a":"WARRENDALE BAKERSTOWN RD","m":"Pine","u":"L","o":"corp","sf":44257,"v":6100}},{"type":"Feature","geometry":{"type":"Point","coordinates":[-80.05981,40.6661]},"properties":{"p":"2183B00005000000","a":"125 MINNOCK DR","m":"Pine","u":"B","o":"corp","sf":35610,"v":1400}},{"type":"Feature","geometry":{"type":"Point","coordinates":[-80.05642,40.66034]},"properties":{"p":"2183L00018000000","a":"290 PINKERTON RD","m":"Pine","u":"B","o":"individual","sf":44044,"v":8300}},{"type":"Feature","geometry":{"type":"Point","coordinates":[-80.05502,40.66606]},"properties":{"p":"2183C00012000000","a":"697 MOUNT PLEASANT RD","m":"Pine","u":"B","o":"corp","sf":16252,"v":18300}},{"type":"Feature","geometry":{"type":"Point","coordinates":[-80.05637,40.65917]},"properties":{"p":"2183R00036000000","a":"PINKERTON RD","m":"Pine","u":"B","o":"individual","sf":43817,"v":8200}}]}