{"type":"FeatureCollection","features":[{"type":"Feature","geometry":{"type":"Point","coordinates":[-80.05149,40.29367]},"properties":{"p":"0889H00215000000","a":"BRUSH RUN RD","m":"Bethel Park","u":"C","o":"corp","sf":34848,"v":99600}},{"type":"Feature","geometry":{"type":"Point","coordinates":[-80.04053,40.29476]},"properties":{"p":"0888B00050000000","a":"COUNTRY RD","m":"Bethel Park","u":"C","o":"corp","sf":1046312,"v":179600}},{"type":"Feature","geometry":{"type":"Point","coordinates":[-80.04584,40.30321]},"properties":{"p":"0773E00190000000","a":"COPSEWOOD DR","m":"Bethel Park","u":"L","o":"individual","sf":16900,"v":1500}},{"type":"Feature","geometry":{"type":"Point","coordinates":[-80.04624,40.29772]},"properties":{"p":"0773N00215000000","a":"1010 CLIFTON RD","m":"Bethel Park","u":"L","o":"individual","sf":22368,"v":40900}},{"type":"Feature","geometry":{"type":"Point","coordinates":[-80.05737,40.30559]},"properties":{"p":"0774B00017000000","a":"715 CLIFTON RD","m":"Bethel Park","u":"L","o":"individual","sf":42819,"v":37100}},{"type":"Feature","geometry":{"type":"Point","coordinates":[-80.05765,40.30434]},"properties":{"p":"0774G00192000000","a":"THUNDERWOOD DR","m":"Bethel Park","u":"L","o":"individual","sf":5960,"v":500}},{"type":"Feature","geometry":{"type":"Point","coordinates":[-80.04219,40.29878]},"properties":{"p":"0773P00115000000","a":"KINGS SCHOOL RD","m":"Bethel Park","u":"L","o":"individual","sf":1090,"v":100}},{"type":"Feature","geometry":{"type":"Point","coordinates":[-80.05291,40.30349]},"properties":{"p":"0774H00275000000","a":"CLIFTON RD","m":"Bethel Park","u":"L","o":"individual","sf":139828,"v":12800}},{"type":"Feature","geometry":{"type":"Point","coordinates":[-80.05849,40.30436]},"properties":{"p":"0774F00312000000","a":"THUNDERWOOD DR","m":"Bethel Park","u":"L","o":"individual","sf":2250,"v":200}},{"type":"Feature","geometry":{"type":"Point","coordinates":[-80.04869,40.29852]},"properties":{"p":"0773N00112000000","a":"FAIROAKS ST","m":"Bethel Park","u":"L","o":"individual","sf":3181,"v":400}},{"type":"Feature","geometry":{"type":"Point","coordinates":[-80.04881,40.29856]},"properties":{"p":"0773N00115000000","a":"FAIROAKS ST","m":"Bethel Park","u":"L","o":"individual","sf":7204,"v":16500}},{"type":"Feature","geometry":{"type":"Point","coordinates":[-80.04909,40.30492]},"properties":{"p":"0773A00055000000","a":"IRISHTOWN RD","m":"Bethel Park","u":"L","o":"corp","sf":15225,"v":13000}},{"type":"Feature","geometry":{"type":"Point","coordinates":[-80.04855,40.29764]},"properties":{"p":"0773N00156000000","a":"MAPLE SPRING RD","m":"Bethel Park","u":"L","o":"individual","sf":135994,"v":70700}},{"type":"Feature","geometry":{"type":"Point","coordinates":[-80.0478,40.29757]},"properties":{"p":"0773N00180000000","a":"FAIROAKS ST","m":"Bethel Park","u":"L","o":"individual","sf":41115,"v":5300}},{"type":"Feature","geometry":{"type":"Point","coordinates":[-80.05917,40.3004]},"properties":{"p":"0774P00075000000","a":"ROCKY RIDGE RD","m":"Bethel Park","u":"L","o":"individual","sf":60766,"v":4200}},{"type":"Feature","geometry":{"type":"Point","coordinates":[-80.05152,40.30269]},"properties":{"p":"0774H00088000000","a":"VAN VOORHIS DR","m":"Bethel Park","u":"L","o":"individual","sf":2838,"v":300}},{"type":"Feature","geometry":{"type":"Point","coordinates":[-80.04566,40.30395]},"properties":{"p":"0773E00194000000","a":"COPSEWOOD DR","m":"Bethel Park","u":"L","o":"individual","sf":19278,"v":2300}},{"type":"Feature","geometry":{"type":"Point","coordinates":[-80.05794,40.30389]},"properties":{"p":"0774G00265000000","a":"ROCKY RIDGE RD","m":"Bethel Park","u":"L","o":"corp","sf":74488,"v":900}},{"type":"Feature","geometry":{"type":"Point","coordinates":[-80.04775,40.29915]},"properties":{"p":"0773N00050000000","a":"CLIFTON RD","m":"Bethel Park","u":"L","o":"individual","sf":23958,"v":41000}},{"type":"Feature","geometry":{"type":"Point","coordinates":[-80.04005,40.30286]},"properties":{"p":"0773G00102000000","a":"KINGS SCHOOL RD","m":"Bethel Park","u":"L","o":"individual","sf":13850,"v":1300}},{"type":"Feature","geometry":{"type":"Point","coordinates":[-80.04875,40.30065]},"properties":{"p":"0773J00242000000","a":"IRISHTOWN RD","m":"Bethel Park","u":"L","o":"individual","sf":5750,"v":500}},{"type":"Feature","geometry":{"type":"Point","coordinates":[-80.04488,40.29121]},"properties":{"p":"0888F00030000001","a":"BETSY DR","m":"Bethel Park","u":"L","o":"individual","sf":12498,"v":27500}},{"type":"Feature","geometry":{"type":"Point","coordinates":[-80.04983,40.29647]},"properties":{"p":"0889D00020000000","a":"MOUNTAIN AVE","m":"Bethel Park","u":"L","o":"individual","sf":138956,"v":43500}},{"type":"Feature","geometry":{"type":"Point","coordinates":[-80.0547,40.29643]},"properties":{"p":"0889D00300000000","a":"BRUSH RUN RD","m":"Bethel Park","u":"L","o":"individual","sf":474804,"v":89500}},{"type":"Feature","geometry":{"type":"Point","coordinates":[-80.0469,40.29184]},"properties":{"p":"0888J00014000000","a":"6399 IRISHTOWN RD EXT","m":"Bethel Park","u":"L","o":"individual","sf":10753,"v":1000}},{"type":"Feature","geometry":{"type":"Point","coordinates":[-80.04605,40.2954]},"properties":{"p":"0888A00070000000","a":"6280 IRISHTOWN RD EXT","m":"Bethel Park","u":"L","o":"individual","sf":44518,"v":43000}},{"type":"Feature","geometry":{"type":"Point","coordinates":[-80.0434,40.30776]},"properties":{"p":"0666P00037000000","a":"5833 GLENBROOK DR","m":"Bethel Park","u":"L","o":"individual","sf":3824,"v":300}},{"type":"Feature","geometry":{"type":"Point","coordinates":[-80.04783,40.30866]},"properties":{"p":"0666N00086000000","a":"947 DELFIELD DR","m":"Bethel Park","u":"L","o":"individual","sf":16973,"v":2000}},{"type":"Feature","geometry":{"type":"Point","coordinates":[-80.04128,40.30863]},"properties":{"p":"0666P00105000000","a":"GLEN HILL DR","m":"Bethel Park","u":"L","o":"individual","sf":1706,"v":200}},{"type":"Feature","geometry":{"type":"Point","coordinates":[-80.056,40.30714]},"properties":{"p":"0667M00300000000","a":"GALWAY DR","m":"Bethel Park","u":"L","o":"corp","sf":19817,"v":2200}},{"type":"Feature","geometry":{"type":"Point","coordinates":[-80.04641,40.29451]},"properties":{"p":"0888B00325000000","a":"IRISHTOWN RD","m":"Bethel Park","u":"L","o":"corp","sf":3833,"v":300}},{"type":"Feature","geometry":{"type":"Point","coordinates":[-80.04016,40.29532]},"properties":{"p":"0888C00300000000","a":"CLIFTON RD","m":"Bethel Park","u":"L","o":"corp","sf":68825,"v":45200}},{"type":"Feature","geometry":{"type":"Point","coordinates":[-80.04122,40.29543]},"properties":{"p":"0888C00325000000","a":"CLIFTON RD","m":"Bethel Park","u":"L","o":"corp","sf":34539,"v":3100}},{"type":"Feature","geometry":{"type":"Point","coordinates":[-80.05906,40.30712]},"properties":{"p":"0667P00340000000","a":"690 CLIFTON RD","m":"Bethel Park","u":"L","o":"individual","sf":54363,"v":43900}},{"type":"Feature","geometry":{"type":"Point","coordinates":[-80.04574,40.30881]},"properties":{"p":"0666N00198000000","a":"DELFIELD DR","m":"Bethel Park","u":"L","o":"corp","sf":4051,"v":400}},{"type":"Feature","geometry":{"type":"Point","coordinates":[-80.04319,40.30891]},"properties":{"p":"0666P00083000000","a":"5741 HAPPY HILLS DR","m":"Bethel Park","u":"L","o":"individual","sf":4104,"v":400}},{"type":"Feature","geometry":{"type":"Point","coordinates":[-80.04309,40.3091]},"properties":{"p":"0666P00084000100","a":"HAPPY HILLS DR","m":"Bethel Park","u":"L","o":"individual","sf":917,"v":100}},{"type":"Feature","geometry":{"type":"Point","coordinates":[-80.05855,40.30183]},"properties":{"p":"0774F00325000000","a":"ROCKY RIDGE RD","m":"Bethel Park","u":"L","o":"corp","sf":18398,"v":55800}},{"type":"Feature","geometry":{"type":"Point","coordinates":[-80.04076,40.29528]},"properties":{"p":"0888C00157000000","a":"1136 CLIFTON RD","m":"Bethel Park","u":"L","o":"individual","sf":20250,"v":1800}},{"type":"Feature","geometry":{"type":"Point","coordinates":[-80.05922,40.30847]},"properties":{"p":"0667P00170000000","a":"CLIFTON RD","m":"Bethel Park","u":"L","o":"individual","sf":3328,"v":300}},{"type":"Feature","geometry":{"type":"Point","coordinates":[-80.04724,40.30801]},"properties":{"p":"0666N00124000000","a":"DELFIELD DR","m":"Bethel Park","u":"L","o":"individual","sf":26046,"v":2300}},{"type":"Feature","geometry":{"type":"Point","coordinates":[-80.04306,40.30945]},"properties":{"p":"0666K00302000200","a":"HAPPY HILLS DR","m":"Bethel Park","u":"L","o":"individual","sf":860,"v":100}},{"type":"Feature","geometry":{"type":"Point","coordinates":[-80.0593,40.30879]},"properties":{"p":"0667P00060000000","a":"636 CLIFTON RD","m":"Bethel Park","u":"L","o":"individual","sf":30868,"v":41700}},{"type":"Feature","geometry":{"type":"Point","coordinates":[-80.05949,40.30967]},"properties":{"p":"0667K00327000000","a":"CLIFTON RD","m":"Bethel Park","u":"L","o":"individual","sf":12605,"v":20100}},{"type":"Feature","geometry":{"type":"Point","coordinates":[-80.04323,40.30837]},"properties":{"p":"0666P00250000000","a":"5832 GLENBROOK DR","m":"Bethel Park","u":"L","o":"individual","sf":7096,"v":300}},{"type":"Feature","geometry":{"type":"Point","coordinates":[-80.04093,40.29604]},"properties":{"p":"0888C00161000000","a":"1132 CLIFTON RD","m":"Bethel Park","u":"L","o":"individual","sf":1835,"v":200}},{"type":"Feature","geometry":{"type":"Point","coordinates":[-80.04993,40.29761]},"properties":{"p":"0773N00137000000","a":"MOUNTAIN AVE","m":"Bethel Park","u":"L","o":"individual","sf":14700,"v":55300}},{"type":"Feature","geometry":{"type":"Point","coordinates":[-80.04756,40.30396]},"properties":{"p":"0773E00136000000","a":"IRISHTOWN RD","m":"Bethel Park","u":"L","o":"individual","sf":335412,"v":87400}},{"type":"Feature","geometry":{"type":"Point","coordinates":[-80.04889,40.29443]},"properties":{"p":"0888E00198000000","a":"6330 IRISHTOWN RD","m":"Bethel Park","u":"B","o":"individual","sf":174236,"v":15200}},{"type":"Feature","geometry":{"type":"Point","coordinates":[-80.05377,40.30045]},"properties":{"p":"0774M00200000000","a":"GREENHAVEN DR","m":"Bethel Park","u":"B","o":"corp","sf":101059,"v":19500}}]}