{"type":"FeatureCollection","features":[{"type":"Feature","geometry":{"type":"Point","coordinates":[-80.02958,40.54547]},"properties":{"p":"0517E00330000000","a":"BABCOCK BLVD","m":"Ross","u":"C","o":"corp","sf":12147,"v":4100}},{"type":"Feature","geometry":{"type":"Point","coordinates":[-80.0265,40.54079]},"properties":{"p":"0517P00157000000","a":"BABCOCK BLVD","m":"Ross","u":"C","o":"corp","sf":25312,"v":51400}},{"type":"Feature","geometry":{"type":"Point","coordinates":[-80.03896,40.5471]},"properties":{"p":"0516G00096000000","a":"NORTHRIDGE DR","m":"Ross","u":"C","o":"corp","sf":25728,"v":11800}},{"type":"Feature","geometry":{"type":"Point","coordinates":[-80.03669,40.54906]},"properties":{"p":"0516D00080000000","a":"PERRY HWY","m":"Ross","u":"C","o":"corp","sf":25439,"v":11700}},{"type":"Feature","geometry":{"type":"Point","coordinates":[-80.02986,40.54616]},"properties":{"p":"0517E00196000000","a":"BABCOCK BLVD","m":"Ross","u":"C","o":"corp","sf":13112,"v":4500}},{"type":"Feature","geometry":{"type":"Point","coordinates":[-80.03486,40.54075]},"properties":{"p":"0516S00318000000","a":"JACKSON ST","m":"Ross","u":"C","o":"corp","sf":7725,"v":3100}},{"type":"Feature","geometry":{"type":"Point","coordinates":[-80.0386,40.54543]},"properties":{"p":"0516C00360000000","a":"SEWICKLEY OAKMONT RD","m":"Ross","u":"C","o":"corp","sf":984,"v":400}},{"type":"Feature","geometry":{"type":"Point","coordinates":[-80.03337,40.54399]},"properties":{"p":"0516M00249000000","a":"THREE DEGREE RD","m":"Ross","u":"C","o":"corp","sf":3952,"v":1300}},{"type":"Feature","geometry":{"type":"Point","coordinates":[-80.02041,40.54613]},"properties":{"p":"0517G00320000000","a":"99 CORBETT CT","m":"Ross","u":"C","o":"corp","sf":24524,"v":41800}},{"type":"Feature","geometry":{"type":"Point","coordinates":[-80.03576,40.54042]},"properties":{"p":"0429D00343000000","a":"1032 PERRY HWY","m":"Ross","u":"C","o":"corp","sf":8520,"v":69600}},{"type":"Feature","geometry":{"type":"Point","coordinates":[-80.03497,40.54039]},"properties":{"p":"0429D00337000000","a":"JACKSON AVE","m":"Ross","u":"C","o":"corp","sf":9774,"v":3900}},{"type":"Feature","geometry":{"type":"Point","coordinates":[-80.03609,40.54428]},"properties":{"p":"0516M00188000000","a":"REEL AVE","m":"Ross","u":"C","o":"corp","sf":2782,"v":1100}},{"type":"Feature","geometry":{"type":"Point","coordinates":[-80.02077,40.5365]},"properties":{"p":"0430G00069000000","a":"BABCOCK BLVD","m":"Ross","u":"C","o":"corp","sf":23976,"v":99300}},{"type":"Feature","geometry":{"type":"Point","coordinates":[-80.03665,40.54205]},"properties":{"p":"0516S00070000000","a":"1047 PERRY HWY","m":"Ross","u":"C","o":"corp","sf":87120,"v":56000}},{"type":"Feature","geometry":{"type":"Point","coordinates":[-80.02897,40.54614]},"properties":{"p":"0517E00357000000","a":"BABCOCK BLVD","m":"Ross","u":"L","o":"individual","sf":45738,"v":15300}},{"type":"Feature","geometry":{"type":"Point","coordinates":[-80.03268,40.54737]},"properties":{"p":"0517A00185000000","a":"CIRCLE DR","m":"Ross","u":"L","o":"individual","sf":45416,"v":5700}},{"type":"Feature","geometry":{"type":"Point","coordinates":[-80.03285,40.54786]},"properties":{"p":"0517A00188000000","a":"CIRCLE DR","m":"Ross","u":"L","o":"individual","sf":39221,"v":5100}},{"type":"Feature","geometry":{"type":"Point","coordinates":[-80.02736,40.54989]},"properties":{"p":"0517B00021000000","a":"BABCOCK BLVD","m":"Ross","u":"L","o":"individual","sf":480,"v":100}},{"type":"Feature","geometry":{"type":"Point","coordinates":[-80.03298,40.54841]},"properties":{"p":"0516D00389000000","a":"SWAN DR","m":"Ross","u":"L","o":"individual","sf":18786,"v":2400}},{"type":"Feature","geometry":{"type":"Point","coordinates":[-80.03854,40.54989]},"properties":{"p":"0516C00029000000","a":"GRANT AVE","m":"Ross","u":"L","o":"individual","sf":5000,"v":1900}},{"type":"Feature","geometry":{"type":"Point","coordinates":[-80.0398,40.54986]},"properties":{"p":"0516C00066000000","a":"208 GRANT AVE","m":"Ross","u":"L","o":"individual","sf":7950,"v":20500}},{"type":"Feature","geometry":{"type":"Point","coordinates":[-80.03083,40.54365]},"properties":{"p":"0517J00069000000","a":"NEOLA CIR","m":"Ross","u":"L","o":"individual","sf":14602,"v":13500}},{"type":"Feature","geometry":{"type":"Point","coordinates":[-80.02838,40.54761]},"properties":{"p":"0517F00215000000","a":"BABCOCK BLVD","m":"Ross","u":"L","o":"individual","sf":94090,"v":49000}},{"type":"Feature","geometry":{"type":"Point","coordinates":[-80.02863,40.54692]},"properties":{"p":"0517F00225000000","a":"BABCOCK BLVD","m":"Ross","u":"L","o":"corp","sf":23471,"v":15000}},{"type":"Feature","geometry":{"type":"Point","coordinates":[-80.02626,40.54379]},"properties":{"p":"0517K00129000000","a":"EVERGREEN RD","m":"Ross","u":"L","o":"individual","sf":209524,"v":79900}},{"type":"Feature","geometry":{"type":"Point","coordinates":[-80.03418,40.54137]},"properties":{"p":"0516S00190000000","a":"JACKSON ST","m":"Ross","u":"L","o":"individual","sf":7611,"v":800}},{"type":"Feature","geometry":{"type":"Point","coordinates":[-80.03249,40.5488]},"properties":{"p":"0517A00146000000","a":"CIRCLE DR","m":"Ross","u":"L","o":"individual","sf":13575,"v":3400}},{"type":"Feature","geometry":{"type":"Point","coordinates":[-80.02536,40.54382]},"properties":{"p":"0517K00131000000","a":"MARIE DR","m":"Ross","u":"L","o":"individual","sf":17960,"v":55700}},{"type":"Feature","geometry":{"type":"Point","coordinates":[-80.02806,40.54816]},"properties":{"p":"0517B00087000000","a":"CRIDER HILL RD","m":"Ross","u":"L","o":"individual","sf":3740,"v":500}},{"type":"Feature","geometry":{"type":"Point","coordinates":[-80.02203,40.54559]},"properties":{"p":"0517G00078000000","a":"PINEWOOD TER","m":"Ross","u":"L","o":"individual","sf":21401,"v":28700}},{"type":"Feature","geometry":{"type":"Point","coordinates":[-80.02258,40.54512]},"properties":{"p":"0517G00081000000","a":"PINEWOOD TER","m":"Ross","u":"L","o":"individual","sf":16783,"v":28100}},{"type":"Feature","geometry":{"type":"Point","coordinates":[-80.03493,40.54163]},"properties":{"p":"0516S00147000000","a":"PERRY HWY","m":"Ross","u":"L","o":"individual","sf":38420,"v":53000}},{"type":"Feature","geometry":{"type":"Point","coordinates":[-80.02901,40.54438]},"properties":{"p":"0517J00253000000","a":"EVERGREEN RD","m":"Ross","u":"L","o":"individual","sf":9174,"v":1200}},{"type":"Feature","geometry":{"type":"Point","coordinates":[-80.03344,40.54399]},"properties":{"p":"0516M00243000000","a":"THREE DEGREE RD","m":"Ross","u":"L","o":"individual","sf":3935,"v":400}},{"type":"Feature","geometry":{"type":"Point","coordinates":[-80.0276,40.54943]},"properties":{"p":"0517B00033000000","a":"5897 BABCOCK BLVD","m":"Ross","u":"L","o":"individual","sf":30720,"v":2800}},{"type":"Feature","geometry":{"type":"Point","coordinates":[-80.03656,40.54105]},"properties":{"p":"0516S00026000000","a":"1029 -1033 PERRY HWY","m":"Ross","u":"L","o":"individual","sf":5352,"v":600}},{"type":"Feature","geometry":{"type":"Point","coordinates":[-80.02811,40.54644]},"properties":{"p":"0517F00316000000","a":"512 CRIDER HILL RD","m":"Ross","u":"L","o":"corp","sf":13800,"v":55200}},{"type":"Feature","geometry":{"type":"Point","coordinates":[-80.02524,40.54215]},"properties":{"p":"0517P00294000000","a":"CRIDER LN","m":"Ross","u":"L","o":"individual","sf":2104,"v":300}},{"type":"Feature","geometry":{"type":"Point","coordinates":[-80.03707,40.54369]},"properties":{"p":"0516L00049000000","a":"92 REEL AVE","m":"Ross","u":"L","o":"individual","sf":14244,"v":1600}},{"type":"Feature","geometry":{"type":"Point","coordinates":[-80.03904,40.54355]},"properties":{"p":"0516L00143000000","a":"110 RICHARD DR","m":"Ross","u":"L","o":"individual","sf":4975,"v":600}},{"type":"Feature","geometry":{"type":"Point","coordinates":[-80.03252,40.54633]},"properties":{"p":"0517E00253000000","a":"THREE DEGREE RD","m":"Ross","u":"L","o":"corp","sf":108896,"v":61100}},{"type":"Feature","geometry":{"type":"Point","coordinates":[-80.03531,40.54563]},"properties":{"p":"0516H00099000000","a":"116 PERRY HWY","m":"Ross","u":"L","o":"individual","sf":7500,"v":40700}},{"type":"Feature","geometry":{"type":"Point","coordinates":[-80.03819,40.5303]},"properties":{"p":"0350C00033000000","a":"MARGARETTA ST","m":"Ross","u":"L","o":"individual","sf":9900,"v":1100}},{"type":"Feature","geometry":{"type":"Point","coordinates":[-80.03872,40.53048]},"properties":{"p":"0350C00058000000","a":"PERRY HWY","m":"Ross","u":"L","o":"corp","sf":27007,"v":51700}},{"type":"Feature","geometry":{"type":"Point","coordinates":[-80.02818,40.53]},"properties":{"p":"0351B00016000000","a":"125 COUNTRY LN","m":"Ross","u":"L","o":"individual","sf":14301,"v":35000}},{"type":"Feature","geometry":{"type":"Point","coordinates":[-80.03256,40.53907]},"properties":{"p":"0430A00319000000","a":"1033 GRANDVIEW AVE","m":"Ross","u":"L","o":"individual","sf":6250,"v":700}},{"type":"Feature","geometry":{"type":"Point","coordinates":[-80.03234,40.53616]},"properties":{"p":"0430E00073000000","a":"HOMER AVE","m":"Ross","u":"L","o":"individual","sf":7812,"v":900}},{"type":"Feature","geometry":{"type":"Point","coordinates":[-80.03871,40.53229]},"properties":{"p":"0429R00145000000","a":"HILAND VALLEY DR","m":"Ross","u":"L","o":"individual","sf":16988,"v":1900}},{"type":"Feature","geometry":{"type":"Point","coordinates":[-80.03874,40.53265]},"properties":{"p":"0429R00166000000","a":"HIEBER AVE","m":"Ross","u":"L","o":"individual","sf":105372,"v":30000}},{"type":"Feature","geometry":{"type":"Point","coordinates":[-80.02588,40.53681]},"properties":{"p":"0430F00091000000","a":"LOCUST DR","m":"Ross","u":"L","o":"individual","sf":47480,"v":29100}},{"type":"Feature","geometry":{"type":"Point","coordinates":[-80.02527,40.53645]},"properties":{"p":"0430F00195000000","a":"LOCUST ST","m":"Ross","u":"L","o":"individual","sf":2073,"v":200}},{"type":"Feature","geometry":{"type":"Point","coordinates":[-80.02494,40.53612]},"properties":{"p":"0430F00208000000","a":"LONGVUE DR","m":"Ross","u":"L","o":"individual","sf":21762,"v":51100}},{"type":"Feature","geometry":{"type":"Point","coordinates":[-80.02651,40.53499]},"properties":{"p":"0430K00040000000","a":"WOOD DR","m":"Ross","u":"L","o":"individual","sf":44867,"v":43700}},{"type":"Feature","geometry":{"type":"Point","coordinates":[-80.02417,40.5331]},"properties":{"p":"0430L00183000000","a":"HILLCREST DR","m":"Ross","u":"L","o":"individual","sf":9856,"v":3600}},{"type":"Feature","geometry":{"type":"Point","coordinates":[-80.03749,40.53269]},"properties":{"p":"0429R00170000000","a":"FERN AVE","m":"Ross","u":"L","o":"corp","sf":5481,"v":600}},{"type":"Feature","geometry":{"type":"Point","coordinates":[-80.0289,40.53752]},"properties":{"p":"0430E00216000000","a":"CEDAR DR","m":"Ross","u":"L","o":"corp","sf":53579,"v":54800}},{"type":"Feature","geometry":{"type":"Point","coordinates":[-80.03489,40.53551]},"properties":{"p":"0429M00051000000","a":"107 SCHARS LN","m":"Ross","u":"L","o":"corp","sf":20335,"v":51000}},{"type":"Feature","geometry":{"type":"Point","coordinates":[-80.02462,40.53067]},"properties":{"p":"0430R00134000000","a":"3RD AVE","m":"Ross","u":"L","o":"individual","sf":6250,"v":2300}},{"type":"Feature","geometry":{"type":"Point","coordinates":[-80.03181,40.5402]},"properties":{"p":"0430A00144000000","a":"FAIRDALE CT","m":"Ross","u":"L","o":"individual","sf":1655,"v":200}},{"type":"Feature","geometry":{"type":"Point","coordinates":[-80.03413,40.53277]},"properties":{"p":"0429S00119000000","a":"HARDEN DR","m":"Ross","u":"L","o":"corp","sf":8759,"v":1100}},{"type":"Feature","geometry":{"type":"Point","coordinates":[-80.02686,40.53086]},"properties":{"p":"0430P00230000000","a":"151 1ST AVE","m":"Ross","u":"L","o":"individual","sf":6250,"v":2300}},{"type":"Feature","geometry":{"type":"Point","coordinates":[-80.03366,40.53686]},"properties":{"p":"0429H00296000000","a":"WILLOW DR","m":"Ross","u":"L","o":"individual","sf":6926,"v":800}},{"type":"Feature","geometry":{"type":"Point","coordinates":[-80.02234,40.53469]},"properties":{"p":"0430L00094000000","a":"WOOD DR","m":"Ross","u":"L","o":"individual","sf":12059,"v":20600}},{"type":"Feature","geometry":{"type":"Point","coordinates":[-80.02441,40.53502]},"properties":{"p":"0430L00132000000","a":"WOOD DR","m":"Ross","u":"L","o":"individual","sf":45302,"v":43700}},{"type":"Feature","geometry":{"type":"Point","coordinates":[-80.02482,40.53494]},"properties":{"p":"0430K00009000000","a":"WOOD DR","m":"Ross","u":"L","o":"individual","sf":43865,"v":43600}},{"type":"Feature","geometry":{"type":"Point","coordinates":[-80.02572,40.53495]},"properties":{"p":"0430K00032000000","a":"WOOD DR","m":"Ross","u":"L","o":"individual","sf":43470,"v":43500}},{"type":"Feature","geometry":{"type":"Point","coordinates":[-80.03421,40.53437]},"properties":{"p":"0429M00258000000","a":"HARDEN DR","m":"Ross","u":"L","o":"individual","sf":2289,"v":300}},{"type":"Feature","geometry":{"type":"Point","coordinates":[-80.0273,40.53256]},"properties":{"p":"0430P00060000000","a":"HUEBNER DR","m":"Ross","u":"L","o":"individual","sf":3120,"v":400}},{"type":"Feature","geometry":{"type":"Point","coordinates":[-80.03541,40.53833]},"properties":{"p":"0429D00114000000","a":"PERRYSVILLE RD","m":"Ross","u":"L","o":"individual","sf":14244,"v":1600}},{"type":"Feature","geometry":{"type":"Point","coordinates":[-80.03904,40.53799]},"properties":{"p":"0429G00125000000","a":"1ST AVE","m":"Ross","u":"L","o":"corp","sf":245678,"v":74300}},{"type":"Feature","geometry":{"type":"Point","coordinates":[-80.03954,40.53492]},"properties":{"p":"0429G00272000000","a":"SCOTT ST","m":"Ross","u":"L","o":"corp","sf":852077,"v":90900}},{"type":"Feature","geometry":{"type":"Point","coordinates":[-80.02258,40.53844]},"properties":{"p":"0430C00118000000","a":"EVERGREEN RD","m":"Ross","u":"L","o":"corp","sf":4906,"v":1800}},{"type":"Feature","geometry":{"type":"Point","coordinates":[-80.02721,40.53915]},"properties":{"p":"0430B00201000000","a":"BERNICE ST","m":"Ross","u":"L","o":"individual","sf":13874,"v":1500}},{"type":"Feature","geometry":{"type":"Point","coordinates":[-80.0275,40.53932]},"properties":{"p":"0430B00202000000","a":"BERNICE ST","m":"Ross","u":"L","o":"individual","sf":18505,"v":13400}},{"type":"Feature","geometry":{"type":"Point","coordinates":[-80.0346,40.53631]},"properties":{"p":"0429H00203000000","a":"HARDEN DR","m":"Ross","u":"L","o":"individual","sf":39204,"v":4300}},{"type":"Feature","geometry":{"type":"Point","coordinates":[-80.02839,40.53956]},"properties":{"p":"0430B00220000000","a":"AVONDALE ST","m":"Ross","u":"L","o":"corp","sf":19581,"v":50900}},{"type":"Feature","geometry":{"type":"Point","coordinates":[-80.03387,40.53555]},"properties":{"p":"0429H00264000000","a":"VALLEY DR","m":"Ross","u":"L","o":"individual","sf":28598,"v":3000}},{"type":"Feature","geometry":{"type":"Point","coordinates":[-80.03493,40.53439]},"properties":{"p":"0429M00210000000","a":"HARDEN DR","m":"Ross","u":"L","o":"individual","sf":940,"v":100}},{"type":"Feature","geometry":{"type":"Point","coordinates":[-80.03673,40.53277]},"properties":{"p":"0429S00260000000","a":"HIEBER AVE","m":"Ross","u":"L","o":"corp","sf":14379,"v":25200}},{"type":"Feature","geometry":{"type":"Point","coordinates":[-80.02412,40.53844]},"properties":{"p":"0430C00030000000","a":"BABCOCK BLVD","m":"Ross","u":"L","o":"individual","sf":3500,"v":1300}},{"type":"Feature","geometry":{"type":"Point","coordinates":[-80.02387,40.53819]},"properties":{"p":"0430C00034000000","a":"BABCOCK BLVD","m":"Ross","u":"L","o":"individual","sf":3499,"v":1300}},{"type":"Feature","geometry":{"type":"Point","coordinates":[-80.02418,40.53868]},"properties":{"p":"0430C00036000000","a":"3413 -3415 BABCOCK BLVD","m":"Ross","u":"L","o":"individual","sf":13351,"v":12200}},{"type":"Feature","geometry":{"type":"Point","coordinates":[-80.03359,40.54612]},"properties":{"p":"0516H00138000000","a":"11 GLENVUE DR","m":"Ross","u":"L","o":"individual","sf":3120,"v":300}},{"type":"Feature","geometry":{"type":"Point","coordinates":[-80.03302,40.54321]},"properties":{"p":"0516M00153000000","a":"2ND ST","m":"Ross","u":"L","o":"individual","sf":22320,"v":26100}},{"type":"Feature","geometry":{"type":"Point","coordinates":[-80.03298,40.54344]},"properties":{"p":"0516M00154000000","a":"2ND ST","m":"Ross","u":"L","o":"individual","sf":20260,"v":15000}},{"type":"Feature","geometry":{"type":"Point","coordinates":[-80.02807,40.53165]},"properties":{"p":"0430P00289000000","a":"COUNTRY LN","m":"Ross","u":"L","o":"individual","sf":12788,"v":1700}},{"type":"Feature","geometry":{"type":"Point","coordinates":[-80.02098,40.5328]},"properties":{"p":"0430R00018000000","a":"112 VALLEYVUE DR","m":"Ross","u":"L","o":"individual","sf":24284,"v":41700}},{"type":"Feature","geometry":{"type":"Point","coordinates":[-80.02752,40.53795]},"properties":{"p":"0430F00280000000","a":"LONGVUE DR","m":"Ross","u":"L","o":"individual","sf":7474,"v":800}},{"type":"Feature","geometry":{"type":"Point","coordinates":[-80.02042,40.53716]},"properties":{"p":"0430G00010000000","a":"EVERGREEN RD","m":"Ross","u":"L","o":"individual","sf":9780,"v":40400}},{"type":"Feature","geometry":{"type":"Point","coordinates":[-80.02018,40.53784]},"properties":{"p":"0430G00015000000","a":"EVERGREEN RD","m":"Ross","u":"L","o":"individual","sf":28047,"v":42100}},{"type":"Feature","geometry":{"type":"Point","coordinates":[-80.02795,40.53872]},"properties":{"p":"0430B00031000000","a":"LONGVUE DR","m":"Ross","u":"L","o":"individual","sf":29043,"v":51900}},{"type":"Feature","geometry":{"type":"Point","coordinates":[-80.03075,40.53257]},"properties":{"p":"0430N00125000000","a":"MONROE DR","m":"Ross","u":"L","o":"individual","sf":7800,"v":1000}},{"type":"Feature","geometry":{"type":"Point","coordinates":[-80.03181,40.53885]},"properties":{"p":"0430A00210000000","a":"GRANDVIEW AVE","m":"Ross","u":"L","o":"individual","sf":6250,"v":700}},{"type":"Feature","geometry":{"type":"Point","coordinates":[-80.03919,40.54]},"properties":{"p":"0429C00121000000","a":"LINDLEY LN","m":"Ross","u":"L","o":"corp","sf":5813,"v":600}},{"type":"Feature","geometry":{"type":"Point","coordinates":[-80.02235,40.53581]},"properties":{"p":"0430G00297000100","a":"LONGVUE DR","m":"Ross","u":"L","o":"individual","sf":2668,"v":300}},{"type":"Feature","geometry":{"type":"Point","coordinates":[-80.02122,40.53534]},"properties":{"p":"0430L00017000000","a":"3367 BABCOCK BLVD","m":"Ross","u":"L","o":"individual","sf":4285,"v":500}},{"type":"Feature","geometry":{"type":"Point","coordinates":[-80.0238,40.53784]},"properties":{"p":"0430C00007000000","a":"BABCOCK BLVD","m":"Ross","u":"L","o":"individual","sf":105851,"v":5000}},{"type":"Feature","geometry":{"type":"Point","coordinates":[-80.02191,40.53547]},"properties":{"p":"0430L00020000000","a":"LONGVUE DR","m":"Ross","u":"L","o":"individual","sf":11235,"v":1200}},{"type":"Feature","geometry":{"type":"Point","coordinates":[-80.03343,40.53087]},"properties":{"p":"0350D00345000000","a":"THOMPSON DR","m":"Ross","u":"L","o":"corp","sf":10680,"v":51900}},{"type":"Feature","geometry":{"type":"Point","coordinates":[-80.02255,40.53309]},"properties":{"p":"0430L00219000000","a":"VALLEYVUE DR","m":"Ross","u":"L","o":"individual","sf":24065,"v":8500}},{"type":"Feature","geometry":{"type":"Point","coordinates":[-80.02491,40.53929]},"properties":{"p":"0430B00143000000","a":"BABCOCK BLVD","m":"Ross","u":"L","o":"individual","sf":16431,"v":5900}},{"type":"Feature","geometry":{"type":"Point","coordinates":[-80.02928,40.53268]},"properties":{"p":"0430N00030000000","a":"JEFFERSON DR","m":"Ross","u":"L","o":"individual","sf":762,"v":100}},{"type":"Feature","geometry":{"type":"Point","coordinates":[-80.03342,40.54612]},"properties":{"p":"0516H00278000000","a":"13 GLENVUE DR","m":"Ross","u":"L","o":"individual","sf":1421,"v":200}},{"type":"Feature","geometry":{"type":"Point","coordinates":[-80.03467,40.54247]},"properties":{"p":"0516S00109000000","a":"DECKER LN","m":"Ross","u":"L","o":"individual","sf":32074,"v":52300}},{"type":"Feature","geometry":{"type":"Point","coordinates":[-80.0288,40.53795]},"properties":{"p":"0430B00019000000","a":"LONGVUE DR","m":"Ross","u":"L","o":"individual","sf":5317,"v":600}},{"type":"Feature","geometry":{"type":"Point","coordinates":[-80.0315,40.54524]},"properties":{"p":"0517J00186000000","a":"THREE DEGREE RD","m":"Ross","u":"L","o":"individual","sf":18397,"v":50700}}]}