{"type":"FeatureCollection","features":[{"type":"Feature","geometry":{"type":"Point","coordinates":[-80.03108,40.40921]},"properties":{"p":"0035E00170000000","a":"COAST AVE","m":"20th Ward - PITTSBURGH","u":"I","o":"individual","sf":14112,"v":27600}},{"type":"Feature","geometry":{"type":"Point","coordinates":[-80.03881,40.40589]},"properties":{"p":"0036R00301000000","a":"CARNAHAN RD","m":"20th Ward - PITTSBURGH","u":"I","o":"individual","sf":11326,"v":12600}},{"type":"Feature","geometry":{"type":"Point","coordinates":[-80.02383,40.40051]},"properties":{"p":"0062G00012000000","a":"2310 -2312 WEST LIBERTY AVE","m":"19th Ward - PITTSBURGH","u":"C","o":"corp","sf":47825,"v":399800}},{"type":"Feature","geometry":{"type":"Point","coordinates":[-80.02561,40.39903]},"properties":{"p":"0062K00009000000","a":"2506 WEST LIBERTY AVE","m":"19th Ward - PITTSBURGH","u":"C","o":"individual","sf":1806,"v":14500}},{"type":"Feature","geometry":{"type":"Point","coordinates":[-80.0284,40.39586]},"properties":{"p":"0062P00282000100","a":"WADDINGTON AVE","m":"19th Ward - PITTSBURGH","u":"C","o":"corp","sf":1972,"v":600}},{"type":"Feature","geometry":{"type":"Point","coordinates":[-80.02463,40.3991]},"properties":{"p":"0062K00249000000","a":"WEST LIBERTY AVE","m":"19th Ward - PITTSBURGH","u":"C","o":"corp","sf":4800,"v":7700}},{"type":"Feature","geometry":{"type":"Point","coordinates":[-80.03137,40.40225]},"properties":{"p":"0062A00111000000","a":"BROADWAY AVE","m":"19th Ward - PITTSBURGH","u":"C","o":"corp","sf":4525,"v":7000}},{"type":"Feature","geometry":{"type":"Point","coordinates":[-80.02999,40.40588]},"properties":{"p":"0035N00153000000","a":"BOUSTEAD ST","m":"19th Ward - PITTSBURGH","u":"C","o":"corp","sf":3480,"v":1600}},{"type":"Feature","geometry":{"type":"Point","coordinates":[-80.02591,40.40795]},"properties":{"p":"0035K00150000000","a":"1734 BROADWAY AVE","m":"19th Ward - PITTSBURGH","u":"C","o":"corp","sf":4230,"v":5000}},{"type":"Feature","geometry":{"type":"Point","coordinates":[-80.02641,40.40769]},"properties":{"p":"0035K00114000000","a":"BROADWAY AVE","m":"19th Ward - PITTSBURGH","u":"C","o":"corp","sf":3027,"v":1500}},{"type":"Feature","geometry":{"type":"Point","coordinates":[-80.03928,40.40257]},"properties":{"p":"0063C00173000000","a":"STRACHAN AVE","m":"20th Ward - PITTSBURGH","u":"C","o":"corp","sf":3850,"v":14200}},{"type":"Feature","geometry":{"type":"Point","coordinates":[-80.03913,40.4027]},"properties":{"p":"0063C00175000000","a":"STRACHAN AVE","m":"20th Ward - PITTSBURGH","u":"C","o":"corp","sf":9900,"v":16400}},{"type":"Feature","geometry":{"type":"Point","coordinates":[-80.03773,40.40617]},"properties":{"p":"0036R00315000000","a":"BANKSVILLE AVE","m":"20th Ward - PITTSBURGH","u":"C","o":"corp","sf":5355,"v":2500}},{"type":"Feature","geometry":{"type":"Point","coordinates":[-80.03691,40.40622]},"properties":{"p":"0036S00006000000","a":"2644 BANKSVILLE AVE","m":"20th Ward - PITTSBURGH","u":"C","o":"corp","sf":2681,"v":1000}},{"type":"Feature","geometry":{"type":"Point","coordinates":[-80.03819,40.40559]},"properties":{"p":"0036R00107000000","a":"2727 BANKSVILLE AVE","m":"20th Ward - PITTSBURGH","u":"C","o":"corp","sf":10253,"v":23600}},{"type":"Feature","geometry":{"type":"Point","coordinates":[-80.03782,40.40549]},"properties":{"p":"0036R00109000000","a":"2727 BANKSVILLE AVE","m":"20th Ward - PITTSBURGH","u":"C","o":"corp","sf":2210,"v":5100}},{"type":"Feature","geometry":{"type":"Point","coordinates":[-80.03799,40.40566]},"properties":{"p":"0036R00110000000","a":"2727 BANKSVILLE AVE","m":"20th Ward - PITTSBURGH","u":"C","o":"corp","sf":5291,"v":2400}},{"type":"Feature","geometry":{"type":"Point","coordinates":[-80.03714,40.40614]},"properties":{"p":"0036R00122000000","a":"2644 BANKSVILLE RD","m":"20th Ward - PITTSBURGH","u":"C","o":"corp","sf":4314,"v":1600}},{"type":"Feature","geometry":{"type":"Point","coordinates":[-80.03515,40.40546]},"properties":{"p":"0036S00153000000","a":"WENZELL AVE","m":"20th Ward - PITTSBURGH","u":"C","o":"corp","sf":6864,"v":23700}},{"type":"Feature","geometry":{"type":"Point","coordinates":[-80.03934,40.40553]},"properties":{"p":"0036R00280000000","a":"2728 -2730 BANKSVILLE AVE","m":"20th Ward - PITTSBURGH","u":"C","o":"individual","sf":8050,"v":3700}},{"type":"Feature","geometry":{"type":"Point","coordinates":[-80.0394,40.40591]},"properties":{"p":"0036R00282000000","a":"BANKSVILLE AVE","m":"20th Ward - PITTSBURGH","u":"C","o":"corp","sf":20523,"v":9400}},{"type":"Feature","geometry":{"type":"Point","coordinates":[-80.03667,40.39365]},"properties":{"p":"0098D00380000000","a":"WEST LIBERTY AVE","m":"Dormont","u":"C","o":"corp","sf":6798,"v":73500}},{"type":"Feature","geometry":{"type":"Point","coordinates":[-80.03679,40.39356]},"properties":{"p":"0098D00382000000","a":"WEST LIBERTY AVE","m":"Dormont","u":"C","o":"corp","sf":6763,"v":73400}},{"type":"Feature","geometry":{"type":"Point","coordinates":[-80.03282,40.39626]},"properties":{"p":"0063S00087000000","a":"WEST LIBERTY AVE","m":"Dormont","u":"C","o":"corp","sf":3420,"v":10400}},{"type":"Feature","geometry":{"type":"Point","coordinates":[-80.03209,40.39581]},"properties":{"p":"0062N00237000000","a":"PIONEER AVE","m":"Dormont","u":"C","o":"individual","sf":4035,"v":64000}},{"type":"Feature","geometry":{"type":"Point","coordinates":[-80.03854,40.39204]},"properties":{"p":"0098C00050000000","a":"WEST LIBERTY AVE","m":"Dormont","u":"C","o":"individual","sf":78,"v":200}},{"type":"Feature","geometry":{"type":"Point","coordinates":[-80.02579,40.40039]},"properties":{"p":"0062F00212000000","a":"PALM BEACH AVE","m":"19th Ward - PITTSBURGH","u":"C","o":"corp","sf":12360,"v":6200}},{"type":"Feature","geometry":{"type":"Point","coordinates":[-80.02683,40.39554]},"properties":{"p":"0062P00099000000","a":"KENILWORTH ST","m":"19th Ward - PITTSBURGH","u":"L","o":"individual","sf":8559,"v":26300}},{"type":"Feature","geometry":{"type":"Point","coordinates":[-80.02547,40.39555]},"properties":{"p":"0062P00177000000","a":"JILLSON AVE","m":"19th Ward - PITTSBURGH","u":"L","o":"individual","sf":1600,"v":17200}},{"type":"Feature","geometry":{"type":"Point","coordinates":[-80.02767,40.39404]},"properties":{"p":"0097B00015000000","a":"2903 PIONEER AVE","m":"19th Ward - PITTSBURGH","u":"L","o":"individual","sf":978,"v":2500}},{"type":"Feature","geometry":{"type":"Point","coordinates":[-80.02394,40.39225]},"properties":{"p":"0097C00008000000","a":"709 FORDHAM AVE","m":"19th Ward - PITTSBURGH","u":"L","o":"individual","sf":5400,"v":13000}},{"type":"Feature","geometry":{"type":"Point","coordinates":[-80.02382,40.39036]},"properties":{"p":"0097G00222000000","a":"NORWICH AVE","m":"19th Ward - PITTSBURGH","u":"L","o":"individual","sf":4922,"v":1700}},{"type":"Feature","geometry":{"type":"Point","coordinates":[-80.02953,40.39333]},"properties":{"p":"0097A00047000000","a":"MCNEILLY AVE","m":"19th Ward - PITTSBURGH","u":"L","o":"individual","sf":2280,"v":800}},{"type":"Feature","geometry":{"type":"Point","coordinates":[-80.02222,40.3904]},"properties":{"p":"0097G00136000000","a":"FORDHAM AVE","m":"19th Ward - PITTSBURGH","u":"L","o":"individual","sf":3600,"v":9400}},{"type":"Feature","geometry":{"type":"Point","coordinates":[-80.02726,40.39154]},"properties":{"p":"0097F00154000000","a":"DORCHESTER AVE","m":"19th Ward - PITTSBURGH","u":"L","o":"individual","sf":480,"v":300}},{"type":"Feature","geometry":{"type":"Point","coordinates":[-80.03053,40.39624]},"properties":{"p":"0062N00163000000","a":"AMMAN ST","m":"19th Ward - PITTSBURGH","u":"L","o":"individual","sf":4361,"v":1500}},{"type":"Feature","geometry":{"type":"Point","coordinates":[-80.02588,40.39326]},"properties":{"p":"0097B00262000000","a":"FORDHAM AVE","m":"19th Ward - PITTSBURGH","u":"L","o":"corp","sf":942,"v":900}},{"type":"Feature","geometry":{"type":"Point","coordinates":[-80.03309,40.40369]},"properties":{"p":"0063D00007000000","a":"WENZELL AVE","m":"19th Ward - PITTSBURGH","u":"L","o":"individual","sf":3750,"v":1300}},{"type":"Feature","geometry":{"type":"Point","coordinates":[-80.024,40.39396]},"properties":{"p":"0097C00124000000","a":"532 WOODBOURNE AVE","m":"19th Ward - PITTSBURGH","u":"L","o":"individual","sf":3600,"v":1300}},{"type":"Feature","geometry":{"type":"Point","coordinates":[-80.02768,40.39589]},"properties":{"p":"0062P00021000000","a":"AIDYL AVE","m":"19th Ward - PITTSBURGH","u":"L","o":"individual","sf":1941,"v":700}},{"type":"Feature","geometry":{"type":"Point","coordinates":[-80.02761,40.39581]},"properties":{"p":"0062P00023000000","a":"AIDYL AVE","m":"19th Ward - PITTSBURGH","u":"L","o":"individual","sf":2018,"v":1000}},{"type":"Feature","geometry":{"type":"Point","coordinates":[-80.02709,40.39551]},"properties":{"p":"0062P00097000000","a":"KENILWORTH ST","m":"19th Ward - PITTSBURGH","u":"L","o":"corp","sf":270,"v":100}},{"type":"Feature","geometry":{"type":"Point","coordinates":[-80.03281,40.40396]},"properties":{"p":"0063D00001000000","a":"CROSBY AVE","m":"19th Ward - PITTSBURGH","u":"L","o":"individual","sf":4805,"v":9600}},{"type":"Feature","geometry":{"type":"Point","coordinates":[-80.02457,40.40416]},"properties":{"p":"0035P00162000000","a":"PAULINE AVE","m":"19th Ward - PITTSBURGH","u":"L","o":"individual","sf":6690,"v":10200}},{"type":"Feature","geometry":{"type":"Point","coordinates":[-80.02501,40.40455]},"properties":{"p":"0035P00168000000","a":"PAULINE AVE","m":"19th Ward - PITTSBURGH","u":"L","o":"individual","sf":6517,"v":2200}},{"type":"Feature","geometry":{"type":"Point","coordinates":[-80.02157,40.40449]},"properties":{"p":"0035R00244000000","a":"1926 KIRALFY AVE","m":"19th Ward - PITTSBURGH","u":"L","o":"individual","sf":2758,"v":1000}},{"type":"Feature","geometry":{"type":"Point","coordinates":[-80.02155,40.40442]},"properties":{"p":"0035R00246000000","a":"1926 KIRALFY AVE","m":"19th Ward - PITTSBURGH","u":"L","o":"individual","sf":2687,"v":1000}},{"type":"Feature","geometry":{"type":"Point","coordinates":[-80.02171,40.40419]},"properties":{"p":"0035R00251000000","a":"1966 SHIRAS AVE","m":"19th Ward - PITTSBURGH","u":"L","o":"individual","sf":2350,"v":4700}},{"type":"Feature","geometry":{"type":"Point","coordinates":[-80.021,40.40419]},"properties":{"p":"0035R00254000000","a":"1961 SHIRAS AVE","m":"19th Ward - PITTSBURGH","u":"L","o":"individual","sf":8364,"v":20300}},{"type":"Feature","geometry":{"type":"Point","coordinates":[-80.02577,40.39926]},"properties":{"p":"0062K00003000000","a":"SARANAC AVE","m":"19th Ward - PITTSBURGH","u":"L","o":"individual","sf":3026,"v":16100}},{"type":"Feature","geometry":{"type":"Point","coordinates":[-80.02587,40.40419]},"properties":{"p":"0035P00243000000","a":"PALM BEACH AVE","m":"19th Ward - PITTSBURGH","u":"L","o":"corp","sf":20894,"v":19400}},{"type":"Feature","geometry":{"type":"Point","coordinates":[-80.02083,40.4054]},"properties":{"p":"0035R00334000000","a":"FAIRACRES AVE","m":"19th Ward - PITTSBURGH","u":"L","o":"individual","sf":4576,"v":19200}},{"type":"Feature","geometry":{"type":"Point","coordinates":[-80.0327,40.40393]},"properties":{"p":"0062A00048000000","a":"CROSBY AVE","m":"19th Ward - PITTSBURGH","u":"L","o":"individual","sf":4890,"v":9800}},{"type":"Feature","geometry":{"type":"Point","coordinates":[-80.03232,40.404]},"properties":{"p":"0062A00051000000","a":"CROSBY AVE","m":"19th Ward - PITTSBURGH","u":"L","o":"individual","sf":7320,"v":10200}},{"type":"Feature","geometry":{"type":"Point","coordinates":[-80.03042,40.40015]},"properties":{"p":"0062E00175000000","a":"INGOMAR ST","m":"19th Ward - PITTSBURGH","u":"L","o":"individual","sf":3330,"v":6700}},{"type":"Feature","geometry":{"type":"Point","coordinates":[-80.03015,40.39981]},"properties":{"p":"0062E00188000000","a":"WENZELL AVE","m":"19th Ward - PITTSBURGH","u":"L","o":"individual","sf":3293,"v":6600}},{"type":"Feature","geometry":{"type":"Point","coordinates":[-80.02663,40.40508]},"properties":{"p":"0035P00227000000","a":"PAULINE AVE","m":"19th Ward - PITTSBURGH","u":"L","o":"individual","sf":448,"v":900}},{"type":"Feature","geometry":{"type":"Point","coordinates":[-80.02081,40.405]},"properties":{"p":"0035R00340000000","a":"FAIRACRES AVE","m":"19th Ward - PITTSBURGH","u":"L","o":"individual","sf":2790,"v":1000}},{"type":"Feature","geometry":{"type":"Point","coordinates":[-80.02066,40.4051]},"properties":{"p":"0035R00342000000","a":"SHIRAS AVE","m":"19th Ward - PITTSBURGH","u":"L","o":"individual","sf":1359,"v":500}},{"type":"Feature","geometry":{"type":"Point","coordinates":[-80.02776,40.40219]},"properties":{"p":"0062B00037000000","a":"VODELI ST","m":"19th Ward - PITTSBURGH","u":"L","o":"corp","sf":3300,"v":6600}},{"type":"Feature","geometry":{"type":"Point","coordinates":[-80.02243,40.4004]},"properties":{"p":"0062G00146000000","a":"2320 WOODWARD AVE","m":"19th Ward - PITTSBURGH","u":"L","o":"individual","sf":1250,"v":3300}},{"type":"Feature","geometry":{"type":"Point","coordinates":[-80.02204,40.40073]},"properties":{"p":"0062G00155000000","a":"WEST LIBERTY AVE","m":"19th Ward - PITTSBURGH","u":"L","o":"corp","sf":2142,"v":5600}},{"type":"Feature","geometry":{"type":"Point","coordinates":[-80.03276,40.40304]},"properties":{"p":"0062A00004000000","a":"WENZELL AVE","m":"19th Ward - PITTSBURGH","u":"L","o":"individual","sf":3810,"v":7600}},{"type":"Feature","geometry":{"type":"Point","coordinates":[-80.02837,40.4033]},"properties":{"p":"0062B00010000000","a":"VODELI ST","m":"19th Ward - PITTSBURGH","u":"L","o":"individual","sf":3300,"v":16600}},{"type":"Feature","geometry":{"type":"Point","coordinates":[-80.02262,40.40287]},"properties":{"p":"0062C00090000000","a":"PEOLA RD","m":"19th Ward - PITTSBURGH","u":"L","o":"corp","sf":24726,"v":21800}},{"type":"Feature","geometry":{"type":"Point","coordinates":[-80.02284,40.39991]},"properties":{"p":"0062G00130000000","a":"128 BELLE ISLE AVE","m":"19th Ward - PITTSBURGH","u":"L","o":"individual","sf":4524,"v":24800}},{"type":"Feature","geometry":{"type":"Point","coordinates":[-80.02266,40.40022]},"properties":{"p":"0062G00139000100","a":"BELLE ISLE AVE","m":"19th Ward - PITTSBURGH","u":"L","o":"individual","sf":680,"v":300}},{"type":"Feature","geometry":{"type":"Point","coordinates":[-80.02346,40.39944]},"properties":{"p":"0062G00118000000","a":"WOODWARD AVE","m":"19th Ward - PITTSBURGH","u":"L","o":"individual","sf":4800,"v":25500}},{"type":"Feature","geometry":{"type":"Point","coordinates":[-80.02778,40.39871]},"properties":{"p":"0062K00059000000","a":"WENZELL AVE","m":"19th Ward - PITTSBURGH","u":"L","o":"individual","sf":5319,"v":20000}},{"type":"Feature","geometry":{"type":"Point","coordinates":[-80.02828,40.40136]},"properties":{"p":"0062F00010000000","a":"2340 VODELI ST","m":"19th Ward - PITTSBURGH","u":"L","o":"corp","sf":3300,"v":6600}},{"type":"Feature","geometry":{"type":"Point","coordinates":[-80.02828,40.40128]},"properties":{"p":"0062F00011000000","a":"2340 VODELI ST","m":"19th Ward - PITTSBURGH","u":"L","o":"corp","sf":3300,"v":6600}},{"type":"Feature","geometry":{"type":"Point","coordinates":[-80.02172,40.40348]},"properties":{"p":"0062C00053000000","a":"TEXDALE ST","m":"19th Ward - PITTSBURGH","u":"L","o":"individual","sf":3864,"v":7700}},{"type":"Feature","geometry":{"type":"Point","coordinates":[-80.02166,40.40357]},"properties":{"p":"0062C00054000000","a":"TEXDALE ST","m":"19th Ward - PITTSBURGH","u":"L","o":"individual","sf":4864,"v":9700}},{"type":"Feature","geometry":{"type":"Point","coordinates":[-80.02735,40.40489]},"properties":{"p":"0035P00281000000","a":"PALM BEACH AVE","m":"19th Ward - PITTSBURGH","u":"L","o":"individual","sf":3300,"v":6600}},{"type":"Feature","geometry":{"type":"Point","coordinates":[-80.02775,40.40508]},"properties":{"p":"0035P00289000000","a":"PALM BEACH AVE","m":"19th Ward - PITTSBURGH","u":"L","o":"individual","sf":3300,"v":6600}},{"type":"Feature","geometry":{"type":"Point","coordinates":[-80.02782,40.40515]},"properties":{"p":"0035P00290000000","a":"1900 PALM BEACH AVE","m":"19th Ward - PITTSBURGH","u":"L","o":"individual","sf":3300,"v":1200}},{"type":"Feature","geometry":{"type":"Point","coordinates":[-80.02803,40.40534]},"properties":{"p":"0035P00294000000","a":"2017 CROSBY AVE","m":"19th Ward - PITTSBURGH","u":"L","o":"individual","sf":3300,"v":6600}},{"type":"Feature","geometry":{"type":"Point","coordinates":[-80.02769,40.39467]},"properties":{"p":"0062P00276000000","a":"KENILWORTH ST","m":"19th Ward - PITTSBURGH","u":"L","o":"corp","sf":439,"v":100}},{"type":"Feature","geometry":{"type":"Point","coordinates":[-80.02194,40.39891]},"properties":{"p":"0062L00096000000","a":"2418 PIONEER AVE","m":"19th Ward - PITTSBURGH","u":"L","o":"individual","sf":4324,"v":24200}},{"type":"Feature","geometry":{"type":"Point","coordinates":[-80.02473,40.40535]},"properties":{"p":"0035P00123000000","a":"MILLIE ST","m":"19th Ward - PITTSBURGH","u":"L","o":"individual","sf":6050,"v":20100}},{"type":"Feature","geometry":{"type":"Point","coordinates":[-80.02183,40.40547]},"properties":{"p":"0035R00229000000","a":"KIRALFY AVE","m":"19th Ward - PITTSBURGH","u":"L","o":"individual","sf":550,"v":1100}},{"type":"Feature","geometry":{"type":"Point","coordinates":[-80.02167,40.40508]},"properties":{"p":"0035R00235000000","a":"1900 KIRALFY AVE","m":"19th Ward - PITTSBURGH","u":"L","o":"individual","sf":1887,"v":700}},{"type":"Feature","geometry":{"type":"Point","coordinates":[-80.02897,40.39618]},"properties":{"p":"0062N00087000000","a":"2689 AMMAN ST","m":"19th Ward - PITTSBURGH","u":"L","o":"individual","sf":5308,"v":13000}},{"type":"Feature","geometry":{"type":"Point","coordinates":[-80.02591,40.40321]},"properties":{"p":"0062B00179000000","a":"PALM BEACH AVE","m":"19th Ward - PITTSBURGH","u":"L","o":"individual","sf":3075,"v":6200}},{"type":"Feature","geometry":{"type":"Point","coordinates":[-80.02592,40.40346]},"properties":{"p":"0062B00182000000","a":"2215 PALM BEACH AVE","m":"19th Ward - PITTSBURGH","u":"L","o":"individual","sf":3075,"v":6200}},{"type":"Feature","geometry":{"type":"Point","coordinates":[-80.02946,40.3999]},"properties":{"p":"0062E00156000000","a":"MACKINAW AVE","m":"19th Ward - PITTSBURGH","u":"L","o":"individual","sf":1260,"v":2500}},{"type":"Feature","geometry":{"type":"Point","coordinates":[-80.02931,40.39987]},"properties":{"p":"0062E00160000000","a":"2646 INGOMAR ST","m":"19th Ward - PITTSBURGH","u":"L","o":"individual","sf":2100,"v":4200}},{"type":"Feature","geometry":{"type":"Point","coordinates":[-80.02035,40.39769]},"properties":{"p":"0062L00334000000","a":"GALLION AVE","m":"19th Ward - PITTSBURGH","u":"L","o":"individual","sf":4500,"v":11700}},{"type":"Feature","geometry":{"type":"Point","coordinates":[-80.02468,40.39078]},"properties":{"p":"0097F00042000000","a":"ARDSLEY AVE","m":"19th Ward - PITTSBURGH","u":"L","o":"corp","sf":3600,"v":1300}},{"type":"Feature","geometry":{"type":"Point","coordinates":[-80.03021,40.40191]},"properties":{"p":"0062A00175000000","a":"2330 BENSONIA AVE","m":"19th Ward - PITTSBURGH","u":"L","o":"individual","sf":550,"v":1100}},{"type":"Feature","geometry":{"type":"Point","coordinates":[-80.03024,40.40284]},"properties":{"p":"0062A00188000000","a":"BENSONIA AVE","m":"19th Ward - PITTSBURGH","u":"L","o":"corp","sf":3000,"v":6000}},{"type":"Feature","geometry":{"type":"Point","coordinates":[-80.02686,40.40367]},"properties":{"p":"0062B00118000000","a":"SARANAC AVE","m":"19th Ward - PITTSBURGH","u":"L","o":"individual","sf":3300,"v":16600}},{"type":"Feature","geometry":{"type":"Point","coordinates":[-80.02647,40.40376]},"properties":{"p":"0062B00130000000","a":"2202 PALM BEACH AVE","m":"19th Ward - PITTSBURGH","u":"L","o":"individual","sf":3500,"v":7000}},{"type":"Feature","geometry":{"type":"Point","coordinates":[-80.0241,40.39839]},"properties":{"p":"0062L00038000000","a":"2475 WOODWARD AVE","m":"19th Ward - PITTSBURGH","u":"L","o":"corp","sf":4000,"v":10400}},{"type":"Feature","geometry":{"type":"Point","coordinates":[-80.02443,40.39815]},"properties":{"p":"0062L00042000000","a":"PLAINVIEW AVE","m":"19th Ward - PITTSBURGH","u":"L","o":"individual","sf":4000,"v":5200}},{"type":"Feature","geometry":{"type":"Point","coordinates":[-80.0228,40.40649]},"properties":{"p":"0035R00175000000","a":"DAGMAR AVE","m":"19th Ward - PITTSBURGH","u":"L","o":"individual","sf":1100,"v":2200}},{"type":"Feature","geometry":{"type":"Point","coordinates":[-80.0228,40.40644]},"properties":{"p":"0035R00177000000","a":"DAGMAR AVE","m":"19th Ward - PITTSBURGH","u":"L","o":"individual","sf":2200,"v":800}},{"type":"Feature","geometry":{"type":"Point","coordinates":[-80.02586,40.402]},"properties":{"p":"0062B00163000000","a":"2321 PALM BEACH AVE","m":"19th Ward - PITTSBURGH","u":"L","o":"individual","sf":3075,"v":6200}},{"type":"Feature","geometry":{"type":"Point","coordinates":[-80.02632,40.40017]},"properties":{"p":"0062F00197000000","a":"PALM BEACH AVE","m":"19th Ward - PITTSBURGH","u":"L","o":"individual","sf":3300,"v":6600}},{"type":"Feature","geometry":{"type":"Point","coordinates":[-80.02635,40.40091]},"properties":{"p":"0062F00186000000","a":"PALM BEACH AVE","m":"19th Ward - PITTSBURGH","u":"L","o":"individual","sf":3300,"v":6600}},{"type":"Feature","geometry":{"type":"Point","coordinates":[-80.02001,40.40084]},"properties":{"p":"0062H00041000100","a":"2120 PIONEER AVE","m":"19th Ward - PITTSBURGH","u":"L","o":"individual","sf":1512,"v":3900}},{"type":"Feature","geometry":{"type":"Point","coordinates":[-80.0292,40.40063]},"properties":{"p":"0062E00106000000","a":"LOS ANGELES AVE","m":"19th Ward - PITTSBURGH","u":"L","o":"corp","sf":550,"v":300}},{"type":"Feature","geometry":{"type":"Point","coordinates":[-80.0227,40.39886]},"properties":{"p":"0062L00076000000","a":"PLAINVIEW AVE","m":"19th Ward - PITTSBURGH","u":"L","o":"individual","sf":4800,"v":25500}},{"type":"Feature","geometry":{"type":"Point","coordinates":[-80.02352,40.39825]},"properties":{"p":"0062L00060000000","a":"2463 PLAINVIEW AVE","m":"19th Ward - PITTSBURGH","u":"L","o":"individual","sf":4800,"v":12500}},{"type":"Feature","geometry":{"type":"Point","coordinates":[-80.02442,40.40565]},"properties":{"p":"0035P00093000000","a":"CROSBY AVE","m":"19th Ward - PITTSBURGH","u":"L","o":"individual","sf":2033,"v":4100}},{"type":"Feature","geometry":{"type":"Point","coordinates":[-80.02447,40.40567]},"properties":{"p":"0035P00094000000","a":"CROSBY AVE","m":"19th Ward - PITTSBURGH","u":"L","o":"individual","sf":1837,"v":3700}},{"type":"Feature","geometry":{"type":"Point","coordinates":[-80.0228,40.40572]},"properties":{"p":"0035R00186000000","a":"1858 DAGMAR AVE","m":"19th Ward - PITTSBURGH","u":"L","o":"individual","sf":3300,"v":6600}},{"type":"Feature","geometry":{"type":"Point","coordinates":[-80.02228,40.40567]},"properties":{"p":"0035R00193000000","a":"DAGMAR AVE","m":"19th Ward - PITTSBURGH","u":"L","o":"individual","sf":6600,"v":20100}},{"type":"Feature","geometry":{"type":"Point","coordinates":[-80.02228,40.40559]},"properties":{"p":"0035R00195000000","a":"DAGMAR AVE","m":"19th Ward - PITTSBURGH","u":"L","o":"individual","sf":3300,"v":6600}},{"type":"Feature","geometry":{"type":"Point","coordinates":[-80.02227,40.40581]},"properties":{"p":"0035R00197000000","a":"DAGMAR AVE","m":"19th Ward - PITTSBURGH","u":"L","o":"individual","sf":1100,"v":2200}},{"type":"Feature","geometry":{"type":"Point","coordinates":[-80.02227,40.40609]},"properties":{"p":"0035R00201000000","a":"DAGMAR AVE","m":"19th Ward - PITTSBURGH","u":"L","o":"individual","sf":3300,"v":6600}},{"type":"Feature","geometry":{"type":"Point","coordinates":[-80.02274,40.4054]},"properties":{"p":"0035R00150000000","a":"DAGMAR AVE","m":"19th Ward - PITTSBURGH","u":"L","o":"individual","sf":6840,"v":20200}},{"type":"Feature","geometry":{"type":"Point","coordinates":[-80.02832,40.39992]},"properties":{"p":"0062F00037000000","a":"INGOMAR ST","m":"19th Ward - PITTSBURGH","u":"L","o":"corp","sf":504,"v":1000}},{"type":"Feature","geometry":{"type":"Point","coordinates":[-80.02559,40.3979]},"properties":{"p":"0062K00273000000","a":"2532 WOODWARD AVE","m":"19th Ward - PITTSBURGH","u":"L","o":"individual","sf":4704,"v":1600}},{"type":"Feature","geometry":{"type":"Point","coordinates":[-80.03168,40.40216]},"properties":{"p":"0062A00099000000","a":"CANDACE ST","m":"19th Ward - PITTSBURGH","u":"L","o":"individual","sf":2000,"v":4000}},{"type":"Feature","geometry":{"type":"Point","coordinates":[-80.03059,40.40172]},"properties":{"p":"0062A00167000000","a":"FREMONT PL","m":"19th Ward - PITTSBURGH","u":"L","o":"individual","sf":5724,"v":4000}},{"type":"Feature","geometry":{"type":"Point","coordinates":[-80.02412,40.40556]},"properties":{"p":"0035R00034000000","a":"CROSBY AVE","m":"19th Ward - PITTSBURGH","u":"L","o":"individual","sf":5970,"v":10100}},{"type":"Feature","geometry":{"type":"Point","coordinates":[-80.03118,40.40085]},"properties":{"p":"0062E00033000000","a":"2362 FREMONT PL","m":"19th Ward - PITTSBURGH","u":"L","o":"individual","sf":3000,"v":6000}},{"type":"Feature","geometry":{"type":"Point","coordinates":[-80.02614,40.40656]},"properties":{"p":"0035P00025000000","a":"BELASCO AVE","m":"19th Ward - PITTSBURGH","u":"L","o":"individual","sf":1465,"v":2900}},{"type":"Feature","geometry":{"type":"Point","coordinates":[-80.02754,40.40051]},"properties":{"p":"0062F00081000000","a":"2616 MACKINAW AVE","m":"19th Ward - PITTSBURGH","u":"L","o":"corp","sf":3920,"v":17800}},{"type":"Feature","geometry":{"type":"Point","coordinates":[-80.02198,40.39988]},"properties":{"p":"0062G00226000000","a":"BELLE ISLE AVE","m":"19th Ward - PITTSBURGH","u":"L","o":"individual","sf":7080,"v":2400}},{"type":"Feature","geometry":{"type":"Point","coordinates":[-80.02387,40.39914]},"properties":{"p":"0062L00012000000","a":"WOODWARD AVE","m":"19th Ward - PITTSBURGH","u":"L","o":"individual","sf":4800,"v":1600}},{"type":"Feature","geometry":{"type":"Point","coordinates":[-80.02316,40.39909]},"properties":{"p":"0062L00020000000","a":"WOODWARD AVE","m":"19th Ward - PITTSBURGH","u":"L","o":"individual","sf":2000,"v":18200}},{"type":"Feature","geometry":{"type":"Point","coordinates":[-80.02782,40.40365]},"properties":{"p":"0062B00054000000","a":"VODELI ST","m":"19th Ward - PITTSBURGH","u":"L","o":"individual","sf":3300,"v":16600}},{"type":"Feature","geometry":{"type":"Point","coordinates":[-80.0211,40.40187]},"properties":{"p":"0062C00237000000","a":"WOODWARD AVE","m":"19th Ward - PITTSBURGH","u":"L","o":"individual","sf":3000,"v":7800}},{"type":"Feature","geometry":{"type":"Point","coordinates":[-80.02401,40.40637]},"properties":{"p":"0035R00006000000","a":"CATALPA ST","m":"19th Ward - PITTSBURGH","u":"L","o":"individual","sf":4810,"v":19600}},{"type":"Feature","geometry":{"type":"Point","coordinates":[-80.02402,40.40655]},"properties":{"p":"0035R00008000100","a":"1836 FALLOWFIELD AVE","m":"19th Ward - PITTSBURGH","u":"L","o":"individual","sf":653,"v":1300}},{"type":"Feature","geometry":{"type":"Point","coordinates":[-80.02748,40.39931]},"properties":{"p":"0062F00065000000","a":"VODELI ST","m":"19th Ward - PITTSBURGH","u":"L","o":"individual","sf":3420,"v":16800}},{"type":"Feature","geometry":{"type":"Point","coordinates":[-80.02757,40.39967]},"properties":{"p":"0062F00070000000","a":"VODELI ST","m":"19th Ward - PITTSBURGH","u":"L","o":"individual","sf":3150,"v":6300}},{"type":"Feature","geometry":{"type":"Point","coordinates":[-80.02066,40.40165]},"properties":{"p":"0062G00187000000","a":"WOODWARD AVE","m":"19th Ward - PITTSBURGH","u":"L","o":"corp","sf":3000,"v":20800}},{"type":"Feature","geometry":{"type":"Point","coordinates":[-80.02048,40.4014]},"properties":{"p":"0062G00193000000","a":"PLAINVIEW AVE","m":"19th Ward - PITTSBURGH","u":"L","o":"individual","sf":3000,"v":20800}},{"type":"Feature","geometry":{"type":"Point","coordinates":[-80.02732,40.40122]},"properties":{"p":"0062F00105000000","a":"SARANAC AVE","m":"19th Ward - PITTSBURGH","u":"L","o":"individual","sf":3300,"v":6600}},{"type":"Feature","geometry":{"type":"Point","coordinates":[-80.02731,40.40105]},"properties":{"p":"0062F00109000000","a":"SARANAC AVE","m":"19th Ward - PITTSBURGH","u":"L","o":"individual","sf":3300,"v":6600}},{"type":"Feature","geometry":{"type":"Point","coordinates":[-80.02078,40.40116]},"properties":{"p":"0062G00197000000","a":"PLAINVIEW AVE","m":"19th Ward - PITTSBURGH","u":"L","o":"individual","sf":3000,"v":20800}},{"type":"Feature","geometry":{"type":"Point","coordinates":[-80.02142,40.40055]},"properties":{"p":"0062G00205000000","a":"BELLE ISLE AVE","m":"19th Ward - PITTSBURGH","u":"L","o":"individual","sf":27072,"v":28000}},{"type":"Feature","geometry":{"type":"Point","coordinates":[-80.02065,40.40034]},"properties":{"p":"0062G00284000000","a":"BELLE ISLE AVE","m":"19th Ward - PITTSBURGH","u":"L","o":"corp","sf":2256,"v":800}},{"type":"Feature","geometry":{"type":"Point","coordinates":[-80.02059,40.39987]},"properties":{"p":"0062G00294000000","a":"PIONEER AVE","m":"19th Ward - PITTSBURGH","u":"L","o":"individual","sf":3854,"v":1300}},{"type":"Feature","geometry":{"type":"Point","coordinates":[-80.02777,40.40244]},"properties":{"p":"0062B00040000000","a":"VODELI ST","m":"19th Ward - PITTSBURGH","u":"L","o":"individual","sf":3300,"v":9900}},{"type":"Feature","geometry":{"type":"Point","coordinates":[-80.02777,40.40252]},"properties":{"p":"0062B00041000000","a":"VODELI ST","m":"19th Ward - PITTSBURGH","u":"L","o":"individual","sf":3300,"v":9900}},{"type":"Feature","geometry":{"type":"Point","coordinates":[-80.02541,40.39719]},"properties":{"p":"0062K00208000000","a":"BODKIN ST","m":"19th Ward - PITTSBURGH","u":"L","o":"corp","sf":11580,"v":13600}},{"type":"Feature","geometry":{"type":"Point","coordinates":[-80.02463,40.398]},"properties":{"p":"0062K00299000000","a":"PLAINVIEW AVE","m":"19th Ward - PITTSBURGH","u":"L","o":"corp","sf":3900,"v":10100}},{"type":"Feature","geometry":{"type":"Point","coordinates":[-80.02779,40.40291]},"properties":{"p":"0062B00045000000","a":"2235 VODELI ST","m":"19th Ward - PITTSBURGH","u":"L","o":"individual","sf":3300,"v":6600}},{"type":"Feature","geometry":{"type":"Point","coordinates":[-80.02641,40.40424]},"properties":{"p":"0035P00343000000","a":"PALM BEACH AVE","m":"19th Ward - PITTSBURGH","u":"L","o":"individual","sf":5712,"v":3500}},{"type":"Feature","geometry":{"type":"Point","coordinates":[-80.02403,40.4049]},"properties":{"p":"0035R00049000000","a":"1901 FALLOWFIELD AVE","m":"19th Ward - PITTSBURGH","u":"L","o":"corp","sf":34195,"v":22600}},{"type":"Feature","geometry":{"type":"Point","coordinates":[-80.02414,40.40628]},"properties":{"p":"0035R00005000000","a":"REALTY AVE","m":"19th Ward - PITTSBURGH","u":"L","o":"individual","sf":3860,"v":1300}},{"type":"Feature","geometry":{"type":"Point","coordinates":[-80.02736,40.4022]},"properties":{"p":"0062B00086000000","a":"SARANAC AVE","m":"19th Ward - PITTSBURGH","u":"L","o":"individual","sf":3300,"v":1200}},{"type":"Feature","geometry":{"type":"Point","coordinates":[-80.02496,40.40944]},"properties":{"p":"0035F00244000000","a":"BROADWAY AVE","m":"19th Ward - PITTSBURGH","u":"L","o":"individual","sf":6000,"v":12500}},{"type":"Feature","geometry":{"type":"Point","coordinates":[-80.02899,40.40846]},"properties":{"p":"0035J00094000000","a":"COAST AVE","m":"19th Ward - PITTSBURGH","u":"L","o":"individual","sf":2700,"v":5400}},{"type":"Feature","geometry":{"type":"Point","coordinates":[-80.02471,40.40795]},"properties":{"p":"0035K00255000000","a":"REALTY AVE","m":"19th Ward - PITTSBURGH","u":"L","o":"corp","sf":379,"v":800}},{"type":"Feature","geometry":{"type":"Point","coordinates":[-80.02113,40.40842]},"properties":{"p":"0035L00232000000","a":"1714 FAIR ACRES AVE","m":"19th Ward - PITTSBURGH","u":"L","o":"individual","sf":4000,"v":8000}},{"type":"Feature","geometry":{"type":"Point","coordinates":[-80.02112,40.40832]},"properties":{"p":"0035L00234000000","a":"FAIRACRES AVE","m":"19th Ward - PITTSBURGH","u":"L","o":"individual","sf":4500,"v":19000}},{"type":"Feature","geometry":{"type":"Point","coordinates":[-80.02111,40.40808]},"properties":{"p":"0035L00237000000","a":"FAIRACRES AVE","m":"19th Ward - PITTSBURGH","u":"L","o":"individual","sf":3000,"v":6000}},{"type":"Feature","geometry":{"type":"Point","coordinates":[-80.02765,40.40928]},"properties":{"p":"0035F00069000000","a":"BELASCO AVE","m":"19th Ward - PITTSBURGH","u":"L","o":"individual","sf":3000,"v":6000}},{"type":"Feature","geometry":{"type":"Point","coordinates":[-80.02766,40.40945]},"properties":{"p":"0035F00071000000","a":"BELASCO AVE","m":"19th Ward - PITTSBURGH","u":"L","o":"corp","sf":3000,"v":16000}},{"type":"Feature","geometry":{"type":"Point","coordinates":[-80.02804,40.40985]},"properties":{"p":"0035F00054000000","a":"ALVERADO AVE","m":"19th Ward - PITTSBURGH","u":"L","o":"individual","sf":3000,"v":16000}},{"type":"Feature","geometry":{"type":"Point","coordinates":[-80.02803,40.40968]},"properties":{"p":"0035F00056000000","a":"ALVERADO AVE","m":"19th Ward - PITTSBURGH","u":"L","o":"individual","sf":3000,"v":6000}},{"type":"Feature","geometry":{"type":"Point","coordinates":[-80.02803,40.4096]},"properties":{"p":"0035F00057000000","a":"ALVERADO AVE","m":"19th Ward - PITTSBURGH","u":"L","o":"corp","sf":3000,"v":16000}},{"type":"Feature","geometry":{"type":"Point","coordinates":[-80.02801,40.40927]},"properties":{"p":"0035F00061000000","a":"ALVERADO AVE","m":"19th Ward - PITTSBURGH","u":"L","o":"individual","sf":3000,"v":6000}},{"type":"Feature","geometry":{"type":"Point","coordinates":[-80.02801,40.40919]},"properties":{"p":"0035F00062000000","a":"ALVERADO AVE","m":"19th Ward - PITTSBURGH","u":"L","o":"individual","sf":3000,"v":6000}},{"type":"Feature","geometry":{"type":"Point","coordinates":[-80.02147,40.4079]},"properties":{"p":"0035L00211000000","a":"KIRALFY AVE","m":"19th Ward - PITTSBURGH","u":"L","o":"individual","sf":3000,"v":1200}},{"type":"Feature","geometry":{"type":"Point","coordinates":[-80.02148,40.40831]},"properties":{"p":"0035L00216000000","a":"KIRALFY AVE","m":"19th Ward - PITTSBURGH","u":"L","o":"individual","sf":3000,"v":6000}},{"type":"Feature","geometry":{"type":"Point","coordinates":[-80.02149,40.40852]},"properties":{"p":"0035L00219000000","a":"1705 KIRALFY AVE","m":"19th Ward - PITTSBURGH","u":"L","o":"individual","sf":2000,"v":4000}},{"type":"Feature","geometry":{"type":"Point","coordinates":[-80.02394,40.40924]},"properties":{"p":"0035G00066000000","a":"FALLOWFIELD AVE","m":"19th Ward - PITTSBURGH","u":"L","o":"corp","sf":3000,"v":6000}},{"type":"Feature","geometry":{"type":"Point","coordinates":[-80.02146,40.40774]},"properties":{"p":"0035L00209000000","a":"KIRALFY AVE","m":"19th Ward - PITTSBURGH","u":"L","o":"individual","sf":3000,"v":16000}},{"type":"Feature","geometry":{"type":"Point","coordinates":[-80.02928,40.40469]},"properties":{"p":"0035N00311000000","a":"LOS ANGELES AVE","m":"19th Ward - PITTSBURGH","u":"L","o":"individual","sf":4400,"v":8800}},{"type":"Feature","geometry":{"type":"Point","coordinates":[-80.02056,40.40785]},"properties":{"p":"0035L00265000000","a":"FAIRACRES AVE","m":"19th Ward - PITTSBURGH","u":"L","o":"individual","sf":3000,"v":6000}},{"type":"Feature","geometry":{"type":"Point","coordinates":[-80.02057,40.40794]},"properties":{"p":"0035L00266000000","a":"FAIRACRES AVE","m":"19th Ward - PITTSBURGH","u":"L","o":"individual","sf":3000,"v":6000}},{"type":"Feature","geometry":{"type":"Point","coordinates":[-80.02058,40.40811]},"properties":{"p":"0035L00268000000","a":"FAIRACRES AVE","m":"19th Ward - PITTSBURGH","u":"L","o":"individual","sf":3000,"v":1100}},{"type":"Feature","geometry":{"type":"Point","coordinates":[-80.02058,40.40816]},"properties":{"p":"0035L00269000000","a":"FAIRACRES AVE","m":"19th Ward - PITTSBURGH","u":"L","o":"individual","sf":3000,"v":6000}},{"type":"Feature","geometry":{"type":"Point","coordinates":[-80.0211,40.40983]},"properties":{"p":"0035G00250000000","a":"CAPE MAY AVE","m":"19th Ward - PITTSBURGH","u":"L","o":"individual","sf":6000,"v":20100}},{"type":"Feature","geometry":{"type":"Point","coordinates":[-80.02034,40.40987]},"properties":{"p":"0035G00262000000","a":"CAPE MAY AVE","m":"19th Ward - PITTSBURGH","u":"L","o":"individual","sf":2000,"v":700}},{"type":"Feature","geometry":{"type":"Point","coordinates":[-80.0204,40.40991]},"properties":{"p":"0035G00263000000","a":"CAPE MAY AVE","m":"19th Ward - PITTSBURGH","u":"L","o":"individual","sf":2000,"v":14000}},{"type":"Feature","geometry":{"type":"Point","coordinates":[-80.02045,40.40994]},"properties":{"p":"0035G00264000000","a":"CAPE MAY AVE","m":"19th Ward - PITTSBURGH","u":"L","o":"individual","sf":2000,"v":700}},{"type":"Feature","geometry":{"type":"Point","coordinates":[-80.02908,40.40849]},"properties":{"p":"0035J00095000000","a":"COAST AVE","m":"19th Ward - PITTSBURGH","u":"L","o":"individual","sf":2700,"v":5400}},{"type":"Feature","geometry":{"type":"Point","coordinates":[-80.02987,40.40877]},"properties":{"p":"0035J00104000000","a":"COAST AVE","m":"19th Ward - PITTSBURGH","u":"L","o":"individual","sf":2960,"v":1000}},{"type":"Feature","geometry":{"type":"Point","coordinates":[-80.02982,40.40849]},"properties":{"p":"0035J00132000000","a":"CAGWIN ST","m":"19th Ward - PITTSBURGH","u":"L","o":"individual","sf":2490,"v":900}},{"type":"Feature","geometry":{"type":"Point","coordinates":[-80.02944,40.40835]},"properties":{"p":"0035J00137000000","a":"CAGWIN ST","m":"19th Ward - PITTSBURGH","u":"L","o":"individual","sf":2730,"v":1000}},{"type":"Feature","geometry":{"type":"Point","coordinates":[-80.02616,40.40724]},"properties":{"p":"0035K00210000000","a":"BROADWAY AVE","m":"19th Ward - PITTSBURGH","u":"L","o":"individual","sf":3000,"v":6000}},{"type":"Feature","geometry":{"type":"Point","coordinates":[-80.02644,40.4071]},"properties":{"p":"0035K00213000000","a":"1809 BROADWAY AVE","m":"19th Ward - PITTSBURGH","u":"L","o":"individual","sf":3000,"v":6000}},{"type":"Feature","geometry":{"type":"Point","coordinates":[-80.02202,40.40797]},"properties":{"p":"0035L00175000000","a":"KIRALFY AVE","m":"19th Ward - PITTSBURGH","u":"L","o":"individual","sf":3300,"v":16600}},{"type":"Feature","geometry":{"type":"Point","coordinates":[-80.02934,40.40831]},"properties":{"p":"0035J00138000000","a":"CAGWIN ST","m":"19th Ward - PITTSBURGH","u":"L","o":"individual","sf":2760,"v":1000}},{"type":"Feature","geometry":{"type":"Point","coordinates":[-80.02915,40.40824]},"properties":{"p":"0035J00140000000","a":"102 CAGWIN ST","m":"19th Ward - PITTSBURGH","u":"L","o":"individual","sf":2880,"v":1000}},{"type":"Feature","geometry":{"type":"Point","coordinates":[-80.02066,40.40771]},"properties":{"p":"0035L00263000000","a":"1538 TONOPAH AVE","m":"19th Ward - PITTSBURGH","u":"L","o":"individual","sf":3199,"v":6400}},{"type":"Feature","geometry":{"type":"Point","coordinates":[-80.02243,40.40828]},"properties":{"p":"0035L00154000000","a":"DAGMAR AVE","m":"19th Ward - PITTSBURGH","u":"L","o":"individual","sf":3300,"v":6600}},{"type":"Feature","geometry":{"type":"Point","coordinates":[-80.02205,40.40855]},"properties":{"p":"0035L00168000000","a":"KIRALFY AVE","m":"19th Ward - PITTSBURGH","u":"L","o":"individual","sf":3300,"v":6600}},{"type":"Feature","geometry":{"type":"Point","coordinates":[-80.02535,40.40999]},"properties":{"p":"0035F00236000000","a":"METHYL ST","m":"19th Ward - PITTSBURGH","u":"L","o":"corp","sf":1400,"v":2800}},{"type":"Feature","geometry":{"type":"Point","coordinates":[-80.02533,40.4096]},"properties":{"p":"0035F00240000000","a":"METHYL ST","m":"19th Ward - PITTSBURGH","u":"L","o":"individual","sf":3000,"v":6000}},{"type":"Feature","geometry":{"type":"Point","coordinates":[-80.03057,40.40507]},"properties":{"p":"0035N00193000000","a":"BOUSTEAD ST","m":"19th Ward - PITTSBURGH","u":"L","o":"individual","sf":3195,"v":6400}},{"type":"Feature","geometry":{"type":"Point","coordinates":[-80.02297,40.40802]},"properties":{"p":"0035L00115000000","a":"1718 DAGMAR AVE","m":"19th Ward - PITTSBURGH","u":"L","o":"individual","sf":3000,"v":6000}},{"type":"Feature","geometry":{"type":"Point","coordinates":[-80.02296,40.40785]},"properties":{"p":"0035L00117000000","a":"DAGMAR AVE","m":"19th Ward - PITTSBURGH","u":"L","o":"individual","sf":3000,"v":6000}},{"type":"Feature","geometry":{"type":"Point","coordinates":[-80.02855,40.40943]},"properties":{"p":"0035F00007000000","a":"1624 ALVERADO AVE","m":"19th Ward - PITTSBURGH","u":"L","o":"individual","sf":3000,"v":6000}},{"type":"Feature","geometry":{"type":"Point","coordinates":[-80.02241,40.40779]},"properties":{"p":"0035L00148000000","a":"DAGMAR AVE","m":"19th Ward - PITTSBURGH","u":"L","o":"corp","sf":3300,"v":6600}},{"type":"Feature","geometry":{"type":"Point","coordinates":[-80.02241,40.40788]},"properties":{"p":"0035L00149000000","a":"DAGMAR AVE","m":"19th Ward - PITTSBURGH","u":"L","o":"individual","sf":3300,"v":6600}},{"type":"Feature","geometry":{"type":"Point","coordinates":[-80.03017,40.40579]},"properties":{"p":"0035N00151000000","a":"BOUSTEAD ST","m":"19th Ward - PITTSBURGH","u":"L","o":"individual","sf":3450,"v":6900}},{"type":"Feature","geometry":{"type":"Point","coordinates":[-80.02581,40.40839]},"properties":{"p":"0035K00167000000","a":"COAST AVE","m":"19th Ward - PITTSBURGH","u":"L","o":"individual","sf":4488,"v":9000}},{"type":"Feature","geometry":{"type":"Point","coordinates":[-80.02582,40.4088]},"properties":{"p":"0035K00173000000","a":"1662 METHYL ST","m":"19th Ward - PITTSBURGH","u":"L","o":"individual","sf":2600,"v":1000}},{"type":"Feature","geometry":{"type":"Point","coordinates":[-80.02228,40.40688]},"properties":{"p":"0035L00135000000","a":"DAGMAR AVE","m":"19th Ward - PITTSBURGH","u":"L","o":"individual","sf":3300,"v":6600}},{"type":"Feature","geometry":{"type":"Point","coordinates":[-80.02228,40.407]},"properties":{"p":"0035L00136000000","a":"DAGMAR AVE","m":"19th Ward - PITTSBURGH","u":"L","o":"individual","sf":9900,"v":3300}},{"type":"Feature","geometry":{"type":"Point","coordinates":[-80.03154,40.40513]},"properties":{"p":"0035N00134000000","a":"BOUSTEAD ST","m":"19th Ward - PITTSBURGH","u":"L","o":"individual","sf":2338,"v":4700}},{"type":"Feature","geometry":{"type":"Point","coordinates":[-80.03133,40.4052]},"properties":{"p":"0035N00136000000","a":"BOUSTEAD ST","m":"19th Ward - PITTSBURGH","u":"L","o":"individual","sf":3420,"v":6800}},{"type":"Feature","geometry":{"type":"Point","coordinates":[-80.0267,40.40847]},"properties":{"p":"0035K00124000000","a":"RUTHERFORD AVE","m":"19th Ward - PITTSBURGH","u":"L","o":"individual","sf":3000,"v":6000}},{"type":"Feature","geometry":{"type":"Point","coordinates":[-80.03037,40.40954]},"properties":{"p":"0035E00108000000","a":"CANTON AVE","m":"19th Ward - PITTSBURGH","u":"L","o":"corp","sf":3000,"v":1100}},{"type":"Feature","geometry":{"type":"Point","coordinates":[-80.03038,40.4097]},"properties":{"p":"0035E00110000000","a":"CANTON AVE","m":"19th Ward - PITTSBURGH","u":"L","o":"corp","sf":3000,"v":6000}},{"type":"Feature","geometry":{"type":"Point","coordinates":[-80.03039,40.40983]},"properties":{"p":"0035E00111000000","a":"CANTON AVE","m":"19th Ward - PITTSBURGH","u":"L","o":"corp","sf":6000,"v":20100}},{"type":"Feature","geometry":{"type":"Point","coordinates":[-80.03039,40.40995]},"properties":{"p":"0035E00113000000","a":"CANTON AVE","m":"19th Ward - PITTSBURGH","u":"L","o":"individual","sf":3000,"v":1100}},{"type":"Feature","geometry":{"type":"Point","coordinates":[-80.02584,40.40903]},"properties":{"p":"0035F00188000000","a":"METHYL ST","m":"19th Ward - PITTSBURGH","u":"L","o":"individual","sf":2500,"v":5000}},{"type":"Feature","geometry":{"type":"Point","coordinates":[-80.02208,40.40939]},"properties":{"p":"0035G00161000000","a":"KIRALFY AVE","m":"19th Ward - PITTSBURGH","u":"L","o":"individual","sf":3300,"v":6600}},{"type":"Feature","geometry":{"type":"Point","coordinates":[-80.03314,40.40171]},"properties":{"p":"0063H00191000000","a":"CONNECTICUT AVE","m":"20th Ward - PITTSBURGH","u":"L","o":"individual","sf":20045,"v":17400}},{"type":"Feature","geometry":{"type":"Point","coordinates":[-80.02668,40.40805]},"properties":{"p":"0035K00119000000","a":"RUTHERFORD AVE","m":"19th Ward - PITTSBURGH","u":"L","o":"individual","sf":3000,"v":6000}},{"type":"Feature","geometry":{"type":"Point","coordinates":[-80.02333,40.40792]},"properties":{"p":"0035L00087000000","a":"1721 FALLOWFIELD AVE","m":"19th Ward - PITTSBURGH","u":"L","o":"individual","sf":3000,"v":6000}},{"type":"Feature","geometry":{"type":"Point","coordinates":[-80.02333,40.40801]},"properties":{"p":"0035L00087000100","a":"1721 FALLOWFIELD AVE","m":"19th Ward - PITTSBURGH","u":"L","o":"individual","sf":3000,"v":6000}},{"type":"Feature","geometry":{"type":"Point","coordinates":[-80.02336,40.40856]},"properties":{"p":"0035L00094000000","a":"FALLOWFIELD AVE","m":"19th Ward - PITTSBURGH","u":"L","o":"individual","sf":6000,"v":20100}},{"type":"Feature","geometry":{"type":"Point","coordinates":[-80.02336,40.40881]},"properties":{"p":"0035L00097000000","a":"FALLOWFIELD AVE","m":"19th Ward - PITTSBURGH","u":"L","o":"corp","sf":2800,"v":1000}},{"type":"Feature","geometry":{"type":"Point","coordinates":[-80.02703,40.4078]},"properties":{"p":"0035K00102000000","a":"BELASCO AVE","m":"19th Ward - PITTSBURGH","u":"L","o":"individual","sf":3000,"v":6000}},{"type":"Feature","geometry":{"type":"Point","coordinates":[-80.02708,40.40757]},"properties":{"p":"0035K00105000000","a":"BELASCO AVE","m":"19th Ward - PITTSBURGH","u":"L","o":"individual","sf":4834,"v":9700}},{"type":"Feature","geometry":{"type":"Point","coordinates":[-80.02695,40.40742]},"properties":{"p":"0035K00108000000","a":"BROADWAY AVE","m":"19th Ward - PITTSBURGH","u":"L","o":"individual","sf":3000,"v":6000}},{"type":"Feature","geometry":{"type":"Point","coordinates":[-80.02246,40.40899]},"properties":{"p":"0035G00137000000","a":"1659 DAGMAR AVE","m":"19th Ward - PITTSBURGH","u":"L","o":"individual","sf":2915,"v":5800}},{"type":"Feature","geometry":{"type":"Point","coordinates":[-80.0276,40.4082]},"properties":{"p":"0035K00075000000","a":"BELASCO AVE","m":"19th Ward - PITTSBURGH","u":"L","o":"individual","sf":3000,"v":6000}},{"type":"Feature","geometry":{"type":"Point","coordinates":[-80.0276,40.40828]},"properties":{"p":"0035K00076000000","a":"BELASCO AVE","m":"19th Ward - PITTSBURGH","u":"L","o":"individual","sf":3000,"v":6000}},{"type":"Feature","geometry":{"type":"Point","coordinates":[-80.02715,40.40995]},"properties":{"p":"0035F00113000000","a":"BELASCO AVE","m":"19th Ward - PITTSBURGH","u":"L","o":"individual","sf":3000,"v":16000}},{"type":"Feature","geometry":{"type":"Point","coordinates":[-80.02867,40.40519]},"properties":{"p":"0035N00321000000","a":"LOS ANGELES AVE","m":"19th Ward - PITTSBURGH","u":"L","o":"individual","sf":1185,"v":2400}},{"type":"Feature","geometry":{"type":"Point","coordinates":[-80.02786,40.40743]},"properties":{"p":"0023K00023000002","a":"CAGWIN ST","m":"19th Ward - PITTSBURGH","u":"L","o":"corp","sf":3317,"v":1500}},{"type":"Feature","geometry":{"type":"Point","coordinates":[-80.02339,40.40919]},"properties":{"p":"0035G00074000000","a":"FALLOWFIELD AVE","m":"19th Ward - PITTSBURGH","u":"L","o":"individual","sf":3000,"v":6000}},{"type":"Feature","geometry":{"type":"Point","coordinates":[-80.02901,40.40818]},"properties":{"p":"0035J00141000000","a":"CAGWIN ST","m":"19th Ward - PITTSBURGH","u":"L","o":"individual","sf":6000,"v":5000}},{"type":"Feature","geometry":{"type":"Point","coordinates":[-80.02307,40.40986]},"properties":{"p":"0035G00125000000","a":"1626 DAGMAR AVE","m":"19th Ward - PITTSBURGH","u":"L","o":"individual","sf":3000,"v":1100}},{"type":"Feature","geometry":{"type":"Point","coordinates":[-80.02427,40.407]},"properties":{"p":"0035L00007000000","a":"REALTY AVE","m":"19th Ward - PITTSBURGH","u":"L","o":"individual","sf":3386,"v":16800}},{"type":"Feature","geometry":{"type":"Point","coordinates":[-80.02796,40.4084]},"properties":{"p":"0035K00058000000","a":"801 COAST AVE","m":"19th Ward - PITTSBURGH","u":"L","o":"corp","sf":6000,"v":18100}},{"type":"Feature","geometry":{"type":"Point","coordinates":[-80.02796,40.40827]},"properties":{"p":"0035K00059000000","a":"801 COAST AVE","m":"19th Ward - PITTSBURGH","u":"L","o":"corp","sf":3000,"v":1000}},{"type":"Feature","geometry":{"type":"Point","coordinates":[-80.02795,40.40819]},"properties":{"p":"0035K00060000000","a":"801 COAST AVE","m":"19th Ward - PITTSBURGH","u":"L","o":"corp","sf":3000,"v":1000}},{"type":"Feature","geometry":{"type":"Point","coordinates":[-80.02795,40.40811]},"properties":{"p":"0035K00061000000","a":"801 COAST AVE","m":"19th Ward - PITTSBURGH","u":"L","o":"corp","sf":3000,"v":1000}},{"type":"Feature","geometry":{"type":"Point","coordinates":[-80.02794,40.40795]},"properties":{"p":"0035K00063000000","a":"801 COAST AVE","m":"19th Ward - PITTSBURGH","u":"L","o":"corp","sf":3000,"v":1000}},{"type":"Feature","geometry":{"type":"Point","coordinates":[-80.02793,40.40774]},"properties":{"p":"0035K00066000000","a":"ALVERADO AVE","m":"19th Ward - PITTSBURGH","u":"L","o":"individual","sf":6000,"v":20100}},{"type":"Feature","geometry":{"type":"Point","coordinates":[-80.02757,40.40775]},"properties":{"p":"0035K00068000000","a":"BELASCO AVE","m":"19th Ward - PITTSBURGH","u":"L","o":"corp","sf":6000,"v":10000}},{"type":"Feature","geometry":{"type":"Point","coordinates":[-80.02984,40.40971]},"properties":{"p":"0035E00092000000","a":"CANTON AVE","m":"19th Ward - PITTSBURGH","u":"L","o":"individual","sf":3000,"v":1100}},{"type":"Feature","geometry":{"type":"Point","coordinates":[-80.02983,40.40964]},"properties":{"p":"0035E00093000000","a":"CANTON AVE","m":"19th Ward - PITTSBURGH","u":"L","o":"individual","sf":3000,"v":1000}},{"type":"Feature","geometry":{"type":"Point","coordinates":[-80.02983,40.40955]},"properties":{"p":"0035E00094000000","a":"1623 CANTON AVE","m":"19th Ward - PITTSBURGH","u":"L","o":"individual","sf":3000,"v":400}},{"type":"Feature","geometry":{"type":"Point","coordinates":[-80.03032,40.40928]},"properties":{"p":"0035E00103000000","a":"CANTON AVE","m":"19th Ward - PITTSBURGH","u":"L","o":"corp","sf":6097,"v":20100}},{"type":"Feature","geometry":{"type":"Point","coordinates":[-80.03037,40.40946]},"properties":{"p":"0035E00107000000","a":"CANTON AVE","m":"19th Ward - PITTSBURGH","u":"L","o":"corp","sf":3000,"v":1100}},{"type":"Feature","geometry":{"type":"Point","coordinates":[-80.02392,40.40843]},"properties":{"p":"0035L00039000000","a":"FALLOWFIELD AVE","m":"19th Ward - PITTSBURGH","u":"L","o":"individual","sf":1725,"v":3500}},{"type":"Feature","geometry":{"type":"Point","coordinates":[-80.02402,40.40765]},"properties":{"p":"0035L00054000000","a":"FALLOWFIELD AVE","m":"19th Ward - PITTSBURGH","u":"L","o":"individual","sf":2479,"v":15000}},{"type":"Feature","geometry":{"type":"Point","coordinates":[-80.02944,40.40907]},"properties":{"p":"0035E00042000000","a":"NAPOLEON ST","m":"19th Ward - PITTSBURGH","u":"L","o":"individual","sf":3000,"v":450}},{"type":"Feature","geometry":{"type":"Point","coordinates":[-80.02944,40.40915]},"properties":{"p":"0035E00043000000","a":"NAPOLEON ST","m":"19th Ward - PITTSBURGH","u":"L","o":"individual","sf":3000,"v":450}},{"type":"Feature","geometry":{"type":"Point","coordinates":[-80.02945,40.4093]},"properties":{"p":"0035E00044000000","a":"NAPOLEON ST","m":"19th Ward - PITTSBURGH","u":"L","o":"individual","sf":6000,"v":900}},{"type":"Feature","geometry":{"type":"Point","coordinates":[-80.02947,40.40956]},"properties":{"p":"0035E00048000000","a":"1620 NAPOLEON ST","m":"19th Ward - PITTSBURGH","u":"L","o":"individual","sf":3000,"v":6000}},{"type":"Feature","geometry":{"type":"Point","coordinates":[-80.02947,40.40964]},"properties":{"p":"0035E00049000000","a":"1620 NAPOLEON ST","m":"19th Ward - PITTSBURGH","u":"L","o":"individual","sf":3000,"v":6000}},{"type":"Feature","geometry":{"type":"Point","coordinates":[-80.02948,40.40981]},"properties":{"p":"0035E00051000000","a":"NAPOLEON ST","m":"19th Ward - PITTSBURGH","u":"L","o":"individual","sf":3000,"v":6000}},{"type":"Feature","geometry":{"type":"Point","coordinates":[-80.02851,40.40873]},"properties":{"p":"0035K00045000000","a":"ALVERADO AVE","m":"19th Ward - PITTSBURGH","u":"L","o":"corp","sf":2600,"v":1000}},{"type":"Feature","geometry":{"type":"Point","coordinates":[-80.02894,40.40999]},"properties":{"p":"0035E00027000000","a":"NAPOLEON ST","m":"19th Ward - PITTSBURGH","u":"L","o":"individual","sf":3000,"v":16000}},{"type":"Feature","geometry":{"type":"Point","coordinates":[-80.02893,40.40974]},"properties":{"p":"0035E00030000000","a":"NAPOLEON ST","m":"19th Ward - PITTSBURGH","u":"L","o":"corp","sf":3000,"v":16000}},{"type":"Feature","geometry":{"type":"Point","coordinates":[-80.02893,40.40966]},"properties":{"p":"0035E00031000000","a":"NAPOLEON ST","m":"19th Ward - PITTSBURGH","u":"L","o":"corp","sf":3000,"v":16000}},{"type":"Feature","geometry":{"type":"Point","coordinates":[-80.02711,40.40922]},"properties":{"p":"0035F00122000000","a":"BELASCO AVE","m":"19th Ward - PITTSBURGH","u":"L","o":"individual","sf":3000,"v":1100}},{"type":"Feature","geometry":{"type":"Point","coordinates":[-80.0271,40.40913]},"properties":{"p":"0035F00123000000","a":"BELASCO AVE","m":"19th Ward - PITTSBURGH","u":"L","o":"individual","sf":3000,"v":1100}},{"type":"Feature","geometry":{"type":"Point","coordinates":[-80.02673,40.40906]},"properties":{"p":"0035F00127000000","a":"RUTHERFORD AVE","m":"19th Ward - PITTSBURGH","u":"L","o":"individual","sf":3000,"v":6000}},{"type":"Feature","geometry":{"type":"Point","coordinates":[-80.02674,40.40914]},"properties":{"p":"0035F00128000000","a":"RUTHERFORD AVE","m":"19th Ward - PITTSBURGH","u":"L","o":"individual","sf":3000,"v":6000}},{"type":"Feature","geometry":{"type":"Point","coordinates":[-80.02675,40.4093]},"properties":{"p":"0035F00130000000","a":"1636 RUTHERFORD AVE","m":"19th Ward - PITTSBURGH","u":"L","o":"individual","sf":3000,"v":6000}},{"type":"Feature","geometry":{"type":"Point","coordinates":[-80.03509,40.40238]},"properties":{"p":"0063D00092000000","a":"LOUISIANA AVE","m":"20th Ward - PITTSBURGH","u":"L","o":"individual","sf":1000,"v":400}},{"type":"Feature","geometry":{"type":"Point","coordinates":[-80.03593,40.40119]},"properties":{"p":"0063H00036000000","a":"LOUISIANA AVE","m":"20th Ward - PITTSBURGH","u":"L","o":"individual","sf":3920,"v":6300}},{"type":"Feature","geometry":{"type":"Point","coordinates":[-80.03308,40.40191]},"properties":{"p":"0063D00030000000","a":"CONNECTICUT AVE","m":"20th Ward - PITTSBURGH","u":"L","o":"individual","sf":3872,"v":6200}},{"type":"Feature","geometry":{"type":"Point","coordinates":[-80.03336,40.40225]},"properties":{"p":"0063D00045000000","a":"BANKSVILLE RD","m":"20th Ward - PITTSBURGH","u":"L","o":"individual","sf":11800,"v":16600}},{"type":"Feature","geometry":{"type":"Point","coordinates":[-80.03329,40.40253]},"properties":{"p":"0063D00062000000","a":"LOUISIANA AVE","m":"20th Ward - PITTSBURGH","u":"L","o":"individual","sf":23060,"v":17600}},{"type":"Feature","geometry":{"type":"Point","coordinates":[-80.03999,40.40234]},"properties":{"p":"0063C00150000000","a":"POTOMAC AVE","m":"20th Ward - PITTSBURGH","u":"L","o":"individual","sf":2030,"v":700}},{"type":"Feature","geometry":{"type":"Point","coordinates":[-80.03993,40.40229]},"properties":{"p":"0063C00155000000","a":"POTOMAC AVE","m":"20th Ward - PITTSBURGH","u":"L","o":"individual","sf":3915,"v":1300}},{"type":"Feature","geometry":{"type":"Point","coordinates":[-80.0352,40.40118]},"properties":{"p":"0063H00079000000","a":"LOUISIANA AVE","m":"20th Ward - PITTSBURGH","u":"L","o":"individual","sf":7480,"v":16200}},{"type":"Feature","geometry":{"type":"Point","coordinates":[-80.03492,40.40144]},"properties":{"p":"0063H00083000000","a":"ORDINANCE AVE","m":"20th Ward - PITTSBURGH","u":"L","o":"individual","sf":9900,"v":16400}},{"type":"Feature","geometry":{"type":"Point","coordinates":[-80.03747,40.4045]},"properties":{"p":"0036R00014000000","a":"BELLINGHAM AVE","m":"20th Ward - PITTSBURGH","u":"L","o":"individual","sf":3659,"v":5900}},{"type":"Feature","geometry":{"type":"Point","coordinates":[-80.03713,40.40533]},"properties":{"p":"0036R00046000000","a":"BELLINGHAM AVE","m":"20th Ward - PITTSBURGH","u":"L","o":"individual","sf":1692,"v":2700}},{"type":"Feature","geometry":{"type":"Point","coordinates":[-80.03169,40.40747]},"properties":{"p":"0035J00302000000","a":"HILLCREST PL","m":"20th Ward - PITTSBURGH","u":"L","o":"individual","sf":8680,"v":16300}},{"type":"Feature","geometry":{"type":"Point","coordinates":[-80.02933,40.40664]},"properties":{"p":"0035J00315000000","a":"1938 BROADWAY AVE","m":"20th Ward - PITTSBURGH","u":"L","o":"individual","sf":18382,"v":9200}},{"type":"Feature","geometry":{"type":"Point","coordinates":[-80.03267,40.40553]},"properties":{"p":"0035N00029000000","a":"HILLCREST PL","m":"20th Ward - PITTSBURGH","u":"L","o":"individual","sf":3750,"v":14000}},{"type":"Feature","geometry":{"type":"Point","coordinates":[-80.03629,40.40744]},"properties":{"p":"0036M00052000000","a":"YOUNGER AVE","m":"20th Ward - PITTSBURGH","u":"L","o":"individual","sf":5500,"v":15100}},{"type":"Feature","geometry":{"type":"Point","coordinates":[-80.03607,40.40758]},"properties":{"p":"0036M00056000000","a":"YOUNGER AVE","m":"20th Ward - PITTSBURGH","u":"L","o":"individual","sf":4000,"v":12000}},{"type":"Feature","geometry":{"type":"Point","coordinates":[-80.03267,40.4056]},"properties":{"p":"0035N00030000000","a":"726 HILLGROVE AVE","m":"20th Ward - PITTSBURGH","u":"L","o":"individual","sf":3700,"v":5900}},{"type":"Feature","geometry":{"type":"Point","coordinates":[-80.03349,40.40805]},"properties":{"p":"0036M00199000000","a":"BANKSVILLE RD","m":"20th Ward - PITTSBURGH","u":"L","o":"individual","sf":7520,"v":30200}},{"type":"Feature","geometry":{"type":"Point","coordinates":[-80.03341,40.40809]},"properties":{"p":"0036M00201000000","a":"BANKSVILLE RD","m":"20th Ward - PITTSBURGH","u":"L","o":"individual","sf":1720,"v":5200}},{"type":"Feature","geometry":{"type":"Point","coordinates":[-80.0328,40.40875]},"properties":{"p":"0036M00204000000","a":"BANKSVILLE RD","m":"20th Ward - PITTSBURGH","u":"L","o":"corp","sf":38476,"v":5000}},{"type":"Feature","geometry":{"type":"Point","coordinates":[-80.03207,40.40708]},"properties":{"p":"0035J00041000000","a":"HILLGROVE AVE","m":"20th Ward - PITTSBURGH","u":"L","o":"individual","sf":1480,"v":500}},{"type":"Feature","geometry":{"type":"Point","coordinates":[-80.03081,40.40895]},"properties":{"p":"0035J00118000000","a":"COAST AVE","m":"20th Ward - PITTSBURGH","u":"L","o":"individual","sf":1500,"v":600}},{"type":"Feature","geometry":{"type":"Point","coordinates":[-80.02971,40.4081]},"properties":{"p":"0035J00153000000","a":"CAGWIN ST","m":"20th Ward - PITTSBURGH","u":"L","o":"individual","sf":15751,"v":17000}},{"type":"Feature","geometry":{"type":"Point","coordinates":[-80.02992,40.40809]},"properties":{"p":"0035J00157000000","a":"CAGWIN ST","m":"20th Ward - PITTSBURGH","u":"L","o":"individual","sf":3000,"v":1000}},{"type":"Feature","geometry":{"type":"Point","coordinates":[-80.03001,40.40813]},"properties":{"p":"0035J00158000000","a":"CAGWIN ST","m":"20th Ward - PITTSBURGH","u":"L","o":"individual","sf":3000,"v":1000}},{"type":"Feature","geometry":{"type":"Point","coordinates":[-80.03063,40.40839]},"properties":{"p":"0035J00166000000","a":"CAGWIN ST","m":"20th Ward - PITTSBURGH","u":"L","o":"individual","sf":11800,"v":16600}},{"type":"Feature","geometry":{"type":"Point","coordinates":[-80.03207,40.40712]},"properties":{"p":"0035J00043000000","a":"HILLGROVE AVE","m":"20th Ward - PITTSBURGH","u":"L","o":"individual","sf":3700,"v":5900}},{"type":"Feature","geometry":{"type":"Point","coordinates":[-80.03211,40.40765]},"properties":{"p":"0035J00054000000","a":"HILLGROVE AVE","m":"20th Ward - PITTSBURGH","u":"L","o":"corp","sf":25591,"v":17900}},{"type":"Feature","geometry":{"type":"Point","coordinates":[-80.032,40.40795]},"properties":{"p":"0035J00070000000","a":"BANKSVILLE RD","m":"20th Ward - PITTSBURGH","u":"L","o":"corp","sf":57935,"v":20900}},{"type":"Feature","geometry":{"type":"Point","coordinates":[-80.03205,40.40651]},"properties":{"p":"0035N00100000000","a":"HILLCREST PL","m":"20th Ward - PITTSBURGH","u":"L","o":"individual","sf":3700,"v":1200}},{"type":"Feature","geometry":{"type":"Point","coordinates":[-80.03306,40.40896]},"properties":{"p":"0036M00100000000","a":"1726 YOUNGER AVE","m":"20th Ward - PITTSBURGH","u":"L","o":"corp","sf":8000,"v":15300}},{"type":"Feature","geometry":{"type":"Point","coordinates":[-80.03291,40.40881]},"properties":{"p":"0036M00101000000","a":"YOUNGER AVE","m":"20th Ward - PITTSBURGH","u":"L","o":"corp","sf":3456,"v":5000}},{"type":"Feature","geometry":{"type":"Point","coordinates":[-80.03279,40.40924]},"properties":{"p":"0035E00298000000","a":"CHAPPEL AVE","m":"20th Ward - PITTSBURGH","u":"L","o":"corp","sf":26136,"v":5000}},{"type":"Feature","geometry":{"type":"Point","coordinates":[-80.03248,40.40755]},"properties":{"p":"0035J00014000000","a":"HILLGROVE AVE","m":"20th Ward - PITTSBURGH","u":"L","o":"corp","sf":16732,"v":17100}},{"type":"Feature","geometry":{"type":"Point","coordinates":[-80.03459,40.40548]},"properties":{"p":"0036S00198000000","a":"WENZELL AVE","m":"20th Ward - PITTSBURGH","u":"L","o":"individual","sf":17947,"v":5500}},{"type":"Feature","geometry":{"type":"Point","coordinates":[-80.03327,40.40566]},"properties":{"p":"0036S00299000000","a":"WENZELL AVE","m":"20th Ward - PITTSBURGH","u":"L","o":"individual","sf":15442,"v":16900}},{"type":"Feature","geometry":{"type":"Point","coordinates":[-80.03205,40.4066]},"properties":{"p":"0035J00030000000","a":"HILLGROVE AVE","m":"20th Ward - PITTSBURGH","u":"L","o":"individual","sf":7400,"v":14200}},{"type":"Feature","geometry":{"type":"Point","coordinates":[-80.03206,40.40672]},"properties":{"p":"0035J00034000000","a":"HILLCREST PL","m":"20th Ward - PITTSBURGH","u":"L","o":"individual","sf":3404,"v":5500}},{"type":"Feature","geometry":{"type":"Point","coordinates":[-80.03421,40.40424]},"properties":{"p":"0036S00237000000","a":"WENZELL AVE","m":"20th Ward - PITTSBURGH","u":"L","o":"individual","sf":1950,"v":3100}},{"type":"Feature","geometry":{"type":"Point","coordinates":[-80.03476,40.40839]},"properties":{"p":"0036M00076000000","a":"YOUNGER AVE","m":"20th Ward - PITTSBURGH","u":"L","o":"individual","sf":4000,"v":1500}},{"type":"Feature","geometry":{"type":"Point","coordinates":[-80.03266,40.40645]},"properties":{"p":"0035N00040000000","a":"733 HILLGROVE AVE","m":"20th Ward - PITTSBURGH","u":"L","o":"individual","sf":14282,"v":4400}},{"type":"Feature","geometry":{"type":"Point","coordinates":[-80.02968,40.40645]},"properties":{"p":"0035N00050000000","a":"BANKSVILLE RD","m":"20th Ward - PITTSBURGH","u":"L","o":"individual","sf":18731,"v":5700}},{"type":"Feature","geometry":{"type":"Point","coordinates":[-80.03806,40.40851]},"properties":{"p":"0036L00080000000","a":"CARNAHAN RD","m":"20th Ward - PITTSBURGH","u":"L","o":"corp","sf":22956,"v":31600}},{"type":"Feature","geometry":{"type":"Point","coordinates":[-80.03839,40.40857]},"properties":{"p":"0036L00080000A00","a":"CARNAHAN RD","m":"20th Ward - PITTSBURGH","u":"L","o":"individual","sf":19880,"v":31300}},{"type":"Feature","geometry":{"type":"Point","coordinates":[-80.03974,40.40788]},"properties":{"p":"0036L00150000000","a":"CARNAHAN RD","m":"20th Ward - PITTSBURGH","u":"L","o":"corp","sf":522720,"v":35000}},{"type":"Feature","geometry":{"type":"Point","coordinates":[-80.03519,40.40443]},"properties":{"p":"0036S00117000000","a":"DALEMOUNT ST","m":"20th Ward - PITTSBURGH","u":"L","o":"individual","sf":17605,"v":17100}},{"type":"Feature","geometry":{"type":"Point","coordinates":[-80.03524,40.40469]},"properties":{"p":"0036S00125000000","a":"DALEMOUNT ST","m":"20th Ward - PITTSBURGH","u":"L","o":"individual","sf":16916,"v":17100}},{"type":"Feature","geometry":{"type":"Point","coordinates":[-80.03067,40.40914]},"properties":{"p":"0035E00158000000","a":"849 COAST AVE","m":"20th Ward - PITTSBURGH","u":"L","o":"individual","sf":1500,"v":2400}},{"type":"Feature","geometry":{"type":"Point","coordinates":[-80.03476,40.40575]},"properties":{"p":"0036S00165000000","a":"TOLE ST","m":"20th Ward - PITTSBURGH","u":"L","o":"corp","sf":5323,"v":16000}},{"type":"Feature","geometry":{"type":"Point","coordinates":[-80.03451,40.40578]},"properties":{"p":"0036S00169000000","a":"2519 TOLE ST","m":"20th Ward - PITTSBURGH","u":"L","o":"individual","sf":728,"v":300}},{"type":"Feature","geometry":{"type":"Point","coordinates":[-80.03309,40.40596]},"properties":{"p":"0036S00282000000","a":"WENZELL AVE","m":"20th Ward - PITTSBURGH","u":"L","o":"individual","sf":3000,"v":12800}},{"type":"Feature","geometry":{"type":"Point","coordinates":[-80.03269,40.40478]},"properties":{"p":"0035N00216000000","a":"BOUSTEAD ST","m":"20th Ward - PITTSBURGH","u":"L","o":"individual","sf":3600,"v":13800}},{"type":"Feature","geometry":{"type":"Point","coordinates":[-80.03268,40.40441]},"properties":{"p":"0035N00221000000","a":"CROSBY AVE","m":"20th Ward - PITTSBURGH","u":"L","o":"individual","sf":4507,"v":15200}},{"type":"Feature","geometry":{"type":"Point","coordinates":[-80.03259,40.40442]},"properties":{"p":"0035N00222000000","a":"CROSBY AVE","m":"20th Ward - PITTSBURGH","u":"L","o":"individual","sf":4020,"v":14400}},{"type":"Feature","geometry":{"type":"Point","coordinates":[-80.03248,40.40443]},"properties":{"p":"0035N00223000000","a":"CROSBY AVE","m":"20th Ward - PITTSBURGH","u":"L","o":"individual","sf":4062,"v":6500}},{"type":"Feature","geometry":{"type":"Point","coordinates":[-80.03181,40.40449]},"properties":{"p":"0035N00237000000","a":"CROSBY AVE","m":"20th Ward - PITTSBURGH","u":"L","o":"individual","sf":4278,"v":14800}},{"type":"Feature","geometry":{"type":"Point","coordinates":[-80.03202,40.40541]},"properties":{"p":"0035N00125000000","a":"716 HILLGROVE AVE","m":"20th Ward - PITTSBURGH","u":"L","o":"individual","sf":6660,"v":16200}},{"type":"Feature","geometry":{"type":"Point","coordinates":[-80.03895,40.40973]},"properties":{"p":"0036G00176000000","a":"CARNAHAN RD","m":"20th Ward - PITTSBURGH","u":"L","o":"individual","sf":7332,"v":15200}},{"type":"Feature","geometry":{"type":"Point","coordinates":[-80.03344,40.40967]},"properties":{"p":"0036H00086000000","a":"CHAPPEL AVE","m":"20th Ward - PITTSBURGH","u":"L","o":"individual","sf":1190,"v":3600}},{"type":"Feature","geometry":{"type":"Point","coordinates":[-80.03388,40.40941]},"properties":{"p":"0036H00120000000","a":"YOUNGER AVE","m":"20th Ward - PITTSBURGH","u":"L","o":"individual","sf":24717,"v":31800}},{"type":"Feature","geometry":{"type":"Point","coordinates":[-80.03468,40.39678]},"properties":{"p":"0063S00001000000","a":"ESPY AVE","m":"Dormont","u":"L","o":"individual","sf":1105,"v":500}},{"type":"Feature","geometry":{"type":"Point","coordinates":[-80.0363,40.40407]},"properties":{"p":"0063D00255000000","a":"CROSBY AVE","m":"Dormont","u":"L","o":"individual","sf":8054,"v":40300}},{"type":"Feature","geometry":{"type":"Point","coordinates":[-80.03658,40.40392]},"properties":{"p":"0063D00264000000","a":"CROSBY AVE","m":"Dormont","u":"L","o":"individual","sf":15000,"v":3000}},{"type":"Feature","geometry":{"type":"Point","coordinates":[-80.03651,40.40351]},"properties":{"p":"0063D00277000000","a":"PHILADELPHIA AVE","m":"Dormont","u":"L","o":"individual","sf":6175,"v":20100}},{"type":"Feature","geometry":{"type":"Point","coordinates":[-80.03658,40.403]},"properties":{"p":"0063D00284000000","a":"PHILADELPHIA AVE","m":"Dormont","u":"L","o":"corp","sf":4000,"v":1500}},{"type":"Feature","geometry":{"type":"Point","coordinates":[-80.0366,40.40279]},"properties":{"p":"0063D00286000000","a":"PHILADELPHIA AVE","m":"Dormont","u":"L","o":"individual","sf":4759,"v":39000}},{"type":"Feature","geometry":{"type":"Point","coordinates":[-80.03672,40.40275]},"properties":{"p":"0063D00290000000","a":"PHILADELPHIA AVE","m":"Dormont","u":"L","o":"individual","sf":2500,"v":10000}},{"type":"Feature","geometry":{"type":"Point","coordinates":[-80.03645,40.40196]},"properties":{"p":"0063G00326000000","a":"DWIGHT AVE","m":"Dormont","u":"L","o":"individual","sf":11400,"v":4100}},{"type":"Feature","geometry":{"type":"Point","coordinates":[-80.03255,40.40091]},"properties":{"p":"0062E00320000000","a":"BROADWAY AVE","m":"Dormont","u":"L","o":"individual","sf":3300,"v":1300}},{"type":"Feature","geometry":{"type":"Point","coordinates":[-80.03616,40.40291]},"properties":{"p":"0063D00316000000","a":"PHILADELPHIA AVE","m":"Dormont","u":"L","o":"corp","sf":2500,"v":1000}},{"type":"Feature","geometry":{"type":"Point","coordinates":[-80.03615,40.40306]},"properties":{"p":"0063D00320000000","a":"PHILADELPHIA AVE","m":"Dormont","u":"L","o":"corp","sf":2500,"v":1000}},{"type":"Feature","geometry":{"type":"Point","coordinates":[-80.03615,40.40313]},"properties":{"p":"0063D00322000000","a":"PHILADELPHIA AVE","m":"Dormont","u":"L","o":"individual","sf":2500,"v":30000}},{"type":"Feature","geometry":{"type":"Point","coordinates":[-80.03614,40.40323]},"properties":{"p":"0063D00324000000","a":"PHILADELPHIA AVE","m":"Dormont","u":"L","o":"individual","sf":5000,"v":40000}},{"type":"Feature","geometry":{"type":"Point","coordinates":[-80.03612,40.40355]},"properties":{"p":"0063D00326000000","a":"PHILADELPHIA AVE","m":"Dormont","u":"L","o":"corp","sf":19850,"v":7000}},{"type":"Feature","geometry":{"type":"Point","coordinates":[-80.03578,40.40312]},"properties":{"p":"0063D00360000000","a":"DEVLIN ST","m":"Dormont","u":"L","o":"individual","sf":47350,"v":3300}},{"type":"Feature","geometry":{"type":"Point","coordinates":[-80.03601,40.40237]},"properties":{"p":"0063D00370000000","a":"DWIGHT AVE","m":"Dormont","u":"L","o":"individual","sf":17561,"v":6200}},{"type":"Feature","geometry":{"type":"Point","coordinates":[-80.03317,40.40144]},"properties":{"p":"0063H00202000000","a":"VOELKEL AVE","m":"Dormont","u":"L","o":"individual","sf":6600,"v":40100}},{"type":"Feature","geometry":{"type":"Point","coordinates":[-80.0378,40.40078]},"properties":{"p":"0063C00323000000","a":"DWIGHT AVE","m":"Dormont","u":"L","o":"individual","sf":850,"v":400}},{"type":"Feature","geometry":{"type":"Point","coordinates":[-80.03578,40.4041]},"properties":{"p":"0063D00250000000","a":"CROSBY AVE","m":"Dormont","u":"L","o":"individual","sf":13810,"v":4900}},{"type":"Feature","geometry":{"type":"Point","coordinates":[-80.03609,40.40412]},"properties":{"p":"0063D00252000000","a":"CROSBY AVE","m":"Dormont","u":"L","o":"individual","sf":4975,"v":19900}},{"type":"Feature","geometry":{"type":"Point","coordinates":[-80.03669,40.40116]},"properties":{"p":"0063H00005000000","a":"DWIGHT AVE","m":"Dormont","u":"L","o":"individual","sf":10408,"v":3700}},{"type":"Feature","geometry":{"type":"Point","coordinates":[-80.02981,40.39197]},"properties":{"p":"0097E00016000000","a":"1132 ARKANSAS AVE","m":"Dormont","u":"L","o":"individual","sf":2895,"v":1100}},{"type":"Feature","geometry":{"type":"Point","coordinates":[-80.03861,40.40212]},"properties":{"p":"0063C00244000000","a":"CROSBY AVE","m":"Dormont","u":"L","o":"individual","sf":3000,"v":32000}},{"type":"Feature","geometry":{"type":"Point","coordinates":[-80.03632,40.40251]},"properties":{"p":"0063D00302000000","a":"PHILADELPHIA AVE","m":"Dormont","u":"L","o":"individual","sf":14183,"v":40800}},{"type":"Feature","geometry":{"type":"Point","coordinates":[-80.03609,40.40264]},"properties":{"p":"0063D00310000000","a":"PHILADELPHIA AVE","m":"Dormont","u":"L","o":"individual","sf":5843,"v":40100}},{"type":"Feature","geometry":{"type":"Point","coordinates":[-80.03617,40.40285]},"properties":{"p":"0063D00314000000","a":"PHILADELPHIA AVE","m":"Dormont","u":"L","o":"individual","sf":2500,"v":30000}},{"type":"Feature","geometry":{"type":"Point","coordinates":[-80.03241,40.39323]},"properties":{"p":"0097A00346000000","a":"TENNESSEE AVE","m":"Dormont","u":"L","o":"individual","sf":4050,"v":36200}},{"type":"Feature","geometry":{"type":"Point","coordinates":[-80.03871,40.40141]},"properties":{"p":"0063G00233000000","a":"CROSBY AVE","m":"Dormont","u":"L","o":"corp","sf":5000,"v":15000}},{"type":"Feature","geometry":{"type":"Point","coordinates":[-80.03251,40.39813]},"properties":{"p":"0062J00220000000","a":"2740 GLENMORE AVE","m":"Dormont","u":"L","o":"corp","sf":6550,"v":25300}},{"type":"Feature","geometry":{"type":"Point","coordinates":[-80.03528,40.39488]},"properties":{"p":"0063S00182000000","a":"SOUTHERN WAY","m":"Dormont","u":"L","o":"corp","sf":200,"v":100}},{"type":"Feature","geometry":{"type":"Point","coordinates":[-80.03147,40.39096]},"properties":{"p":"0097E00168000000","a":"TENNESSEE AVE","m":"Dormont","u":"L","o":"individual","sf":2505,"v":1000}},{"type":"Feature","geometry":{"type":"Point","coordinates":[-80.03785,40.39907]},"properties":{"p":"0063L00158000000","a":"POTOMAC AVE","m":"Dormont","u":"L","o":"individual","sf":3854,"v":10000}},{"type":"Feature","geometry":{"type":"Point","coordinates":[-80.03626,40.40154]},"properties":{"p":"0063H00001000000","a":"DWIGHT AVE","m":"Dormont","u":"L","o":"individual","sf":48787,"v":17200}},{"type":"Feature","geometry":{"type":"Point","coordinates":[-80.03079,40.39285]},"properties":{"p":"0097A00198000000","a":"1225 ARKANSAS AVE","m":"Dormont","u":"L","o":"individual","sf":2250,"v":900}},{"type":"Feature","geometry":{"type":"Point","coordinates":[-80.03196,40.39419]},"properties":{"p":"0097A00243000000","a":"ILLINOIS AVE","m":"Dormont","u":"L","o":"individual","sf":169,"v":200}},{"type":"Feature","geometry":{"type":"Point","coordinates":[-80.03748,40.39024]},"properties":{"p":"0098G00320000000","a":"DORMONT AVE","m":"Dormont","u":"L","o":"individual","sf":3900,"v":1000}},{"type":"Feature","geometry":{"type":"Point","coordinates":[-80.03218,40.39134]},"properties":{"p":"0097E00202000000","a":"1140 MISSISSIPPI AVE","m":"Dormont","u":"L","o":"individual","sf":3014,"v":1200}},{"type":"Feature","geometry":{"type":"Point","coordinates":[-80.03889,40.39199]},"properties":{"p":"0098C00230000000","a":"DORMONT AVE","m":"Dormont","u":"L","o":"corp","sf":3697,"v":1400}},{"type":"Feature","geometry":{"type":"Point","coordinates":[-80.02802,40.40952]},"properties":{"p":"0035F00058000000","a":"ALVERADO AVE","m":"19th Ward - PITTSBURGH","u":"L","o":"individual","sf":3000,"v":6000}},{"type":"Feature","geometry":{"type":"Point","coordinates":[-80.03019,40.40884]},"properties":{"p":"0035J00110000000","a":"COAST AVE","m":"20th Ward - PITTSBURGH","u":"L","o":"corp","sf":6400,"v":16100}},{"type":"Feature","geometry":{"type":"Point","coordinates":[-80.03259,40.40395]},"properties":{"p":"0062A00049000000","a":"CROSBY AVE","m":"19th Ward - PITTSBURGH","u":"L","o":"individual","sf":3720,"v":7400}},{"type":"Feature","geometry":{"type":"Point","coordinates":[-80.03051,40.39234]},"properties":{"p":"0097A00182000000","a":"1201 ARKANSAS AVE","m":"Dormont","u":"L","o":"corp","sf":2250,"v":900}},{"type":"Feature","geometry":{"type":"Point","coordinates":[-80.02148,40.40821]},"properties":{"p":"0035L00215000000","a":"KIRALFY AVE","m":"19th Ward - PITTSBURGH","u":"L","o":"individual","sf":3000,"v":6000}},{"type":"Feature","geometry":{"type":"Point","coordinates":[-80.0211,40.40766]},"properties":{"p":"0035L00244000000","a":"FAIRACRES AVE","m":"19th Ward - PITTSBURGH","u":"L","o":"corp","sf":3707,"v":1300}},{"type":"Feature","geometry":{"type":"Point","coordinates":[-80.03268,40.40594]},"properties":{"p":"0035N00033000000","a":"HILLGROVE AVE","m":"20th Ward - PITTSBURGH","u":"L","o":"individual","sf":18500,"v":17200}},{"type":"Feature","geometry":{"type":"Point","coordinates":[-80.02337,40.40896]},"properties":{"p":"0035L00099000000","a":"FALLOWFIELD AVE","m":"19th Ward - PITTSBURGH","u":"L","o":"individual","sf":2600,"v":900}},{"type":"Feature","geometry":{"type":"Point","coordinates":[-80.03973,40.40569]},"properties":{"p":"0036R00270000000","a":"2734 BANKSVILLE RD","m":"20th Ward - PITTSBURGH","u":"L","o":"corp","sf":6973,"v":30200}},{"type":"Feature","geometry":{"type":"Point","coordinates":[-80.02888,40.40883]},"properties":{"p":"0035J00088000000","a":"NAPOLEON ST","m":"19th Ward - PITTSBURGH","u":"L","o":"individual","sf":5812,"v":20100}},{"type":"Feature","geometry":{"type":"Point","coordinates":[-80.02852,40.40883]},"properties":{"p":"0035K00046000000","a":"ALVERADO AVE","m":"19th Ward - PITTSBURGH","u":"L","o":"individual","sf":6000,"v":20100}},{"type":"Feature","geometry":{"type":"Point","coordinates":[-80.02304,40.39975]},"properties":{"p":"0062G00126000000","a":"WOODWARD AVE","m":"19th Ward - PITTSBURGH","u":"L","o":"individual","sf":4800,"v":25500}},{"type":"Feature","geometry":{"type":"Point","coordinates":[-80.02156,40.40029]},"properties":{"p":"0062G00210000000","a":"205 BELLE ISLE AVE","m":"19th Ward - PITTSBURGH","u":"L","o":"individual","sf":8248,"v":13300}},{"type":"Feature","geometry":{"type":"Point","coordinates":[-80.03575,40.40215]},"properties":{"p":"0063D00372000000","a":"DWIGHT AVE","m":"Dormont","u":"L","o":"individual","sf":7112,"v":2600}},{"type":"Feature","geometry":{"type":"Point","coordinates":[-80.03341,40.40167]},"properties":{"p":"0063H00190000000","a":"CONNECTICUT AVE","m":"20th Ward - PITTSBURGH","u":"L","o":"individual","sf":3300,"v":5300}},{"type":"Feature","geometry":{"type":"Point","coordinates":[-80.02948,40.40988]},"properties":{"p":"0035E00052000000","a":"NAPOLEON ST","m":"19th Ward - PITTSBURGH","u":"L","o":"individual","sf":3000,"v":6000}},{"type":"Feature","geometry":{"type":"Point","coordinates":[-80.03106,40.40534]},"properties":{"p":"0035N00139000000","a":"BOUSTEAD ST","m":"19th Ward - PITTSBURGH","u":"L","o":"individual","sf":3420,"v":6800}},{"type":"Feature","geometry":{"type":"Point","coordinates":[-80.02583,40.40888]},"properties":{"p":"0035K00175000000","a":"METHYL ST","m":"19th Ward - PITTSBURGH","u":"L","o":"individual","sf":2500,"v":5000}},{"type":"Feature","geometry":{"type":"Point","coordinates":[-80.0257,40.39925]},"properties":{"p":"0062K00004000000","a":"SARANAC AVE","m":"19th Ward - PITTSBURGH","u":"L","o":"individual","sf":390,"v":200}},{"type":"Feature","geometry":{"type":"Point","coordinates":[-80.02826,40.40086]},"properties":{"p":"0062F00018000000","a":"VODELI ST","m":"19th Ward - PITTSBURGH","u":"L","o":"corp","sf":3300,"v":16600}},{"type":"Feature","geometry":{"type":"Point","coordinates":[-80.02685,40.40335]},"properties":{"p":"0062B00114000000","a":"SARANAC AVE","m":"19th Ward - PITTSBURGH","u":"L","o":"individual","sf":3300,"v":1200}},{"type":"Feature","geometry":{"type":"Point","coordinates":[-80.03167,40.40513]},"properties":{"p":"0035N00132000000","a":"BOUSTEAD ST","m":"19th Ward - PITTSBURGH","u":"L","o":"individual","sf":2777,"v":5600}},{"type":"Feature","geometry":{"type":"Point","coordinates":[-80.02764,40.40743]},"properties":{"p":"0035K00021000000","a":"1903 CAGWIN ST","m":"19th Ward - PITTSBURGH","u":"L","o":"individual","sf":3663,"v":7300}},{"type":"Feature","geometry":{"type":"Point","coordinates":[-80.02876,40.40805]},"properties":{"p":"0035J00145000000","a":"CAGWIN ST","m":"19th Ward - PITTSBURGH","u":"L","o":"corp","sf":5304,"v":20000}},{"type":"Feature","geometry":{"type":"Point","coordinates":[-80.02393,40.40916]},"properties":{"p":"0035G00067000000","a":"FALLOWFIELD AVE","m":"19th Ward - PITTSBURGH","u":"L","o":"individual","sf":3000,"v":6000}},{"type":"Feature","geometry":{"type":"Point","coordinates":[-80.03968,40.39183]},"properties":{"p":"0098G00058000000","a":"1428 -1430 PARK BLVD","m":"Dormont","u":"L","o":"corp","sf":6000,"v":17600}},{"type":"Feature","geometry":{"type":"Point","coordinates":[-80.0257,40.40843]},"properties":{"p":"0035K00166000000","a":"COAST AVE","m":"19th Ward - PITTSBURGH","u":"L","o":"corp","sf":3817,"v":17600}},{"type":"Feature","geometry":{"type":"Point","coordinates":[-80.02654,40.39652]},"properties":{"p":"0062P00065000000","a":"JILLSON AVE","m":"19th Ward - PITTSBURGH","u":"L","o":"individual","sf":223,"v":200}},{"type":"Feature","geometry":{"type":"Point","coordinates":[-80.02762,40.40867]},"properties":{"p":"0035K00080000000","a":"BELASCO AVE","m":"19th Ward - PITTSBURGH","u":"L","o":"individual","sf":3000,"v":3500}},{"type":"Feature","geometry":{"type":"Point","coordinates":[-80.03205,40.40641]},"properties":{"p":"0035N00102000000","a":"HILLGROVE AVE","m":"20th Ward - PITTSBURGH","u":"L","o":"individual","sf":6364,"v":12900}},{"type":"Feature","geometry":{"type":"Point","coordinates":[-80.03617,40.40278]},"properties":{"p":"0063D00312000000","a":"PHILADELPHIA AVE","m":"Dormont","u":"L","o":"individual","sf":2500,"v":30000}},{"type":"Feature","geometry":{"type":"Point","coordinates":[-80.02144,40.4016]},"properties":{"p":"0062G00168000000","a":"WOODWARD AVE","m":"19th Ward - PITTSBURGH","u":"L","o":"corp","sf":12000,"v":26600}},{"type":"Feature","geometry":{"type":"Point","coordinates":[-80.02315,40.39967]},"properties":{"p":"0062G00124000000","a":"WOODWARD AVE","m":"19th Ward - PITTSBURGH","u":"L","o":"corp","sf":4800,"v":25500}},{"type":"Feature","geometry":{"type":"Point","coordinates":[-80.02058,40.40825]},"properties":{"p":"0035L00270000000","a":"FAIRACRES AVE","m":"19th Ward - PITTSBURGH","u":"L","o":"individual","sf":2500,"v":5000}},{"type":"Feature","geometry":{"type":"Point","coordinates":[-80.02243,40.40835]},"properties":{"p":"0035L00155000000","a":"DAGMAR AVE","m":"19th Ward - PITTSBURGH","u":"L","o":"corp","sf":3300,"v":6600}},{"type":"Feature","geometry":{"type":"Point","coordinates":[-80.03038,40.40962]},"properties":{"p":"0035E00109000000","a":"CANTON AVE","m":"19th Ward - PITTSBURGH","u":"L","o":"corp","sf":3000,"v":6000}},{"type":"Feature","geometry":{"type":"Point","coordinates":[-80.02946,40.4094]},"properties":{"p":"0035E00046000000","a":"NAPOLEON ST","m":"19th Ward - PITTSBURGH","u":"L","o":"individual","sf":3000,"v":450}}]}