{"type":"FeatureCollection","features":[{"type":"Feature","geometry":{"type":"Point","coordinates":[-80.02764,40.38968]},"properties":{"p":"0097F00300000000","a":"MCNEILLY RD","m":"Mt.Lebanon","u":"C","o":"corp","sf":34630,"v":11900}},{"type":"Feature","geometry":{"type":"Point","coordinates":[-80.03731,40.3765]},"properties":{"p":"0141R00086000000","a":"313 CASTLE SHANNON BLVD","m":"Mt.Lebanon","u":"C","o":"corp","sf":2505,"v":7200}},{"type":"Feature","geometry":{"type":"Point","coordinates":[-80.03113,40.37057]},"properties":{"p":"0191E00158000100","a":"ARLINGTON PARK","m":"Mt.Lebanon","u":"C","o":"corp","sf":1173,"v":700}},{"type":"Feature","geometry":{"type":"Point","coordinates":[-80.03409,40.37152]},"properties":{"p":"0192H00249000000","a":"PENNSYLVANIA BLVD","m":"Mt.Lebanon","u":"C","o":"corp","sf":2050,"v":1200}},{"type":"Feature","geometry":{"type":"Point","coordinates":[-80.034,40.3715]},"properties":{"p":"0192H00250000000","a":"PENNSYLVANIA BLVD","m":"Mt.Lebanon","u":"C","o":"corp","sf":1850,"v":1100}},{"type":"Feature","geometry":{"type":"Point","coordinates":[-80.03398,40.37143]},"properties":{"p":"0192H00251000000","a":"PENNSYLVANIA BLVD","m":"Mt.Lebanon","u":"C","o":"corp","sf":1675,"v":1000}},{"type":"Feature","geometry":{"type":"Point","coordinates":[-80.03393,40.37108]},"properties":{"p":"0192H00252000000","a":"PENNSYLVANIA BLVD","m":"Mt.Lebanon","u":"C","o":"corp","sf":6597,"v":3800}},{"type":"Feature","geometry":{"type":"Point","coordinates":[-80.035,40.37172]},"properties":{"p":"0192H00210000000","a":"PENNSYLVANIA BLVD","m":"Mt.Lebanon","u":"C","o":"individual","sf":12295,"v":7400}},{"type":"Feature","geometry":{"type":"Point","coordinates":[-80.03515,40.37193]},"properties":{"p":"0192H00212000000","a":"PENNSYLVANIA BLVD","m":"Mt.Lebanon","u":"C","o":"individual","sf":6438,"v":3900}},{"type":"Feature","geometry":{"type":"Point","coordinates":[-80.03535,40.37215]},"properties":{"p":"0192H00220000000","a":"PENNSYLVANIA BLVD","m":"Mt.Lebanon","u":"C","o":"individual","sf":19679,"v":11800}},{"type":"Feature","geometry":{"type":"Point","coordinates":[-80.0341,40.37206]},"properties":{"p":"0192H00238000000","a":"PENNSYLVANIA BLVD","m":"Mt.Lebanon","u":"C","o":"corp","sf":6378,"v":3600}},{"type":"Feature","geometry":{"type":"Point","coordinates":[-80.03427,40.37189]},"properties":{"p":"0192H00243000000","a":"PENNSYLVANIA BLVD","m":"Mt.Lebanon","u":"C","o":"corp","sf":2500,"v":1400}},{"type":"Feature","geometry":{"type":"Point","coordinates":[-80.03421,40.3718]},"properties":{"p":"0192H00244000000","a":"PENNSYLVANIA BLVD","m":"Mt.Lebanon","u":"C","o":"corp","sf":5000,"v":2900}},{"type":"Feature","geometry":{"type":"Point","coordinates":[-80.03415,40.37168]},"properties":{"p":"0192H00246000000","a":"PENNSYLVANIA BLVD","m":"Mt.Lebanon","u":"C","o":"corp","sf":3675,"v":2100}},{"type":"Feature","geometry":{"type":"Point","coordinates":[-80.03411,40.37159]},"properties":{"p":"0192H00248000000","a":"PENNSYLVANIA BLVD","m":"Mt.Lebanon","u":"C","o":"corp","sf":2252,"v":200}},{"type":"Feature","geometry":{"type":"Point","coordinates":[-80.03021,40.37012]},"properties":{"p":"0191E00222000000","a":"CASTLE SHANNON BLVD","m":"Mt.Lebanon","u":"C","o":"corp","sf":229561,"v":91100}},{"type":"Feature","geometry":{"type":"Point","coordinates":[-80.02412,40.38992]},"properties":{"p":"0097G00281000000","a":"DORCHESTER AVE","m":"19th Ward - PITTSBURGH","u":"L","o":"individual","sf":4620,"v":12000}},{"type":"Feature","geometry":{"type":"Point","coordinates":[-80.02229,40.38888]},"properties":{"p":"0097L00148000000","a":"DORCHESTER AVE","m":"19th Ward - PITTSBURGH","u":"L","o":"individual","sf":2137,"v":5600}},{"type":"Feature","geometry":{"type":"Point","coordinates":[-80.02049,40.38864]},"properties":{"p":"0097L00040000000","a":"NORWICH AVE","m":"19th Ward - PITTSBURGH","u":"L","o":"individual","sf":3600,"v":1300}},{"type":"Feature","geometry":{"type":"Point","coordinates":[-80.02016,40.38891]},"properties":{"p":"0097M00118000000","a":"1002 FORDHAM AVE","m":"19th Ward - PITTSBURGH","u":"L","o":"corp","sf":3600,"v":9400}},{"type":"Feature","geometry":{"type":"Point","coordinates":[-80.02154,40.38845]},"properties":{"p":"0097L00136000000","a":"DORCHESTER AVE","m":"19th Ward - PITTSBURGH","u":"L","o":"individual","sf":2573,"v":6700}},{"type":"Feature","geometry":{"type":"Point","coordinates":[-80.02187,40.38864]},"properties":{"p":"0097L00141000000","a":"DORCHESTER AVE","m":"19th Ward - PITTSBURGH","u":"L","o":"individual","sf":2402,"v":6300}},{"type":"Feature","geometry":{"type":"Point","coordinates":[-80.02103,40.38849]},"properties":{"p":"0097L00081000000","a":"NORWICH AVE","m":"19th Ward - PITTSBURGH","u":"L","o":"individual","sf":2580,"v":1400}},{"type":"Feature","geometry":{"type":"Point","coordinates":[-80.02105,40.37508]},"properties":{"p":"0140R00166000000","a":"SLEEPY HOLLOW RD","m":"Castle Shannon","u":"L","o":"corp","sf":6400,"v":2300}},{"type":"Feature","geometry":{"type":"Point","coordinates":[-80.03803,40.38718]},"properties":{"p":"0098L00335000A00","a":"3242 LATONIA AVE","m":"Dormont","u":"L","o":"individual","sf":3300,"v":1300}},{"type":"Feature","geometry":{"type":"Point","coordinates":[-80.03904,40.38798]},"properties":{"p":"0098L00257000000","a":"PINEHURST AVE","m":"Dormont","u":"L","o":"corp","sf":550,"v":300}},{"type":"Feature","geometry":{"type":"Point","coordinates":[-80.03731,40.38346]},"properties":{"p":"0141C00185000000","a":"PARKSIDE AVE","m":"Dormont","u":"L","o":"corp","sf":1300,"v":600}},{"type":"Feature","geometry":{"type":"Point","coordinates":[-80.03951,40.38634]},"properties":{"p":"0098R00234000000","a":"PEERMONT AVE","m":"Dormont","u":"L","o":"individual","sf":3300,"v":13200}},{"type":"Feature","geometry":{"type":"Point","coordinates":[-80.03591,40.38464]},"properties":{"p":"0098S00116000000","a":"CELERON AVE","m":"Dormont","u":"L","o":"corp","sf":6975,"v":2500}},{"type":"Feature","geometry":{"type":"Point","coordinates":[-80.02061,40.37017]},"properties":{"p":"0191L00254000000","a":"LEBANON AVE","m":"Castle Shannon","u":"L","o":"individual","sf":9600,"v":35400}},{"type":"Feature","geometry":{"type":"Point","coordinates":[-80.02069,40.37482]},"properties":{"p":"0191C00002000000","a":"SLEEPY HOLLOW RD","m":"Castle Shannon","u":"L","o":"individual","sf":6527,"v":2400}},{"type":"Feature","geometry":{"type":"Point","coordinates":[-80.02018,40.37045]},"properties":{"p":"0191H00254000000","a":"MAPLE AVE","m":"Castle Shannon","u":"L","o":"individual","sf":9600,"v":17900}},{"type":"Feature","geometry":{"type":"Point","coordinates":[-80.0232,40.37854]},"properties":{"p":"0140L00215000000","a":"HAVERHILL RD","m":"Baldwin Twp","u":"L","o":"individual","sf":3982,"v":1500}},{"type":"Feature","geometry":{"type":"Point","coordinates":[-80.02245,40.38083]},"properties":{"p":"0140G00094000000","a":"HIGHVIEW RD","m":"Baldwin Twp","u":"L","o":"individual","sf":7887,"v":2900}},{"type":"Feature","geometry":{"type":"Point","coordinates":[-80.02049,40.37681]},"properties":{"p":"0140R00050000000","a":"BRIARWOOD AVE","m":"Baldwin Twp","u":"L","o":"corp","sf":137170,"v":52100}},{"type":"Feature","geometry":{"type":"Point","coordinates":[-80.02119,40.3766]},"properties":{"p":"0140R00271000100","a":"BRIARWOOD AVE","m":"Baldwin Twp","u":"L","o":"individual","sf":638,"v":300}},{"type":"Feature","geometry":{"type":"Point","coordinates":[-80.02895,40.38977]},"properties":{"p":"0097E00331000000","a":"MCNEILLY RD","m":"Mt.Lebanon","u":"L","o":"individual","sf":10204,"v":13000}},{"type":"Feature","geometry":{"type":"Point","coordinates":[-80.02993,40.38954]},"properties":{"p":"0097E00309000000","a":"ILLINOIS AVE","m":"Mt.Lebanon","u":"L","o":"corp","sf":7380,"v":60300}},{"type":"Feature","geometry":{"type":"Point","coordinates":[-80.03677,40.37669]},"properties":{"p":"0141S00355000000","a":"329 -331 CASTLE SHANNON BLVD","m":"Mt.Lebanon","u":"L","o":"corp","sf":8781,"v":31200}},{"type":"Feature","geometry":{"type":"Point","coordinates":[-80.03047,40.38963]},"properties":{"p":"0097E00310000000","a":"ILLINOIS AVE","m":"Mt.Lebanon","u":"L","o":"individual","sf":7711,"v":30200}},{"type":"Feature","geometry":{"type":"Point","coordinates":[-80.02976,40.38563]},"properties":{"p":"0097N00138000000","a":"824 LOVINGSTON DR","m":"Mt.Lebanon","u":"L","o":"individual","sf":14810,"v":61400}},{"type":"Feature","geometry":{"type":"Point","coordinates":[-80.03826,40.37821]},"properties":{"p":"0141L00155000000","a":"ADELINE AVE","m":"Mt.Lebanon","u":"L","o":"individual","sf":2875,"v":1200}},{"type":"Feature","geometry":{"type":"Point","coordinates":[-80.0365,40.37865]},"properties":{"p":"0141M00075000000","a":"SCOTT RD","m":"Mt.Lebanon","u":"L","o":"individual","sf":3877,"v":1600}},{"type":"Feature","geometry":{"type":"Point","coordinates":[-80.03348,40.38149]},"properties":{"p":"0141H00335000000","a":"LINDENWOOD AVE","m":"Mt.Lebanon","u":"L","o":"individual","sf":12568,"v":61100}},{"type":"Feature","geometry":{"type":"Point","coordinates":[-80.03363,40.38157]},"properties":{"p":"0141H00337000001","a":"LINDENWOOD AVE","m":"Mt.Lebanon","u":"L","o":"individual","sf":6050,"v":2500}},{"type":"Feature","geometry":{"type":"Point","coordinates":[-80.03375,40.38168]},"properties":{"p":"0141H00339000000","a":"LINDENWOOD AVE","m":"Mt.Lebanon","u":"L","o":"individual","sf":6050,"v":2500}},{"type":"Feature","geometry":{"type":"Point","coordinates":[-80.0339,40.38177]},"properties":{"p":"0141H00341000000","a":"LINDENWOOD AVE","m":"Mt.Lebanon","u":"L","o":"individual","sf":6425,"v":2600}},{"type":"Feature","geometry":{"type":"Point","coordinates":[-80.0365,40.37751]},"properties":{"p":"0141M00015000000","a":"SCOTT RD","m":"Mt.Lebanon","u":"L","o":"individual","sf":9918,"v":4000}},{"type":"Feature","geometry":{"type":"Point","coordinates":[-80.03654,40.37896]},"properties":{"p":"0141M00040000000","a":"SCOTT RD","m":"Mt.Lebanon","u":"L","o":"individual","sf":7980,"v":60400}},{"type":"Feature","geometry":{"type":"Point","coordinates":[-80.03816,40.37554]},"properties":{"p":"0141R00025000000","a":"PENNSYLVANIA BLVD","m":"Mt.Lebanon","u":"L","o":"individual","sf":2375,"v":1000}},{"type":"Feature","geometry":{"type":"Point","coordinates":[-80.03306,40.38183]},"properties":{"p":"0141H00362000000","a":"100 VALLEY PARK DR","m":"Mt.Lebanon","u":"L","o":"corp","sf":5915,"v":2400}},{"type":"Feature","geometry":{"type":"Point","coordinates":[-80.03315,40.38198]},"properties":{"p":"0141H00364000000","a":"100 VALLEY PARK DR","m":"Mt.Lebanon","u":"L","o":"corp","sf":6720,"v":2700}},{"type":"Feature","geometry":{"type":"Point","coordinates":[-80.03328,40.38212]},"properties":{"p":"0141H00366000000","a":"100 VALLEY PARK DR","m":"Mt.Lebanon","u":"L","o":"corp","sf":6600,"v":2700}},{"type":"Feature","geometry":{"type":"Point","coordinates":[-80.03382,40.38229]},"properties":{"p":"0141H00368000000","a":"100 VALLEY PARK DR","m":"Mt.Lebanon","u":"L","o":"corp","sf":10836,"v":4300}},{"type":"Feature","geometry":{"type":"Point","coordinates":[-80.03347,40.38224]},"properties":{"p":"0141H00370000000","a":"100 VALLEY PARK DR","m":"Mt.Lebanon","u":"L","o":"corp","sf":6900,"v":2800}},{"type":"Feature","geometry":{"type":"Point","coordinates":[-80.02866,40.38402]},"properties":{"p":"0140A00145000000","a":"VALLEY PARK DR","m":"Mt.Lebanon","u":"L","o":"individual","sf":1858,"v":800}},{"type":"Feature","geometry":{"type":"Point","coordinates":[-80.02898,40.37747]},"properties":{"p":"0140J00223000000","a":"COUNTRY CLUB DR","m":"Mt.Lebanon","u":"L","o":"individual","sf":21,"v":100}},{"type":"Feature","geometry":{"type":"Point","coordinates":[-80.02399,40.37704]},"properties":{"p":"0140R00273000000","a":"SLEEPY HOLLOW RD","m":"Mt.Lebanon","u":"L","o":"individual","sf":1747,"v":800}},{"type":"Feature","geometry":{"type":"Point","coordinates":[-80.02353,40.38108]},"properties":{"p":"0140G00116000000","a":"SUMMIT DR","m":"Mt.Lebanon","u":"L","o":"individual","sf":5013,"v":2100}},{"type":"Feature","geometry":{"type":"Point","coordinates":[-80.02999,40.38939]},"properties":{"p":"0097J00048000000","a":"ILLINOIS AVE","m":"Mt.Lebanon","u":"L","o":"individual","sf":8232,"v":60500}},{"type":"Feature","geometry":{"type":"Point","coordinates":[-80.03491,40.38268]},"properties":{"p":"0141D00264000000","a":"LINDENWOOD AVE","m":"Mt.Lebanon","u":"L","o":"corp","sf":12013,"v":61000}},{"type":"Feature","geometry":{"type":"Point","coordinates":[-80.0375,40.38267]},"properties":{"p":"0141C00274000000","a":"ROSEMONT AVE","m":"Mt.Lebanon","u":"L","o":"individual","sf":3475,"v":1500}},{"type":"Feature","geometry":{"type":"Point","coordinates":[-80.03074,40.38235]},"properties":{"p":"0140A00249000000","a":"BRAFFERTON DR","m":"Mt.Lebanon","u":"L","o":"individual","sf":4080,"v":1700}},{"type":"Feature","geometry":{"type":"Point","coordinates":[-80.02426,40.3843]},"properties":{"p":"0140C00120000000","a":"MCNEILLY RD","m":"Mt.Lebanon","u":"L","o":"corp","sf":9987,"v":18000}},{"type":"Feature","geometry":{"type":"Point","coordinates":[-80.03627,40.38379]},"properties":{"p":"0141D00103000100","a":"LINDENWOOD AVE","m":"Mt.Lebanon","u":"L","o":"individual","sf":527,"v":300}},{"type":"Feature","geometry":{"type":"Point","coordinates":[-80.03627,40.38384]},"properties":{"p":"0141D00103000200","a":"LINDENWOOD AVE","m":"Mt.Lebanon","u":"L","o":"individual","sf":593,"v":300}},{"type":"Feature","geometry":{"type":"Point","coordinates":[-80.02986,40.38219]},"properties":{"p":"0140E00032000000","a":"OLD FARM RD","m":"Mt.Lebanon","u":"L","o":"individual","sf":5643,"v":2300}},{"type":"Feature","geometry":{"type":"Point","coordinates":[-80.02949,40.38208]},"properties":{"p":"0140E00033000000","a":"OLD FARM RD","m":"Mt.Lebanon","u":"L","o":"individual","sf":4640,"v":1900}},{"type":"Feature","geometry":{"type":"Point","coordinates":[-80.03327,40.38248]},"properties":{"p":"0141D00350000000","a":"100 VALLEY PARK DR","m":"Mt.Lebanon","u":"L","o":"corp","sf":7775,"v":3100}},{"type":"Feature","geometry":{"type":"Point","coordinates":[-80.03327,40.38279]},"properties":{"p":"0141D00352000000","a":"100 VALLEY PARK DR","m":"Mt.Lebanon","u":"L","o":"corp","sf":10764,"v":4300}},{"type":"Feature","geometry":{"type":"Point","coordinates":[-80.03379,40.38292]},"properties":{"p":"0141D00354000000","a":"100 VALLEY PARK DR","m":"Mt.Lebanon","u":"L","o":"corp","sf":8398,"v":3400}},{"type":"Feature","geometry":{"type":"Point","coordinates":[-80.03176,40.37652]},"properties":{"p":"0140N00025000000","a":"BROADMOOR AVE","m":"Mt.Lebanon","u":"L","o":"corp","sf":4830,"v":2000}},{"type":"Feature","geometry":{"type":"Point","coordinates":[-80.02633,40.37606]},"properties":{"p":"0140P00209000000","a":"KENILWORTH DR","m":"Mt.Lebanon","u":"L","o":"individual","sf":3024,"v":1300}},{"type":"Feature","geometry":{"type":"Point","coordinates":[-80.03836,40.3834]},"properties":{"p":"0141C00309000000","a":"SCOTT RD","m":"Mt.Lebanon","u":"L","o":"individual","sf":4142,"v":1700}},{"type":"Feature","geometry":{"type":"Point","coordinates":[-80.0293,40.37876]},"properties":{"p":"0140J00248000000","a":"COUNTRY CLUB DR","m":"Mt.Lebanon","u":"L","o":"individual","sf":1030,"v":500}},{"type":"Feature","geometry":{"type":"Point","coordinates":[-80.02892,40.38186]},"properties":{"p":"0140E00016000000","a":"OLD FARM RD","m":"Mt.Lebanon","u":"L","o":"individual","sf":2961,"v":1300}},{"type":"Feature","geometry":{"type":"Point","coordinates":[-80.02911,40.38194]},"properties":{"p":"0140E00017000000","a":"OLD FARM RD","m":"Mt.Lebanon","u":"L","o":"individual","sf":3420,"v":1400}},{"type":"Feature","geometry":{"type":"Point","coordinates":[-80.03425,40.38266]},"properties":{"p":"0141D00344000000","a":"100 VALLEY PARK DR","m":"Mt.Lebanon","u":"L","o":"corp","sf":6448,"v":2600}},{"type":"Feature","geometry":{"type":"Point","coordinates":[-80.03407,40.3825]},"properties":{"p":"0141D00346000000","a":"100 VALLEY PARK DR","m":"Mt.Lebanon","u":"L","o":"corp","sf":6776,"v":2700}},{"type":"Feature","geometry":{"type":"Point","coordinates":[-80.03088,40.37977]},"properties":{"p":"0140J00107000000","a":"SUNSET DR","m":"Mt.Lebanon","u":"L","o":"individual","sf":157,"v":900}},{"type":"Feature","geometry":{"type":"Point","coordinates":[-80.03231,40.37114]},"properties":{"p":"0191E00104000000","a":"CASTLE SHANNON BLVD","m":"Mt.Lebanon","u":"L","o":"individual","sf":5438,"v":2200}},{"type":"Feature","geometry":{"type":"Point","coordinates":[-80.03233,40.3709]},"properties":{"p":"0191E00108000000","a":"ARLINGTON PARK","m":"Mt.Lebanon","u":"L","o":"individual","sf":1984,"v":900}},{"type":"Feature","geometry":{"type":"Point","coordinates":[-80.03452,40.37109]},"properties":{"p":"0192H00143000000","a":"PENNSYLVANIA BLVD","m":"Mt.Lebanon","u":"L","o":"individual","sf":4607,"v":1900}},{"type":"Feature","geometry":{"type":"Point","coordinates":[-80.03472,40.37114]},"properties":{"p":"0192H00147000000","a":"HAZEL DR","m":"Mt.Lebanon","u":"L","o":"corp","sf":7760,"v":3100}},{"type":"Feature","geometry":{"type":"Point","coordinates":[-80.03493,40.37127]},"properties":{"p":"0192H00149000000","a":"HAZEL DR","m":"Mt.Lebanon","u":"L","o":"corp","sf":2800,"v":1200}},{"type":"Feature","geometry":{"type":"Point","coordinates":[-80.03513,40.37136]},"properties":{"p":"0192H00152000000","a":"HAZEL DR","m":"Mt.Lebanon","u":"L","o":"corp","sf":5600,"v":2300}},{"type":"Feature","geometry":{"type":"Point","coordinates":[-80.03525,40.37142]},"properties":{"p":"0192H00153000000","a":"HAZEL DR","m":"Mt.Lebanon","u":"L","o":"individual","sf":2800,"v":1200}},{"type":"Feature","geometry":{"type":"Point","coordinates":[-80.03545,40.3715]},"properties":{"p":"0192H00156000000","a":"HAZEL DR","m":"Mt.Lebanon","u":"L","o":"individual","sf":11200,"v":4500}},{"type":"Feature","geometry":{"type":"Point","coordinates":[-80.03565,40.37159]},"properties":{"p":"0192H00157000000","a":"HAZEL DR","m":"Mt.Lebanon","u":"L","o":"individual","sf":2800,"v":1200}},{"type":"Feature","geometry":{"type":"Point","coordinates":[-80.03771,40.37248]},"properties":{"p":"0192C00204000001","a":"HAZEL DR","m":"Mt.Lebanon","u":"L","o":"individual","sf":11212,"v":4500}},{"type":"Feature","geometry":{"type":"Point","coordinates":[-80.03217,40.37094]},"properties":{"p":"0191E00110000000","a":"ARLINGTON PARK","m":"Mt.Lebanon","u":"L","o":"individual","sf":1980,"v":900}},{"type":"Feature","geometry":{"type":"Point","coordinates":[-80.03204,40.37097]},"properties":{"p":"0191E00112000000","a":"ARLINGTON PARK","m":"Mt.Lebanon","u":"L","o":"individual","sf":1452,"v":700}},{"type":"Feature","geometry":{"type":"Point","coordinates":[-80.03119,40.37058]},"properties":{"p":"0191E00158000000","a":"9 ARLINGTON PARK","m":"Mt.Lebanon","u":"L","o":"individual","sf":2340,"v":1000}},{"type":"Feature","geometry":{"type":"Point","coordinates":[-80.03127,40.37038]},"properties":{"p":"0191E00159000000","a":"CASTLE SHANNON BLVD","m":"Mt.Lebanon","u":"L","o":"individual","sf":4413,"v":1800}},{"type":"Feature","geometry":{"type":"Point","coordinates":[-80.03153,40.37066]},"properties":{"p":"0191E00162000000","a":"9 ARLINGTON PARK","m":"Mt.Lebanon","u":"L","o":"individual","sf":1258,"v":600}},{"type":"Feature","geometry":{"type":"Point","coordinates":[-80.03163,40.37072]},"properties":{"p":"0191E00163000000","a":"2 ARLINGTON PARK","m":"Mt.Lebanon","u":"L","o":"individual","sf":1224,"v":600}},{"type":"Feature","geometry":{"type":"Point","coordinates":[-80.03158,40.37069]},"properties":{"p":"0191E00164000000","a":"2 ARLINGTON PARK","m":"Mt.Lebanon","u":"L","o":"individual","sf":1080,"v":500}},{"type":"Feature","geometry":{"type":"Point","coordinates":[-80.03694,40.37326]},"properties":{"p":"0192C00090000000","a":"ASHLAND AVE","m":"Mt.Lebanon","u":"L","o":"individual","sf":2178,"v":1000}},{"type":"Feature","geometry":{"type":"Point","coordinates":[-80.03468,40.37257]},"properties":{"p":"0192D00119000000","a":"PENNSYLVANIA BLVD","m":"Mt.Lebanon","u":"L","o":"corp","sf":8583,"v":60500}},{"type":"Feature","geometry":{"type":"Point","coordinates":[-80.03444,40.37288]},"properties":{"p":"0192D00128000000","a":"CASTLE SHANNON BLVD","m":"Mt.Lebanon","u":"L","o":"corp","sf":1688,"v":800}},{"type":"Feature","geometry":{"type":"Point","coordinates":[-80.03475,40.37318]},"properties":{"p":"0192D00134000000","a":"CASTLE SHANNON BLVD","m":"Mt.Lebanon","u":"L","o":"individual","sf":9360,"v":60600}},{"type":"Feature","geometry":{"type":"Point","coordinates":[-80.03536,40.37354]},"properties":{"p":"0192D00144000000","a":"CASTLE SHANNON BLVD","m":"Mt.Lebanon","u":"L","o":"individual","sf":19324,"v":62000}},{"type":"Feature","geometry":{"type":"Point","coordinates":[-80.03015,40.3712]},"properties":{"p":"0191E00143000000","a":"35 ARLINGTON PARK","m":"Mt.Lebanon","u":"L","o":"individual","sf":1985,"v":900}},{"type":"Feature","geometry":{"type":"Point","coordinates":[-80.03036,40.37122]},"properties":{"p":"0191E00144000000","a":"35 ARLINGTON PARK","m":"Mt.Lebanon","u":"L","o":"individual","sf":2326,"v":1000}},{"type":"Feature","geometry":{"type":"Point","coordinates":[-80.0303,40.37113]},"properties":{"p":"0191E00145000000","a":"ARLINGTON PARK","m":"Mt.Lebanon","u":"L","o":"individual","sf":810,"v":400}},{"type":"Feature","geometry":{"type":"Point","coordinates":[-80.03037,40.37105]},"properties":{"p":"0191E00147000000","a":"ARLINGTON PARK","m":"Mt.Lebanon","u":"L","o":"individual","sf":3240,"v":1400}},{"type":"Feature","geometry":{"type":"Point","coordinates":[-80.03018,40.37102]},"properties":{"p":"0191E00148000000","a":"CASTLE SHANNON BLVD","m":"Mt.Lebanon","u":"L","o":"individual","sf":3450,"v":1400}},{"type":"Feature","geometry":{"type":"Point","coordinates":[-80.03038,40.37095]},"properties":{"p":"0191E00149000000","a":"ARLINGTON PARK","m":"Mt.Lebanon","u":"L","o":"individual","sf":1500,"v":700}},{"type":"Feature","geometry":{"type":"Point","coordinates":[-80.03041,40.37087]},"properties":{"p":"0191E00150000000","a":"ARLINGTON PARK","m":"Mt.Lebanon","u":"L","o":"individual","sf":1891,"v":800}},{"type":"Feature","geometry":{"type":"Point","coordinates":[-80.03043,40.37073]},"properties":{"p":"0191E00151000000","a":"CASTLE SHANNON BLVD","m":"Mt.Lebanon","u":"L","o":"individual","sf":1624,"v":700}},{"type":"Feature","geometry":{"type":"Point","coordinates":[-80.03055,40.37088]},"properties":{"p":"0191E00152000000","a":"CASTLE SHANNON BLVD","m":"Mt.Lebanon","u":"L","o":"individual","sf":1495,"v":700}},{"type":"Feature","geometry":{"type":"Point","coordinates":[-80.03064,40.37063]},"properties":{"p":"0191E00153000000","a":"ARLINGTON PARK","m":"Mt.Lebanon","u":"L","o":"individual","sf":6164,"v":2500}},{"type":"Feature","geometry":{"type":"Point","coordinates":[-80.03653,40.37342]},"properties":{"p":"0192D00063000000","a":"PENNSYLVANIA BLVD","m":"Mt.Lebanon","u":"L","o":"corp","sf":6621,"v":60200}},{"type":"Feature","geometry":{"type":"Point","coordinates":[-80.03669,40.37356]},"properties":{"p":"0192D00067000000","a":"PENNSYLVANIA BLVD","m":"Mt.Lebanon","u":"L","o":"corp","sf":5007,"v":60000}},{"type":"Feature","geometry":{"type":"Point","coordinates":[-80.03677,40.37363]},"properties":{"p":"0192D00069000000","a":"PENNSYLVANIA BLVD","m":"Mt.Lebanon","u":"L","o":"individual","sf":3280,"v":49700}},{"type":"Feature","geometry":{"type":"Point","coordinates":[-80.03557,40.37373]},"properties":{"p":"0192D00095000001","a":"PENNSYLVANIA BLVD","m":"Mt.Lebanon","u":"L","o":"individual","sf":14141,"v":5600}},{"type":"Feature","geometry":{"type":"Point","coordinates":[-80.03512,40.37332]},"properties":{"p":"0192D00102000000","a":"PENNSYLVANIA BLVD","m":"Mt.Lebanon","u":"L","o":"individual","sf":19903,"v":62100}},{"type":"Feature","geometry":{"type":"Point","coordinates":[-80.03512,40.37309]},"properties":{"p":"0192D00106000000","a":"PENNSYLVANIA BLVD","m":"Mt.Lebanon","u":"L","o":"individual","sf":2813,"v":1200}},{"type":"Feature","geometry":{"type":"Point","coordinates":[-80.03506,40.37304]},"properties":{"p":"0192D00108000000","a":"PENNSYLVANIA BLVD","m":"Mt.Lebanon","u":"L","o":"individual","sf":2808,"v":1200}},{"type":"Feature","geometry":{"type":"Point","coordinates":[-80.03501,40.37298]},"properties":{"p":"0192D00110000000","a":"PENNSYLVANIA BLVD","m":"Mt.Lebanon","u":"L","o":"individual","sf":2873,"v":1200}},{"type":"Feature","geometry":{"type":"Point","coordinates":[-80.03495,40.37292]},"properties":{"p":"0192D00112000000","a":"PENNSYLVANIA BLVD","m":"Mt.Lebanon","u":"L","o":"individual","sf":2936,"v":1200}},{"type":"Feature","geometry":{"type":"Point","coordinates":[-80.02985,40.37339]},"properties":{"p":"0191A00109000000","a":"GYPSY LN","m":"Mt.Lebanon","u":"L","o":"individual","sf":593,"v":300}},{"type":"Feature","geometry":{"type":"Point","coordinates":[-80.02985,40.3732]},"properties":{"p":"0191A00113000000","a":"GYPSY LN","m":"Mt.Lebanon","u":"L","o":"individual","sf":15272,"v":61400}},{"type":"Feature","geometry":{"type":"Point","coordinates":[-80.0347,40.3729]},"properties":{"p":"0192D00114000000","a":"PENNSYLVANIA BLVD","m":"Mt.Lebanon","u":"L","o":"individual","sf":16157,"v":61600}},{"type":"Feature","geometry":{"type":"Point","coordinates":[-80.03476,40.37269]},"properties":{"p":"0192D00117000000","a":"PENNSYLVANIA BLVD","m":"Mt.Lebanon","u":"L","o":"corp","sf":2914,"v":1200}},{"type":"Feature","geometry":{"type":"Point","coordinates":[-80.03761,40.37423]},"properties":{"p":"0192C00030000000","a":"PENNSYLVANIA BLVD","m":"Mt.Lebanon","u":"L","o":"corp","sf":19200,"v":17000}},{"type":"Feature","geometry":{"type":"Point","coordinates":[-80.03787,40.37442]},"properties":{"p":"0192C00032000000","a":"PENNSYLVANIA BLVD","m":"Mt.Lebanon","u":"L","o":"corp","sf":6406,"v":2600}},{"type":"Feature","geometry":{"type":"Point","coordinates":[-80.03176,40.37096]},"properties":{"p":"0191E00115000000","a":"CASTLE SHANNON BLVD","m":"Mt.Lebanon","u":"L","o":"individual","sf":990,"v":500}},{"type":"Feature","geometry":{"type":"Point","coordinates":[-80.03193,40.37109]},"properties":{"p":"0191E00116000000","a":"GYPSY LN","m":"Mt.Lebanon","u":"L","o":"individual","sf":383,"v":300}},{"type":"Feature","geometry":{"type":"Point","coordinates":[-80.03189,40.37111]},"properties":{"p":"0191E00117000000","a":"GYPSY LN","m":"Mt.Lebanon","u":"L","o":"individual","sf":668,"v":400}},{"type":"Feature","geometry":{"type":"Point","coordinates":[-80.03575,40.37163]},"properties":{"p":"0192H00159000000","a":"HAZEL DR","m":"Mt.Lebanon","u":"L","o":"individual","sf":4256,"v":1800}},{"type":"Feature","geometry":{"type":"Point","coordinates":[-80.0359,40.3717]},"properties":{"p":"0192H00162000000","a":"HAZEL DR","m":"Mt.Lebanon","u":"L","o":"individual","sf":7056,"v":2900}},{"type":"Feature","geometry":{"type":"Point","coordinates":[-80.03137,40.37117]},"properties":{"p":"0191E00126000001","a":"CASTLE SHANNON BLVD","m":"Mt.Lebanon","u":"L","o":"individual","sf":1408,"v":700}},{"type":"Feature","geometry":{"type":"Point","coordinates":[-80.0357,40.37201]},"properties":{"p":"0192H00194000000","a":"HAZEL DR","m":"Mt.Lebanon","u":"L","o":"individual","sf":1478,"v":700}},{"type":"Feature","geometry":{"type":"Point","coordinates":[-80.02708,40.3735]},"properties":{"p":"0191B00143000000","a":"BROADMOOR AVE","m":"Mt.Lebanon","u":"L","o":"individual","sf":4089,"v":1700}},{"type":"Feature","geometry":{"type":"Point","coordinates":[-80.03638,40.37265]},"properties":{"p":"0192D00013000000","a":"ASHLAND AVE","m":"Mt.Lebanon","u":"L","o":"individual","sf":3205,"v":49200}},{"type":"Feature","geometry":{"type":"Point","coordinates":[-80.03551,40.37236]},"properties":{"p":"0192D00025000000","a":"PENNSYLVANIA BLVD","m":"Mt.Lebanon","u":"L","o":"individual","sf":3280,"v":49700}},{"type":"Feature","geometry":{"type":"Point","coordinates":[-80.03559,40.37245]},"properties":{"p":"0192D00029000000","a":"PENNSYLVANIA BLVD","m":"Mt.Lebanon","u":"L","o":"individual","sf":6560,"v":60200}},{"type":"Feature","geometry":{"type":"Point","coordinates":[-80.03568,40.37257]},"properties":{"p":"0192D00033000000","a":"PENNSYLVANIA BLVD","m":"Mt.Lebanon","u":"L","o":"individual","sf":6560,"v":60200}},{"type":"Feature","geometry":{"type":"Point","coordinates":[-80.03579,40.37268]},"properties":{"p":"0192D00037000000","a":"PENNSYLVANIA BLVD","m":"Mt.Lebanon","u":"L","o":"individual","sf":6560,"v":60200}},{"type":"Feature","geometry":{"type":"Point","coordinates":[-80.03587,40.37277]},"properties":{"p":"0192D00039000000","a":"PENNSYLVANIA BLVD","m":"Mt.Lebanon","u":"L","o":"individual","sf":3357,"v":50100}},{"type":"Feature","geometry":{"type":"Point","coordinates":[-80.03592,40.37283]},"properties":{"p":"0192D00041000000","a":"PENNSYLVANIA BLVD","m":"Mt.Lebanon","u":"L","o":"individual","sf":3280,"v":49700}},{"type":"Feature","geometry":{"type":"Point","coordinates":[-80.036,40.37291]},"properties":{"p":"0192D00045000000","a":"PENNSYLVANIA BLVD","m":"Mt.Lebanon","u":"L","o":"individual","sf":6560,"v":60200}},{"type":"Feature","geometry":{"type":"Point","coordinates":[-80.03614,40.37305]},"properties":{"p":"0192D00049000000","a":"PENNSYLVANIA BLVD","m":"Mt.Lebanon","u":"L","o":"corp","sf":3280,"v":49700}},{"type":"Feature","geometry":{"type":"Point","coordinates":[-80.03623,40.37314]},"properties":{"p":"0192D00053000000","a":"PENNSYLVANIA BLVD","m":"Mt.Lebanon","u":"L","o":"individual","sf":6560,"v":60200}},{"type":"Feature","geometry":{"type":"Point","coordinates":[-80.03142,40.37086]},"properties":{"p":"0191E00200000000","a":"CASTLE SHANNON BLVD","m":"Mt.Lebanon","u":"L","o":"corp","sf":53274,"v":600}},{"type":"Feature","geometry":{"type":"Point","coordinates":[-80.03175,40.37051]},"properties":{"p":"0191E00202000000","a":"CASTLE SHANNON BLVD","m":"Mt.Lebanon","u":"L","o":"individual","sf":2685,"v":1100}},{"type":"Feature","geometry":{"type":"Point","coordinates":[-80.03724,40.37273]},"properties":{"p":"0192C00103000000","a":"ASHLAND AVE","m":"Mt.Lebanon","u":"L","o":"individual","sf":3700,"v":1500}},{"type":"Feature","geometry":{"type":"Point","coordinates":[-80.02971,40.3712]},"properties":{"p":"0191E00315000000","a":"CASTLE SHANNON BLVD","m":"Mt.Lebanon","u":"L","o":"corp","sf":54014,"v":66800}},{"type":"Feature","geometry":{"type":"Point","coordinates":[-80.03687,40.3737]},"properties":{"p":"0192C00017000000","a":"PENNSYLVANIA BLVD","m":"Mt.Lebanon","u":"L","o":"corp","sf":6560,"v":60200}},{"type":"Feature","geometry":{"type":"Point","coordinates":[-80.03704,40.37383]},"properties":{"p":"0192C00019000000","a":"PENNSYLVANIA BLVD","m":"Mt.Lebanon","u":"L","o":"individual","sf":3280,"v":1400}},{"type":"Feature","geometry":{"type":"Point","coordinates":[-80.02915,40.37438]},"properties":{"p":"0191A00016000000","a":"THORNYCROFT AVE","m":"Mt.Lebanon","u":"L","o":"individual","sf":690,"v":400}},{"type":"Feature","geometry":{"type":"Point","coordinates":[-80.03457,40.37375]},"properties":{"p":"0192D00199000000","a":"CASTLE SHANNON BLVD","m":"Mt.Lebanon","u":"L","o":"individual","sf":8014,"v":3200}},{"type":"Feature","geometry":{"type":"Point","coordinates":[-80.02409,40.38308]},"properties":{"p":"0140C00136000000","a":"ELWYN RD","m":"Mt.Lebanon","u":"L","o":"corp","sf":63693,"v":15000}},{"type":"Feature","geometry":{"type":"Point","coordinates":[-80.0251,40.37968]},"properties":{"p":"0140K00231000000","a":"HAVERHILL RD","m":"Mt.Lebanon","u":"L","o":"individual","sf":280,"v":1700}},{"type":"Feature","geometry":{"type":"Point","coordinates":[-80.03611,40.3718]},"properties":{"p":"0192H00165000000","a":"HAZEL DR","m":"Mt.Lebanon","u":"L","o":"individual","sf":8409,"v":3400}},{"type":"Feature","geometry":{"type":"Point","coordinates":[-80.03608,40.373]},"properties":{"p":"0192D00047000000","a":"PENNSYLVANIA BLVD","m":"Mt.Lebanon","u":"L","o":"corp","sf":3215,"v":49300}},{"type":"Feature","geometry":{"type":"Point","coordinates":[-80.0289,40.37203]},"properties":{"p":"0191E00288000000","a":"THORNWOOD DR","m":"Mt.Lebanon","u":"L","o":"corp","sf":3398,"v":1400}},{"type":"Feature","geometry":{"type":"Point","coordinates":[-80.0228,40.38917]},"properties":{"p":"0097L00154000000","a":"DORCHESTER AVE","m":"19th Ward - PITTSBURGH","u":"L","o":"individual","sf":1186,"v":3100}},{"type":"Feature","geometry":{"type":"Point","coordinates":[-80.02152,40.38882]},"properties":{"p":"0097L00075000000","a":"NORWICH AVE","m":"19th Ward - PITTSBURGH","u":"L","o":"individual","sf":3000,"v":7800}},{"type":"Feature","geometry":{"type":"Point","coordinates":[-80.03144,40.37029]},"properties":{"p":"0191E00220000000","a":"CASTLE SHANNON BLVD","m":"Mt.Lebanon","u":"L","o":"individual","sf":2873,"v":1200}},{"type":"Feature","geometry":{"type":"Point","coordinates":[-80.03643,40.37824]},"properties":{"p":"0141M00030000000","a":"SCOTT RD","m":"Mt.Lebanon","u":"L","o":"individual","sf":690,"v":400}},{"type":"Feature","geometry":{"type":"Point","coordinates":[-80.03041,40.37061]},"properties":{"p":"0191E00180000000","a":"CASTLE SHANNON BLVD","m":"Mt.Lebanon","u":"L","o":"individual","sf":16790,"v":3000}},{"type":"Feature","geometry":{"type":"Point","coordinates":[-80.03335,40.38139]},"properties":{"p":"0141H00333000000","a":"LINDENWOOD AVE","m":"Mt.Lebanon","u":"L","o":"individual","sf":6500,"v":2600}},{"type":"Feature","geometry":{"type":"Point","coordinates":[-80.0372,40.37395]},"properties":{"p":"0192C00023000000","a":"PENNSYLVANIA BLVD","m":"Mt.Lebanon","u":"L","o":"corp","sf":11856,"v":17000}},{"type":"Feature","geometry":{"type":"Point","coordinates":[-80.03126,40.37059]},"properties":{"p":"0191E00160000000","a":"9 ARLINGTON PARK","m":"Mt.Lebanon","u":"L","o":"individual","sf":1256,"v":600}},{"type":"Feature","geometry":{"type":"Point","coordinates":[-80.03237,40.37123]},"properties":{"p":"0191E00102000000","a":"CASTLE SHANNON BLVD","m":"Mt.Lebanon","u":"L","o":"individual","sf":5417,"v":2200}},{"type":"Feature","geometry":{"type":"Point","coordinates":[-80.03096,40.37059]},"properties":{"p":"0191E00156000000","a":"ARLINGTON PARK","m":"Mt.Lebanon","u":"L","o":"individual","sf":7776,"v":9600}},{"type":"Feature","geometry":{"type":"Point","coordinates":[-80.02006,40.38375]},"properties":{"p":"0140D00070000000","a":"DONALDSON DR","m":"Baldwin Twp","u":"L","o":"individual","sf":10231,"v":40500}},{"type":"Feature","geometry":{"type":"Point","coordinates":[-80.03716,40.37729]},"properties":{"p":"0141R00111000000","a":"BIRCH AVE","m":"Mt.Lebanon","u":"L","o":"individual","sf":2500,"v":500}},{"type":"Feature","geometry":{"type":"Point","coordinates":[-80.02962,40.37899]},"properties":{"p":"0140J00255000000","a":"FRUITHURST DR","m":"Mt.Lebanon","u":"L","o":"individual","sf":2335,"v":1000}},{"type":"Feature","geometry":{"type":"Point","coordinates":[-80.03794,40.38204]},"properties":{"p":"0141G00300000000","a":"MERION DR","m":"Mt.Lebanon","u":"B","o":"corp","sf":9490,"v":9600}},{"type":"Feature","geometry":{"type":"Point","coordinates":[-80.02493,40.38137]},"properties":{"p":"0140F00141000000","a":"697 COUNTRY CLUB DR","m":"Mt.Lebanon","u":"B","o":"individual","sf":25264,"v":11800}},{"type":"Feature","geometry":{"type":"Point","coordinates":[-80.0319,40.37092]},"properties":{"p":"0191E00114000A00","a":"63 ARLINGTON PARK","m":"Mt.Lebanon","u":"B","o":"corp","sf":1307,"v":5700}}]}