{"type":"FeatureCollection","features":[{"type":"Feature","geometry":{"type":"Point","coordinates":[-80.03206,40.60561]},"properties":{"p":"1207E00230000000","a":"GERMAIN RD","m":"McCandless","u":"L","o":"corp","sf":130880,"v":100400}},{"type":"Feature","geometry":{"type":"Point","coordinates":[-80.03072,40.6056]},"properties":{"p":"1207E00240000000","a":"GERMAIN RD","m":"McCandless","u":"L","o":"corp","sf":157692,"v":105300}},{"type":"Feature","geometry":{"type":"Point","coordinates":[-80.02978,40.60468]},"properties":{"p":"1207E00250000000","a":"GRUBBS RD","m":"McCandless","u":"L","o":"corp","sf":94124,"v":93600}},{"type":"Feature","geometry":{"type":"Point","coordinates":[-80.03214,40.60449]},"properties":{"p":"1207E00312000000","a":"GERMAIN RD","m":"McCandless","u":"L","o":"corp","sf":29751,"v":8100}},{"type":"Feature","geometry":{"type":"Point","coordinates":[-80.0333,40.60347]},"properties":{"p":"1206M00029000000","a":"GERMAIN RD","m":"McCandless","u":"L","o":"individual","sf":32481,"v":82300}},{"type":"Feature","geometry":{"type":"Point","coordinates":[-80.03766,40.59081]},"properties":{"p":"1071R00072000000","a":"WILLOW DR","m":"McCandless","u":"L","o":"individual","sf":1568,"v":200}},{"type":"Feature","geometry":{"type":"Point","coordinates":[-80.03851,40.5905]},"properties":{"p":"1071R00069000100","a":"9935 WILLOW DR","m":"McCandless","u":"L","o":"corp","sf":5924,"v":600}},{"type":"Feature","geometry":{"type":"Point","coordinates":[-80.03786,40.59438]},"properties":{"p":"1071G00121000000","a":"RINAMAN RD","m":"McCandless","u":"L","o":"individual","sf":96372,"v":40000}},{"type":"Feature","geometry":{"type":"Point","coordinates":[-80.03797,40.59257]},"properties":{"p":"1071L00095000000","a":"RINAMAN RD","m":"McCandless","u":"L","o":"individual","sf":29550,"v":46800}},{"type":"Feature","geometry":{"type":"Point","coordinates":[-80.03735,40.59207]},"properties":{"p":"1071L00109000000","a":"9999 RINAMAN RD","m":"McCandless","u":"L","o":"individual","sf":96,"v":1000}},{"type":"Feature","geometry":{"type":"Point","coordinates":[-80.03725,40.5917]},"properties":{"p":"1071L00111000000","a":"RINAMAN RD","m":"McCandless","u":"L","o":"individual","sf":5000,"v":500}},{"type":"Feature","geometry":{"type":"Point","coordinates":[-80.03179,40.59212]},"properties":{"p":"1072E00318000000","a":"PINE RIDGE DR","m":"McCandless","u":"L","o":"individual","sf":87904,"v":30300}},{"type":"Feature","geometry":{"type":"Point","coordinates":[-80.02696,40.59549]},"properties":{"p":"1072F00098000000","a":"JANBER LN","m":"McCandless","u":"L","o":"individual","sf":183954,"v":62800}},{"type":"Feature","geometry":{"type":"Point","coordinates":[-80.03328,40.59355]},"properties":{"p":"1071M00108000000","a":"PINE RIDGE DR","m":"McCandless","u":"L","o":"individual","sf":7881,"v":800}},{"type":"Feature","geometry":{"type":"Point","coordinates":[-80.03459,40.59488]},"properties":{"p":"1071M00150000000","a":"PINE RIDGE DR","m":"McCandless","u":"L","o":"corp","sf":50521,"v":5200}},{"type":"Feature","geometry":{"type":"Point","coordinates":[-80.03977,40.59684]},"properties":{"p":"1071C00353000000","a":"RINAMAN RD","m":"McCandless","u":"L","o":"corp","sf":45302,"v":48400}},{"type":"Feature","geometry":{"type":"Point","coordinates":[-80.03297,40.59476]},"properties":{"p":"1072E00001000000","a":"ZANDER LN","m":"McCandless","u":"L","o":"individual","sf":236531,"v":67600}},{"type":"Feature","geometry":{"type":"Point","coordinates":[-80.03012,40.59539]},"properties":{"p":"1072E00157000000","a":"GRUBBS RD","m":"McCandless","u":"L","o":"individual","sf":81893,"v":52200}},{"type":"Feature","geometry":{"type":"Point","coordinates":[-80.03724,40.59277]},"properties":{"p":"1071L00023000000","a":"RINAMAN RD","m":"McCandless","u":"L","o":"individual","sf":22500,"v":46100}},{"type":"Feature","geometry":{"type":"Point","coordinates":[-80.02069,40.59262]},"properties":{"p":"1072M00350000000","a":"PARKLAND DR","m":"McCandless","u":"L","o":"corp","sf":82764,"v":75600}},{"type":"Feature","geometry":{"type":"Point","coordinates":[-80.03105,40.60928]},"properties":{"p":"1355N00228000000","a":"GOLFSIDE DR","m":"McCandless","u":"L","o":"individual","sf":89646,"v":53000}},{"type":"Feature","geometry":{"type":"Point","coordinates":[-80.02765,40.59062]},"properties":{"p":"1072P00105000000","a":"NASH LN","m":"McCandless","u":"L","o":"individual","sf":773229,"v":79900}},{"type":"Feature","geometry":{"type":"Point","coordinates":[-80.02742,40.59715]},"properties":{"p":"1072B00082000000","a":"JANBER LN","m":"McCandless","u":"L","o":"individual","sf":44301,"v":25800}},{"type":"Feature","geometry":{"type":"Point","coordinates":[-80.03976,40.59547]},"properties":{"p":"1071G00197000000","a":"RINAMAN RD","m":"McCandless","u":"L","o":"individual","sf":54886,"v":600}},{"type":"Feature","geometry":{"type":"Point","coordinates":[-80.03919,40.59451]},"properties":{"p":"1071G00249000000","a":"RINAMAN RD","m":"McCandless","u":"L","o":"corp","sf":28226,"v":11500}},{"type":"Feature","geometry":{"type":"Point","coordinates":[-80.03998,40.59167]},"properties":{"p":"1071L00257000000","a":"NEUHART BLVD","m":"McCandless","u":"L","o":"individual","sf":21919,"v":23600}},{"type":"Feature","geometry":{"type":"Point","coordinates":[-80.03792,40.5967]},"properties":{"p":"1071C00026000000","a":"COURTNEY PL","m":"McCandless","u":"L","o":"individual","sf":235660,"v":5400}},{"type":"Feature","geometry":{"type":"Point","coordinates":[-80.02405,40.59897]},"properties":{"p":"1207R00127000000","a":"10030 HILLTOP LN","m":"McCandless","u":"L","o":"corp","sf":435225,"v":81200}},{"type":"Feature","geometry":{"type":"Point","coordinates":[-80.03047,40.59459]},"properties":{"p":"1072E00146000000","a":"GRUBBS RD","m":"McCandless","u":"L","o":"individual","sf":20037,"v":27000}},{"type":"Feature","geometry":{"type":"Point","coordinates":[-80.03939,40.6033]},"properties":{"p":"1206L00082000000","a":"FOX TAIL RD","m":"McCandless","u":"B","o":"corp","sf":30489,"v":13900}},{"type":"Feature","geometry":{"type":"Point","coordinates":[-80.03987,40.60329]},"properties":{"p":"1206L00084000000","a":"FOX TAIL RD","m":"McCandless","u":"B","o":"corp","sf":22031,"v":12400}},{"type":"Feature","geometry":{"type":"Point","coordinates":[-80.03937,40.60655]},"properties":{"p":"1206C00100000000","a":"CANTERWOOD LN","m":"McCandless","u":"B","o":"corp","sf":17424,"v":11200}}]}