{"type":"FeatureCollection","features":[{"type":"Feature","geometry":{"type":"Point","coordinates":[-80.02908,40.2953]},"properties":{"p":"0887A00345000000","a":"101 -301 KEYSTONE CT","m":"Bethel Park","u":"C","o":"individual","sf":43473,"v":17400}},{"type":"Feature","geometry":{"type":"Point","coordinates":[-80.02694,40.30298]},"properties":{"p":"0772F00141000000","a":"MCPHERSON AVE","m":"Bethel Park","u":"L","o":"individual","sf":16432,"v":40400}},{"type":"Feature","geometry":{"type":"Point","coordinates":[-80.03596,40.30407]},"properties":{"p":"0773H00056000000","a":"6011 BOXER DR","m":"Bethel Park","u":"L","o":"individual","sf":17598,"v":30500}},{"type":"Feature","geometry":{"type":"Point","coordinates":[-80.03787,40.30663]},"properties":{"p":"0773C00045000000","a":"CHERRYVIEW LN","m":"Bethel Park","u":"L","o":"individual","sf":2012,"v":200}},{"type":"Feature","geometry":{"type":"Point","coordinates":[-80.02682,40.30082]},"properties":{"p":"0772K00176000000","a":"BOYER AVE","m":"Bethel Park","u":"L","o":"corp","sf":13125,"v":12500}},{"type":"Feature","geometry":{"type":"Point","coordinates":[-80.03687,40.30312]},"properties":{"p":"0773G00250000000","a":"GROUSE RUN RD","m":"Bethel Park","u":"L","o":"corp","sf":27184,"v":2500}},{"type":"Feature","geometry":{"type":"Point","coordinates":[-80.03315,40.30258]},"properties":{"p":"0773H00116000000","a":"5975 DALMATION DR","m":"Bethel Park","u":"L","o":"individual","sf":17424,"v":40500}},{"type":"Feature","geometry":{"type":"Point","coordinates":[-80.03225,40.30532]},"properties":{"p":"0772A00052000000","a":"LIBRARY RD","m":"Bethel Park","u":"L","o":"individual","sf":49223,"v":43400}},{"type":"Feature","geometry":{"type":"Point","coordinates":[-80.03147,40.30421]},"properties":{"p":"0772E00117000000","a":"5984 LIBRARY RD","m":"Bethel Park","u":"L","o":"individual","sf":10821,"v":1000}},{"type":"Feature","geometry":{"type":"Point","coordinates":[-80.02728,40.30292]},"properties":{"p":"0772F00178000000","a":"WALLACE AVE","m":"Bethel Park","u":"L","o":"individual","sf":7340,"v":700}},{"type":"Feature","geometry":{"type":"Point","coordinates":[-80.03426,40.30274]},"properties":{"p":"0773H00072000000","a":"BOXER DR","m":"Bethel Park","u":"L","o":"individual","sf":4096,"v":400}},{"type":"Feature","geometry":{"type":"Point","coordinates":[-80.02514,40.3041]},"properties":{"p":"0772F00041000000","a":"MCPHERSON AVE","m":"Bethel Park","u":"L","o":"corp","sf":5765,"v":500}},{"type":"Feature","geometry":{"type":"Point","coordinates":[-80.0368,40.29261]},"properties":{"p":"0888H00300000000","a":"6418 CHURCHILL RD","m":"Bethel Park","u":"L","o":"individual","sf":29874,"v":21700}},{"type":"Feature","geometry":{"type":"Point","coordinates":[-80.03177,40.2912]},"properties":{"p":"0888M00193000000","a":"CHURCHILL RD","m":"Bethel Park","u":"L","o":"corp","sf":1406,"v":100}},{"type":"Feature","geometry":{"type":"Point","coordinates":[-80.03319,40.29041]},"properties":{"p":"0888M00100000000","a":"CHURCHILL RD","m":"Bethel Park","u":"L","o":"individual","sf":140699,"v":51800}},{"type":"Feature","geometry":{"type":"Point","coordinates":[-80.03517,40.30833]},"properties":{"p":"0666S00179000000","a":"KINGS SCHOOL RD","m":"Bethel Park","u":"L","o":"individual","sf":28985,"v":41500}},{"type":"Feature","geometry":{"type":"Point","coordinates":[-80.03607,40.30781]},"properties":{"p":"0666S00190000000","a":"KINGS SCHOOL RD","m":"Bethel Park","u":"L","o":"individual","sf":52,"v":0}},{"type":"Feature","geometry":{"type":"Point","coordinates":[-80.02571,40.30892]},"properties":{"p":"0665P00215000000","a":"BRIAN DR","m":"Bethel Park","u":"L","o":"individual","sf":9300,"v":1000}},{"type":"Feature","geometry":{"type":"Point","coordinates":[-80.02764,40.30841]},"properties":{"p":"0665P00072000000","a":"SCENIC CT","m":"Bethel Park","u":"L","o":"corp","sf":19571,"v":40600}},{"type":"Feature","geometry":{"type":"Point","coordinates":[-80.03876,40.30824]},"properties":{"p":"0666R00145000000","a":"CHERRYVIEW LN","m":"Bethel Park","u":"L","o":"individual","sf":10102,"v":900}},{"type":"Feature","geometry":{"type":"Point","coordinates":[-80.03578,40.30742]},"properties":{"p":"0666R00176000000","a":"CHERRYVIEW LN","m":"Bethel Park","u":"L","o":"corp","sf":704,"v":100}},{"type":"Feature","geometry":{"type":"Point","coordinates":[-80.026,40.29593]},"properties":{"p":"0887B00052000000","a":"MURRAY AVE","m":"South Park","u":"L","o":"individual","sf":7018,"v":600}},{"type":"Feature","geometry":{"type":"Point","coordinates":[-80.02012,40.29555]},"properties":{"p":"0887D00075000000","a":"HARDING AVE","m":"South Park","u":"L","o":"corp","sf":5000,"v":500}},{"type":"Feature","geometry":{"type":"Point","coordinates":[-80.02042,40.2957]},"properties":{"p":"0887D00079000001","a":"HARDING AVE","m":"South Park","u":"L","o":"corp","sf":5000,"v":500}},{"type":"Feature","geometry":{"type":"Point","coordinates":[-80.02256,40.30006]},"properties":{"p":"0772L00318000000","a":"ANNETTE AVE","m":"South Park","u":"L","o":"individual","sf":5000,"v":500}},{"type":"Feature","geometry":{"type":"Point","coordinates":[-80.02306,40.30023]},"properties":{"p":"0772L00328000000","a":"BERRYMAN AVE","m":"South Park","u":"L","o":"individual","sf":7392,"v":700}},{"type":"Feature","geometry":{"type":"Point","coordinates":[-80.02291,40.2999]},"properties":{"p":"0772L00337000000","a":"AMANDA AVE","m":"South Park","u":"L","o":"individual","sf":5000,"v":500}},{"type":"Feature","geometry":{"type":"Point","coordinates":[-80.02279,40.29979]},"properties":{"p":"0772L00339000000","a":"AMANDA AVE","m":"South Park","u":"L","o":"individual","sf":5000,"v":500}},{"type":"Feature","geometry":{"type":"Point","coordinates":[-80.02263,40.29973]},"properties":{"p":"0772L00341000000","a":"AMANDA AVE","m":"South Park","u":"L","o":"individual","sf":5000,"v":500}},{"type":"Feature","geometry":{"type":"Point","coordinates":[-80.02289,40.29944]},"properties":{"p":"0772L00346000000","a":"AMANDA AVE","m":"South Park","u":"L","o":"individual","sf":5700,"v":500}},{"type":"Feature","geometry":{"type":"Point","coordinates":[-80.0255,40.29691]},"properties":{"p":"0887B00140000000","a":"1431 ROOSEVELT AVE","m":"South Park","u":"L","o":"individual","sf":27,"v":0}},{"type":"Feature","geometry":{"type":"Point","coordinates":[-80.02059,40.29625]},"properties":{"p":"0887C00015000000","a":"HARDING AVE","m":"South Park","u":"L","o":"corp","sf":5000,"v":500}},{"type":"Feature","geometry":{"type":"Point","coordinates":[-80.02074,40.29633]},"properties":{"p":"0887C00017000000","a":"HARDING AVE","m":"South Park","u":"L","o":"individual","sf":5000,"v":500}},{"type":"Feature","geometry":{"type":"Point","coordinates":[-80.02086,40.29638]},"properties":{"p":"0887C00021000000","a":"HARDING AVE","m":"South Park","u":"L","o":"corp","sf":2500,"v":200}},{"type":"Feature","geometry":{"type":"Point","coordinates":[-80.02101,40.29646]},"properties":{"p":"0887C00022000000","a":"HARDING AVE","m":"South Park","u":"L","o":"corp","sf":7500,"v":700}},{"type":"Feature","geometry":{"type":"Point","coordinates":[-80.02135,40.29663]},"properties":{"p":"0887C00025000000","a":"HARDING AVE","m":"South Park","u":"L","o":"corp","sf":5000,"v":500}},{"type":"Feature","geometry":{"type":"Point","coordinates":[-80.02052,40.29705]},"properties":{"p":"0887D00185000000","a":"MAIN BLVD","m":"South Park","u":"L","o":"corp","sf":5000,"v":500}},{"type":"Feature","geometry":{"type":"Point","coordinates":[-80.02159,40.29308]},"properties":{"p":"0887G00322000000","a":"WASHINGTON AVE","m":"South Park","u":"L","o":"corp","sf":19050,"v":20700}},{"type":"Feature","geometry":{"type":"Point","coordinates":[-80.02031,40.293]},"properties":{"p":"0887H00058000000","a":"LINCOLN AVE","m":"South Park","u":"L","o":"individual","sf":15000,"v":20300}},{"type":"Feature","geometry":{"type":"Point","coordinates":[-80.02046,40.29358]},"properties":{"p":"0887H00065000000","a":"LINCOLN AVE","m":"South Park","u":"L","o":"corp","sf":24750,"v":21200}},{"type":"Feature","geometry":{"type":"Point","coordinates":[-80.02601,40.29629]},"properties":{"p":"0887B00109000000","a":"MURRAY AVE","m":"South Park","u":"L","o":"individual","sf":5191,"v":500}},{"type":"Feature","geometry":{"type":"Point","coordinates":[-80.02574,40.29662]},"properties":{"p":"0887B00119000000","a":"6101 MURRAY AVE","m":"South Park","u":"L","o":"individual","sf":3937,"v":400}},{"type":"Feature","geometry":{"type":"Point","coordinates":[-80.02483,40.29595]},"properties":{"p":"0887B00083000000","a":"BROAD ST","m":"South Park","u":"L","o":"corp","sf":2500,"v":200}},{"type":"Feature","geometry":{"type":"Point","coordinates":[-80.02057,40.29578]},"properties":{"p":"0887D00081000000","a":"HARDING AVE","m":"South Park","u":"L","o":"corp","sf":5000,"v":500}},{"type":"Feature","geometry":{"type":"Point","coordinates":[-80.02044,40.29618]},"properties":{"p":"0887D00086000000","a":"HARDING AVE","m":"South Park","u":"L","o":"corp","sf":5000,"v":500}},{"type":"Feature","geometry":{"type":"Point","coordinates":[-80.02167,40.29844]},"properties":{"p":"0772R00271000002","a":"GRANT ST","m":"South Park","u":"L","o":"individual","sf":5000,"v":500}},{"type":"Feature","geometry":{"type":"Point","coordinates":[-80.02342,40.294]},"properties":{"p":"0887G00254000000","a":"WASHINGTON AVE","m":"South Park","u":"L","o":"individual","sf":15875,"v":20400}},{"type":"Feature","geometry":{"type":"Point","coordinates":[-80.02301,40.2938]},"properties":{"p":"0887G00259000000","a":"WASHINGTON AVE","m":"South Park","u":"L","o":"individual","sf":19050,"v":1700}},{"type":"Feature","geometry":{"type":"Point","coordinates":[-80.02442,40.29759]},"properties":{"p":"0772R00275000000","a":"HARDING AVE","m":"South Park","u":"L","o":"individual","sf":2200,"v":200}},{"type":"Feature","geometry":{"type":"Point","coordinates":[-80.02432,40.29771]},"properties":{"p":"0772R00276000000","a":"HARDING AVE","m":"South Park","u":"L","o":"individual","sf":2500,"v":200}},{"type":"Feature","geometry":{"type":"Point","coordinates":[-80.02448,40.29772]},"properties":{"p":"0772R00278000000","a":"HARDING AVE","m":"South Park","u":"L","o":"individual","sf":2500,"v":200}},{"type":"Feature","geometry":{"type":"Point","coordinates":[-80.02834,40.29194]},"properties":{"p":"0887K00205000000","a":"HELEN ST","m":"South Park","u":"L","o":"individual","sf":71221,"v":25400}},{"type":"Feature","geometry":{"type":"Point","coordinates":[-80.0286,40.29163]},"properties":{"p":"0887K00335000001","a":"LIBRARY RD","m":"South Park","u":"L","o":"individual","sf":8445,"v":17100}},{"type":"Feature","geometry":{"type":"Point","coordinates":[-80.02617,40.29586]},"properties":{"p":"0887B00049000000","a":"MURRAY AVE","m":"South Park","u":"L","o":"individual","sf":6466,"v":600}},{"type":"Feature","geometry":{"type":"Point","coordinates":[-80.02562,40.2935]},"properties":{"p":"0887F00055000000","a":"CRESTVIEW DR","m":"South Park","u":"L","o":"individual","sf":9000,"v":17600}},{"type":"Feature","geometry":{"type":"Point","coordinates":[-80.02228,40.29579]},"properties":{"p":"0887C00163000000","a":"WILSON AVE","m":"South Park","u":"L","o":"individual","sf":5250,"v":500}},{"type":"Feature","geometry":{"type":"Point","coordinates":[-80.02213,40.29571]},"properties":{"p":"0887C00165000000","a":"WILSON AVE","m":"South Park","u":"L","o":"individual","sf":5250,"v":500}},{"type":"Feature","geometry":{"type":"Point","coordinates":[-80.02198,40.29564]},"properties":{"p":"0887C00167000000","a":"WILSON AVE","m":"South Park","u":"L","o":"individual","sf":5250,"v":500}},{"type":"Feature","geometry":{"type":"Point","coordinates":[-80.02183,40.29556]},"properties":{"p":"0887C00169000000","a":"WILSON AVE","m":"South Park","u":"L","o":"corp","sf":5250,"v":500}},{"type":"Feature","geometry":{"type":"Point","coordinates":[-80.02168,40.29549]},"properties":{"p":"0887C00171000000","a":"WILSON AVE","m":"South Park","u":"L","o":"corp","sf":5250,"v":500}},{"type":"Feature","geometry":{"type":"Point","coordinates":[-80.02123,40.29526]},"properties":{"p":"0887C00177000000","a":"WILSON AVE","m":"South Park","u":"L","o":"corp","sf":5250,"v":500}},{"type":"Feature","geometry":{"type":"Point","coordinates":[-80.021,40.29515]},"properties":{"p":"0887C00179000000","a":"WILSON AVE","m":"South Park","u":"L","o":"corp","sf":10500,"v":18800}},{"type":"Feature","geometry":{"type":"Point","coordinates":[-80.02041,40.29395]},"properties":{"p":"0887H00157000000","a":"ROOSEVELT AVE","m":"South Park","u":"L","o":"corp","sf":5500,"v":500}},{"type":"Feature","geometry":{"type":"Point","coordinates":[-80.02813,40.29257]},"properties":{"p":"0887F00160000000","a":"HELEN ST","m":"South Park","u":"L","o":"individual","sf":3551,"v":300}},{"type":"Feature","geometry":{"type":"Point","coordinates":[-80.02899,40.29288]},"properties":{"p":"0887F00174000000","a":"HELEN ST","m":"South Park","u":"L","o":"individual","sf":10347,"v":18700}},{"type":"Feature","geometry":{"type":"Point","coordinates":[-80.02283,40.29516]},"properties":{"p":"0887C00253000000","a":"ROOSEVELT AVE","m":"South Park","u":"L","o":"individual","sf":5500,"v":500}},{"type":"Feature","geometry":{"type":"Point","coordinates":[-80.02268,40.29508]},"properties":{"p":"0887C00255000000","a":"ROOSEVELT AVE","m":"South Park","u":"L","o":"individual","sf":5500,"v":500}},{"type":"Feature","geometry":{"type":"Point","coordinates":[-80.02238,40.29493]},"properties":{"p":"0887C00259000000","a":"ROOSEVELT AVE","m":"South Park","u":"L","o":"individual","sf":5500,"v":500}},{"type":"Feature","geometry":{"type":"Point","coordinates":[-80.0219,40.29429]},"properties":{"p":"0887G00045000000","a":"LINCOLN AVE","m":"South Park","u":"L","o":"individual","sf":8250,"v":700}},{"type":"Feature","geometry":{"type":"Point","coordinates":[-80.02046,40.29489]},"properties":{"p":"0887D00017000000","a":"WILSON AVE","m":"South Park","u":"L","o":"corp","sf":5250,"v":500}},{"type":"Feature","geometry":{"type":"Point","coordinates":[-80.02062,40.29496]},"properties":{"p":"0887D00019000000","a":"WILSON AVE","m":"South Park","u":"L","o":"corp","sf":5250,"v":500}},{"type":"Feature","geometry":{"type":"Point","coordinates":[-80.02034,40.29529]},"properties":{"p":"0887D00024000000","a":"WILSON AVE","m":"South Park","u":"L","o":"corp","sf":5000,"v":500}},{"type":"Feature","geometry":{"type":"Point","coordinates":[-80.02023,40.29523]},"properties":{"p":"0887D00026000000","a":"WILSON AVE","m":"South Park","u":"L","o":"corp","sf":2500,"v":200}},{"type":"Feature","geometry":{"type":"Point","coordinates":[-80.02019,40.29515]},"properties":{"p":"0887D00027000000","a":"WILSON AVE","m":"South Park","u":"L","o":"corp","sf":2500,"v":200}},{"type":"Feature","geometry":{"type":"Point","coordinates":[-80.02004,40.29514]},"properties":{"p":"0887D00028000000","a":"WILSON AVE","m":"South Park","u":"L","o":"corp","sf":5000,"v":500}},{"type":"Feature","geometry":{"type":"Point","coordinates":[-80.02412,40.29311]},"properties":{"p":"0887G00198000000","a":"PLEASANT ST","m":"South Park","u":"L","o":"individual","sf":11250,"v":1000}},{"type":"Feature","geometry":{"type":"Point","coordinates":[-80.02254,40.29461]},"properties":{"p":"0887G00055000000","a":"LINCOLN AVE","m":"South Park","u":"L","o":"individual","sf":16500,"v":20500}},{"type":"Feature","geometry":{"type":"Point","coordinates":[-80.02333,40.2945]},"properties":{"p":"0887G00057000000","a":"LINCOLN AVE","m":"South Park","u":"L","o":"individual","sf":9000,"v":800}},{"type":"Feature","geometry":{"type":"Point","coordinates":[-80.0217,40.29628]},"properties":{"p":"0887C00059000000","a":"HARDING AVE","m":"South Park","u":"L","o":"corp","sf":2500,"v":200}},{"type":"Feature","geometry":{"type":"Point","coordinates":[-80.02159,40.29628]},"properties":{"p":"0887C00061000000","a":"HARDING AVE","m":"South Park","u":"L","o":"corp","sf":2500,"v":200}},{"type":"Feature","geometry":{"type":"Point","coordinates":[-80.02147,40.29623]},"properties":{"p":"0887C00062000000","a":"HARDING AVE","m":"South Park","u":"L","o":"corp","sf":5000,"v":500}},{"type":"Feature","geometry":{"type":"Point","coordinates":[-80.02132,40.29615]},"properties":{"p":"0887C00064000000","a":"HARDING AVE","m":"South Park","u":"L","o":"corp","sf":5000,"v":500}},{"type":"Feature","geometry":{"type":"Point","coordinates":[-80.02117,40.29607]},"properties":{"p":"0887C00066000000","a":"HARDING AVE","m":"South Park","u":"L","o":"corp","sf":5000,"v":500}},{"type":"Feature","geometry":{"type":"Point","coordinates":[-80.02102,40.296]},"properties":{"p":"0887C00068000000","a":"HARDING AVE","m":"South Park","u":"L","o":"corp","sf":5000,"v":500}},{"type":"Feature","geometry":{"type":"Point","coordinates":[-80.02087,40.29592]},"properties":{"p":"0887C00070000000","a":"HARDING AVE","m":"South Park","u":"L","o":"corp","sf":5000,"v":500}},{"type":"Feature","geometry":{"type":"Point","coordinates":[-80.02072,40.29585]},"properties":{"p":"0887C00072000000","a":"HARDING AVE","m":"South Park","u":"L","o":"corp","sf":5000,"v":500}},{"type":"Feature","geometry":{"type":"Point","coordinates":[-80.02723,40.29321]},"properties":{"p":"0887F00138000000","a":"BROAD ST","m":"South Park","u":"L","o":"individual","sf":11368,"v":19500}},{"type":"Feature","geometry":{"type":"Point","coordinates":[-80.02724,40.29266]},"properties":{"p":"0887F00146000000","a":"HELEN ST","m":"South Park","u":"L","o":"individual","sf":11126,"v":19300}},{"type":"Feature","geometry":{"type":"Point","coordinates":[-80.02715,40.29252]},"properties":{"p":"0887F00148000000","a":"HELEN ST","m":"South Park","u":"L","o":"individual","sf":9850,"v":18300}},{"type":"Feature","geometry":{"type":"Point","coordinates":[-80.02294,40.2904]},"properties":{"p":"0887L00173000000","a":"PLEASANT ST","m":"South Park","u":"L","o":"individual","sf":7038,"v":10200}},{"type":"Feature","geometry":{"type":"Point","coordinates":[-80.023,40.29024]},"properties":{"p":"0887L00175000000","a":"PLEASANT ST","m":"South Park","u":"L","o":"individual","sf":8046,"v":9900}},{"type":"Feature","geometry":{"type":"Point","coordinates":[-80.02768,40.29408]},"properties":{"p":"0887F00235000000","a":"BROAD ST","m":"South Park","u":"L","o":"individual","sf":21688,"v":20900}},{"type":"Feature","geometry":{"type":"Point","coordinates":[-80.02165,40.29678]},"properties":{"p":"0887C00029000000","a":"5779 PLEASANT ST","m":"South Park","u":"L","o":"individual","sf":10000,"v":900}},{"type":"Feature","geometry":{"type":"Point","coordinates":[-80.023,40.29699]},"properties":{"p":"0887C00040000000","a":"HARDING AVE","m":"South Park","u":"L","o":"individual","sf":1300,"v":100}},{"type":"Feature","geometry":{"type":"Point","coordinates":[-80.02438,40.29553]},"properties":{"p":"0887C00296000000","a":"LINCOLN AVE","m":"South Park","u":"L","o":"individual","sf":5500,"v":500}},{"type":"Feature","geometry":{"type":"Point","coordinates":[-80.02455,40.29558]},"properties":{"p":"0887C00298000000","a":"LINCOLN AVE","m":"South Park","u":"L","o":"individual","sf":5500,"v":500}},{"type":"Feature","geometry":{"type":"Point","coordinates":[-80.02462,40.29575]},"properties":{"p":"0887C00302000000","a":"LINCOLN AVE","m":"South Park","u":"L","o":"corp","sf":2750,"v":300}},{"type":"Feature","geometry":{"type":"Point","coordinates":[-80.0291,40.29276]},"properties":{"p":"0887E00002000000","a":"HELEN ST","m":"South Park","u":"L","o":"individual","sf":3634,"v":300}},{"type":"Feature","geometry":{"type":"Point","coordinates":[-80.02115,40.29486]},"properties":{"p":"0887C00186000000","a":"ROOSEVELT AVE","m":"South Park","u":"L","o":"corp","sf":5250,"v":500}},{"type":"Feature","geometry":{"type":"Point","coordinates":[-80.02131,40.29493]},"properties":{"p":"0887C00188000000","a":"ROOSEVELT AVE","m":"South Park","u":"L","o":"corp","sf":5250,"v":500}},{"type":"Feature","geometry":{"type":"Point","coordinates":[-80.02146,40.295]},"properties":{"p":"0887C00190000000","a":"ROOSEVELT AVE","m":"South Park","u":"L","o":"corp","sf":5250,"v":500}},{"type":"Feature","geometry":{"type":"Point","coordinates":[-80.02168,40.29511]},"properties":{"p":"0887C00194000000","a":"ROOSEVELT AVE","m":"South Park","u":"L","o":"corp","sf":10500,"v":18800}},{"type":"Feature","geometry":{"type":"Point","coordinates":[-80.02206,40.2953]},"properties":{"p":"0887C00198000000","a":"ROOSEVELT AVE","m":"South Park","u":"L","o":"corp","sf":5250,"v":500}},{"type":"Feature","geometry":{"type":"Point","coordinates":[-80.02221,40.29537]},"properties":{"p":"0887C00200000000","a":"ROOSEVELT AVE","m":"South Park","u":"L","o":"corp","sf":5250,"v":500}},{"type":"Feature","geometry":{"type":"Point","coordinates":[-80.02236,40.29544]},"properties":{"p":"0887C00202000000","a":"ROOSEVELT AVE","m":"South Park","u":"L","o":"individual","sf":5250,"v":500}},{"type":"Feature","geometry":{"type":"Point","coordinates":[-80.02805,40.29338]},"properties":{"p":"0887F00182000000","a":"HELEN ST","m":"South Park","u":"L","o":"individual","sf":21996,"v":20900}},{"type":"Feature","geometry":{"type":"Point","coordinates":[-80.02776,40.29319]},"properties":{"p":"0887F00185000000","a":"BROAD ST","m":"South Park","u":"L","o":"corp","sf":8500,"v":17100}},{"type":"Feature","geometry":{"type":"Point","coordinates":[-80.02212,40.29474]},"properties":{"p":"0887C00263000000","a":"ROOSEVELT AVE","m":"South Park","u":"L","o":"corp","sf":5500,"v":500}},{"type":"Feature","geometry":{"type":"Point","coordinates":[-80.02193,40.29471]},"properties":{"p":"0887C00265000000","a":"ROOSEVELT AVE","m":"South Park","u":"L","o":"corp","sf":5500,"v":500}},{"type":"Feature","geometry":{"type":"Point","coordinates":[-80.02177,40.29463]},"properties":{"p":"0887C00267000000","a":"ROOSEVELT AVE","m":"South Park","u":"L","o":"corp","sf":5500,"v":500}},{"type":"Feature","geometry":{"type":"Point","coordinates":[-80.02322,40.29495]},"properties":{"p":"0887C00278000000","a":"1613 LINCOLN AVE","m":"South Park","u":"L","o":"individual","sf":5500,"v":14700}},{"type":"Feature","geometry":{"type":"Point","coordinates":[-80.02385,40.29527]},"properties":{"p":"0887C00290000000","a":"LINCOLN AVE","m":"South Park","u":"L","o":"individual","sf":10000,"v":8300}},{"type":"Feature","geometry":{"type":"Point","coordinates":[-80.02415,40.29541]},"properties":{"p":"0887C00294000000","a":"LINCOLN AVE","m":"South Park","u":"L","o":"individual","sf":10000,"v":900}},{"type":"Feature","geometry":{"type":"Point","coordinates":[-80.0208,40.29552]},"properties":{"p":"0887C00078000000","a":"WILSON AVE","m":"South Park","u":"L","o":"corp","sf":5000,"v":500}},{"type":"Feature","geometry":{"type":"Point","coordinates":[-80.02094,40.29559]},"properties":{"p":"0887C00080000000","a":"WILSON AVE","m":"South Park","u":"L","o":"corp","sf":5000,"v":500}},{"type":"Feature","geometry":{"type":"Point","coordinates":[-80.02125,40.29574]},"properties":{"p":"0887C00084000000","a":"WILSON AVE","m":"South Park","u":"L","o":"corp","sf":5000,"v":500}},{"type":"Feature","geometry":{"type":"Point","coordinates":[-80.0214,40.29581]},"properties":{"p":"0887C00086000000","a":"WILSON AVE","m":"South Park","u":"L","o":"corp","sf":5000,"v":500}},{"type":"Feature","geometry":{"type":"Point","coordinates":[-80.02162,40.29593]},"properties":{"p":"0887C00092000000","a":"WILSON AVE","m":"South Park","u":"L","o":"corp","sf":10000,"v":900}},{"type":"Feature","geometry":{"type":"Point","coordinates":[-80.02023,40.29939]},"properties":{"p":"0772S00124000000","a":"ANNETTE AVE","m":"South Park","u":"L","o":"corp","sf":5000,"v":500}},{"type":"Feature","geometry":{"type":"Point","coordinates":[-80.02088,40.30175]},"properties":{"p":"0772L00157000000","a":"1500 BERRYMAN AVE","m":"South Park","u":"L","o":"individual","sf":5000,"v":500}},{"type":"Feature","geometry":{"type":"Point","coordinates":[-80.02067,40.30154]},"properties":{"p":"0772L00162000000","a":"BROAD ST","m":"South Park","u":"L","o":"individual","sf":5300,"v":500}},{"type":"Feature","geometry":{"type":"Point","coordinates":[-80.02257,40.29936]},"properties":{"p":"0772R00053000000","a":"BROAD ST","m":"South Park","u":"L","o":"individual","sf":5600,"v":500}},{"type":"Feature","geometry":{"type":"Point","coordinates":[-80.02194,40.29933]},"properties":{"p":"0772R00068000000","a":"BROAD ST","m":"South Park","u":"L","o":"individual","sf":5600,"v":500}},{"type":"Feature","geometry":{"type":"Point","coordinates":[-80.02163,40.29925]},"properties":{"p":"0772R00070000000","a":"AMANDA AVE","m":"South Park","u":"L","o":"individual","sf":5000,"v":500}},{"type":"Feature","geometry":{"type":"Point","coordinates":[-80.02184,40.29945]},"properties":{"p":"0772L00226000000","a":"5803 BROAD ST","m":"South Park","u":"L","o":"individual","sf":5000,"v":500}},{"type":"Feature","geometry":{"type":"Point","coordinates":[-80.02241,40.29955]},"properties":{"p":"0772L00229000000","a":"BROAD ST","m":"South Park","u":"L","o":"individual","sf":5600,"v":500}},{"type":"Feature","geometry":{"type":"Point","coordinates":[-80.0221,40.29991]},"properties":{"p":"0772L00234000000","a":"5806 BROAD ST","m":"South Park","u":"L","o":"individual","sf":5600,"v":500}},{"type":"Feature","geometry":{"type":"Point","coordinates":[-80.02174,40.30029]},"properties":{"p":"0772L00241000000","a":"BROAD ST","m":"South Park","u":"L","o":"corp","sf":2500,"v":200}},{"type":"Feature","geometry":{"type":"Point","coordinates":[-80.02164,40.29797]},"properties":{"p":"0772R00151000000","a":"GRANT ST","m":"South Park","u":"L","o":"individual","sf":5000,"v":500}},{"type":"Feature","geometry":{"type":"Point","coordinates":[-80.02179,40.29805]},"properties":{"p":"0772R00153000000","a":"GRANT ST","m":"South Park","u":"L","o":"individual","sf":5000,"v":500}},{"type":"Feature","geometry":{"type":"Point","coordinates":[-80.02195,40.29811]},"properties":{"p":"0772R00155000000","a":"GRANT ST","m":"South Park","u":"L","o":"individual","sf":5000,"v":500}},{"type":"Feature","geometry":{"type":"Point","coordinates":[-80.02206,40.29823]},"properties":{"p":"0772R00157000000","a":"GRANT ST","m":"South Park","u":"L","o":"individual","sf":5000,"v":500}},{"type":"Feature","geometry":{"type":"Point","coordinates":[-80.02224,40.29827]},"properties":{"p":"0772R00159000000","a":"GRANT ST","m":"South Park","u":"L","o":"individual","sf":5000,"v":500}},{"type":"Feature","geometry":{"type":"Point","coordinates":[-80.02239,40.29834]},"properties":{"p":"0772R00161000000","a":"GRANT ST","m":"South Park","u":"L","o":"individual","sf":5000,"v":500}},{"type":"Feature","geometry":{"type":"Point","coordinates":[-80.02262,40.29852]},"properties":{"p":"0772R00164000000","a":"BROAD ST","m":"South Park","u":"L","o":"individual","sf":5600,"v":500}},{"type":"Feature","geometry":{"type":"Point","coordinates":[-80.02277,40.29834]},"properties":{"p":"0772R00168000000","a":"BROAD ST","m":"South Park","u":"L","o":"individual","sf":10000,"v":18400}},{"type":"Feature","geometry":{"type":"Point","coordinates":[-80.02018,40.29771]},"properties":{"p":"0772S00033000000","a":"GRANT ST","m":"South Park","u":"L","o":"corp","sf":5000,"v":500}},{"type":"Feature","geometry":{"type":"Point","coordinates":[-80.02033,40.29778]},"properties":{"p":"0772S00035000000","a":"GRANT ST","m":"South Park","u":"L","o":"individual","sf":5000,"v":500}},{"type":"Feature","geometry":{"type":"Point","coordinates":[-80.02044,40.29816]},"properties":{"p":"0772S00040000000","a":"AMANDA AVE","m":"South Park","u":"L","o":"individual","sf":5000,"v":500}},{"type":"Feature","geometry":{"type":"Point","coordinates":[-80.02027,40.30203]},"properties":{"p":"0772H00169000000","a":"BROAD ST","m":"South Park","u":"L","o":"individual","sf":2500,"v":300}},{"type":"Feature","geometry":{"type":"Point","coordinates":[-80.02032,40.30197]},"properties":{"p":"0772H00170000000","a":"BROAD ST","m":"South Park","u":"L","o":"individual","sf":2500,"v":300}},{"type":"Feature","geometry":{"type":"Point","coordinates":[-80.02474,40.29747]},"properties":{"p":"0772P00293000000","a":"1443 WILSON AVE","m":"South Park","u":"L","o":"individual","sf":5000,"v":500}},{"type":"Feature","geometry":{"type":"Point","coordinates":[-80.02507,40.29718]},"properties":{"p":"0772P00296000000","a":"WILSON AVE","m":"South Park","u":"L","o":"individual","sf":3750,"v":13200}},{"type":"Feature","geometry":{"type":"Point","coordinates":[-80.02039,40.30231]},"properties":{"p":"0772G00286000000","a":"BERRYMAN AVE","m":"South Park","u":"L","o":"individual","sf":4727,"v":500}},{"type":"Feature","geometry":{"type":"Point","coordinates":[-80.02055,40.30227]},"properties":{"p":"0772G00288000000","a":"BERRYMAN AVE","m":"South Park","u":"L","o":"individual","sf":4640,"v":500}},{"type":"Feature","geometry":{"type":"Point","coordinates":[-80.02062,40.29963]},"properties":{"p":"0772L00212000000","a":"ANNETTE AVE","m":"South Park","u":"L","o":"individual","sf":2500,"v":200}},{"type":"Feature","geometry":{"type":"Point","coordinates":[-80.02343,40.2985]},"properties":{"p":"0772R00305000000","a":"1400 BERRYMAN AVE","m":"South Park","u":"L","o":"individual","sf":2500,"v":200}},{"type":"Feature","geometry":{"type":"Point","coordinates":[-80.02045,40.29739]},"properties":{"p":"0772S00004000000","a":"GRANT ST","m":"South Park","u":"L","o":"corp","sf":5000,"v":500}},{"type":"Feature","geometry":{"type":"Point","coordinates":[-80.0203,40.29731]},"properties":{"p":"0772S00006000000","a":"GRANT ST","m":"South Park","u":"L","o":"corp","sf":5000,"v":500}},{"type":"Feature","geometry":{"type":"Point","coordinates":[-80.02015,40.29723]},"properties":{"p":"0772S00008000000","a":"GRANT ST","m":"South Park","u":"L","o":"corp","sf":5000,"v":500}},{"type":"Feature","geometry":{"type":"Point","coordinates":[-80.02212,40.29911]},"properties":{"p":"0772R00107000000","a":"BROAD ST","m":"South Park","u":"L","o":"individual","sf":5600,"v":500}},{"type":"Feature","geometry":{"type":"Point","coordinates":[-80.02227,40.29893]},"properties":{"p":"0772R00111000000","a":"BROAD ST","m":"South Park","u":"L","o":"individual","sf":10000,"v":18400}},{"type":"Feature","geometry":{"type":"Point","coordinates":[-80.02243,40.29875]},"properties":{"p":"0772R00113000000","a":"BROAD ST","m":"South Park","u":"L","o":"corp","sf":5600,"v":500}},{"type":"Feature","geometry":{"type":"Point","coordinates":[-80.02197,40.29859]},"properties":{"p":"0772R00115000000","a":"GRANT ST","m":"South Park","u":"L","o":"individual","sf":15000,"v":1400}},{"type":"Feature","geometry":{"type":"Point","coordinates":[-80.02076,40.29754]},"properties":{"p":"0772R00139000000","a":"GRANT ST","m":"South Park","u":"L","o":"individual","sf":5000,"v":500}},{"type":"Feature","geometry":{"type":"Point","coordinates":[-80.02236,40.30045]},"properties":{"p":"0772L00308000000","a":"ANNETTE AVE","m":"South Park","u":"L","o":"individual","sf":2500,"v":200}},{"type":"Feature","geometry":{"type":"Point","coordinates":[-80.02014,40.29851]},"properties":{"p":"0772S00076000000","a":"1601 AMANDA AVE","m":"South Park","u":"L","o":"individual","sf":5000,"v":500}},{"type":"Feature","geometry":{"type":"Point","coordinates":[-80.02311,40.29751]},"properties":{"p":"0772R00232000000","a":"HARDING AVE","m":"South Park","u":"L","o":"individual","sf":5000,"v":500}},{"type":"Feature","geometry":{"type":"Point","coordinates":[-80.02148,40.29917]},"properties":{"p":"0772R00072000000","a":"AMANDA AVE","m":"South Park","u":"L","o":"individual","sf":5300,"v":500}},{"type":"Feature","geometry":{"type":"Point","coordinates":[-80.02133,40.2991]},"properties":{"p":"0772R00074000000","a":"AMANDA AVE","m":"South Park","u":"L","o":"individual","sf":5000,"v":500}},{"type":"Feature","geometry":{"type":"Point","coordinates":[-80.02118,40.29903]},"properties":{"p":"0772R00076000000","a":"AMANDA AVE","m":"South Park","u":"L","o":"individual","sf":5000,"v":500}},{"type":"Feature","geometry":{"type":"Point","coordinates":[-80.02088,40.29888]},"properties":{"p":"0772R00080000000","a":"AMANDA AVE","m":"South Park","u":"L","o":"individual","sf":5000,"v":500}},{"type":"Feature","geometry":{"type":"Point","coordinates":[-80.02073,40.2988]},"properties":{"p":"0772R00081000000","a":"AMANDA AVE","m":"South Park","u":"L","o":"individual","sf":5000,"v":500}},{"type":"Feature","geometry":{"type":"Point","coordinates":[-80.02057,40.29873]},"properties":{"p":"0772R00082000000","a":"PLEASANT ST","m":"South Park","u":"L","o":"individual","sf":5000,"v":500}},{"type":"Feature","geometry":{"type":"Point","coordinates":[-80.02115,40.29855]},"properties":{"p":"0772R00094000000","a":"AMANDA AVE","m":"South Park","u":"L","o":"individual","sf":5000,"v":500}},{"type":"Feature","geometry":{"type":"Point","coordinates":[-80.0213,40.29863]},"properties":{"p":"0772R00096000000","a":"AMANDA AVE","m":"South Park","u":"L","o":"individual","sf":5000,"v":500}},{"type":"Feature","geometry":{"type":"Point","coordinates":[-80.02145,40.2987]},"properties":{"p":"0772R00098000000","a":"AMANDA AVE","m":"South Park","u":"L","o":"individual","sf":5000,"v":500}},{"type":"Feature","geometry":{"type":"Point","coordinates":[-80.0216,40.29878]},"properties":{"p":"0772R00100000000","a":"AMANDA AVE","m":"South Park","u":"L","o":"individual","sf":5000,"v":500}},{"type":"Feature","geometry":{"type":"Point","coordinates":[-80.02183,40.29889]},"properties":{"p":"0772R00104000000","a":"AMANDA AVE","m":"South Park","u":"L","o":"individual","sf":10000,"v":18400}},{"type":"Feature","geometry":{"type":"Point","coordinates":[-80.02194,40.30132]},"properties":{"p":"0772L00269000000","a":"BERRYMAN AVE","m":"South Park","u":"L","o":"individual","sf":4890,"v":500}},{"type":"Feature","geometry":{"type":"Point","coordinates":[-80.02205,40.30121]},"properties":{"p":"0772L00271000000","a":"BERRYMAN AVE","m":"South Park","u":"L","o":"individual","sf":5608,"v":600}},{"type":"Feature","geometry":{"type":"Point","coordinates":[-80.02156,40.3009]},"properties":{"p":"0772L00281000000","a":"LEONA AVE","m":"South Park","u":"L","o":"individual","sf":3450,"v":300}},{"type":"Feature","geometry":{"type":"Point","coordinates":[-80.02113,40.29735]},"properties":{"p":"0772R00193000000","a":"MAIN BLVD","m":"South Park","u":"L","o":"individual","sf":5000,"v":500}},{"type":"Feature","geometry":{"type":"Point","coordinates":[-80.02169,40.29718]},"properties":{"p":"0772R00205000000","a":"MAIN BLVD","m":"South Park","u":"L","o":"individual","sf":5000,"v":500}},{"type":"Feature","geometry":{"type":"Point","coordinates":[-80.02654,40.29524]},"properties":{"p":"0887B00043000000","a":"WASHINGTON AVE","m":"South Park","u":"L","o":"individual","sf":13848,"v":20200}},{"type":"Feature","geometry":{"type":"Point","coordinates":[-80.02065,40.29544]},"properties":{"p":"0887C00076000000","a":"WILSON AVE","m":"South Park","u":"L","o":"corp","sf":5000,"v":500}},{"type":"Feature","geometry":{"type":"Point","coordinates":[-80.02146,40.29538]},"properties":{"p":"0887C00173000000","a":"WILSON AVE","m":"South Park","u":"L","o":"corp","sf":10500,"v":18800}},{"type":"Feature","geometry":{"type":"Point","coordinates":[-80.02473,40.29562]},"properties":{"p":"0887C00300000000","a":"LINCOLN AVE","m":"South Park","u":"L","o":"individual","sf":2750,"v":300}},{"type":"Feature","geometry":{"type":"Point","coordinates":[-80.03951,40.29527]},"properties":{"p":"0888C00140000000","a":"CLIFTON RD","m":"Bethel Park","u":"L","o":"individual","sf":47480,"v":36125}},{"type":"Feature","geometry":{"type":"Point","coordinates":[-80.02253,40.29501]},"properties":{"p":"0887C00257000000","a":"ROOSEVELT AVE","m":"South Park","u":"L","o":"individual","sf":5500,"v":500}},{"type":"Feature","geometry":{"type":"Point","coordinates":[-80.02012,40.29804]},"properties":{"p":"0772S00044000000","a":"AMANDA AVE","m":"South Park","u":"L","o":"individual","sf":5000,"v":500}},{"type":"Feature","geometry":{"type":"Point","coordinates":[-80.02103,40.29895]},"properties":{"p":"0772R00078000000","a":"AMANDA AVE","m":"South Park","u":"L","o":"individual","sf":5000,"v":500}},{"type":"Feature","geometry":{"type":"Point","coordinates":[-80.02222,40.29486]},"properties":{"p":"0887C00261000000","a":"ROOSEVELT AVE","m":"South Park","u":"L","o":"corp","sf":5500,"v":500}},{"type":"Feature","geometry":{"type":"Point","coordinates":[-80.03261,40.29113]},"properties":{"p":"0887J00066000100","a":"CHURCHILL RD","m":"Bethel Park","u":"L","o":"individual","sf":3860,"v":400}},{"type":"Feature","geometry":{"type":"Point","coordinates":[-80.03153,40.30034]},"properties":{"p":"0772J00200000000","a":"BEAGLE DR","m":"Bethel Park","u":"L","o":"individual","sf":23453,"v":2900}},{"type":"Feature","geometry":{"type":"Point","coordinates":[-80.0265,40.2954]},"properties":{"p":"0887B00046000000","a":"WASHINGTON AVE","m":"South Park","u":"L","o":"individual","sf":6661,"v":600}},{"type":"Feature","geometry":{"type":"Point","coordinates":[-80.03117,40.30206]},"properties":{"p":"0772E00163000000","a":"LIBRARY RD","m":"Bethel Park","u":"L","o":"individual","sf":37200,"v":42200}},{"type":"Feature","geometry":{"type":"Point","coordinates":[-80.02191,40.29522]},"properties":{"p":"0887C00196000000","a":"ROOSEVELT AVE","m":"South Park","u":"L","o":"corp","sf":5250,"v":500}},{"type":"Feature","geometry":{"type":"Point","coordinates":[-80.03244,40.2942]},"properties":{"p":"0887E00222000000","a":"CLIFTON RD","m":"Bethel Park","u":"L","o":"individual","sf":12153,"v":15000}},{"type":"Feature","geometry":{"type":"Point","coordinates":[-80.02061,40.29746]},"properties":{"p":"0772S00002000000","a":"GRANT ST","m":"South Park","u":"L","o":"individual","sf":5000,"v":500}},{"type":"Feature","geometry":{"type":"Point","coordinates":[-80.0212,40.29655]},"properties":{"p":"0887C00023000000","a":"HARDING AVE","m":"South Park","u":"L","o":"corp","sf":5000,"v":500}},{"type":"Feature","geometry":{"type":"Point","coordinates":[-80.02099,40.29384]},"properties":{"p":"0887G00032000000","a":"LINCOLN AVE","m":"South Park","u":"L","o":"corp","sf":13750,"v":20200}},{"type":"Feature","geometry":{"type":"Point","coordinates":[-80.03291,40.30393]},"properties":{"p":"0773H00350000000","a":"DALMATION DR","m":"Bethel Park","u":"L","o":"corp","sf":523592,"v":64900}},{"type":"Feature","geometry":{"type":"Point","coordinates":[-80.02567,40.29617]},"properties":{"p":"0887B00106000000","a":"LINCOLN AVE","m":"South Park","u":"L","o":"individual","sf":5500,"v":500}},{"type":"Feature","geometry":{"type":"Point","coordinates":[-80.02267,40.29924]},"properties":{"p":"0772R00051000000","a":"BROAD ST","m":"South Park","u":"L","o":"individual","sf":5000,"v":500}},{"type":"Feature","geometry":{"type":"Point","coordinates":[-80.02166,40.30038]},"properties":{"p":"0772L00242000000","a":"BROAD ST","m":"South Park","u":"L","o":"corp","sf":5000,"v":500}},{"type":"Feature","geometry":{"type":"Point","coordinates":[-80.02152,40.29837]},"properties":{"p":"0772R00123000000","a":"LIBRARY RD","m":"South Park","u":"L","o":"individual","sf":5000,"v":500}},{"type":"Feature","geometry":{"type":"Point","coordinates":[-80.02126,40.30084]},"properties":{"p":"0772L00250000000","a":"BROAD ST","m":"South Park","u":"L","o":"individual","sf":5000,"v":500}},{"type":"Feature","geometry":{"type":"Point","coordinates":[-80.02423,40.29665]},"properties":{"p":"0887C00137000000","a":"BROAD ST","m":"South Park","u":"L","o":"individual","sf":5000,"v":500}},{"type":"Feature","geometry":{"type":"Point","coordinates":[-80.02167,40.30095]},"properties":{"p":"0772L00279000000","a":"LEONA AVE","m":"South Park","u":"L","o":"individual","sf":4050,"v":400}},{"type":"Feature","geometry":{"type":"Point","coordinates":[-80.0211,40.29566]},"properties":{"p":"0887C00082000000","a":"WILSON AVE","m":"South Park","u":"L","o":"corp","sf":5000,"v":500}},{"type":"Feature","geometry":{"type":"Point","coordinates":[-80.03123,40.30578]},"properties":{"p":"0772A00110000000","a":"5959 LIBRARY RD","m":"Bethel Park","u":"B","o":"individual","sf":10281,"v":5600}},{"type":"Feature","geometry":{"type":"Point","coordinates":[-80.03933,40.30791]},"properties":{"p":"0666R00060000000","a":"CHERRYVIEW LN","m":"Bethel Park","u":"B","o":"individual","sf":10472,"v":5600}}]}