{"type":"FeatureCollection","features":[{"type":"Feature","geometry":{"type":"Point","coordinates":[-80.02462,40.33557]},"properties":{"p":"0475B00175000000","a":"LIBRARY RD","m":"Bethel Park","u":"C","o":"corp","sf":19402,"v":24400}},{"type":"Feature","geometry":{"type":"Point","coordinates":[-80.02771,40.34644]},"properties":{"p":"0317P00303000000","a":"4846 LIBRARY RD","m":"Bethel Park","u":"C","o":"individual","sf":3644,"v":1500}},{"type":"Feature","geometry":{"type":"Point","coordinates":[-80.02841,40.34576]},"properties":{"p":"0317P00297000000","a":"BETHEL CHURCH RD","m":"Bethel Park","u":"C","o":"corp","sf":4879,"v":2000}},{"type":"Feature","geometry":{"type":"Point","coordinates":[-80.02773,40.34622]},"properties":{"p":"0317P00300000000","a":"4846 LIBRARY RD","m":"Bethel Park","u":"C","o":"individual","sf":2940,"v":52900}},{"type":"Feature","geometry":{"type":"Point","coordinates":[-80.02808,40.34492]},"properties":{"p":"0392B00323000000","a":"LIBRARY RD","m":"Bethel Park","u":"C","o":"individual","sf":17215,"v":95800}},{"type":"Feature","geometry":{"type":"Point","coordinates":[-80.02262,40.34298]},"properties":{"p":"0392G00060000000","a":"R OF W","m":"Bethel Park","u":"C","o":"corp","sf":34848,"v":99600}},{"type":"Feature","geometry":{"type":"Point","coordinates":[-80.0251,40.3479]},"properties":{"p":"0317P00223000000","a":"4767 LIBRARY RD","m":"Bethel Park","u":"C","o":"corp","sf":56628,"v":22800}},{"type":"Feature","geometry":{"type":"Point","coordinates":[-80.02414,40.34245]},"properties":{"p":"0392G00110000000","a":"BROUGHTON RD","m":"Bethel Park","u":"C","o":"corp","sf":30921,"v":137100}},{"type":"Feature","geometry":{"type":"Point","coordinates":[-80.03162,40.33132]},"properties":{"p":"0475E00218000001","a":"5112 W LIBRARY AVE","m":"Bethel Park","u":"C","o":"corp","sf":10920,"v":142800}},{"type":"Feature","geometry":{"type":"Point","coordinates":[-80.02107,40.33418]},"properties":{"p":"0475C00102000000","a":"BAPTIST RD","m":"Bethel Park","u":"C","o":"corp","sf":14486,"v":5800}},{"type":"Feature","geometry":{"type":"Point","coordinates":[-80.02255,40.33813]},"properties":{"p":"0392L00200000000","a":"PAXTON DR","m":"Bethel Park","u":"C","o":"corp","sf":50791,"v":35000}},{"type":"Feature","geometry":{"type":"Point","coordinates":[-80.02081,40.33874]},"properties":{"p":"0392S00320000000","a":"MILFORD DR","m":"Bethel Park","u":"C","o":"corp","sf":233516,"v":804100}},{"type":"Feature","geometry":{"type":"Point","coordinates":[-80.03226,40.33312]},"properties":{"p":"0475E00270000000","a":"5088 W LIBRARY AVE","m":"Bethel Park","u":"C","o":"corp","sf":90169,"v":28000}},{"type":"Feature","geometry":{"type":"Point","coordinates":[-80.02747,40.34109]},"properties":{"p":"0392F00035000000","a":"LINDERMER AVE","m":"Bethel Park","u":"C","o":"individual","sf":5620,"v":2300}},{"type":"Feature","geometry":{"type":"Point","coordinates":[-80.02749,40.33422]},"properties":{"p":"0475B00083000000","a":"APPLEGATE AVE","m":"Bethel Park","u":"L","o":"individual","sf":5888,"v":500}},{"type":"Feature","geometry":{"type":"Point","coordinates":[-80.02477,40.34374]},"properties":{"p":"0392B00147000000","a":"BROUGHTON RD","m":"Bethel Park","u":"L","o":"individual","sf":7255,"v":800}},{"type":"Feature","geometry":{"type":"Point","coordinates":[-80.02466,40.34394]},"properties":{"p":"0392B00150000000","a":"PINETTE ST","m":"Bethel Park","u":"L","o":"individual","sf":10824,"v":47600}},{"type":"Feature","geometry":{"type":"Point","coordinates":[-80.02897,40.34478]},"properties":{"p":"0392A00350000000","a":"2425 DEMARE DR","m":"Bethel Park","u":"L","o":"corp","sf":17349,"v":0}},{"type":"Feature","geometry":{"type":"Point","coordinates":[-80.03208,40.336]},"properties":{"p":"0392N00235000000","a":"BROAD ST","m":"Bethel Park","u":"L","o":"individual","sf":1000,"v":100}},{"type":"Feature","geometry":{"type":"Point","coordinates":[-80.0283,40.34953]},"properties":{"p":"0317K00025000000","a":"RAILROAD ST","m":"Bethel Park","u":"L","o":"individual","sf":13141,"v":6000}},{"type":"Feature","geometry":{"type":"Point","coordinates":[-80.02965,40.34699]},"properties":{"p":"0317N00234000000","a":"HILLCREST ST","m":"Bethel Park","u":"L","o":"individual","sf":11163,"v":48300}},{"type":"Feature","geometry":{"type":"Point","coordinates":[-80.02942,40.34658]},"properties":{"p":"0317N00246000000","a":"HILLCREST ST","m":"Bethel Park","u":"L","o":"individual","sf":3496,"v":400}},{"type":"Feature","geometry":{"type":"Point","coordinates":[-80.02879,40.3474]},"properties":{"p":"0317N00250000000","a":"BOLES CT","m":"Bethel Park","u":"L","o":"individual","sf":10673,"v":1200}},{"type":"Feature","geometry":{"type":"Point","coordinates":[-80.02822,40.34696]},"properties":{"p":"0317N00275000000","a":"2000 -2002 BOLES CT","m":"Bethel Park","u":"L","o":"individual","sf":18913,"v":2100}},{"type":"Feature","geometry":{"type":"Point","coordinates":[-80.0359,40.33165]},"properties":{"p":"0476H00306000000","a":"ORCHARD AVE","m":"Bethel Park","u":"L","o":"individual","sf":13503,"v":1500}},{"type":"Feature","geometry":{"type":"Point","coordinates":[-80.03218,40.34496]},"properties":{"p":"0392A00280000000","a":"EDWARDS ST","m":"Bethel Park","u":"L","o":"individual","sf":8812,"v":1000}},{"type":"Feature","geometry":{"type":"Point","coordinates":[-80.02925,40.34883]},"properties":{"p":"0317J00300000000","a":"HILLCREST ST","m":"Bethel Park","u":"L","o":"individual","sf":14000,"v":1500}},{"type":"Feature","geometry":{"type":"Point","coordinates":[-80.0287,40.34862]},"properties":{"p":"0317J00310000000","a":"RAILROAD ST","m":"Bethel Park","u":"L","o":"individual","sf":7126,"v":800}},{"type":"Feature","geometry":{"type":"Point","coordinates":[-80.0362,40.33106]},"properties":{"p":"0476H00302000000","a":"ORCHARD AVE","m":"Bethel Park","u":"L","o":"individual","sf":10890,"v":1200}},{"type":"Feature","geometry":{"type":"Point","coordinates":[-80.0363,40.33166]},"properties":{"p":"0476H00305000000","a":"5173 ORCHARD AVE","m":"Bethel Park","u":"L","o":"individual","sf":10890,"v":1200}},{"type":"Feature","geometry":{"type":"Point","coordinates":[-80.03951,40.33074]},"properties":{"p":"0476L00139000000","a":"TEXAS AVE","m":"Bethel Park","u":"L","o":"corp","sf":471320,"v":45100}},{"type":"Feature","geometry":{"type":"Point","coordinates":[-80.02883,40.33731]},"properties":{"p":"0392N00151000000","a":"HIGHLAND CIR","m":"Bethel Park","u":"L","o":"individual","sf":30326,"v":3300}},{"type":"Feature","geometry":{"type":"Point","coordinates":[-80.03032,40.34597]},"properties":{"p":"0317N00075000000","a":"2006 SUPERIOR ST","m":"Bethel Park","u":"L","o":"individual","sf":6560,"v":700}},{"type":"Feature","geometry":{"type":"Point","coordinates":[-80.03676,40.34182]},"properties":{"p":"0393H00066000000","a":"LUTZ LN","m":"Bethel Park","u":"L","o":"individual","sf":8000,"v":900}},{"type":"Feature","geometry":{"type":"Point","coordinates":[-80.03674,40.34078]},"properties":{"p":"0393H00076000000","a":"LUTZ LN","m":"Bethel Park","u":"L","o":"corp","sf":3007,"v":300}},{"type":"Feature","geometry":{"type":"Point","coordinates":[-80.03116,40.34794]},"properties":{"p":"0317N00165000000","a":"LONGCREST AVE","m":"Bethel Park","u":"L","o":"individual","sf":7800,"v":900}},{"type":"Feature","geometry":{"type":"Point","coordinates":[-80.02358,40.34576]},"properties":{"p":"0317R00010000000","a":"RITTENHOUSE RD","m":"Bethel Park","u":"L","o":"individual","sf":1956,"v":200}},{"type":"Feature","geometry":{"type":"Point","coordinates":[-80.02175,40.34272]},"properties":{"p":"0392G00265000000","a":"7015 LOCUST RD","m":"Bethel Park","u":"L","o":"individual","sf":3484,"v":400}},{"type":"Feature","geometry":{"type":"Point","coordinates":[-80.02157,40.34344]},"properties":{"p":"0392C00003000000","a":"HORNING RD","m":"Bethel Park","u":"L","o":"corp","sf":524,"v":100}},{"type":"Feature","geometry":{"type":"Point","coordinates":[-80.02299,40.3478]},"properties":{"p":"0317R00115000000","a":"LIBRARY RD","m":"Bethel Park","u":"L","o":"individual","sf":4900,"v":600}},{"type":"Feature","geometry":{"type":"Point","coordinates":[-80.02067,40.34525]},"properties":{"p":"0392C00280000000","a":"HILLTOP LN","m":"Bethel Park","u":"L","o":"individual","sf":5288,"v":600}},{"type":"Feature","geometry":{"type":"Point","coordinates":[-80.02705,40.34862]},"properties":{"p":"0317K00150000000","a":"LORETTA ST","m":"Bethel Park","u":"L","o":"individual","sf":23593,"v":51300}},{"type":"Feature","geometry":{"type":"Point","coordinates":[-80.02499,40.34787]},"properties":{"p":"0317P00223000100","a":"4767 LIBRARY RD","m":"Bethel Park","u":"L","o":"corp","sf":2392,"v":300}},{"type":"Feature","geometry":{"type":"Point","coordinates":[-80.02486,40.34789]},"properties":{"p":"0317P00225000000","a":"4767 LIBRARY RD","m":"Bethel Park","u":"L","o":"corp","sf":22750,"v":51200}},{"type":"Feature","geometry":{"type":"Point","coordinates":[-80.02059,40.34507]},"properties":{"p":"0392C00250000000","a":"HILLTOP LN","m":"Bethel Park","u":"L","o":"individual","sf":13765,"v":1500}},{"type":"Feature","geometry":{"type":"Point","coordinates":[-80.02271,40.34109]},"properties":{"p":"0392G00154000000","a":"340 BROUGHTON RD","m":"Bethel Park","u":"L","o":"individual","sf":7016,"v":800}},{"type":"Feature","geometry":{"type":"Point","coordinates":[-80.02595,40.34735]},"properties":{"p":"0317P00193000000","a":"STUART ST","m":"Bethel Park","u":"L","o":"individual","sf":9191,"v":44200}},{"type":"Feature","geometry":{"type":"Point","coordinates":[-80.02551,40.34718]},"properties":{"p":"0317P00199000000","a":"LIBRARY RD","m":"Bethel Park","u":"L","o":"corp","sf":608,"v":100}},{"type":"Feature","geometry":{"type":"Point","coordinates":[-80.02492,40.34712]},"properties":{"p":"0317P00215000000","a":"STUART ST","m":"Bethel Park","u":"L","o":"corp","sf":19641,"v":50900}},{"type":"Feature","geometry":{"type":"Point","coordinates":[-80.02302,40.34826]},"properties":{"p":"0317L00085000000","a":"WAGNER DR","m":"Bethel Park","u":"L","o":"individual","sf":19776,"v":50900}},{"type":"Feature","geometry":{"type":"Point","coordinates":[-80.03721,40.33006]},"properties":{"p":"0476L00316000000","a":"BETHEL CREST DR","m":"Bethel Park","u":"L","o":"individual","sf":9490,"v":1000}},{"type":"Feature","geometry":{"type":"Point","coordinates":[-80.02958,40.33039]},"properties":{"p":"0475J00175000000","a":"PARK AVE","m":"Bethel Park","u":"L","o":"corp","sf":12750,"v":32500}},{"type":"Feature","geometry":{"type":"Point","coordinates":[-80.0303,40.33544]},"properties":{"p":"0475A00132000000","a":"LIBERTY ST","m":"Bethel Park","u":"L","o":"individual","sf":30454,"v":3400}},{"type":"Feature","geometry":{"type":"Point","coordinates":[-80.03073,40.33561]},"properties":{"p":"0475A00222000000","a":"5065 BRIGHTWOOD RD","m":"Bethel Park","u":"L","o":"individual","sf":7000,"v":800}},{"type":"Feature","geometry":{"type":"Point","coordinates":[-80.03397,40.33619]},"properties":{"p":"0393S00040000000","a":"BROAD ST","m":"Bethel Park","u":"L","o":"individual","sf":20000,"v":2200}},{"type":"Feature","geometry":{"type":"Point","coordinates":[-80.03642,40.33895]},"properties":{"p":"0393M00200000000","a":"SUMMIT ST","m":"Bethel Park","u":"L","o":"individual","sf":21083,"v":2300}},{"type":"Feature","geometry":{"type":"Point","coordinates":[-80.02929,40.33566]},"properties":{"p":"0475A00118000000","a":"LIBERTY ST","m":"Bethel Park","u":"L","o":"individual","sf":11579,"v":1000}},{"type":"Feature","geometry":{"type":"Point","coordinates":[-80.0385,40.34305]},"properties":{"p":"0393G00050000000","a":"ROLLING RD","m":"Bethel Park","u":"L","o":"corp","sf":1316,"v":100}},{"type":"Feature","geometry":{"type":"Point","coordinates":[-80.03577,40.34089]},"properties":{"p":"0393H00108000000","a":"HIGHLAND AVE","m":"Bethel Park","u":"L","o":"individual","sf":7000,"v":800}},{"type":"Feature","geometry":{"type":"Point","coordinates":[-80.03402,40.34113]},"properties":{"p":"0393H00109000000","a":"HIGHLAND AVE","m":"Bethel Park","u":"L","o":"individual","sf":2379,"v":300}},{"type":"Feature","geometry":{"type":"Point","coordinates":[-80.03248,40.33069]},"properties":{"p":"0475J00008000000","a":"MESTA ST","m":"Bethel Park","u":"L","o":"corp","sf":9844,"v":30400}},{"type":"Feature","geometry":{"type":"Point","coordinates":[-80.03193,40.33072]},"properties":{"p":"0475J00014000000","a":"MESTA ST","m":"Bethel Park","u":"L","o":"corp","sf":9844,"v":3500}},{"type":"Feature","geometry":{"type":"Point","coordinates":[-80.03175,40.33073]},"properties":{"p":"0475J00016000000","a":"MESTA ST","m":"Bethel Park","u":"L","o":"corp","sf":9844,"v":30400}},{"type":"Feature","geometry":{"type":"Point","coordinates":[-80.02888,40.3321]},"properties":{"p":"0475E00090000000","a":"OLDFIELD AVE","m":"Bethel Park","u":"L","o":"individual","sf":1500,"v":100}},{"type":"Feature","geometry":{"type":"Point","coordinates":[-80.03477,40.33149]},"properties":{"p":"0476H00113000000","a":"2774 TISCHLER RD","m":"Bethel Park","u":"L","o":"individual","sf":2550,"v":300}},{"type":"Feature","geometry":{"type":"Point","coordinates":[-80.03463,40.33163]},"properties":{"p":"0476H00117000000","a":"2776 TISCHLER RD","m":"Bethel Park","u":"L","o":"individual","sf":2610,"v":300}},{"type":"Feature","geometry":{"type":"Point","coordinates":[-80.03408,40.33104]},"properties":{"p":"0476H00120000000","a":"MONTOUR AVE","m":"Bethel Park","u":"L","o":"corp","sf":67496,"v":7800}},{"type":"Feature","geometry":{"type":"Point","coordinates":[-80.03732,40.34175]},"properties":{"p":"0393G00222000000","a":"BETHEL CHURCH RD","m":"Bethel Park","u":"L","o":"individual","sf":18383,"v":2000}},{"type":"Feature","geometry":{"type":"Point","coordinates":[-80.02473,40.33149]},"properties":{"p":"0475F00010000000","a":"WINDGATE RD","m":"Bethel Park","u":"L","o":"individual","sf":4397,"v":500}},{"type":"Feature","geometry":{"type":"Point","coordinates":[-80.03251,40.33166]},"properties":{"p":"0476H00030000000","a":"MONTOUR AVE","m":"Bethel Park","u":"L","o":"corp","sf":17585,"v":31100}},{"type":"Feature","geometry":{"type":"Point","coordinates":[-80.03446,40.3318]},"properties":{"p":"0476H00110000000","a":"TISCHLER RD","m":"Bethel Park","u":"L","o":"individual","sf":3097,"v":300}},{"type":"Feature","geometry":{"type":"Point","coordinates":[-80.02971,40.3328]},"properties":{"p":"0475E00070000000","a":"WINDGATE RD","m":"Bethel Park","u":"L","o":"individual","sf":1767,"v":200}},{"type":"Feature","geometry":{"type":"Point","coordinates":[-80.02176,40.3461]},"properties":{"p":"0317R00246000000","a":"ROBERT DR","m":"Bethel Park","u":"L","o":"individual","sf":10920,"v":1200}},{"type":"Feature","geometry":{"type":"Point","coordinates":[-80.02057,40.34019]},"properties":{"p":"0392L00041000000","a":"397 BROUGHTON RD","m":"Bethel Park","u":"L","o":"individual","sf":9078,"v":5000}},{"type":"Feature","geometry":{"type":"Point","coordinates":[-80.0214,40.34322]},"properties":{"p":"0392G00006000000","a":"HORNING RD","m":"Bethel Park","u":"L","o":"individual","sf":1309,"v":100}},{"type":"Feature","geometry":{"type":"Point","coordinates":[-80.03475,40.33639]},"properties":{"p":"0393S00184000000","a":"ORCHARD AVE","m":"Bethel Park","u":"L","o":"individual","sf":9500,"v":1100}},{"type":"Feature","geometry":{"type":"Point","coordinates":[-80.03154,40.34828]},"properties":{"p":"0317J00107000000","a":"2302 LONGCREST AVE","m":"Bethel Park","u":"L","o":"individual","sf":8400,"v":900}},{"type":"Feature","geometry":{"type":"Point","coordinates":[-80.03398,40.33891]},"properties":{"p":"0393M00137000000","a":"5016 BELMONT AVE","m":"Bethel Park","u":"L","o":"individual","sf":5000,"v":600}},{"type":"Feature","geometry":{"type":"Point","coordinates":[-80.03896,40.33385]},"properties":{"p":"0476C00224000000","a":"BURNSDALE RD","m":"Bethel Park","u":"B","o":"individual","sf":12000,"v":7600}},{"type":"Feature","geometry":{"type":"Point","coordinates":[-80.03892,40.33332]},"properties":{"p":"0476C00226000000","a":"BURNSDALE RD","m":"Bethel Park","u":"B","o":"individual","sf":11200,"v":7300}},{"type":"Feature","geometry":{"type":"Point","coordinates":[-80.03872,40.33333]},"properties":{"p":"0476C00228000000","a":"BURNSDALE RD","m":"Bethel Park","u":"B","o":"individual","sf":20200,"v":8500}},{"type":"Feature","geometry":{"type":"Point","coordinates":[-80.03818,40.3334]},"properties":{"p":"0476C00230000000","a":"BURNSDALE RD","m":"Bethel Park","u":"B","o":"individual","sf":12400,"v":7600}},{"type":"Feature","geometry":{"type":"Point","coordinates":[-80.03788,40.3329]},"properties":{"p":"0476G00048000000","a":"BETHEL CREST DR","m":"Bethel Park","u":"B","o":"individual","sf":11830,"v":7500}},{"type":"Feature","geometry":{"type":"Point","coordinates":[-80.03595,40.33208]},"properties":{"p":"0476H00210000000","a":"ORCHARD AVE","m":"Bethel Park","u":"B","o":"individual","sf":19140,"v":1700}},{"type":"Feature","geometry":{"type":"Point","coordinates":[-80.03751,40.33217]},"properties":{"p":"0476G00014000000","a":"BETHEL CREST DR","m":"Bethel Park","u":"B","o":"individual","sf":11612,"v":7400}},{"type":"Feature","geometry":{"type":"Point","coordinates":[-80.03765,40.33203]},"properties":{"p":"0476G00016000000","a":"BETHEL CREST DR","m":"Bethel Park","u":"B","o":"individual","sf":10820,"v":7200}},{"type":"Feature","geometry":{"type":"Point","coordinates":[-80.03507,40.33202]},"properties":{"p":"0476H00163000000","a":"2746 TISCHLER RD","m":"Bethel Park","u":"B","o":"individual","sf":20006,"v":1700}}]}