{"type":"FeatureCollection","features":[{"type":"Feature","geometry":{"type":"Point","coordinates":[-80.00256,40.40445]},"properties":{"p":"0034S00049000000","a":"ENSIGN AVE","m":"18th Ward - PITTSBURGH","u":"C","o":"corp","sf":20000,"v":6000}},{"type":"Feature","geometry":{"type":"Point","coordinates":[-80.00309,40.40492]},"properties":{"p":"0034S00058000000","a":"ENSIGN AVE","m":"18th Ward - PITTSBURGH","u":"C","o":"individual","sf":4427,"v":1300}},{"type":"Feature","geometry":{"type":"Point","coordinates":[-80.00315,40.40497]},"properties":{"p":"0034S00060000000","a":"ENSIGN AVE","m":"18th Ward - PITTSBURGH","u":"C","o":"corp","sf":4625,"v":1400}},{"type":"Feature","geometry":{"type":"Point","coordinates":[-80.005,40.40724]},"properties":{"p":"0034L00245000000","a":"ENSIGN AVE","m":"18th Ward - PITTSBURGH","u":"C","o":"corp","sf":277,"v":400}},{"type":"Feature","geometry":{"type":"Point","coordinates":[-80.00321,40.40503]},"properties":{"p":"0034S00061000000","a":"ENSIGN AVE","m":"18th Ward - PITTSBURGH","u":"C","o":"individual","sf":4700,"v":7100}},{"type":"Feature","geometry":{"type":"Point","coordinates":[-80.0009,40.40229]},"properties":{"p":"0061D00182000000","a":"SAW MILL RUN BLVD","m":"18th Ward - PITTSBURGH","u":"C","o":"corp","sf":354,"v":300}},{"type":"Feature","geometry":{"type":"Point","coordinates":[-80.00106,40.40172]},"properties":{"p":"0061D00196000000","a":"EDGEBROOK AVE","m":"18th Ward - PITTSBURGH","u":"C","o":"corp","sf":9827,"v":6000}},{"type":"Feature","geometry":{"type":"Point","coordinates":[-80.0006,40.40285]},"properties":{"p":"0061D00224000000","a":"1301 -1349 SAW MILL RUN BLVD","m":"18th Ward - PITTSBURGH","u":"C","o":"corp","sf":3369,"v":11800}},{"type":"Feature","geometry":{"type":"Point","coordinates":[-80.00047,40.40241]},"properties":{"p":"0061D00237000000","a":"1218 EDGEBROOK AVE","m":"18th Ward - PITTSBURGH","u":"C","o":"individual","sf":16994,"v":39100}},{"type":"Feature","geometry":{"type":"Point","coordinates":[-80.00527,40.40974]},"properties":{"p":"0034G00162000000","a":"950 SAW MILL RUN BLVD","m":"18th Ward - PITTSBURGH","u":"C","o":"corp","sf":20037,"v":23000}},{"type":"Feature","geometry":{"type":"Point","coordinates":[-80.01453,40.39108]},"properties":{"p":"0096E00176000000","a":"CREEDMOOR AVE","m":"19th Ward - PITTSBURGH","u":"C","o":"corp","sf":3300,"v":1000}},{"type":"Feature","geometry":{"type":"Point","coordinates":[-80.01893,40.40647]},"properties":{"p":"0035S00082000000","a":"RINGWALT ST","m":"19th Ward - PITTSBURGH","u":"C","o":"corp","sf":960,"v":300}},{"type":"Feature","geometry":{"type":"Point","coordinates":[-80.01787,40.4061]},"properties":{"p":"0035S00197000000","a":"STETSON ST","m":"19th Ward - PITTSBURGH","u":"C","o":"corp","sf":1220,"v":400}},{"type":"Feature","geometry":{"type":"Point","coordinates":[-80.01442,40.39651]},"properties":{"p":"0061N00029000000","a":"EATHAN AVE","m":"19th Ward - PITTSBURGH","u":"C","o":"individual","sf":8112,"v":10000}},{"type":"Feature","geometry":{"type":"Point","coordinates":[-80.01931,40.40482]},"properties":{"p":"0035S00124000000","a":"WEST LIBERTY AVE","m":"19th Ward - PITTSBURGH","u":"C","o":"individual","sf":10138,"v":88200}},{"type":"Feature","geometry":{"type":"Point","coordinates":[-80.01718,40.40953]},"properties":{"p":"0035H00272000000","a":"SUBURBAN AVE","m":"19th Ward - PITTSBURGH","u":"C","o":"individual","sf":5483,"v":1600}},{"type":"Feature","geometry":{"type":"Point","coordinates":[-80.01816,40.40698]},"properties":{"p":"0035M00271000000","a":"1761 WEST LIBERTY AVE","m":"19th Ward - PITTSBURGH","u":"C","o":"corp","sf":1267,"v":2000}},{"type":"Feature","geometry":{"type":"Point","coordinates":[-80.01813,40.40688]},"properties":{"p":"0035M00273000000","a":"1761 WEST LIBERTY AVE","m":"19th Ward - PITTSBURGH","u":"C","o":"corp","sf":2317,"v":3700}},{"type":"Feature","geometry":{"type":"Point","coordinates":[-80.01613,40.40788]},"properties":{"p":"0035M00401000000","a":"WEST LIBERTY AVE","m":"19th Ward - PITTSBURGH","u":"C","o":"individual","sf":607767,"v":92600}},{"type":"Feature","geometry":{"type":"Point","coordinates":[-80.01726,40.40729]},"properties":{"p":"0035M00402000000","a":"WEST LIBERTY AVE","m":"19th Ward - PITTSBURGH","u":"C","o":"corp","sf":163337,"v":3800}},{"type":"Feature","geometry":{"type":"Point","coordinates":[-80.01832,40.40795]},"properties":{"p":"0035M00174000100","a":"WEST LIBERTY AVE","m":"19th Ward - PITTSBURGH","u":"C","o":"corp","sf":41,"v":100}},{"type":"Feature","geometry":{"type":"Point","coordinates":[-80.01548,40.40985]},"properties":{"p":"0034E00097000000","a":"WEST LIBERTY AVE","m":"19th Ward - PITTSBURGH","u":"C","o":"corp","sf":7844,"v":78200}},{"type":"Feature","geometry":{"type":"Point","coordinates":[-80.00226,40.40156]},"properties":{"p":"0061H00143000000","a":"EDGEBROOK AVE","m":"32nd Ward - PITTSBURGH","u":"C","o":"corp","sf":35048,"v":10500}},{"type":"Feature","geometry":{"type":"Point","coordinates":[-80.00183,40.40161]},"properties":{"p":"0061H00143000002","a":"EDGEBROOK AVE","m":"32nd Ward - PITTSBURGH","u":"C","o":"corp","sf":44472,"v":13300}},{"type":"Feature","geometry":{"type":"Point","coordinates":[-80.00726,40.39209]},"properties":{"p":"0096C00276000000","a":"1400 OAKRIDGE ST","m":"32nd Ward - PITTSBURGH","u":"C","o":"corp","sf":54014,"v":24300}},{"type":"Feature","geometry":{"type":"Point","coordinates":[-80.00196,40.3985]},"properties":{"p":"0061M00157000000","a":"GOFF ST","m":"32nd Ward - PITTSBURGH","u":"C","o":"corp","sf":9823,"v":4400}},{"type":"Feature","geometry":{"type":"Point","coordinates":[-80.00019,40.39868]},"properties":{"p":"0061M00027000000","a":"GUILD ST","m":"32nd Ward - PITTSBURGH","u":"C","o":"corp","sf":20,"v":100}},{"type":"Feature","geometry":{"type":"Point","coordinates":[-80.0003,40.39836]},"properties":{"p":"0061M00045000000","a":"1684 SAW MILL RUN BLVD","m":"32nd Ward - PITTSBURGH","u":"C","o":"corp","sf":2750,"v":4100}},{"type":"Feature","geometry":{"type":"Point","coordinates":[-80.00163,40.39835]},"properties":{"p":"0061M00153000000","a":"BALLINGER ST","m":"32nd Ward - PITTSBURGH","u":"C","o":"individual","sf":8877,"v":20000}},{"type":"Feature","geometry":{"type":"Point","coordinates":[-80.00107,40.40151]},"properties":{"p":"0061H00337000000","a":"ZIMMERMAN ST","m":"32nd Ward - PITTSBURGH","u":"C","o":"corp","sf":9153,"v":4000}},{"type":"Feature","geometry":{"type":"Point","coordinates":[-80.00014,40.40038]},"properties":{"p":"0061H00358000000","a":"SAW MILL RUN BLVD","m":"32nd Ward - PITTSBURGH","u":"C","o":"corp","sf":2364,"v":10600}},{"type":"Feature","geometry":{"type":"Point","coordinates":[-80.00016,40.39986]},"properties":{"p":"0061H00363000000","a":"SAW MILL RUN BLVD","m":"32nd Ward - PITTSBURGH","u":"C","o":"individual","sf":88,"v":100}},{"type":"Feature","geometry":{"type":"Point","coordinates":[-80.00106,40.40127]},"properties":{"p":"0061H00333000000","a":"EDGEBROOK AVE","m":"32nd Ward - PITTSBURGH","u":"C","o":"corp","sf":14025,"v":7000}},{"type":"Feature","geometry":{"type":"Point","coordinates":[-80.00398,40.40564]},"properties":{"p":"0034R00016000000","a":"753 ENSIGN AVE","m":"18th Ward - PITTSBURGH","u":"C","o":"individual","sf":22182,"v":18900}},{"type":"Feature","geometry":{"type":"Point","coordinates":[-80.00129,40.40175]},"properties":{"p":"0061H00135000000","a":"EDGEBROOK AVE","m":"32nd Ward - PITTSBURGH","u":"C","o":"corp","sf":11904,"v":8000}},{"type":"Feature","geometry":{"type":"Point","coordinates":[-80.01815,40.39202]},"properties":{"p":"0097D00079000000","a":"940 BROOKLINE BLVD","m":"19th Ward - PITTSBURGH","u":"C","o":"individual","sf":3450,"v":29600}},{"type":"Feature","geometry":{"type":"Point","coordinates":[-80.01945,40.40468]},"properties":{"p":"0035S00123000000","a":"WEST LIBERTY AVE","m":"19th Ward - PITTSBURGH","u":"C","o":"individual","sf":10138,"v":88200}},{"type":"Feature","geometry":{"type":"Point","coordinates":[-80.00116,40.40554]},"properties":{"p":"0034S00202000000","a":"DANE ST","m":"18th Ward - PITTSBURGH","u":"L","o":"corp","sf":4875,"v":2000}},{"type":"Feature","geometry":{"type":"Point","coordinates":[-80.00085,40.40748]},"properties":{"p":"0034M00127000000","a":"314 CALLE AVE","m":"18th Ward - PITTSBURGH","u":"L","o":"individual","sf":4800,"v":19600}},{"type":"Feature","geometry":{"type":"Point","coordinates":[-80.00022,40.40564]},"properties":{"p":"0034S00265000000","a":"VERNITA ST","m":"18th Ward - PITTSBURGH","u":"L","o":"corp","sf":10742,"v":20500}},{"type":"Feature","geometry":{"type":"Point","coordinates":[-80.00055,40.40749]},"properties":{"p":"0034M00130000000","a":"CALLE AVE","m":"18th Ward - PITTSBURGH","u":"L","o":"individual","sf":2000,"v":4000}},{"type":"Feature","geometry":{"type":"Point","coordinates":[-80.0008,40.40677]},"properties":{"p":"0034M00180000000","a":"VERNITA ST","m":"18th Ward - PITTSBURGH","u":"L","o":"individual","sf":12000,"v":3900}},{"type":"Feature","geometry":{"type":"Point","coordinates":[-80.00127,40.40703]},"properties":{"p":"0034M00181000000","a":"INSTITUTE ST","m":"18th Ward - PITTSBURGH","u":"L","o":"individual","sf":12777,"v":4200}},{"type":"Feature","geometry":{"type":"Point","coordinates":[-80.00129,40.40659]},"properties":{"p":"0034M00182000000","a":"INSTITUTE ST","m":"18th Ward - PITTSBURGH","u":"L","o":"individual","sf":10461,"v":3400}},{"type":"Feature","geometry":{"type":"Point","coordinates":[-80.00237,40.40691]},"properties":{"p":"0034M00244000000","a":"DANE ST","m":"18th Ward - PITTSBURGH","u":"L","o":"corp","sf":11420,"v":20600}},{"type":"Feature","geometry":{"type":"Point","coordinates":[-80.00294,40.40747]},"properties":{"p":"0034M00502000000","a":"CLANTON ST","m":"18th Ward - PITTSBURGH","u":"L","o":"corp","sf":6544,"v":20100}},{"type":"Feature","geometry":{"type":"Point","coordinates":[-80.00129,40.40956]},"properties":{"p":"0034H00259000000","a":"CAPERTON ST","m":"18th Ward - PITTSBURGH","u":"L","o":"corp","sf":7613,"v":20200}},{"type":"Feature","geometry":{"type":"Point","coordinates":[-80.01643,40.39233]},"properties":{"p":"0097D00192000000","a":"STARKAMP ST","m":"19th Ward - PITTSBURGH","u":"L","o":"individual","sf":324,"v":200}},{"type":"Feature","geometry":{"type":"Point","coordinates":[-80.01949,40.39594]},"properties":{"p":"0062S00098000000","a":"ROSSMORE AVE","m":"19th Ward - PITTSBURGH","u":"L","o":"individual","sf":3300,"v":21600}},{"type":"Feature","geometry":{"type":"Point","coordinates":[-80.01526,40.39329]},"properties":{"p":"0096A00073000000","a":"EDGEBROOK AVE","m":"19th Ward - PITTSBURGH","u":"L","o":"individual","sf":4200,"v":10900}},{"type":"Feature","geometry":{"type":"Point","coordinates":[-80.0167,40.3937]},"properties":{"p":"0097D00228000000","a":"GLENARM AVE","m":"19th Ward - PITTSBURGH","u":"L","o":"individual","sf":1200,"v":3100}},{"type":"Feature","geometry":{"type":"Point","coordinates":[-80.01672,40.39365]},"properties":{"p":"0097D00229000000","a":"GLENARM AVE","m":"19th Ward - PITTSBURGH","u":"L","o":"individual","sf":3600,"v":9400}},{"type":"Feature","geometry":{"type":"Point","coordinates":[-80.01665,40.3972]},"properties":{"p":"0062M00247000000","a":"EATHAN AVE","m":"19th Ward - PITTSBURGH","u":"L","o":"corp","sf":19434,"v":27300}},{"type":"Feature","geometry":{"type":"Point","coordinates":[-80.01639,40.39435]},"properties":{"p":"0097D00217000000","a":"2443 GLENARM AVE","m":"19th Ward - PITTSBURGH","u":"L","o":"individual","sf":3600,"v":9400}},{"type":"Feature","geometry":{"type":"Point","coordinates":[-80.01278,40.39087]},"properties":{"p":"0096E00118000000","a":"MERRICK AVE","m":"19th Ward - PITTSBURGH","u":"L","o":"individual","sf":3555,"v":9200}},{"type":"Feature","geometry":{"type":"Point","coordinates":[-80.01393,40.39178]},"properties":{"p":"0096E00020000000","a":"CLIPPERT AVE","m":"19th Ward - PITTSBURGH","u":"L","o":"individual","sf":3316,"v":8600}},{"type":"Feature","geometry":{"type":"Point","coordinates":[-80.01194,40.39194]},"properties":{"p":"0096F00002000000","a":"BROOKLINE BLVD","m":"19th Ward - PITTSBURGH","u":"L","o":"individual","sf":3600,"v":22400}},{"type":"Feature","geometry":{"type":"Point","coordinates":[-80.01173,40.39195]},"properties":{"p":"0096F00003000000","a":"BROOKLINE BLVD","m":"19th Ward - PITTSBURGH","u":"L","o":"corp","sf":3600,"v":1300}},{"type":"Feature","geometry":{"type":"Point","coordinates":[-80.01856,40.39719]},"properties":{"p":"0062M00199000000","a":"WOLFORD ST","m":"19th Ward - PITTSBURGH","u":"L","o":"individual","sf":3600,"v":9400}},{"type":"Feature","geometry":{"type":"Point","coordinates":[-80.01878,40.39701]},"properties":{"p":"0062M00202000000","a":"WOLFORD ST","m":"19th Ward - PITTSBURGH","u":"L","o":"individual","sf":3600,"v":9400}},{"type":"Feature","geometry":{"type":"Point","coordinates":[-80.01883,40.39765]},"properties":{"p":"0062M00154000000","a":"WOLFORD ST","m":"19th Ward - PITTSBURGH","u":"L","o":"individual","sf":4230,"v":24000}},{"type":"Feature","geometry":{"type":"Point","coordinates":[-80.01748,40.39684]},"properties":{"p":"0062S00328000000","a":"BERWIN AVE","m":"19th Ward - PITTSBURGH","u":"L","o":"individual","sf":3600,"v":9400}},{"type":"Feature","geometry":{"type":"Point","coordinates":[-80.01477,40.39169]},"properties":{"p":"0096E00031000000","a":"BROOKLINE BLVD","m":"19th Ward - PITTSBURGH","u":"L","o":"individual","sf":4800,"v":12500}},{"type":"Feature","geometry":{"type":"Point","coordinates":[-80.0132,40.40075]},"properties":{"p":"0061E00131000000","a":"FERNHILL AVE","m":"19th Ward - PITTSBURGH","u":"L","o":"individual","sf":3000,"v":1100}},{"type":"Feature","geometry":{"type":"Point","coordinates":[-80.01273,40.4004]},"properties":{"p":"0061E00152000000","a":"643 LAMARIDO ST","m":"19th Ward - PITTSBURGH","u":"L","o":"individual","sf":9000,"v":3000}},{"type":"Feature","geometry":{"type":"Point","coordinates":[-80.01169,40.40045]},"properties":{"p":"0061F00245000000","a":"ELMBANK ST","m":"19th Ward - PITTSBURGH","u":"L","o":"individual","sf":5548,"v":13100}},{"type":"Feature","geometry":{"type":"Point","coordinates":[-80.01156,40.4003]},"properties":{"p":"0061F00246000000","a":"ELMBANK ST","m":"19th Ward - PITTSBURGH","u":"L","o":"individual","sf":7457,"v":13200}},{"type":"Feature","geometry":{"type":"Point","coordinates":[-80.01165,40.4004]},"properties":{"p":"0061F00247000000","a":"ELMBANK ST","m":"19th Ward - PITTSBURGH","u":"L","o":"individual","sf":955,"v":400}},{"type":"Feature","geometry":{"type":"Point","coordinates":[-80.01118,40.4]},"properties":{"p":"0061F00250000000","a":"ELMBANK ST","m":"19th Ward - PITTSBURGH","u":"L","o":"corp","sf":23250,"v":27600}},{"type":"Feature","geometry":{"type":"Point","coordinates":[-80.00934,40.39951]},"properties":{"p":"0061F00350000000","a":"EDGEBROOK AVE","m":"19th Ward - PITTSBURGH","u":"L","o":"individual","sf":39291,"v":12700}},{"type":"Feature","geometry":{"type":"Point","coordinates":[-80.00831,40.39968]},"properties":{"p":"0061F00365000000","a":"EDGEBROOK AVE","m":"19th Ward - PITTSBURGH","u":"L","o":"individual","sf":7327,"v":2400}},{"type":"Feature","geometry":{"type":"Point","coordinates":[-80.00754,40.40134]},"properties":{"p":"0061G00009000000","a":"FERNCLIFFE AVE","m":"19th Ward - PITTSBURGH","u":"L","o":"corp","sf":7200,"v":26200}},{"type":"Feature","geometry":{"type":"Point","coordinates":[-80.00743,40.40143]},"properties":{"p":"0061G00012000000","a":"FERNCLIFFE AVE","m":"19th Ward - PITTSBURGH","u":"L","o":"corp","sf":3600,"v":22400}},{"type":"Feature","geometry":{"type":"Point","coordinates":[-80.01822,40.40225]},"properties":{"p":"0062D00251000000","a":"PLAINVIEW AVE","m":"19th Ward - PITTSBURGH","u":"L","o":"corp","sf":720,"v":800}},{"type":"Feature","geometry":{"type":"Point","coordinates":[-80.01219,40.40286]},"properties":{"p":"0061A00155000000","a":"658 CRYSLER ST","m":"19th Ward - PITTSBURGH","u":"L","o":"individual","sf":6000,"v":13100}},{"type":"Feature","geometry":{"type":"Point","coordinates":[-80.0097,40.40033]},"properties":{"p":"0061F00143000000","a":"FERNCLIFFE AVE","m":"19th Ward - PITTSBURGH","u":"L","o":"individual","sf":3000,"v":7800}},{"type":"Feature","geometry":{"type":"Point","coordinates":[-80.00959,40.40033]},"properties":{"p":"0061F00144000000","a":"FERNCLIFFE AVE","m":"19th Ward - PITTSBURGH","u":"L","o":"individual","sf":3000,"v":7800}},{"type":"Feature","geometry":{"type":"Point","coordinates":[-80.00932,40.40032]},"properties":{"p":"0061F00145000000","a":"FERNCLIFFE AVE","m":"19th Ward - PITTSBURGH","u":"L","o":"corp","sf":12000,"v":26600}},{"type":"Feature","geometry":{"type":"Point","coordinates":[-80.00888,40.4003]},"properties":{"p":"0061F00150000000","a":"FERNCLIFFE AVE","m":"19th Ward - PITTSBURGH","u":"L","o":"individual","sf":12263,"v":4000}},{"type":"Feature","geometry":{"type":"Point","coordinates":[-80.00797,40.40051]},"properties":{"p":"0061F00168000000","a":"FERNCLIFFE AVE","m":"19th Ward - PITTSBURGH","u":"L","o":"individual","sf":28794,"v":28100}},{"type":"Feature","geometry":{"type":"Point","coordinates":[-80.00858,40.39992]},"properties":{"p":"0061F00175000000","a":"EDGEBROOK AVE","m":"19th Ward - PITTSBURGH","u":"L","o":"individual","sf":28580,"v":9200}},{"type":"Feature","geometry":{"type":"Point","coordinates":[-80.01089,40.40042]},"properties":{"p":"0061F00202000000","a":"FERNCLIFFE AVE","m":"19th Ward - PITTSBURGH","u":"L","o":"individual","sf":8520,"v":2800}},{"type":"Feature","geometry":{"type":"Point","coordinates":[-80.0085,40.40062]},"properties":{"p":"0061F00110000000","a":"FERNHILL AVE","m":"19th Ward - PITTSBURGH","u":"L","o":"individual","sf":3000,"v":7800}},{"type":"Feature","geometry":{"type":"Point","coordinates":[-80.00883,40.40063]},"properties":{"p":"0061F00116000000","a":"FERNHILL AVE","m":"19th Ward - PITTSBURGH","u":"L","o":"corp","sf":15000,"v":26900}},{"type":"Feature","geometry":{"type":"Point","coordinates":[-80.00937,40.40065]},"properties":{"p":"0061F00122000000","a":"FERNHILL AVE","m":"19th Ward - PITTSBURGH","u":"L","o":"corp","sf":15000,"v":26900}},{"type":"Feature","geometry":{"type":"Point","coordinates":[-80.01023,40.40068]},"properties":{"p":"0061F00130000000","a":"FERNHILL AVE","m":"19th Ward - PITTSBURGH","u":"L","o":"individual","sf":3000,"v":7800}},{"type":"Feature","geometry":{"type":"Point","coordinates":[-80.01009,40.40034]},"properties":{"p":"0061F00141000000","a":"FERNCLIFFE AVE","m":"19th Ward - PITTSBURGH","u":"L","o":"individual","sf":12149,"v":13600}},{"type":"Feature","geometry":{"type":"Point","coordinates":[-80.00981,40.40033]},"properties":{"p":"0061F00142000000","a":"FERNCLIFFE AVE","m":"19th Ward - PITTSBURGH","u":"L","o":"individual","sf":3000,"v":7800}},{"type":"Feature","geometry":{"type":"Point","coordinates":[-80.01099,40.40052]},"properties":{"p":"0061F00203000000","a":"FERNCLIFFE AVE","m":"19th Ward - PITTSBURGH","u":"L","o":"individual","sf":4260,"v":1500}},{"type":"Feature","geometry":{"type":"Point","coordinates":[-80.01365,40.40043]},"properties":{"p":"0061E00164000000","a":"LAMARIDO ST","m":"19th Ward - PITTSBURGH","u":"L","o":"individual","sf":3000,"v":7800}},{"type":"Feature","geometry":{"type":"Point","coordinates":[-80.00649,40.40142]},"properties":{"p":"0061G00023000000","a":"FERNCLIFFE AVE","m":"19th Ward - PITTSBURGH","u":"L","o":"corp","sf":6320,"v":26100}},{"type":"Feature","geometry":{"type":"Point","coordinates":[-80.0066,40.40136]},"properties":{"p":"0061G00024000000","a":"FERNCLIFFE AVE","m":"19th Ward - PITTSBURGH","u":"L","o":"corp","sf":4500,"v":24700}},{"type":"Feature","geometry":{"type":"Point","coordinates":[-80.00672,40.40127]},"properties":{"p":"0061G00027000000","a":"FERNCLIFFE AVE","m":"19th Ward - PITTSBURGH","u":"L","o":"corp","sf":9000,"v":26400}},{"type":"Feature","geometry":{"type":"Point","coordinates":[-80.00699,40.40108]},"properties":{"p":"0061G00033000000","a":"FERNCLIFFE AVE","m":"19th Ward - PITTSBURGH","u":"L","o":"corp","sf":22500,"v":27600}},{"type":"Feature","geometry":{"type":"Point","coordinates":[-80.01101,40.39624]},"properties":{"p":"0061P00069000100","a":"LYNNBROOK AVE","m":"19th Ward - PITTSBURGH","u":"L","o":"individual","sf":13883,"v":26800}},{"type":"Feature","geometry":{"type":"Point","coordinates":[-80.01779,40.40017]},"properties":{"p":"0062H00166000000","a":"LAMARIDO ST","m":"19th Ward - PITTSBURGH","u":"L","o":"individual","sf":3000,"v":7800}},{"type":"Feature","geometry":{"type":"Point","coordinates":[-80.01981,40.40598]},"properties":{"p":"0035S00024000000","a":"RINGWALT ST","m":"19th Ward - PITTSBURGH","u":"L","o":"individual","sf":3300,"v":16600}},{"type":"Feature","geometry":{"type":"Point","coordinates":[-80.01717,40.40206]},"properties":{"p":"0062D00299000000","a":"PLAINVIEW AVE","m":"19th Ward - PITTSBURGH","u":"L","o":"individual","sf":3000,"v":7800}},{"type":"Feature","geometry":{"type":"Point","coordinates":[-80.00597,40.40096]},"properties":{"p":"0061G00104000000","a":"EDGEBROOK AVE","m":"19th Ward - PITTSBURGH","u":"L","o":"individual","sf":13625,"v":4500}},{"type":"Feature","geometry":{"type":"Point","coordinates":[-80.00847,40.401]},"properties":{"p":"0061F00096000000","a":"FERNHILL AVE","m":"19th Ward - PITTSBURGH","u":"L","o":"individual","sf":3000,"v":7800}},{"type":"Feature","geometry":{"type":"Point","coordinates":[-80.00837,40.401]},"properties":{"p":"0061F00097000000","a":"FERNHILL AVE","m":"19th Ward - PITTSBURGH","u":"L","o":"corp","sf":3000,"v":7800}},{"type":"Feature","geometry":{"type":"Point","coordinates":[-80.00825,40.401]},"properties":{"p":"0061F00098000000","a":"FERNHILL AVE","m":"19th Ward - PITTSBURGH","u":"L","o":"corp","sf":3000,"v":7800}},{"type":"Feature","geometry":{"type":"Point","coordinates":[-80.00809,40.40099]},"properties":{"p":"0061F00099000000","a":"FERNHILL AVE","m":"19th Ward - PITTSBURGH","u":"L","o":"corp","sf":6000,"v":13100}},{"type":"Feature","geometry":{"type":"Point","coordinates":[-80.00835,40.40061]},"properties":{"p":"0061F00109000000","a":"FERNHILL AVE","m":"19th Ward - PITTSBURGH","u":"L","o":"individual","sf":6385,"v":13100}},{"type":"Feature","geometry":{"type":"Point","coordinates":[-80.01118,40.39639]},"properties":{"p":"0061P00053000000","a":"LYNNBROOK AVE","m":"19th Ward - PITTSBURGH","u":"L","o":"individual","sf":2049,"v":800}},{"type":"Feature","geometry":{"type":"Point","coordinates":[-80.01029,40.39613]},"properties":{"p":"0061P00058000000","a":"WHITED ST","m":"19th Ward - PITTSBURGH","u":"L","o":"individual","sf":7754,"v":13300}},{"type":"Feature","geometry":{"type":"Point","coordinates":[-80.01648,40.40051]},"properties":{"p":"0062H00144000000","a":"341 LAMARIDO ST","m":"19th Ward - PITTSBURGH","u":"L","o":"individual","sf":3000,"v":7800}},{"type":"Feature","geometry":{"type":"Point","coordinates":[-80.00941,40.40208]},"properties":{"p":"0061B00066000000","a":"DUNSTER ST","m":"19th Ward - PITTSBURGH","u":"L","o":"corp","sf":3000,"v":7800}},{"type":"Feature","geometry":{"type":"Point","coordinates":[-80.00997,40.4021]},"properties":{"p":"0061B00072000000","a":"DUNSTER ST","m":"19th Ward - PITTSBURGH","u":"L","o":"individual","sf":3000,"v":20800}},{"type":"Feature","geometry":{"type":"Point","coordinates":[-80.01916,40.40192]},"properties":{"p":"0062D00267000000","a":"PLAINVIEW AVE","m":"19th Ward - PITTSBURGH","u":"L","o":"individual","sf":4378,"v":24400}},{"type":"Feature","geometry":{"type":"Point","coordinates":[-80.01055,40.40106]},"properties":{"p":"0061F00074000000","a":"FERNHILL AVE","m":"19th Ward - PITTSBURGH","u":"L","o":"individual","sf":3000,"v":7800}},{"type":"Feature","geometry":{"type":"Point","coordinates":[-80.019,40.39682]},"properties":{"p":"0062S00206000000","a":"WOLFORD ST","m":"19th Ward - PITTSBURGH","u":"L","o":"individual","sf":3600,"v":9400}},{"type":"Feature","geometry":{"type":"Point","coordinates":[-80.01908,40.39677]},"properties":{"p":"0062S00207000000","a":"WOLFORD ST","m":"19th Ward - PITTSBURGH","u":"L","o":"corp","sf":3600,"v":9400}},{"type":"Feature","geometry":{"type":"Point","coordinates":[-80.01333,40.39281]},"properties":{"p":"0096A00171000000","a":"BELLAIRE AVE","m":"19th Ward - PITTSBURGH","u":"L","o":"corp","sf":3600,"v":4000}},{"type":"Feature","geometry":{"type":"Point","coordinates":[-80.01399,40.39417]},"properties":{"p":"0096A00240000000","a":"LYNNBROOK AVE","m":"19th Ward - PITTSBURGH","u":"L","o":"individual","sf":2700,"v":7000}},{"type":"Feature","geometry":{"type":"Point","coordinates":[-80.01466,40.39059]},"properties":{"p":"0096E00228000000","a":"1100 CREEDMOOR AVE","m":"19th Ward - PITTSBURGH","u":"L","o":"corp","sf":12648,"v":26700}},{"type":"Feature","geometry":{"type":"Point","coordinates":[-80.00922,40.39118]},"properties":{"p":"0096F00280000000","a":"DORIC WAY","m":"19th Ward - PITTSBURGH","u":"L","o":"individual","sf":1138,"v":3000}},{"type":"Feature","geometry":{"type":"Point","coordinates":[-80.00858,40.397]},"properties":{"p":"0061K00130000000","a":"LYNNBROOK AVE","m":"19th Ward - PITTSBURGH","u":"L","o":"individual","sf":21213,"v":27500}},{"type":"Feature","geometry":{"type":"Point","coordinates":[-80.01014,40.39713]},"properties":{"p":"0061K00150000000","a":"LYNNBROOK AVE","m":"19th Ward - PITTSBURGH","u":"L","o":"individual","sf":1206,"v":3100}},{"type":"Feature","geometry":{"type":"Point","coordinates":[-80.01678,40.4035]},"properties":{"p":"0062D00223000000","a":"1934 PLAINVIEW AVE","m":"19th Ward - PITTSBURGH","u":"L","o":"individual","sf":3000,"v":7800}},{"type":"Feature","geometry":{"type":"Point","coordinates":[-80.01283,40.40113]},"properties":{"p":"0061E00057000000","a":"FERNHILL AVE","m":"19th Ward - PITTSBURGH","u":"L","o":"individual","sf":1500,"v":3900}},{"type":"Feature","geometry":{"type":"Point","coordinates":[-80.01318,40.40114]},"properties":{"p":"0061E00059000000","a":"FERNHILL AVE","m":"19th Ward - PITTSBURGH","u":"L","o":"individual","sf":3000,"v":7800}},{"type":"Feature","geometry":{"type":"Point","coordinates":[-80.01804,40.396]},"properties":{"p":"0062S00189000000","a":"GALLION AVE","m":"19th Ward - PITTSBURGH","u":"L","o":"individual","sf":4275,"v":11100}},{"type":"Feature","geometry":{"type":"Point","coordinates":[-80.01412,40.3936]},"properties":{"p":"0096A00223000000","a":"MILAN AVE","m":"19th Ward - PITTSBURGH","u":"L","o":"corp","sf":3600,"v":9400}},{"type":"Feature","geometry":{"type":"Point","coordinates":[-80.00819,40.39925]},"properties":{"p":"0061K00110000000","a":"EDGEBROOK AVE","m":"19th Ward - PITTSBURGH","u":"L","o":"individual","sf":188179,"v":14900}},{"type":"Feature","geometry":{"type":"Point","coordinates":[-80.01605,40.40183]},"properties":{"p":"0061A00030000000","a":"PIONEER AVE","m":"19th Ward - PITTSBURGH","u":"L","o":"individual","sf":6138,"v":2100}},{"type":"Feature","geometry":{"type":"Point","coordinates":[-80.01796,40.39654]},"properties":{"p":"0062S00279000000","a":"BERWIN AVE","m":"19th Ward - PITTSBURGH","u":"L","o":"individual","sf":4260,"v":11100}},{"type":"Feature","geometry":{"type":"Point","coordinates":[-80.01753,40.39622]},"properties":{"p":"0062S00284000000","a":"756 BERWIN AVE","m":"19th Ward - PITTSBURGH","u":"L","o":"individual","sf":8550,"v":26300}},{"type":"Feature","geometry":{"type":"Point","coordinates":[-80.0134,40.39423]},"properties":{"p":"0096A00251000000","a":"2431 LYNNBROOK AVE","m":"19th Ward - PITTSBURGH","u":"L","o":"individual","sf":5786,"v":13100}},{"type":"Feature","geometry":{"type":"Point","coordinates":[-80.01325,40.39424]},"properties":{"p":"0096A00252000000","a":"LYNNBROOK AVE","m":"19th Ward - PITTSBURGH","u":"L","o":"corp","sf":5462,"v":13000}},{"type":"Feature","geometry":{"type":"Point","coordinates":[-80.01311,40.39431]},"properties":{"p":"0096A00253000000","a":"LYNNBROOK AVE","m":"19th Ward - PITTSBURGH","u":"L","o":"corp","sf":5332,"v":13000}},{"type":"Feature","geometry":{"type":"Point","coordinates":[-80.01939,40.40143]},"properties":{"p":"0062H00017000000","a":"PLAINVIEW AVE","m":"19th Ward - PITTSBURGH","u":"L","o":"individual","sf":3000,"v":7800}},{"type":"Feature","geometry":{"type":"Point","coordinates":[-80.01379,40.40149]},"properties":{"p":"0061E00024000000","a":"MAYVILLE AVE","m":"19th Ward - PITTSBURGH","u":"L","o":"individual","sf":1500,"v":600}},{"type":"Feature","geometry":{"type":"Point","coordinates":[-80.01384,40.40149]},"properties":{"p":"0061E00024000A00","a":"MAYVILLE AVE","m":"19th Ward - PITTSBURGH","u":"L","o":"individual","sf":1500,"v":600}},{"type":"Feature","geometry":{"type":"Point","coordinates":[-80.00835,40.40133]},"properties":{"p":"0061F00012000000","a":"MAYVILLE AVE","m":"19th Ward - PITTSBURGH","u":"L","o":"individual","sf":3000,"v":7800}},{"type":"Feature","geometry":{"type":"Point","coordinates":[-80.01333,40.39832]},"properties":{"p":"0061J00280000000","a":"ELMBANK ST","m":"19th Ward - PITTSBURGH","u":"L","o":"individual","sf":9109,"v":13400}},{"type":"Feature","geometry":{"type":"Point","coordinates":[-80.00889,40.40135]},"properties":{"p":"0061F00019000000","a":"MAYVILLE AVE","m":"19th Ward - PITTSBURGH","u":"L","o":"individual","sf":3000,"v":7800}},{"type":"Feature","geometry":{"type":"Point","coordinates":[-80.01175,40.39712]},"properties":{"p":"0061K00054000000","a":"EDGEBROOK AVE","m":"19th Ward - PITTSBURGH","u":"L","o":"individual","sf":30362,"v":9800}},{"type":"Feature","geometry":{"type":"Point","coordinates":[-80.01033,40.39771]},"properties":{"p":"0061K00070000000","a":"EDGEBROOK AVE","m":"19th Ward - PITTSBURGH","u":"L","o":"individual","sf":74488,"v":32400}},{"type":"Feature","geometry":{"type":"Point","coordinates":[-80.01334,40.39575]},"properties":{"p":"0061N00204000000","a":"EDGEBROOK AVE","m":"19th Ward - PITTSBURGH","u":"L","o":"individual","sf":42037,"v":29300}},{"type":"Feature","geometry":{"type":"Point","coordinates":[-80.01308,40.39586]},"properties":{"p":"0061N00210000000","a":"EDGEBROOK AVE","m":"19th Ward - PITTSBURGH","u":"L","o":"corp","sf":11813,"v":26600}},{"type":"Feature","geometry":{"type":"Point","coordinates":[-80.01293,40.39589]},"properties":{"p":"0061N00211000A00","a":"EDGEBROOK AVE","m":"19th Ward - PITTSBURGH","u":"L","o":"individual","sf":5915,"v":13100}},{"type":"Feature","geometry":{"type":"Point","coordinates":[-80.01273,40.39599]},"properties":{"p":"0061N00240000000","a":"EDGEBROOK AVE","m":"19th Ward - PITTSBURGH","u":"L","o":"individual","sf":7544,"v":13200}},{"type":"Feature","geometry":{"type":"Point","coordinates":[-80.01281,40.39592]},"properties":{"p":"0061N00242000000","a":"EDGEBROOK AVE","m":"19th Ward - PITTSBURGH","u":"L","o":"individual","sf":6400,"v":13100}},{"type":"Feature","geometry":{"type":"Point","coordinates":[-80.01412,40.39485]},"properties":{"p":"0061N00187000000","a":"EDGEBROOK AVE","m":"19th Ward - PITTSBURGH","u":"L","o":"individual","sf":3157,"v":8200}},{"type":"Feature","geometry":{"type":"Point","coordinates":[-80.01376,40.3948]},"properties":{"p":"0061N00188000000","a":"LYNNBROOK AVE","m":"19th Ward - PITTSBURGH","u":"L","o":"individual","sf":3315,"v":8600}},{"type":"Feature","geometry":{"type":"Point","coordinates":[-80.01673,40.40539]},"properties":{"p":"0035S00292000000","a":"1817 WOODWARD AVE","m":"19th Ward - PITTSBURGH","u":"L","o":"corp","sf":3000,"v":7800}},{"type":"Feature","geometry":{"type":"Point","coordinates":[-80.01703,40.40399]},"properties":{"p":"0062D00208000000","a":"1917 WOODWARD AVE","m":"19th Ward - PITTSBURGH","u":"L","o":"individual","sf":3000,"v":7800}},{"type":"Feature","geometry":{"type":"Point","coordinates":[-80.01774,40.40264]},"properties":{"p":"0062D00186000000","a":"WOODWARD AVE","m":"19th Ward - PITTSBURGH","u":"L","o":"individual","sf":5999,"v":13100}},{"type":"Feature","geometry":{"type":"Point","coordinates":[-80.01976,40.4007]},"properties":{"p":"0062H00040000100","a":"2106 PIONEER AVE","m":"19th Ward - PITTSBURGH","u":"L","o":"individual","sf":670,"v":300}},{"type":"Feature","geometry":{"type":"Point","coordinates":[-80.00942,40.40175]},"properties":{"p":"0061B00029000000","a":"MAYVILLE AVE","m":"19th Ward - PITTSBURGH","u":"L","o":"individual","sf":3000,"v":7800}},{"type":"Feature","geometry":{"type":"Point","coordinates":[-80.00909,40.40174]},"properties":{"p":"0061B00032000000","a":"MAYVILLE AVE","m":"19th Ward - PITTSBURGH","u":"L","o":"individual","sf":3000,"v":7800}},{"type":"Feature","geometry":{"type":"Point","coordinates":[-80.00265,40.40337]},"properties":{"p":"0061D00107000000","a":"TIMBERLAND AVE","m":"19th Ward - PITTSBURGH","u":"L","o":"corp","sf":20790,"v":14400}},{"type":"Feature","geometry":{"type":"Point","coordinates":[-80.00243,40.40329]},"properties":{"p":"0061D00111000000","a":"TIMBERLAND AVE","m":"19th Ward - PITTSBURGH","u":"L","o":"corp","sf":15800,"v":3600}},{"type":"Feature","geometry":{"type":"Point","coordinates":[-80.0023,40.40307]},"properties":{"p":"0061D00115000000","a":"TIMBERLAND AVE","m":"19th Ward - PITTSBURGH","u":"L","o":"corp","sf":7500,"v":2800}},{"type":"Feature","geometry":{"type":"Point","coordinates":[-80.00222,40.40289]},"properties":{"p":"0061D00119000000","a":"TIMBERLAND AVE","m":"19th Ward - PITTSBURGH","u":"L","o":"corp","sf":3570,"v":2000}},{"type":"Feature","geometry":{"type":"Point","coordinates":[-80.00215,40.40263]},"properties":{"p":"0061D00121000000","a":"ABSTRACT AVE","m":"19th Ward - PITTSBURGH","u":"L","o":"corp","sf":4500,"v":2400}},{"type":"Feature","geometry":{"type":"Point","coordinates":[-80.0039,40.40411]},"properties":{"p":"0061D00125000000","a":"TIMBERLAND AVE","m":"19th Ward - PITTSBURGH","u":"L","o":"corp","sf":6325,"v":2700}},{"type":"Feature","geometry":{"type":"Point","coordinates":[-80.00218,40.40252]},"properties":{"p":"0061D00500000000","a":"TIMBERLAND AVE","m":"19th Ward - PITTSBURGH","u":"L","o":"corp","sf":5940,"v":3100}},{"type":"Feature","geometry":{"type":"Point","coordinates":[-80.01816,40.40293]},"properties":{"p":"0062D00150000000","a":"WOODWARD AVE","m":"19th Ward - PITTSBURGH","u":"L","o":"individual","sf":4279,"v":1500}},{"type":"Feature","geometry":{"type":"Point","coordinates":[-80.01828,40.40295]},"properties":{"p":"0062D00151000000","a":"WOODWARD AVE","m":"19th Ward - PITTSBURGH","u":"L","o":"individual","sf":4796,"v":1000}},{"type":"Feature","geometry":{"type":"Point","coordinates":[-80.01839,40.40296]},"properties":{"p":"0062D00152000000","a":"WOODWARD AVE","m":"19th Ward - PITTSBURGH","u":"L","o":"corp","sf":5436,"v":1900}},{"type":"Feature","geometry":{"type":"Point","coordinates":[-80.01981,40.40274]},"properties":{"p":"0062D00053000000","a":"2031 FAIR AVE","m":"19th Ward - PITTSBURGH","u":"L","o":"corp","sf":2832,"v":3700}},{"type":"Feature","geometry":{"type":"Point","coordinates":[-80.01967,40.4025]},"properties":{"p":"0062D00068000000","a":"WOODWARD AVE","m":"19th Ward - PITTSBURGH","u":"L","o":"individual","sf":4589,"v":1000}},{"type":"Feature","geometry":{"type":"Point","coordinates":[-80.00357,40.40353]},"properties":{"p":"0061C00095000000","a":"TIMBERLAND AVE","m":"19th Ward - PITTSBURGH","u":"L","o":"individual","sf":3565,"v":1200}},{"type":"Feature","geometry":{"type":"Point","coordinates":[-80.00701,40.40173]},"properties":{"p":"0061C00100000000","a":"FERNCLIFFE AVE","m":"19th Ward - PITTSBURGH","u":"L","o":"corp","sf":21250,"v":27500}},{"type":"Feature","geometry":{"type":"Point","coordinates":[-80.00735,40.40197]},"properties":{"p":"0061C00115000000","a":"DUNSTER ST","m":"19th Ward - PITTSBURGH","u":"L","o":"corp","sf":14670,"v":26900}},{"type":"Feature","geometry":{"type":"Point","coordinates":[-80.00767,40.40203]},"properties":{"p":"0061C00116000000","a":"844 DUNSTER ST","m":"19th Ward - PITTSBURGH","u":"L","o":"individual","sf":3000,"v":1100}},{"type":"Feature","geometry":{"type":"Point","coordinates":[-80.01829,40.39979]},"properties":{"p":"0062H00283000000","a":"2303 BEAUFORT AVE","m":"19th Ward - PITTSBURGH","u":"L","o":"individual","sf":5000,"v":13000}},{"type":"Feature","geometry":{"type":"Point","coordinates":[-80.00394,40.40371]},"properties":{"p":"0061D00085000000","a":"TIMBERLAND AVE","m":"19th Ward - PITTSBURGH","u":"L","o":"individual","sf":11690,"v":8900}},{"type":"Feature","geometry":{"type":"Point","coordinates":[-80.00343,40.40337]},"properties":{"p":"0061D00090000000","a":"TIMBERLAND AVE","m":"19th Ward - PITTSBURGH","u":"L","o":"individual","sf":4800,"v":12500}},{"type":"Feature","geometry":{"type":"Point","coordinates":[-80.00352,40.40343]},"properties":{"p":"0061D00093000000","a":"TIMBERLAND AVE","m":"19th Ward - PITTSBURGH","u":"L","o":"individual","sf":6440,"v":2200}},{"type":"Feature","geometry":{"type":"Point","coordinates":[-80.0153,40.39631]},"properties":{"p":"0061N00040000000","a":"GLENARM AVE","m":"19th Ward - PITTSBURGH","u":"L","o":"individual","sf":4110,"v":10700}},{"type":"Feature","geometry":{"type":"Point","coordinates":[-80.01565,40.39484]},"properties":{"p":"0061N00107000000","a":"STARKAMP ST","m":"19th Ward - PITTSBURGH","u":"L","o":"corp","sf":3300,"v":8600}},{"type":"Feature","geometry":{"type":"Point","coordinates":[-80.01811,40.40618]},"properties":{"p":"0035S00195000000","a":"STETSON ST","m":"19th Ward - PITTSBURGH","u":"L","o":"corp","sf":2562,"v":19700}},{"type":"Feature","geometry":{"type":"Point","coordinates":[-80.00403,40.40191]},"properties":{"p":"0061C00010000000","a":"ABSTRACT AVE","m":"19th Ward - PITTSBURGH","u":"L","o":"corp","sf":15627,"v":27000}},{"type":"Feature","geometry":{"type":"Point","coordinates":[-80.00385,40.40196]},"properties":{"p":"0061C00016000000","a":"ABSTRACT AVE","m":"19th Ward - PITTSBURGH","u":"L","o":"individual","sf":4800,"v":4400}},{"type":"Feature","geometry":{"type":"Point","coordinates":[-80.00376,40.40207]},"properties":{"p":"0061C00018000000","a":"ABSTRACT AVE","m":"19th Ward - PITTSBURGH","u":"L","o":"individual","sf":6000,"v":2000}},{"type":"Feature","geometry":{"type":"Point","coordinates":[-80.00473,40.40177]},"properties":{"p":"0061C00024000000","a":"ABSTRACT AVE","m":"19th Ward - PITTSBURGH","u":"L","o":"corp","sf":204253,"v":65600}},{"type":"Feature","geometry":{"type":"Point","coordinates":[-80.00374,40.40295]},"properties":{"p":"0061C00028000000","a":"ABSTRACT AVE","m":"19th Ward - PITTSBURGH","u":"L","o":"individual","sf":4800,"v":12500}},{"type":"Feature","geometry":{"type":"Point","coordinates":[-80.00338,40.40249]},"properties":{"p":"0061D00015000000","a":"1536 ABSTRACT AVE","m":"19th Ward - PITTSBURGH","u":"L","o":"corp","sf":5760,"v":13100}},{"type":"Feature","geometry":{"type":"Point","coordinates":[-80.00362,40.40225]},"properties":{"p":"0061D00016000000","a":"ABSTRACT AVE","m":"19th Ward - PITTSBURGH","u":"L","o":"corp","sf":13200,"v":13700}},{"type":"Feature","geometry":{"type":"Point","coordinates":[-80.00318,40.40191]},"properties":{"p":"0061D00040000000","a":"DREAM ST","m":"19th Ward - PITTSBURGH","u":"L","o":"corp","sf":78922,"v":32800}},{"type":"Feature","geometry":{"type":"Point","coordinates":[-80.01563,40.40048]},"properties":{"p":"0061E00184000000","a":"369 LAMARIDO ST","m":"19th Ward - PITTSBURGH","u":"L","o":"individual","sf":3000,"v":7800}},{"type":"Feature","geometry":{"type":"Point","coordinates":[-80.00382,40.40132]},"properties":{"p":"0061G00143000000","a":"EDGEBROOK AVE","m":"19th Ward - PITTSBURGH","u":"L","o":"individual","sf":22677,"v":14600}},{"type":"Feature","geometry":{"type":"Point","coordinates":[-80.00597,40.40009]},"properties":{"p":"0061G00246000000","a":"EDGEBROOK AVE","m":"19th Ward - PITTSBURGH","u":"L","o":"individual","sf":10650,"v":3500}},{"type":"Feature","geometry":{"type":"Point","coordinates":[-80.00304,40.40231]},"properties":{"p":"0061D00060000000","a":"DREAM ST","m":"19th Ward - PITTSBURGH","u":"L","o":"individual","sf":6400,"v":13100}},{"type":"Feature","geometry":{"type":"Point","coordinates":[-80.00268,40.4023]},"properties":{"p":"0061D00065000000","a":"TIMBERLAND AVE","m":"19th Ward - PITTSBURGH","u":"L","o":"corp","sf":45477,"v":4200}},{"type":"Feature","geometry":{"type":"Point","coordinates":[-80.0023,40.40203]},"properties":{"p":"0061D00074000000","a":"EDGEBROOK AVE","m":"19th Ward - PITTSBURGH","u":"L","o":"individual","sf":26964,"v":28000}},{"type":"Feature","geometry":{"type":"Point","coordinates":[-80.01332,40.40004]},"properties":{"p":"0061E00215000A00","a":"LAMARIDO ST","m":"19th Ward - PITTSBURGH","u":"L","o":"individual","sf":1000,"v":2600}},{"type":"Feature","geometry":{"type":"Point","coordinates":[-80.01303,40.40003]},"properties":{"p":"0061E00221000000","a":"700 HARTRANFT ST","m":"19th Ward - PITTSBURGH","u":"L","o":"individual","sf":3000,"v":20800}},{"type":"Feature","geometry":{"type":"Point","coordinates":[-80.0121,40.40002]},"properties":{"p":"0061E00229000000","a":"LAMARIDO ST","m":"19th Ward - PITTSBURGH","u":"L","o":"individual","sf":26110,"v":2500}},{"type":"Feature","geometry":{"type":"Point","coordinates":[-80.00649,40.40013]},"properties":{"p":"0061G00260000000","a":"EDGEBROOK AVE","m":"19th Ward - PITTSBURGH","u":"L","o":"individual","sf":40744,"v":13100}},{"type":"Feature","geometry":{"type":"Point","coordinates":[-80.00701,40.39995]},"properties":{"p":"0061G00266000000","a":"EDGEBROOK AVE","m":"19th Ward - PITTSBURGH","u":"L","o":"individual","sf":13912,"v":4600}},{"type":"Feature","geometry":{"type":"Point","coordinates":[-80.01463,40.39652]},"properties":{"p":"0061N00028000000","a":"923 EATHAN AVE","m":"19th Ward - PITTSBURGH","u":"L","o":"individual","sf":3600,"v":5000}},{"type":"Feature","geometry":{"type":"Point","coordinates":[-80.01937,40.40263]},"properties":{"p":"0062D00071000000","a":"2076 WOODWARD AVE","m":"19th Ward - PITTSBURGH","u":"L","o":"individual","sf":3194,"v":1000}},{"type":"Feature","geometry":{"type":"Point","coordinates":[-80.01303,40.40186]},"properties":{"p":"0061A00292000000","a":"MAYVILLE AVE","m":"19th Ward - PITTSBURGH","u":"L","o":"individual","sf":2640,"v":900}},{"type":"Feature","geometry":{"type":"Point","coordinates":[-80.00282,40.40389]},"properties":{"p":"0061D00100000000","a":"TIMBERLAND AVE","m":"19th Ward - PITTSBURGH","u":"L","o":"corp","sf":9520,"v":3000}},{"type":"Feature","geometry":{"type":"Point","coordinates":[-80.00263,40.40366]},"properties":{"p":"0061D00105000000","a":"TIMBERLAND AVE","m":"19th Ward - PITTSBURGH","u":"L","o":"corp","sf":5390,"v":2600}},{"type":"Feature","geometry":{"type":"Point","coordinates":[-80.01292,40.40215]},"properties":{"p":"0061A00233000100","a":"DUNSTER ST","m":"19th Ward - PITTSBURGH","u":"L","o":"individual","sf":3300,"v":8600}},{"type":"Feature","geometry":{"type":"Point","coordinates":[-80.00754,40.40243]},"properties":{"p":"0061C00199000000","a":"DUNSTER ST","m":"19th Ward - PITTSBURGH","u":"L","o":"individual","sf":2526,"v":6600}},{"type":"Feature","geometry":{"type":"Point","coordinates":[-80.00688,40.40241]},"properties":{"p":"0061C00205000000","a":"DUNSTER ST","m":"19th Ward - PITTSBURGH","u":"L","o":"individual","sf":8625,"v":14000}},{"type":"Feature","geometry":{"type":"Point","coordinates":[-80.00403,40.40275]},"properties":{"p":"0061C00241000000","a":"DUNSTER ST","m":"19th Ward - PITTSBURGH","u":"L","o":"individual","sf":9290,"v":3400}},{"type":"Feature","geometry":{"type":"Point","coordinates":[-80.01882,40.40939]},"properties":{"p":"0035H00220000000","a":"CAPE MAY AVE","m":"19th Ward - PITTSBURGH","u":"L","o":"corp","sf":3255,"v":6500}},{"type":"Feature","geometry":{"type":"Point","coordinates":[-80.01674,40.40989]},"properties":{"p":"0035H00279000000","a":"WEST LIBERTY AVE","m":"19th Ward - PITTSBURGH","u":"L","o":"corp","sf":4320,"v":2000}},{"type":"Feature","geometry":{"type":"Point","coordinates":[-80.01667,40.40995]},"properties":{"p":"0035H00280000000","a":"WEST LIBERTY AVE","m":"19th Ward - PITTSBURGH","u":"L","o":"corp","sf":4260,"v":8500}},{"type":"Feature","geometry":{"type":"Point","coordinates":[-80.01767,40.40942]},"properties":{"p":"0035H00267000000","a":"SUBURBAN AVE","m":"19th Ward - PITTSBURGH","u":"L","o":"individual","sf":3483,"v":17000}},{"type":"Feature","geometry":{"type":"Point","coordinates":[-80.00766,40.40919]},"properties":{"p":"0034G00006000000","a":"LINIAL AVE","m":"19th Ward - PITTSBURGH","u":"L","o":"individual","sf":5000,"v":1900}},{"type":"Feature","geometry":{"type":"Point","coordinates":[-80.00391,40.4045]},"properties":{"p":"0034R00080000000","a":"TIMBERLAND AVE","m":"19th Ward - PITTSBURGH","u":"L","o":"individual","sf":4395,"v":1500}},{"type":"Feature","geometry":{"type":"Point","coordinates":[-80.01825,40.40936]},"properties":{"p":"0035H00214000000","a":"SUBURBAN AVE","m":"19th Ward - PITTSBURGH","u":"L","o":"individual","sf":4957,"v":1000}},{"type":"Feature","geometry":{"type":"Point","coordinates":[-80.00816,40.40867]},"properties":{"p":"0034K00016000000","a":"LINIAL AVE","m":"19th Ward - PITTSBURGH","u":"L","o":"individual","sf":10000,"v":30500}},{"type":"Feature","geometry":{"type":"Point","coordinates":[-80.00825,40.40798]},"properties":{"p":"0034K00030000000","a":"414 LEAVITT ST","m":"19th Ward - PITTSBURGH","u":"L","o":"individual","sf":6518,"v":2400}},{"type":"Feature","geometry":{"type":"Point","coordinates":[-80.0172,40.40965]},"properties":{"p":"0035H00198000000","a":"1627 SUBURBAN AVE","m":"19th Ward - PITTSBURGH","u":"L","o":"individual","sf":3346,"v":16700}},{"type":"Feature","geometry":{"type":"Point","coordinates":[-80.0185,40.40852]},"properties":{"p":"0035M00189000000","a":"CAPE MAY AVE","m":"19th Ward - PITTSBURGH","u":"L","o":"corp","sf":2250,"v":4500}},{"type":"Feature","geometry":{"type":"Point","coordinates":[-80.01582,40.40532]},"properties":{"p":"0034N00017000000","a":"PLAINVIEW AVE","m":"19th Ward - PITTSBURGH","u":"L","o":"individual","sf":6000,"v":13100}},{"type":"Feature","geometry":{"type":"Point","coordinates":[-80.01576,40.40561]},"properties":{"p":"0034N00023000000","a":"PLAINVIEW AVE","m":"19th Ward - PITTSBURGH","u":"L","o":"individual","sf":3000,"v":7800}},{"type":"Feature","geometry":{"type":"Point","coordinates":[-80.01867,40.40827]},"properties":{"p":"0035M00178000000","a":"WESTINGHOUSE AVE","m":"19th Ward - PITTSBURGH","u":"L","o":"corp","sf":17914,"v":5800}},{"type":"Feature","geometry":{"type":"Point","coordinates":[-80.01593,40.40471]},"properties":{"p":"0034N00009000000","a":"PLAINVIEW AVE","m":"19th Ward - PITTSBURGH","u":"L","o":"individual","sf":3000,"v":7800}},{"type":"Feature","geometry":{"type":"Point","coordinates":[-80.01591,40.40481]},"properties":{"p":"0034N00010000000","a":"1827 PLAINVIEW AVE","m":"19th Ward - PITTSBURGH","u":"L","o":"individual","sf":4500,"v":2000}},{"type":"Feature","geometry":{"type":"Point","coordinates":[-80.00702,40.40877]},"properties":{"p":"0034L00023000000","a":"LINIAL AVE","m":"19th Ward - PITTSBURGH","u":"L","o":"individual","sf":1666,"v":5000}},{"type":"Feature","geometry":{"type":"Point","coordinates":[-80.0192,40.40747]},"properties":{"p":"0035M00080000000","a":"RINGWALT ST","m":"19th Ward - PITTSBURGH","u":"L","o":"individual","sf":4080,"v":8200}},{"type":"Feature","geometry":{"type":"Point","coordinates":[-80.01928,40.40789]},"properties":{"p":"0035M00100000000","a":"WESTINGHOUSE AVE","m":"19th Ward - PITTSBURGH","u":"L","o":"individual","sf":3330,"v":6700}},{"type":"Feature","geometry":{"type":"Point","coordinates":[-80.01957,40.40857]},"properties":{"p":"0035M00113000000","a":"LONGMORE AVE","m":"19th Ward - PITTSBURGH","u":"L","o":"individual","sf":6000,"v":10100}},{"type":"Feature","geometry":{"type":"Point","coordinates":[-80.01386,40.40759]},"properties":{"p":"0034J00108000000","a":"SOUTHCREST DR","m":"19th Ward - PITTSBURGH","u":"L","o":"individual","sf":4140,"v":4400}},{"type":"Feature","geometry":{"type":"Point","coordinates":[-80.01919,40.40656]},"properties":{"p":"0035M00068000000","a":"RINGWALT ST","m":"19th Ward - PITTSBURGH","u":"L","o":"individual","sf":4470,"v":8900}},{"type":"Feature","geometry":{"type":"Point","coordinates":[-80.01435,40.40885]},"properties":{"p":"0034J00202000000","a":"1621 PIONEER AVE","m":"19th Ward - PITTSBURGH","u":"L","o":"individual","sf":14275,"v":30800}},{"type":"Feature","geometry":{"type":"Point","coordinates":[-80.0065,40.40694]},"properties":{"p":"0034L00098000000","a":"392 LEAVITT ST","m":"19th Ward - PITTSBURGH","u":"L","o":"individual","sf":20038,"v":31400}},{"type":"Feature","geometry":{"type":"Point","coordinates":[-80.01429,40.40728]},"properties":{"p":"0034J00090000000","a":"SOUTHCREST DR","m":"19th Ward - PITTSBURGH","u":"L","o":"individual","sf":4116,"v":1200}},{"type":"Feature","geometry":{"type":"Point","coordinates":[-80.00841,40.40915]},"properties":{"p":"0034F00110000000","a":"LEAVITT ST","m":"19th Ward - PITTSBURGH","u":"L","o":"individual","sf":10935,"v":3900}},{"type":"Feature","geometry":{"type":"Point","coordinates":[-80.01478,40.40823]},"properties":{"p":"0034J00181000000","a":"SOUTHCREST DR","m":"19th Ward - PITTSBURGH","u":"L","o":"individual","sf":2662,"v":800}},{"type":"Feature","geometry":{"type":"Point","coordinates":[-80.00729,40.40807]},"properties":{"p":"0034L00038000000","a":"LEAVITT ST","m":"19th Ward - PITTSBURGH","u":"L","o":"individual","sf":5000,"v":15000}},{"type":"Feature","geometry":{"type":"Point","coordinates":[-80.00926,40.40915]},"properties":{"p":"0034F00220000000","a":"PIONEER AVE","m":"19th Ward - PITTSBURGH","u":"L","o":"individual","sf":65292,"v":5300}},{"type":"Feature","geometry":{"type":"Point","coordinates":[-80.01967,40.40805]},"properties":{"p":"0035M00040000000","a":"RINGWALT ST","m":"19th Ward - PITTSBURGH","u":"L","o":"individual","sf":3000,"v":6000}},{"type":"Feature","geometry":{"type":"Point","coordinates":[-80.01368,40.40808]},"properties":{"p":"0034J00162000000","a":"LAROSE ST","m":"19th Ward - PITTSBURGH","u":"L","o":"individual","sf":10029,"v":15500}},{"type":"Feature","geometry":{"type":"Point","coordinates":[-80.00006,40.39753]},"properties":{"p":"0061M00104000000","a":"CAPE WAY","m":"32nd Ward - PITTSBURGH","u":"L","o":"individual","sf":1563,"v":600}},{"type":"Feature","geometry":{"type":"Point","coordinates":[-80.00003,40.39747]},"properties":{"p":"0061M00105000000","a":"CAPE WAY","m":"32nd Ward - PITTSBURGH","u":"L","o":"individual","sf":1683,"v":600}},{"type":"Feature","geometry":{"type":"Point","coordinates":[-80.00138,40.39559]},"properties":{"p":"0061S00316000000","a":"2057 WHITED ST","m":"32nd Ward - PITTSBURGH","u":"L","o":"individual","sf":10505,"v":15500}},{"type":"Feature","geometry":{"type":"Point","coordinates":[-80.00335,40.39573]},"properties":{"p":"0061S00356000000","a":"WHITED ST","m":"32nd Ward - PITTSBURGH","u":"L","o":"individual","sf":12809,"v":15700}},{"type":"Feature","geometry":{"type":"Point","coordinates":[-80.00159,40.39204]},"properties":{"p":"0096D00025000000","a":"REAMER ST","m":"32nd Ward - PITTSBURGH","u":"L","o":"individual","sf":4550,"v":1700}},{"type":"Feature","geometry":{"type":"Point","coordinates":[-80.00168,40.4013]},"properties":{"p":"0061H00145000000","a":"ZIMMERMAN ST","m":"32nd Ward - PITTSBURGH","u":"L","o":"corp","sf":5660,"v":23100}},{"type":"Feature","geometry":{"type":"Point","coordinates":[-80.0018,40.40099]},"properties":{"p":"0061H00154000000","a":"BALLINGER ST","m":"32nd Ward - PITTSBURGH","u":"L","o":"corp","sf":2500,"v":1500}},{"type":"Feature","geometry":{"type":"Point","coordinates":[-80.00197,40.40039]},"properties":{"p":"0061H00159000000","a":"ZIMMERMAN ST","m":"32nd Ward - PITTSBURGH","u":"L","o":"individual","sf":2106,"v":4800}},{"type":"Feature","geometry":{"type":"Point","coordinates":[-80.00178,40.39792]},"properties":{"p":"0061M00234000000","a":"PETUNIA ST","m":"32nd Ward - PITTSBURGH","u":"L","o":"corp","sf":15048,"v":23900}},{"type":"Feature","geometry":{"type":"Point","coordinates":[-80.00149,40.3971]},"properties":{"p":"0061M00253000000","a":"HALLOWELL ST","m":"32nd Ward - PITTSBURGH","u":"L","o":"individual","sf":6120,"v":11600}},{"type":"Feature","geometry":{"type":"Point","coordinates":[-80.00669,40.39863]},"properties":{"p":"0061L00252000000","a":"FIAT ST","m":"32nd Ward - PITTSBURGH","u":"L","o":"individual","sf":6335,"v":11600}},{"type":"Feature","geometry":{"type":"Point","coordinates":[-80.00632,40.39884]},"properties":{"p":"0061L00256000000","a":"FIAT ST","m":"32nd Ward - PITTSBURGH","u":"L","o":"individual","sf":6250,"v":11600}},{"type":"Feature","geometry":{"type":"Point","coordinates":[-80.00636,40.39894]},"properties":{"p":"0061L00257000000","a":"FIAT ST","m":"32nd Ward - PITTSBURGH","u":"L","o":"individual","sf":3125,"v":7200}},{"type":"Feature","geometry":{"type":"Point","coordinates":[-80.0068,40.39889]},"properties":{"p":"0061L00263000000","a":"ZIMMERMAN ST","m":"32nd Ward - PITTSBURGH","u":"L","o":"individual","sf":3328,"v":1200}},{"type":"Feature","geometry":{"type":"Point","coordinates":[-80.00445,40.40005]},"properties":{"p":"0061G00310000000","a":"ZIMMERMAN ST","m":"32nd Ward - PITTSBURGH","u":"L","o":"individual","sf":123327,"v":2000}},{"type":"Feature","geometry":{"type":"Point","coordinates":[-80.00696,40.39659]},"properties":{"p":"0061R00200000000","a":"WHITED ST","m":"32nd Ward - PITTSBURGH","u":"L","o":"corp","sf":28710,"v":32100}},{"type":"Feature","geometry":{"type":"Point","coordinates":[-80.01173,40.39401]},"properties":{"p":"0096B00002000A00","a":"ROSWIN DR","m":"32nd Ward - PITTSBURGH","u":"L","o":"individual","sf":196,"v":200}},{"type":"Feature","geometry":{"type":"Point","coordinates":[-80.00659,40.39202]},"properties":{"p":"0096C00275000000","a":"BROOKLINE BLVD","m":"32nd Ward - PITTSBURGH","u":"L","o":"individual","sf":6703,"v":2400}},{"type":"Feature","geometry":{"type":"Point","coordinates":[-80.00156,40.39954]},"properties":{"p":"0061H00099000100","a":"BALLINGER ST","m":"32nd Ward - PITTSBURGH","u":"L","o":"corp","sf":1048,"v":2400}},{"type":"Feature","geometry":{"type":"Point","coordinates":[-80.00183,40.39959]},"properties":{"p":"0061H00100000000","a":"BALLINGER ST","m":"32nd Ward - PITTSBURGH","u":"L","o":"individual","sf":3000,"v":1100}},{"type":"Feature","geometry":{"type":"Point","coordinates":[-80.00147,40.40009]},"properties":{"p":"0061H00104000000","a":"ZIMMERMAN ST","m":"32nd Ward - PITTSBURGH","u":"L","o":"corp","sf":10350,"v":23500}},{"type":"Feature","geometry":{"type":"Point","coordinates":[-80.00328,40.39922]},"properties":{"p":"0061M00206000000","a":"HALLOWELL ST","m":"32nd Ward - PITTSBURGH","u":"L","o":"individual","sf":9000,"v":11900}},{"type":"Feature","geometry":{"type":"Point","coordinates":[-80.00309,40.39896]},"properties":{"p":"0061M00211000000","a":"HALLOWELL ST","m":"32nd Ward - PITTSBURGH","u":"L","o":"individual","sf":9000,"v":11900}},{"type":"Feature","geometry":{"type":"Point","coordinates":[-80.00266,40.3985]},"properties":{"p":"0061M00219000000","a":"HALLOWELL ST","m":"32nd Ward - PITTSBURGH","u":"L","o":"individual","sf":23780,"v":24700}},{"type":"Feature","geometry":{"type":"Point","coordinates":[-80.00338,40.39175]},"properties":{"p":"0096H00046000000","a":"REAMER ST","m":"32nd Ward - PITTSBURGH","u":"L","o":"individual","sf":3675,"v":11000}},{"type":"Feature","geometry":{"type":"Point","coordinates":[-80.00395,40.39652]},"properties":{"p":"0061R00032000000","a":"WHITED ST","m":"32nd Ward - PITTSBURGH","u":"L","o":"corp","sf":10000,"v":30500}},{"type":"Feature","geometry":{"type":"Point","coordinates":[-80.00431,40.39618]},"properties":{"p":"0061R00062000100","a":"WHITED ST","m":"32nd Ward - PITTSBURGH","u":"L","o":"individual","sf":1647,"v":4900}},{"type":"Feature","geometry":{"type":"Point","coordinates":[-80.00497,40.39585]},"properties":{"p":"0061R00078000000","a":"HOFFTON ST","m":"32nd Ward - PITTSBURGH","u":"L","o":"corp","sf":39936,"v":3000}},{"type":"Feature","geometry":{"type":"Point","coordinates":[-80.00533,40.39584]},"properties":{"p":"0061R00083000000","a":"HOFFTON ST","m":"32nd Ward - PITTSBURGH","u":"L","o":"corp","sf":11856,"v":3000}},{"type":"Feature","geometry":{"type":"Point","coordinates":[-80.00561,40.39581]},"properties":{"p":"0061R00092000000","a":"WHITED ST","m":"32nd Ward - PITTSBURGH","u":"L","o":"corp","sf":19305,"v":3000}},{"type":"Feature","geometry":{"type":"Point","coordinates":[-80.00405,40.40076]},"properties":{"p":"0061G00168000000","a":"EDGEBROOK AVE","m":"32nd Ward - PITTSBURGH","u":"L","o":"corp","sf":8750,"v":2900}},{"type":"Feature","geometry":{"type":"Point","coordinates":[-80.00444,40.40065]},"properties":{"p":"0061G00175000000","a":"EDGEBROOK AVE","m":"32nd Ward - PITTSBURGH","u":"L","o":"corp","sf":13108,"v":4300}},{"type":"Feature","geometry":{"type":"Point","coordinates":[-80.00491,40.40054]},"properties":{"p":"0061G00179000000","a":"EDGEBROOK AVE","m":"32nd Ward - PITTSBURGH","u":"L","o":"individual","sf":10535,"v":3500}},{"type":"Feature","geometry":{"type":"Point","coordinates":[-80.00684,40.39951]},"properties":{"p":"0061G00275000000","a":"ZIMMERMAN ST","m":"32nd Ward - PITTSBURGH","u":"L","o":"corp","sf":49223,"v":27100}},{"type":"Feature","geometry":{"type":"Point","coordinates":[-80.00408,40.39295]},"properties":{"p":"0096C00215000000","a":"GREENCREST DR","m":"32nd Ward - PITTSBURGH","u":"L","o":"individual","sf":6206,"v":2300}},{"type":"Feature","geometry":{"type":"Point","coordinates":[-80.00565,40.39949]},"properties":{"p":"0061G00297000000","a":"2138 ZIMMERMAN ST","m":"32nd Ward - PITTSBURGH","u":"L","o":"individual","sf":6080,"v":11600}},{"type":"Feature","geometry":{"type":"Point","coordinates":[-80.00524,40.39949]},"properties":{"p":"0061G00300000000","a":"ZIMMERMAN ST","m":"32nd Ward - PITTSBURGH","u":"L","o":"individual","sf":49658,"v":2000}},{"type":"Feature","geometry":{"type":"Point","coordinates":[-80.00621,40.39193]},"properties":{"p":"0096C00267000000","a":"BROOKLINE BLVD","m":"32nd Ward - PITTSBURGH","u":"L","o":"corp","sf":7670,"v":2800}},{"type":"Feature","geometry":{"type":"Point","coordinates":[-80.00643,40.39196]},"properties":{"p":"0096C00268000000","a":"BROOKLINE BLVD","m":"32nd Ward - PITTSBURGH","u":"L","o":"corp","sf":7015,"v":15200}},{"type":"Feature","geometry":{"type":"Point","coordinates":[-80.0025,40.39944]},"properties":{"p":"0061H00072000000","a":"BALLINGER ST","m":"32nd Ward - PITTSBURGH","u":"L","o":"individual","sf":10000,"v":12000}},{"type":"Feature","geometry":{"type":"Point","coordinates":[-80.00151,40.39939]},"properties":{"p":"0061H00096000000","a":"BALLINGER ST","m":"32nd Ward - PITTSBURGH","u":"L","o":"corp","sf":9793,"v":2700}},{"type":"Feature","geometry":{"type":"Point","coordinates":[-80.00152,40.39955]},"properties":{"p":"0061H00096000003","a":"BALLINGER ST","m":"32nd Ward - PITTSBURGH","u":"L","o":"corp","sf":1045,"v":1000}},{"type":"Feature","geometry":{"type":"Point","coordinates":[-80.00106,40.39799]},"properties":{"p":"0061M00141000000","a":"BALLINGER ST","m":"32nd Ward - PITTSBURGH","u":"L","o":"individual","sf":474,"v":1100}},{"type":"Feature","geometry":{"type":"Point","coordinates":[-80.00151,40.39823]},"properties":{"p":"0061M00148000000","a":"BALLINGER ST","m":"32nd Ward - PITTSBURGH","u":"L","o":"individual","sf":7788,"v":11800}},{"type":"Feature","geometry":{"type":"Point","coordinates":[-80.01026,40.39286]},"properties":{"p":"0096B00163000000","a":"1308 BELLAIRE PL","m":"32nd Ward - PITTSBURGH","u":"L","o":"individual","sf":3300,"v":9900}},{"type":"Feature","geometry":{"type":"Point","coordinates":[-80.01212,40.39322]},"properties":{"p":"0096A00320000000","a":"BELLAIRE PL","m":"32nd Ward - PITTSBURGH","u":"L","o":"individual","sf":3480,"v":10400}},{"type":"Feature","geometry":{"type":"Point","coordinates":[-80.00275,40.40049]},"properties":{"p":"0061H00022000000","a":"BALLINGER ST","m":"32nd Ward - PITTSBURGH","u":"L","o":"individual","sf":1800,"v":4100}},{"type":"Feature","geometry":{"type":"Point","coordinates":[-80.00283,40.40036]},"properties":{"p":"0061H00028000000","a":"BALLINGER ST","m":"32nd Ward - PITTSBURGH","u":"L","o":"individual","sf":10452,"v":3400}},{"type":"Feature","geometry":{"type":"Point","coordinates":[-80.00299,40.40012]},"properties":{"p":"0061H00045000000","a":"ZIMMERMAN ST","m":"32nd Ward - PITTSBURGH","u":"L","o":"corp","sf":2466,"v":900}},{"type":"Feature","geometry":{"type":"Point","coordinates":[-80.00315,40.40031]},"properties":{"p":"0061H00046000000","a":"ZIMMERMAN ST","m":"32nd Ward - PITTSBURGH","u":"L","o":"corp","sf":5900,"v":2000}},{"type":"Feature","geometry":{"type":"Point","coordinates":[-80.00364,40.39969]},"properties":{"p":"0061H00060000000","a":"HALLOWELL ST","m":"32nd Ward - PITTSBURGH","u":"L","o":"individual","sf":9000,"v":11900}},{"type":"Feature","geometry":{"type":"Point","coordinates":[-80.01102,40.39407]},"properties":{"p":"0096B00008000200","a":"MILAN AVE","m":"32nd Ward - PITTSBURGH","u":"L","o":"individual","sf":674,"v":300}},{"type":"Feature","geometry":{"type":"Point","coordinates":[-80.0109,40.39401]},"properties":{"p":"0096B00010000200","a":"MILAN AVE","m":"32nd Ward - PITTSBURGH","u":"L","o":"individual","sf":1788,"v":5400}},{"type":"Feature","geometry":{"type":"Point","coordinates":[-80.00123,40.39131]},"properties":{"p":"0096H00074000000","a":"BROOKLINE BLVD","m":"32nd Ward - PITTSBURGH","u":"L","o":"individual","sf":8400,"v":15300}},{"type":"Feature","geometry":{"type":"Point","coordinates":[-80.00409,40.3989]},"properties":{"p":"0061L00005000000","a":"HALLOWELL ST","m":"32nd Ward - PITTSBURGH","u":"L","o":"individual","sf":6000,"v":11600}},{"type":"Feature","geometry":{"type":"Point","coordinates":[-80.01039,40.39327]},"properties":{"p":"0096B00115000000","a":"BELLAIRE PL","m":"32nd Ward - PITTSBURGH","u":"L","o":"individual","sf":3300,"v":1300}},{"type":"Feature","geometry":{"type":"Point","coordinates":[-80.00498,40.39759]},"properties":{"p":"0061L00130000000","a":"MOREDALE ST","m":"32nd Ward - PITTSBURGH","u":"L","o":"individual","sf":3319,"v":1200}},{"type":"Feature","geometry":{"type":"Point","coordinates":[-80.00796,40.39623]},"properties":{"p":"0061P00180000000","a":"WHITED ST","m":"32nd Ward - PITTSBURGH","u":"L","o":"corp","sf":93654,"v":1100}},{"type":"Feature","geometry":{"type":"Point","coordinates":[-80.00702,40.39264]},"properties":{"p":"0096C00182000000","a":"1445 BROOKLINE BLVD","m":"32nd Ward - PITTSBURGH","u":"L","o":"individual","sf":3150,"v":9500}},{"type":"Feature","geometry":{"type":"Point","coordinates":[-80.00228,40.39139]},"properties":{"p":"0096H00061000000","a":"BROOKLINE BLVD","m":"32nd Ward - PITTSBURGH","u":"L","o":"corp","sf":2625,"v":7900}},{"type":"Feature","geometry":{"type":"Point","coordinates":[-80.00348,40.39818]},"properties":{"p":"0061M00318000000","a":"HALLOWELL ST","m":"32nd Ward - PITTSBURGH","u":"L","o":"individual","sf":24390,"v":24800}},{"type":"Feature","geometry":{"type":"Point","coordinates":[-80.00529,40.39821]},"properties":{"p":"0061L00075000000","a":"2150 CALLIO ST","m":"32nd Ward - PITTSBURGH","u":"L","o":"individual","sf":1545,"v":600}},{"type":"Feature","geometry":{"type":"Point","coordinates":[-80.00482,40.39837]},"properties":{"p":"0061L00081000000","a":"2146 CALLIO ST","m":"32nd Ward - PITTSBURGH","u":"L","o":"individual","sf":4121,"v":9500}},{"type":"Feature","geometry":{"type":"Point","coordinates":[-80.00463,40.39841]},"properties":{"p":"0061L00083000000","a":"CALLIO ST","m":"32nd Ward - PITTSBURGH","u":"L","o":"individual","sf":7660,"v":11700}},{"type":"Feature","geometry":{"type":"Point","coordinates":[-80.00512,40.39795]},"properties":{"p":"0061L00109000000","a":"CALLIO ST","m":"32nd Ward - PITTSBURGH","u":"L","o":"individual","sf":3360,"v":7700}},{"type":"Feature","geometry":{"type":"Point","coordinates":[-80.00175,40.40058]},"properties":{"p":"0061H00170000000","a":"BALLINGER ST","m":"32nd Ward - PITTSBURGH","u":"L","o":"corp","sf":1000,"v":1000}},{"type":"Feature","geometry":{"type":"Point","coordinates":[-80.00158,40.40048]},"properties":{"p":"0061H00179000000","a":"ZIMMERMAN ST","m":"32nd Ward - PITTSBURGH","u":"L","o":"corp","sf":29886,"v":25200}},{"type":"Feature","geometry":{"type":"Point","coordinates":[-80.00348,40.39385]},"properties":{"p":"0096D00121000000","a":"PINE GROVE DR","m":"32nd Ward - PITTSBURGH","u":"L","o":"individual","sf":26304,"v":9300}},{"type":"Feature","geometry":{"type":"Point","coordinates":[-80.00581,40.3968]},"properties":{"p":"0061R00010000000","a":"2174 WHITED ST","m":"32nd Ward - PITTSBURGH","u":"L","o":"individual","sf":5460,"v":30000}},{"type":"Feature","geometry":{"type":"Point","coordinates":[-80.00412,40.39691]},"properties":{"p":"0061R00028000000","a":"WHITED ST","m":"32nd Ward - PITTSBURGH","u":"L","o":"individual","sf":8004,"v":23300}},{"type":"Feature","geometry":{"type":"Point","coordinates":[-80.00686,40.39371]},"properties":{"p":"0096C00086000000","a":"MILAN AVE","m":"32nd Ward - PITTSBURGH","u":"L","o":"individual","sf":2670,"v":8000}},{"type":"Feature","geometry":{"type":"Point","coordinates":[-80.00761,40.39369]},"properties":{"p":"0096C00094000000","a":"1430 MILAN AVE","m":"32nd Ward - PITTSBURGH","u":"L","o":"individual","sf":2790,"v":8400}},{"type":"Feature","geometry":{"type":"Point","coordinates":[-80.0167,40.40556]},"properties":{"p":"0035S00294000000","a":"1817 WOODWARD AVE","m":"19th Ward - PITTSBURGH","u":"L","o":"corp","sf":3000,"v":7800}},{"type":"Feature","geometry":{"type":"Point","coordinates":[-80.01955,40.40255]},"properties":{"p":"0062D00069000000","a":"2076 WOODWARD AVE","m":"19th Ward - PITTSBURGH","u":"L","o":"individual","sf":2918,"v":1000}},{"type":"Feature","geometry":{"type":"Point","coordinates":[-80.01852,40.40296]},"properties":{"p":"0062D00153000000","a":"WOODWARD AVE","m":"19th Ward - PITTSBURGH","u":"L","o":"corp","sf":2775,"v":1100}},{"type":"Feature","geometry":{"type":"Point","coordinates":[-80.00664,40.39372]},"properties":{"p":"0096C00084000000","a":"MILAN AVE","m":"32nd Ward - PITTSBURGH","u":"L","o":"individual","sf":2640,"v":7900}},{"type":"Feature","geometry":{"type":"Point","coordinates":[-80.01859,40.40856]},"properties":{"p":"0035M00190000000","a":"CAPE MAY AVE","m":"19th Ward - PITTSBURGH","u":"L","o":"individual","sf":2250,"v":14500}},{"type":"Feature","geometry":{"type":"Point","coordinates":[-80.0058,40.4015]},"properties":{"p":"0061G00108000000","a":"EDGEBROOK AVE","m":"19th Ward - PITTSBURGH","u":"L","o":"individual","sf":156380,"v":14400}},{"type":"Feature","geometry":{"type":"Point","coordinates":[-80.00387,40.40081]},"properties":{"p":"0061G00166000000","a":"EDGEBROOK AVE","m":"32nd Ward - PITTSBURGH","u":"L","o":"corp","sf":9852,"v":3300}},{"type":"Feature","geometry":{"type":"Point","coordinates":[-80.00535,40.39787]},"properties":{"p":"0061L00111000000","a":"CALLIO ST","m":"32nd Ward - PITTSBURGH","u":"L","o":"individual","sf":9500,"v":23400}},{"type":"Feature","geometry":{"type":"Point","coordinates":[-80.0049,40.39699]},"properties":{"p":"0061L00182000000","a":"MOREDALE ST","m":"32nd Ward - PITTSBURGH","u":"L","o":"individual","sf":5100,"v":1700}},{"type":"Feature","geometry":{"type":"Point","coordinates":[-80.00317,40.40265]},"properties":{"p":"0061D00009000000","a":"1536 ABSTRACT AVE","m":"19th Ward - PITTSBURGH","u":"L","o":"corp","sf":5320,"v":13000}},{"type":"Feature","geometry":{"type":"Point","coordinates":[-80.01739,40.40243]},"properties":{"p":"0062D00239000000","a":"2028 PLAINVIEW AVE","m":"19th Ward - PITTSBURGH","u":"L","o":"individual","sf":3000,"v":1100}},{"type":"Feature","geometry":{"type":"Point","coordinates":[-80.01314,40.39489]},"properties":{"p":"0061N00278000000","a":"LYNNBROOK AVE","m":"19th Ward - PITTSBURGH","u":"L","o":"individual","sf":3480,"v":9100}},{"type":"Feature","geometry":{"type":"Point","coordinates":[-80.00531,40.40015]},"properties":{"p":"0061G00230000000","a":"EDGEBROOK AVE","m":"19th Ward - PITTSBURGH","u":"L","o":"individual","sf":34796,"v":11200}},{"type":"Feature","geometry":{"type":"Point","coordinates":[-80.01696,40.40972]},"properties":{"p":"0035H00274000000","a":"WEST LIBERTY AVE","m":"19th Ward - PITTSBURGH","u":"L","o":"corp","sf":13822,"v":4500}},{"type":"Feature","geometry":{"type":"Point","coordinates":[-80.01033,40.40068]},"properties":{"p":"0061F00131000000","a":"FERNHILL AVE","m":"19th Ward - PITTSBURGH","u":"L","o":"individual","sf":3000,"v":7800}},{"type":"Feature","geometry":{"type":"Point","coordinates":[-80.00334,40.39698]},"properties":{"p":"0061M00284000000","a":"MOREDALE ST","m":"32nd Ward - PITTSBURGH","u":"L","o":"individual","sf":12750,"v":23700}},{"type":"Feature","geometry":{"type":"Point","coordinates":[-80.01705,40.40292]},"properties":{"p":"0062D00231000000","a":"PLAINVIEW AVE","m":"19th Ward - PITTSBURGH","u":"L","o":"corp","sf":1500,"v":3900}},{"type":"Feature","geometry":{"type":"Point","coordinates":[-80.01363,40.40076]},"properties":{"p":"0061E00126000000","a":"FERNHILL AVE","m":"19th Ward - PITTSBURGH","u":"L","o":"individual","sf":3000,"v":1100}},{"type":"Feature","geometry":{"type":"Point","coordinates":[-80.00731,40.40151]},"properties":{"p":"0061G00013000000","a":"FERNCLIFFE AVE","m":"19th Ward - PITTSBURGH","u":"L","o":"corp","sf":7200,"v":26200}},{"type":"Feature","geometry":{"type":"Point","coordinates":[-80.00717,40.40032]},"properties":{"p":"0061G00085000000","a":"EDGEBROOK AVE","m":"19th Ward - PITTSBURGH","u":"L","o":"corp","sf":33113,"v":28500}},{"type":"Feature","geometry":{"type":"Point","coordinates":[-80.01788,40.39648]},"properties":{"p":"0062S00280000000","a":"BERWIN AVE","m":"19th Ward - PITTSBURGH","u":"L","o":"individual","sf":4260,"v":11100}},{"type":"Feature","geometry":{"type":"Point","coordinates":[-80.01314,40.40004]},"properties":{"p":"0061E00219000000","a":"LAMARIDO ST","m":"19th Ward - PITTSBURGH","u":"L","o":"individual","sf":3000,"v":7800}},{"type":"Feature","geometry":{"type":"Point","coordinates":[-80.01696,40.39758]},"properties":{"p":"0062M00244000000","a":"EATHAN AVE","m":"19th Ward - PITTSBURGH","u":"L","o":"individual","sf":4179,"v":10900}},{"type":"Feature","geometry":{"type":"Point","coordinates":[-80.01837,40.40935]},"properties":{"p":"0035H00215000000","a":"SUBURBAN AVE","m":"19th Ward - PITTSBURGH","u":"L","o":"individual","sf":4289,"v":18600}},{"type":"Feature","geometry":{"type":"Point","coordinates":[-80.01897,40.40866]},"properties":{"p":"0035M00195000000","a":"CAPE MAY AVE","m":"19th Ward - PITTSBURGH","u":"L","o":"individual","sf":3000,"v":16000}},{"type":"Feature","geometry":{"type":"Point","coordinates":[-80.00627,40.39951]},"properties":{"p":"0061G00285000000","a":"ZIMMERMAN ST","m":"32nd Ward - PITTSBURGH","u":"L","o":"individual","sf":12150,"v":3500}},{"type":"Feature","geometry":{"type":"Point","coordinates":[-80.0066,40.40849]},"properties":{"p":"0034L00008000000","a":"LINIAL AVE","m":"19th Ward - PITTSBURGH","u":"L","o":"individual","sf":3000,"v":9000}},{"type":"Feature","geometry":{"type":"Point","coordinates":[-80.01386,40.3928]},"properties":{"p":"0096A00166000000","a":"BELLAIRE AVE","m":"19th Ward - PITTSBURGH","u":"L","o":"corp","sf":3600,"v":9400}},{"type":"Feature","geometry":{"type":"Point","coordinates":[-80.00808,40.40133]},"properties":{"p":"0061F00011000000","a":"MAYVILLE AVE","m":"19th Ward - PITTSBURGH","u":"L","o":"individual","sf":12020,"v":18600}},{"type":"Feature","geometry":{"type":"Point","coordinates":[-80.00204,40.40212]},"properties":{"p":"0061D00054000000","a":"EDGEBROOK AVE","m":"19th Ward - PITTSBURGH","u":"L","o":"corp","sf":2371,"v":1500}},{"type":"Feature","geometry":{"type":"Point","coordinates":[-80.01433,40.39592]},"properties":{"p":"0061N00163000000","a":"EDGEBROOK AVE","m":"19th Ward - PITTSBURGH","u":"L","o":"individual","sf":7153,"v":26200}},{"type":"Feature","geometry":{"type":"Point","coordinates":[-80.01554,40.39709]},"properties":{"p":"0061J00088000000","a":"EDGEBROOK AVE","m":"19th Ward - PITTSBURGH","u":"L","o":"individual","sf":83635,"v":1000}},{"type":"Feature","geometry":{"type":"Point","coordinates":[-80.00567,40.40011]},"properties":{"p":"0061G00240000000","a":"EDGEBROOK AVE","m":"19th Ward - PITTSBURGH","u":"L","o":"individual","sf":31900,"v":10300}},{"type":"Feature","geometry":{"type":"Point","coordinates":[-80.00373,40.40314]},"properties":{"p":"0061D00004000000","a":"DREAM ST","m":"19th Ward - PITTSBURGH","u":"L","o":"individual","sf":8823,"v":13300}},{"type":"Feature","geometry":{"type":"Point","coordinates":[-80.00422,40.39393]},"properties":{"p":"0096C00050000000","a":"PINE GROVE DR","m":"32nd Ward - PITTSBURGH","u":"L","o":"individual","sf":10670,"v":5000}},{"type":"Feature","geometry":{"type":"Point","coordinates":[-80.00779,40.4095]},"properties":{"p":"0034G00026000000","a":"CADET AVE","m":"19th Ward - PITTSBURGH","u":"L","o":"individual","sf":22469,"v":16600}},{"type":"Feature","geometry":{"type":"Point","coordinates":[-80.00165,40.40099]},"properties":{"p":"0061H00174000000","a":"ZIMMERMAN ST","m":"32nd Ward - PITTSBURGH","u":"L","o":"corp","sf":17382,"v":24100}}]}