{"type":"FeatureCollection","features":[{"type":"Feature","geometry":{"type":"Point","coordinates":[-80.01922,40.49266]},"properties":{"p":"0162S00094000000","a":"GARVIN ST","m":"26th Ward - PITTSBURGH","u":"C","o":"corp","sf":4080,"v":1400}},{"type":"Feature","geometry":{"type":"Point","coordinates":[-80.02,40.4991]},"properties":{"p":"0162C00018000100","a":"4512 PERRYSVILLE AVE","m":"Ross","u":"C","o":"corp","sf":59242,"v":23700}},{"type":"Feature","geometry":{"type":"Point","coordinates":[-80.01225,40.501]},"properties":{"p":"0163A00322000000","a":"4525 -4543 MCKNIGHT RD","m":"Ross","u":"C","o":"corp","sf":4640,"v":10700}},{"type":"Feature","geometry":{"type":"Point","coordinates":[-80.01152,40.50074]},"properties":{"p":"0163B00095000000","a":"NELSON RUN RD","m":"Ross","u":"C","o":"corp","sf":63179,"v":157000}},{"type":"Feature","geometry":{"type":"Point","coordinates":[-80.00588,40.49957]},"properties":{"p":"0163C00261000000","a":"EVERGREEN RD","m":"Ross","u":"C","o":"individual","sf":16770,"v":6700}},{"type":"Feature","geometry":{"type":"Point","coordinates":[-80.00615,40.49938]},"properties":{"p":"0163C00261000100","a":"EVERGREEN RD","m":"Ross","u":"C","o":"individual","sf":1857,"v":700}},{"type":"Feature","geometry":{"type":"Point","coordinates":[-80.0049,40.50104]},"properties":{"p":"0163C00194000000","a":"PEOPLES RD","m":"Ross","u":"C","o":"individual","sf":7000,"v":2800}},{"type":"Feature","geometry":{"type":"Point","coordinates":[-80.00337,40.50968]},"properties":{"p":"0218D00130000000","a":"STEVENS DR","m":"Ross","u":"C","o":"individual","sf":49171,"v":3400}},{"type":"Feature","geometry":{"type":"Point","coordinates":[-80.01621,40.49027]},"properties":{"p":"0115D00159000000","a":"BONVUE ST","m":"26th Ward - PITTSBURGH","u":"C","o":"corp","sf":11730,"v":3600}},{"type":"Feature","geometry":{"type":"Point","coordinates":[-80.01471,40.49014]},"properties":{"p":"0116A00201000000","a":"BONVUE ST","m":"26th Ward - PITTSBURGH","u":"L","o":"individual","sf":2816,"v":15600}},{"type":"Feature","geometry":{"type":"Point","coordinates":[-80.01749,40.49147]},"properties":{"p":"0115D00016000000","a":"RADIUM ST","m":"26th Ward - PITTSBURGH","u":"L","o":"individual","sf":3500,"v":1200}},{"type":"Feature","geometry":{"type":"Point","coordinates":[-80.01631,40.49138]},"properties":{"p":"0115D00027000000","a":"106 WALDORF ST","m":"26th Ward - PITTSBURGH","u":"L","o":"individual","sf":9938,"v":20400}},{"type":"Feature","geometry":{"type":"Point","coordinates":[-80.01367,40.49005]},"properties":{"p":"0116A00209000000","a":"248 BONVUE ST","m":"26th Ward - PITTSBURGH","u":"L","o":"individual","sf":5600,"v":10100}},{"type":"Feature","geometry":{"type":"Point","coordinates":[-80.01929,40.49029]},"properties":{"p":"0115D00285000000","a":"MAIRDALE AVE","m":"26th Ward - PITTSBURGH","u":"L","o":"individual","sf":4253,"v":18500}},{"type":"Feature","geometry":{"type":"Point","coordinates":[-80.01905,40.49009]},"properties":{"p":"0115D00290000000","a":"20 MAIRDALE AVE","m":"26th Ward - PITTSBURGH","u":"L","o":"corp","sf":2268,"v":14500}},{"type":"Feature","geometry":{"type":"Point","coordinates":[-80.01229,40.49072]},"properties":{"p":"0116A00042000000","a":"STAVER ST","m":"26th Ward - PITTSBURGH","u":"L","o":"individual","sf":1650,"v":600}},{"type":"Feature","geometry":{"type":"Point","coordinates":[-80.01237,40.49092]},"properties":{"p":"0116A00046000000","a":"STAVER ST","m":"26th Ward - PITTSBURGH","u":"L","o":"individual","sf":7956,"v":20300}},{"type":"Feature","geometry":{"type":"Point","coordinates":[-80.01246,40.49115]},"properties":{"p":"0116A00052000000","a":"STAVER ST","m":"26th Ward - PITTSBURGH","u":"L","o":"individual","sf":30405,"v":9800}},{"type":"Feature","geometry":{"type":"Point","coordinates":[-80.00672,40.49003]},"properties":{"p":"0116C00152000000","a":"COLBY ST","m":"26th Ward - PITTSBURGH","u":"L","o":"individual","sf":63510,"v":35400}},{"type":"Feature","geometry":{"type":"Point","coordinates":[-80.00605,40.4903]},"properties":{"p":"0116C00160000000","a":"HARPEN RD","m":"26th Ward - PITTSBURGH","u":"L","o":"individual","sf":4000,"v":27000}},{"type":"Feature","geometry":{"type":"Point","coordinates":[-80.01789,40.49041]},"properties":{"p":"0115D00139000000","a":"BONVUE ST","m":"26th Ward - PITTSBURGH","u":"L","o":"corp","sf":1806,"v":13600}},{"type":"Feature","geometry":{"type":"Point","coordinates":[-80.01774,40.4904]},"properties":{"p":"0115D00141000000","a":"BONVUE ST","m":"26th Ward - PITTSBURGH","u":"L","o":"individual","sf":2875,"v":1000}},{"type":"Feature","geometry":{"type":"Point","coordinates":[-80.01756,40.49038]},"properties":{"p":"0115D00143000000","a":"BONVUE ST","m":"26th Ward - PITTSBURGH","u":"L","o":"individual","sf":2990,"v":6000}},{"type":"Feature","geometry":{"type":"Point","coordinates":[-80.01747,40.49037]},"properties":{"p":"0115D00144000000","a":"BONVUE ST","m":"26th Ward - PITTSBURGH","u":"L","o":"individual","sf":2990,"v":6000}},{"type":"Feature","geometry":{"type":"Point","coordinates":[-80.01703,40.49034]},"properties":{"p":"0115D00149000000","a":"BONVUE ST","m":"26th Ward - PITTSBURGH","u":"L","o":"individual","sf":1150,"v":2300}},{"type":"Feature","geometry":{"type":"Point","coordinates":[-80.00405,40.49035]},"properties":{"p":"0116C00055000000","a":"CHAPIN ST","m":"26th Ward - PITTSBURGH","u":"L","o":"individual","sf":2500,"v":1000}},{"type":"Feature","geometry":{"type":"Point","coordinates":[-80.01156,40.50005]},"properties":{"p":"0163B00080000000","a":"NELSON RUN RD","m":"26th Ward - PITTSBURGH","u":"L","o":"individual","sf":53143,"v":34400}},{"type":"Feature","geometry":{"type":"Point","coordinates":[-80.01829,40.49243]},"properties":{"p":"0162S00080000000","a":"60 GARVIN ST","m":"26th Ward - PITTSBURGH","u":"L","o":"corp","sf":5275,"v":1800}},{"type":"Feature","geometry":{"type":"Point","coordinates":[-80.01982,40.49489]},"properties":{"p":"0162M00132000000","a":"HIGH POINT ST","m":"26th Ward - PITTSBURGH","u":"L","o":"corp","sf":12000,"v":10600}},{"type":"Feature","geometry":{"type":"Point","coordinates":[-80.01892,40.49608]},"properties":{"p":"0162M00150000000","a":"HIGH POINT ST","m":"26th Ward - PITTSBURGH","u":"L","o":"individual","sf":2213,"v":800}},{"type":"Feature","geometry":{"type":"Point","coordinates":[-80.01669,40.49809]},"properties":{"p":"0162H00053000000","a":"VAN BUREN ST","m":"26th Ward - PITTSBURGH","u":"L","o":"corp","sf":300,"v":100}},{"type":"Feature","geometry":{"type":"Point","coordinates":[-80.01147,40.49865]},"properties":{"p":"0163F00073000000","a":"VALLEY VIEW ST","m":"26th Ward - PITTSBURGH","u":"L","o":"individual","sf":10936,"v":8000}},{"type":"Feature","geometry":{"type":"Point","coordinates":[-80.00634,40.49466]},"properties":{"p":"0163L00092000000","a":"EVERGREEN RD","m":"26th Ward - PITTSBURGH","u":"L","o":"individual","sf":11252,"v":1900}},{"type":"Feature","geometry":{"type":"Point","coordinates":[-80.00686,40.4973]},"properties":{"p":"0163G00050000000","a":"TROY HILL RD EXT","m":"26th Ward - PITTSBURGH","u":"L","o":"individual","sf":9575,"v":5000}},{"type":"Feature","geometry":{"type":"Point","coordinates":[-80.0188,40.49226]},"properties":{"p":"0162S00160000000","a":"GARVIN ST","m":"26th Ward - PITTSBURGH","u":"L","o":"individual","sf":2540,"v":5100}},{"type":"Feature","geometry":{"type":"Point","coordinates":[-80.01394,40.49429]},"properties":{"p":"0163J00219000000","a":"MONTANA ST","m":"26th Ward - PITTSBURGH","u":"L","o":"individual","sf":85378,"v":27400}},{"type":"Feature","geometry":{"type":"Point","coordinates":[-80.01541,40.49432]},"properties":{"p":"0163J00300000000","a":"CHASE AVE","m":"26th Ward - PITTSBURGH","u":"L","o":"individual","sf":6891,"v":20200}},{"type":"Feature","geometry":{"type":"Point","coordinates":[-80.01407,40.49331]},"properties":{"p":"0163N00094000000","a":"MONTANA ST","m":"26th Ward - PITTSBURGH","u":"L","o":"individual","sf":13377,"v":20800}},{"type":"Feature","geometry":{"type":"Point","coordinates":[-80.01483,40.49329]},"properties":{"p":"0163N00109000000","a":"MONTANA ST","m":"26th Ward - PITTSBURGH","u":"L","o":"individual","sf":11384,"v":20600}},{"type":"Feature","geometry":{"type":"Point","coordinates":[-80.00995,40.49443]},"properties":{"p":"0163K00042000000","a":"EVERGREEN RD","m":"26th Ward - PITTSBURGH","u":"L","o":"corp","sf":7156,"v":13700}},{"type":"Feature","geometry":{"type":"Point","coordinates":[-80.01193,40.49753]},"properties":{"p":"0163F00027000000","a":"SANDERSON AVE","m":"26th Ward - PITTSBURGH","u":"L","o":"individual","sf":2500,"v":7500}},{"type":"Feature","geometry":{"type":"Point","coordinates":[-80.01192,40.49746]},"properties":{"p":"0163F00029000000","a":"SOVEREIGN ST","m":"26th Ward - PITTSBURGH","u":"L","o":"individual","sf":3413,"v":10200}},{"type":"Feature","geometry":{"type":"Point","coordinates":[-80.01687,40.49919]},"properties":{"p":"0162D00016000000","a":"RODENBAUGH AVE","m":"26th Ward - PITTSBURGH","u":"L","o":"individual","sf":2061,"v":800}},{"type":"Feature","geometry":{"type":"Point","coordinates":[-80.00672,40.49576]},"properties":{"p":"0163L00064000000","a":"IVORY AVE","m":"26th Ward - PITTSBURGH","u":"L","o":"individual","sf":2695,"v":8100}},{"type":"Feature","geometry":{"type":"Point","coordinates":[-80.00666,40.49504]},"properties":{"p":"0163L00082000000","a":"HARPEN RD","m":"26th Ward - PITTSBURGH","u":"L","o":"individual","sf":2500,"v":22500}},{"type":"Feature","geometry":{"type":"Point","coordinates":[-80.01069,40.49718]},"properties":{"p":"0163F00132000100","a":"VALLEY VIEW ST","m":"26th Ward - PITTSBURGH","u":"L","o":"individual","sf":3950,"v":11900}},{"type":"Feature","geometry":{"type":"Point","coordinates":[-80.00647,40.49385]},"properties":{"p":"0163R00032000000","a":"EVERGREEN RD","m":"26th Ward - PITTSBURGH","u":"L","o":"individual","sf":31145,"v":15200}},{"type":"Feature","geometry":{"type":"Point","coordinates":[-80.00597,40.49381]},"properties":{"p":"0163R00036000000","a":"HARPEN RD","m":"26th Ward - PITTSBURGH","u":"L","o":"individual","sf":33323,"v":11500}},{"type":"Feature","geometry":{"type":"Point","coordinates":[-80.00448,40.4966]},"properties":{"p":"0163G00325000000","a":"IVORY AVE","m":"26th Ward - PITTSBURGH","u":"L","o":"individual","sf":84251,"v":34000}},{"type":"Feature","geometry":{"type":"Point","coordinates":[-80.01773,40.49276]},"properties":{"p":"0162S00206000000","a":"SWANSON ST","m":"26th Ward - PITTSBURGH","u":"L","o":"individual","sf":4697,"v":9400}},{"type":"Feature","geometry":{"type":"Point","coordinates":[-80.01248,40.49808]},"properties":{"p":"0163E00281000000","a":"SOVEREIGN ST","m":"26th Ward - PITTSBURGH","u":"L","o":"individual","sf":2293,"v":6900}},{"type":"Feature","geometry":{"type":"Point","coordinates":[-80.01235,40.49208]},"properties":{"p":"0163N00215000000","a":"RUTLAND ST","m":"26th Ward - PITTSBURGH","u":"L","o":"corp","sf":7152,"v":2400}},{"type":"Feature","geometry":{"type":"Point","coordinates":[-80.01232,40.49863]},"properties":{"p":"0163E00293000000","a":"NELSON RUN RD","m":"26th Ward - PITTSBURGH","u":"L","o":"individual","sf":1496,"v":4500}},{"type":"Feature","geometry":{"type":"Point","coordinates":[-80.0063,40.49423]},"properties":{"p":"0163L00025000000","a":"HARPEN RD","m":"26th Ward - PITTSBURGH","u":"L","o":"individual","sf":40510,"v":9750}},{"type":"Feature","geometry":{"type":"Point","coordinates":[-80.0068,40.49447]},"properties":{"p":"0163L00031000000","a":"EVERGREEN RD","m":"26th Ward - PITTSBURGH","u":"L","o":"individual","sf":11369,"v":30600}},{"type":"Feature","geometry":{"type":"Point","coordinates":[-80.00699,40.4949]},"properties":{"p":"0163L00038000000","a":"EVERGREEN RD","m":"26th Ward - PITTSBURGH","u":"L","o":"individual","sf":3580,"v":10700}},{"type":"Feature","geometry":{"type":"Point","coordinates":[-80.00715,40.49514]},"properties":{"p":"0163L00040000000","a":"EVERGREEN RD","m":"26th Ward - PITTSBURGH","u":"L","o":"individual","sf":750,"v":400}},{"type":"Feature","geometry":{"type":"Point","coordinates":[-80.01227,40.49199]},"properties":{"p":"0163N00217000000","a":"RUTLAND ST","m":"26th Ward - PITTSBURGH","u":"L","o":"individual","sf":7171,"v":10200}},{"type":"Feature","geometry":{"type":"Point","coordinates":[-80.01285,40.49167]},"properties":{"p":"0163N00235000000","a":"RUTLAND ST","m":"26th Ward - PITTSBURGH","u":"L","o":"individual","sf":29400,"v":7200}},{"type":"Feature","geometry":{"type":"Point","coordinates":[-80.0136,40.49169]},"properties":{"p":"0163N00241000000","a":"RUTLAND ST","m":"26th Ward - PITTSBURGH","u":"L","o":"individual","sf":25080,"v":21800}},{"type":"Feature","geometry":{"type":"Point","coordinates":[-80.016,40.49206]},"properties":{"p":"0163N00266000000","a":"113 RUTLAND ST","m":"26th Ward - PITTSBURGH","u":"L","o":"individual","sf":10251,"v":20500}},{"type":"Feature","geometry":{"type":"Point","coordinates":[-80.01089,40.49858]},"properties":{"p":"0163F00087000000","a":"VALLEY VIEW ST","m":"26th Ward - PITTSBURGH","u":"L","o":"individual","sf":6748,"v":11400}},{"type":"Feature","geometry":{"type":"Point","coordinates":[-80.01652,40.49773]},"properties":{"p":"0162H00097000000","a":"IVORY AVE","m":"26th Ward - PITTSBURGH","u":"L","o":"corp","sf":268,"v":100}},{"type":"Feature","geometry":{"type":"Point","coordinates":[-80.01535,40.49945]},"properties":{"p":"0163A00044000000","a":"CLEVELAND AVE","m":"26th Ward - PITTSBURGH","u":"L","o":"individual","sf":8004,"v":30300}},{"type":"Feature","geometry":{"type":"Point","coordinates":[-80.01562,40.49957]},"properties":{"p":"0163A00045000000","a":"CLEVELAND AVE","m":"26th Ward - PITTSBURGH","u":"L","o":"individual","sf":12258,"v":4400}},{"type":"Feature","geometry":{"type":"Point","coordinates":[-80.0119,40.49908]},"properties":{"p":"0163B00001000000","a":"NELSON RUN RD","m":"26th Ward - PITTSBURGH","u":"L","o":"individual","sf":15380,"v":8400}},{"type":"Feature","geometry":{"type":"Point","coordinates":[-80.00931,40.4919]},"properties":{"p":"0163P00093000000","a":"EXTON ST","m":"26th Ward - PITTSBURGH","u":"L","o":"individual","sf":2223,"v":800}},{"type":"Feature","geometry":{"type":"Point","coordinates":[-80.01395,40.49739]},"properties":{"p":"0163E00190000000","a":"4431 NELSON RUN RD","m":"26th Ward - PITTSBURGH","u":"L","o":"individual","sf":7574,"v":30200}},{"type":"Feature","geometry":{"type":"Point","coordinates":[-80.0119,40.49956]},"properties":{"p":"0163B00008000000","a":"NELSON RUN RD","m":"26th Ward - PITTSBURGH","u":"L","o":"corp","sf":39204,"v":33100}},{"type":"Feature","geometry":{"type":"Point","coordinates":[-80.01089,40.49899]},"properties":{"p":"0163B00037000000","a":"VALLEY VIEW ST","m":"26th Ward - PITTSBURGH","u":"L","o":"individual","sf":3000,"v":9000}},{"type":"Feature","geometry":{"type":"Point","coordinates":[-80.00982,40.49444]},"properties":{"p":"0163K00045000000","a":"EVERGREEN RD","m":"26th Ward - PITTSBURGH","u":"L","o":"corp","sf":2106,"v":800}},{"type":"Feature","geometry":{"type":"Point","coordinates":[-80.00943,40.49446]},"properties":{"p":"0163K00049000000","a":"EVERGREEN RD","m":"26th Ward - PITTSBURGH","u":"L","o":"corp","sf":4329,"v":28000}},{"type":"Feature","geometry":{"type":"Point","coordinates":[-80.00922,40.49448]},"properties":{"p":"0163K00051000000","a":"EVERGREEN RD","m":"26th Ward - PITTSBURGH","u":"L","o":"corp","sf":8837,"v":10000}},{"type":"Feature","geometry":{"type":"Point","coordinates":[-80.00836,40.49442]},"properties":{"p":"0163K00064000000","a":"EVERGREEN RD","m":"26th Ward - PITTSBURGH","u":"L","o":"corp","sf":21341,"v":31500}},{"type":"Feature","geometry":{"type":"Point","coordinates":[-80.01577,40.49259]},"properties":{"p":"0163N00137000000","a":"120 RUTLAND ST","m":"26th Ward - PITTSBURGH","u":"L","o":"individual","sf":10407,"v":20500}},{"type":"Feature","geometry":{"type":"Point","coordinates":[-80.01558,40.49261]},"properties":{"p":"0163N00140000000","a":"RUTLAND ST","m":"26th Ward - PITTSBURGH","u":"L","o":"individual","sf":10761,"v":20500}},{"type":"Feature","geometry":{"type":"Point","coordinates":[-80.01526,40.4926]},"properties":{"p":"0163N00142000000","a":"RUTLAND ST","m":"26th Ward - PITTSBURGH","u":"L","o":"corp","sf":21875,"v":21500}},{"type":"Feature","geometry":{"type":"Point","coordinates":[-80.01482,40.49259]},"properties":{"p":"0163N00150000000","a":"RUTLAND ST","m":"26th Ward - PITTSBURGH","u":"L","o":"corp","sf":29500,"v":22200}},{"type":"Feature","geometry":{"type":"Point","coordinates":[-80.01352,40.49256]},"properties":{"p":"0163N00158000000","a":"4021 EVERGREEN RD","m":"26th Ward - PITTSBURGH","u":"L","o":"corp","sf":141352,"v":32500}},{"type":"Feature","geometry":{"type":"Point","coordinates":[-80.01231,40.49262]},"properties":{"p":"0163N00206000000","a":"4013 EVERGREEN RD","m":"26th Ward - PITTSBURGH","u":"L","o":"individual","sf":6000,"v":10100}},{"type":"Feature","geometry":{"type":"Point","coordinates":[-80.01153,40.49747]},"properties":{"p":"0163F00048000000","a":"VALLEY VIEW ST","m":"26th Ward - PITTSBURGH","u":"L","o":"individual","sf":3465,"v":1300}},{"type":"Feature","geometry":{"type":"Point","coordinates":[-80.01153,40.49754]},"properties":{"p":"0163F00049000000","a":"VALLEY VIEW ST","m":"26th Ward - PITTSBURGH","u":"L","o":"individual","sf":2500,"v":1000}},{"type":"Feature","geometry":{"type":"Point","coordinates":[-80.01154,40.49761]},"properties":{"p":"0163F00051000000","a":"VALLEY VIEW ST","m":"26th Ward - PITTSBURGH","u":"L","o":"individual","sf":2500,"v":1000}},{"type":"Feature","geometry":{"type":"Point","coordinates":[-80.01624,40.49888]},"properties":{"p":"0162H00002000000","a":"MONTVILLE ST","m":"26th Ward - PITTSBURGH","u":"L","o":"individual","sf":3300,"v":9900}},{"type":"Feature","geometry":{"type":"Point","coordinates":[-80.00287,40.49332]},"properties":{"p":"0163S00085000000","a":"MAPLEWOOD DR","m":"Reserve","u":"L","o":"individual","sf":1321,"v":600}},{"type":"Feature","geometry":{"type":"Point","coordinates":[-80.00147,40.49299]},"properties":{"p":"0163S00115000000","a":"WILLOWCREST DR","m":"Reserve","u":"L","o":"individual","sf":12674,"v":4500}},{"type":"Feature","geometry":{"type":"Point","coordinates":[-80.00096,40.49298]},"properties":{"p":"0163S00119000000","a":"MAPLEWOOD DR","m":"Reserve","u":"L","o":"individual","sf":23662,"v":36700}},{"type":"Feature","geometry":{"type":"Point","coordinates":[-80.01135,40.50259]},"properties":{"p":"0218P00303000000","a":"MCKNIGHT RD","m":"Ross","u":"L","o":"individual","sf":10258,"v":3700}},{"type":"Feature","geometry":{"type":"Point","coordinates":[-80.00998,40.49934]},"properties":{"p":"0163B00145000000","a":"5 ELMER ST","m":"Ross","u":"L","o":"individual","sf":7500,"v":2700}},{"type":"Feature","geometry":{"type":"Point","coordinates":[-80.0141,40.50114]},"properties":{"p":"0163A00255000000","a":"KING AVE","m":"Ross","u":"L","o":"individual","sf":2816,"v":1100}},{"type":"Feature","geometry":{"type":"Point","coordinates":[-80.01421,40.50116]},"properties":{"p":"0163A00257000000","a":"KING AVE","m":"Ross","u":"L","o":"individual","sf":8000,"v":40300}},{"type":"Feature","geometry":{"type":"Point","coordinates":[-80.01435,40.50119]},"properties":{"p":"0163A00259000000","a":"KING AVE","m":"Ross","u":"L","o":"individual","sf":4000,"v":1500}},{"type":"Feature","geometry":{"type":"Point","coordinates":[-80.01449,40.50122]},"properties":{"p":"0163A00261000000","a":"KING AVE","m":"Ross","u":"L","o":"individual","sf":4000,"v":1500}},{"type":"Feature","geometry":{"type":"Point","coordinates":[-80.00224,40.49691]},"properties":{"p":"0163H00135000000","a":"MOUNT TROY RD","m":"Ross","u":"L","o":"corp","sf":46174,"v":12000}},{"type":"Feature","geometry":{"type":"Point","coordinates":[-80.00285,40.49714]},"properties":{"p":"0163H00145000000","a":"TROY HILL RD","m":"Ross","u":"L","o":"individual","sf":43996,"v":12000}},{"type":"Feature","geometry":{"type":"Point","coordinates":[-80.00335,40.4971]},"properties":{"p":"0163H00160000000","a":"SAINT MARYS LN","m":"Ross","u":"L","o":"individual","sf":17558,"v":12000}},{"type":"Feature","geometry":{"type":"Point","coordinates":[-80.00514,40.50778]},"properties":{"p":"0218G00200000000","a":"MCKNIGHT RD","m":"Ross","u":"L","o":"individual","sf":95832,"v":2200}},{"type":"Feature","geometry":{"type":"Point","coordinates":[-80.00592,40.5062]},"properties":{"p":"0218G00275000000","a":"NELSON RUN RD","m":"Ross","u":"L","o":"individual","sf":9587,"v":3500}},{"type":"Feature","geometry":{"type":"Point","coordinates":[-80.00517,40.50708]},"properties":{"p":"0218G00283000000","a":"NELSON RUN RD","m":"Ross","u":"L","o":"individual","sf":132422,"v":16000}},{"type":"Feature","geometry":{"type":"Point","coordinates":[-80.00514,40.50636]},"properties":{"p":"0218G00286000000","a":"RENFER ST","m":"Ross","u":"L","o":"individual","sf":31472,"v":6500}},{"type":"Feature","geometry":{"type":"Point","coordinates":[-80.00465,40.50634]},"properties":{"p":"0218G00288000000","a":"RENFER ST","m":"Ross","u":"L","o":"individual","sf":32788,"v":9000}},{"type":"Feature","geometry":{"type":"Point","coordinates":[-80.00402,40.50683]},"properties":{"p":"0218G00325000000","a":"BRIDGE RD","m":"Ross","u":"L","o":"individual","sf":48308,"v":24000}},{"type":"Feature","geometry":{"type":"Point","coordinates":[-80.00331,40.49776]},"properties":{"p":"0163H00195000000","a":"MOUNT TROY RD EXT","m":"Ross","u":"L","o":"corp","sf":116462,"v":20000}},{"type":"Feature","geometry":{"type":"Point","coordinates":[-80.00962,40.501]},"properties":{"p":"0163B00240000100","a":"NELSON PARK DR","m":"Ross","u":"L","o":"individual","sf":2439,"v":1000}},{"type":"Feature","geometry":{"type":"Point","coordinates":[-80.00982,40.50124]},"properties":{"p":"0163B00248000100","a":"NELSON RUN RD","m":"Ross","u":"L","o":"individual","sf":6055,"v":20100}},{"type":"Feature","geometry":{"type":"Point","coordinates":[-80.01616,40.50099]},"properties":{"p":"0163A00224000000","a":"525 ROSELAND AVE","m":"Ross","u":"L","o":"individual","sf":2500,"v":1000}},{"type":"Feature","geometry":{"type":"Point","coordinates":[-80.01586,40.50103]},"properties":{"p":"0163A00228000000","a":"ROSELAND AVE","m":"Ross","u":"L","o":"individual","sf":2500,"v":10000}},{"type":"Feature","geometry":{"type":"Point","coordinates":[-80.00784,40.5001]},"properties":{"p":"0163B00325000000","a":"CHERRYLAND ST","m":"Ross","u":"L","o":"individual","sf":6219,"v":2300}},{"type":"Feature","geometry":{"type":"Point","coordinates":[-80.01555,40.50108]},"properties":{"p":"0163A00233000000","a":"ROSELAND AVE","m":"Ross","u":"L","o":"individual","sf":6030,"v":2200}},{"type":"Feature","geometry":{"type":"Point","coordinates":[-80.01533,40.50105]},"properties":{"p":"0163A00234000000","a":"ROSELAND AVE","m":"Ross","u":"L","o":"individual","sf":8800,"v":40300}},{"type":"Feature","geometry":{"type":"Point","coordinates":[-80.00088,40.49766]},"properties":{"p":"0163H00081000000","a":"MOUNT TROY RD EXT","m":"Ross","u":"L","o":"corp","sf":201683,"v":35000}},{"type":"Feature","geometry":{"type":"Point","coordinates":[-80.00333,40.49973]},"properties":{"p":"0163D00080000000","a":"MOUNT TROY RD","m":"Ross","u":"L","o":"individual","sf":95832,"v":9000}},{"type":"Feature","geometry":{"type":"Point","coordinates":[-80.00117,40.49957]},"properties":{"p":"0163D00313000000","a":"4510 MOUNT TROY RD","m":"Ross","u":"L","o":"individual","sf":33903,"v":42600}},{"type":"Feature","geometry":{"type":"Point","coordinates":[-80.00141,40.49935]},"properties":{"p":"0163D00326000000","a":"4510 MOUNT TROY RD EXT","m":"Ross","u":"L","o":"individual","sf":166835,"v":54900}},{"type":"Feature","geometry":{"type":"Point","coordinates":[-80.00288,40.49862]},"properties":{"p":"0163D00334000000","a":"MOUNT TROY RD EXT","m":"Ross","u":"L","o":"corp","sf":203425,"v":58200}},{"type":"Feature","geometry":{"type":"Point","coordinates":[-80.01476,40.49992]},"properties":{"p":"0163A00155000000","a":"ROSELAND AVE","m":"Ross","u":"L","o":"individual","sf":165528,"v":54800}},{"type":"Feature","geometry":{"type":"Point","coordinates":[-80.00852,40.50032]},"properties":{"p":"0163B00287000000","a":"CHERRYLAND ST","m":"Ross","u":"L","o":"individual","sf":5590,"v":2100}},{"type":"Feature","geometry":{"type":"Point","coordinates":[-80.0014,40.49853]},"properties":{"p":"0163H00045000000","a":"MOUNT TROY RD EXT","m":"Ross","u":"L","o":"individual","sf":49658,"v":5000}},{"type":"Feature","geometry":{"type":"Point","coordinates":[-80.00629,40.50069]},"properties":{"p":"0163C00080000000","a":"CHERRYLAND ST","m":"Ross","u":"L","o":"individual","sf":135907,"v":12500}},{"type":"Feature","geometry":{"type":"Point","coordinates":[-80.00593,40.50026]},"properties":{"p":"0163C00172000000","a":"PEOPLES RD","m":"Ross","u":"L","o":"individual","sf":6779,"v":9500}},{"type":"Feature","geometry":{"type":"Point","coordinates":[-80.01724,40.50086]},"properties":{"p":"0162D00091000000","a":"CLEVELAND AVE","m":"Ross","u":"L","o":"individual","sf":6105,"v":2200}},{"type":"Feature","geometry":{"type":"Point","coordinates":[-80.01736,40.50116]},"properties":{"p":"0162D00110000000","a":"KING AVE","m":"Ross","u":"L","o":"individual","sf":23958,"v":41700}},{"type":"Feature","geometry":{"type":"Point","coordinates":[-80.01688,40.50123]},"properties":{"p":"0162D00125000000","a":"140 KING AVE","m":"Ross","u":"L","o":"individual","sf":2484,"v":1000}},{"type":"Feature","geometry":{"type":"Point","coordinates":[-80.00501,40.49826]},"properties":{"p":"0163G00250000000","a":"SCHERLING ST","m":"Ross","u":"L","o":"corp","sf":51575,"v":44300}},{"type":"Feature","geometry":{"type":"Point","coordinates":[-80.01629,40.50003]},"properties":{"p":"0162D00051000000","a":"CLEVELAND AVE","m":"Ross","u":"L","o":"individual","sf":15487,"v":5500}},{"type":"Feature","geometry":{"type":"Point","coordinates":[-80.016,40.50026]},"properties":{"p":"0162D00059000000","a":"CLEVELAND AVE","m":"Ross","u":"L","o":"individual","sf":22645,"v":41600}},{"type":"Feature","geometry":{"type":"Point","coordinates":[-80.01627,40.50097]},"properties":{"p":"0162D00067000000","a":"ROSELAND AVE","m":"Ross","u":"L","o":"individual","sf":2500,"v":1000}},{"type":"Feature","geometry":{"type":"Point","coordinates":[-80.01636,40.50096]},"properties":{"p":"0162D00069000000","a":"ROSELAND AVE","m":"Ross","u":"L","o":"individual","sf":2500,"v":1000}},{"type":"Feature","geometry":{"type":"Point","coordinates":[-80.01666,40.50091]},"properties":{"p":"0162D00077000000","a":"ROSELAND AVE","m":"Ross","u":"L","o":"individual","sf":2500,"v":1000}},{"type":"Feature","geometry":{"type":"Point","coordinates":[-80.01681,40.50089]},"properties":{"p":"0162D00083000000","a":"ROSELAND AVE","m":"Ross","u":"L","o":"individual","sf":7500,"v":40200}},{"type":"Feature","geometry":{"type":"Point","coordinates":[-80.00822,40.49782]},"properties":{"p":"0163F00359000000","a":"EVERGREEN RD","m":"Ross","u":"L","o":"individual","sf":12272,"v":4400}},{"type":"Feature","geometry":{"type":"Point","coordinates":[-80.00371,40.49713]},"properties":{"p":"0163G00099000000","a":"SAINT MARYS LN","m":"Ross","u":"L","o":"individual","sf":15683,"v":12000}},{"type":"Feature","geometry":{"type":"Point","coordinates":[-80.00368,40.49672]},"properties":{"p":"0163G00100000000","a":"STERRITT HILL RD","m":"Ross","u":"L","o":"individual","sf":14456,"v":10000}},{"type":"Feature","geometry":{"type":"Point","coordinates":[-80.00109,40.49565]},"properties":{"p":"0163M00050000100","a":"MOUNT TROY RD","m":"Reserve","u":"L","o":"individual","sf":1700,"v":700}},{"type":"Feature","geometry":{"type":"Point","coordinates":[-80.00186,40.49373]},"properties":{"p":"0163S00034000000","a":"MAPLEWOOD DR","m":"Reserve","u":"L","o":"individual","sf":11389,"v":18100}},{"type":"Feature","geometry":{"type":"Point","coordinates":[-80.00109,40.49333]},"properties":{"p":"0163S00066000000","a":"MAPLEWOOD DR","m":"Reserve","u":"L","o":"individual","sf":480,"v":300}},{"type":"Feature","geometry":{"type":"Point","coordinates":[-80.00436,40.50858]},"properties":{"p":"0218C00002000000","a":"MCKNIGHT RD","m":"Ross","u":"L","o":"individual","sf":23718,"v":1600}},{"type":"Feature","geometry":{"type":"Point","coordinates":[-80.00709,40.50569]},"properties":{"p":"0218L00340000000","a":"NELSON RUN RD","m":"Ross","u":"L","o":"individual","sf":28339,"v":22100}},{"type":"Feature","geometry":{"type":"Point","coordinates":[-80.00357,40.50571]},"properties":{"p":"0218M00045000000","a":"RENFER ST","m":"Ross","u":"L","o":"individual","sf":6557,"v":2400}},{"type":"Feature","geometry":{"type":"Point","coordinates":[-80.01238,40.50357]},"properties":{"p":"0218N00248000000","a":"WALNUT ST","m":"Ross","u":"L","o":"individual","sf":23935,"v":8500}},{"type":"Feature","geometry":{"type":"Point","coordinates":[-80.00811,40.50162]},"properties":{"p":"0218P00044000000","a":"BRETHAUER AVE","m":"Ross","u":"L","o":"individual","sf":10135,"v":20500}},{"type":"Feature","geometry":{"type":"Point","coordinates":[-80.01625,40.50132]},"properties":{"p":"0217S00027000000","a":"KING AVE","m":"Ross","u":"L","o":"individual","sf":15000,"v":5400}},{"type":"Feature","geometry":{"type":"Point","coordinates":[-80.01691,40.50163]},"properties":{"p":"0217S00043000000","a":"KING AVE","m":"Ross","u":"L","o":"individual","sf":7875,"v":20300}},{"type":"Feature","geometry":{"type":"Point","coordinates":[-80.0006,40.50507]},"properties":{"p":"0218M00322000000","a":"188 RENFER ST","m":"Ross","u":"L","o":"individual","sf":70676,"v":17500}},{"type":"Feature","geometry":{"type":"Point","coordinates":[-80.01466,40.50126]},"properties":{"p":"0218N00009000000","a":"KING AVE","m":"Ross","u":"L","o":"individual","sf":6000,"v":2200}},{"type":"Feature","geometry":{"type":"Point","coordinates":[-80.01504,40.50134]},"properties":{"p":"0218N00015000000","a":"KING AVE","m":"Ross","u":"L","o":"individual","sf":4000,"v":1500}},{"type":"Feature","geometry":{"type":"Point","coordinates":[-80.01518,40.50137]},"properties":{"p":"0218N00017000000","a":"KING AVE","m":"Ross","u":"L","o":"individual","sf":4000,"v":1500}},{"type":"Feature","geometry":{"type":"Point","coordinates":[-80.01546,40.50142]},"properties":{"p":"0218N00020000000","a":"KING AVE","m":"Ross","u":"L","o":"individual","sf":5040,"v":1900}},{"type":"Feature","geometry":{"type":"Point","coordinates":[-80.01567,40.5014]},"properties":{"p":"0218N00022000000","a":"KING AVE","m":"Ross","u":"L","o":"individual","sf":2500,"v":1000}},{"type":"Feature","geometry":{"type":"Point","coordinates":[-80.01558,40.50141]},"properties":{"p":"0218N00024000000","a":"KING AVE","m":"Ross","u":"L","o":"individual","sf":2500,"v":1000}},{"type":"Feature","geometry":{"type":"Point","coordinates":[-80.01585,40.50138]},"properties":{"p":"0218N00030000000","a":"KING AVE","m":"Ross","u":"L","o":"individual","sf":7500,"v":2700}},{"type":"Feature","geometry":{"type":"Point","coordinates":[-80.00206,40.50174]},"properties":{"p":"0218S00174000000","a":"PEOPLES RD","m":"Ross","u":"L","o":"individual","sf":17138,"v":6100}},{"type":"Feature","geometry":{"type":"Point","coordinates":[-80.00262,40.50162]},"properties":{"p":"0218S00208000000","a":"EVERGREEN RD","m":"Ross","u":"L","o":"corp","sf":18350,"v":41200}},{"type":"Feature","geometry":{"type":"Point","coordinates":[-80.00005,40.50354]},"properties":{"p":"0218S00250000000","a":"PEOPLES TOWNSHIP RD","m":"Ross","u":"L","o":"individual","sf":13984,"v":40600}},{"type":"Feature","geometry":{"type":"Point","coordinates":[-80.00272,40.5075]},"properties":{"p":"0218H00138000000","a":"NELSON RUN RD","m":"Ross","u":"L","o":"individual","sf":20430,"v":4450}},{"type":"Feature","geometry":{"type":"Point","coordinates":[-80.00163,40.50669]},"properties":{"p":"0218H00275000000","a":"BUNNY WAY","m":"Ross","u":"L","o":"individual","sf":39116,"v":23100}},{"type":"Feature","geometry":{"type":"Point","coordinates":[-80.00117,40.50404]},"properties":{"p":"0218M00220000000","a":"JOHN ST","m":"Ross","u":"L","o":"individual","sf":52708,"v":600}},{"type":"Feature","geometry":{"type":"Point","coordinates":[-80.00163,40.50402]},"properties":{"p":"0218M00225000000","a":"JOHN ST","m":"Ross","u":"L","o":"individual","sf":53361,"v":600}},{"type":"Feature","geometry":{"type":"Point","coordinates":[-80.00209,40.50401]},"properties":{"p":"0218M00230000000","a":"JOHN ST","m":"Ross","u":"L","o":"individual","sf":53361,"v":600}},{"type":"Feature","geometry":{"type":"Point","coordinates":[-80.00254,40.50399]},"properties":{"p":"0218M00235000000","a":"JOHN ST","m":"Ross","u":"L","o":"individual","sf":50573,"v":600}},{"type":"Feature","geometry":{"type":"Point","coordinates":[-80.00299,40.50397]},"properties":{"p":"0218M00240000000","a":"JOHN ST","m":"Ross","u":"L","o":"individual","sf":20550,"v":7300}},{"type":"Feature","geometry":{"type":"Point","coordinates":[-80.00317,40.50397]},"properties":{"p":"0218M00242000000","a":"JOHN ST","m":"Ross","u":"L","o":"individual","sf":20550,"v":7300}},{"type":"Feature","geometry":{"type":"Point","coordinates":[-80.00336,40.50396]},"properties":{"p":"0218M00245000000","a":"JOHN ST","m":"Ross","u":"L","o":"individual","sf":23119,"v":8200}},{"type":"Feature","geometry":{"type":"Point","coordinates":[-80.00352,40.50396]},"properties":{"p":"0218M00247000000","a":"JOHN ST","m":"Ross","u":"L","o":"individual","sf":13666,"v":4900}},{"type":"Feature","geometry":{"type":"Point","coordinates":[-80.00497,40.50481]},"properties":{"p":"0218L00123000000","a":"RENFER ST","m":"Ross","u":"L","o":"individual","sf":13724,"v":4900}},{"type":"Feature","geometry":{"type":"Point","coordinates":[-80.01584,40.50258]},"properties":{"p":"0218N00150000000","a":"WEST VIEW AVE","m":"Ross","u":"L","o":"individual","sf":24512,"v":21800}},{"type":"Feature","geometry":{"type":"Point","coordinates":[-80.00377,40.50476]},"properties":{"p":"0218L00192000000","a":"JOHN ST","m":"Ross","u":"L","o":"individual","sf":12545,"v":20700}},{"type":"Feature","geometry":{"type":"Point","coordinates":[-80.00381,40.50252]},"properties":{"p":"0218R00375000000","a":"EVERGREEN RD","m":"Ross","u":"L","o":"individual","sf":100188,"v":1200}},{"type":"Feature","geometry":{"type":"Point","coordinates":[-80.00439,40.50939]},"properties":{"p":"0218C00075000000","a":"MCKNIGHT RD","m":"Ross","u":"L","o":"individual","sf":66908,"v":6100}},{"type":"Feature","geometry":{"type":"Point","coordinates":[-80.009,40.50212]},"properties":{"p":"0218P00078000000","a":"NELSON RUN RD","m":"Ross","u":"L","o":"individual","sf":9378,"v":3400}},{"type":"Feature","geometry":{"type":"Point","coordinates":[-80.009,40.5022]},"properties":{"p":"0218P00081000000","a":"NELSON RUN RD","m":"Ross","u":"L","o":"individual","sf":6393,"v":2300}},{"type":"Feature","geometry":{"type":"Point","coordinates":[-80.00939,40.50275]},"properties":{"p":"0218P00106000000","a":"NELSON RUN RD","m":"Ross","u":"L","o":"individual","sf":9466,"v":3400}},{"type":"Feature","geometry":{"type":"Point","coordinates":[-80.00873,40.50278]},"properties":{"p":"0218P00107000000","a":"NELSON RUN RD","m":"Ross","u":"L","o":"individual","sf":18725,"v":41200}},{"type":"Feature","geometry":{"type":"Point","coordinates":[-80.01788,40.50149]},"properties":{"p":"0217S00056000000","a":"KING AVE","m":"Ross","u":"L","o":"corp","sf":7875,"v":6500}},{"type":"Feature","geometry":{"type":"Point","coordinates":[-80.01827,40.50144]},"properties":{"p":"0217S00062000000","a":"KING AVE","m":"Ross","u":"L","o":"corp","sf":4560,"v":1700}},{"type":"Feature","geometry":{"type":"Point","coordinates":[-80.01411,40.50152]},"properties":{"p":"0218N00068000000","a":"KING AVE","m":"Ross","u":"L","o":"individual","sf":12860,"v":20700}},{"type":"Feature","geometry":{"type":"Point","coordinates":[-80.01541,40.50216]},"properties":{"p":"0218N00140000000","a":"WEST VIEW AVE","m":"Ross","u":"L","o":"individual","sf":26560,"v":41900}},{"type":"Feature","geometry":{"type":"Point","coordinates":[-80.00163,40.49681]},"properties":{"p":"0163H00100000000","a":"SAINT MARYS LN","m":"Ross","u":"L","o":"individual","sf":33715,"v":42600}},{"type":"Feature","geometry":{"type":"Point","coordinates":[-80.01501,40.50179]},"properties":{"p":"0218N00054000000","a":"KING AVE","m":"Ross","u":"L","o":"individual","sf":3300,"v":1300}},{"type":"Feature","geometry":{"type":"Point","coordinates":[-80.01454,40.50163]},"properties":{"p":"0218N00059000000","a":"KING AVE","m":"Ross","u":"L","o":"individual","sf":12000,"v":20600}},{"type":"Feature","geometry":{"type":"Point","coordinates":[-80.00427,40.50823]},"properties":{"p":"0218G00235000000","a":"BROOKVIEW LN","m":"Ross","u":"L","o":"individual","sf":100624,"v":28800}},{"type":"Feature","geometry":{"type":"Point","coordinates":[-80.00474,40.50521]},"properties":{"p":"0218L00105000000","a":"RENFER ST","m":"Ross","u":"L","o":"corp","sf":12000,"v":20600}},{"type":"Feature","geometry":{"type":"Point","coordinates":[-80.01148,40.49891]},"properties":{"p":"0163B00030000000","a":"VALLEY VIEW ST","m":"26th Ward - PITTSBURGH","u":"L","o":"individual","sf":9900,"v":7900}},{"type":"Feature","geometry":{"type":"Point","coordinates":[-80.01424,40.49175]},"properties":{"p":"0163N00252000000","a":"RUTLAND ST","m":"26th Ward - PITTSBURGH","u":"L","o":"individual","sf":55016,"v":600}},{"type":"Feature","geometry":{"type":"Point","coordinates":[-80.00818,40.4963]},"properties":{"p":"0163K00090000000","a":"EVERGREEN RD","m":"26th Ward - PITTSBURGH","u":"L","o":"individual","sf":4056,"v":1500}},{"type":"Feature","geometry":{"type":"Point","coordinates":[-80.00823,40.50262]},"properties":{"p":"0218P00039000000","a":"EAKIN AVE","m":"Ross","u":"L","o":"individual","sf":12557,"v":4500}},{"type":"Feature","geometry":{"type":"Point","coordinates":[-80.01764,40.49039]},"properties":{"p":"0115D00142000000","a":"BONVUE ST","m":"26th Ward - PITTSBURGH","u":"L","o":"individual","sf":2990,"v":1100}},{"type":"Feature","geometry":{"type":"Point","coordinates":[-80.00757,40.49436]},"properties":{"p":"0163L00023000000","a":"4167 EVERGREEN RD","m":"26th Ward - PITTSBURGH","u":"L","o":"individual","sf":3040,"v":1200}},{"type":"Feature","geometry":{"type":"Point","coordinates":[-80.00647,40.49863]},"properties":{"p":"0163C00281000000","a":"EVERGREEN RD","m":"Ross","u":"L","o":"individual","sf":166874,"v":14000}},{"type":"Feature","geometry":{"type":"Point","coordinates":[-80.01668,40.49523]},"properties":{"p":"0162M00325000000","a":"IVORY AVE","m":"26th Ward - PITTSBURGH","u":"L","o":"corp","sf":174240,"v":15000}},{"type":"Feature","geometry":{"type":"Point","coordinates":[-80.01371,40.49832]},"properties":{"p":"0163E00135000000","a":"MOREFIELD ST","m":"26th Ward - PITTSBURGH","u":"L","o":"individual","sf":5400,"v":2000}},{"type":"Feature","geometry":{"type":"Point","coordinates":[-80.0009,40.50105]},"properties":{"p":"0163D00214000000","a":"4491 MOUNT TROY RD EXT","m":"Ross","u":"L","o":"individual","sf":26092,"v":21900}},{"type":"Feature","geometry":{"type":"Point","coordinates":[-80.0167,40.50167]},"properties":{"p":"0217S00040000000","a":"KING AVE","m":"Ross","u":"L","o":"individual","sf":5250,"v":1900}},{"type":"Feature","geometry":{"type":"Point","coordinates":[-80.00526,40.49397]},"properties":{"p":"0163R00033000000","a":"HARPEN RD","m":"26th Ward - PITTSBURGH","u":"B","o":"individual","sf":9751,"v":2100}},{"type":"Feature","geometry":{"type":"Point","coordinates":[-80.00509,40.4939]},"properties":{"p":"0163R00035000000","a":"HARPEN RD","m":"26th Ward - PITTSBURGH","u":"B","o":"individual","sf":8563,"v":1900}},{"type":"Feature","geometry":{"type":"Point","coordinates":[-80.00511,40.49362]},"properties":{"p":"0163R00037000000","a":"HARPEN RD","m":"26th Ward - PITTSBURGH","u":"B","o":"individual","sf":10570,"v":2300}},{"type":"Feature","geometry":{"type":"Point","coordinates":[-80.00515,40.49298]},"properties":{"p":"0163R00041000000","a":"HARPEN RD","m":"26th Ward - PITTSBURGH","u":"B","o":"individual","sf":8912,"v":2000}},{"type":"Feature","geometry":{"type":"Point","coordinates":[-80.00432,40.4932]},"properties":{"p":"0163R00043000000","a":"MAPLEWOOD DR","m":"26th Ward - PITTSBURGH","u":"B","o":"corp","sf":61293,"v":13500}},{"type":"Feature","geometry":{"type":"Point","coordinates":[-80.00544,40.49406]},"properties":{"p":"0163R00031000000","a":"HARPEN RD","m":"26th Ward - PITTSBURGH","u":"B","o":"individual","sf":12758,"v":2800}},{"type":"Feature","geometry":{"type":"Point","coordinates":[-80.0041,40.49396]},"properties":{"p":"0163R00065000000","a":"MAPLEWOOD DR","m":"26th Ward - PITTSBURGH","u":"B","o":"corp","sf":73068,"v":16100}},{"type":"Feature","geometry":{"type":"Point","coordinates":[-80.00467,40.49381]},"properties":{"p":"0163R00063000000","a":"MAPLEWOOD DR","m":"26th Ward - PITTSBURGH","u":"B","o":"individual","sf":45067,"v":10000}}]}