{"type":"FeatureCollection","features":[{"type":"Feature","geometry":{"type":"Point","coordinates":[-80.01329,40.43857]},"properties":{"p":"0001E00010000000","a":"RIVER FRONT","m":"19th Ward - PITTSBURGH","u":"I","o":"corp","sf":660,"v":500}},{"type":"Feature","geometry":{"type":"Point","coordinates":[-80.01657,40.44041]},"properties":{"p":"0001E00121000000","a":"W CARSON ST","m":"19th Ward - PITTSBURGH","u":"I","o":"corp","sf":14000,"v":9800}},{"type":"Feature","geometry":{"type":"Point","coordinates":[-80.00223,40.44159]},"properties":{"p":"0001D00153000000","a":"501 MARKET ST","m":"1st Ward  - PITTSBURGH","u":"C","o":"corp","sf":3438,"v":412600}},{"type":"Feature","geometry":{"type":"Point","coordinates":[-80.00368,40.43872]},"properties":{"p":"0001G00106000000","a":"MARKET ST","m":"1st Ward  - PITTSBURGH","u":"C","o":"corp","sf":2415,"v":61400}},{"type":"Feature","geometry":{"type":"Point","coordinates":[-80.00372,40.43865]},"properties":{"p":"0001G00107000000","a":"100 MARKET ST","m":"1st Ward  - PITTSBURGH","u":"C","o":"corp","sf":1284,"v":51400}},{"type":"Feature","geometry":{"type":"Point","coordinates":[-80.00377,40.43858]},"properties":{"p":"0001G00109000000","a":"100 MARKET ST","m":"1st Ward  - PITTSBURGH","u":"C","o":"corp","sf":2568,"v":65300}},{"type":"Feature","geometry":{"type":"Point","coordinates":[-80.00362,40.43854]},"properties":{"p":"0001H00046000000","a":"1ST AVE","m":"1st Ward  - PITTSBURGH","u":"C","o":"corp","sf":2083,"v":53000}},{"type":"Feature","geometry":{"type":"Point","coordinates":[-80.00322,40.43867]},"properties":{"p":"0001H00074000000","a":"BLVD OF THE ALLIES","m":"1st Ward  - PITTSBURGH","u":"C","o":"corp","sf":1683,"v":67300}},{"type":"Feature","geometry":{"type":"Point","coordinates":[-80.00329,40.4387]},"properties":{"p":"0001H00074000A00","a":"BLVD OF THE ALLIES","m":"1st Ward  - PITTSBURGH","u":"C","o":"corp","sf":1685,"v":67400}},{"type":"Feature","geometry":{"type":"Point","coordinates":[-80.00004,40.43611]},"properties":{"p":"0001M00180000000","a":"SMITHFIELD ST","m":"1st Ward  - PITTSBURGH","u":"C","o":"corp","sf":73424,"v":477300}},{"type":"Feature","geometry":{"type":"Point","coordinates":[-80.00028,40.43877]},"properties":{"p":"0001H00338000100","a":"334 -336 3RD AVE","m":"1st Ward  - PITTSBURGH","u":"C","o":"corp","sf":7895,"v":10000}},{"type":"Feature","geometry":{"type":"Point","coordinates":[-80.00009,40.44506]},"properties":{"p":"0008S00191000000","a":"701 FORT DUQUESNE BLVD","m":"2nd Ward - PITTSBURGH","u":"C","o":"corp","sf":84001,"v":10080100}},{"type":"Feature","geometry":{"type":"Point","coordinates":[-80.01472,40.43226]},"properties":{"p":"0004A00056000001","a":"608 VIRGINIA AVE","m":"19th Ward - PITTSBURGH","u":"C","o":"corp","sf":10000,"v":4000}},{"type":"Feature","geometry":{"type":"Point","coordinates":[-80.01559,40.43254]},"properties":{"p":"0004A00033000000","a":"314 BIGHAM ST","m":"19th Ward - PITTSBURGH","u":"C","o":"corp","sf":2880,"v":19300}},{"type":"Feature","geometry":{"type":"Point","coordinates":[-80.01531,40.43393]},"properties":{"p":"0001N00084000000","a":"BIGHAM ST","m":"19th Ward - PITTSBURGH","u":"C","o":"individual","sf":240,"v":100}},{"type":"Feature","geometry":{"type":"Point","coordinates":[-80.01089,40.43746]},"properties":{"p":"0001K00005000000","a":"RIVER FRONT","m":"19th Ward - PITTSBURGH","u":"C","o":"corp","sf":1158,"v":2300}},{"type":"Feature","geometry":{"type":"Point","coordinates":[-80.01487,40.43171]},"properties":{"p":"0004A00286000000","a":"415 BIGHAM ST","m":"19th Ward - PITTSBURGH","u":"C","o":"corp","sf":6500,"v":9800}},{"type":"Feature","geometry":{"type":"Point","coordinates":[-80.00961,40.43033]},"properties":{"p":"0004F00277000000","a":"MAPLE TER","m":"19th Ward - PITTSBURGH","u":"C","o":"corp","sf":1908,"v":1700}},{"type":"Feature","geometry":{"type":"Point","coordinates":[-80.00968,40.43026]},"properties":{"p":"0004F00279000000","a":"MAPLE TER","m":"19th Ward - PITTSBURGH","u":"C","o":"corp","sf":1907,"v":1700}},{"type":"Feature","geometry":{"type":"Point","coordinates":[-80.01516,40.43171]},"properties":{"p":"0004A00311000000","a":"415 BIGHAM ST","m":"19th Ward - PITTSBURGH","u":"C","o":"corp","sf":2525,"v":3800}},{"type":"Feature","geometry":{"type":"Point","coordinates":[-80.00787,40.43046]},"properties":{"p":"0004F00350000000","a":"BEAM WAY","m":"19th Ward - PITTSBURGH","u":"C","o":"individual","sf":2415,"v":2000}},{"type":"Feature","geometry":{"type":"Point","coordinates":[-80.01899,40.43747]},"properties":{"p":"0006M00204000000","a":"COHASSETT ST","m":"19th Ward - PITTSBURGH","u":"C","o":"corp","sf":8581,"v":27900}},{"type":"Feature","geometry":{"type":"Point","coordinates":[-80.01947,40.43865]},"properties":{"p":"0006H00039000000","a":"GRANDVIEW AVE","m":"19th Ward - PITTSBURGH","u":"C","o":"corp","sf":11838,"v":23700}},{"type":"Feature","geometry":{"type":"Point","coordinates":[-80.01981,40.43875]},"properties":{"p":"0006H00045000000","a":"GRANDVIEW AVE","m":"19th Ward - PITTSBURGH","u":"C","o":"corp","sf":6912,"v":120700}},{"type":"Feature","geometry":{"type":"Point","coordinates":[-80.01841,40.44021]},"properties":{"p":"0006H00057000000","a":"W CARSON ST","m":"19th Ward - PITTSBURGH","u":"C","o":"corp","sf":127552,"v":119300}},{"type":"Feature","geometry":{"type":"Point","coordinates":[-80.00956,40.44954]},"properties":{"p":"0008F00082000000","a":"MARTINDALE ST","m":"22nd Ward - PITTSBURGH","u":"C","o":"corp","sf":6240,"v":5700}},{"type":"Feature","geometry":{"type":"Point","coordinates":[-80.01036,40.44583]},"properties":{"p":"0008K00020000000","a":"323 -337 NORTH SHORE DR","m":"22nd Ward - PITTSBURGH","u":"C","o":"corp","sf":14069,"v":209000}},{"type":"Feature","geometry":{"type":"Point","coordinates":[-80.01001,40.44556]},"properties":{"p":"0008N00050000000","a":"251 -525 NORTH SHORE DR","m":"22nd Ward - PITTSBURGH","u":"C","o":"corp","sf":129378,"v":2227600}},{"type":"Feature","geometry":{"type":"Point","coordinates":[-80.01015,40.44587]},"properties":{"p":"0008K00023000000","a":"NORTH SHORE DR","m":"22nd Ward - PITTSBURGH","u":"C","o":"corp","sf":1818,"v":3100}},{"type":"Feature","geometry":{"type":"Point","coordinates":[-80.00919,40.44585]},"properties":{"p":"0008K00024000000","a":"NORTH SHORE DR","m":"22nd Ward - PITTSBURGH","u":"C","o":"corp","sf":312,"v":500}},{"type":"Feature","geometry":{"type":"Point","coordinates":[-80.0086,40.44596]},"properties":{"p":"0008K00025000000","a":"NORTH SHORE DR","m":"22nd Ward - PITTSBURGH","u":"C","o":"corp","sf":93,"v":200}},{"type":"Feature","geometry":{"type":"Point","coordinates":[-80.00855,40.44616]},"properties":{"p":"0008K00026000000","a":"NORTH SHORE DR","m":"22nd Ward - PITTSBURGH","u":"C","o":"corp","sf":11454,"v":473700}},{"type":"Feature","geometry":{"type":"Point","coordinates":[-80.00839,40.446]},"properties":{"p":"0008K00027000000","a":"NORTH SHORE DR","m":"22nd Ward - PITTSBURGH","u":"C","o":"corp","sf":93,"v":200}},{"type":"Feature","geometry":{"type":"Point","coordinates":[-80.00773,40.44612]},"properties":{"p":"0008K00028000000","a":"NORTH SHORE DR","m":"22nd Ward - PITTSBURGH","u":"C","o":"corp","sf":239,"v":400}},{"type":"Feature","geometry":{"type":"Point","coordinates":[-80.01196,40.44567]},"properties":{"p":"0008K00012000000","a":"251 -525 NORTH SHORE DR","m":"22nd Ward - PITTSBURGH","u":"C","o":"corp","sf":75581,"v":1301300}},{"type":"Feature","geometry":{"type":"Point","coordinates":[-80.01114,40.4455]},"properties":{"p":"0008K00016000000","a":"NORTH SHORE DR","m":"22nd Ward - PITTSBURGH","u":"C","o":"corp","sf":228,"v":400}},{"type":"Feature","geometry":{"type":"Point","coordinates":[-80.01064,40.44578]},"properties":{"p":"0008K00019000000","a":"NORTH SHORE DR","m":"22nd Ward - PITTSBURGH","u":"C","o":"corp","sf":7260,"v":12500}},{"type":"Feature","geometry":{"type":"Point","coordinates":[-80.00143,40.44996]},"properties":{"p":"0008H00044000A00","a":"E LACOCK ST","m":"22nd Ward - PITTSBURGH","u":"C","o":"corp","sf":1250,"v":500}},{"type":"Feature","geometry":{"type":"Point","coordinates":[-80.00001,40.44896]},"properties":{"p":"0008H00302000000","a":"100 ANDERSON ST","m":"23rd Ward - PITTSBURGH","u":"C","o":"corp","sf":523,"v":400}},{"type":"Feature","geometry":{"type":"Point","coordinates":[-80.00455,40.44985]},"properties":{"p":"0008G00206000000","a":"FEDERAL ST","m":"22nd Ward - PITTSBURGH","u":"C","o":"corp","sf":4400,"v":6100}},{"type":"Feature","geometry":{"type":"Point","coordinates":[-80.00761,40.44992]},"properties":{"p":"0008G00250000000","a":"201 E NORTH AVE","m":"22nd Ward - PITTSBURGH","u":"C","o":"corp","sf":37608,"v":367100}},{"type":"Feature","geometry":{"type":"Point","coordinates":[-80.00907,40.44546]},"properties":{"p":"0008J00098000000","a":"251 -525 NORTH SHORE DR","m":"22nd Ward - PITTSBURGH","u":"C","o":"corp","sf":360293,"v":2651300}},{"type":"Feature","geometry":{"type":"Point","coordinates":[-80.01531,40.43939]},"properties":{"p":"0001E00030000000","a":"W STATION SQUARE DR","m":"19th Ward - PITTSBURGH","u":"C","o":"corp","sf":31625,"v":22100}},{"type":"Feature","geometry":{"type":"Point","coordinates":[-80.00702,40.43002]},"properties":{"p":"0004G00078000000","a":"217 -219 SHILOH ST","m":"19th Ward - PITTSBURGH","u":"C","o":"corp","sf":2028,"v":31600}},{"type":"Feature","geometry":{"type":"Point","coordinates":[-80.00952,40.43043]},"properties":{"p":"0004F00275000000","a":"MAPLE TER","m":"19th Ward - PITTSBURGH","u":"C","o":"corp","sf":3233,"v":37100}},{"type":"Feature","geometry":{"type":"Point","coordinates":[-80.00227,40.44382]},"properties":{"p":"0008S00068000C00","a":"107 6TH ST","m":"2nd Ward - PITTSBURGH","u":"C","o":"corp","sf":672,"v":5700}},{"type":"Feature","geometry":{"type":"Point","coordinates":[-80.00209,40.44166]},"properties":{"p":"0001D00156000000","a":"501 MARKET ST","m":"1st Ward  - PITTSBURGH","u":"C","o":"corp","sf":5184,"v":168500}},{"type":"Feature","geometry":{"type":"Point","coordinates":[-80.00355,40.4396]},"properties":{"p":"0001H00040000000","a":"BLVD OF THE ALLIES","m":"1st Ward  - PITTSBURGH","u":"C","o":"corp","sf":21841,"v":262100}},{"type":"Feature","geometry":{"type":"Point","coordinates":[-80.00493,40.43092]},"properties":{"p":"0004C00080000000","a":"VINECLIFFE ST","m":"18th Ward - PITTSBURGH","u":"C","o":"corp","sf":35620,"v":68400}},{"type":"Feature","geometry":{"type":"Point","coordinates":[-80.00301,40.4309]},"properties":{"p":"0004D00031000000","a":"E SYCAMORE TER","m":"18th Ward - PITTSBURGH","u":"L","o":"corp","sf":4800,"v":196800}},{"type":"Feature","geometry":{"type":"Point","coordinates":[-80.00476,40.43061]},"properties":{"p":"0004G00249000000","a":"VINECLIFFE ST","m":"18th Ward - PITTSBURGH","u":"L","o":"corp","sf":1418,"v":700}},{"type":"Feature","geometry":{"type":"Point","coordinates":[-80.00366,40.43]},"properties":{"p":"0004G00284000000","a":"20 E SYCAMORE ST","m":"18th Ward - PITTSBURGH","u":"L","o":"corp","sf":2250,"v":1000}},{"type":"Feature","geometry":{"type":"Point","coordinates":[-80.00334,40.43049]},"properties":{"p":"0004H00120000000","a":"E SYCAMORE ST","m":"18th Ward - PITTSBURGH","u":"L","o":"individual","sf":5565,"v":2400}},{"type":"Feature","geometry":{"type":"Point","coordinates":[-80.00467,40.43059]},"properties":{"p":"0004G00250000000","a":"VINECLIFFE ST","m":"18th Ward - PITTSBURGH","u":"L","o":"corp","sf":2438,"v":21900}},{"type":"Feature","geometry":{"type":"Point","coordinates":[-80.00442,40.43052]},"properties":{"p":"0004G00255000000","a":"VINECLIFFE ST","m":"18th Ward - PITTSBURGH","u":"L","o":"corp","sf":3125,"v":28100}},{"type":"Feature","geometry":{"type":"Point","coordinates":[-80.00403,40.43057]},"properties":{"p":"0004G00258000000","a":"VINECLIFFE ST","m":"18th Ward - PITTSBURGH","u":"L","o":"individual","sf":6875,"v":3000}},{"type":"Feature","geometry":{"type":"Point","coordinates":[-80.00384,40.43052]},"properties":{"p":"0004G00259000000","a":"E SYCAMORE ST","m":"18th Ward - PITTSBURGH","u":"L","o":"individual","sf":20473,"v":8700}},{"type":"Feature","geometry":{"type":"Point","coordinates":[-80.00454,40.43035]},"properties":{"p":"0004G00263000000","a":"VINECLIFFE ST","m":"18th Ward - PITTSBURGH","u":"L","o":"individual","sf":1056,"v":500}},{"type":"Feature","geometry":{"type":"Point","coordinates":[-80.01255,40.43381]},"properties":{"p":"0001N00308000000","a":"138 ULYSSES ST","m":"19th Ward - PITTSBURGH","u":"L","o":"individual","sf":2345,"v":900}},{"type":"Feature","geometry":{"type":"Point","coordinates":[-80.01256,40.43376]},"properties":{"p":"0001N00309000000","a":"ULYSSES ST","m":"19th Ward - PITTSBURGH","u":"L","o":"individual","sf":2160,"v":800}},{"type":"Feature","geometry":{"type":"Point","coordinates":[-80.01561,40.43604]},"properties":{"p":"0001J00022000100","a":"LABELLE ST","m":"19th Ward - PITTSBURGH","u":"L","o":"individual","sf":200,"v":500}},{"type":"Feature","geometry":{"type":"Point","coordinates":[-80.01322,40.43194]},"properties":{"p":"0004A00162000000","a":"ULYSSES ST","m":"19th Ward - PITTSBURGH","u":"L","o":"corp","sf":1200,"v":3100}},{"type":"Feature","geometry":{"type":"Point","coordinates":[-80.01401,40.43278]},"properties":{"p":"0004A00090000000","a":"SYCAMORE ST","m":"19th Ward - PITTSBURGH","u":"L","o":"individual","sf":1625,"v":600}},{"type":"Feature","geometry":{"type":"Point","coordinates":[-80.01387,40.43398]},"properties":{"p":"0001N00180000000","a":"AMABELL ST","m":"19th Ward - PITTSBURGH","u":"L","o":"individual","sf":4900,"v":25700}},{"type":"Feature","geometry":{"type":"Point","coordinates":[-80.01385,40.43405]},"properties":{"p":"0001N00182000000","a":"AMABELL ST","m":"19th Ward - PITTSBURGH","u":"L","o":"individual","sf":1500,"v":3900}},{"type":"Feature","geometry":{"type":"Point","coordinates":[-80.01385,40.43409]},"properties":{"p":"0001N00182000A00","a":"AMABELL ST","m":"19th Ward - PITTSBURGH","u":"L","o":"individual","sf":1300,"v":3400}},{"type":"Feature","geometry":{"type":"Point","coordinates":[-80.01384,40.43413]},"properties":{"p":"0001N00183000000","a":"AMABELL ST","m":"19th Ward - PITTSBURGH","u":"L","o":"corp","sf":1300,"v":3400}},{"type":"Feature","geometry":{"type":"Point","coordinates":[-80.01468,40.4362]},"properties":{"p":"0001J00057000000","a":"GRANDVIEW AVE","m":"19th Ward - PITTSBURGH","u":"L","o":"individual","sf":3156,"v":73400}},{"type":"Feature","geometry":{"type":"Point","coordinates":[-80.01123,40.43346]},"properties":{"p":"0001P00028000000","a":"BERTHA ST","m":"19th Ward - PITTSBURGH","u":"L","o":"corp","sf":8015,"v":26300}},{"type":"Feature","geometry":{"type":"Point","coordinates":[-80.01113,40.43376]},"properties":{"p":"0001P00036000000","a":"GRANDVIEW AVE","m":"19th Ward - PITTSBURGH","u":"L","o":"corp","sf":16219,"v":149000}},{"type":"Feature","geometry":{"type":"Point","coordinates":[-80.01262,40.43508]},"properties":{"p":"0001N00275000000","a":"525 -527 GRANDVIEW AVE","m":"19th Ward - PITTSBURGH","u":"L","o":"corp","sf":4076,"v":51100}},{"type":"Feature","geometry":{"type":"Point","coordinates":[-80.01377,40.43475]},"properties":{"p":"0001N00193000000","a":"AMABELL ST","m":"19th Ward - PITTSBURGH","u":"L","o":"corp","sf":2160,"v":5600}},{"type":"Feature","geometry":{"type":"Point","coordinates":[-80.01376,40.43483]},"properties":{"p":"0001N00194000000","a":"AMABELL ST","m":"19th Ward - PITTSBURGH","u":"L","o":"corp","sf":2210,"v":5800}},{"type":"Feature","geometry":{"type":"Point","coordinates":[-80.01276,40.43317]},"properties":{"p":"0004A00145000000","a":"ULYSSES ST","m":"19th Ward - PITTSBURGH","u":"L","o":"individual","sf":3393,"v":7500}},{"type":"Feature","geometry":{"type":"Point","coordinates":[-80.01277,40.4331]},"properties":{"p":"0004A00146000000","a":"ULYSSES ST","m":"19th Ward - PITTSBURGH","u":"L","o":"individual","sf":3307,"v":200}},{"type":"Feature","geometry":{"type":"Point","coordinates":[-80.01598,40.43584]},"properties":{"p":"0001J00006000000","a":"LABELLE ST","m":"19th Ward - PITTSBURGH","u":"L","o":"individual","sf":3200,"v":7000}},{"type":"Feature","geometry":{"type":"Point","coordinates":[-80.01242,40.43089]},"properties":{"p":"0004A00229000000","a":"WOODRUFF ST","m":"19th Ward - PITTSBURGH","u":"L","o":"individual","sf":6988,"v":26200}},{"type":"Feature","geometry":{"type":"Point","coordinates":[-80.00978,40.43228]},"properties":{"p":"0004B00186000000","a":"W SYCAMORE ST","m":"19th Ward - PITTSBURGH","u":"L","o":"individual","sf":5544,"v":26100}},{"type":"Feature","geometry":{"type":"Point","coordinates":[-80.00965,40.43222]},"properties":{"p":"0004B00188000000","a":"W SYCAMORE ST","m":"19th Ward - PITTSBURGH","u":"L","o":"individual","sf":5060,"v":26000}},{"type":"Feature","geometry":{"type":"Point","coordinates":[-80.01145,40.43149]},"properties":{"p":"0004B00108000000","a":"VIRGINIA AVE","m":"19th Ward - PITTSBURGH","u":"L","o":"corp","sf":2162,"v":5600}},{"type":"Feature","geometry":{"type":"Point","coordinates":[-80.00929,40.43202]},"properties":{"p":"0004B00194000000","a":"SYCAMORE ST","m":"19th Ward - PITTSBURGH","u":"L","o":"individual","sf":2860,"v":20400}},{"type":"Feature","geometry":{"type":"Point","coordinates":[-80.01083,40.43276]},"properties":{"p":"0004B00044000000","a":"HAVELOCK WAY","m":"19th Ward - PITTSBURGH","u":"L","o":"individual","sf":1800,"v":700}},{"type":"Feature","geometry":{"type":"Point","coordinates":[-80.01069,40.43274]},"properties":{"p":"0004B00045000000","a":"HAVELOCK WAY","m":"19th Ward - PITTSBURGH","u":"L","o":"individual","sf":1806,"v":700}},{"type":"Feature","geometry":{"type":"Point","coordinates":[-80.00867,40.43067]},"properties":{"p":"0004F00298000000","a":"BEAM WAY","m":"19th Ward - PITTSBURGH","u":"L","o":"individual","sf":3225,"v":14800}},{"type":"Feature","geometry":{"type":"Point","coordinates":[-80.00859,40.43089]},"properties":{"p":"0004B00283000000","a":"BEAM WAY","m":"19th Ward - PITTSBURGH","u":"L","o":"corp","sf":2657,"v":6900}},{"type":"Feature","geometry":{"type":"Point","coordinates":[-80.00879,40.43235]},"properties":{"p":"0004B00229000000","a":"GRANDVIEW AVE","m":"19th Ward - PITTSBURGH","u":"L","o":"individual","sf":10098,"v":68300}},{"type":"Feature","geometry":{"type":"Point","coordinates":[-80.01059,40.43269]},"properties":{"p":"0004B00054000000","a":"HAVELOCK WAY","m":"19th Ward - PITTSBURGH","u":"L","o":"individual","sf":1919,"v":700}},{"type":"Feature","geometry":{"type":"Point","coordinates":[-80.00833,40.43053]},"properties":{"p":"0004F00288000A00","a":"136 VIRGINIA AVE","m":"19th Ward - PITTSBURGH","u":"L","o":"individual","sf":1650,"v":3000}},{"type":"Feature","geometry":{"type":"Point","coordinates":[-80.01092,40.43221]},"properties":{"p":"0004B00071000000","a":"315 W SYCAMORE ST","m":"19th Ward - PITTSBURGH","u":"L","o":"corp","sf":3900,"v":23100}},{"type":"Feature","geometry":{"type":"Point","coordinates":[-80.01494,40.43111]},"properties":{"p":"0004A00296000000","a":"AMABELL ST","m":"19th Ward - PITTSBURGH","u":"L","o":"individual","sf":4700,"v":5000}},{"type":"Feature","geometry":{"type":"Point","coordinates":[-80.01496,40.43101]},"properties":{"p":"0004A00297000000","a":"AMABELL ST","m":"19th Ward - PITTSBURGH","u":"L","o":"individual","sf":2500,"v":6500}},{"type":"Feature","geometry":{"type":"Point","coordinates":[-80.01532,40.43112]},"properties":{"p":"0004A00303000000","a":"BIGHAM ST","m":"19th Ward - PITTSBURGH","u":"L","o":"corp","sf":2500,"v":19500}},{"type":"Feature","geometry":{"type":"Point","coordinates":[-80.00966,40.43162]},"properties":{"p":"0004B00166000000","a":"SYCAMORE ST","m":"19th Ward - PITTSBURGH","u":"L","o":"corp","sf":3355,"v":21700}},{"type":"Feature","geometry":{"type":"Point","coordinates":[-80.01213,40.43221]},"properties":{"p":"0004A00199000000","a":"BERTHA ST","m":"19th Ward - PITTSBURGH","u":"L","o":"corp","sf":2030,"v":5300}},{"type":"Feature","geometry":{"type":"Point","coordinates":[-80.01403,40.43132]},"properties":{"p":"0004A00264000000","a":"MERRIMAC ST","m":"19th Ward - PITTSBURGH","u":"L","o":"corp","sf":3648,"v":9500}},{"type":"Feature","geometry":{"type":"Point","coordinates":[-80.00852,40.43214]},"properties":{"p":"0004B00238000A00","a":"MAPLE TER","m":"19th Ward - PITTSBURGH","u":"L","o":"individual","sf":252,"v":200}},{"type":"Feature","geometry":{"type":"Point","coordinates":[-80.00555,40.43013]},"properties":{"p":"0004G00216000000","a":"SYCAMORE ST","m":"19th Ward - PITTSBURGH","u":"L","o":"corp","sf":3125,"v":14100}},{"type":"Feature","geometry":{"type":"Point","coordinates":[-80.00667,40.4301]},"properties":{"p":"0004G00102000000","a":"WYOMING ST","m":"19th Ward - PITTSBURGH","u":"L","o":"corp","sf":3461,"v":17700}},{"type":"Feature","geometry":{"type":"Point","coordinates":[-80.00563,40.43016]},"properties":{"p":"0004G00217000000","a":"E SYCAMORE ST","m":"19th Ward - PITTSBURGH","u":"L","o":"corp","sf":3038,"v":36200}},{"type":"Feature","geometry":{"type":"Point","coordinates":[-80.00571,40.43019]},"properties":{"p":"0004G00218000000","a":"E SYCAMORE ST","m":"19th Ward - PITTSBURGH","u":"L","o":"corp","sf":3038,"v":36200}},{"type":"Feature","geometry":{"type":"Point","coordinates":[-80.00578,40.43023]},"properties":{"p":"0004G00219000000","a":"E SYCAMORE ST","m":"19th Ward - PITTSBURGH","u":"L","o":"corp","sf":3050,"v":36200}},{"type":"Feature","geometry":{"type":"Point","coordinates":[-80.00586,40.43026]},"properties":{"p":"0004G00220000000","a":"E SYCAMORE ST","m":"19th Ward - PITTSBURGH","u":"L","o":"corp","sf":3038,"v":36200}},{"type":"Feature","geometry":{"type":"Point","coordinates":[-80.00594,40.43029]},"properties":{"p":"0004G00221000000","a":"E SYCAMORE ST","m":"19th Ward - PITTSBURGH","u":"L","o":"corp","sf":3038,"v":1200}},{"type":"Feature","geometry":{"type":"Point","coordinates":[-80.00605,40.43027]},"properties":{"p":"0004G00222000000","a":"E SYCAMORE ST","m":"19th Ward - PITTSBURGH","u":"L","o":"corp","sf":3038,"v":1200}},{"type":"Feature","geometry":{"type":"Point","coordinates":[-80.00615,40.43029]},"properties":{"p":"0004G00224000000","a":"E SYCAMORE ST","m":"19th Ward - PITTSBURGH","u":"L","o":"corp","sf":1600,"v":18500}},{"type":"Feature","geometry":{"type":"Point","coordinates":[-80.00631,40.43033]},"properties":{"p":"0004G00226000000","a":"E SYCAMORE ST","m":"19th Ward - PITTSBURGH","u":"L","o":"corp","sf":2025,"v":9100}},{"type":"Feature","geometry":{"type":"Point","coordinates":[-80.00631,40.43043]},"properties":{"p":"0004G00227000000","a":"WYOMING ST","m":"19th Ward - PITTSBURGH","u":"L","o":"corp","sf":1507,"v":29300}},{"type":"Feature","geometry":{"type":"Point","coordinates":[-80.00631,40.43049]},"properties":{"p":"0004G00228000000","a":"WYOMING ST","m":"19th Ward - PITTSBURGH","u":"L","o":"corp","sf":3692,"v":12300}},{"type":"Feature","geometry":{"type":"Point","coordinates":[-80.00598,40.43068]},"properties":{"p":"0004G00231000000","a":"VINECLIFFE ST","m":"19th Ward - PITTSBURGH","u":"L","o":"corp","sf":3528,"v":15900}},{"type":"Feature","geometry":{"type":"Point","coordinates":[-80.00587,40.43066]},"properties":{"p":"0004G00234000000","a":"VINECLIFFE ST","m":"19th Ward - PITTSBURGH","u":"L","o":"corp","sf":1283,"v":28300}},{"type":"Feature","geometry":{"type":"Point","coordinates":[-80.00578,40.43065]},"properties":{"p":"0004G00235000000","a":"VINECLIFF ST","m":"19th Ward - PITTSBURGH","u":"L","o":"corp","sf":2228,"v":32500}},{"type":"Feature","geometry":{"type":"Point","coordinates":[-80.00642,40.43084]},"properties":{"p":"0004G00133000001","a":"WYOMING ST","m":"19th Ward - PITTSBURGH","u":"L","o":"individual","sf":1896,"v":12200}},{"type":"Feature","geometry":{"type":"Point","coordinates":[-80.00498,40.43033]},"properties":{"p":"0004G00245000000","a":"VINECLIFFE ST","m":"19th Ward - PITTSBURGH","u":"L","o":"corp","sf":2750,"v":12400}},{"type":"Feature","geometry":{"type":"Point","coordinates":[-80.00489,40.4303]},"properties":{"p":"0004G00246000000","a":"VINECLIFFE ST","m":"19th Ward - PITTSBURGH","u":"L","o":"corp","sf":2750,"v":34900}},{"type":"Feature","geometry":{"type":"Point","coordinates":[-80.00479,40.43026]},"properties":{"p":"0004G00247000000","a":"VINECLIFFE ST","m":"19th Ward - PITTSBURGH","u":"L","o":"corp","sf":5500,"v":45100}},{"type":"Feature","geometry":{"type":"Point","coordinates":[-80.00569,40.43063]},"properties":{"p":"0004G00236000000","a":"VINECLIFFE ST","m":"19th Ward - PITTSBURGH","u":"L","o":"corp","sf":2660,"v":34500}},{"type":"Feature","geometry":{"type":"Point","coordinates":[-80.00558,40.43064]},"properties":{"p":"0004G00237000000","a":"VINECLIFFE ST","m":"19th Ward - PITTSBURGH","u":"L","o":"corp","sf":2500,"v":33800}},{"type":"Feature","geometry":{"type":"Point","coordinates":[-80.00548,40.43063]},"properties":{"p":"0004G00238000000","a":"VINECLIFF ST","m":"19th Ward - PITTSBURGH","u":"L","o":"corp","sf":1472,"v":29100}},{"type":"Feature","geometry":{"type":"Point","coordinates":[-80.00559,40.43048]},"properties":{"p":"0004G00238000A00","a":"VINECLIFF ST","m":"19th Ward - PITTSBURGH","u":"L","o":"corp","sf":1250,"v":28100}},{"type":"Feature","geometry":{"type":"Point","coordinates":[-80.0054,40.4306]},"properties":{"p":"0004G00239000000","a":"VINECLIFF ST","m":"19th Ward - PITTSBURGH","u":"L","o":"corp","sf":2750,"v":12400}},{"type":"Feature","geometry":{"type":"Point","coordinates":[-80.00552,40.43045]},"properties":{"p":"0004G00239000A00","a":"VINECLIFF ST","m":"19th Ward - PITTSBURGH","u":"L","o":"corp","sf":1000,"v":500}},{"type":"Feature","geometry":{"type":"Point","coordinates":[-80.01653,40.43503]},"properties":{"p":"0006S00220000000","a":"157 OLYMPIA ST","m":"19th Ward - PITTSBURGH","u":"L","o":"individual","sf":2621,"v":19800}},{"type":"Feature","geometry":{"type":"Point","coordinates":[-80.01798,40.4357]},"properties":{"p":"0006S00128000000","a":"158 HALLOCK ST","m":"19th Ward - PITTSBURGH","u":"L","o":"individual","sf":2592,"v":6700}},{"type":"Feature","geometry":{"type":"Point","coordinates":[-80.01953,40.43478]},"properties":{"p":"0006S00048000000","a":"210 MERIDAN ST","m":"19th Ward - PITTSBURGH","u":"L","o":"individual","sf":60,"v":100}},{"type":"Feature","geometry":{"type":"Point","coordinates":[-80.01621,40.43486]},"properties":{"p":"0006S00273000000","a":"LABELLE ST","m":"19th Ward - PITTSBURGH","u":"L","o":"individual","sf":2147,"v":5600}},{"type":"Feature","geometry":{"type":"Point","coordinates":[-80.01771,40.43469]},"properties":{"p":"0006S00147000000","a":"203 HALLOCK ST","m":"19th Ward - PITTSBURGH","u":"L","o":"individual","sf":2533,"v":900}},{"type":"Feature","geometry":{"type":"Point","coordinates":[-80.01917,40.4323]},"properties":{"p":"0005D00171000000","a":"1113 VIRGINIA AVE","m":"19th Ward - PITTSBURGH","u":"L","o":"individual","sf":963,"v":2500}},{"type":"Feature","geometry":{"type":"Point","coordinates":[-80.01957,40.43236]},"properties":{"p":"0005D00177000000","a":"VIRGINIA AVE","m":"19th Ward - PITTSBURGH","u":"L","o":"individual","sf":2880,"v":7500}},{"type":"Feature","geometry":{"type":"Point","coordinates":[-80.01877,40.43269]},"properties":{"p":"0005D00033000000","a":"1102 VIRGINIA AVE","m":"19th Ward - PITTSBURGH","u":"L","o":"individual","sf":2797,"v":7300}},{"type":"Feature","geometry":{"type":"Point","coordinates":[-80.01976,40.43137]},"properties":{"p":"0005D00191000000","a":"MERIDAN ST","m":"19th Ward - PITTSBURGH","u":"L","o":"individual","sf":2400,"v":6200}},{"type":"Feature","geometry":{"type":"Point","coordinates":[-80.01777,40.43623]},"properties":{"p":"0006M00100000000","a":"134 HALLOCK ST","m":"19th Ward - PITTSBURGH","u":"L","o":"individual","sf":3298,"v":21600}},{"type":"Feature","geometry":{"type":"Point","coordinates":[-80.01896,40.4371]},"properties":{"p":"0006M00200000000","a":"COHASSETT ST","m":"19th Ward - PITTSBURGH","u":"L","o":"individual","sf":3000,"v":7800}},{"type":"Feature","geometry":{"type":"Point","coordinates":[-80.01894,40.4372]},"properties":{"p":"0006M00201000000","a":"COHASSETT ST","m":"19th Ward - PITTSBURGH","u":"L","o":"individual","sf":6000,"v":26100}},{"type":"Feature","geometry":{"type":"Point","coordinates":[-80.01945,40.43773]},"properties":{"p":"0006M00227000000","a":"ONEIDA ST","m":"19th Ward - PITTSBURGH","u":"L","o":"individual","sf":4284,"v":24100}},{"type":"Feature","geometry":{"type":"Point","coordinates":[-80.01831,40.43695]},"properties":{"p":"0006M00151000000","a":"122 MERIDAN ST","m":"19th Ward - PITTSBURGH","u":"L","o":"individual","sf":3548,"v":9200}},{"type":"Feature","geometry":{"type":"Point","coordinates":[-80.0175,40.43578]},"properties":{"p":"0006M00090000000","a":"HALLOCK ST","m":"19th Ward - PITTSBURGH","u":"L","o":"individual","sf":600,"v":1600}},{"type":"Feature","geometry":{"type":"Point","coordinates":[-80.01804,40.43605]},"properties":{"p":"0006M00096000000","a":"MERIDAN ST","m":"19th Ward - PITTSBURGH","u":"L","o":"corp","sf":2423,"v":6300}},{"type":"Feature","geometry":{"type":"Point","coordinates":[-80.01795,40.43618]},"properties":{"p":"0006M00098000000","a":"HALLOCK ST","m":"19th Ward - PITTSBURGH","u":"L","o":"individual","sf":4872,"v":12700}},{"type":"Feature","geometry":{"type":"Point","coordinates":[-80.00531,40.43002]},"properties":{"p":"0004G00213000000","a":"SYCAMORE ST","m":"19th Ward - PITTSBURGH","u":"L","o":"corp","sf":3050,"v":13700}},{"type":"Feature","geometry":{"type":"Point","coordinates":[-80.01644,40.43535]},"properties":{"p":"0006S00215000000","a":"OLYMPIA ST","m":"19th Ward - PITTSBURGH","u":"L","o":"individual","sf":2508,"v":6500}},{"type":"Feature","geometry":{"type":"Point","coordinates":[-80.00453,40.43056]},"properties":{"p":"0004G00251000000","a":"VINECLIFFE ST","m":"18th Ward - PITTSBURGH","u":"L","o":"corp","sf":3425,"v":30800}},{"type":"Feature","geometry":{"type":"Point","coordinates":[-80.00506,40.43037]},"properties":{"p":"0004G00244000000","a":"VINECLIFFE ST","m":"19th Ward - PITTSBURGH","u":"L","o":"corp","sf":2750,"v":12400}},{"type":"Feature","geometry":{"type":"Point","coordinates":[-80.00621,40.43032]},"properties":{"p":"0004G00225000000","a":"E SYCAMORE ST","m":"19th Ward - PITTSBURGH","u":"L","o":"corp","sf":984,"v":500}},{"type":"Feature","geometry":{"type":"Point","coordinates":[-80.00822,40.43019]},"properties":{"p":"0004F00283000000","a":"VIRGINIA AVE","m":"19th Ward - PITTSBURGH","u":"L","o":"individual","sf":2739,"v":13900}},{"type":"Feature","geometry":{"type":"Point","coordinates":[-80.00691,40.43017]},"properties":{"p":"0004G00101000000","a":"WYOMING ST","m":"19th Ward - PITTSBURGH","u":"L","o":"individual","sf":700,"v":300}},{"type":"Feature","geometry":{"type":"Point","coordinates":[-80.0044,40.43017]},"properties":{"p":"0004G00267000000","a":"E SYCAMORE ST","m":"18th Ward - PITTSBURGH","u":"L","o":"individual","sf":7455,"v":5000}},{"type":"Feature","geometry":{"type":"Point","coordinates":[-80.01597,40.43694]},"properties":{"p":"0001J00077000000","a":"GRANDVIEW AVE","m":"19th Ward - PITTSBURGH","u":"L","o":"individual","sf":6250,"v":90300}},{"type":"Feature","geometry":{"type":"Point","coordinates":[-80.00606,40.43045]},"properties":{"p":"0004G00223000000","a":"E SYCAMORE ST","m":"19th Ward - PITTSBURGH","u":"L","o":"corp","sf":2520,"v":1000}},{"type":"Feature","geometry":{"type":"Point","coordinates":[-80.00526,40.43043]},"properties":{"p":"0004G00240000000","a":"VINECLIFFE ST","m":"19th Ward - PITTSBURGH","u":"L","o":"corp","sf":11000,"v":23100}},{"type":"Feature","geometry":{"type":"Point","coordinates":[-80.01862,40.43435]},"properties":{"p":"0006S00107000000","a":"HALLOCK ST","m":"19th Ward - PITTSBURGH","u":"L","o":"individual","sf":3868,"v":23100}},{"type":"Feature","geometry":{"type":"Point","coordinates":[-80.01832,40.4358]},"properties":{"p":"0006M00137000000","a":"MERIDAN ST","m":"19th Ward - PITTSBURGH","u":"L","o":"corp","sf":2496,"v":900}},{"type":"Feature","geometry":{"type":"Point","coordinates":[-80.0149,40.43131]},"properties":{"p":"0004A00293000000","a":"AMABELL ST","m":"19th Ward - PITTSBURGH","u":"L","o":"individual","sf":3750,"v":9800}},{"type":"Feature","geometry":{"type":"Point","coordinates":[-80.00593,40.43066]},"properties":{"p":"0004G00233000000","a":"VINECLIFFE ST","m":"19th Ward - PITTSBURGH","u":"L","o":"corp","sf":852,"v":3800}},{"type":"Feature","geometry":{"type":"Point","coordinates":[-80.01194,40.43092]},"properties":{"p":"0004A00220000000","a":"342 WOODRUFF ST","m":"19th Ward - PITTSBURGH","u":"L","o":"individual","sf":4981,"v":26000}},{"type":"Feature","geometry":{"type":"Point","coordinates":[-80.00616,40.4305]},"properties":{"p":"0004G00230000000","a":"VINECLIFFE ST","m":"19th Ward - PITTSBURGH","u":"L","o":"corp","sf":1300,"v":600}},{"type":"Feature","geometry":{"type":"Point","coordinates":[-80.01757,40.43682]},"properties":{"p":"0006M00114000000","a":"114 HALLOCK ST","m":"19th Ward - PITTSBURGH","u":"B","o":"corp","sf":2386,"v":3400}}]}