{"type":"FeatureCollection","features":[{"type":"Feature","geometry":{"type":"Point","coordinates":[-80.01626,40.54315]},"properties":{"p":"0517M00210000000","a":"MCKNIGHT RD","m":"Ross","u":"C","o":"corp","sf":11570,"v":4600}},{"type":"Feature","geometry":{"type":"Point","coordinates":[-80.01818,40.54433]},"properties":{"p":"0517H00025000000","a":"ROSS PARK DR","m":"Ross","u":"C","o":"corp","sf":71612,"v":94000}},{"type":"Feature","geometry":{"type":"Point","coordinates":[-80.01686,40.54953]},"properties":{"p":"0517D00150000000","a":"MCINTYRE RD","m":"Ross","u":"C","o":"corp","sf":352204,"v":900000}},{"type":"Feature","geometry":{"type":"Point","coordinates":[-80.01717,40.54762]},"properties":{"p":"0517D00265000000","a":"MCKNIGHT RD","m":"Ross","u":"C","o":"corp","sf":136778,"v":74730}},{"type":"Feature","geometry":{"type":"Point","coordinates":[-80.00982,40.54623]},"properties":{"p":"0518F00050000000","a":"ROSS PARK MALL DR","m":"Ross","u":"C","o":"corp","sf":41208,"v":1000}},{"type":"Feature","geometry":{"type":"Point","coordinates":[-80.0049,40.54315]},"properties":{"p":"0518L00025000000","a":"WOODLAND RD","m":"Ross","u":"C","o":"corp","sf":7200,"v":500}},{"type":"Feature","geometry":{"type":"Point","coordinates":[-80.0052,40.54301]},"properties":{"p":"0518L00050000000","a":"WOODLAND RD","m":"Ross","u":"C","o":"corp","sf":11474,"v":800}},{"type":"Feature","geometry":{"type":"Point","coordinates":[-80.01841,40.53144]},"properties":{"p":"0430S00145000000","a":"BABCOCK BLVD","m":"Ross","u":"C","o":"corp","sf":5140,"v":8800}},{"type":"Feature","geometry":{"type":"Point","coordinates":[-80.00522,40.54783]},"properties":{"p":"0518C00001000000","a":"MCINTYRE RD","m":"Ross","u":"C","o":"corp","sf":76099,"v":52400}},{"type":"Feature","geometry":{"type":"Point","coordinates":[-80.00557,40.54782]},"properties":{"p":"0518C00003000000","a":"MCINTYRE RD","m":"Ross","u":"C","o":"corp","sf":27181,"v":18800}},{"type":"Feature","geometry":{"type":"Point","coordinates":[-80.00413,40.54581]},"properties":{"p":"0518G00004000000","a":"ROSS PARK MALL DR","m":"Ross","u":"C","o":"corp","sf":183388,"v":12600}},{"type":"Feature","geometry":{"type":"Point","coordinates":[-80.01955,40.53506]},"properties":{"p":"0430M00135000000","a":"3350 BABCOCK BLVD","m":"Ross","u":"C","o":"corp","sf":6417,"v":11000}},{"type":"Feature","geometry":{"type":"Point","coordinates":[-80.01112,40.53947]},"properties":{"p":"0431B00167000000","a":"OLD MCKNIGHT RD","m":"Ross","u":"C","o":"corp","sf":14305,"v":1000}},{"type":"Feature","geometry":{"type":"Point","coordinates":[-80.00582,40.5489]},"properties":{"p":"0518C00127000000","a":"MCINTYRE RD","m":"Ross","u":"C","o":"individual","sf":18914,"v":1300}},{"type":"Feature","geometry":{"type":"Point","coordinates":[-80.01066,40.54412]},"properties":{"p":"0518K00037000000","a":"ROSS PARK MALL DR","m":"Ross","u":"C","o":"corp","sf":130287,"v":134200}},{"type":"Feature","geometry":{"type":"Point","coordinates":[-80.00438,40.54321]},"properties":{"p":"0518L00005000000","a":"WOODLAND RD","m":"Ross","u":"C","o":"corp","sf":9156,"v":600}},{"type":"Feature","geometry":{"type":"Point","coordinates":[-80.01873,40.53267]},"properties":{"p":"0430S00157000000","a":"BABCOCK BLVD","m":"Ross","u":"C","o":"corp","sf":13690,"v":10000}},{"type":"Feature","geometry":{"type":"Point","coordinates":[-80.00038,40.54376]},"properties":{"p":"0518M00064000000","a":"CRESTVALE RD","m":"Ross","u":"L","o":"individual","sf":5250,"v":700}},{"type":"Feature","geometry":{"type":"Point","coordinates":[-80.00569,40.54229]},"properties":{"p":"0518R00150000000","a":"WOODLAND RD","m":"Ross","u":"L","o":"individual","sf":21675,"v":2800}},{"type":"Feature","geometry":{"type":"Point","coordinates":[-80.00578,40.54176]},"properties":{"p":"0518R00175000000","a":"WOODLAND RD","m":"Ross","u":"L","o":"individual","sf":19297,"v":2500}},{"type":"Feature","geometry":{"type":"Point","coordinates":[-80.00865,40.54843]},"properties":{"p":"0518B00059000000","a":"MCINTYRE RD","m":"Ross","u":"L","o":"individual","sf":20016,"v":2600}},{"type":"Feature","geometry":{"type":"Point","coordinates":[-80.00924,40.54844]},"properties":{"p":"0518B00080000000","a":"MCINTYRE RD","m":"Ross","u":"L","o":"individual","sf":48352,"v":6100}},{"type":"Feature","geometry":{"type":"Point","coordinates":[-80.0114,40.54865]},"properties":{"p":"0518B00121000000","a":"RYDAL LN","m":"Ross","u":"L","o":"individual","sf":211092,"v":80100}},{"type":"Feature","geometry":{"type":"Point","coordinates":[-80.00758,40.54997]},"properties":{"p":"0518C00016000000","a":"AMBLESIDE DR","m":"Ross","u":"L","o":"individual","sf":18221,"v":23000}},{"type":"Feature","geometry":{"type":"Point","coordinates":[-80.00292,40.53952]},"properties":{"p":"0431D00119000000","a":"SLOAN CT","m":"Ross","u":"L","o":"individual","sf":11326,"v":53400}},{"type":"Feature","geometry":{"type":"Point","coordinates":[-80.01913,40.53347]},"properties":{"p":"0430M00039000000","a":"BABCOCK BLVD","m":"Ross","u":"L","o":"individual","sf":5097,"v":40000}},{"type":"Feature","geometry":{"type":"Point","coordinates":[-80.00167,40.54964]},"properties":{"p":"0518D00198000000","a":"GREENHILL RD","m":"Ross","u":"L","o":"individual","sf":12225,"v":25400}},{"type":"Feature","geometry":{"type":"Point","coordinates":[-80.00598,40.53781]},"properties":{"p":"0431C00300000000","a":"TARA DR","m":"Ross","u":"L","o":"corp","sf":1565,"v":200}},{"type":"Feature","geometry":{"type":"Point","coordinates":[-80.00707,40.53295]},"properties":{"p":"0431L00172000000","a":"WIMER CIR","m":"Ross","u":"L","o":"individual","sf":3750,"v":500}},{"type":"Feature","geometry":{"type":"Point","coordinates":[-80.01776,40.53342]},"properties":{"p":"0430M00195000000","a":"3318 EVERGREEN RD","m":"Ross","u":"L","o":"individual","sf":4103,"v":500}},{"type":"Feature","geometry":{"type":"Point","coordinates":[-80.01905,40.532]},"properties":{"p":"0430S00093000000","a":"3304 MAPLE DR","m":"Ross","u":"L","o":"individual","sf":29272,"v":32200}},{"type":"Feature","geometry":{"type":"Point","coordinates":[-80.00555,40.53858]},"properties":{"p":"0431C00061000000","a":"TARA DR","m":"Ross","u":"L","o":"individual","sf":54450,"v":15000}},{"type":"Feature","geometry":{"type":"Point","coordinates":[-80.00591,40.53259]},"properties":{"p":"0431R00026000000","a":"MARTIN RD","m":"Ross","u":"L","o":"individual","sf":20500,"v":2700}},{"type":"Feature","geometry":{"type":"Point","coordinates":[-80.00215,40.54865]},"properties":{"p":"0518D00085000000","a":"PARKVIEW RD","m":"Ross","u":"L","o":"individual","sf":71874,"v":62600}},{"type":"Feature","geometry":{"type":"Point","coordinates":[-80.00464,40.53856]},"properties":{"p":"0431C00071000000","a":"TARA DR","m":"Ross","u":"L","o":"individual","sf":17860,"v":15000}},{"type":"Feature","geometry":{"type":"Point","coordinates":[-80.00417,40.5351]},"properties":{"p":"0431L00008000000","a":"WOODLAND RD","m":"Ross","u":"L","o":"individual","sf":26521,"v":29400}},{"type":"Feature","geometry":{"type":"Point","coordinates":[-80.00731,40.5311]},"properties":{"p":"0431R00226000000","a":"JESSICA DR","m":"Ross","u":"L","o":"individual","sf":3043,"v":400}},{"type":"Feature","geometry":{"type":"Point","coordinates":[-80.00569,40.53719]},"properties":{"p":"0431G00066000000","a":"TARA DR","m":"Ross","u":"L","o":"corp","sf":23958,"v":15000}},{"type":"Feature","geometry":{"type":"Point","coordinates":[-80.00564,40.53767]},"properties":{"p":"0431G00068000000","a":"TARA DR","m":"Ross","u":"L","o":"corp","sf":33106,"v":15000}},{"type":"Feature","geometry":{"type":"Point","coordinates":[-80.01774,40.53503]},"properties":{"p":"0430M00315000000","a":"EVERGREEN RD","m":"Ross","u":"L","o":"individual","sf":24394,"v":56600}},{"type":"Feature","geometry":{"type":"Point","coordinates":[-80.01869,40.5353]},"properties":{"p":"0430M00330000000","a":"EVERGREEN RD","m":"Ross","u":"L","o":"individual","sf":57935,"v":44900}},{"type":"Feature","geometry":{"type":"Point","coordinates":[-80.00149,40.53455]},"properties":{"p":"0431M00038000000","a":"WOODLAND RD","m":"Ross","u":"L","o":"corp","sf":139828,"v":71100}},{"type":"Feature","geometry":{"type":"Point","coordinates":[-80.01321,40.53167]},"properties":{"p":"0431N00299000000","a":"SIMON AVE","m":"Ross","u":"L","o":"individual","sf":10049,"v":14000}},{"type":"Feature","geometry":{"type":"Point","coordinates":[-80.00549,40.54919]},"properties":{"p":"0518C00125000000","a":"MCINTYRE RD","m":"Ross","u":"L","o":"individual","sf":91476,"v":37500}},{"type":"Feature","geometry":{"type":"Point","coordinates":[-80.00021,40.54794]},"properties":{"p":"0518D00006000000","a":"PARKVIEW RD","m":"Ross","u":"L","o":"individual","sf":537,"v":100}},{"type":"Feature","geometry":{"type":"Point","coordinates":[-80.00276,40.54613]},"properties":{"p":"0518H00121000000","a":"PITTVIEW RD","m":"Ross","u":"L","o":"individual","sf":12693,"v":1700}},{"type":"Feature","geometry":{"type":"Point","coordinates":[-80.0002,40.53472]},"properties":{"p":"0431M00202000000","a":"SANGREE RD","m":"Ross","u":"L","o":"individual","sf":111209,"v":67500}},{"type":"Feature","geometry":{"type":"Point","coordinates":[-80.01719,40.53995]},"properties":{"p":"0430D00027000000","a":"163 BUEHNER DR","m":"Ross","u":"L","o":"individual","sf":19807,"v":2600}},{"type":"Feature","geometry":{"type":"Point","coordinates":[-80.015,40.5332]},"properties":{"p":"0431J00321000000","a":"131 SIMON AVE","m":"Ross","u":"L","o":"individual","sf":199505,"v":78700}},{"type":"Feature","geometry":{"type":"Point","coordinates":[-80.00425,40.53151]},"properties":{"p":"0431R00114000000","a":"WOODLAND RD","m":"Ross","u":"L","o":"individual","sf":11989,"v":54900}},{"type":"Feature","geometry":{"type":"Point","coordinates":[-80.00463,40.5432]},"properties":{"p":"0518L00010000000","a":"WOODLAND RD","m":"Ross","u":"L","o":"individual","sf":4927,"v":600}},{"type":"Feature","geometry":{"type":"Point","coordinates":[-80.00595,40.53342]},"properties":{"p":"0431L00124000000","a":"MARTIN RD","m":"Ross","u":"L","o":"individual","sf":29227,"v":5000}},{"type":"Feature","geometry":{"type":"Point","coordinates":[-80.00555,40.54279]},"properties":{"p":"0518L00075000000","a":"WOODLAND RD","m":"Ross","u":"L","o":"individual","sf":12913,"v":1700}},{"type":"Feature","geometry":{"type":"Point","coordinates":[-80.01524,40.532]},"properties":{"p":"0431N00088000000","a":"WILLIAM ST","m":"Ross","u":"L","o":"corp","sf":10000,"v":50400}}]}