{"type":"FeatureCollection","features":[{"type":"Feature","geometry":{"type":"Point","coordinates":[-80.00473,40.57154]},"properties":{"p":"0827S00325000000","a":"PEEBLES RD","m":"McCandless","u":"C","o":"corp","sf":510611,"v":113500}},{"type":"Feature","geometry":{"type":"Point","coordinates":[-80.00613,40.57134]},"properties":{"p":"0827R00192000000","a":"ELM ST","m":"McCandless","u":"L","o":"individual","sf":15400,"v":57100}},{"type":"Feature","geometry":{"type":"Point","coordinates":[-80.00857,40.58292]},"properties":{"p":"0946K00153000000","a":"RIDGEWOOD DR","m":"McCandless","u":"L","o":"individual","sf":20615,"v":45900}},{"type":"Feature","geometry":{"type":"Point","coordinates":[-80.01051,40.58341]},"properties":{"p":"0946K00184000000","a":"PARKVIEW DR","m":"McCandless","u":"L","o":"individual","sf":20624,"v":45900}},{"type":"Feature","geometry":{"type":"Point","coordinates":[-80.01006,40.58342]},"properties":{"p":"0946K00191000000","a":"PARKVIEW DR","m":"McCandless","u":"L","o":"individual","sf":22960,"v":2300}},{"type":"Feature","geometry":{"type":"Point","coordinates":[-80.00956,40.58344]},"properties":{"p":"0946K00195000000","a":"PARKVIEW DR","m":"McCandless","u":"L","o":"individual","sf":22960,"v":2100}},{"type":"Feature","geometry":{"type":"Point","coordinates":[-80.00907,40.58345]},"properties":{"p":"0946K00201000000","a":"PARKVIEW DR","m":"McCandless","u":"L","o":"individual","sf":21812,"v":3300}},{"type":"Feature","geometry":{"type":"Point","coordinates":[-80.0086,40.58346]},"properties":{"p":"0946K00207000000","a":"PARKVIEW DR","m":"McCandless","u":"L","o":"corp","sf":21484,"v":46000}},{"type":"Feature","geometry":{"type":"Point","coordinates":[-80.01714,40.57611]},"properties":{"p":"0826H00100000000","a":"ALDENFORD DR","m":"McCandless","u":"L","o":"corp","sf":538,"v":100}},{"type":"Feature","geometry":{"type":"Point","coordinates":[-80.01429,40.5835]},"properties":{"p":"0946J00348000000","a":"COVINGTON PL","m":"McCandless","u":"L","o":"individual","sf":16340,"v":1600}},{"type":"Feature","geometry":{"type":"Point","coordinates":[-80.00469,40.5842]},"properties":{"p":"0946G00327000000","a":"PARKVIEW DR","m":"McCandless","u":"L","o":"corp","sf":43232,"v":69700}},{"type":"Feature","geometry":{"type":"Point","coordinates":[-80.014,40.58302]},"properties":{"p":"0946J00060000000","a":"COVINGTON PL","m":"McCandless","u":"L","o":"individual","sf":8577,"v":1300}},{"type":"Feature","geometry":{"type":"Point","coordinates":[-80.00018,40.58025]},"properties":{"p":"0946S00036000000","a":"MEADOW RD","m":"McCandless","u":"L","o":"individual","sf":6708,"v":700}},{"type":"Feature","geometry":{"type":"Point","coordinates":[-80.01854,40.58522]},"properties":{"p":"0945H00230000000","a":"GRIFFITH RD","m":"McCandless","u":"L","o":"individual","sf":15115,"v":2700}},{"type":"Feature","geometry":{"type":"Point","coordinates":[-80.01371,40.57772]},"properties":{"p":"0827A00252000000","a":"9540 KUMMER RD","m":"McCandless","u":"L","o":"corp","sf":29272,"v":207200}},{"type":"Feature","geometry":{"type":"Point","coordinates":[-80.01799,40.57298]},"properties":{"p":"0826M00150000000","a":"FOXHUNT RD","m":"McCandless","u":"L","o":"individual","sf":20097,"v":2000}},{"type":"Feature","geometry":{"type":"Point","coordinates":[-80.00267,40.57298]},"properties":{"p":"0827M00139000000","a":"PEEBLES RD","m":"McCandless","u":"L","o":"individual","sf":17550,"v":1800}},{"type":"Feature","geometry":{"type":"Point","coordinates":[-80.00739,40.57229]},"properties":{"p":"0827L00317000000","a":"KNOLL ST","m":"McCandless","u":"L","o":"individual","sf":17424,"v":45500}},{"type":"Feature","geometry":{"type":"Point","coordinates":[-80.01126,40.57774]},"properties":{"p":"0827B00085000000","a":"APPLE HILL LN","m":"McCandless","u":"L","o":"individual","sf":800,"v":100}},{"type":"Feature","geometry":{"type":"Point","coordinates":[-80.01586,40.57801]},"properties":{"p":"0827A00190000000","a":"KUMMER RD","m":"McCandless","u":"L","o":"individual","sf":14042,"v":2100}},{"type":"Feature","geometry":{"type":"Point","coordinates":[-80.00009,40.5752]},"properties":{"p":"0828E00350000000","a":"9301 PEEBLES RD","m":"McCandless","u":"B","o":"corp","sf":23709,"v":7500}},{"type":"Feature","geometry":{"type":"Point","coordinates":[-80.00166,40.588]},"properties":{"p":"0946D00159000000","a":"WEST RIDGE RD","m":"McCandless","u":"B","o":"corp","sf":2531,"v":5800}}]}