{"type":"FeatureCollection","features":[{"type":"Feature","geometry":{"type":"Point","coordinates":[-80.01999,40.66835]},"properties":{"p":"2376S00033000000","a":"WARRENDALE RD","m":"Pine","u":"C","o":"corp","sf":108878,"v":104200}},{"type":"Feature","geometry":{"type":"Point","coordinates":[-80.01126,40.65536]},"properties":{"p":"2003B00001000000","a":"BABCOCK BLVD","m":"Pine","u":"C","o":"corp","sf":4430,"v":36700}},{"type":"Feature","geometry":{"type":"Point","coordinates":[-80.00716,40.6684]},"properties":{"p":"2377R00030000000","a":"MACLEOD DR","m":"Pine","u":"L","o":"corp","sf":639025,"v":0}},{"type":"Feature","geometry":{"type":"Point","coordinates":[-80.00651,40.65933]},"properties":{"p":"2186P00015000000","a":"BABCOCK BLVD","m":"Pine","u":"L","o":"corp","sf":906658,"v":108400}},{"type":"Feature","geometry":{"type":"Point","coordinates":[-80.01053,40.6562]},"properties":{"p":"2186P00001000000","a":"BABCOCK BLVD","m":"Pine","u":"L","o":"corp","sf":481208,"v":112300}},{"type":"Feature","geometry":{"type":"Point","coordinates":[-80.00358,40.66107]},"properties":{"p":"2186M00001000000","a":"BAKERSTOWN RD","m":"Pine","u":"L","o":"individual","sf":26136,"v":3700}},{"type":"Feature","geometry":{"type":"Point","coordinates":[-80.01433,40.65434]},"properties":{"p":"2003E00008000000","a":"LOGAN RD","m":"Pine","u":"L","o":"individual","sf":21780,"v":3900}},{"type":"Feature","geometry":{"type":"Point","coordinates":[-80.01023,40.66578]},"properties":{"p":"2186B00010000000","a":"MACLEOD DR","m":"Pine","u":"L","o":"corp","sf":138521,"v":0}},{"type":"Feature","geometry":{"type":"Point","coordinates":[-80.0042,40.65246]},"properties":{"p":"2003K00025000000","a":"BABCOCK BLVD","m":"Pine","u":"L","o":"corp","sf":1382289,"v":60700}},{"type":"Feature","geometry":{"type":"Point","coordinates":[-80.01128,40.65286]},"properties":{"p":"2003K00045000000","a":"BABCOCK BLVD","m":"Pine","u":"L","o":"corp","sf":1001706,"v":95600}},{"type":"Feature","geometry":{"type":"Point","coordinates":[-80.01831,40.6657]},"properties":{"p":"2185D00008000000","a":"OAK PARK DR","m":"Pine","u":"L","o":"corp","sf":174,"v":100}},{"type":"Feature","geometry":{"type":"Point","coordinates":[-80.01309,40.66377]},"properties":{"p":"2186A00040000000","a":"OAK PARK DR","m":"Pine","u":"L","o":"corp","sf":1053281,"v":0}},{"type":"Feature","geometry":{"type":"Point","coordinates":[-80.00525,40.66383]},"properties":{"p":"2186C00002000000","a":"BAKERSTOWN RD","m":"Pine","u":"L","o":"individual","sf":223245,"v":87400}},{"type":"Feature","geometry":{"type":"Point","coordinates":[-80.00383,40.66807]},"properties":{"p":"2377R00025000000","a":"547 1/2 MACLEOD DR","m":"Pine","u":"L","o":"corp","sf":1186862,"v":0}},{"type":"Feature","geometry":{"type":"Point","coordinates":[-80.00548,40.66793]},"properties":{"p":"2377R00014000000","a":"557 MACLEOD DR","m":"Pine","u":"B","o":"corp","sf":32091,"v":17100}},{"type":"Feature","geometry":{"type":"Point","coordinates":[-80.00165,40.66578]},"properties":{"p":"2186D00030000000","a":"201 SILVER RIDGE LN","m":"Pine","u":"B","o":"individual","sf":130623,"v":45500}},{"type":"Feature","geometry":{"type":"Point","coordinates":[-80.01661,40.66684]},"properties":{"p":"2376S00018000000","a":"1 ARNOLD PALMER DR","m":"Pine","u":"B","o":"corp","sf":5344,"v":11200}},{"type":"Feature","geometry":{"type":"Point","coordinates":[-80.00011,40.66417]},"properties":{"p":"2186H00080000000","a":"107 SILVER PINES DR","m":"Pine","u":"B","o":"corp","sf":144732,"v":49700}},{"type":"Feature","geometry":{"type":"Point","coordinates":[-80.00861,40.6626]},"properties":{"p":"2186F00231000000","a":"5010 SPRUCE RD","m":"Pine","u":"B","o":"individual","sf":40913,"v":83500}},{"type":"Feature","geometry":{"type":"Point","coordinates":[-80.00933,40.66621]},"properties":{"p":"2186B00016000000","a":"310 MCCUTCHEON CT","m":"Pine","u":"B","o":"corp","sf":61864,"v":25000}}]}