{"type":"FeatureCollection","features":[{"type":"Feature","geometry":{"type":"Point","coordinates":[-80.01655,40.59168]},"properties":{"p":"1073N00396000000","a":"865 E INGOMAR RD","m":"McCandless","u":"C","o":"corp","sf":36198,"v":91000}},{"type":"Feature","geometry":{"type":"Point","coordinates":[-80.01614,40.59377]},"properties":{"p":"1073J00211000000","a":"BEAUTY DR","m":"McCandless","u":"L","o":"individual","sf":22708,"v":46100}},{"type":"Feature","geometry":{"type":"Point","coordinates":[-80.01711,40.59488]},"properties":{"p":"1072H00091000000","a":"BEAUTY DR","m":"McCandless","u":"L","o":"individual","sf":20812,"v":4000}}]}