{"type":"FeatureCollection","features":[{"type":"Feature","geometry":{"type":"Point","coordinates":[-80.01642,40.28461]},"properties":{"p":"1010D00280000000","a":"BROWNSVILLE LIBRARY RD","m":"South Park","u":"I","o":"corp","sf":377726,"v":140000}},{"type":"Feature","geometry":{"type":"Point","coordinates":[-80.01594,40.28538]},"properties":{"p":"0887K00400000001","a":"R OF W","m":"South Park","u":"C","o":"corp","sf":26572,"v":1200}},{"type":"Feature","geometry":{"type":"Point","coordinates":[-80.01083,40.28484]},"properties":{"p":"1009F00080000000","a":"MOUNTAIN RD","m":"South Park","u":"C","o":"corp","sf":5765,"v":1500}},{"type":"Feature","geometry":{"type":"Point","coordinates":[-80.00966,40.28132]},"properties":{"p":"1009E00170000000","a":"CARDOX RD","m":"South Park","u":"C","o":"corp","sf":1692001,"v":87000}},{"type":"Feature","geometry":{"type":"Point","coordinates":[-80.01587,40.28279]},"properties":{"p":"1009E00315000000","a":"CARDOX RD","m":"South Park","u":"C","o":"corp","sf":110642,"v":2500}},{"type":"Feature","geometry":{"type":"Point","coordinates":[-80.01606,40.28352]},"properties":{"p":"1009E00316000000","a":"CARDOX RD","m":"South Park","u":"C","o":"corp","sf":51836,"v":38900}},{"type":"Feature","geometry":{"type":"Point","coordinates":[-80.01475,40.2853]},"properties":{"p":"1009A00102000000","a":"KATHY ST","m":"South Park","u":"C","o":"individual","sf":1656,"v":300}},{"type":"Feature","geometry":{"type":"Point","coordinates":[-80.01336,40.28611]},"properties":{"p":"1009A00174000000","a":"VICTORY DR","m":"South Park","u":"C","o":"individual","sf":14503,"v":2200}},{"type":"Feature","geometry":{"type":"Point","coordinates":[-80.00981,40.28354]},"properties":{"p":"1009F00138000000","a":"TERRACE AVE","m":"South Park","u":"C","o":"corp","sf":15856,"v":2400}},{"type":"Feature","geometry":{"type":"Point","coordinates":[-80.01025,40.28544]},"properties":{"p":"1009B00174000000","a":"OVERHILL ST","m":"South Park","u":"L","o":"individual","sf":7200,"v":16100}},{"type":"Feature","geometry":{"type":"Point","coordinates":[-80.01106,40.28618]},"properties":{"p":"1009B00190000000","a":"OVERHILL ST","m":"South Park","u":"L","o":"corp","sf":7800,"v":6500}},{"type":"Feature","geometry":{"type":"Point","coordinates":[-80.01122,40.28631]},"properties":{"p":"1009B00193000000","a":"OVERHILL ST","m":"South Park","u":"L","o":"individual","sf":7800,"v":16600}},{"type":"Feature","geometry":{"type":"Point","coordinates":[-80.01021,40.28671]},"properties":{"p":"1009B00215000000","a":"GRANT ST","m":"South Park","u":"L","o":"individual","sf":55452,"v":24000}},{"type":"Feature","geometry":{"type":"Point","coordinates":[-80.00968,40.28495]},"properties":{"p":"1009B00162000000","a":"OVERHILL ST","m":"South Park","u":"L","o":"individual","sf":7200,"v":16100}},{"type":"Feature","geometry":{"type":"Point","coordinates":[-80.01249,40.28294]},"properties":{"p":"1009F00340000000","a":"SEBOLT RD","m":"South Park","u":"L","o":"corp","sf":107027,"v":28700}},{"type":"Feature","geometry":{"type":"Point","coordinates":[-80.0086,40.28247]},"properties":{"p":"1009G00002000000","a":"SEBOLT RD","m":"South Park","u":"L","o":"individual","sf":2693,"v":200}},{"type":"Feature","geometry":{"type":"Point","coordinates":[-80.00845,40.28242]},"properties":{"p":"1009G00004000000","a":"SEBOLT RD","m":"South Park","u":"L","o":"individual","sf":21699,"v":20900}},{"type":"Feature","geometry":{"type":"Point","coordinates":[-80.00891,40.28487]},"properties":{"p":"1009B00255000000","a":"HIGHLAND AVE","m":"South Park","u":"L","o":"individual","sf":3600,"v":300}},{"type":"Feature","geometry":{"type":"Point","coordinates":[-80.00844,40.28503]},"properties":{"p":"1009B00263000000","a":"HIGHLAND AVE","m":"South Park","u":"L","o":"individual","sf":10184,"v":18500}},{"type":"Feature","geometry":{"type":"Point","coordinates":[-80.00881,40.28544]},"properties":{"p":"1009B00271000000","a":"HIGHLAND AVE","m":"South Park","u":"L","o":"corp","sf":14400,"v":20300}},{"type":"Feature","geometry":{"type":"Point","coordinates":[-80.00884,40.28481]},"properties":{"p":"1009B00225000002","a":"HIGHLAND AVE","m":"South Park","u":"L","o":"individual","sf":3600,"v":300}},{"type":"Feature","geometry":{"type":"Point","coordinates":[-80.00947,40.28537]},"properties":{"p":"1009B00240000000","a":"HIGHLAND AVE","m":"South Park","u":"L","o":"individual","sf":3600,"v":300}},{"type":"Feature","geometry":{"type":"Point","coordinates":[-80.0094,40.2853]},"properties":{"p":"1009B00242000000","a":"HIGHLAND AVE","m":"South Park","u":"L","o":"individual","sf":3600,"v":300}},{"type":"Feature","geometry":{"type":"Point","coordinates":[-80.00298,40.28156]},"properties":{"p":"1009M00200000000","a":"SEBOLT RD","m":"South Park","u":"L","o":"individual","sf":34593,"v":22100}},{"type":"Feature","geometry":{"type":"Point","coordinates":[-80.00339,40.28181]},"properties":{"p":"1009M00210000000","a":"SEBOLT RD","m":"South Park","u":"L","o":"individual","sf":210743,"v":38300}},{"type":"Feature","geometry":{"type":"Point","coordinates":[-80.00386,40.2818]},"properties":{"p":"1009M00215000000","a":"SEBOLT RD","m":"South Park","u":"L","o":"individual","sf":26457,"v":21300}},{"type":"Feature","geometry":{"type":"Point","coordinates":[-80.00955,40.28608]},"properties":{"p":"1009B00284000000","a":"2903 HIGHLAND AVE","m":"South Park","u":"L","o":"individual","sf":3578,"v":13100}},{"type":"Feature","geometry":{"type":"Point","coordinates":[-80.00974,40.28622]},"properties":{"p":"1009B00287000000","a":"HIGHLAND AVE","m":"South Park","u":"L","o":"individual","sf":6685,"v":600}},{"type":"Feature","geometry":{"type":"Point","coordinates":[-80.00944,40.28639]},"properties":{"p":"1009B00295000000","a":"GRANT ST","m":"South Park","u":"L","o":"individual","sf":8730,"v":17300}},{"type":"Feature","geometry":{"type":"Point","coordinates":[-80.00929,40.28627]},"properties":{"p":"1009B00297000000","a":"HILLTOP ALY","m":"South Park","u":"L","o":"individual","sf":5760,"v":500}},{"type":"Feature","geometry":{"type":"Point","coordinates":[-80.00883,40.28619]},"properties":{"p":"1009B00302000000","a":"HILLTOP ALY","m":"South Park","u":"L","o":"individual","sf":12158,"v":18100}},{"type":"Feature","geometry":{"type":"Point","coordinates":[-80.0086,40.28602]},"properties":{"p":"1009B00305000000","a":"HILLTOP ALY","m":"South Park","u":"L","o":"individual","sf":24275,"v":21100}},{"type":"Feature","geometry":{"type":"Point","coordinates":[-80.00658,40.2846]},"properties":{"p":"1009C00035000000","a":"HIGHLAND AVE","m":"South Park","u":"L","o":"individual","sf":283140,"v":19500}},{"type":"Feature","geometry":{"type":"Point","coordinates":[-80.00883,40.28311]},"properties":{"p":"1009F00275000000","a":"SEBOLT RD","m":"South Park","u":"L","o":"corp","sf":1464,"v":100}},{"type":"Feature","geometry":{"type":"Point","coordinates":[-80.0089,40.28253]},"properties":{"p":"1009F00283000000","a":"SEBOLT RD","m":"South Park","u":"L","o":"individual","sf":15605,"v":20400}},{"type":"Feature","geometry":{"type":"Point","coordinates":[-80.001,40.27988]},"properties":{"p":"1009S00154000000","a":"BROWNSVILLE RD","m":"South Park","u":"L","o":"individual","sf":42704,"v":22800}},{"type":"Feature","geometry":{"type":"Point","coordinates":[-80.00705,40.28295]},"properties":{"p":"1009G00100000000","a":"SEBOLT RD","m":"South Park","u":"L","o":"individual","sf":11374,"v":19500}},{"type":"Feature","geometry":{"type":"Point","coordinates":[-80.01298,40.28449]},"properties":{"p":"1009E00038000000","a":"SEBOLT RD","m":"South Park","u":"L","o":"individual","sf":33686,"v":22000}},{"type":"Feature","geometry":{"type":"Point","coordinates":[-80.01282,40.28421]},"properties":{"p":"1009E00046000000","a":"SEBOLT RD","m":"South Park","u":"L","o":"individual","sf":23455,"v":21100}},{"type":"Feature","geometry":{"type":"Point","coordinates":[-80.00589,40.28187]},"properties":{"p":"1009L00039000000","a":"SEBOLT RD","m":"South Park","u":"L","o":"individual","sf":3248,"v":300}},{"type":"Feature","geometry":{"type":"Point","coordinates":[-80.01447,40.28395]},"properties":{"p":"1009E00197000000","a":"CARDOX RD","m":"South Park","u":"L","o":"individual","sf":43560,"v":4000}},{"type":"Feature","geometry":{"type":"Point","coordinates":[-80.01495,40.28368]},"properties":{"p":"1009E00280000000","a":"CARDOX RD","m":"South Park","u":"L","o":"individual","sf":45738,"v":23100}},{"type":"Feature","geometry":{"type":"Point","coordinates":[-80.01513,40.28389]},"properties":{"p":"1009E00280000100","a":"5002 CARDOX RD","m":"South Park","u":"L","o":"individual","sf":9015,"v":800}},{"type":"Feature","geometry":{"type":"Point","coordinates":[-80.01458,40.2852]},"properties":{"p":"1009A00090000000","a":"KATHY ST","m":"South Park","u":"L","o":"individual","sf":5603,"v":14700}},{"type":"Feature","geometry":{"type":"Point","coordinates":[-80.015,40.28576]},"properties":{"p":"1009A00140000000","a":"BROWNSVILLE RD","m":"South Park","u":"L","o":"corp","sf":10099,"v":18500}},{"type":"Feature","geometry":{"type":"Point","coordinates":[-80.01471,40.28572]},"properties":{"p":"1009A00143000000","a":"BROWNSVILLE RD","m":"South Park","u":"L","o":"corp","sf":9046,"v":17600}},{"type":"Feature","geometry":{"type":"Point","coordinates":[-80.01915,40.28969]},"properties":{"p":"0887S00200000000","a":"4132 WOODLAND AVE","m":"South Park","u":"L","o":"corp","sf":20173,"v":0}},{"type":"Feature","geometry":{"type":"Point","coordinates":[-80.01031,40.28429]},"properties":{"p":"1009F00175000000","a":"TERRACE AVE","m":"South Park","u":"L","o":"corp","sf":6600,"v":600}},{"type":"Feature","geometry":{"type":"Point","coordinates":[-80.01045,40.28441]},"properties":{"p":"1009F00177000000","a":"TERRACE AVE","m":"South Park","u":"L","o":"corp","sf":6600,"v":600}},{"type":"Feature","geometry":{"type":"Point","coordinates":[-80.00966,40.28429]},"properties":{"p":"1009F00194000000","a":"OVERHILL ST","m":"South Park","u":"L","o":"individual","sf":7200,"v":700}},{"type":"Feature","geometry":{"type":"Point","coordinates":[-80.00144,40.27955]},"properties":{"p":"1009S00151000000","a":"BROWNSVILLE RD","m":"South Park","u":"L","o":"individual","sf":12128,"v":15000}},{"type":"Feature","geometry":{"type":"Point","coordinates":[-80.00118,40.27982]},"properties":{"p":"1009S00153000000","a":"BROWNSVILLE RD","m":"South Park","u":"L","o":"individual","sf":12117,"v":15000}},{"type":"Feature","geometry":{"type":"Point","coordinates":[-80.01812,40.28356]},"properties":{"p":"1010H00400000000","a":"STANLEY ST","m":"South Park","u":"L","o":"corp","sf":149077,"v":5500}},{"type":"Feature","geometry":{"type":"Point","coordinates":[-80.0147,40.28481]},"properties":{"p":"1009E00114000000","a":"KATHY ST","m":"South Park","u":"L","o":"individual","sf":5762,"v":4800}},{"type":"Feature","geometry":{"type":"Point","coordinates":[-80.01423,40.28387]},"properties":{"p":"1009E00130000000","a":"R OF W","m":"South Park","u":"L","o":"individual","sf":24830,"v":2200}},{"type":"Feature","geometry":{"type":"Point","coordinates":[-80.01392,40.28398]},"properties":{"p":"1009E00131000000","a":"KATHY ST","m":"South Park","u":"L","o":"individual","sf":12944,"v":20100}},{"type":"Feature","geometry":{"type":"Point","coordinates":[-80.01327,40.28579]},"properties":{"p":"1009A00048000000","a":"VICTORY DR","m":"South Park","u":"L","o":"individual","sf":11277,"v":19400}},{"type":"Feature","geometry":{"type":"Point","coordinates":[-80.01025,40.28367]},"properties":{"p":"1009F00134000000","a":"TERRACE AVE","m":"South Park","u":"L","o":"individual","sf":9270,"v":17800}},{"type":"Feature","geometry":{"type":"Point","coordinates":[-80.01001,40.28362]},"properties":{"p":"1009F00136000000","a":"TERRACE AVE","m":"South Park","u":"L","o":"corp","sf":23805,"v":11000}},{"type":"Feature","geometry":{"type":"Point","coordinates":[-80.00805,40.28546]},"properties":{"p":"1009C00050000000","a":"HILLTOP ALY","m":"South Park","u":"L","o":"individual","sf":5807,"v":500}},{"type":"Feature","geometry":{"type":"Point","coordinates":[-80.00795,40.28303]},"properties":{"p":"1009G00111000000","a":"SEBOLT RD","m":"South Park","u":"L","o":"individual","sf":7700,"v":700}},{"type":"Feature","geometry":{"type":"Point","coordinates":[-80.00852,40.28321]},"properties":{"p":"1009G00122000000","a":"SEBOLT RD","m":"South Park","u":"L","o":"corp","sf":5457,"v":500}},{"type":"Feature","geometry":{"type":"Point","coordinates":[-80.01957,40.28926]},"properties":{"p":"0887S00020000000","a":"4131 WOODLAND AVE","m":"South Park","u":"L","o":"individual","sf":600,"v":100}},{"type":"Feature","geometry":{"type":"Point","coordinates":[-80.01957,40.28883]},"properties":{"p":"0887S00028000000","a":"TERRACE AVE","m":"South Park","u":"L","o":"individual","sf":5289,"v":500}},{"type":"Feature","geometry":{"type":"Point","coordinates":[-80.01331,40.28378]},"properties":{"p":"1009E00081000000","a":"SEBOLT RD","m":"South Park","u":"L","o":"individual","sf":4108,"v":400}},{"type":"Feature","geometry":{"type":"Point","coordinates":[-80.00544,40.27981]},"properties":{"p":"1009L00215000000","a":"RIDGE RD","m":"South Park","u":"L","o":"corp","sf":80238,"v":2200}},{"type":"Feature","geometry":{"type":"Point","coordinates":[-80.01391,40.28768]},"properties":{"p":"0886N00300000000","a":"SUMMIT DR","m":"South Park","u":"L","o":"corp","sf":506202,"v":413000}},{"type":"Feature","geometry":{"type":"Point","coordinates":[-80.01151,40.289]},"properties":{"p":"0886P00116000000","a":"1ST ALY","m":"South Park","u":"L","o":"individual","sf":1800,"v":200}},{"type":"Feature","geometry":{"type":"Point","coordinates":[-80.01143,40.28868]},"properties":{"p":"0886P00120000000","a":"WOOD ST","m":"South Park","u":"L","o":"individual","sf":9524,"v":18000}},{"type":"Feature","geometry":{"type":"Point","coordinates":[-80.01234,40.28989]},"properties":{"p":"0886K00047000000","a":"EDGEWOOD ST","m":"South Park","u":"L","o":"individual","sf":6685,"v":600}},{"type":"Feature","geometry":{"type":"Point","coordinates":[-80.00905,40.28717]},"properties":{"p":"0886P00240000000","a":"BROWNSVILLE RD","m":"South Park","u":"L","o":"individual","sf":216663,"v":38800}},{"type":"Feature","geometry":{"type":"Point","coordinates":[-80.01447,40.2892]},"properties":{"p":"0886N00200000000","a":"SUMMIT DR","m":"South Park","u":"L","o":"corp","sf":211536,"v":0}},{"type":"Feature","geometry":{"type":"Point","coordinates":[-80.01111,40.28702]},"properties":{"p":"1009B00065000000","a":"VICTORY DR","m":"South Park","u":"L","o":"individual","sf":88335,"v":27000}},{"type":"Feature","geometry":{"type":"Point","coordinates":[-80.00827,40.28565]},"properties":{"p":"1009B00310000000","a":"HILLTOP ALY","m":"South Park","u":"L","o":"individual","sf":35694,"v":3200}},{"type":"Feature","geometry":{"type":"Point","coordinates":[-80.0107,40.28428]},"properties":{"p":"1009F00125000000","a":"TERRACE AVE","m":"South Park","u":"L","o":"individual","sf":25360,"v":21200}},{"type":"Feature","geometry":{"type":"Point","coordinates":[-80.01325,40.28478]},"properties":{"p":"1009E00030000000","a":"SEBOLT RD","m":"South Park","u":"L","o":"individual","sf":28907,"v":21600}},{"type":"Feature","geometry":{"type":"Point","coordinates":[-80.01272,40.28395]},"properties":{"p":"1009E00050000000","a":"SEBOLT RD","m":"South Park","u":"L","o":"individual","sf":18974,"v":20700}},{"type":"Feature","geometry":{"type":"Point","coordinates":[-80.01177,40.28533]},"properties":{"p":"1009B00126000000","a":"GRANT ST","m":"South Park","u":"L","o":"individual","sf":14400,"v":20300}},{"type":"Feature","geometry":{"type":"Point","coordinates":[-80.00868,40.2846]},"properties":{"p":"1009B00258000000","a":"HIGHLAND AVE","m":"South Park","u":"L","o":"individual","sf":12954,"v":20100}},{"type":"Feature","geometry":{"type":"Point","coordinates":[-80.01554,40.28799]},"properties":{"p":"0886N00210000000","a":"PENBROOK DR","m":"South Park","u":"L","o":"corp","sf":8775,"v":0}},{"type":"Feature","geometry":{"type":"Point","coordinates":[-80.0141,40.28886]},"properties":{"p":"0886N00013000000","a":"CROWN DR","m":"South Park","u":"B","o":"corp","sf":3494,"v":2000}},{"type":"Feature","geometry":{"type":"Point","coordinates":[-80.01798,40.28951]},"properties":{"p":"0887S00104000000","a":"1002 PEAK DR","m":"South Park","u":"B","o":"corp","sf":15377,"v":8700}},{"type":"Feature","geometry":{"type":"Point","coordinates":[-80.0189,40.28912]},"properties":{"p":"0887S00088000000","a":"5034 SUMMIT DR","m":"South Park","u":"B","o":"corp","sf":26577,"v":15100}},{"type":"Feature","geometry":{"type":"Point","coordinates":[-80.01704,40.2891]},"properties":{"p":"0887S00101000000","a":"PEAK DR","m":"South Park","u":"B","o":"corp","sf":10759,"v":6100}}]}