{"type":"FeatureCollection","features":[{"type":"Feature","geometry":{"type":"Point","coordinates":[-80.01888,40.30099]},"properties":{"p":"0772M00500000000","a":"ROSE AVE","m":"South Park","u":"C","o":"corp","sf":170,"v":100}},{"type":"Feature","geometry":{"type":"Point","coordinates":[-80.01973,40.295]},"properties":{"p":"0887D00030000000","a":"WILSON AVE","m":"South Park","u":"L","o":"corp","sf":15000,"v":20300}},{"type":"Feature","geometry":{"type":"Point","coordinates":[-80.01936,40.29481]},"properties":{"p":"0887D00036000000","a":"WILSON AVE","m":"South Park","u":"L","o":"corp","sf":10000,"v":18400}},{"type":"Feature","geometry":{"type":"Point","coordinates":[-80.01909,40.29468]},"properties":{"p":"0887D00040000000","a":"WILSON AVE","m":"South Park","u":"L","o":"corp","sf":7500,"v":700}},{"type":"Feature","geometry":{"type":"Point","coordinates":[-80.01804,40.29445]},"properties":{"p":"0887D00046000000","a":"HARDING AVE","m":"South Park","u":"L","o":"corp","sf":2500,"v":200}},{"type":"Feature","geometry":{"type":"Point","coordinates":[-80.0181,40.29457]},"properties":{"p":"0887D00048000000","a":"HARDING AVE","m":"South Park","u":"L","o":"corp","sf":5000,"v":500}},{"type":"Feature","geometry":{"type":"Point","coordinates":[-80.01834,40.29467]},"properties":{"p":"0887D00051000000","a":"HARDING AVE","m":"South Park","u":"L","o":"corp","sf":5000,"v":500}},{"type":"Feature","geometry":{"type":"Point","coordinates":[-80.01887,40.29494]},"properties":{"p":"0887D00062000000","a":"HARDING AVE","m":"South Park","u":"L","o":"corp","sf":22500,"v":21000}},{"type":"Feature","geometry":{"type":"Point","coordinates":[-80.01955,40.29527]},"properties":{"p":"0887D00071000000","a":"HARDING AVE","m":"South Park","u":"L","o":"corp","sf":22500,"v":21000}},{"type":"Feature","geometry":{"type":"Point","coordinates":[-80.01615,40.29192]},"properties":{"p":"0886J00029000000","a":"ORCHARD ST","m":"South Park","u":"L","o":"corp","sf":4291,"v":400}},{"type":"Feature","geometry":{"type":"Point","coordinates":[-80.01567,40.29205]},"properties":{"p":"0886J00036000000","a":"APEX LN","m":"South Park","u":"L","o":"corp","sf":2475,"v":200}},{"type":"Feature","geometry":{"type":"Point","coordinates":[-80.01572,40.29199]},"properties":{"p":"0886J00037000000","a":"APEX LN","m":"South Park","u":"L","o":"corp","sf":2475,"v":200}},{"type":"Feature","geometry":{"type":"Point","coordinates":[-80.01576,40.29193]},"properties":{"p":"0886J00038000000","a":"APEX LN","m":"South Park","u":"L","o":"corp","sf":2475,"v":200}},{"type":"Feature","geometry":{"type":"Point","coordinates":[-80.01585,40.29177]},"properties":{"p":"0886J00040000000","a":"APEX LN","m":"South Park","u":"L","o":"corp","sf":4327,"v":400}},{"type":"Feature","geometry":{"type":"Point","coordinates":[-80.01591,40.29169]},"properties":{"p":"0886J00043000000","a":"APEX LN","m":"South Park","u":"L","o":"corp","sf":2475,"v":200}},{"type":"Feature","geometry":{"type":"Point","coordinates":[-80.01781,40.29119]},"properties":{"p":"0887M00300000000","a":"WASHINGTON AVE","m":"South Park","u":"L","o":"corp","sf":50922,"v":23600}},{"type":"Feature","geometry":{"type":"Point","coordinates":[-80.01997,40.29333]},"properties":{"p":"0887H00072000000","a":"LINCOLN AVE","m":"South Park","u":"L","o":"corp","sf":11000,"v":19200}},{"type":"Feature","geometry":{"type":"Point","coordinates":[-80.01595,40.29163]},"properties":{"p":"0886J00044000000","a":"APEX LN","m":"South Park","u":"L","o":"corp","sf":2475,"v":200}},{"type":"Feature","geometry":{"type":"Point","coordinates":[-80.01601,40.29154]},"properties":{"p":"0886J00046000000","a":"APEX LN","m":"South Park","u":"L","o":"corp","sf":4950,"v":500}},{"type":"Feature","geometry":{"type":"Point","coordinates":[-80.01607,40.29145]},"properties":{"p":"0886J00047000000","a":"APEX LN","m":"South Park","u":"L","o":"corp","sf":2475,"v":200}},{"type":"Feature","geometry":{"type":"Point","coordinates":[-80.01612,40.29139]},"properties":{"p":"0886J00048000000","a":"APEX LN","m":"South Park","u":"L","o":"corp","sf":2475,"v":200}},{"type":"Feature","geometry":{"type":"Point","coordinates":[-80.01912,40.29552]},"properties":{"p":"0887D00104000000","a":"HARDING AVE","m":"South Park","u":"L","o":"corp","sf":25000,"v":21200}},{"type":"Feature","geometry":{"type":"Point","coordinates":[-80.00621,40.29263]},"properties":{"p":"0886G00150000000","a":"2669 OAKHILL DR","m":"South Park","u":"L","o":"individual","sf":51880,"v":23700}},{"type":"Feature","geometry":{"type":"Point","coordinates":[-80.01654,40.29135]},"properties":{"p":"0886J00020000000","a":"ORCHARD ST","m":"South Park","u":"L","o":"corp","sf":2475,"v":200}},{"type":"Feature","geometry":{"type":"Point","coordinates":[-80.01646,40.29148]},"properties":{"p":"0886J00021000000","a":"ORCHARD ST","m":"South Park","u":"L","o":"corp","sf":7425,"v":700}},{"type":"Feature","geometry":{"type":"Point","coordinates":[-80.01637,40.2916]},"properties":{"p":"0886J00024000000","a":"ORCHARD ST","m":"South Park","u":"L","o":"corp","sf":2475,"v":200}},{"type":"Feature","geometry":{"type":"Point","coordinates":[-80.01633,40.29166]},"properties":{"p":"0886J00025000000","a":"ORCHARD ST","m":"South Park","u":"L","o":"corp","sf":2475,"v":200}},{"type":"Feature","geometry":{"type":"Point","coordinates":[-80.01625,40.29178]},"properties":{"p":"0886J00027000000","a":"ORCHARD ST","m":"South Park","u":"L","o":"corp","sf":2475,"v":200}},{"type":"Feature","geometry":{"type":"Point","coordinates":[-80.01848,40.29108]},"properties":{"p":"0887M00159000000","a":"ZENITH LN","m":"South Park","u":"L","o":"corp","sf":58972,"v":0}},{"type":"Feature","geometry":{"type":"Point","coordinates":[-80.01905,40.29549]},"properties":{"p":"0887D00105000000","a":"HARDING AVE","m":"South Park","u":"L","o":"corp","sf":2500,"v":200}},{"type":"Feature","geometry":{"type":"Point","coordinates":[-80.01863,40.29528]},"properties":{"p":"0887D00106000000","a":"HARDING AVE","m":"South Park","u":"L","o":"corp","sf":2500,"v":200}},{"type":"Feature","geometry":{"type":"Point","coordinates":[-80.01784,40.2952]},"properties":{"p":"0887D00119000000","a":"HARDING AVE","m":"South Park","u":"L","o":"corp","sf":26314,"v":21300}},{"type":"Feature","geometry":{"type":"Point","coordinates":[-80.01737,40.29461]},"properties":{"p":"0887D00125000000","a":"HARDING AVE","m":"South Park","u":"L","o":"corp","sf":21908,"v":20900}},{"type":"Feature","geometry":{"type":"Point","coordinates":[-80.01845,40.29556]},"properties":{"p":"0887D00156000000","a":"MAIN BLVD","m":"South Park","u":"L","o":"corp","sf":17500,"v":20500}},{"type":"Feature","geometry":{"type":"Point","coordinates":[-80.01898,40.29582]},"properties":{"p":"0887D00163000000","a":"MAIN BLVD","m":"South Park","u":"L","o":"corp","sf":17500,"v":20500}},{"type":"Feature","geometry":{"type":"Point","coordinates":[-80.01931,40.29599]},"properties":{"p":"0887D00165000000","a":"MAIN BLVD","m":"South Park","u":"L","o":"corp","sf":5000,"v":500}},{"type":"Feature","geometry":{"type":"Point","coordinates":[-80.01947,40.29606]},"properties":{"p":"0887D00167000000","a":"MAIN BLVD","m":"South Park","u":"L","o":"corp","sf":5000,"v":500}},{"type":"Feature","geometry":{"type":"Point","coordinates":[-80.01589,40.29232]},"properties":{"p":"0886E00128000000","a":"ORCHARD ST","m":"South Park","u":"L","o":"corp","sf":2475,"v":200}},{"type":"Feature","geometry":{"type":"Point","coordinates":[-80.01822,40.29461]},"properties":{"p":"0887D00079000002","a":"HARDING AVE","m":"South Park","u":"L","o":"corp","sf":2500,"v":200}},{"type":"Feature","geometry":{"type":"Point","coordinates":[-80.01984,40.29588]},"properties":{"p":"0887D00094000000","a":"HARDING AVE","m":"South Park","u":"L","o":"corp","sf":5000,"v":500}},{"type":"Feature","geometry":{"type":"Point","coordinates":[-80.01969,40.29581]},"properties":{"p":"0887D00096000000","a":"HARDING AVE","m":"South Park","u":"L","o":"corp","sf":5000,"v":500}},{"type":"Feature","geometry":{"type":"Point","coordinates":[-80.01957,40.29575]},"properties":{"p":"0887D00098000000","a":"HARDING AVE","m":"South Park","u":"L","o":"corp","sf":2500,"v":200}},{"type":"Feature","geometry":{"type":"Point","coordinates":[-80.01594,40.29226]},"properties":{"p":"0886E00129000000","a":"ORCHARD ST","m":"South Park","u":"L","o":"corp","sf":2475,"v":200}},{"type":"Feature","geometry":{"type":"Point","coordinates":[-80.01598,40.2922]},"properties":{"p":"0886E00130000000","a":"ORCHARD ST","m":"South Park","u":"L","o":"corp","sf":2475,"v":200}},{"type":"Feature","geometry":{"type":"Point","coordinates":[-80.01602,40.29214]},"properties":{"p":"0886E00131000000","a":"ORCHARD ST","m":"South Park","u":"L","o":"corp","sf":2475,"v":200}},{"type":"Feature","geometry":{"type":"Point","coordinates":[-80.01603,40.29206]},"properties":{"p":"0886E00132000000","a":"ORCHARD ST","m":"South Park","u":"L","o":"corp","sf":2475,"v":200}},{"type":"Feature","geometry":{"type":"Point","coordinates":[-80.01646,40.29336]},"properties":{"p":"0886E00375000000","a":"WILSON AVE","m":"South Park","u":"L","o":"corp","sf":52185,"v":23700}},{"type":"Feature","geometry":{"type":"Point","coordinates":[-80.01234,40.29231]},"properties":{"p":"0886F00005000000","a":"GROVE RD","m":"South Park","u":"L","o":"individual","sf":5333,"v":14500}},{"type":"Feature","geometry":{"type":"Point","coordinates":[-80.01942,40.29568]},"properties":{"p":"0887D00100000000","a":"HARDING AVE","m":"South Park","u":"L","o":"corp","sf":2500,"v":200}},{"type":"Feature","geometry":{"type":"Point","coordinates":[-80.01935,40.29564]},"properties":{"p":"0887D00101000000","a":"HARDING AVE","m":"South Park","u":"L","o":"corp","sf":2500,"v":200}},{"type":"Feature","geometry":{"type":"Point","coordinates":[-80.01927,40.2956]},"properties":{"p":"0887D00102000000","a":"HARDING AVE","m":"South Park","u":"L","o":"corp","sf":2500,"v":200}},{"type":"Feature","geometry":{"type":"Point","coordinates":[-80.0192,40.29556]},"properties":{"p":"0887D00103000000","a":"HARDING AVE","m":"South Park","u":"L","o":"corp","sf":2500,"v":200}},{"type":"Feature","geometry":{"type":"Point","coordinates":[-80.01766,40.30748]},"properties":{"p":"0665S00030000000","a":"PALOMINO DR","m":"South Park","u":"L","o":"individual","sf":115822,"v":55700}},{"type":"Feature","geometry":{"type":"Point","coordinates":[-80.01138,40.29082]},"properties":{"p":"0887K00078000000","a":"GROVE RD","m":"South Park","u":"L","o":"individual","sf":20203,"v":20800}},{"type":"Feature","geometry":{"type":"Point","coordinates":[-80.01996,40.29373]},"properties":{"p":"0887H00155000000","a":"ROOSEVELT AVE","m":"South Park","u":"L","o":"corp","sf":27500,"v":21400}},{"type":"Feature","geometry":{"type":"Point","coordinates":[-80.01811,40.2919]},"properties":{"p":"0887M00052000000","a":"LINCOLN AVE","m":"South Park","u":"L","o":"corp","sf":9000,"v":17600}},{"type":"Feature","geometry":{"type":"Point","coordinates":[-80.01833,40.29292]},"properties":{"p":"0887H00130000000","a":"ROOSEVELT AVE","m":"South Park","u":"L","o":"corp","sf":10000,"v":18400}},{"type":"Feature","geometry":{"type":"Point","coordinates":[-80.0171,40.29231]},"properties":{"p":"0887H00275000000","a":"WILSON AVE","m":"South Park","u":"L","o":"corp","sf":81239,"v":26400}},{"type":"Feature","geometry":{"type":"Point","coordinates":[-80.01717,40.29372]},"properties":{"p":"0887H00289000000","a":"WILSON AVE","m":"South Park","u":"L","o":"corp","sf":12500,"v":20100}},{"type":"Feature","geometry":{"type":"Point","coordinates":[-80.01844,40.2935]},"properties":{"p":"0887H00300000000","a":"WILSON AVE","m":"South Park","u":"L","o":"corp","sf":115521,"v":29500}},{"type":"Feature","geometry":{"type":"Point","coordinates":[-80.01927,40.29655]},"properties":{"p":"0887D00200000000","a":"MAIN BLVD","m":"South Park","u":"L","o":"corp","sf":8483,"v":17100}},{"type":"Feature","geometry":{"type":"Point","coordinates":[-80.01914,40.29645]},"properties":{"p":"0887D00202000000","a":"MAIN BLVD","m":"South Park","u":"L","o":"corp","sf":7431,"v":700}},{"type":"Feature","geometry":{"type":"Point","coordinates":[-80.01942,40.29685]},"properties":{"p":"0887D00225000000","a":"GRANT ST","m":"South Park","u":"L","o":"corp","sf":4612,"v":400}},{"type":"Feature","geometry":{"type":"Point","coordinates":[-80.01834,40.29253]},"properties":{"p":"0887H00093000000","a":"LINCOLN AVE","m":"South Park","u":"L","o":"corp","sf":16500,"v":20500}},{"type":"Feature","geometry":{"type":"Point","coordinates":[-80.01979,40.29417]},"properties":{"p":"0887H00174000000","a":"ROOSEVELT AVE","m":"South Park","u":"L","o":"corp","sf":10500,"v":18800}},{"type":"Feature","geometry":{"type":"Point","coordinates":[-80.01937,40.29397]},"properties":{"p":"0887H00179000000","a":"ROOSEVELT AVE","m":"South Park","u":"L","o":"corp","sf":7875,"v":16600}},{"type":"Feature","geometry":{"type":"Point","coordinates":[-80.01489,40.29169]},"properties":{"p":"0886J00120000000","a":"APEX LN","m":"South Park","u":"L","o":"individual","sf":37830,"v":22400}},{"type":"Feature","geometry":{"type":"Point","coordinates":[-80.01457,40.2915]},"properties":{"p":"0886J00130000000","a":"APEX LN","m":"South Park","u":"L","o":"individual","sf":57369,"v":24200}},{"type":"Feature","geometry":{"type":"Point","coordinates":[-80.01416,40.29135]},"properties":{"p":"0886J00140000000","a":"GROVE RD","m":"South Park","u":"L","o":"individual","sf":33777,"v":22000}},{"type":"Feature","geometry":{"type":"Point","coordinates":[-80.01318,40.29151]},"properties":{"p":"0886J00155000000","a":"4TH ALY","m":"South Park","u":"L","o":"individual","sf":15690,"v":20400}},{"type":"Feature","geometry":{"type":"Point","coordinates":[-80.01342,40.29156]},"properties":{"p":"0886J00168000000","a":"GROVE RD","m":"South Park","u":"L","o":"individual","sf":13335,"v":20200}},{"type":"Feature","geometry":{"type":"Point","coordinates":[-80.01648,40.30346]},"properties":{"p":"0772H00010000000","a":"WESTCHESTER RD","m":"South Park","u":"L","o":"individual","sf":5168,"v":500}},{"type":"Feature","geometry":{"type":"Point","coordinates":[-80.01982,40.30038]},"properties":{"p":"0772M00072000000","a":"AMELIA AVE","m":"South Park","u":"L","o":"individual","sf":5000,"v":500}},{"type":"Feature","geometry":{"type":"Point","coordinates":[-80.01082,40.29014]},"properties":{"p":"0886K00029000000","a":"DOWNING ST","m":"South Park","u":"L","o":"individual","sf":7200,"v":700}},{"type":"Feature","geometry":{"type":"Point","coordinates":[-80.01246,40.2924]},"properties":{"p":"0886E00015000000","a":"GROVE RD","m":"South Park","u":"L","o":"corp","sf":5335,"v":2500}},{"type":"Feature","geometry":{"type":"Point","coordinates":[-80.01985,40.29709]},"properties":{"p":"0772S00012000000","a":"GRANT ST","m":"South Park","u":"L","o":"corp","sf":5000,"v":500}},{"type":"Feature","geometry":{"type":"Point","coordinates":[-80.0197,40.29701]},"properties":{"p":"0772S00014000000","a":"GRANT ST","m":"South Park","u":"L","o":"corp","sf":5000,"v":500}},{"type":"Feature","geometry":{"type":"Point","coordinates":[-80.01955,40.29694]},"properties":{"p":"0772S00016000000","a":"GRANT ST","m":"South Park","u":"L","o":"corp","sf":5000,"v":500}},{"type":"Feature","geometry":{"type":"Point","coordinates":[-80.01944,40.29722]},"properties":{"p":"0772S00025000000","a":"GRANT ST","m":"South Park","u":"L","o":"individual","sf":11271,"v":1000}},{"type":"Feature","geometry":{"type":"Point","coordinates":[-80.01972,40.29749]},"properties":{"p":"0772S00027000000","a":"GRANT ST","m":"South Park","u":"L","o":"individual","sf":5000,"v":500}},{"type":"Feature","geometry":{"type":"Point","coordinates":[-80.01281,40.29267]},"properties":{"p":"0886E00021000000","a":"2500 GROVE RD","m":"South Park","u":"L","o":"individual","sf":5333,"v":500}},{"type":"Feature","geometry":{"type":"Point","coordinates":[-80.01258,40.29133]},"properties":{"p":"0886K00119000000","a":"BOFF ST","m":"South Park","u":"L","o":"individual","sf":8250,"v":700}},{"type":"Feature","geometry":{"type":"Point","coordinates":[-80.01221,40.29158]},"properties":{"p":"0886K00129000000","a":"GROVE RD","m":"South Park","u":"L","o":"corp","sf":8351,"v":2500}},{"type":"Feature","geometry":{"type":"Point","coordinates":[-80.012,40.29204]},"properties":{"p":"0886K00137000000","a":"GROVE RD","m":"South Park","u":"L","o":"corp","sf":5355,"v":500}},{"type":"Feature","geometry":{"type":"Point","coordinates":[-80.01995,40.2976]},"properties":{"p":"0772S00031000000","a":"GRANT ST","m":"South Park","u":"L","o":"individual","sf":10000,"v":900}},{"type":"Feature","geometry":{"type":"Point","coordinates":[-80.01561,40.29133]},"properties":{"p":"0886J00094000000","a":"APEX LN","m":"South Park","u":"L","o":"corp","sf":2475,"v":200}},{"type":"Feature","geometry":{"type":"Point","coordinates":[-80.01557,40.29138]},"properties":{"p":"0886J00095000000","a":"APEX LN","m":"South Park","u":"L","o":"corp","sf":2475,"v":200}},{"type":"Feature","geometry":{"type":"Point","coordinates":[-80.01549,40.2915]},"properties":{"p":"0886J00097000000","a":"APEX LN","m":"South Park","u":"L","o":"corp","sf":2475,"v":200}},{"type":"Feature","geometry":{"type":"Point","coordinates":[-80.01545,40.29156]},"properties":{"p":"0886J00098000000","a":"APEX LN","m":"South Park","u":"L","o":"corp","sf":2475,"v":200}},{"type":"Feature","geometry":{"type":"Point","coordinates":[-80.01979,40.30192]},"properties":{"p":"0772H00174000000","a":"BROAD ST","m":"South Park","u":"L","o":"corp","sf":500,"v":100}},{"type":"Feature","geometry":{"type":"Point","coordinates":[-80.01196,40.30612]},"properties":{"p":"0771A00006000000","a":"STOLTZ RD","m":"South Park","u":"L","o":"individual","sf":17926,"v":1800}},{"type":"Feature","geometry":{"type":"Point","coordinates":[-80.01203,40.30628]},"properties":{"p":"0771A00008000000","a":"STOLTZ RD","m":"South Park","u":"L","o":"individual","sf":13770,"v":1400}},{"type":"Feature","geometry":{"type":"Point","coordinates":[-80.01223,40.30665]},"properties":{"p":"0771A00012000000","a":"1857 STOLTZ RD","m":"South Park","u":"L","o":"individual","sf":9981,"v":1000}},{"type":"Feature","geometry":{"type":"Point","coordinates":[-80.01538,40.29247]},"properties":{"p":"0886E00112000000","a":"APEX LN","m":"South Park","u":"L","o":"corp","sf":2475,"v":200}},{"type":"Feature","geometry":{"type":"Point","coordinates":[-80.01538,40.29261]},"properties":{"p":"0886E00114000000","a":"APEX LN","m":"South Park","u":"L","o":"corp","sf":4455,"v":400}},{"type":"Feature","geometry":{"type":"Point","coordinates":[-80.01551,40.29285]},"properties":{"p":"0886E00118000000","a":"ORCHARD ST","m":"South Park","u":"L","o":"corp","sf":1071,"v":100}},{"type":"Feature","geometry":{"type":"Point","coordinates":[-80.01557,40.29282]},"properties":{"p":"0886E00120000000","a":"ORCHARD ST","m":"South Park","u":"L","o":"corp","sf":2475,"v":200}},{"type":"Feature","geometry":{"type":"Point","coordinates":[-80.01559,40.29274]},"properties":{"p":"0886E00121000000","a":"ORCHARD ST","m":"South Park","u":"L","o":"corp","sf":2475,"v":200}},{"type":"Feature","geometry":{"type":"Point","coordinates":[-80.01564,40.29268]},"properties":{"p":"0886E00122000000","a":"ORCHARD ST","m":"South Park","u":"L","o":"corp","sf":2475,"v":200}},{"type":"Feature","geometry":{"type":"Point","coordinates":[-80.01568,40.29262]},"properties":{"p":"0886E00123000000","a":"ORCHARD ST","m":"South Park","u":"L","o":"corp","sf":2475,"v":200}},{"type":"Feature","geometry":{"type":"Point","coordinates":[-80.01572,40.29256]},"properties":{"p":"0886E00124000000","a":"APEX LN","m":"South Park","u":"L","o":"corp","sf":2475,"v":200}},{"type":"Feature","geometry":{"type":"Point","coordinates":[-80.01577,40.2925]},"properties":{"p":"0886E00125000000","a":"ORCHARD ST","m":"South Park","u":"L","o":"corp","sf":2475,"v":200}},{"type":"Feature","geometry":{"type":"Point","coordinates":[-80.01541,40.29162]},"properties":{"p":"0886J00099000000","a":"APEX LN","m":"South Park","u":"L","o":"corp","sf":2475,"v":200}},{"type":"Feature","geometry":{"type":"Point","coordinates":[-80.01536,40.29168]},"properties":{"p":"0886J00100000000","a":"APEX LN","m":"South Park","u":"L","o":"corp","sf":2475,"v":200}},{"type":"Feature","geometry":{"type":"Point","coordinates":[-80.01532,40.29174]},"properties":{"p":"0886J00101000000","a":"APEX LN","m":"South Park","u":"L","o":"corp","sf":2475,"v":200}},{"type":"Feature","geometry":{"type":"Point","coordinates":[-80.01528,40.2918]},"properties":{"p":"0886J00102000000","a":"APEX LN","m":"South Park","u":"L","o":"corp","sf":2475,"v":200}},{"type":"Feature","geometry":{"type":"Point","coordinates":[-80.01524,40.29186]},"properties":{"p":"0886J00103000000","a":"APEX LN","m":"South Park","u":"L","o":"corp","sf":2475,"v":200}},{"type":"Feature","geometry":{"type":"Point","coordinates":[-80.0152,40.29192]},"properties":{"p":"0886J00104000000","a":"APEX LN","m":"South Park","u":"L","o":"corp","sf":2475,"v":200}},{"type":"Feature","geometry":{"type":"Point","coordinates":[-80.01902,40.29836]},"properties":{"p":"0772S00103000000","a":"ANNETTE AVE","m":"South Park","u":"L","o":"individual","sf":4898,"v":400}},{"type":"Feature","geometry":{"type":"Point","coordinates":[-80.01756,40.30283]},"properties":{"p":"0772H00267000000","a":"STEWART RD","m":"South Park","u":"L","o":"individual","sf":1748,"v":200}},{"type":"Feature","geometry":{"type":"Point","coordinates":[-80.00807,40.29059]},"properties":{"p":"0886L00205000000","a":"PINE HILL DR","m":"South Park","u":"L","o":"corp","sf":14855,"v":20300}},{"type":"Feature","geometry":{"type":"Point","coordinates":[-80.00174,40.29071]},"properties":{"p":"0886M00075000000","a":"BROWNSVILLE RD","m":"South Park","u":"L","o":"corp","sf":26136,"v":46400}},{"type":"Feature","geometry":{"type":"Point","coordinates":[-80.01511,40.29085]},"properties":{"p":"0886J00250000000","a":"PINNACLE WAY","m":"South Park","u":"L","o":"corp","sf":87908,"v":0}},{"type":"Feature","geometry":{"type":"Point","coordinates":[-80.01536,40.30208]},"properties":{"p":"0771E00015000000","a":"ROSEMARY LN","m":"South Park","u":"L","o":"individual","sf":14963,"v":1500}},{"type":"Feature","geometry":{"type":"Point","coordinates":[-80.01201,40.29007]},"properties":{"p":"0886K00051000000","a":"EDGEWOOD ST","m":"South Park","u":"L","o":"individual","sf":7200,"v":700}},{"type":"Feature","geometry":{"type":"Point","coordinates":[-80.01149,40.2903]},"properties":{"p":"0886K00060000000","a":"3601 EDGEWOOD ST","m":"South Park","u":"L","o":"individual","sf":3600,"v":300}},{"type":"Feature","geometry":{"type":"Point","coordinates":[-80.01448,40.29212]},"properties":{"p":"0886E00077000000","a":"5TH ALY","m":"South Park","u":"L","o":"individual","sf":31223,"v":21800}},{"type":"Feature","geometry":{"type":"Point","coordinates":[-80.01583,40.30296]},"properties":{"p":"0771E00023000000","a":"955 WESTCHESTER RD","m":"South Park","u":"L","o":"individual","sf":9640,"v":1000}},{"type":"Feature","geometry":{"type":"Point","coordinates":[-80.01599,40.30224]},"properties":{"p":"0771E00025000000","a":"ROSEMARY LN","m":"South Park","u":"L","o":"individual","sf":64469,"v":6700}},{"type":"Feature","geometry":{"type":"Point","coordinates":[-80.01674,40.29053]},"properties":{"p":"0886J00062000000","a":"APEX LN","m":"South Park","u":"L","o":"corp","sf":5396,"v":500}},{"type":"Feature","geometry":{"type":"Point","coordinates":[-80.01634,40.2903]},"properties":{"p":"0886J00075000000","a":"APEX LN","m":"South Park","u":"L","o":"corp","sf":2921,"v":300}},{"type":"Feature","geometry":{"type":"Point","coordinates":[-80.01621,40.29048]},"properties":{"p":"0886J00079000000","a":"APEX LN","m":"South Park","u":"L","o":"corp","sf":2475,"v":200}},{"type":"Feature","geometry":{"type":"Point","coordinates":[-80.01616,40.29073]},"properties":{"p":"0886J00080000000","a":"APEX LN","m":"South Park","u":"L","o":"corp","sf":14850,"v":20300}},{"type":"Feature","geometry":{"type":"Point","coordinates":[-80.01595,40.29084]},"properties":{"p":"0886J00086000000","a":"APEX LN","m":"South Park","u":"L","o":"corp","sf":2475,"v":200}},{"type":"Feature","geometry":{"type":"Point","coordinates":[-80.01591,40.29091]},"properties":{"p":"0886J00087000000","a":"APEX LN","m":"South Park","u":"L","o":"corp","sf":2475,"v":200}},{"type":"Feature","geometry":{"type":"Point","coordinates":[-80.01582,40.29103]},"properties":{"p":"0886J00088000000","a":"APEX LN","m":"South Park","u":"L","o":"corp","sf":7425,"v":700}},{"type":"Feature","geometry":{"type":"Point","coordinates":[-80.01208,40.30586]},"properties":{"p":"0771A00004000000","a":"STOLTZ RD","m":"South Park","u":"L","o":"individual","sf":13783,"v":1400}},{"type":"Feature","geometry":{"type":"Point","coordinates":[-80.01448,40.30641]},"properties":{"p":"0664N00110000000","a":"STOLTZ RD","m":"South Park","u":"L","o":"individual","sf":354143,"v":75700}},{"type":"Feature","geometry":{"type":"Point","coordinates":[-80.01496,40.2922]},"properties":{"p":"0886E00099000000","a":"APEX LN","m":"South Park","u":"L","o":"corp","sf":8022,"v":16700}},{"type":"Feature","geometry":{"type":"Point","coordinates":[-80.01503,40.29217]},"properties":{"p":"0886E00100000000","a":"APEX LN","m":"South Park","u":"L","o":"corp","sf":2475,"v":200}},{"type":"Feature","geometry":{"type":"Point","coordinates":[-80.01503,40.29209]},"properties":{"p":"0886E00101000000","a":"APEX LN","m":"South Park","u":"L","o":"corp","sf":2475,"v":200}},{"type":"Feature","geometry":{"type":"Point","coordinates":[-80.01562,40.29214]},"properties":{"p":"0886E00105000000","a":"APEX LN","m":"South Park","u":"L","o":"corp","sf":4950,"v":500}},{"type":"Feature","geometry":{"type":"Point","coordinates":[-80.01555,40.29223]},"properties":{"p":"0886E00107000000","a":"APEX LN","m":"South Park","u":"L","o":"corp","sf":2475,"v":200}},{"type":"Feature","geometry":{"type":"Point","coordinates":[-80.01551,40.29229]},"properties":{"p":"0886E00108000000","a":"APEX LN","m":"South Park","u":"L","o":"corp","sf":2475,"v":200}},{"type":"Feature","geometry":{"type":"Point","coordinates":[-80.01547,40.29235]},"properties":{"p":"0886E00109000000","a":"APEX LN","m":"South Park","u":"L","o":"corp","sf":2475,"v":200}},{"type":"Feature","geometry":{"type":"Point","coordinates":[-80.01542,40.29241]},"properties":{"p":"0886E00110000000","a":"APEX LN","m":"South Park","u":"L","o":"corp","sf":2475,"v":200}},{"type":"Feature","geometry":{"type":"Point","coordinates":[-80.01569,40.2912]},"properties":{"p":"0886J00092000000","a":"APEX LN","m":"South Park","u":"L","o":"corp","sf":2475,"v":200}},{"type":"Feature","geometry":{"type":"Point","coordinates":[-80.01565,40.29126]},"properties":{"p":"0886J00093000000","a":"APEX LN","m":"South Park","u":"L","o":"corp","sf":2475,"v":200}},{"type":"Feature","geometry":{"type":"Point","coordinates":[-80.01942,40.30146]},"properties":{"p":"0772M00182000000","a":"ROSE AVE","m":"South Park","u":"L","o":"individual","sf":5000,"v":500}},{"type":"Feature","geometry":{"type":"Point","coordinates":[-80.01984,40.29837]},"properties":{"p":"0772S00072000000","a":"1609 AMANDA AVE","m":"South Park","u":"L","o":"individual","sf":5000,"v":500}},{"type":"Feature","geometry":{"type":"Point","coordinates":[-80.01345,40.29177]},"properties":{"p":"0886J00171000000","a":"GROVE RD","m":"South Park","u":"L","o":"individual","sf":12524,"v":1100}},{"type":"Feature","geometry":{"type":"Point","coordinates":[-80.01284,40.29062]},"properties":{"p":"0886J00201000000","a":"BOFF ST","m":"South Park","u":"L","o":"individual","sf":10285,"v":18600}},{"type":"Feature","geometry":{"type":"Point","coordinates":[-80.01303,40.29015]},"properties":{"p":"0886J00222000000","a":"WOOD ST","m":"South Park","u":"L","o":"individual","sf":8400,"v":17100}},{"type":"Feature","geometry":{"type":"Point","coordinates":[-80.01327,40.29049]},"properties":{"p":"0886J00228000000","a":"WOOD ST","m":"South Park","u":"L","o":"individual","sf":8400,"v":17100}},{"type":"Feature","geometry":{"type":"Point","coordinates":[-80.01847,40.3029]},"properties":{"p":"0772H00250000000","a":"BERRYMAN AVE","m":"South Park","u":"L","o":"corp","sf":2973,"v":300}},{"type":"Feature","geometry":{"type":"Point","coordinates":[-80.01622,40.29124]},"properties":{"p":"0886J00051000000","a":"APEX LN","m":"South Park","u":"L","o":"corp","sf":4950,"v":500}},{"type":"Feature","geometry":{"type":"Point","coordinates":[-80.01307,40.29291]},"properties":{"p":"0886E00028000000","a":"GROVE RD","m":"South Park","u":"L","o":"individual","sf":8970,"v":17500}},{"type":"Feature","geometry":{"type":"Point","coordinates":[-80.01365,40.29269]},"properties":{"p":"0886E00032000000","a":"GROVE RD","m":"South Park","u":"L","o":"individual","sf":8824,"v":10300}},{"type":"Feature","geometry":{"type":"Point","coordinates":[-80.01629,40.29115]},"properties":{"p":"0886J00052000000","a":"APEX LN","m":"South Park","u":"L","o":"corp","sf":2475,"v":200}},{"type":"Feature","geometry":{"type":"Point","coordinates":[-80.01633,40.29101]},"properties":{"p":"0886J00054000000","a":"APEX LN","m":"South Park","u":"L","o":"corp","sf":2475,"v":200}},{"type":"Feature","geometry":{"type":"Point","coordinates":[-80.01641,40.29097]},"properties":{"p":"0886J00055000000","a":"APEX LN","m":"South Park","u":"L","o":"corp","sf":2475,"v":200}},{"type":"Feature","geometry":{"type":"Point","coordinates":[-80.01647,40.29091]},"properties":{"p":"0886J00056000000","a":"APEX LN","m":"South Park","u":"L","o":"corp","sf":2475,"v":200}},{"type":"Feature","geometry":{"type":"Point","coordinates":[-80.01651,40.29085]},"properties":{"p":"0886J00057000000","a":"APEX LN","m":"South Park","u":"L","o":"corp","sf":2475,"v":200}},{"type":"Feature","geometry":{"type":"Point","coordinates":[-80.01656,40.29075]},"properties":{"p":"0886J00059000000","a":"APEX LN","m":"South Park","u":"L","o":"corp","sf":4950,"v":500}},{"type":"Feature","geometry":{"type":"Point","coordinates":[-80.01663,40.29066]},"properties":{"p":"0886J00060000000","a":"APEX LN","m":"South Park","u":"L","o":"corp","sf":2475,"v":200}},{"type":"Feature","geometry":{"type":"Point","coordinates":[-80.01667,40.29061]},"properties":{"p":"0886J00061000000","a":"APEX LN","m":"South Park","u":"L","o":"corp","sf":2475,"v":200}},{"type":"Feature","geometry":{"type":"Point","coordinates":[-80.01898,40.30041]},"properties":{"p":"0772M00098000000","a":"AMELIA AVE","m":"South Park","u":"L","o":"individual","sf":2925,"v":300}},{"type":"Feature","geometry":{"type":"Point","coordinates":[-80.01351,40.29264]},"properties":{"p":"0886E00034000000","a":"GROVE RD","m":"South Park","u":"L","o":"individual","sf":3176,"v":300}},{"type":"Feature","geometry":{"type":"Point","coordinates":[-80.01281,40.29206]},"properties":{"p":"0886E00048000000","a":"GROVE RD","m":"South Park","u":"L","o":"individual","sf":7406,"v":16200}},{"type":"Feature","geometry":{"type":"Point","coordinates":[-80.01358,40.29191]},"properties":{"p":"0886E00055000000","a":"GROVE RD","m":"South Park","u":"L","o":"individual","sf":11712,"v":19800}},{"type":"Feature","geometry":{"type":"Point","coordinates":[-80.01371,40.29204]},"properties":{"p":"0886E00058000000","a":"5TH ALY","m":"South Park","u":"L","o":"individual","sf":10900,"v":19100}},{"type":"Feature","geometry":{"type":"Point","coordinates":[-80.01381,40.2922]},"properties":{"p":"0886E00061000000","a":"GROVE RD","m":"South Park","u":"L","o":"individual","sf":10088,"v":18500}},{"type":"Feature","geometry":{"type":"Point","coordinates":[-80.01405,40.29224]},"properties":{"p":"0886E00069000000","a":"GROVE RD","m":"South Park","u":"L","o":"individual","sf":21453,"v":20900}},{"type":"Feature","geometry":{"type":"Point","coordinates":[-80.01157,40.29171]},"properties":{"p":"0886K00145000000","a":"GROVE RD","m":"South Park","u":"L","o":"individual","sf":4740,"v":400}},{"type":"Feature","geometry":{"type":"Point","coordinates":[-80.01174,40.29256]},"properties":{"p":"0886K00155000000","a":"STEWART RD","m":"South Park","u":"L","o":"individual","sf":179467,"v":35400}},{"type":"Feature","geometry":{"type":"Point","coordinates":[-80.0101,40.29062]},"properties":{"p":"0886K00200000000","a":"STEWART RD","m":"South Park","u":"L","o":"individual","sf":70567,"v":25400}},{"type":"Feature","geometry":{"type":"Point","coordinates":[-80.01966,40.29782]},"properties":{"p":"0772S00050000000","a":"1624 AMANDA AVE","m":"South Park","u":"L","o":"individual","sf":5000,"v":500}},{"type":"Feature","geometry":{"type":"Point","coordinates":[-80.01914,40.29759]},"properties":{"p":"0772S00056000000","a":"AMANDA AVE","m":"South Park","u":"L","o":"individual","sf":4559,"v":400}},{"type":"Feature","geometry":{"type":"Point","coordinates":[-80.01916,40.29804]},"properties":{"p":"0772S00062000000","a":"1649 AMANDA AVE","m":"South Park","u":"L","o":"individual","sf":5300,"v":500}},{"type":"Feature","geometry":{"type":"Point","coordinates":[-80.01968,40.2983]},"properties":{"p":"0772S00070000000","a":"1617 AMANDA AVE","m":"South Park","u":"L","o":"individual","sf":5000,"v":500}},{"type":"Feature","geometry":{"type":"Point","coordinates":[-80.00703,40.29029]},"properties":{"p":"0886K00240000000","a":"STEWART RD","m":"South Park","u":"L","o":"individual","sf":218715,"v":38900}},{"type":"Feature","geometry":{"type":"Point","coordinates":[-80.01003,40.29122]},"properties":{"p":"0886K00266000000","a":"OAKHILL DR","m":"South Park","u":"L","o":"individual","sf":21272,"v":1900}},{"type":"Feature","geometry":{"type":"Point","coordinates":[-80.01356,40.29924]},"properties":{"p":"0772M00356000000","a":"STEWART RD","m":"South Park","u":"L","o":"corp","sf":2701591,"v":243400}},{"type":"Feature","geometry":{"type":"Point","coordinates":[-80.01738,40.29154]},"properties":{"p":"0887M00057000000","a":"LINCOLN AVE","m":"South Park","u":"L","o":"corp","sf":37446,"v":22300}},{"type":"Feature","geometry":{"type":"Point","coordinates":[-80.0134,40.29255]},"properties":{"p":"0886E00036000000","a":"GROVE RD","m":"South Park","u":"L","o":"individual","sf":6477,"v":15500}},{"type":"Feature","geometry":{"type":"Point","coordinates":[-80.01511,40.29204]},"properties":{"p":"0886E00102000000","a":"APEX LN","m":"South Park","u":"L","o":"corp","sf":2475,"v":200}},{"type":"Feature","geometry":{"type":"Point","coordinates":[-80.01936,40.29767]},"properties":{"p":"0772S00054000000","a":"1636 AMANDA AVE","m":"South Park","u":"L","o":"individual","sf":5000,"v":500}},{"type":"Feature","geometry":{"type":"Point","coordinates":[-80.01811,40.29539]},"properties":{"p":"0887D00149000000","a":"MAIN BLVD","m":"South Park","u":"L","o":"corp","sf":5000,"v":500}},{"type":"Feature","geometry":{"type":"Point","coordinates":[-80.01869,40.30288]},"properties":{"p":"0772H00246000000","a":"BERRYMAN AVE","m":"South Park","u":"L","o":"individual","sf":7419,"v":700}},{"type":"Feature","geometry":{"type":"Point","coordinates":[-80.01629,40.29172]},"properties":{"p":"0886J00026000000","a":"ORCHARD ST","m":"South Park","u":"L","o":"corp","sf":2475,"v":200}},{"type":"Feature","geometry":{"type":"Point","coordinates":[-80.0195,40.29571]},"properties":{"p":"0887D00099000000","a":"HARDING AVE","m":"South Park","u":"L","o":"corp","sf":25000,"v":21200}},{"type":"Feature","geometry":{"type":"Point","coordinates":[-80.01573,40.29114]},"properties":{"p":"0886J00091000000","a":"APEX LN","m":"South Park","u":"L","o":"corp","sf":2475,"v":200}},{"type":"Feature","geometry":{"type":"Point","coordinates":[-80.02,40.29716]},"properties":{"p":"0772S00010000000","a":"GRANT ST","m":"South Park","u":"L","o":"individual","sf":5000,"v":500}},{"type":"Feature","geometry":{"type":"Point","coordinates":[-80.01583,40.29241]},"properties":{"p":"0886E00126000000","a":"ORCHARD ST","m":"South Park","u":"L","o":"corp","sf":4950,"v":500}},{"type":"Feature","geometry":{"type":"Point","coordinates":[-80.01616,40.29133]},"properties":{"p":"0886J00049000000","a":"APEX LN","m":"South Park","u":"L","o":"corp","sf":2475,"v":200}},{"type":"Feature","geometry":{"type":"Point","coordinates":[-80.01296,40.29219]},"properties":{"p":"0886E00045000000","a":"GROVE RD","m":"South Park","u":"L","o":"individual","sf":7172,"v":3500}},{"type":"Feature","geometry":{"type":"Point","coordinates":[-80.01994,40.29551]},"properties":{"p":"0887D00073000000","a":"HARDING AVE","m":"South Park","u":"L","o":"corp","sf":5000,"v":500}},{"type":"Feature","geometry":{"type":"Point","coordinates":[-80.01917,40.29243]},"properties":{"p":"0887H00225000000","a":"WASHINGTON AVE","m":"South Park","u":"L","o":"corp","sf":66002,"v":25000}},{"type":"Feature","geometry":{"type":"Point","coordinates":[-80.01515,40.29199]},"properties":{"p":"0886E00103000000","a":"APEX LN","m":"South Park","u":"L","o":"corp","sf":2475,"v":200}},{"type":"Feature","geometry":{"type":"Point","coordinates":[-80.0163,40.29107]},"properties":{"p":"0886J00053000000","a":"APEX LN","m":"South Park","u":"L","o":"corp","sf":2475,"v":200}},{"type":"Feature","geometry":{"type":"Point","coordinates":[-80.01743,40.29422]},"properties":{"p":"0887H00314000000","a":"HARDING AVE","m":"South Park","u":"L","o":"corp","sf":25000,"v":21200}},{"type":"Feature","geometry":{"type":"Point","coordinates":[-80.01553,40.29144]},"properties":{"p":"0886J00096000000","a":"APEX LN","m":"South Park","u":"L","o":"corp","sf":2475,"v":200}},{"type":"Feature","geometry":{"type":"Point","coordinates":[-80.0162,40.29184]},"properties":{"p":"0886J00028000000","a":"ORCHARD ST","m":"South Park","u":"L","o":"corp","sf":2475,"v":200}},{"type":"Feature","geometry":{"type":"Point","coordinates":[-80.01962,40.29614]},"properties":{"p":"0887D00169000000","a":"MAIN BLVD","m":"South Park","u":"L","o":"corp","sf":5000,"v":500}},{"type":"Feature","geometry":{"type":"Point","coordinates":[-80.01267,40.30578]},"properties":{"p":"0771A00080000000","a":"STOLTZ RD","m":"South Park","u":"L","o":"individual","sf":21068,"v":45900}},{"type":"Feature","geometry":{"type":"Point","coordinates":[-80.01627,40.29039]},"properties":{"p":"0886J00077000000","a":"APEX LN","m":"South Park","u":"L","o":"corp","sf":4950,"v":500}},{"type":"Feature","geometry":{"type":"Point","coordinates":[-80.01071,40.29099]},"properties":{"p":"0886K00189000000","a":"GROVE RD","m":"South Park","u":"L","o":"corp","sf":31913,"v":21800}},{"type":"Feature","geometry":{"type":"Point","coordinates":[-80.01841,40.30627]},"properties":{"p":"0772D00188000000","a":"279 PALOMINO DR","m":"South Park","u":"B","o":"individual","sf":15007,"v":6700}},{"type":"Feature","geometry":{"type":"Point","coordinates":[-80.01433,40.3079]},"properties":{"p":"0664N00135000000","a":"1754 STOLTZ RD","m":"South Park","u":"B","o":"individual","sf":23086,"v":7500}}]}