{"type":"FeatureCollection","features":[{"type":"Feature","geometry":{"type":"Point","coordinates":[-80.00754,40.34563]},"properties":{"p":"0391C00201000000","a":"MARILYNN DR","m":"Bethel Park","u":"C","o":"corp","sf":2831,"v":5700}},{"type":"Feature","geometry":{"type":"Point","coordinates":[-80.00762,40.34592]},"properties":{"p":"0391C00203000000","a":"4912 GARDENVILLE RD","m":"Bethel Park","u":"C","o":"corp","sf":20867,"v":41700}},{"type":"Feature","geometry":{"type":"Point","coordinates":[-80.00707,40.33873]},"properties":{"p":"0391K00025000000","a":"WILLIS RD","m":"Bethel Park","u":"C","o":"individual","sf":153405,"v":61400}},{"type":"Feature","geometry":{"type":"Point","coordinates":[-80.01506,40.3468]},"properties":{"p":"0316N00050000000","a":"BAPTIST RD","m":"Bethel Park","u":"C","o":"individual","sf":82328,"v":163400}},{"type":"Feature","geometry":{"type":"Point","coordinates":[-80.01984,40.33718]},"properties":{"p":"0392S00225000000","a":"BAPTIST RD","m":"Bethel Park","u":"C","o":"corp","sf":137192,"v":472400}},{"type":"Feature","geometry":{"type":"Point","coordinates":[-80.007,40.34477]},"properties":{"p":"0391C00216000000","a":"4930 GARDENVILLE RD","m":"Bethel Park","u":"L","o":"individual","sf":22734,"v":2500}},{"type":"Feature","geometry":{"type":"Point","coordinates":[-80.00981,40.33669]},"properties":{"p":"0391P00175000000","a":"REGENCY PL","m":"Bethel Park","u":"L","o":"individual","sf":1560,"v":200}},{"type":"Feature","geometry":{"type":"Point","coordinates":[-80.00984,40.33557]},"properties":{"p":"0391P00185000000","a":"REGENCY PL","m":"Bethel Park","u":"L","o":"corp","sf":815,"v":100}},{"type":"Feature","geometry":{"type":"Point","coordinates":[-80.01982,40.34529]},"properties":{"p":"0317S00125000000","a":"NEDVIEW DR","m":"Bethel Park","u":"L","o":"individual","sf":4543,"v":500}},{"type":"Feature","geometry":{"type":"Point","coordinates":[-80.00463,40.3413]},"properties":{"p":"0391G00043000000","a":"GARDENVILLE RD","m":"Bethel Park","u":"L","o":"individual","sf":4845,"v":500}},{"type":"Feature","geometry":{"type":"Point","coordinates":[-80.00305,40.33955]},"properties":{"p":"0391L00135000000","a":"HORNING RD","m":"Bethel Park","u":"L","o":"individual","sf":65340,"v":56100}},{"type":"Feature","geometry":{"type":"Point","coordinates":[-80.00409,40.33917]},"properties":{"p":"0391L00145000000","a":"HORNING RD","m":"Bethel Park","u":"L","o":"individual","sf":179511,"v":69200}},{"type":"Feature","geometry":{"type":"Point","coordinates":[-80.00194,40.34027]},"properties":{"p":"0391M00035000000","a":"NORMA DR","m":"Bethel Park","u":"L","o":"individual","sf":3982,"v":400}},{"type":"Feature","geometry":{"type":"Point","coordinates":[-80.00259,40.33679]},"properties":{"p":"0391S00052000000","a":"7130 WILLIS RD","m":"Bethel Park","u":"L","o":"individual","sf":12023,"v":1300}},{"type":"Feature","geometry":{"type":"Point","coordinates":[-80.00181,40.34018]},"properties":{"p":"0391L00110000000","a":"NORMA DR","m":"Bethel Park","u":"L","o":"corp","sf":37026,"v":52800}},{"type":"Feature","geometry":{"type":"Point","coordinates":[-80.01136,40.33955]},"properties":{"p":"0391K00011000000","a":"N ST","m":"Bethel Park","u":"L","o":"individual","sf":221,"v":500}},{"type":"Feature","geometry":{"type":"Point","coordinates":[-80.01842,40.34099]},"properties":{"p":"0392H00077000000","a":"7023 LAWRENCE DR","m":"Bethel Park","u":"L","o":"individual","sf":11400,"v":1300}},{"type":"Feature","geometry":{"type":"Point","coordinates":[-80.01878,40.34326]},"properties":{"p":"0392H00231000000","a":"5050 HARTLIN DR","m":"Bethel Park","u":"L","o":"individual","sf":15556,"v":50400}},{"type":"Feature","geometry":{"type":"Point","coordinates":[-80.0144,40.33447]},"properties":{"p":"0474D00190000000","a":"GRANDVIEW FARMS DR","m":"Bethel Park","u":"L","o":"corp","sf":49223,"v":54300}},{"type":"Feature","geometry":{"type":"Point","coordinates":[-80.01897,40.33561]},"properties":{"p":"0475D00096000000","a":"BAPTIST RD","m":"Bethel Park","u":"L","o":"individual","sf":54668,"v":29900}},{"type":"Feature","geometry":{"type":"Point","coordinates":[-80.01767,40.33915]},"properties":{"p":"0392M00188000000","a":"BAPTIST RD","m":"Bethel Park","u":"L","o":"individual","sf":66555,"v":56300}},{"type":"Feature","geometry":{"type":"Point","coordinates":[-80.00051,40.33525]},"properties":{"p":"0474D00106000000","a":"907 HOLLY LYNNE DR","m":"Bethel Park","u":"L","o":"individual","sf":3912,"v":400}},{"type":"Feature","geometry":{"type":"Point","coordinates":[-80.01459,40.33303]},"properties":{"p":"0474A00194000000","a":"GRANDVIEW FARMS CT","m":"Bethel Park","u":"L","o":"individual","sf":35481,"v":3900}},{"type":"Feature","geometry":{"type":"Point","coordinates":[-80.00076,40.33468]},"properties":{"p":"0474D00107000000","a":"FREDERICKA DR","m":"Bethel Park","u":"L","o":"individual","sf":594,"v":100}},{"type":"Feature","geometry":{"type":"Point","coordinates":[-80.01655,40.33493]},"properties":{"p":"0475D00050000000","a":"3013 GRANDVIEW FARMS PL","m":"Bethel Park","u":"L","o":"individual","sf":21838,"v":2400}},{"type":"Feature","geometry":{"type":"Point","coordinates":[-80.01667,40.3333]},"properties":{"p":"0475H00308000000","a":"GRANDVIEW FARMS DR","m":"Bethel Park","u":"L","o":"individual","sf":22925,"v":2500}},{"type":"Feature","geometry":{"type":"Point","coordinates":[-80.00826,40.34691]},"properties":{"p":"0316P00078000001","a":"5605 VILLAHAVEN DR","m":"Baldwin Boro","u":"L","o":"individual","sf":6349,"v":500}},{"type":"Feature","geometry":{"type":"Point","coordinates":[-80.00101,40.34018]},"properties":{"p":"0391M00081000000","a":"MARTA DR","m":"Baldwin Boro","u":"L","o":"individual","sf":2409,"v":900}},{"type":"Feature","geometry":{"type":"Point","coordinates":[-80.00144,40.34027]},"properties":{"p":"0391M00085000000","a":"MARTA DR","m":"Baldwin Boro","u":"L","o":"individual","sf":21233,"v":6900}},{"type":"Feature","geometry":{"type":"Point","coordinates":[-80.00145,40.34058]},"properties":{"p":"0391M00038000000","a":"MARTA DR","m":"Baldwin Boro","u":"L","o":"corp","sf":7178,"v":2600}},{"type":"Feature","geometry":{"type":"Point","coordinates":[-80.00126,40.34042]},"properties":{"p":"0391M00040000000","a":"MARTA DR","m":"Baldwin Boro","u":"L","o":"individual","sf":3469,"v":12100}},{"type":"Feature","geometry":{"type":"Point","coordinates":[-80.00075,40.33384]},"properties":{"p":"0474D00280000000","a":"FREDERICKA DR","m":"South Park","u":"L","o":"individual","sf":2700,"v":300}},{"type":"Feature","geometry":{"type":"Point","coordinates":[-80.00051,40.33426]},"properties":{"p":"0474D00312000000","a":"FREDERICKA DR","m":"South Park","u":"L","o":"individual","sf":2521,"v":300}},{"type":"Feature","geometry":{"type":"Point","coordinates":[-80.00119,40.33867]},"properties":{"p":"0391M00295000000","a":"HORNING RD","m":"Bethel Park","u":"L","o":"corp","sf":36887,"v":0}},{"type":"Feature","geometry":{"type":"Point","coordinates":[-80.01763,40.3377]},"properties":{"p":"0392S00046000000","a":"GRANDVIEW DR","m":"Bethel Park","u":"L","o":"individual","sf":11500,"v":1300}},{"type":"Feature","geometry":{"type":"Point","coordinates":[-80.01553,40.34485]},"properties":{"p":"0391A00339000000","a":"6663 CHAPEL DR","m":"Bethel Park","u":"L","o":"individual","sf":7753,"v":900}},{"type":"Feature","geometry":{"type":"Point","coordinates":[-80.0001,40.3467]},"properties":{"p":"0316S00171000000","a":"JENNE DR","m":"Baldwin Boro","u":"L","o":"individual","sf":12232,"v":18200}}]}