{"type":"FeatureCollection","features":[{"type":"Feature","geometry":{"type":"Point","coordinates":[-79.99442,40.38047]},"properties":{"p":"0138F00041000000","a":"SAW MILL RUN BLVD","m":"32nd Ward - PITTSBURGH","u":"I","o":"corp","sf":1345,"v":4700}},{"type":"Feature","geometry":{"type":"Point","coordinates":[-79.98413,40.38798]},"properties":{"p":"0095M00178000000","a":"2347 BROWNSVILLE RD","m":"29th Ward - PITTSBURGH","u":"C","o":"corp","sf":8970,"v":13500}},{"type":"Feature","geometry":{"type":"Point","coordinates":[-79.98423,40.38807]},"properties":{"p":"0095M00179000000","a":"2347 BROWNSVILLE RD","m":"29th Ward - PITTSBURGH","u":"C","o":"corp","sf":3500,"v":5300}},{"type":"Feature","geometry":{"type":"Point","coordinates":[-79.98637,40.38463]},"properties":{"p":"0138D00003000000","a":"MAYTIDE ST","m":"29th Ward - PITTSBURGH","u":"C","o":"individual","sf":23765,"v":7100}},{"type":"Feature","geometry":{"type":"Point","coordinates":[-79.98702,40.37826]},"properties":{"p":"0138L00180000100","a":"2859 CLAIRTON BLVD","m":"32nd Ward - PITTSBURGH","u":"C","o":"individual","sf":15421,"v":10800}},{"type":"Feature","geometry":{"type":"Point","coordinates":[-79.98741,40.37828]},"properties":{"p":"0138M00050000000","a":"2855 CLAIRTON BLVD","m":"32nd Ward - PITTSBURGH","u":"C","o":"individual","sf":26826,"v":79700}},{"type":"Feature","geometry":{"type":"Point","coordinates":[-79.98642,40.37813]},"properties":{"p":"0138M00060000000","a":"2919 CLAIRTON BLVD","m":"32nd Ward - PITTSBURGH","u":"C","o":"corp","sf":49735,"v":34800}},{"type":"Feature","geometry":{"type":"Point","coordinates":[-79.99579,40.38284]},"properties":{"p":"0138A00263000000","a":"SAW MILL RUN BLVD","m":"32nd Ward - PITTSBURGH","u":"C","o":"corp","sf":2926,"v":27700}},{"type":"Feature","geometry":{"type":"Point","coordinates":[-79.99566,40.38282]},"properties":{"p":"0138A00264000000","a":"SAW MILL RUN BLVD","m":"32nd Ward - PITTSBURGH","u":"C","o":"corp","sf":3159,"v":28600}},{"type":"Feature","geometry":{"type":"Point","coordinates":[-79.99562,40.38272]},"properties":{"p":"0138A00265000000","a":"SAW MILL RUN BLVD","m":"32nd Ward - PITTSBURGH","u":"C","o":"individual","sf":6670,"v":42000}},{"type":"Feature","geometry":{"type":"Point","coordinates":[-79.99571,40.38254]},"properties":{"p":"0138A00268000000","a":"SAW MILL RUN BLVD","m":"32nd Ward - PITTSBURGH","u":"C","o":"individual","sf":1644,"v":23300}},{"type":"Feature","geometry":{"type":"Point","coordinates":[-79.99551,40.38244]},"properties":{"p":"0138A00271000000","a":"UNDERWOOD ST","m":"32nd Ward - PITTSBURGH","u":"C","o":"corp","sf":260,"v":100}},{"type":"Feature","geometry":{"type":"Point","coordinates":[-79.99708,40.38189]},"properties":{"p":"0138E00033000100","a":"LIBRARY RD","m":"32nd Ward - PITTSBURGH","u":"C","o":"corp","sf":471,"v":300}},{"type":"Feature","geometry":{"type":"Point","coordinates":[-79.99354,40.37962]},"properties":{"p":"0138K00104000000","a":"2601 SAW MILL RUN BLVD","m":"32nd Ward - PITTSBURGH","u":"C","o":"individual","sf":9244,"v":22400}},{"type":"Feature","geometry":{"type":"Point","coordinates":[-79.99561,40.3847]},"properties":{"p":"0138A00244000000","a":"2410 SAW MILL RUN BLVD","m":"32nd Ward - PITTSBURGH","u":"C","o":"corp","sf":5460,"v":2000}},{"type":"Feature","geometry":{"type":"Point","coordinates":[-79.98801,40.37837]},"properties":{"p":"0138L00125000000","a":"2847 CLAIRTON BLVD","m":"32nd Ward - PITTSBURGH","u":"C","o":"individual","sf":20363,"v":7200}},{"type":"Feature","geometry":{"type":"Point","coordinates":[-79.99391,40.38073]},"properties":{"p":"0138F00089000000","a":"IVYGLEN ST","m":"32nd Ward - PITTSBURGH","u":"C","o":"corp","sf":6500,"v":24800}},{"type":"Feature","geometry":{"type":"Point","coordinates":[-79.99721,40.38184]},"properties":{"p":"0138E00035000000","a":"LIBRARY RD","m":"32nd Ward - PITTSBURGH","u":"C","o":"corp","sf":942,"v":400}},{"type":"Feature","geometry":{"type":"Point","coordinates":[-79.99606,40.3816]},"properties":{"p":"0138E00137000000","a":"SAW MILL RUN BLVD","m":"32nd Ward - PITTSBURGH","u":"C","o":"individual","sf":9490,"v":2500}},{"type":"Feature","geometry":{"type":"Point","coordinates":[-79.9965,40.38877]},"properties":{"p":"0095J00084000000","a":"2209 SAW MILL RUN BLVD","m":"32nd Ward - PITTSBURGH","u":"C","o":"corp","sf":34961,"v":24500}},{"type":"Feature","geometry":{"type":"Point","coordinates":[-79.99745,40.38922]},"properties":{"p":"0095J00090000000","a":"2098 SAW MILL RUN BLVD","m":"32nd Ward - PITTSBURGH","u":"C","o":"corp","sf":50965,"v":58500}},{"type":"Feature","geometry":{"type":"Point","coordinates":[-79.99502,40.38665]},"properties":{"p":"0095P00022000000","a":"2237 SAW MILL RUN BLVD","m":"32nd Ward - PITTSBURGH","u":"C","o":"individual","sf":5000,"v":35000}},{"type":"Feature","geometry":{"type":"Point","coordinates":[-79.99464,40.38705]},"properties":{"p":"0095P00030000000","a":"SAW MILL RUN BLVD","m":"32nd Ward - PITTSBURGH","u":"C","o":"individual","sf":3020,"v":10600}},{"type":"Feature","geometry":{"type":"Point","coordinates":[-79.98243,40.37529]},"properties":{"p":"0137N00276000000","a":"CLAIRTON BLVD","m":"Brentwood","u":"C","o":"corp","sf":22568,"v":65000}},{"type":"Feature","geometry":{"type":"Point","coordinates":[-79.98312,40.37086]},"properties":{"p":"0189H00079000000","a":"DELCO RD","m":"Brentwood","u":"C","o":"corp","sf":2564,"v":800}},{"type":"Feature","geometry":{"type":"Point","coordinates":[-79.98292,40.37055]},"properties":{"p":"0189H00046000000","a":"DELCO RD","m":"Brentwood","u":"C","o":"corp","sf":2400,"v":700}},{"type":"Feature","geometry":{"type":"Point","coordinates":[-79.98366,40.37625]},"properties":{"p":"0138S00104000000","a":"3299 CLAIRTON BLVD","m":"Brentwood","u":"C","o":"corp","sf":22910,"v":297000}},{"type":"Feature","geometry":{"type":"Point","coordinates":[-79.98439,40.37664]},"properties":{"p":"0138S00106000000","a":"CLAIRTON BLVD","m":"Brentwood","u":"C","o":"corp","sf":9420,"v":3200}},{"type":"Feature","geometry":{"type":"Point","coordinates":[-79.98447,40.3768]},"properties":{"p":"0138S00108000000","a":"CLAIRTON BLVD","m":"Brentwood","u":"C","o":"corp","sf":7411,"v":2200}},{"type":"Feature","geometry":{"type":"Point","coordinates":[-79.98601,40.37536]},"properties":{"p":"0138S00162000000","a":"GREENLEE RD","m":"Brentwood","u":"C","o":"corp","sf":222060,"v":211500}},{"type":"Feature","geometry":{"type":"Point","coordinates":[-79.98505,40.37922]},"properties":{"p":"0138M00167000002","a":"LEOLA AVE","m":"Brentwood","u":"C","o":"corp","sf":26982,"v":1100}},{"type":"Feature","geometry":{"type":"Point","coordinates":[-79.98193,40.37414]},"properties":{"p":"0188A00215000000","a":"CLARITON BLVD","m":"Brentwood","u":"C","o":"corp","sf":3129,"v":1100}},{"type":"Feature","geometry":{"type":"Point","coordinates":[-79.99443,40.37501]},"properties":{"p":"0138P00084000000","a":"PROVOST RD","m":"Whitehall","u":"C","o":"individual","sf":13107,"v":9100}},{"type":"Feature","geometry":{"type":"Point","coordinates":[-79.99547,40.37443]},"properties":{"p":"0189B00114000000","a":"WEYMAN RD","m":"Whitehall","u":"C","o":"corp","sf":4061,"v":500}},{"type":"Feature","geometry":{"type":"Point","coordinates":[-79.98921,40.37846]},"properties":{"p":"0138L00160000000","a":"2801 CLAIRTON BLVD","m":"Whitehall","u":"C","o":"corp","sf":14177,"v":49600}},{"type":"Feature","geometry":{"type":"Point","coordinates":[-79.99416,40.37885]},"properties":{"p":"0138K00074000000","a":"PROVOST RD","m":"32nd Ward - PITTSBURGH","u":"C","o":"individual","sf":10378,"v":23400}},{"type":"Feature","geometry":{"type":"Point","coordinates":[-79.99648,40.38291]},"properties":{"p":"0138A00217000000","a":"SAW MILL RUN BLVD","m":"32nd Ward - PITTSBURGH","u":"C","o":"individual","sf":3194,"v":28700}},{"type":"Feature","geometry":{"type":"Point","coordinates":[-79.98207,40.37401]},"properties":{"p":"0188A00217000000","a":"CLAIRTON BLVD","m":"Brentwood","u":"C","o":"corp","sf":1955,"v":700}},{"type":"Feature","geometry":{"type":"Point","coordinates":[-79.99553,40.38255]},"properties":{"p":"0138A00276000000","a":"UNDERWOOD ST","m":"32nd Ward - PITTSBURGH","u":"C","o":"individual","sf":5589,"v":1800}},{"type":"Feature","geometry":{"type":"Point","coordinates":[-79.9818,40.3841]},"properties":{"p":"0137A00094000000","a":"MAYTIDE ST","m":"29th Ward - PITTSBURGH","u":"L","o":"individual","sf":5715,"v":14100}},{"type":"Feature","geometry":{"type":"Point","coordinates":[-79.98189,40.3841]},"properties":{"p":"0137A00098000100","a":"MAYTIDE ST","m":"29th Ward - PITTSBURGH","u":"L","o":"individual","sf":253,"v":400}},{"type":"Feature","geometry":{"type":"Point","coordinates":[-79.98132,40.3817]},"properties":{"p":"0137E00088000000","a":"GRILL WAY","m":"29th Ward - PITTSBURGH","u":"L","o":"individual","sf":2647,"v":3700}},{"type":"Feature","geometry":{"type":"Point","coordinates":[-79.98451,40.38341]},"properties":{"p":"0138D00208000000","a":"MERRITT AVE","m":"29th Ward - PITTSBURGH","u":"L","o":"individual","sf":3125,"v":4400}},{"type":"Feature","geometry":{"type":"Point","coordinates":[-79.9846,40.38341]},"properties":{"p":"0138D00209000000","a":"MERRITT AVE","m":"29th Ward - PITTSBURGH","u":"L","o":"individual","sf":3125,"v":4400}},{"type":"Feature","geometry":{"type":"Point","coordinates":[-79.99091,40.38653]},"properties":{"p":"0095R00056000000","a":"OVERBROOK BLVD","m":"29th Ward - PITTSBURGH","u":"L","o":"individual","sf":2625,"v":3700}},{"type":"Feature","geometry":{"type":"Point","coordinates":[-79.98303,40.38317]},"properties":{"p":"0138D00193000000","a":"MARS WAY","m":"29th Ward - PITTSBURGH","u":"L","o":"individual","sf":4560,"v":1500}},{"type":"Feature","geometry":{"type":"Point","coordinates":[-79.98789,40.38805]},"properties":{"p":"0095L00088000000","a":"ALMONT ST","m":"29th Ward - PITTSBURGH","u":"L","o":"individual","sf":6000,"v":7100}},{"type":"Feature","geometry":{"type":"Point","coordinates":[-79.98799,40.38837]},"properties":{"p":"0095L00094000000","a":"OVERBROOK BLVD","m":"29th Ward - PITTSBURGH","u":"L","o":"individual","sf":2548,"v":3600}},{"type":"Feature","geometry":{"type":"Point","coordinates":[-79.98796,40.38843]},"properties":{"p":"0095L00095000000","a":"OVERBROOK BLVD","m":"29th Ward - PITTSBURGH","u":"L","o":"individual","sf":2548,"v":3600}},{"type":"Feature","geometry":{"type":"Point","coordinates":[-79.98161,40.38712]},"properties":{"p":"0094N00006000000","a":"BROWNSVILLE RD","m":"29th Ward - PITTSBURGH","u":"L","o":"individual","sf":6526,"v":14100}},{"type":"Feature","geometry":{"type":"Point","coordinates":[-79.98094,40.38998]},"properties":{"p":"0094E00171000000","a":"GLENROY ST","m":"29th Ward - PITTSBURGH","u":"L","o":"individual","sf":7701,"v":8200}},{"type":"Feature","geometry":{"type":"Point","coordinates":[-79.98063,40.38992]},"properties":{"p":"0094E00173000000","a":"GLENROY ST","m":"29th Ward - PITTSBURGH","u":"L","o":"individual","sf":3536,"v":5700}},{"type":"Feature","geometry":{"type":"Point","coordinates":[-79.99009,40.38483]},"properties":{"p":"0095R00190000000","a":"ANTENOR AVE","m":"29th Ward - PITTSBURGH","u":"L","o":"corp","sf":5000,"v":1600}},{"type":"Feature","geometry":{"type":"Point","coordinates":[-79.99023,40.38482]},"properties":{"p":"0095R00191000000","a":"ANTENOR AVE","m":"29th Ward - PITTSBURGH","u":"L","o":"individual","sf":10000,"v":16500}},{"type":"Feature","geometry":{"type":"Point","coordinates":[-79.98789,40.3898]},"properties":{"p":"0095G00127000000","a":"VALERA AVE","m":"29th Ward - PITTSBURGH","u":"L","o":"individual","sf":2500,"v":3500}},{"type":"Feature","geometry":{"type":"Point","coordinates":[-79.98101,40.3825]},"properties":{"p":"0137A00361000100","a":"BETHESDA ST","m":"29th Ward - PITTSBURGH","u":"L","o":"individual","sf":1307,"v":1800}},{"type":"Feature","geometry":{"type":"Point","coordinates":[-79.98097,40.3825]},"properties":{"p":"0137A00362000100","a":"BETHESDA ST","m":"29th Ward - PITTSBURGH","u":"L","o":"individual","sf":1307,"v":1800}},{"type":"Feature","geometry":{"type":"Point","coordinates":[-79.98823,40.38685]},"properties":{"p":"0095R00238000000","a":"BANGOR AVE","m":"29th Ward - PITTSBURGH","u":"L","o":"individual","sf":2970,"v":1000}},{"type":"Feature","geometry":{"type":"Point","coordinates":[-79.98981,40.38949]},"properties":{"p":"0095L00229000000","a":"SPOKANE AVE","m":"29th Ward - PITTSBURGH","u":"L","o":"corp","sf":5000,"v":14000}},{"type":"Feature","geometry":{"type":"Point","coordinates":[-79.98796,40.38385]},"properties":{"p":"0138C00144000000","a":"MERRITT AVE","m":"29th Ward - PITTSBURGH","u":"L","o":"corp","sf":15480,"v":14900}},{"type":"Feature","geometry":{"type":"Point","coordinates":[-79.98803,40.38343]},"properties":{"p":"0138C00146000000","a":"MERRITT AVE","m":"29th Ward - PITTSBURGH","u":"L","o":"individual","sf":9279,"v":14400}},{"type":"Feature","geometry":{"type":"Point","coordinates":[-79.98758,40.38346]},"properties":{"p":"0138C00152000000","a":"MERRITT AVE","m":"29th Ward - PITTSBURGH","u":"L","o":"individual","sf":3211,"v":4500}},{"type":"Feature","geometry":{"type":"Point","coordinates":[-79.9874,40.38347]},"properties":{"p":"0138C00154000000","a":"MERRITT AVE","m":"29th Ward - PITTSBURGH","u":"L","o":"individual","sf":3362,"v":4700}},{"type":"Feature","geometry":{"type":"Point","coordinates":[-79.99139,40.38947]},"properties":{"p":"0095K00298000000","a":"YALE DR","m":"29th Ward - PITTSBURGH","u":"L","o":"individual","sf":3000,"v":4200}},{"type":"Feature","geometry":{"type":"Point","coordinates":[-79.99142,40.38935]},"properties":{"p":"0095K00299000000","a":"2209 YALE DR","m":"29th Ward - PITTSBURGH","u":"L","o":"individual","sf":3000,"v":4200}},{"type":"Feature","geometry":{"type":"Point","coordinates":[-79.98739,40.3888]},"properties":{"p":"0095L00027000000","a":"VALERA AVE","m":"29th Ward - PITTSBURGH","u":"L","o":"individual","sf":2292,"v":3200}},{"type":"Feature","geometry":{"type":"Point","coordinates":[-79.98915,40.38619]},"properties":{"p":"0095R00097000000","a":"OLIVET AVE","m":"29th Ward - PITTSBURGH","u":"L","o":"individual","sf":2514,"v":3700}},{"type":"Feature","geometry":{"type":"Point","coordinates":[-79.98939,40.38611]},"properties":{"p":"0095R00100000000","a":"OLIVET AVE","m":"29th Ward - PITTSBURGH","u":"L","o":"individual","sf":2625,"v":3700}},{"type":"Feature","geometry":{"type":"Point","coordinates":[-79.98563,40.38195]},"properties":{"p":"0138H00060000000","a":"HORNING ST","m":"29th Ward - PITTSBURGH","u":"L","o":"individual","sf":3750,"v":1200}},{"type":"Feature","geometry":{"type":"Point","coordinates":[-79.98947,40.38609]},"properties":{"p":"0095R00101000000","a":"OLIVET AVE","m":"29th Ward - PITTSBURGH","u":"L","o":"individual","sf":2625,"v":3700}},{"type":"Feature","geometry":{"type":"Point","coordinates":[-79.98446,40.38427]},"properties":{"p":"0138D00039000000","a":"MAYTIDE ST","m":"29th Ward - PITTSBURGH","u":"L","o":"corp","sf":3683,"v":1200}},{"type":"Feature","geometry":{"type":"Point","coordinates":[-79.98159,40.3898]},"properties":{"p":"0094E00146000000","a":"CARRICK AVE","m":"29th Ward - PITTSBURGH","u":"L","o":"individual","sf":5820,"v":1800}},{"type":"Feature","geometry":{"type":"Point","coordinates":[-79.98984,40.38533]},"properties":{"p":"0095R00166000000","a":"ANTENOR AVE","m":"29th Ward - PITTSBURGH","u":"L","o":"corp","sf":4804,"v":13700}},{"type":"Feature","geometry":{"type":"Point","coordinates":[-79.98539,40.38579]},"properties":{"p":"0095S00208000000","a":"2368 VALERA AVE","m":"29th Ward - PITTSBURGH","u":"L","o":"individual","sf":1355,"v":1900}},{"type":"Feature","geometry":{"type":"Point","coordinates":[-79.9871,40.38995]},"properties":{"p":"0095G00105000000","a":"WESTMONT AVE","m":"29th Ward - PITTSBURGH","u":"L","o":"individual","sf":2340,"v":800}},{"type":"Feature","geometry":{"type":"Point","coordinates":[-79.98379,40.38937]},"properties":{"p":"0095M00108000000","a":"ATHENA ST","m":"29th Ward - PITTSBURGH","u":"L","o":"individual","sf":3539,"v":1200}},{"type":"Feature","geometry":{"type":"Point","coordinates":[-79.98859,40.38625]},"properties":{"p":"0095R00221000000","a":"ANTENOR AVE","m":"29th Ward - PITTSBURGH","u":"L","o":"corp","sf":3863,"v":5400}},{"type":"Feature","geometry":{"type":"Point","coordinates":[-79.98866,40.38808]},"properties":{"p":"0095L00182000000","a":"OVERBROOK BLVD","m":"29th Ward - PITTSBURGH","u":"L","o":"individual","sf":2664,"v":3700}},{"type":"Feature","geometry":{"type":"Point","coordinates":[-79.98774,40.38182]},"properties":{"p":"0138G00003000000","a":"9 ESTHER ST","m":"29th Ward - PITTSBURGH","u":"L","o":"individual","sf":849,"v":1200}},{"type":"Feature","geometry":{"type":"Point","coordinates":[-79.9875,40.38181]},"properties":{"p":"0138G00005000000","a":"7 ESTHER ST","m":"29th Ward - PITTSBURGH","u":"L","o":"individual","sf":1800,"v":2500}},{"type":"Feature","geometry":{"type":"Point","coordinates":[-79.98722,40.3818]},"properties":{"p":"0138G00009000000","a":"5 ESTHER ST","m":"29th Ward - PITTSBURGH","u":"L","o":"individual","sf":1200,"v":1700}},{"type":"Feature","geometry":{"type":"Point","coordinates":[-79.9884,40.38708]},"properties":{"p":"0095R00234000000","a":"OVERBROOK BLVD","m":"29th Ward - PITTSBURGH","u":"L","o":"individual","sf":3484,"v":4900}},{"type":"Feature","geometry":{"type":"Point","coordinates":[-79.98678,40.38763]},"properties":{"p":"0095M00253000000","a":"2313 VALERA AVE","m":"29th Ward - PITTSBURGH","u":"L","o":"corp","sf":2644,"v":900}},{"type":"Feature","geometry":{"type":"Point","coordinates":[-79.98271,40.38739]},"properties":{"p":"0094J00046000000","a":"LAUCH WAY","m":"29th Ward - PITTSBURGH","u":"L","o":"individual","sf":1247,"v":500}},{"type":"Feature","geometry":{"type":"Point","coordinates":[-79.98867,40.38824]},"properties":{"p":"0095L00187000000","a":"ALMONT ST","m":"29th Ward - PITTSBURGH","u":"L","o":"individual","sf":6479,"v":14100}},{"type":"Feature","geometry":{"type":"Point","coordinates":[-79.99181,40.38852]},"properties":{"p":"0095K00282000000","a":"YALE DR","m":"29th Ward - PITTSBURGH","u":"L","o":"individual","sf":3617,"v":5100}},{"type":"Feature","geometry":{"type":"Point","coordinates":[-79.99181,40.3887]},"properties":{"p":"0095K00286000000","a":"2220 YALE DR","m":"29th Ward - PITTSBURGH","u":"L","o":"individual","sf":3120,"v":4400}},{"type":"Feature","geometry":{"type":"Point","coordinates":[-79.98728,40.38687]},"properties":{"p":"0095R00385000000","a":"ALMONT ST","m":"29th Ward - PITTSBURGH","u":"L","o":"individual","sf":2500,"v":3500}},{"type":"Feature","geometry":{"type":"Point","coordinates":[-79.99181,40.38878]},"properties":{"p":"0095K00288000000","a":"2220 YALE DR","m":"29th Ward - PITTSBURGH","u":"L","o":"individual","sf":3302,"v":4600}},{"type":"Feature","geometry":{"type":"Point","coordinates":[-79.98799,40.3874]},"properties":{"p":"0095L00140000000","a":"ALMONT ST","m":"29th Ward - PITTSBURGH","u":"L","o":"individual","sf":5720,"v":7100}},{"type":"Feature","geometry":{"type":"Point","coordinates":[-79.98796,40.38711]},"properties":{"p":"0095L00147000100","a":"2322 ALMONT ST","m":"29th Ward - PITTSBURGH","u":"L","o":"individual","sf":1188,"v":1700}},{"type":"Feature","geometry":{"type":"Point","coordinates":[-79.98836,40.38754]},"properties":{"p":"0095L00154000000","a":"OVERBROOK BLVD","m":"29th Ward - PITTSBURGH","u":"L","o":"individual","sf":8933,"v":14400}},{"type":"Feature","geometry":{"type":"Point","coordinates":[-79.98894,40.38728]},"properties":{"p":"0095L00167000000","a":"OVERBROOK BLVD","m":"29th Ward - PITTSBURGH","u":"L","o":"corp","sf":2500,"v":3500}},{"type":"Feature","geometry":{"type":"Point","coordinates":[-79.98013,40.38416]},"properties":{"p":"0137A00072000000","a":"MAYTIDE ST","m":"29th Ward - PITTSBURGH","u":"L","o":"individual","sf":5080,"v":14000}},{"type":"Feature","geometry":{"type":"Point","coordinates":[-79.98027,40.38415]},"properties":{"p":"0137A00074000000","a":"MAYTIDE ST","m":"29th Ward - PITTSBURGH","u":"L","o":"corp","sf":5080,"v":14000}},{"type":"Feature","geometry":{"type":"Point","coordinates":[-79.98216,40.38764]},"properties":{"p":"0094J00187000000","a":"CLIFTON BLVD","m":"29th Ward - PITTSBURGH","u":"L","o":"individual","sf":7792,"v":16300}},{"type":"Feature","geometry":{"type":"Point","coordinates":[-79.98205,40.38085]},"properties":{"p":"0137E00143000100","a":"NEWBURN AVE","m":"29th Ward - PITTSBURGH","u":"L","o":"individual","sf":6583,"v":14100}},{"type":"Feature","geometry":{"type":"Point","coordinates":[-79.98106,40.38283]},"properties":{"p":"0137A00279000000","a":"BETHESDA ST","m":"29th Ward - PITTSBURGH","u":"L","o":"individual","sf":3000,"v":4200}},{"type":"Feature","geometry":{"type":"Point","coordinates":[-79.98364,40.38874]},"properties":{"p":"0095M00084000000","a":"BECKS RUN RD","m":"29th Ward - PITTSBURGH","u":"L","o":"corp","sf":3600,"v":13800}},{"type":"Feature","geometry":{"type":"Point","coordinates":[-79.98389,40.38953]},"properties":{"p":"0095H00370000000","a":"LUTZ AVE","m":"29th Ward - PITTSBURGH","u":"L","o":"individual","sf":10555,"v":8500}},{"type":"Feature","geometry":{"type":"Point","coordinates":[-79.9875,40.38576]},"properties":{"p":"0095R00315000000","a":"ALMONT ST","m":"29th Ward - PITTSBURGH","u":"L","o":"individual","sf":3966,"v":1300}},{"type":"Feature","geometry":{"type":"Point","coordinates":[-79.98786,40.38701]},"properties":{"p":"0095R00354000000","a":"ALMONT ST","m":"29th Ward - PITTSBURGH","u":"L","o":"individual","sf":2117,"v":3000}},{"type":"Feature","geometry":{"type":"Point","coordinates":[-79.98784,40.38694]},"properties":{"p":"0095R00355000000","a":"ALMONT ST","m":"29th Ward - PITTSBURGH","u":"L","o":"individual","sf":2270,"v":3200}},{"type":"Feature","geometry":{"type":"Point","coordinates":[-79.98781,40.38688]},"properties":{"p":"0095R00356000000","a":"ALMONT ST","m":"29th Ward - PITTSBURGH","u":"L","o":"individual","sf":2416,"v":3400}},{"type":"Feature","geometry":{"type":"Point","coordinates":[-79.98775,40.38668]},"properties":{"p":"0095R00359000000","a":"ALMONT ST","m":"29th Ward - PITTSBURGH","u":"L","o":"individual","sf":2882,"v":4000}},{"type":"Feature","geometry":{"type":"Point","coordinates":[-79.98149,40.38891]},"properties":{"p":"0094J00160000000","a":"CLIFTON ST","m":"29th Ward - PITTSBURGH","u":"L","o":"individual","sf":9126,"v":16400}},{"type":"Feature","geometry":{"type":"Point","coordinates":[-79.98689,40.38178]},"properties":{"p":"0138H00074000000","a":"3 ESTHER ST","m":"29th Ward - PITTSBURGH","u":"L","o":"individual","sf":2387,"v":3300}},{"type":"Feature","geometry":{"type":"Point","coordinates":[-79.992,40.38975]},"properties":{"p":"0095F00193000000","a":"QUEENSTON ST","m":"29th Ward - PITTSBURGH","u":"L","o":"individual","sf":3866,"v":5400}},{"type":"Feature","geometry":{"type":"Point","coordinates":[-79.99169,40.38985]},"properties":{"p":"0095F00225000000","a":"2163 YALE DR","m":"29th Ward - PITTSBURGH","u":"L","o":"individual","sf":2773,"v":3900}},{"type":"Feature","geometry":{"type":"Point","coordinates":[-79.98017,40.38553]},"properties":{"p":"0094N00180000000","a":"BELPLAIN ST","m":"29th Ward - PITTSBURGH","u":"L","o":"individual","sf":2633,"v":900}},{"type":"Feature","geometry":{"type":"Point","coordinates":[-79.98252,40.38512]},"properties":{"p":"0094N00247000000","a":"VALERA AVE","m":"29th Ward - PITTSBURGH","u":"L","o":"individual","sf":6800,"v":7200}},{"type":"Feature","geometry":{"type":"Point","coordinates":[-79.98214,40.38508]},"properties":{"p":"0094N00250000000","a":"BELPLAIN ST","m":"29th Ward - PITTSBURGH","u":"L","o":"individual","sf":4470,"v":13300}},{"type":"Feature","geometry":{"type":"Point","coordinates":[-79.99133,40.38807]},"properties":{"p":"0095K00318000000","a":"PARK BLVD","m":"29th Ward - PITTSBURGH","u":"L","o":"individual","sf":3143,"v":4400}},{"type":"Feature","geometry":{"type":"Point","coordinates":[-79.99156,40.3874]},"properties":{"p":"0095K00331000000","a":"SINTON AVE","m":"29th Ward - PITTSBURGH","u":"L","o":"individual","sf":2600,"v":3600}},{"type":"Feature","geometry":{"type":"Point","coordinates":[-79.98548,40.38432]},"properties":{"p":"0138D00050000000","a":"MAYTIDE ST","m":"29th Ward - PITTSBURGH","u":"L","o":"corp","sf":6350,"v":7100}},{"type":"Feature","geometry":{"type":"Point","coordinates":[-79.99176,40.38999]},"properties":{"p":"0095F00228000000","a":"2163 YALE DR","m":"29th Ward - PITTSBURGH","u":"L","o":"individual","sf":2674,"v":3700}},{"type":"Feature","geometry":{"type":"Point","coordinates":[-79.99859,40.38289]},"properties":{"p":"0138A00014000000","a":"PINECASTLE AVE","m":"32nd Ward - PITTSBURGH","u":"L","o":"individual","sf":3541,"v":10600}},{"type":"Feature","geometry":{"type":"Point","coordinates":[-79.99804,40.38372]},"properties":{"p":"0138A00148000000","a":"GLENBURY ST","m":"32nd Ward - PITTSBURGH","u":"L","o":"individual","sf":13818,"v":30800}},{"type":"Feature","geometry":{"type":"Point","coordinates":[-79.99779,40.38368]},"properties":{"p":"0138A00161000000","a":"GLENBURY ST","m":"32nd Ward - PITTSBURGH","u":"L","o":"corp","sf":9856,"v":30400}},{"type":"Feature","geometry":{"type":"Point","coordinates":[-79.99751,40.38353]},"properties":{"p":"0138A00162000000","a":"GLENBURY ST","m":"32nd Ward - PITTSBURGH","u":"L","o":"individual","sf":10685,"v":3800}},{"type":"Feature","geometry":{"type":"Point","coordinates":[-79.99739,40.38384]},"properties":{"p":"0138A00170000000","a":"SELDON PL","m":"32nd Ward - PITTSBURGH","u":"L","o":"individual","sf":11328,"v":15600}},{"type":"Feature","geometry":{"type":"Point","coordinates":[-79.99724,40.38393]},"properties":{"p":"0138A00172000000","a":"SELDON PL","m":"32nd Ward - PITTSBURGH","u":"L","o":"individual","sf":5577,"v":15100}},{"type":"Feature","geometry":{"type":"Point","coordinates":[-79.99412,40.3818]},"properties":{"p":"0138F00284000000","a":"2553 IVYGLEN ST","m":"32nd Ward - PITTSBURGH","u":"L","o":"individual","sf":4630,"v":1500}},{"type":"Feature","geometry":{"type":"Point","coordinates":[-79.99417,40.38188]},"properties":{"p":"0138F00286000000","a":"2537 IVYGLEN ST","m":"32nd Ward - PITTSBURGH","u":"L","o":"individual","sf":7579,"v":8200}},{"type":"Feature","geometry":{"type":"Point","coordinates":[-79.99154,40.37905]},"properties":{"p":"0138K00161000000","a":"STEWART AVE","m":"32nd Ward - PITTSBURGH","u":"L","o":"individual","sf":1515,"v":600}},{"type":"Feature","geometry":{"type":"Point","coordinates":[-79.99073,40.37899]},"properties":{"p":"0138L00137000000","a":"STEWART AVE","m":"32nd Ward - PITTSBURGH","u":"L","o":"corp","sf":13200,"v":16700}},{"type":"Feature","geometry":{"type":"Point","coordinates":[-79.99006,40.37886]},"properties":{"p":"0138L00139000000","a":"STEWART AVE","m":"32nd Ward - PITTSBURGH","u":"L","o":"corp","sf":5185,"v":16000}},{"type":"Feature","geometry":{"type":"Point","coordinates":[-79.99167,40.38138]},"properties":{"p":"0138F00153000000","a":"MULLOOLY ST","m":"32nd Ward - PITTSBURGH","u":"L","o":"individual","sf":8600,"v":8300}},{"type":"Feature","geometry":{"type":"Point","coordinates":[-79.98841,40.38373]},"properties":{"p":"0138C00145000000","a":"MAYTIDE ST","m":"32nd Ward - PITTSBURGH","u":"L","o":"corp","sf":9531,"v":30400}},{"type":"Feature","geometry":{"type":"Point","coordinates":[-79.98878,40.38326]},"properties":{"p":"0138C00250000000","a":"SHADY LN","m":"32nd Ward - PITTSBURGH","u":"L","o":"individual","sf":48513,"v":4500}},{"type":"Feature","geometry":{"type":"Point","coordinates":[-79.99313,40.38399]},"properties":{"p":"0138B00068000000","a":"MAYTIDE ST","m":"32nd Ward - PITTSBURGH","u":"L","o":"individual","sf":5250,"v":16000}},{"type":"Feature","geometry":{"type":"Point","coordinates":[-79.99965,40.37973]},"properties":{"p":"0139M00226000000","a":"KINGWOOD ST","m":"32nd Ward - PITTSBURGH","u":"L","o":"individual","sf":3190,"v":9600}},{"type":"Feature","geometry":{"type":"Point","coordinates":[-79.993,40.38397]},"properties":{"p":"0138B00070000000","a":"MAYTIDE ST","m":"32nd Ward - PITTSBURGH","u":"L","o":"individual","sf":3240,"v":5200}},{"type":"Feature","geometry":{"type":"Point","coordinates":[-79.99291,40.38398]},"properties":{"p":"0138B00072000000","a":"MAYTIDE ST","m":"32nd Ward - PITTSBURGH","u":"L","o":"individual","sf":2572,"v":4100}},{"type":"Feature","geometry":{"type":"Point","coordinates":[-79.9978,40.38467]},"properties":{"p":"0138A00112000000","a":"SELDON PL","m":"32nd Ward - PITTSBURGH","u":"L","o":"individual","sf":7620,"v":15200}},{"type":"Feature","geometry":{"type":"Point","coordinates":[-79.99762,40.38458]},"properties":{"p":"0138A00116000000","a":"SELDON PL","m":"32nd Ward - PITTSBURGH","u":"L","o":"individual","sf":7620,"v":30200}},{"type":"Feature","geometry":{"type":"Point","coordinates":[-79.99964,40.38352]},"properties":{"p":"0139D00288000000","a":"MORTON ST","m":"32nd Ward - PITTSBURGH","u":"L","o":"individual","sf":3840,"v":11500}},{"type":"Feature","geometry":{"type":"Point","coordinates":[-79.98917,40.38341]},"properties":{"p":"0138C00400000000","a":"SUNNYLAND AVE","m":"32nd Ward - PITTSBURGH","u":"L","o":"corp","sf":86371,"v":2000}},{"type":"Feature","geometry":{"type":"Point","coordinates":[-79.9921,40.38299]},"properties":{"p":"0138B00196000000","a":"SAINT NORBERT ST","m":"32nd Ward - PITTSBURGH","u":"L","o":"individual","sf":3240,"v":1000}},{"type":"Feature","geometry":{"type":"Point","coordinates":[-79.99223,40.383]},"properties":{"p":"0138B00198000000","a":"SAINT NORBERT ST","m":"32nd Ward - PITTSBURGH","u":"L","o":"individual","sf":3240,"v":1000}},{"type":"Feature","geometry":{"type":"Point","coordinates":[-79.99262,40.38302]},"properties":{"p":"0138B00204000000","a":"SAINT NORBERT ST","m":"32nd Ward - PITTSBURGH","u":"L","o":"individual","sf":3240,"v":13200}},{"type":"Feature","geometry":{"type":"Point","coordinates":[-79.99271,40.38303]},"properties":{"p":"0138B00206000000","a":"SAINT NORBERT ST","m":"32nd Ward - PITTSBURGH","u":"L","o":"individual","sf":1260,"v":2000}},{"type":"Feature","geometry":{"type":"Point","coordinates":[-79.9997,40.3836]},"properties":{"p":"0139D00289000000","a":"MORTON ST","m":"32nd Ward - PITTSBURGH","u":"L","o":"individual","sf":3840,"v":11500}},{"type":"Feature","geometry":{"type":"Point","coordinates":[-79.99977,40.38367]},"properties":{"p":"0139D00290000000","a":"MORTON ST","m":"32nd Ward - PITTSBURGH","u":"L","o":"individual","sf":3840,"v":11500}},{"type":"Feature","geometry":{"type":"Point","coordinates":[-79.99983,40.38374]},"properties":{"p":"0139D00291000000","a":"MORTON ST","m":"32nd Ward - PITTSBURGH","u":"L","o":"individual","sf":3840,"v":1400}},{"type":"Feature","geometry":{"type":"Point","coordinates":[-79.99989,40.38382]},"properties":{"p":"0139D00292000000","a":"MORTON ST","m":"32nd Ward - PITTSBURGH","u":"L","o":"individual","sf":3840,"v":1400}},{"type":"Feature","geometry":{"type":"Point","coordinates":[-79.99274,40.38335]},"properties":{"p":"0138B00210000000","a":"SAINT NORBERT ST","m":"32nd Ward - PITTSBURGH","u":"L","o":"individual","sf":3240,"v":1000}},{"type":"Feature","geometry":{"type":"Point","coordinates":[-79.99301,40.38301]},"properties":{"p":"0138B00212000000","a":"SAINT NORBERT ST","m":"32nd Ward - PITTSBURGH","u":"L","o":"individual","sf":3240,"v":13200}},{"type":"Feature","geometry":{"type":"Point","coordinates":[-79.99842,40.38025]},"properties":{"p":"0138E00221000000","a":"KINGWOOD ST","m":"32nd Ward - PITTSBURGH","u":"L","o":"individual","sf":7500,"v":2700}},{"type":"Feature","geometry":{"type":"Point","coordinates":[-79.99858,40.38019]},"properties":{"p":"0138E00223000000","a":"KINGWOOD ST","m":"32nd Ward - PITTSBURGH","u":"L","o":"individual","sf":7500,"v":30200}},{"type":"Feature","geometry":{"type":"Point","coordinates":[-79.98429,40.38066]},"properties":{"p":"0138H00246000000","a":"254 STEWART AVE","m":"32nd Ward - PITTSBURGH","u":"L","o":"individual","sf":9920,"v":16400}},{"type":"Feature","geometry":{"type":"Point","coordinates":[-79.99817,40.37982]},"properties":{"p":"0138J00013000000","a":"HOMEHURST AVE","m":"32nd Ward - PITTSBURGH","u":"L","o":"individual","sf":7500,"v":11500}},{"type":"Feature","geometry":{"type":"Point","coordinates":[-79.99028,40.38124]},"properties":{"p":"0138G00114000000","a":"SPINNEWEBER ST","m":"32nd Ward - PITTSBURGH","u":"L","o":"individual","sf":348,"v":600}},{"type":"Feature","geometry":{"type":"Point","coordinates":[-79.99043,40.38092]},"properties":{"p":"0138G00120000000","a":"SPINNEWEBER ST","m":"32nd Ward - PITTSBURGH","u":"L","o":"individual","sf":800,"v":1300}},{"type":"Feature","geometry":{"type":"Point","coordinates":[-79.99921,40.38456]},"properties":{"p":"0138A00052000000","a":"GROVELAND ST","m":"32nd Ward - PITTSBURGH","u":"L","o":"individual","sf":6912,"v":15200}},{"type":"Feature","geometry":{"type":"Point","coordinates":[-79.99915,40.38446]},"properties":{"p":"0138A00054000000","a":"GROVELAND ST","m":"32nd Ward - PITTSBURGH","u":"L","o":"individual","sf":4558,"v":10300}},{"type":"Feature","geometry":{"type":"Point","coordinates":[-79.98857,40.38367]},"properties":{"p":"0138C00109000100","a":"MAYTIDE ST","m":"32nd Ward - PITTSBURGH","u":"L","o":"individual","sf":3420,"v":1100}},{"type":"Feature","geometry":{"type":"Point","coordinates":[-79.99832,40.38324]},"properties":{"p":"0138A00071000000","a":"GROVELAND ST","m":"32nd Ward - PITTSBURGH","u":"L","o":"corp","sf":18376,"v":31200}},{"type":"Feature","geometry":{"type":"Point","coordinates":[-79.9911,40.38437]},"properties":{"p":"0138C00009000000","a":"MAYTIDE ST","m":"32nd Ward - PITTSBURGH","u":"L","o":"individual","sf":2500,"v":3000}},{"type":"Feature","geometry":{"type":"Point","coordinates":[-79.99097,40.3844]},"properties":{"p":"0138C00010000000","a":"RAVILLA AVE","m":"32nd Ward - PITTSBURGH","u":"L","o":"corp","sf":5000,"v":16000}},{"type":"Feature","geometry":{"type":"Point","coordinates":[-79.99221,40.38048]},"properties":{"p":"0138F00210000000","a":"HARDING BLVD","m":"32nd Ward - PITTSBURGH","u":"L","o":"individual","sf":5145,"v":8000}},{"type":"Feature","geometry":{"type":"Point","coordinates":[-79.99361,40.3846]},"properties":{"p":"0138B00034000000","a":"OVERBROOK BLVD","m":"32nd Ward - PITTSBURGH","u":"L","o":"individual","sf":4246,"v":14800}},{"type":"Feature","geometry":{"type":"Point","coordinates":[-79.98699,40.38173]},"properties":{"p":"0138H00185000000","a":"790 STEWART AVE","m":"32nd Ward - PITTSBURGH","u":"L","o":"corp","sf":3633,"v":1300}},{"type":"Feature","geometry":{"type":"Point","coordinates":[-79.9922,40.38339]},"properties":{"p":"0138B00168000000","a":"SAINT NORBERT ST","m":"32nd Ward - PITTSBURGH","u":"L","o":"individual","sf":4415,"v":1000}},{"type":"Feature","geometry":{"type":"Point","coordinates":[-79.99208,40.3834]},"properties":{"p":"0138B00169000000","a":"SAINT NORBERT ST","m":"32nd Ward - PITTSBURGH","u":"L","o":"individual","sf":4789,"v":1000}},{"type":"Feature","geometry":{"type":"Point","coordinates":[-79.99169,40.38343]},"properties":{"p":"0138B00172000000","a":"SAINT NORBERT ST","m":"32nd Ward - PITTSBURGH","u":"L","o":"individual","sf":5622,"v":8100}},{"type":"Feature","geometry":{"type":"Point","coordinates":[-79.99143,40.38346]},"properties":{"p":"0138B00174000000","a":"SAINT NORBERT ST","m":"32nd Ward - PITTSBURGH","u":"L","o":"individual","sf":3979,"v":14400}},{"type":"Feature","geometry":{"type":"Point","coordinates":[-79.99141,40.38295]},"properties":{"p":"0138B00186000000","a":"SAINT NORBERT ST","m":"32nd Ward - PITTSBURGH","u":"L","o":"individual","sf":3352,"v":5400}},{"type":"Feature","geometry":{"type":"Point","coordinates":[-79.99945,40.3833]},"properties":{"p":"0139D00285000000","a":"MORTON ST","m":"32nd Ward - PITTSBURGH","u":"L","o":"individual","sf":3581,"v":10700}},{"type":"Feature","geometry":{"type":"Point","coordinates":[-79.99951,40.38338]},"properties":{"p":"0139D00286000000","a":"MORTON ST","m":"32nd Ward - PITTSBURGH","u":"L","o":"individual","sf":3840,"v":11500}},{"type":"Feature","geometry":{"type":"Point","coordinates":[-79.99772,40.38138]},"properties":{"p":"0138E00103000000","a":"LIBRARY RD","m":"32nd Ward - PITTSBURGH","u":"L","o":"corp","sf":4510,"v":13500}},{"type":"Feature","geometry":{"type":"Point","coordinates":[-79.99755,40.38149]},"properties":{"p":"0138E00105000000","a":"LIBRARY RD","m":"32nd Ward - PITTSBURGH","u":"L","o":"corp","sf":6314,"v":15100}},{"type":"Feature","geometry":{"type":"Point","coordinates":[-79.99104,40.3806]},"properties":{"p":"0138G00074000000","a":"53 MULLOOLY ST","m":"32nd Ward - PITTSBURGH","u":"L","o":"individual","sf":6320,"v":16100}},{"type":"Feature","geometry":{"type":"Point","coordinates":[-79.99079,40.38147]},"properties":{"p":"0138G00090000000","a":"75 MULLOOLY ST","m":"32nd Ward - PITTSBURGH","u":"L","o":"individual","sf":3754,"v":14000}},{"type":"Feature","geometry":{"type":"Point","coordinates":[-79.99474,40.37631]},"properties":{"p":"0138P00030000000","a":"ARCATA ST","m":"32nd Ward - PITTSBURGH","u":"L","o":"individual","sf":36350,"v":12800}},{"type":"Feature","geometry":{"type":"Point","coordinates":[-79.99945,40.38398]},"properties":{"p":"0138A00049000000","a":"GROVELAND ST","m":"32nd Ward - PITTSBURGH","u":"L","o":"corp","sf":3464,"v":10400}},{"type":"Feature","geometry":{"type":"Point","coordinates":[-79.99168,40.38453]},"properties":{"p":"0138B00007000000","a":"ANTENOR AVE","m":"32nd Ward - PITTSBURGH","u":"L","o":"individual","sf":5000,"v":16000}},{"type":"Feature","geometry":{"type":"Point","coordinates":[-79.99348,40.38047]},"properties":{"p":"0138F00096000000","a":"LODGE ST","m":"32nd Ward - PITTSBURGH","u":"L","o":"corp","sf":2508,"v":4000}},{"type":"Feature","geometry":{"type":"Point","coordinates":[-79.99324,40.38]},"properties":{"p":"0138F00102000000","a":"HAMPE WAY","m":"32nd Ward - PITTSBURGH","u":"L","o":"corp","sf":13072,"v":4000}},{"type":"Feature","geometry":{"type":"Point","coordinates":[-79.98779,40.38177]},"properties":{"p":"0138G00182000000","a":"790 STEWART AVE","m":"32nd Ward - PITTSBURGH","u":"L","o":"corp","sf":1820,"v":1000}},{"type":"Feature","geometry":{"type":"Point","coordinates":[-79.98747,40.38175]},"properties":{"p":"0138G00204000000","a":"790 STEWART AVE","m":"32nd Ward - PITTSBURGH","u":"L","o":"corp","sf":1699,"v":1000}},{"type":"Feature","geometry":{"type":"Point","coordinates":[-79.99689,40.37967]},"properties":{"p":"0138J00049000000","a":"HOMEHURST AVE","m":"32nd Ward - PITTSBURGH","u":"L","o":"individual","sf":5439,"v":2000}},{"type":"Feature","geometry":{"type":"Point","coordinates":[-79.9887,40.38279]},"properties":{"p":"0138C00278000100","a":"SUNNYLAND AVE","m":"32nd Ward - PITTSBURGH","u":"L","o":"individual","sf":1090,"v":400}},{"type":"Feature","geometry":{"type":"Point","coordinates":[-79.98542,40.38126]},"properties":{"p":"0138H00105000000","a":"309 HORNING ST","m":"32nd Ward - PITTSBURGH","u":"L","o":"corp","sf":83069,"v":23200}},{"type":"Feature","geometry":{"type":"Point","coordinates":[-79.99326,40.38356]},"properties":{"p":"0138B00117000000","a":"MAYTIDE ST","m":"32nd Ward - PITTSBURGH","u":"L","o":"individual","sf":3764,"v":14000}},{"type":"Feature","geometry":{"type":"Point","coordinates":[-79.99348,40.3878]},"properties":{"p":"0095K00186000000","a":"WALTON AVE","m":"32nd Ward - PITTSBURGH","u":"L","o":"corp","sf":2500,"v":900}},{"type":"Feature","geometry":{"type":"Point","coordinates":[-79.99441,40.38543]},"properties":{"p":"0095P00060000000","a":"SAW MILL RUN BLVD","m":"32nd Ward - PITTSBURGH","u":"L","o":"corp","sf":3331,"v":1100}},{"type":"Feature","geometry":{"type":"Point","coordinates":[-79.99538,40.38971]},"properties":{"p":"0095E00047000000","a":"YALE DR","m":"32nd Ward - PITTSBURGH","u":"L","o":"corp","sf":2625,"v":900}},{"type":"Feature","geometry":{"type":"Point","coordinates":[-79.99373,40.38479]},"properties":{"p":"0095P00085000000","a":"OVERBROOK BLVD","m":"32nd Ward - PITTSBURGH","u":"L","o":"individual","sf":2793,"v":4500}},{"type":"Feature","geometry":{"type":"Point","coordinates":[-79.99246,40.38725]},"properties":{"p":"0095K00221000000","a":"LUCINA AVE","m":"32nd Ward - PITTSBURGH","u":"L","o":"corp","sf":3500,"v":5600}},{"type":"Feature","geometry":{"type":"Point","coordinates":[-79.99666,40.38936]},"properties":{"p":"0095J00085000001","a":"DARTMORE ST","m":"32nd Ward - PITTSBURGH","u":"L","o":"corp","sf":2160,"v":800}},{"type":"Feature","geometry":{"type":"Point","coordinates":[-79.99662,40.38948]},"properties":{"p":"0095J00088000000","a":"DARTMORE ST","m":"32nd Ward - PITTSBURGH","u":"L","o":"corp","sf":2593,"v":900}},{"type":"Feature","geometry":{"type":"Point","coordinates":[-79.99171,40.38736]},"properties":{"p":"0095K00333000001","a":"SINTON AVE","m":"32nd Ward - PITTSBURGH","u":"L","o":"individual","sf":1734,"v":600}},{"type":"Feature","geometry":{"type":"Point","coordinates":[-79.99402,40.3878]},"properties":{"p":"0095K00161000000","a":"FAIRLAND ST","m":"32nd Ward - PITTSBURGH","u":"L","o":"corp","sf":6288,"v":8100}},{"type":"Feature","geometry":{"type":"Point","coordinates":[-79.99447,40.38648]},"properties":{"p":"0095P00039000000","a":"SAW MILL RUN BLVD","m":"32nd Ward - PITTSBURGH","u":"L","o":"individual","sf":2078,"v":700}},{"type":"Feature","geometry":{"type":"Point","coordinates":[-79.99443,40.38598]},"properties":{"p":"0095P00047000000","a":"SAW MILL RUN BLVD","m":"32nd Ward - PITTSBURGH","u":"L","o":"individual","sf":2591,"v":4200}},{"type":"Feature","geometry":{"type":"Point","coordinates":[-79.99295,40.38774]},"properties":{"p":"0095K00207000000","a":"WALTON AVE","m":"32nd Ward - PITTSBURGH","u":"L","o":"individual","sf":2850,"v":4600}},{"type":"Feature","geometry":{"type":"Point","coordinates":[-79.99621,40.38912]},"properties":{"p":"0095J00028000000","a":"QUEENSTON ST","m":"32nd Ward - PITTSBURGH","u":"L","o":"individual","sf":3001,"v":4800}},{"type":"Feature","geometry":{"type":"Point","coordinates":[-79.99399,40.38988]},"properties":{"p":"0095F00110000000","a":"WALTON AVE","m":"32nd Ward - PITTSBURGH","u":"L","o":"individual","sf":2400,"v":3800}},{"type":"Feature","geometry":{"type":"Point","coordinates":[-79.99226,40.3886]},"properties":{"p":"0095K00250000000","a":"LUCINA AVE","m":"32nd Ward - PITTSBURGH","u":"L","o":"individual","sf":3420,"v":5500}},{"type":"Feature","geometry":{"type":"Point","coordinates":[-79.99317,40.38621]},"properties":{"p":"0095P00172000000","a":"WALTON AVE","m":"32nd Ward - PITTSBURGH","u":"L","o":"individual","sf":1250,"v":2000}},{"type":"Feature","geometry":{"type":"Point","coordinates":[-79.99318,40.38625]},"properties":{"p":"0095P00172000100","a":"WALTON AVE","m":"32nd Ward - PITTSBURGH","u":"L","o":"individual","sf":1250,"v":2000}},{"type":"Feature","geometry":{"type":"Point","coordinates":[-79.9936,40.3887]},"properties":{"p":"0095K00136000000","a":"WAYSIDE ST","m":"32nd Ward - PITTSBURGH","u":"L","o":"individual","sf":5760,"v":8100}},{"type":"Feature","geometry":{"type":"Point","coordinates":[-79.99386,40.38863]},"properties":{"p":"0095K00140000000","a":"WAYSIDE ST","m":"32nd Ward - PITTSBURGH","u":"L","o":"individual","sf":5244,"v":8000}},{"type":"Feature","geometry":{"type":"Point","coordinates":[-79.99449,40.38659]},"properties":{"p":"0095P00037000000","a":"DARTMORE ST","m":"32nd Ward - PITTSBURGH","u":"L","o":"individual","sf":4300,"v":14900}},{"type":"Feature","geometry":{"type":"Point","coordinates":[-79.99983,40.38567]},"properties":{"p":"0096S00111000000","a":"GLENBURY ST","m":"32nd Ward - PITTSBURGH","u":"L","o":"corp","sf":8382,"v":30300}},{"type":"Feature","geometry":{"type":"Point","coordinates":[-79.9915,40.38595]},"properties":{"p":"0095P00278000000","a":"OVERBROOK BLVD","m":"32nd Ward - PITTSBURGH","u":"L","o":"individual","sf":3055,"v":4900}},{"type":"Feature","geometry":{"type":"Point","coordinates":[-79.99723,40.38581]},"properties":{"p":"0095N00251000000","a":"JACOB ST","m":"32nd Ward - PITTSBURGH","u":"L","o":"individual","sf":8910,"v":15400}},{"type":"Feature","geometry":{"type":"Point","coordinates":[-79.99666,40.38511]},"properties":{"p":"0095N00265000000","a":"BRIGGS ST","m":"32nd Ward - PITTSBURGH","u":"L","o":"individual","sf":3250,"v":1200}},{"type":"Feature","geometry":{"type":"Point","coordinates":[-79.99481,40.38934]},"properties":{"p":"0095K00008000000","a":"2154 FAIRLAND ST","m":"32nd Ward - PITTSBURGH","u":"L","o":"individual","sf":2750,"v":900}},{"type":"Feature","geometry":{"type":"Point","coordinates":[-79.99848,40.38549]},"properties":{"p":"0095N00115000000","a":"BRIGGS ST","m":"32nd Ward - PITTSBURGH","u":"L","o":"individual","sf":7032,"v":15000}},{"type":"Feature","geometry":{"type":"Point","coordinates":[-79.9994,40.38645]},"properties":{"p":"0095N00130000000","a":"BRIGGS ST","m":"32nd Ward - PITTSBURGH","u":"L","o":"individual","sf":9042,"v":15400}},{"type":"Feature","geometry":{"type":"Point","coordinates":[-79.99184,40.38704]},"properties":{"p":"0095P00248000000","a":"ARISTON AVE","m":"32nd Ward - PITTSBURGH","u":"L","o":"individual","sf":5050,"v":16000}},{"type":"Feature","geometry":{"type":"Point","coordinates":[-79.99476,40.38726]},"properties":{"p":"0095K00089000000","a":"SAW MILL RUN BLVD","m":"32nd Ward - PITTSBURGH","u":"L","o":"individual","sf":13500,"v":16800}},{"type":"Feature","geometry":{"type":"Point","coordinates":[-79.99458,40.38761]},"properties":{"p":"0095K00102000000","a":"FAIRLAND ST","m":"32nd Ward - PITTSBURGH","u":"L","o":"individual","sf":3000,"v":1000}},{"type":"Feature","geometry":{"type":"Point","coordinates":[-79.99911,40.38798]},"properties":{"p":"0095J00313000000","a":"JACOB ST","m":"32nd Ward - PITTSBURGH","u":"L","o":"individual","sf":13432,"v":30800}},{"type":"Feature","geometry":{"type":"Point","coordinates":[-79.99719,40.38485]},"properties":{"p":"0095N00097000000","a":"BRIGGS ST","m":"32nd Ward - PITTSBURGH","u":"L","o":"individual","sf":8280,"v":30300}},{"type":"Feature","geometry":{"type":"Point","coordinates":[-79.99234,40.38552]},"properties":{"p":"0095P00218000000","a":"OVERBROOK BLVD","m":"32nd Ward - PITTSBURGH","u":"L","o":"individual","sf":418,"v":700}},{"type":"Feature","geometry":{"type":"Point","coordinates":[-79.99431,40.38894]},"properties":{"p":"0095K00058000000","a":"QUEENSTON ST","m":"32nd Ward - PITTSBURGH","u":"L","o":"individual","sf":7301,"v":8200}},{"type":"Feature","geometry":{"type":"Point","coordinates":[-79.99476,40.38877]},"properties":{"p":"0095K00067000100","a":"2209 FAIRLAND ST","m":"32nd Ward - PITTSBURGH","u":"L","o":"individual","sf":475,"v":800}},{"type":"Feature","geometry":{"type":"Point","coordinates":[-79.99789,40.3861]},"properties":{"p":"0095N00204000000","a":"JACOB ST","m":"32nd Ward - PITTSBURGH","u":"L","o":"individual","sf":8000,"v":30300}},{"type":"Feature","geometry":{"type":"Point","coordinates":[-79.99895,40.38523]},"properties":{"p":"0095N00022000000","a":"SELDON ST","m":"32nd Ward - PITTSBURGH","u":"L","o":"corp","sf":4191,"v":2600}},{"type":"Feature","geometry":{"type":"Point","coordinates":[-79.9988,40.38516]},"properties":{"p":"0095N00023000000","a":"SELDON PL","m":"32nd Ward - PITTSBURGH","u":"L","o":"corp","sf":8382,"v":30300}},{"type":"Feature","geometry":{"type":"Point","coordinates":[-79.99845,40.38498]},"properties":{"p":"0095N00029000000","a":"SELDON PL","m":"32nd Ward - PITTSBURGH","u":"L","o":"corp","sf":3810,"v":2400}},{"type":"Feature","geometry":{"type":"Point","coordinates":[-79.99823,40.38488]},"properties":{"p":"0095N00032000000","a":"SELDON ST","m":"32nd Ward - PITTSBURGH","u":"L","o":"individual","sf":3810,"v":11400}},{"type":"Feature","geometry":{"type":"Point","coordinates":[-79.99238,40.38551]},"properties":{"p":"0095P00217000000","a":"OVERBROOK BLVD","m":"32nd Ward - PITTSBURGH","u":"L","o":"individual","sf":2693,"v":4300}},{"type":"Feature","geometry":{"type":"Point","coordinates":[-79.99291,40.38911]},"properties":{"p":"0095K00041000000","a":"LUCINA AVE","m":"32nd Ward - PITTSBURGH","u":"L","o":"individual","sf":4802,"v":7700}},{"type":"Feature","geometry":{"type":"Point","coordinates":[-79.9975,40.38547]},"properties":{"p":"0095N00157000000","a":"BRIGGS ST","m":"32nd Ward - PITTSBURGH","u":"L","o":"individual","sf":6080,"v":2200}},{"type":"Feature","geometry":{"type":"Point","coordinates":[-79.99271,40.38884]},"properties":{"p":"0095K00125000000","a":"LUCINA AVE","m":"32nd Ward - PITTSBURGH","u":"L","o":"individual","sf":3163,"v":5100}},{"type":"Feature","geometry":{"type":"Point","coordinates":[-79.9823,40.37917]},"properties":{"p":"0137J00162000000","a":"KAPLAN AVE","m":"Brentwood","u":"L","o":"individual","sf":31135,"v":9400}},{"type":"Feature","geometry":{"type":"Point","coordinates":[-79.98274,40.37912]},"properties":{"p":"0137J00170000000","a":"KAPLAN AVE","m":"Brentwood","u":"L","o":"individual","sf":39823,"v":10100}},{"type":"Feature","geometry":{"type":"Point","coordinates":[-79.98288,40.37646]},"properties":{"p":"0137N00305000000","a":"LEOLA AVE","m":"Brentwood","u":"L","o":"corp","sf":41556,"v":17300}},{"type":"Feature","geometry":{"type":"Point","coordinates":[-79.98368,40.37161]},"properties":{"p":"0188E00020000000","a":"MARYLEA AVE","m":"Brentwood","u":"L","o":"individual","sf":81022,"v":20800}},{"type":"Feature","geometry":{"type":"Point","coordinates":[-79.98269,40.37958]},"properties":{"p":"0137J00132000000","a":"KAPLAN AVE","m":"Brentwood","u":"L","o":"individual","sf":1779,"v":600}},{"type":"Feature","geometry":{"type":"Point","coordinates":[-79.9954,40.37144]},"properties":{"p":"0189E00235000000","a":"PROVOST RD","m":"Whitehall","u":"L","o":"individual","sf":21925,"v":2900}},{"type":"Feature","geometry":{"type":"Point","coordinates":[-79.9956,40.3715]},"properties":{"p":"0189E00235000100","a":"SHADOWLAWN DR","m":"Whitehall","u":"L","o":"corp","sf":1250,"v":200}},{"type":"Feature","geometry":{"type":"Point","coordinates":[-79.99679,40.37113]},"properties":{"p":"0189E00255000000","a":"SHADOWLAWN DR","m":"Whitehall","u":"L","o":"corp","sf":6926,"v":900}},{"type":"Feature","geometry":{"type":"Point","coordinates":[-79.99604,40.37051]},"properties":{"p":"0189E00265000000","a":"SHADOWLAWN DR","m":"Whitehall","u":"L","o":"corp","sf":22991,"v":3000}},{"type":"Feature","geometry":{"type":"Point","coordinates":[-79.99515,40.37059]},"properties":{"p":"0189E00275000000","a":"SHADOWLAWN DR","m":"Whitehall","u":"L","o":"corp","sf":12830,"v":1700}},{"type":"Feature","geometry":{"type":"Point","coordinates":[-79.99569,40.37138]},"properties":{"p":"0189E00279000000","a":"SHADOWLAWN DR","m":"Whitehall","u":"L","o":"individual","sf":511,"v":100}},{"type":"Feature","geometry":{"type":"Point","coordinates":[-79.99552,40.3717]},"properties":{"p":"0189E00281000000","a":"SHADOWLAWN DR","m":"Whitehall","u":"L","o":"individual","sf":243,"v":0}},{"type":"Feature","geometry":{"type":"Point","coordinates":[-79.99643,40.37063]},"properties":{"p":"0189E00294000000","a":"HEINEN WAY","m":"Whitehall","u":"L","o":"individual","sf":5180,"v":700}},{"type":"Feature","geometry":{"type":"Point","coordinates":[-79.98973,40.37119]},"properties":{"p":"0189G00058000000","a":"GLOWOOD DR","m":"Whitehall","u":"L","o":"individual","sf":9104,"v":8000}},{"type":"Feature","geometry":{"type":"Point","coordinates":[-79.98979,40.37421]},"properties":{"p":"0189C00110000000","a":"MOREA DR","m":"Whitehall","u":"L","o":"individual","sf":6612,"v":900}},{"type":"Feature","geometry":{"type":"Point","coordinates":[-79.99692,40.37071]},"properties":{"p":"0189E00176000000","a":"HEINEN WAY","m":"Whitehall","u":"L","o":"individual","sf":740,"v":100}},{"type":"Feature","geometry":{"type":"Point","coordinates":[-79.99697,40.37086]},"properties":{"p":"0189E00177000000","a":"WEYMAN RD","m":"Whitehall","u":"L","o":"individual","sf":624,"v":100}},{"type":"Feature","geometry":{"type":"Point","coordinates":[-79.99705,40.37088]},"properties":{"p":"0189E00183000000","a":"WEYMAN RD","m":"Whitehall","u":"L","o":"individual","sf":273,"v":100}},{"type":"Feature","geometry":{"type":"Point","coordinates":[-79.98842,40.37283]},"properties":{"p":"0189C00014000000","a":"556 GLOWOOD DR","m":"Whitehall","u":"L","o":"individual","sf":1914,"v":300}},{"type":"Feature","geometry":{"type":"Point","coordinates":[-79.98841,40.37293]},"properties":{"p":"0189C00024000000","a":"GREENLEE RD","m":"Whitehall","u":"L","o":"individual","sf":1588,"v":200}},{"type":"Feature","geometry":{"type":"Point","coordinates":[-79.98804,40.37316]},"properties":{"p":"0189C00027000000","a":"GREENLEE RD","m":"Whitehall","u":"L","o":"individual","sf":3862,"v":500}},{"type":"Feature","geometry":{"type":"Point","coordinates":[-79.99388,40.37621]},"properties":{"p":"0138P00120000000","a":"PROVOST RD","m":"Whitehall","u":"L","o":"individual","sf":4000,"v":36600}},{"type":"Feature","geometry":{"type":"Point","coordinates":[-79.9906,40.37527]},"properties":{"p":"0138P00350000000","a":"BEL AIR DR","m":"Whitehall","u":"L","o":"corp","sf":14993,"v":2000}},{"type":"Feature","geometry":{"type":"Point","coordinates":[-79.9916,40.3729]},"properties":{"p":"0189F00100000000","a":"GREENLEE RD","m":"Whitehall","u":"L","o":"individual","sf":45041,"v":59200}},{"type":"Feature","geometry":{"type":"Point","coordinates":[-79.9848,40.37208]},"properties":{"p":"0189H00138000000","a":"MARYLEA AVE","m":"Whitehall","u":"L","o":"individual","sf":557,"v":100}},{"type":"Feature","geometry":{"type":"Point","coordinates":[-79.98482,40.37219]},"properties":{"p":"0189H00139000000","a":"GLOWOOD DR","m":"Whitehall","u":"L","o":"corp","sf":2324,"v":300}},{"type":"Feature","geometry":{"type":"Point","coordinates":[-79.99515,40.37345]},"properties":{"p":"0189B00125000000","a":"PROVOST RD","m":"Whitehall","u":"L","o":"corp","sf":20736,"v":1000}},{"type":"Feature","geometry":{"type":"Point","coordinates":[-79.99085,40.37438]},"properties":{"p":"0189C00160000000","a":"PROVOST RD","m":"Whitehall","u":"L","o":"individual","sf":87164,"v":11000}},{"type":"Feature","geometry":{"type":"Point","coordinates":[-79.98952,40.37326]},"properties":{"p":"0189C00178000000","a":"WOODVUE DR","m":"Whitehall","u":"L","o":"individual","sf":5502,"v":700}},{"type":"Feature","geometry":{"type":"Point","coordinates":[-79.99125,40.37486]},"properties":{"p":"0138P00194000000","a":"BEL AIR DR","m":"Whitehall","u":"L","o":"individual","sf":11692,"v":54300}},{"type":"Feature","geometry":{"type":"Point","coordinates":[-79.99048,40.37349]},"properties":{"p":"0189C00188000000","a":"GREENLEE RD","m":"Whitehall","u":"L","o":"individual","sf":11999,"v":55000}},{"type":"Feature","geometry":{"type":"Point","coordinates":[-79.99609,40.37167]},"properties":{"p":"0189E00308000000","a":"SHADOWLAWN DR","m":"Whitehall","u":"L","o":"corp","sf":4010,"v":500}},{"type":"Feature","geometry":{"type":"Point","coordinates":[-79.99551,40.37307]},"properties":{"p":"0189A00010000000","a":"WEYMAN RD","m":"Whitehall","u":"L","o":"individual","sf":4850,"v":600}},{"type":"Feature","geometry":{"type":"Point","coordinates":[-79.98497,40.37238]},"properties":{"p":"0189D00220000000","a":"GLOWOOD DR","m":"Whitehall","u":"L","o":"individual","sf":1707,"v":200}},{"type":"Feature","geometry":{"type":"Point","coordinates":[-79.9921,40.37331]},"properties":{"p":"0189B00050000000","a":"PROVOST RD","m":"Whitehall","u":"L","o":"individual","sf":83635,"v":1900}},{"type":"Feature","geometry":{"type":"Point","coordinates":[-79.99396,40.37368]},"properties":{"p":"0189B00095000000","a":"2901 PROVOST RD","m":"Whitehall","u":"L","o":"corp","sf":176949,"v":22300}},{"type":"Feature","geometry":{"type":"Point","coordinates":[-79.99282,40.37452]},"properties":{"p":"0189B00102000000","a":"PROVOST RD","m":"Whitehall","u":"L","o":"individual","sf":19690,"v":2600}},{"type":"Feature","geometry":{"type":"Point","coordinates":[-79.99368,40.37439]},"properties":{"p":"0189B00105000000","a":"PROVOST RD","m":"Whitehall","u":"L","o":"individual","sf":36672,"v":6000}},{"type":"Feature","geometry":{"type":"Point","coordinates":[-79.99596,40.3725]},"properties":{"p":"0189E00200000000","a":"WEYMAN RD","m":"Whitehall","u":"L","o":"individual","sf":56628,"v":700}},{"type":"Feature","geometry":{"type":"Point","coordinates":[-79.99496,40.3719]},"properties":{"p":"0189F00265000000","a":"SHADOWLAWN DR","m":"Whitehall","u":"L","o":"corp","sf":6342,"v":800}},{"type":"Feature","geometry":{"type":"Point","coordinates":[-79.99517,40.37157]},"properties":{"p":"0189F00280000000","a":"PROVOST RD","m":"Whitehall","u":"L","o":"individual","sf":21757,"v":28800}},{"type":"Feature","geometry":{"type":"Point","coordinates":[-79.99275,40.37059]},"properties":{"p":"0189F00042000000","a":"GREENLEE RD","m":"Whitehall","u":"L","o":"individual","sf":9000,"v":48100}},{"type":"Feature","geometry":{"type":"Point","coordinates":[-79.99864,40.37357]},"properties":{"p":"0189A00140000000","a":"SKYVUE DR","m":"Whitehall","u":"L","o":"individual","sf":15572,"v":25000}},{"type":"Feature","geometry":{"type":"Point","coordinates":[-79.99147,40.37362]},"properties":{"p":"0189B00030000000","a":"PROVOST RD","m":"Whitehall","u":"L","o":"individual","sf":107506,"v":36300}},{"type":"Feature","geometry":{"type":"Point","coordinates":[-79.99438,40.38727]},"properties":{"p":"0095K00099000000","a":"2236 FAIRLAND ST","m":"32nd Ward - PITTSBURGH","u":"L","o":"individual","sf":6000,"v":8100}},{"type":"Feature","geometry":{"type":"Point","coordinates":[-79.98079,40.38546]},"properties":{"p":"0094N00195000000","a":"EDGAR ST","m":"29th Ward - PITTSBURGH","u":"L","o":"individual","sf":9702,"v":14400}},{"type":"Feature","geometry":{"type":"Point","coordinates":[-79.98787,40.37484]},"properties":{"p":"0189C00060000000","a":"BEL AIR DR","m":"Whitehall","u":"L","o":"individual","sf":8483,"v":1100}},{"type":"Feature","geometry":{"type":"Point","coordinates":[-79.99441,40.3855]},"properties":{"p":"0095P00058000000","a":"SAW MILL RUN BLVD","m":"32nd Ward - PITTSBURGH","u":"L","o":"individual","sf":3225,"v":1100}},{"type":"Feature","geometry":{"type":"Point","coordinates":[-79.99587,40.37712]},"properties":{"p":"0138N00095000000","a":"HILLVIEW ST","m":"32nd Ward - PITTSBURGH","u":"L","o":"individual","sf":14650,"v":15900}},{"type":"Feature","geometry":{"type":"Point","coordinates":[-79.99158,40.38297]},"properties":{"p":"0138B00188000000","a":"SAINT NORBERT ST","m":"32nd Ward - PITTSBURGH","u":"L","o":"individual","sf":3240,"v":5200}},{"type":"Feature","geometry":{"type":"Point","coordinates":[-79.99156,40.38342]},"properties":{"p":"0138B00173000000","a":"SAINT NORBERT ST","m":"32nd Ward - PITTSBURGH","u":"L","o":"individual","sf":5568,"v":8100}},{"type":"Feature","geometry":{"type":"Point","coordinates":[-79.98789,40.38183]},"properties":{"p":"0138G00002000000","a":"11 ESTHER ST","m":"29th Ward - PITTSBURGH","u":"L","o":"individual","sf":849,"v":1200}},{"type":"Feature","geometry":{"type":"Point","coordinates":[-79.98018,40.37688]},"properties":{"p":"0137N00230000000","a":"LAVETON AVE","m":"Brentwood","u":"L","o":"individual","sf":7544,"v":14200}},{"type":"Feature","geometry":{"type":"Point","coordinates":[-79.98083,40.38947]},"properties":{"p":"0094J00085000000","a":"GLENROY ST","m":"29th Ward - PITTSBURGH","u":"L","o":"individual","sf":3275,"v":1100}},{"type":"Feature","geometry":{"type":"Point","coordinates":[-79.99976,40.38502]},"properties":{"p":"0096S00183000000","a":"GROVELAND ST","m":"32nd Ward - PITTSBURGH","u":"L","o":"individual","sf":3930,"v":11800}},{"type":"Feature","geometry":{"type":"Point","coordinates":[-79.99555,40.37227]},"properties":{"p":"0189E00330000000","a":"SHADOWLAWN DR","m":"Whitehall","u":"L","o":"corp","sf":1932,"v":300}},{"type":"Feature","geometry":{"type":"Point","coordinates":[-79.99278,40.38303]},"properties":{"p":"0138B00207000000","a":"SAINT NORBERT ST","m":"32nd Ward - PITTSBURGH","u":"L","o":"individual","sf":2070,"v":700}},{"type":"Feature","geometry":{"type":"Point","coordinates":[-79.98337,40.38956]},"properties":{"p":"0095M00075000000","a":"BECKS RUN RD","m":"29th Ward - PITTSBURGH","u":"L","o":"corp","sf":16750,"v":5100}},{"type":"Feature","geometry":{"type":"Point","coordinates":[-79.98547,40.38392]},"properties":{"p":"0138D00158000000","a":"328 MERRITT AVE","m":"29th Ward - PITTSBURGH","u":"L","o":"individual","sf":3125,"v":4400}},{"type":"Feature","geometry":{"type":"Point","coordinates":[-79.99368,40.37713]},"properties":{"p":"0138P00122000000","a":"PROVOST RD","m":"Whitehall","u":"L","o":"individual","sf":2625,"v":300}},{"type":"Feature","geometry":{"type":"Point","coordinates":[-79.99442,40.38373]},"properties":{"p":"0138B00132000000","a":"MAYTIDE ST","m":"32nd Ward - PITTSBURGH","u":"L","o":"individual","sf":900,"v":1400}},{"type":"Feature","geometry":{"type":"Point","coordinates":[-79.99133,40.37906]},"properties":{"p":"0138K00160000000","a":"MULLOOLY ST","m":"32nd Ward - PITTSBURGH","u":"L","o":"corp","sf":18382,"v":17200}},{"type":"Feature","geometry":{"type":"Point","coordinates":[-79.99382,40.37008]},"properties":{"p":"0189F00145000000","a":"PROVOST RD","m":"Whitehall","u":"L","o":"individual","sf":41817,"v":16000}},{"type":"Feature","geometry":{"type":"Point","coordinates":[-79.99288,40.38303]},"properties":{"p":"0138B00208000000","a":"SAINT NORBERT ST","m":"32nd Ward - PITTSBURGH","u":"L","o":"individual","sf":3240,"v":13200}}]}