{"type":"FeatureCollection","features":[{"type":"Feature","geometry":{"type":"Point","coordinates":[-79.98854,40.50505]},"properties":{"p":"0219L00218000100","a":"CHURCH RD","m":"Ross","u":"I","o":"corp","sf":61,"v":100}},{"type":"Feature","geometry":{"type":"Point","coordinates":[-79.9899,40.50585]},"properties":{"p":"0219L00050000000","a":"BABCOCK BLVD","m":"Ross","u":"C","o":"corp","sf":49610,"v":2100}},{"type":"Feature","geometry":{"type":"Point","coordinates":[-79.98985,40.50506]},"properties":{"p":"0219L00082000000","a":"1919 BABCOCK BLVD","m":"Ross","u":"C","o":"corp","sf":3975,"v":1400}},{"type":"Feature","geometry":{"type":"Point","coordinates":[-79.98769,40.50341]},"properties":{"p":"0219R00016000000","a":"EVERGREEN RD","m":"Ross","u":"C","o":"corp","sf":1437,"v":300}},{"type":"Feature","geometry":{"type":"Point","coordinates":[-79.99107,40.50632]},"properties":{"p":"0219G00260000000","a":"1937 BABCOCK BLVD","m":"Ross","u":"C","o":"corp","sf":37432,"v":134000}},{"type":"Feature","geometry":{"type":"Point","coordinates":[-79.99689,40.50619]},"properties":{"p":"0219E00026000000","a":"4641 PEOPLES RD","m":"Ross","u":"C","o":"individual","sf":17931,"v":7200}},{"type":"Feature","geometry":{"type":"Point","coordinates":[-79.99342,40.50632]},"properties":{"p":"0219K00042000000","a":"PEOPLES RD","m":"Ross","u":"C","o":"individual","sf":23435,"v":9400}},{"type":"Feature","geometry":{"type":"Point","coordinates":[-79.98341,40.50157]},"properties":{"p":"0219S00300000000","a":"1805 BABCOCK BLVD","m":"Shaler","u":"C","o":"corp","sf":4670,"v":1400}},{"type":"Feature","geometry":{"type":"Point","coordinates":[-79.98544,40.50139]},"properties":{"p":"0219S00340000000","a":"BABCOCK BLVD","m":"Shaler","u":"C","o":"corp","sf":11472,"v":3400}},{"type":"Feature","geometry":{"type":"Point","coordinates":[-79.99014,40.50768]},"properties":{"p":"0219G00342000000","a":"BABCOCK BLVD","m":"Ross","u":"C","o":"individual","sf":92523,"v":33000}},{"type":"Feature","geometry":{"type":"Point","coordinates":[-79.98278,40.50113]},"properties":{"p":"0220N00022000000","a":"BABCOCK BLVD","m":"Shaler","u":"C","o":"corp","sf":7500,"v":2000}},{"type":"Feature","geometry":{"type":"Point","coordinates":[-79.99824,40.49063]},"properties":{"p":"0117A00086000000","a":"RAMAGE RD","m":"Reserve","u":"L","o":"individual","sf":6402,"v":2300}},{"type":"Feature","geometry":{"type":"Point","coordinates":[-79.98823,40.50818]},"properties":{"p":"0219G00075000000","a":"HOFFMAN BLVD","m":"Ross","u":"L","o":"individual","sf":3800,"v":1400}},{"type":"Feature","geometry":{"type":"Point","coordinates":[-79.9989,40.50101]},"properties":{"p":"0164A00012000000","a":"OESTERLE LN","m":"Ross","u":"L","o":"individual","sf":6250,"v":2300}},{"type":"Feature","geometry":{"type":"Point","coordinates":[-79.98783,40.50783]},"properties":{"p":"0219G00108000000","a":"HOFFMAN BLVD","m":"Ross","u":"L","o":"individual","sf":2000,"v":800}},{"type":"Feature","geometry":{"type":"Point","coordinates":[-79.991,40.50107]},"properties":{"p":"0164C00120000000","a":"SCHUETZEN PARK RD","m":"Ross","u":"L","o":"corp","sf":261360,"v":60600}},{"type":"Feature","geometry":{"type":"Point","coordinates":[-79.99628,40.49989]},"properties":{"p":"0164E00050000000","a":"4465 MOUNT TROY RD EXT","m":"Ross","u":"L","o":"individual","sf":698005,"v":20000}},{"type":"Feature","geometry":{"type":"Point","coordinates":[-79.99996,40.50102]},"properties":{"p":"0163D00234000000","a":"MARY ST","m":"Ross","u":"L","o":"individual","sf":2653,"v":1000}},{"type":"Feature","geometry":{"type":"Point","coordinates":[-79.99408,40.49232]},"properties":{"p":"0164P00073000000","a":"MOUNT TROY RD","m":"Reserve","u":"L","o":"individual","sf":348,"v":200}},{"type":"Feature","geometry":{"type":"Point","coordinates":[-79.9941,40.49239]},"properties":{"p":"0164P00074000000","a":"MOUNT TROY RD","m":"Reserve","u":"L","o":"individual","sf":514,"v":300}},{"type":"Feature","geometry":{"type":"Point","coordinates":[-79.99637,40.49035]},"properties":{"p":"0117A00080000100","a":"SPRING GARDEN RD","m":"Reserve","u":"L","o":"individual","sf":36198,"v":22800}},{"type":"Feature","geometry":{"type":"Point","coordinates":[-79.99434,40.49169]},"properties":{"p":"0164P00038000200","a":"MOUNT TROY RD","m":"Reserve","u":"L","o":"individual","sf":574,"v":300}},{"type":"Feature","geometry":{"type":"Point","coordinates":[-79.99404,40.49193]},"properties":{"p":"0164P00040000100","a":"MOUNT TROY RD","m":"Reserve","u":"L","o":"individual","sf":71,"v":100}},{"type":"Feature","geometry":{"type":"Point","coordinates":[-79.9916,40.49248]},"properties":{"p":"0164P00043000000","a":"HOFFMAN RD","m":"Reserve","u":"L","o":"individual","sf":64033,"v":9500}},{"type":"Feature","geometry":{"type":"Point","coordinates":[-79.99001,40.49231]},"properties":{"p":"0164R00092000000","a":"HOFFMAN RD","m":"Reserve","u":"L","o":"corp","sf":17424,"v":18600}},{"type":"Feature","geometry":{"type":"Point","coordinates":[-79.98715,40.49067]},"properties":{"p":"0117C00016000000","a":"410 IRWIN LN","m":"Reserve","u":"L","o":"individual","sf":4175,"v":1600}},{"type":"Feature","geometry":{"type":"Point","coordinates":[-79.98742,40.49143]},"properties":{"p":"0117C00078000000","a":"HOFFMAN RD","m":"Reserve","u":"L","o":"individual","sf":1500,"v":600}},{"type":"Feature","geometry":{"type":"Point","coordinates":[-79.99995,40.49376]},"properties":{"p":"0116D00058000A00","a":"MAPLEWOOD DR","m":"Reserve","u":"L","o":"corp","sf":6659,"v":12000}},{"type":"Feature","geometry":{"type":"Point","coordinates":[-79.99086,40.49233]},"properties":{"p":"0164R00102000000","a":"284 HOFFMAN RD","m":"Reserve","u":"L","o":"individual","sf":3930,"v":1500}},{"type":"Feature","geometry":{"type":"Point","coordinates":[-79.98569,40.50171]},"properties":{"p":"0164C00045000000","a":"GEYER RD","m":"Reserve","u":"L","o":"individual","sf":7754,"v":2800}},{"type":"Feature","geometry":{"type":"Point","coordinates":[-79.98651,40.50107]},"properties":{"p":"0164D00025000000","a":"10 LOCKHART LN","m":"Reserve","u":"L","o":"individual","sf":204488,"v":53300}},{"type":"Feature","geometry":{"type":"Point","coordinates":[-79.99064,40.49674]},"properties":{"p":"0164G00100000000","a":"GEYER RD EXT","m":"Reserve","u":"L","o":"corp","sf":130680,"v":13100}},{"type":"Feature","geometry":{"type":"Point","coordinates":[-79.99939,40.49471]},"properties":{"p":"0163M00048000000","a":"TROY HILL RD","m":"Reserve","u":"L","o":"corp","sf":20295,"v":36400}},{"type":"Feature","geometry":{"type":"Point","coordinates":[-79.99365,40.49425]},"properties":{"p":"0164K00111000000","a":"817 GEYER RD EXT","m":"Reserve","u":"L","o":"individual","sf":706,"v":300}},{"type":"Feature","geometry":{"type":"Point","coordinates":[-79.99738,40.49232]},"properties":{"p":"0164N00106000000","a":"RAMAGE RD","m":"Reserve","u":"L","o":"individual","sf":8700,"v":3100}},{"type":"Feature","geometry":{"type":"Point","coordinates":[-79.99638,40.49221]},"properties":{"p":"0164N00120000000","a":"4200 SPRING GARDEN RD","m":"Reserve","u":"L","o":"individual","sf":13713,"v":10800}},{"type":"Feature","geometry":{"type":"Point","coordinates":[-79.99948,40.49319]},"properties":{"p":"0164N00190000000","a":"RAMAGE RD","m":"Reserve","u":"L","o":"individual","sf":76814,"v":24100}},{"type":"Feature","geometry":{"type":"Point","coordinates":[-79.99405,40.49262]},"properties":{"p":"0164P00076000000","a":"PRIVATE RD","m":"Reserve","u":"L","o":"corp","sf":2439,"v":1000}},{"type":"Feature","geometry":{"type":"Point","coordinates":[-79.99372,40.49241]},"properties":{"p":"0164P00078000000","a":"3802 MOUNT TROY RD","m":"Reserve","u":"L","o":"individual","sf":1374,"v":600}},{"type":"Feature","geometry":{"type":"Point","coordinates":[-79.9841,40.49163]},"properties":{"p":"0164S00040000000","a":"IRWIN LN","m":"Reserve","u":"L","o":"individual","sf":261360,"v":6000}},{"type":"Feature","geometry":{"type":"Point","coordinates":[-79.98326,40.49303]},"properties":{"p":"0164S00075000000","a":"GEYER RD","m":"Reserve","u":"L","o":"individual","sf":15422,"v":2300}},{"type":"Feature","geometry":{"type":"Point","coordinates":[-79.9834,40.49335]},"properties":{"p":"0164S00080000000","a":"GEYER RD","m":"Reserve","u":"L","o":"individual","sf":9687,"v":3500}},{"type":"Feature","geometry":{"type":"Point","coordinates":[-79.98389,40.49302]},"properties":{"p":"0164S00085000000","a":"GEYER RD","m":"Reserve","u":"L","o":"individual","sf":108421,"v":10000}},{"type":"Feature","geometry":{"type":"Point","coordinates":[-79.98689,40.50783]},"properties":{"p":"0219H00034000000","a":"HOFFMAN BLVD","m":"Ross","u":"L","o":"individual","sf":657,"v":300}},{"type":"Feature","geometry":{"type":"Point","coordinates":[-79.99719,40.50565]},"properties":{"p":"0219J00034000000","a":"PEOPLES RD","m":"Ross","u":"L","o":"individual","sf":7325,"v":2700}},{"type":"Feature","geometry":{"type":"Point","coordinates":[-79.99728,40.50557]},"properties":{"p":"0219J00036000000","a":"EVERGREEN RD","m":"Ross","u":"L","o":"individual","sf":3375,"v":1300}},{"type":"Feature","geometry":{"type":"Point","coordinates":[-79.99735,40.50547]},"properties":{"p":"0219J00040000000","a":"PEOPLES RD","m":"Ross","u":"L","o":"individual","sf":5652,"v":2100}},{"type":"Feature","geometry":{"type":"Point","coordinates":[-79.99747,40.50543]},"properties":{"p":"0219J00044000000","a":"PEOPLES RD","m":"Ross","u":"L","o":"individual","sf":4455,"v":1700}},{"type":"Feature","geometry":{"type":"Point","coordinates":[-79.99827,40.50535]},"properties":{"p":"0219J00105000000","a":"PEOPLES RD","m":"Ross","u":"L","o":"individual","sf":196020,"v":4600}},{"type":"Feature","geometry":{"type":"Point","coordinates":[-79.99865,40.50402]},"properties":{"p":"0219J00145000000","a":"PEOPLES TOWNSHIP RD","m":"Ross","u":"L","o":"corp","sf":160736,"v":54300}},{"type":"Feature","geometry":{"type":"Point","coordinates":[-79.99944,40.50557]},"properties":{"p":"0219J00150000000","a":"RENFER ST","m":"Ross","u":"L","o":"individual","sf":82720,"v":7600}},{"type":"Feature","geometry":{"type":"Point","coordinates":[-79.99668,40.50978]},"properties":{"p":"0219A00220000000","a":"BROOKVIEW LN","m":"Ross","u":"L","o":"individual","sf":235660,"v":5200}},{"type":"Feature","geometry":{"type":"Point","coordinates":[-79.99195,40.50648]},"properties":{"p":"0219F00112000000","a":"ROCK RIDGE RD","m":"Ross","u":"L","o":"corp","sf":4130,"v":1500}},{"type":"Feature","geometry":{"type":"Point","coordinates":[-79.99411,40.50636]},"properties":{"p":"0219F00132000000","a":"PEOPLES RD","m":"Ross","u":"L","o":"individual","sf":8275,"v":3000}},{"type":"Feature","geometry":{"type":"Point","coordinates":[-79.99953,40.50686]},"properties":{"p":"0219E00105000000","a":"NELSON RUN RD","m":"Ross","u":"L","o":"corp","sf":181210,"v":46200}},{"type":"Feature","geometry":{"type":"Point","coordinates":[-79.99851,40.50783]},"properties":{"p":"0219E00150000000","a":"NELSON RUN RD","m":"Ross","u":"L","o":"individual","sf":17585,"v":6300}},{"type":"Feature","geometry":{"type":"Point","coordinates":[-79.99686,40.50753]},"properties":{"p":"0219E00178000000","a":"NELSON RUN RD","m":"Ross","u":"L","o":"individual","sf":34698,"v":8000}},{"type":"Feature","geometry":{"type":"Point","coordinates":[-79.99435,40.50618]},"properties":{"p":"0219K00048000000","a":"PEOPLES RD","m":"Ross","u":"L","o":"individual","sf":18308,"v":6500}},{"type":"Feature","geometry":{"type":"Point","coordinates":[-79.99819,40.50169]},"properties":{"p":"0219N00140000000","a":"112 OESTERLE LN","m":"Ross","u":"L","o":"individual","sf":29034,"v":10300}},{"type":"Feature","geometry":{"type":"Point","coordinates":[-79.99772,40.50155]},"properties":{"p":"0219N00290000000","a":"122 OESTERLE LN","m":"Ross","u":"L","o":"corp","sf":12309,"v":4400}},{"type":"Feature","geometry":{"type":"Point","coordinates":[-79.99732,40.50496]},"properties":{"p":"0219J00195000000","a":"4620 PEOPLES TOWNSHIP RD","m":"Ross","u":"L","o":"individual","sf":19950,"v":41400}},{"type":"Feature","geometry":{"type":"Point","coordinates":[-79.99652,40.50552]},"properties":{"p":"0219J00220000000","a":"EVERGREEN RD","m":"Ross","u":"L","o":"individual","sf":2330,"v":900}},{"type":"Feature","geometry":{"type":"Point","coordinates":[-79.99635,40.5051]},"properties":{"p":"0219J00340000000","a":"PEOPLES TOWNSHIP RD","m":"Ross","u":"L","o":"individual","sf":10820,"v":3900}},{"type":"Feature","geometry":{"type":"Point","coordinates":[-79.99739,40.5063]},"properties":{"p":"0219E00038000000","a":"NELSON RUN RD","m":"Ross","u":"L","o":"individual","sf":24829,"v":21800}},{"type":"Feature","geometry":{"type":"Point","coordinates":[-79.9942,40.50997]},"properties":{"p":"0219B00094000000","a":"BABCOCK BLVD","m":"Ross","u":"L","o":"individual","sf":235660,"v":3200}},{"type":"Feature","geometry":{"type":"Point","coordinates":[-79.98552,40.50383]},"properties":{"p":"0219M00236000000","a":"SILVER REEL AVE","m":"Shaler","u":"L","o":"individual","sf":3900,"v":1500}},{"type":"Feature","geometry":{"type":"Point","coordinates":[-79.98019,40.50613]},"properties":{"p":"0220E00222000000","a":"CAMBRIA PT","m":"Shaler","u":"L","o":"individual","sf":18320,"v":45600}},{"type":"Feature","geometry":{"type":"Point","coordinates":[-79.98006,40.50377]},"properties":{"p":"0220J00127000000","a":"MATHILDA ST","m":"Shaler","u":"L","o":"individual","sf":1000,"v":500}},{"type":"Feature","geometry":{"type":"Point","coordinates":[-79.98228,40.50866]},"properties":{"p":"0219H00175000000","a":"FIELDCREST DR","m":"Shaler","u":"L","o":"individual","sf":31363,"v":46900}},{"type":"Feature","geometry":{"type":"Point","coordinates":[-79.98448,40.50664]},"properties":{"p":"0219H00221000000","a":"GREENHILL RD","m":"Shaler","u":"L","o":"individual","sf":18912,"v":45700}},{"type":"Feature","geometry":{"type":"Point","coordinates":[-79.98382,40.50656]},"properties":{"p":"0219H00241000000","a":"JEFFERSON AVE","m":"Shaler","u":"L","o":"individual","sf":7380,"v":700}},{"type":"Feature","geometry":{"type":"Point","coordinates":[-79.98285,40.5032]},"properties":{"p":"0220N00059000000","a":"GREENHILL RD","m":"Shaler","u":"L","o":"individual","sf":2240,"v":900}},{"type":"Feature","geometry":{"type":"Point","coordinates":[-79.98058,40.50913]},"properties":{"p":"0220A00023000000","a":"VENANGO AVE","m":"Shaler","u":"L","o":"individual","sf":9017,"v":900}},{"type":"Feature","geometry":{"type":"Point","coordinates":[-79.98068,40.50484]},"properties":{"p":"0220J00230000000","a":"MATHILDA ST","m":"Shaler","u":"L","o":"individual","sf":28656,"v":10100}},{"type":"Feature","geometry":{"type":"Point","coordinates":[-79.98047,40.50523]},"properties":{"p":"0220J00240000000","a":"JANE AVE","m":"Shaler","u":"L","o":"individual","sf":43081,"v":20900}},{"type":"Feature","geometry":{"type":"Point","coordinates":[-79.98323,40.5043]},"properties":{"p":"0219M00143000000","a":"DONALD AVE","m":"Shaler","u":"L","o":"individual","sf":600,"v":300}},{"type":"Feature","geometry":{"type":"Point","coordinates":[-79.98627,40.50356]},"properties":{"p":"0219M00244000000","a":"SILVER REEL AVE","m":"Shaler","u":"L","o":"corp","sf":24349,"v":36700}},{"type":"Feature","geometry":{"type":"Point","coordinates":[-79.98405,40.50205]},"properties":{"p":"0219S00147000000","a":"BABCOCK BLVD","m":"Shaler","u":"L","o":"individual","sf":8595,"v":35300}},{"type":"Feature","geometry":{"type":"Point","coordinates":[-79.98427,40.50215]},"properties":{"p":"0219S00157000000","a":"BABCOCK BLVD","m":"Shaler","u":"L","o":"individual","sf":17857,"v":5000}},{"type":"Feature","geometry":{"type":"Point","coordinates":[-79.98668,40.50876]},"properties":{"p":"0219D00310000000","a":"GREENHILL RD","m":"Shaler","u":"L","o":"individual","sf":1350,"v":100}},{"type":"Feature","geometry":{"type":"Point","coordinates":[-79.98649,40.50913]},"properties":{"p":"0219D00315000000","a":"GREENHILL RD","m":"Shaler","u":"L","o":"individual","sf":23571,"v":46200}},{"type":"Feature","geometry":{"type":"Point","coordinates":[-79.98479,40.5086]},"properties":{"p":"0219H00050000000","a":"GREENHILL RD","m":"Shaler","u":"L","o":"individual","sf":154638,"v":6000}},{"type":"Feature","geometry":{"type":"Point","coordinates":[-79.98438,40.50928]},"properties":{"p":"0219D00190000000","a":"MOUNT IVY LN","m":"Shaler","u":"L","o":"individual","sf":67082,"v":6900}},{"type":"Feature","geometry":{"type":"Point","coordinates":[-79.98432,40.50099]},"properties":{"p":"0164D00076000000","a":"DRAVO ST","m":"Shaler","u":"L","o":"individual","sf":18101,"v":36200}},{"type":"Feature","geometry":{"type":"Point","coordinates":[-79.98295,40.50111]},"properties":{"p":"0164D00106000000","a":"DRAVO ST EXT","m":"Shaler","u":"L","o":"corp","sf":12378,"v":4500}},{"type":"Feature","geometry":{"type":"Point","coordinates":[-79.98008,40.50028]},"properties":{"p":"0165A00270000000","a":"EVERGREEN AVE","m":"Shaler","u":"L","o":"individual","sf":102366,"v":44000}},{"type":"Feature","geometry":{"type":"Point","coordinates":[-79.98135,40.49595]},"properties":{"p":"0165J00175000000","a":"108 WYNNE ST","m":"Shaler","u":"L","o":"individual","sf":10981,"v":35500}},{"type":"Feature","geometry":{"type":"Point","coordinates":[-79.98431,40.49912]},"properties":{"p":"0164D00235000000","a":"SCHAFER RD","m":"Shaler","u":"L","o":"individual","sf":226512,"v":54800}},{"type":"Feature","geometry":{"type":"Point","coordinates":[-79.985,40.50093]},"properties":{"p":"0164D00300000000","a":"DRAVO ST EXT","m":"Shaler","u":"L","o":"individual","sf":45520,"v":38700}},{"type":"Feature","geometry":{"type":"Point","coordinates":[-79.98309,40.49737]},"properties":{"p":"0164H00150000000","a":"WYNNE ST","m":"Shaler","u":"L","o":"corp","sf":423839,"v":61000}},{"type":"Feature","geometry":{"type":"Point","coordinates":[-79.98522,40.49352]},"properties":{"p":"0164S00100000001","a":"GEYER RD","m":"Shaler","u":"L","o":"individual","sf":878,"v":400}},{"type":"Feature","geometry":{"type":"Point","coordinates":[-79.98328,40.49359]},"properties":{"p":"0164S00200000000","a":"GEYER RD","m":"Shaler","u":"L","o":"individual","sf":7338,"v":2700}},{"type":"Feature","geometry":{"type":"Point","coordinates":[-79.98022,40.49794]},"properties":{"p":"0165E00162000000","a":"LADLEY ST","m":"Shaler","u":"L","o":"individual","sf":2500,"v":1000}},{"type":"Feature","geometry":{"type":"Point","coordinates":[-79.98045,40.49684]},"properties":{"p":"0165E00217000000","a":"WYNNE ST","m":"Shaler","u":"L","o":"individual","sf":6750,"v":17700}},{"type":"Feature","geometry":{"type":"Point","coordinates":[-79.98188,40.50077]},"properties":{"p":"0165A00045000000","a":"JUNE DR","m":"Shaler","u":"L","o":"individual","sf":9339,"v":10000}},{"type":"Feature","geometry":{"type":"Point","coordinates":[-79.99862,40.50131]},"properties":{"p":"0164A00010000000","a":"112 OESTERLE LN","m":"Ross","u":"L","o":"individual","sf":14648,"v":40900}},{"type":"Feature","geometry":{"type":"Point","coordinates":[-79.99668,40.49189]},"properties":{"p":"0164N00126000000","a":"4200 SPRING GARDEN RD","m":"Reserve","u":"L","o":"individual","sf":35545,"v":22800}},{"type":"Feature","geometry":{"type":"Point","coordinates":[-79.9968,40.4944]},"properties":{"p":"0164J00028000000","a":"MOUNT TROY RD","m":"Reserve","u":"L","o":"individual","sf":18200,"v":18700}},{"type":"Feature","geometry":{"type":"Point","coordinates":[-79.98441,40.50149]},"properties":{"p":"0219S00274000000","a":"1819 BABCOCK BLVD","m":"Shaler","u":"L","o":"corp","sf":20362,"v":36400}},{"type":"Feature","geometry":{"type":"Point","coordinates":[-79.98719,40.49123]},"properties":{"p":"0117H00101000000","a":"IRWIN LN","m":"Reserve","u":"L","o":"individual","sf":22132,"v":36500}},{"type":"Feature","geometry":{"type":"Point","coordinates":[-79.98079,40.49596]},"properties":{"p":"0165J00150000000","a":"130 WYNNE ST","m":"Shaler","u":"L","o":"individual","sf":8466,"v":17800}},{"type":"Feature","geometry":{"type":"Point","coordinates":[-79.99061,40.49238]},"properties":{"p":"0164R00099000000","a":"HOFFMAN RD","m":"Reserve","u":"L","o":"individual","sf":8825,"v":17800}},{"type":"Feature","geometry":{"type":"Point","coordinates":[-79.99752,40.49179]},"properties":{"p":"0164N00100000000","a":"RAMAGE RD","m":"Reserve","u":"L","o":"individual","sf":42273,"v":38400}},{"type":"Feature","geometry":{"type":"Point","coordinates":[-79.9855,40.50095]},"properties":{"p":"0164D00075000000","a":"DRAVO ST EXT","m":"Shaler","u":"L","o":"individual","sf":8614,"v":35300}},{"type":"Feature","geometry":{"type":"Point","coordinates":[-79.99674,40.50811]},"properties":{"p":"0219E00240000000","a":"ROCK RIDGE RD","m":"Ross","u":"L","o":"individual","sf":203512,"v":23400}},{"type":"Feature","geometry":{"type":"Point","coordinates":[-79.99918,40.50894]},"properties":{"p":"0219A00075000000","a":"BROOKVIEW LN","m":"Ross","u":"L","o":"individual","sf":36562,"v":12900}},{"type":"Feature","geometry":{"type":"Point","coordinates":[-79.98865,40.49313]},"properties":{"p":"0164R00152000000","a":"109 -111 MARY GLADYS LN","m":"Reserve","u":"B","o":"corp","sf":13472,"v":3100}},{"type":"Feature","geometry":{"type":"Point","coordinates":[-79.98898,40.49312]},"properties":{"p":"0164R00154000000","a":"113 -115 MARY GLADYS LN","m":"Reserve","u":"B","o":"corp","sf":10278,"v":2300}},{"type":"Feature","geometry":{"type":"Point","coordinates":[-79.98929,40.49312]},"properties":{"p":"0164R00156000000","a":"117 -119 MARY GLADYS LN","m":"Reserve","u":"B","o":"corp","sf":10079,"v":2300}},{"type":"Feature","geometry":{"type":"Point","coordinates":[-79.98959,40.49311]},"properties":{"p":"0164R00158000000","a":"121 -123 MARY GLADYS LN","m":"Reserve","u":"B","o":"corp","sf":10079,"v":2300}},{"type":"Feature","geometry":{"type":"Point","coordinates":[-79.98989,40.49311]},"properties":{"p":"0164R00160000000","a":"125 -127 MARY GLADYS LN","m":"Reserve","u":"B","o":"corp","sf":10079,"v":2300}},{"type":"Feature","geometry":{"type":"Point","coordinates":[-79.9903,40.4931]},"properties":{"p":"0164R00162000000","a":"129 -137 MARY GLADYS LN","m":"Reserve","u":"B","o":"corp","sf":17997,"v":4100}},{"type":"Feature","geometry":{"type":"Point","coordinates":[-79.99084,40.49309]},"properties":{"p":"0164R00164000000","a":"139 -147 MARY GLADYS LN","m":"Reserve","u":"B","o":"corp","sf":17997,"v":4100}},{"type":"Feature","geometry":{"type":"Point","coordinates":[-79.99141,40.4932]},"properties":{"p":"0164R00166000000","a":"149 -157 MARY GLADYS LN","m":"Reserve","u":"B","o":"corp","sf":21777,"v":5000}},{"type":"Feature","geometry":{"type":"Point","coordinates":[-79.99083,40.49358]},"properties":{"p":"0164R00170000000","a":"138 -148 MARY GLADYS LN","m":"Reserve","u":"B","o":"corp","sf":28360,"v":6500}},{"type":"Feature","geometry":{"type":"Point","coordinates":[-79.99026,40.49357]},"properties":{"p":"0164R00172000000","a":"128 -136 MARY GLADYS LN","m":"Reserve","u":"B","o":"corp","sf":21479,"v":4900}},{"type":"Feature","geometry":{"type":"Point","coordinates":[-79.98985,40.49357]},"properties":{"p":"0164R00174000000","a":"124 -126 MARY GLADYS LN","m":"Reserve","u":"B","o":"corp","sf":10032,"v":2300}},{"type":"Feature","geometry":{"type":"Point","coordinates":[-79.98958,40.49357]},"properties":{"p":"0164R00176000000","a":"120 -122 MARY GLADYS LN","m":"Reserve","u":"B","o":"corp","sf":10093,"v":2300}},{"type":"Feature","geometry":{"type":"Point","coordinates":[-79.98929,40.49357]},"properties":{"p":"0164R00178000000","a":"116 -118 MARY GLADYS LN","m":"Reserve","u":"B","o":"corp","sf":10033,"v":2300}}]}