{"type":"FeatureCollection","features":[{"type":"Feature","geometry":{"type":"Point","coordinates":[-79.99201,40.51315]},"properties":{"p":"0282P00101000000","a":"THOMPSON RUN RD","m":"Ross","u":"C","o":"corp","sf":360677,"v":24800}},{"type":"Feature","geometry":{"type":"Point","coordinates":[-79.99706,40.52406]},"properties":{"p":"0353J00100000000","a":"MARY VUE ST","m":"Ross","u":"C","o":"corp","sf":181471,"v":59500}},{"type":"Feature","geometry":{"type":"Point","coordinates":[-79.99537,40.51099]},"properties":{"p":"0219B00200000000","a":"BABCOCK BLVD","m":"Ross","u":"C","o":"corp","sf":61158,"v":51200}},{"type":"Feature","geometry":{"type":"Point","coordinates":[-79.98749,40.51068]},"properties":{"p":"0219C00180000000","a":"BABCOCK BLVD","m":"Ross","u":"C","o":"corp","sf":532739,"v":66200}},{"type":"Feature","geometry":{"type":"Point","coordinates":[-79.99379,40.51029]},"properties":{"p":"0219B00093000200","a":"BABCOCK BLVD","m":"Ross","u":"C","o":"corp","sf":16013,"v":7400}},{"type":"Feature","geometry":{"type":"Point","coordinates":[-79.99998,40.51304]},"properties":{"p":"0281S00018000000","a":"2257 BABCOCK BLVD","m":"Ross","u":"C","o":"corp","sf":35610,"v":90100}},{"type":"Feature","geometry":{"type":"Point","coordinates":[-79.99293,40.52878]},"properties":{"p":"0353B00193000000","a":"BEACONVIEW RD","m":"Ross","u":"L","o":"individual","sf":1896,"v":300}},{"type":"Feature","geometry":{"type":"Point","coordinates":[-79.99224,40.52983]},"properties":{"p":"0353B00247000000","a":"BEACONVIEW RD","m":"Ross","u":"L","o":"individual","sf":10175,"v":23300}},{"type":"Feature","geometry":{"type":"Point","coordinates":[-79.99815,40.52962]},"properties":{"p":"0353A00028000000","a":"SANGREE RD","m":"Ross","u":"L","o":"individual","sf":579,"v":100}},{"type":"Feature","geometry":{"type":"Point","coordinates":[-79.99016,40.51908]},"properties":{"p":"0282C00385000000","a":"ISOLDA DR","m":"Ross","u":"L","o":"corp","sf":168751,"v":74800}},{"type":"Feature","geometry":{"type":"Point","coordinates":[-79.99977,40.52733]},"properties":{"p":"0353E00020000000","a":"TWIN OAKS DR","m":"Ross","u":"L","o":"individual","sf":11889,"v":54700}},{"type":"Feature","geometry":{"type":"Point","coordinates":[-79.9979,40.52653]},"properties":{"p":"0353E00043000000","a":"TWIN OAKS DR","m":"Ross","u":"L","o":"individual","sf":72745,"v":62700}},{"type":"Feature","geometry":{"type":"Point","coordinates":[-79.99272,40.51223]},"properties":{"p":"0282P00096000000","a":"THOMPSON RUN RD","m":"Ross","u":"L","o":"individual","sf":62814,"v":11300}},{"type":"Feature","geometry":{"type":"Point","coordinates":[-79.99351,40.51616]},"properties":{"p":"0282K00290000000","a":"THOMPSON RUN RD","m":"Ross","u":"L","o":"corp","sf":214315,"v":20000}},{"type":"Feature","geometry":{"type":"Point","coordinates":[-79.98812,40.51692]},"properties":{"p":"0282C00280000000","a":"THOMPSON RUN RD","m":"Ross","u":"L","o":"individual","sf":408667,"v":94100}},{"type":"Feature","geometry":{"type":"Point","coordinates":[-79.98985,40.52922]},"properties":{"p":"0353C00156000000","a":"THOMPSON RUN RD","m":"Ross","u":"L","o":"individual","sf":16620,"v":28100}},{"type":"Feature","geometry":{"type":"Point","coordinates":[-79.99066,40.51995]},"properties":{"p":"0282B00380000000","a":"THOMPSON RUN RD","m":"Ross","u":"L","o":"individual","sf":15093,"v":5400}},{"type":"Feature","geometry":{"type":"Point","coordinates":[-79.99586,40.52727]},"properties":{"p":"0353E00109000000","a":"114 DORAY DR","m":"Ross","u":"L","o":"individual","sf":2646,"v":300}},{"type":"Feature","geometry":{"type":"Point","coordinates":[-79.99575,40.51338]},"properties":{"p":"0282J00048000000","a":"RADCLIFF DR","m":"Ross","u":"L","o":"individual","sf":35262,"v":48200}},{"type":"Feature","geometry":{"type":"Point","coordinates":[-79.99628,40.514]},"properties":{"p":"0282J00050000100","a":"KENT CT","m":"Ross","u":"L","o":"individual","sf":14462,"v":3000}},{"type":"Feature","geometry":{"type":"Point","coordinates":[-79.99683,40.51322]},"properties":{"p":"0282N00273000000","a":"EVERGREEN RD","m":"Ross","u":"L","o":"individual","sf":13068,"v":4700}},{"type":"Feature","geometry":{"type":"Point","coordinates":[-79.99058,40.52799]},"properties":{"p":"0353C00247000002","a":"BEACONVIEW RD","m":"Ross","u":"L","o":"individual","sf":19270,"v":55900}},{"type":"Feature","geometry":{"type":"Point","coordinates":[-79.99116,40.52932]},"properties":{"p":"0353C00271000000","a":"SIEBERT RD","m":"Ross","u":"L","o":"individual","sf":810,"v":100}},{"type":"Feature","geometry":{"type":"Point","coordinates":[-79.99423,40.52339]},"properties":{"p":"0353K00105000000","a":"GOLDSMITH RD","m":"Ross","u":"L","o":"individual","sf":10672,"v":24400}},{"type":"Feature","geometry":{"type":"Point","coordinates":[-79.99329,40.52337]},"properties":{"p":"0353K00122000000","a":"MILLER RD","m":"Ross","u":"L","o":"individual","sf":5472,"v":700}},{"type":"Feature","geometry":{"type":"Point","coordinates":[-79.99671,40.52673]},"properties":{"p":"0353E00398000000","a":"DARLENE DR","m":"Ross","u":"L","o":"corp","sf":4375,"v":600}},{"type":"Feature","geometry":{"type":"Point","coordinates":[-79.99267,40.52107]},"properties":{"p":"0353P00265000000","a":"THOMPSON RUN RD","m":"Ross","u":"L","o":"individual","sf":48787,"v":44000}},{"type":"Feature","geometry":{"type":"Point","coordinates":[-79.99788,40.52221]},"properties":{"p":"0353N00180000000","a":"BAKER DR","m":"Ross","u":"L","o":"corp","sf":43560,"v":59000}},{"type":"Feature","geometry":{"type":"Point","coordinates":[-79.9914,40.52177]},"properties":{"p":"0353R00320000000","a":"THOMPSON RUN RD","m":"Ross","u":"L","o":"individual","sf":18571,"v":41200}},{"type":"Feature","geometry":{"type":"Point","coordinates":[-79.99276,40.52291]},"properties":{"p":"0353P00166000000","a":"GAIL DR","m":"Ross","u":"L","o":"corp","sf":29737,"v":22100}},{"type":"Feature","geometry":{"type":"Point","coordinates":[-79.99272,40.52205]},"properties":{"p":"0353P00182000000","a":"GAIL DR","m":"Ross","u":"L","o":"individual","sf":12467,"v":55000}},{"type":"Feature","geometry":{"type":"Point","coordinates":[-79.98828,40.52451]},"properties":{"p":"0353L00032000000","a":"THOMPSON RUN RD","m":"Ross","u":"L","o":"corp","sf":2275,"v":300}},{"type":"Feature","geometry":{"type":"Point","coordinates":[-79.98818,40.52301]},"properties":{"p":"0353L00055000100","a":"DIXON DR","m":"Ross","u":"L","o":"individual","sf":5619,"v":700}},{"type":"Feature","geometry":{"type":"Point","coordinates":[-79.98977,40.52475]},"properties":{"p":"0353L00257000000","a":"THOMPSON RUN RD","m":"Ross","u":"L","o":"individual","sf":47045,"v":59400}},{"type":"Feature","geometry":{"type":"Point","coordinates":[-79.99036,40.52544]},"properties":{"p":"0353L00263000000","a":"THOMPSON RUN RD","m":"Ross","u":"L","o":"corp","sf":23547,"v":56500}},{"type":"Feature","geometry":{"type":"Point","coordinates":[-79.98998,40.5255]},"properties":{"p":"0353L00265000000","a":"THOMPSON RUN RD","m":"Ross","u":"L","o":"individual","sf":69260,"v":34700}},{"type":"Feature","geometry":{"type":"Point","coordinates":[-79.99638,40.52091]},"properties":{"p":"0353N00080000000","a":"CONGALTON RD","m":"Ross","u":"L","o":"individual","sf":115456,"v":32700}},{"type":"Feature","geometry":{"type":"Point","coordinates":[-79.99029,40.52194]},"properties":{"p":"0353R00168000000","a":"THOMPSON RUN RD","m":"Ross","u":"L","o":"individual","sf":7047,"v":2600}},{"type":"Feature","geometry":{"type":"Point","coordinates":[-79.99113,40.52263]},"properties":{"p":"0353R00305000000","a":"THOMPSON RUN RD","m":"Ross","u":"L","o":"corp","sf":17816,"v":1400}},{"type":"Feature","geometry":{"type":"Point","coordinates":[-79.99141,40.5279]},"properties":{"p":"0353G00187000000","a":"BEACONVIEW RD","m":"Ross","u":"L","o":"corp","sf":3484,"v":500}},{"type":"Feature","geometry":{"type":"Point","coordinates":[-79.99405,40.52119]},"properties":{"p":"0353P00102000000","a":"GOLDSMITH RD","m":"Ross","u":"L","o":"individual","sf":11751,"v":26900}},{"type":"Feature","geometry":{"type":"Point","coordinates":[-79.99143,40.52533]},"properties":{"p":"0353L00151000000","a":"115 SUNNYHILL DR","m":"Ross","u":"L","o":"individual","sf":5289,"v":700}},{"type":"Feature","geometry":{"type":"Point","coordinates":[-79.99848,40.52321]},"properties":{"p":"0353J00177000000","a":"BAKER DR","m":"Ross","u":"L","o":"individual","sf":11200,"v":25700}},{"type":"Feature","geometry":{"type":"Point","coordinates":[-79.99701,40.52053]},"properties":{"p":"0282A00042000000","a":"HUNTER DR","m":"Ross","u":"L","o":"individual","sf":15688,"v":2000}},{"type":"Feature","geometry":{"type":"Point","coordinates":[-79.99238,40.52069]},"properties":{"p":"0282B00231000000","a":"THOMPSON RUN RD","m":"Ross","u":"L","o":"individual","sf":27075,"v":42000}},{"type":"Feature","geometry":{"type":"Point","coordinates":[-79.99246,40.52029]},"properties":{"p":"0282B00238000000","a":"THOMPSON RUN RD","m":"Ross","u":"L","o":"individual","sf":45202,"v":43700}},{"type":"Feature","geometry":{"type":"Point","coordinates":[-79.9972,40.52005]},"properties":{"p":"0282A00107000000","a":"FOX DR","m":"Ross","u":"L","o":"individual","sf":1980,"v":300}},{"type":"Feature","geometry":{"type":"Point","coordinates":[-79.98324,40.51023]},"properties":{"p":"0219D00096000000","a":"MOUNT IVY LN","m":"Shaler","u":"L","o":"individual","sf":19084,"v":1900}},{"type":"Feature","geometry":{"type":"Point","coordinates":[-79.98435,40.51031]},"properties":{"p":"0219D00110000000","a":"GREENHILL RD","m":"Shaler","u":"L","o":"individual","sf":34382,"v":3400}},{"type":"Feature","geometry":{"type":"Point","coordinates":[-79.99038,40.51984]},"properties":{"p":"0282B00365000000","a":"THOMPSON RUN RD","m":"Ross","u":"L","o":"corp","sf":47263,"v":3300}},{"type":"Feature","geometry":{"type":"Point","coordinates":[-79.98206,40.52262]},"properties":{"p":"0354N00105000000","a":"ANDERSON RD","m":"Shaler","u":"L","o":"individual","sf":61725,"v":27600}},{"type":"Feature","geometry":{"type":"Point","coordinates":[-79.98257,40.51157]},"properties":{"p":"0283N00110000000","a":"THOMPSON RUN RD","m":"Shaler","u":"L","o":"individual","sf":82564,"v":17000}},{"type":"Feature","geometry":{"type":"Point","coordinates":[-79.98203,40.51342]},"properties":{"p":"0283J00298000000","a":"143 HAHN RD","m":"Shaler","u":"L","o":"individual","sf":4217,"v":400}},{"type":"Feature","geometry":{"type":"Point","coordinates":[-79.98133,40.52523]},"properties":{"p":"0354J00074000000","a":"SCHAR CT","m":"Shaler","u":"L","o":"individual","sf":9321,"v":900}},{"type":"Feature","geometry":{"type":"Point","coordinates":[-79.98282,40.51914]},"properties":{"p":"0283A00020000000","a":"ANDERSON RD","m":"Shaler","u":"L","o":"individual","sf":18295,"v":23200}},{"type":"Feature","geometry":{"type":"Point","coordinates":[-79.98755,40.52262]},"properties":{"p":"0353M00135000000","a":"MCELHENY RD","m":"Shaler","u":"L","o":"corp","sf":69696,"v":7000}},{"type":"Feature","geometry":{"type":"Point","coordinates":[-79.98504,40.51414]},"properties":{"p":"0283J00030000000","a":"HAHN RD","m":"Shaler","u":"L","o":"corp","sf":382022,"v":8000}},{"type":"Feature","geometry":{"type":"Point","coordinates":[-79.98307,40.51476]},"properties":{"p":"0283J00038000000","a":"HAHN RD","m":"Shaler","u":"L","o":"corp","sf":40000,"v":1000}},{"type":"Feature","geometry":{"type":"Point","coordinates":[-79.98411,40.52843]},"properties":{"p":"0353D00179000000","a":"ANDERSON RD","m":"Shaler","u":"L","o":"individual","sf":9104,"v":39600}},{"type":"Feature","geometry":{"type":"Point","coordinates":[-79.98286,40.51217]},"properties":{"p":"0283N00043000000","a":"THOMPSON RUN RD","m":"Shaler","u":"L","o":"individual","sf":5695,"v":600}},{"type":"Feature","geometry":{"type":"Point","coordinates":[-79.98811,40.52793]},"properties":{"p":"0353C00040000000","a":"PARK LN","m":"Shaler","u":"L","o":"individual","sf":16679,"v":45500}},{"type":"Feature","geometry":{"type":"Point","coordinates":[-79.98083,40.52614]},"properties":{"p":"0354E00207000000","a":"SCHAR CT","m":"Shaler","u":"L","o":"individual","sf":10370,"v":1000}},{"type":"Feature","geometry":{"type":"Point","coordinates":[-79.98416,40.52425]},"properties":{"p":"0353M00247000000","a":"LOHENGRIN DR","m":"Shaler","u":"L","o":"individual","sf":3112,"v":300}},{"type":"Feature","geometry":{"type":"Point","coordinates":[-79.98392,40.52431]},"properties":{"p":"0353M00249000000","a":"MCELHENY RD","m":"Shaler","u":"L","o":"individual","sf":11892,"v":44800}},{"type":"Feature","geometry":{"type":"Point","coordinates":[-79.9821,40.52774]},"properties":{"p":"0354E00022000000","a":"NORTHVIEW DR","m":"Shaler","u":"L","o":"individual","sf":1044,"v":2000}},{"type":"Feature","geometry":{"type":"Point","coordinates":[-79.98384,40.52928]},"properties":{"p":"0353D00135000000","a":"VILSACK RD","m":"Shaler","u":"L","o":"individual","sf":45302,"v":4700}},{"type":"Feature","geometry":{"type":"Point","coordinates":[-79.98772,40.52297]},"properties":{"p":"0353L00055000000","a":"DIXON DR","m":"Shaler","u":"L","o":"individual","sf":44431,"v":4600}},{"type":"Feature","geometry":{"type":"Point","coordinates":[-79.98399,40.52516]},"properties":{"p":"0353M00014000000","a":"ANDERSON RD","m":"Shaler","u":"L","o":"individual","sf":4608,"v":500}},{"type":"Feature","geometry":{"type":"Point","coordinates":[-79.98112,40.51757]},"properties":{"p":"0283E00186000000","a":"ANDERSON RD","m":"Shaler","u":"L","o":"individual","sf":3687,"v":400}},{"type":"Feature","geometry":{"type":"Point","coordinates":[-79.98569,40.52388]},"properties":{"p":"0353M00160000000","a":"143 DANUBE DR","m":"Shaler","u":"L","o":"corp","sf":9100,"v":39600}},{"type":"Feature","geometry":{"type":"Point","coordinates":[-79.99318,40.52917]},"properties":{"p":"0353B00180000000","a":"SIEBERT RD","m":"Ross","u":"L","o":"individual","sf":15709,"v":55400}},{"type":"Feature","geometry":{"type":"Point","coordinates":[-79.99767,40.52455]},"properties":{"p":"0353J00041000000","a":"KONZIER DR","m":"Ross","u":"L","o":"individual","sf":26401,"v":15000}}]}