{"type":"FeatureCollection","features":[{"type":"Feature","geometry":{"type":"Point","coordinates":[-79.99122,40.63382]},"properties":{"p":"1662L00212000000","a":"GIBSONIA RD","m":"Richland","u":"I","o":"corp","sf":1206046,"v":83100}},{"type":"Feature","geometry":{"type":"Point","coordinates":[-79.98286,40.64707]},"properties":{"p":"1829D00076000000","a":"N MONTOUR RD","m":"Richland","u":"L","o":"corp","sf":118483,"v":1400}},{"type":"Feature","geometry":{"type":"Point","coordinates":[-79.98131,40.64713]},"properties":{"p":"1830A00030000000","a":"N MONTOUR RD","m":"Richland","u":"L","o":"corp","sf":64904,"v":56100}},{"type":"Feature","geometry":{"type":"Point","coordinates":[-79.98181,40.63242]},"properties":{"p":"1663J00258000000","a":"WOODLAND RD","m":"Richland","u":"L","o":"individual","sf":84506,"v":64200}},{"type":"Feature","geometry":{"type":"Point","coordinates":[-79.98121,40.63256]},"properties":{"p":"1663J00271000000","a":"WOODLAND RD","m":"Richland","u":"L","o":"individual","sf":14065,"v":1800}},{"type":"Feature","geometry":{"type":"Point","coordinates":[-79.98298,40.6342]},"properties":{"p":"1663E00374000000","a":"CENTERVIEW RD","m":"Richland","u":"L","o":"individual","sf":2053,"v":300}},{"type":"Feature","geometry":{"type":"Point","coordinates":[-79.99923,40.63041]},"properties":{"p":"1662J00006000000","a":"COLONY CT","m":"Pine","u":"L","o":"corp","sf":382283,"v":134600}},{"type":"Feature","geometry":{"type":"Point","coordinates":[-79.99662,40.63405]},"properties":{"p":"1662J00011000000","a":"GIBSONIA RD","m":"Pine","u":"L","o":"individual","sf":1030891,"v":51600}},{"type":"Feature","geometry":{"type":"Point","coordinates":[-79.99428,40.63419]},"properties":{"p":"1662K00017000000","a":"GIBSONIA RD","m":"Pine","u":"L","o":"individual","sf":435600,"v":92200}},{"type":"Feature","geometry":{"type":"Point","coordinates":[-79.9983,40.63824]},"properties":{"p":"1662A00008000000","a":"WHIPPOORWILL HILL RD","m":"Pine","u":"L","o":"individual","sf":74923,"v":10300}},{"type":"Feature","geometry":{"type":"Point","coordinates":[-79.9997,40.63953]},"properties":{"p":"1829N00006000000","a":"OLD STATE RD","m":"Pine","u":"L","o":"individual","sf":42776,"v":40000}},{"type":"Feature","geometry":{"type":"Point","coordinates":[-79.9985,40.64892]},"properties":{"p":"2004N00003000000","a":"OLD STATE RD","m":"Pine","u":"L","o":"individual","sf":43560,"v":500}},{"type":"Feature","geometry":{"type":"Point","coordinates":[-79.99908,40.64781]},"properties":{"p":"2004N00005000000","a":"OLD STATE RD","m":"Pine","u":"L","o":"individual","sf":51836,"v":10500}},{"type":"Feature","geometry":{"type":"Point","coordinates":[-79.9956,40.64825]},"properties":{"p":"2004P00002000000","a":"OLD SPRING HOUSE LN","m":"Pine","u":"L","o":"individual","sf":79279,"v":900}},{"type":"Feature","geometry":{"type":"Point","coordinates":[-79.99541,40.64826]},"properties":{"p":"2004P00003000000","a":"OLD SPRING HOUSE LN","m":"Pine","u":"L","o":"individual","sf":4730,"v":700}},{"type":"Feature","geometry":{"type":"Point","coordinates":[-79.99879,40.64537]},"properties":{"p":"1829A00001000000","a":"OLD STATE RD","m":"Pine","u":"L","o":"individual","sf":32869,"v":4600}},{"type":"Feature","geometry":{"type":"Point","coordinates":[-79.99881,40.6459]},"properties":{"p":"1829A00002000000","a":"OLD STATE RD","m":"Pine","u":"L","o":"individual","sf":33172,"v":4600}},{"type":"Feature","geometry":{"type":"Point","coordinates":[-79.99592,40.6431]},"properties":{"p":"1829E00002000000","a":"OLD STATE RD","m":"Pine","u":"L","o":"individual","sf":694346,"v":120100}},{"type":"Feature","geometry":{"type":"Point","coordinates":[-79.99875,40.64478]},"properties":{"p":"1829E00003000000","a":"OLD STATE RD","m":"Pine","u":"L","o":"individual","sf":31851,"v":4500}},{"type":"Feature","geometry":{"type":"Point","coordinates":[-79.98314,40.63591]},"properties":{"p":"1662D00003000000","a":"CENTERVIEW RD","m":"Richland","u":"L","o":"individual","sf":675,"v":100}},{"type":"Feature","geometry":{"type":"Point","coordinates":[-79.99788,40.63971]},"properties":{"p":"1829N00002000000","a":"1648 OLD STATE RD","m":"Pine","u":"L","o":"individual","sf":83635,"v":11500}},{"type":"Feature","geometry":{"type":"Point","coordinates":[-79.98377,40.63798]},"properties":{"p":"1662D00077000000","a":"N MONTOUR RD","m":"Richland","u":"L","o":"individual","sf":217800,"v":73600}}]}