{"type":"FeatureCollection","features":[{"type":"Feature","geometry":{"type":"Point","coordinates":[-79.99728,40.60348]},"properties":{"p":"1209A00100000000","a":"OLDE VILLA DR","m":"McCandless","u":"C","o":"corp","sf":368448,"v":119800}},{"type":"Feature","geometry":{"type":"Point","coordinates":[-79.99069,40.59666]},"properties":{"p":"1074C00286000000","a":"ANDREWS RD","m":"Hampton","u":"L","o":"individual","sf":53709,"v":64600}},{"type":"Feature","geometry":{"type":"Point","coordinates":[-79.98833,40.59646]},"properties":{"p":"1074C00041000000","a":"COUNTRY LN","m":"Hampton","u":"L","o":"corp","sf":43560,"v":500}},{"type":"Feature","geometry":{"type":"Point","coordinates":[-79.98242,40.60581]},"properties":{"p":"1209D00050000000","a":"S VILLA DR","m":"Hampton","u":"L","o":"corp","sf":449060,"v":136600}},{"type":"Feature","geometry":{"type":"Point","coordinates":[-79.98338,40.60351]},"properties":{"p":"1209M00010000000","a":"2232 CHARDONNAY CIR","m":"Hampton","u":"L","o":"individual","sf":258716,"v":216400}},{"type":"Feature","geometry":{"type":"Point","coordinates":[-79.98396,40.60241]},"properties":{"p":"1209M00015000000","a":"2226 CHARDONNAY CIR","m":"Hampton","u":"L","o":"individual","sf":307307,"v":257000}},{"type":"Feature","geometry":{"type":"Point","coordinates":[-79.98967,40.60472]},"properties":{"p":"1209C00200000000","a":"S VILLA DR","m":"Hampton","u":"L","o":"corp","sf":456378,"v":136300}},{"type":"Feature","geometry":{"type":"Point","coordinates":[-79.98024,40.59804]},"properties":{"p":"1075A00198000000","a":"HARDT RD","m":"Hampton","u":"L","o":"individual","sf":376620,"v":40000}},{"type":"Feature","geometry":{"type":"Point","coordinates":[-79.98169,40.59861]},"properties":{"p":"1075A00318000000","a":"S MONTOUR RD","m":"Hampton","u":"L","o":"corp","sf":296426,"v":75400}},{"type":"Feature","geometry":{"type":"Point","coordinates":[-79.98231,40.59737]},"properties":{"p":"1075A00353000000","a":"WILDWOOD RD","m":"Hampton","u":"L","o":"corp","sf":97727,"v":8500}},{"type":"Feature","geometry":{"type":"Point","coordinates":[-79.98711,40.59935]},"properties":{"p":"1209S00001000000","a":"4878 COUNTRY LN","m":"Hampton","u":"L","o":"individual","sf":43560,"v":6000}},{"type":"Feature","geometry":{"type":"Point","coordinates":[-79.983,40.60884]},"properties":{"p":"1353N00018000000","a":"2200 GRANDEUR DR","m":"Hampton","u":"L","o":"corp","sf":110120,"v":108600}},{"type":"Feature","geometry":{"type":"Point","coordinates":[-79.99088,40.60854]},"properties":{"p":"1352R00340000000","a":"N VILLA CT","m":"Hampton","u":"L","o":"individual","sf":3500,"v":700}},{"type":"Feature","geometry":{"type":"Point","coordinates":[-79.99674,40.60557]},"properties":{"p":"1209E00025000000","a":"ALLANTE ST","m":"McCandless","u":"L","o":"individual","sf":5018,"v":900}},{"type":"Feature","geometry":{"type":"Point","coordinates":[-79.99368,40.6085]},"properties":{"p":"1352P00031000000","a":"SANDYLYNN DR","m":"McCandless","u":"L","o":"individual","sf":22172,"v":80400}},{"type":"Feature","geometry":{"type":"Point","coordinates":[-79.99475,40.60347]},"properties":{"p":"1209F00361000000","a":"336 OLD BABCOCK TRL","m":"McCandless","u":"L","o":"individual","sf":19584,"v":39200}},{"type":"Feature","geometry":{"type":"Point","coordinates":[-79.99393,40.60259]},"properties":{"p":"1209K00132000000","a":"LAKE MARSHALL DR","m":"McCandless","u":"L","o":"individual","sf":28522,"v":81500}},{"type":"Feature","geometry":{"type":"Point","coordinates":[-79.99429,40.60926]},"properties":{"p":"1352P00239000000","a":"BABCOCK BLVD","m":"McCandless","u":"L","o":"individual","sf":142720,"v":1600}}]}