{"type":"FeatureCollection","features":[{"type":"Feature","geometry":{"type":"Point","coordinates":[-79.99855,40.28406]},"properties":{"p":"1008E00035000000","a":"BROWNSVILLE RD","m":"South Park","u":"C","o":"corp","sf":92042,"v":45000}},{"type":"Feature","geometry":{"type":"Point","coordinates":[-79.99052,40.27882]},"properties":{"p":"1139D00275000000","a":"HILL ST","m":"South Park","u":"C","o":"corp","sf":3094241,"v":71000}},{"type":"Feature","geometry":{"type":"Point","coordinates":[-79.99125,40.2856]},"properties":{"p":"1008C00004000000","a":"MIKE REED DR","m":"South Park","u":"C","o":"corp","sf":6298,"v":900}},{"type":"Feature","geometry":{"type":"Point","coordinates":[-79.99173,40.28841]},"properties":{"p":"1008C00020000000","a":"PINEY FORK RD","m":"South Park","u":"C","o":"individual","sf":182756,"v":4200}},{"type":"Feature","geometry":{"type":"Point","coordinates":[-79.99065,40.28858]},"properties":{"p":"1008C00040000000","a":"3097 PINEY FORK RD","m":"South Park","u":"C","o":"individual","sf":238443,"v":37100}},{"type":"Feature","geometry":{"type":"Point","coordinates":[-79.9941,40.28622]},"properties":{"p":"1008B00110000000","a":"ARMSTRONG DR","m":"South Park","u":"L","o":"corp","sf":15159,"v":45300}},{"type":"Feature","geometry":{"type":"Point","coordinates":[-79.99559,40.28623]},"properties":{"p":"1008B00155000000","a":"HELENA ST","m":"South Park","u":"L","o":"individual","sf":1008,"v":100}},{"type":"Feature","geometry":{"type":"Point","coordinates":[-79.99916,40.2839]},"properties":{"p":"1008E00041000000","a":"BROWNSVILLE RD EXT","m":"South Park","u":"L","o":"individual","sf":9590,"v":900}},{"type":"Feature","geometry":{"type":"Point","coordinates":[-79.99937,40.28394]},"properties":{"p":"1008E00044000000","a":"BROWNSVILLE RD EXT","m":"South Park","u":"L","o":"individual","sf":11714,"v":1100}},{"type":"Feature","geometry":{"type":"Point","coordinates":[-79.99953,40.28387]},"properties":{"p":"1008E00047000000","a":"BROWNSVILLE RD EXT","m":"South Park","u":"L","o":"individual","sf":11336,"v":1000}},{"type":"Feature","geometry":{"type":"Point","coordinates":[-79.99939,40.28319]},"properties":{"p":"1008E00050000000","a":"BROWNSVILLE RD","m":"South Park","u":"L","o":"individual","sf":141134,"v":31900}},{"type":"Feature","geometry":{"type":"Point","coordinates":[-79.99772,40.28043]},"properties":{"p":"1008J00277000000","a":"SOUTHERN DR","m":"South Park","u":"L","o":"individual","sf":1803,"v":200}},{"type":"Feature","geometry":{"type":"Point","coordinates":[-79.99732,40.28604]},"properties":{"p":"1008A00259000000","a":"HELENA ST","m":"South Park","u":"L","o":"individual","sf":10125,"v":900}},{"type":"Feature","geometry":{"type":"Point","coordinates":[-79.99699,40.28601]},"properties":{"p":"1008A00263000000","a":"HELENA ST","m":"South Park","u":"L","o":"individual","sf":33218,"v":24500}},{"type":"Feature","geometry":{"type":"Point","coordinates":[-79.9988,40.281]},"properties":{"p":"1008J00257000000","a":"SOUTHERN DR","m":"South Park","u":"L","o":"individual","sf":9180,"v":39700}},{"type":"Feature","geometry":{"type":"Point","coordinates":[-79.98184,40.28546]},"properties":{"p":"1007A00125000000","a":"RIDGE RD","m":"South Park","u":"L","o":"individual","sf":43397,"v":48100}},{"type":"Feature","geometry":{"type":"Point","coordinates":[-79.98311,40.28316]},"properties":{"p":"1007E00040000000","a":"RIDGE RD","m":"South Park","u":"L","o":"individual","sf":206910,"v":65100}},{"type":"Feature","geometry":{"type":"Point","coordinates":[-79.98347,40.27954]},"properties":{"p":"1008L00200000000","a":"TRIPHAMMER RD","m":"South Park","u":"L","o":"corp","sf":20778,"v":45900}},{"type":"Feature","geometry":{"type":"Point","coordinates":[-79.99569,40.28622]},"properties":{"p":"1008B00159000000","a":"HELENA ST","m":"South Park","u":"L","o":"individual","sf":3150,"v":300}},{"type":"Feature","geometry":{"type":"Point","coordinates":[-79.99545,40.28623]},"properties":{"p":"1008B00289000000","a":"HELENA ST","m":"South Park","u":"L","o":"individual","sf":3025,"v":300}},{"type":"Feature","geometry":{"type":"Point","coordinates":[-79.99259,40.28348]},"properties":{"p":"1008F00206000000","a":"ARMSTRONG DR","m":"South Park","u":"L","o":"corp","sf":6348,"v":600}},{"type":"Feature","geometry":{"type":"Point","coordinates":[-79.9928,40.28355]},"properties":{"p":"1008F00208000000","a":"ARMSTRONG DR","m":"South Park","u":"L","o":"corp","sf":6272,"v":600}},{"type":"Feature","geometry":{"type":"Point","coordinates":[-79.99269,40.2749]},"properties":{"p":"1139B00150000000","a":"HILL ST","m":"South Park","u":"L","o":"corp","sf":98925,"v":43200}},{"type":"Feature","geometry":{"type":"Point","coordinates":[-79.98241,40.27966]},"properties":{"p":"1007N00025000000","a":"PINEY FORK RD","m":"South Park","u":"L","o":"individual","sf":303090,"v":20900}},{"type":"Feature","geometry":{"type":"Point","coordinates":[-79.99881,40.28219]},"properties":{"p":"1008J00168000000","a":"NORTHERN DR","m":"South Park","u":"L","o":"corp","sf":73181,"v":51300}},{"type":"Feature","geometry":{"type":"Point","coordinates":[-79.9852,40.28109]},"properties":{"p":"1008M00240000000","a":"FAY ST","m":"South Park","u":"L","o":"corp","sf":25265,"v":46300}},{"type":"Feature","geometry":{"type":"Point","coordinates":[-79.98499,40.28166]},"properties":{"p":"1008M00290000000","a":"TRIPHAMMER RD","m":"South Park","u":"L","o":"corp","sf":38700,"v":3900}},{"type":"Feature","geometry":{"type":"Point","coordinates":[-79.99738,40.28687]},"properties":{"p":"1008A00125000000","a":"2890 BROWNSVILLE RD EXT","m":"South Park","u":"L","o":"corp","sf":16123,"v":20400}},{"type":"Feature","geometry":{"type":"Point","coordinates":[-79.98077,40.28078]},"properties":{"p":"1007J00167000100","a":"PINEY FORK RD","m":"South Park","u":"L","o":"individual","sf":5725,"v":600}},{"type":"Feature","geometry":{"type":"Point","coordinates":[-79.99876,40.28737]},"properties":{"p":"0885N00385000000","a":"BROWNSVILLE RD","m":"South Park","u":"L","o":"corp","sf":167619,"v":34300}},{"type":"Feature","geometry":{"type":"Point","coordinates":[-79.99635,40.28889]},"properties":{"p":"0885N00018000000","a":"GOULD DR","m":"South Park","u":"L","o":"individual","sf":14715,"v":20300}},{"type":"Feature","geometry":{"type":"Point","coordinates":[-79.99969,40.28768]},"properties":{"p":"0885N00253000000","a":"BROWNSVILLE RD","m":"South Park","u":"L","o":"individual","sf":15899,"v":1600}},{"type":"Feature","geometry":{"type":"Point","coordinates":[-79.99153,40.28351]},"properties":{"p":"1008F00271000000","a":"ARMSTRONG DR","m":"South Park","u":"L","o":"individual","sf":7800,"v":800}},{"type":"Feature","geometry":{"type":"Point","coordinates":[-79.98962,40.28273]},"properties":{"p":"1008L00400000000","a":"HILL ST","m":"South Park","u":"B","o":"corp","sf":673525,"v":59400}}]}