{"type":"FeatureCollection","features":[{"type":"Feature","geometry":{"type":"Point","coordinates":[-79.97511,40.49483]},"properties":{"p":"0165K00034000000","a":"EVERGREEN AVE","m":"Millvale","u":"C","o":"individual","sf":4543,"v":1800}},{"type":"Feature","geometry":{"type":"Point","coordinates":[-79.97604,40.49454]},"properties":{"p":"0165K00072000000","a":"EVERGREEN AVE","m":"Millvale","u":"C","o":"individual","sf":6354,"v":1100}},{"type":"Feature","geometry":{"type":"Point","coordinates":[-79.97733,40.49443]},"properties":{"p":"0165P00200000000","a":"EVERGREEN AVE","m":"Shaler","u":"C","o":"individual","sf":321473,"v":131600}},{"type":"Feature","geometry":{"type":"Point","coordinates":[-79.97857,40.49756]},"properties":{"p":"0165F00006000000","a":"1519 BABCOCK BLVD","m":"Shaler","u":"C","o":"individual","sf":7118,"v":8700}},{"type":"Feature","geometry":{"type":"Point","coordinates":[-79.9772,40.49672]},"properties":{"p":"0165F00026000000","a":"BABCOCK BLVD","m":"Shaler","u":"C","o":"individual","sf":1490,"v":500}},{"type":"Feature","geometry":{"type":"Point","coordinates":[-79.97793,40.49814]},"properties":{"p":"0165F00068000000","a":"1525 EVERGREEN AVE","m":"Shaler","u":"C","o":"corp","sf":12005,"v":49700}},{"type":"Feature","geometry":{"type":"Point","coordinates":[-79.97514,40.49372]},"properties":{"p":"0165P00028000000","a":"EVERGREEN AVE","m":"Millvale","u":"L","o":"individual","sf":279,"v":200}},{"type":"Feature","geometry":{"type":"Point","coordinates":[-79.97499,40.4924]},"properties":{"p":"0165P00050000000","a":"NORTH AVE","m":"Millvale","u":"L","o":"individual","sf":2688,"v":1000}},{"type":"Feature","geometry":{"type":"Point","coordinates":[-79.97445,40.49092]},"properties":{"p":"0118B00022000000","a":"FOREST ST","m":"Millvale","u":"L","o":"individual","sf":6792,"v":26200}},{"type":"Feature","geometry":{"type":"Point","coordinates":[-79.97444,40.49023]},"properties":{"p":"0118B00025000000","a":"FOREST ST","m":"Millvale","u":"L","o":"individual","sf":26729,"v":28000}},{"type":"Feature","geometry":{"type":"Point","coordinates":[-79.97547,40.49101]},"properties":{"p":"0118B00045000000","a":"FOREST ST","m":"Millvale","u":"L","o":"individual","sf":57630,"v":30800}},{"type":"Feature","geometry":{"type":"Point","coordinates":[-79.97533,40.49012]},"properties":{"p":"0118B00060000000","a":"SPRING ST","m":"Millvale","u":"L","o":"individual","sf":136979,"v":38100}},{"type":"Feature","geometry":{"type":"Point","coordinates":[-79.97063,40.49039]},"properties":{"p":"0118C00028000000","a":"2 FRANK ST","m":"Millvale","u":"L","o":"individual","sf":1903,"v":700}},{"type":"Feature","geometry":{"type":"Point","coordinates":[-79.97174,40.495]},"properties":{"p":"0165L00084000000","a":"TERRACE DR","m":"Millvale","u":"L","o":"individual","sf":10241,"v":26500}},{"type":"Feature","geometry":{"type":"Point","coordinates":[-79.97591,40.49401]},"properties":{"p":"0165P00089000000","a":"EVERGREEN AVE","m":"Millvale","u":"L","o":"individual","sf":972,"v":400}},{"type":"Feature","geometry":{"type":"Point","coordinates":[-79.97714,40.50402]},"properties":{"p":"0220K00120000000","a":"MARY AVE","m":"Shaler","u":"L","o":"individual","sf":19576,"v":7000}},{"type":"Feature","geometry":{"type":"Point","coordinates":[-79.96737,40.49307]},"properties":{"p":"0165S00113000000","a":"4 OAKWOOD SQ","m":"Shaler","u":"L","o":"individual","sf":4297,"v":1600}},{"type":"Feature","geometry":{"type":"Point","coordinates":[-79.9605,40.49394]},"properties":{"p":"0166P00032000000","a":"PARKER ST","m":"Shaler","u":"L","o":"individual","sf":3500,"v":1300}},{"type":"Feature","geometry":{"type":"Point","coordinates":[-79.96527,40.49944]},"properties":{"p":"0166A00316000000","a":"REBECCA ST","m":"Shaler","u":"L","o":"individual","sf":2901,"v":1100}},{"type":"Feature","geometry":{"type":"Point","coordinates":[-79.96202,40.49771]},"properties":{"p":"0166E00284000000","a":"FENWAY RD","m":"Shaler","u":"L","o":"individual","sf":10615,"v":18000}},{"type":"Feature","geometry":{"type":"Point","coordinates":[-79.96067,40.50882]},"properties":{"p":"0221B00270000000","a":"LITTLE PINE CREEK RD","m":"Shaler","u":"L","o":"individual","sf":29966,"v":6000}},{"type":"Feature","geometry":{"type":"Point","coordinates":[-79.97662,40.50966]},"properties":{"p":"0220B00129000000","a":"ANDERSON RD","m":"Shaler","u":"L","o":"individual","sf":16222,"v":10500}},{"type":"Feature","geometry":{"type":"Point","coordinates":[-79.96477,40.49392]},"properties":{"p":"0166N00030000000","a":"528 SEAVEY RD","m":"Shaler","u":"L","o":"individual","sf":16404,"v":36000}},{"type":"Feature","geometry":{"type":"Point","coordinates":[-79.96512,40.49221]},"properties":{"p":"0166N00076000000","a":"SEAVEY RD","m":"Shaler","u":"L","o":"individual","sf":22630,"v":8000}},{"type":"Feature","geometry":{"type":"Point","coordinates":[-79.96458,40.49245]},"properties":{"p":"0166N00092000000","a":"SEAVEY RD","m":"Shaler","u":"L","o":"individual","sf":26371,"v":5800}},{"type":"Feature","geometry":{"type":"Point","coordinates":[-79.96088,40.49438]},"properties":{"p":"0166K00016000000","a":"PARKER ST","m":"Shaler","u":"L","o":"individual","sf":6182,"v":1100}},{"type":"Feature","geometry":{"type":"Point","coordinates":[-79.96185,40.49564]},"properties":{"p":"0166K00180000000","a":"SEAVEY RD","m":"Shaler","u":"L","o":"individual","sf":7453,"v":8900}},{"type":"Feature","geometry":{"type":"Point","coordinates":[-79.967,40.49332]},"properties":{"p":"0165S00018000100","a":"OAKWOOD SQ","m":"Shaler","u":"L","o":"individual","sf":1328,"v":600}},{"type":"Feature","geometry":{"type":"Point","coordinates":[-79.96659,40.49361]},"properties":{"p":"0165S00026000000","a":"OAKWOOD SQ","m":"Shaler","u":"L","o":"individual","sf":48787,"v":30800}},{"type":"Feature","geometry":{"type":"Point","coordinates":[-79.9636,40.49235]},"properties":{"p":"0166N00340000000","a":"65 SOLLINGER LN","m":"Shaler","u":"L","o":"individual","sf":650,"v":300}},{"type":"Feature","geometry":{"type":"Point","coordinates":[-79.96233,40.49751]},"properties":{"p":"0166E00259000000","a":"SOOSE RD","m":"Shaler","u":"L","o":"individual","sf":18900,"v":18800}},{"type":"Feature","geometry":{"type":"Point","coordinates":[-79.96176,40.49792]},"properties":{"p":"0166E00282000000","a":"FENWAY RD","m":"Shaler","u":"L","o":"individual","sf":6088,"v":17600}},{"type":"Feature","geometry":{"type":"Point","coordinates":[-79.96372,40.49517]},"properties":{"p":"0166J00146000000","a":"HAWTHORNE RD","m":"Shaler","u":"L","o":"individual","sf":9742,"v":35400}},{"type":"Feature","geometry":{"type":"Point","coordinates":[-79.96067,40.49504]},"properties":{"p":"0166K00109000000","a":"DAVIS AVE","m":"Shaler","u":"L","o":"individual","sf":1700,"v":700}},{"type":"Feature","geometry":{"type":"Point","coordinates":[-79.96126,40.49784]},"properties":{"p":"0166F00060000000","a":"FENWAY RD","m":"Shaler","u":"L","o":"individual","sf":1020,"v":500}},{"type":"Feature","geometry":{"type":"Point","coordinates":[-79.96159,40.49798]},"properties":{"p":"0166F00061000000","a":"FENWAY RD","m":"Shaler","u":"L","o":"individual","sf":1578,"v":700}},{"type":"Feature","geometry":{"type":"Point","coordinates":[-79.96267,40.49434]},"properties":{"p":"0166J00372000000","a":"PARKER ST","m":"Shaler","u":"L","o":"individual","sf":15331,"v":35900}},{"type":"Feature","geometry":{"type":"Point","coordinates":[-79.96244,40.49434]},"properties":{"p":"0166J00374000000","a":"430 PARKER ST","m":"Shaler","u":"L","o":"individual","sf":3000,"v":1200}},{"type":"Feature","geometry":{"type":"Point","coordinates":[-79.96131,40.4943]},"properties":{"p":"0166K00010000000","a":"PARKER ST","m":"Shaler","u":"L","o":"individual","sf":5750,"v":35100}},{"type":"Feature","geometry":{"type":"Point","coordinates":[-79.97468,40.50525]},"properties":{"p":"0220K00009000000","a":"OAK AVE","m":"Shaler","u":"L","o":"individual","sf":549,"v":300}},{"type":"Feature","geometry":{"type":"Point","coordinates":[-79.9648,40.50123]},"properties":{"p":"0166A00205000000","a":"BEULAH ST","m":"Shaler","u":"L","o":"individual","sf":2888,"v":1100}},{"type":"Feature","geometry":{"type":"Point","coordinates":[-79.9648,40.50115]},"properties":{"p":"0166A00207000000","a":"BEULAH ST","m":"Shaler","u":"L","o":"individual","sf":2730,"v":1100}},{"type":"Feature","geometry":{"type":"Point","coordinates":[-79.96282,40.49696]},"properties":{"p":"0166E00237000000","a":"SOOSE RD","m":"Shaler","u":"L","o":"individual","sf":21755,"v":36500}},{"type":"Feature","geometry":{"type":"Point","coordinates":[-79.96201,40.49338]},"properties":{"p":"0166P00150000000","a":"MANHATTAN AVE","m":"Shaler","u":"L","o":"individual","sf":115473,"v":45200}},{"type":"Feature","geometry":{"type":"Point","coordinates":[-79.96098,40.49341]},"properties":{"p":"0166P00196000000","a":"MANHATTAN AVE","m":"Shaler","u":"L","o":"individual","sf":7450,"v":1900}},{"type":"Feature","geometry":{"type":"Point","coordinates":[-79.9624,40.49551]},"properties":{"p":"0166J00310000000","a":"SOOSE RD","m":"Shaler","u":"L","o":"individual","sf":4800,"v":1800}},{"type":"Feature","geometry":{"type":"Point","coordinates":[-79.96204,40.49563]},"properties":{"p":"0166J00336000000","a":"SEAVEY RD","m":"Shaler","u":"L","o":"individual","sf":6990,"v":8800}},{"type":"Feature","geometry":{"type":"Point","coordinates":[-79.96292,40.49387]},"properties":{"p":"0166N00144000000","a":"PARKER ST","m":"Shaler","u":"L","o":"individual","sf":7593,"v":35200}},{"type":"Feature","geometry":{"type":"Point","coordinates":[-79.97402,40.50876]},"properties":{"p":"0220C00110000000","a":"SHALER AVE","m":"Shaler","u":"L","o":"individual","sf":17903,"v":20000}},{"type":"Feature","geometry":{"type":"Point","coordinates":[-79.96725,40.5035]},"properties":{"p":"0220S00054000000","a":"HILLWOOD RD","m":"Shaler","u":"L","o":"individual","sf":3563,"v":1300}},{"type":"Feature","geometry":{"type":"Point","coordinates":[-79.97493,40.507]},"properties":{"p":"0220F00203000000","a":"KLIR RD","m":"Shaler","u":"L","o":"individual","sf":16133,"v":1600}},{"type":"Feature","geometry":{"type":"Point","coordinates":[-79.97449,40.50425]},"properties":{"p":"0220L00008000000","a":"WALNUT AVE","m":"Shaler","u":"L","o":"individual","sf":1532,"v":600}},{"type":"Feature","geometry":{"type":"Point","coordinates":[-79.9738,40.50399]},"properties":{"p":"0220L00036000000","a":"OAK AVE","m":"Shaler","u":"L","o":"individual","sf":48090,"v":39000}},{"type":"Feature","geometry":{"type":"Point","coordinates":[-79.97564,40.50333]},"properties":{"p":"0220P00228000000","a":"ANDERSON RD","m":"Shaler","u":"L","o":"individual","sf":35281,"v":20200}},{"type":"Feature","geometry":{"type":"Point","coordinates":[-79.9752,40.50291]},"properties":{"p":"0220P00272000000","a":"WHITE TAIL LN","m":"Shaler","u":"L","o":"individual","sf":15439,"v":8800}},{"type":"Feature","geometry":{"type":"Point","coordinates":[-79.96064,40.49539]},"properties":{"p":"0166K00293000000","a":"REETZ AVE","m":"Shaler","u":"L","o":"corp","sf":5850,"v":17600}},{"type":"Feature","geometry":{"type":"Point","coordinates":[-79.97259,40.5022]},"properties":{"p":"0220R00225000000","a":"WIBLE RUN RD","m":"Shaler","u":"L","o":"corp","sf":50530,"v":20000}},{"type":"Feature","geometry":{"type":"Point","coordinates":[-79.97717,40.50551]},"properties":{"p":"0220K00261000000","a":"129 WEST RD","m":"Shaler","u":"L","o":"individual","sf":33002,"v":11700}},{"type":"Feature","geometry":{"type":"Point","coordinates":[-79.97258,40.49633]},"properties":{"p":"0165L00346000000","a":"MARIE AVE","m":"Shaler","u":"L","o":"individual","sf":4800,"v":1800}},{"type":"Feature","geometry":{"type":"Point","coordinates":[-79.97245,40.49633]},"properties":{"p":"0165L00350000000","a":"MARIE AVE","m":"Shaler","u":"L","o":"individual","sf":2400,"v":900}},{"type":"Feature","geometry":{"type":"Point","coordinates":[-79.97232,40.49634]},"properties":{"p":"0165L00352000000","a":"MARIE AVE","m":"Shaler","u":"L","o":"individual","sf":4800,"v":1800}},{"type":"Feature","geometry":{"type":"Point","coordinates":[-79.97175,40.49641]},"properties":{"p":"0165L00366000000","a":"MARIE AVE","m":"Shaler","u":"L","o":"individual","sf":2500,"v":1000}},{"type":"Feature","geometry":{"type":"Point","coordinates":[-79.97649,40.50327]},"properties":{"p":"0220P00170000000","a":"ANDERSON RD","m":"Shaler","u":"L","o":"individual","sf":6071,"v":2200}},{"type":"Feature","geometry":{"type":"Point","coordinates":[-79.97629,40.50175]},"properties":{"p":"0220P00190000000","a":"ANDERSON RD","m":"Shaler","u":"L","o":"individual","sf":20715,"v":2200}},{"type":"Feature","geometry":{"type":"Point","coordinates":[-79.97595,40.50204]},"properties":{"p":"0220P00197000000","a":"ANDERSON RD","m":"Shaler","u":"L","o":"individual","sf":14113,"v":4200}},{"type":"Feature","geometry":{"type":"Point","coordinates":[-79.96789,40.49382]},"properties":{"p":"0165M00175000000","a":"HAWTHORNE RD","m":"Shaler","u":"L","o":"corp","sf":6205,"v":35100}},{"type":"Feature","geometry":{"type":"Point","coordinates":[-79.96019,40.49629]},"properties":{"p":"0166K00220000000","a":"385 SEAVEY RD","m":"Shaler","u":"L","o":"individual","sf":1432,"v":600}},{"type":"Feature","geometry":{"type":"Point","coordinates":[-79.96084,40.50131]},"properties":{"p":"0166B00186000000","a":"WINTERSET DR","m":"Shaler","u":"L","o":"individual","sf":27200,"v":3000}},{"type":"Feature","geometry":{"type":"Point","coordinates":[-79.96359,40.49659]},"properties":{"p":"0166E00125000000","a":"OLD SOOSE RD","m":"Shaler","u":"L","o":"individual","sf":41687,"v":20800}},{"type":"Feature","geometry":{"type":"Point","coordinates":[-79.9659,40.49602]},"properties":{"p":"0166J00070000000","a":"HAWTHORNE RD","m":"Shaler","u":"L","o":"individual","sf":8818,"v":17800}},{"type":"Feature","geometry":{"type":"Point","coordinates":[-79.97658,40.507]},"properties":{"p":"0220F00209000000","a":"127 KLIR RD","m":"Shaler","u":"L","o":"individual","sf":15032,"v":45300}},{"type":"Feature","geometry":{"type":"Point","coordinates":[-79.97772,40.50769]},"properties":{"p":"0220F00211000000","a":"KLIR RD","m":"Shaler","u":"L","o":"individual","sf":50029,"v":5200}},{"type":"Feature","geometry":{"type":"Point","coordinates":[-79.9715,40.50376]},"properties":{"p":"0220L00078000000","a":"BIRCH AVE","m":"Shaler","u":"L","o":"individual","sf":23490,"v":8300}},{"type":"Feature","geometry":{"type":"Point","coordinates":[-79.97103,40.50437]},"properties":{"p":"0220L00090000000","a":"WIBLE RUN RD","m":"Shaler","u":"L","o":"individual","sf":66211,"v":3000}},{"type":"Feature","geometry":{"type":"Point","coordinates":[-79.9757,40.50281]},"properties":{"p":"0220P00301000000","a":"ANDERSON RD","m":"Shaler","u":"L","o":"individual","sf":45607,"v":4200}},{"type":"Feature","geometry":{"type":"Point","coordinates":[-79.97409,40.50315]},"properties":{"p":"0220R00030000000","a":"WIBLE RUN RD","m":"Shaler","u":"L","o":"corp","sf":134165,"v":19500}},{"type":"Feature","geometry":{"type":"Point","coordinates":[-79.97316,40.50305]},"properties":{"p":"0220R00060000000","a":"WIBLE RUN RD","m":"Shaler","u":"L","o":"corp","sf":58806,"v":9500}},{"type":"Feature","geometry":{"type":"Point","coordinates":[-79.97221,40.50292]},"properties":{"p":"0220R00080000000","a":"WIBLE RUN RD","m":"Shaler","u":"L","o":"corp","sf":103673,"v":1200}},{"type":"Feature","geometry":{"type":"Point","coordinates":[-79.9622,40.49043]},"properties":{"p":"0119A00042000000","a":"ELIZABETH ST","m":"Shaler","u":"L","o":"individual","sf":8855,"v":17900}},{"type":"Feature","geometry":{"type":"Point","coordinates":[-79.97093,40.49849]},"properties":{"p":"0165G00032000000","a":"CONVENT AVE","m":"Shaler","u":"L","o":"individual","sf":2500,"v":1000}},{"type":"Feature","geometry":{"type":"Point","coordinates":[-79.97093,40.49842]},"properties":{"p":"0165G00033000000","a":"CONVENT AVE","m":"Shaler","u":"L","o":"individual","sf":2500,"v":1000}},{"type":"Feature","geometry":{"type":"Point","coordinates":[-79.97092,40.49825]},"properties":{"p":"0165G00035000000","a":"CONVENT AVE","m":"Shaler","u":"L","o":"individual","sf":5000,"v":35000}},{"type":"Feature","geometry":{"type":"Point","coordinates":[-79.97092,40.49811]},"properties":{"p":"0165G00037000000","a":"CONVENT AVE","m":"Shaler","u":"L","o":"individual","sf":4800,"v":1800}},{"type":"Feature","geometry":{"type":"Point","coordinates":[-79.9709,40.49752]},"properties":{"p":"0165G00043000000","a":"CONVENT AVE","m":"Shaler","u":"L","o":"individual","sf":12500,"v":4500}},{"type":"Feature","geometry":{"type":"Point","coordinates":[-79.97089,40.49738]},"properties":{"p":"0165G00048000000","a":"CONVENT AVE","m":"Shaler","u":"L","o":"individual","sf":2400,"v":900}},{"type":"Feature","geometry":{"type":"Point","coordinates":[-79.97826,40.50019]},"properties":{"p":"0165B00099000000","a":"2816 WILLIAM ST","m":"Shaler","u":"L","o":"individual","sf":8128,"v":35300}},{"type":"Feature","geometry":{"type":"Point","coordinates":[-79.96901,40.49013]},"properties":{"p":"0118D00108000000","a":"LINDENWOOD DR","m":"Shaler","u":"L","o":"individual","sf":7100,"v":35200}},{"type":"Feature","geometry":{"type":"Point","coordinates":[-79.97177,40.49668]},"properties":{"p":"0165G00070000000","a":"LOCUST AVE","m":"Shaler","u":"L","o":"corp","sf":2500,"v":1000}},{"type":"Feature","geometry":{"type":"Point","coordinates":[-79.97744,40.49511]},"properties":{"p":"0165K00342000000","a":"BABCOCK BLVD","m":"Shaler","u":"L","o":"individual","sf":92347,"v":8000}},{"type":"Feature","geometry":{"type":"Point","coordinates":[-79.97131,40.4978]},"properties":{"p":"0165G00146000000","a":"UPLAND AVE","m":"Shaler","u":"L","o":"individual","sf":4800,"v":1800}},{"type":"Feature","geometry":{"type":"Point","coordinates":[-79.97222,40.4985]},"properties":{"p":"0165G00165000000","a":"ORCHARD AVE","m":"Shaler","u":"L","o":"corp","sf":19646,"v":1000}},{"type":"Feature","geometry":{"type":"Point","coordinates":[-79.96897,40.49105]},"properties":{"p":"0118D00190000000","a":"HUGEL DR","m":"Shaler","u":"L","o":"individual","sf":2134,"v":800}},{"type":"Feature","geometry":{"type":"Point","coordinates":[-79.96636,40.49167]},"properties":{"p":"0118D00191000000","a":"SEAVEY RD","m":"Shaler","u":"L","o":"individual","sf":285318,"v":38300}},{"type":"Feature","geometry":{"type":"Point","coordinates":[-79.96804,40.49138]},"properties":{"p":"0118D00193000000","a":"SEAVEY RD","m":"Shaler","u":"L","o":"individual","sf":33074,"v":37500}},{"type":"Feature","geometry":{"type":"Point","coordinates":[-79.9728,40.4985]},"properties":{"p":"0165G00185000000","a":"MANSION AVE","m":"Shaler","u":"L","o":"individual","sf":9510,"v":3400}},{"type":"Feature","geometry":{"type":"Point","coordinates":[-79.96456,40.4912]},"properties":{"p":"0119A00250000000","a":"FRIDAY RD","m":"Shaler","u":"L","o":"individual","sf":27742,"v":9800}},{"type":"Feature","geometry":{"type":"Point","coordinates":[-79.9716,40.49576]},"properties":{"p":"0165L00256000000","a":"CLARE AVE","m":"Shaler","u":"L","o":"corp","sf":2648,"v":1000}},{"type":"Feature","geometry":{"type":"Point","coordinates":[-79.97894,40.50079]},"properties":{"p":"0165A00295000000","a":"NILL ST","m":"Shaler","u":"L","o":"individual","sf":4899,"v":1800}},{"type":"Feature","geometry":{"type":"Point","coordinates":[-79.97712,40.49787]},"properties":{"p":"0165F00271000000","a":"1514 EVERGREEN AVE","m":"Shaler","u":"L","o":"individual","sf":3360,"v":1300}},{"type":"Feature","geometry":{"type":"Point","coordinates":[-79.9743,40.49664]},"properties":{"p":"0165F00300000000","a":"WALTERS AVE","m":"Shaler","u":"L","o":"individual","sf":6708,"v":35200}},{"type":"Feature","geometry":{"type":"Point","coordinates":[-79.97094,40.49862]},"properties":{"p":"0165G00030000000","a":"CONVENT AVE","m":"Shaler","u":"L","o":"individual","sf":2368,"v":900}},{"type":"Feature","geometry":{"type":"Point","coordinates":[-79.97093,40.49856]},"properties":{"p":"0165G00031000000","a":"CONVENT AVE","m":"Shaler","u":"L","o":"individual","sf":2500,"v":1000}},{"type":"Feature","geometry":{"type":"Point","coordinates":[-79.96437,40.4916]},"properties":{"p":"0119A00152000000","a":"GRENO DR","m":"Shaler","u":"L","o":"individual","sf":73616,"v":10000}},{"type":"Feature","geometry":{"type":"Point","coordinates":[-79.96495,40.49151]},"properties":{"p":"0119A00154000000","a":"GRENO DR","m":"Shaler","u":"L","o":"individual","sf":7909,"v":2900}},{"type":"Feature","geometry":{"type":"Point","coordinates":[-79.96198,40.49146]},"properties":{"p":"0119B00104000000","a":"NEWLAND LN","m":"Shaler","u":"L","o":"corp","sf":4432,"v":1700}},{"type":"Feature","geometry":{"type":"Point","coordinates":[-79.97782,40.49652]},"properties":{"p":"0165K00235000000","a":"1415 BABCOCK BLVD","m":"Shaler","u":"L","o":"individual","sf":15460,"v":9500}},{"type":"Feature","geometry":{"type":"Point","coordinates":[-79.97788,40.49591]},"properties":{"p":"0165K00268000000","a":"GLENWOOD AVE","m":"Shaler","u":"L","o":"individual","sf":4590,"v":1700}},{"type":"Feature","geometry":{"type":"Point","coordinates":[-79.97161,40.49739]},"properties":{"p":"0165G00112000000","a":"UPLAND AVE","m":"Shaler","u":"L","o":"individual","sf":2400,"v":900}},{"type":"Feature","geometry":{"type":"Point","coordinates":[-79.97918,40.49582]},"properties":{"p":"0165J00129000000","a":"GEYER RD","m":"Shaler","u":"L","o":"individual","sf":6000,"v":2200}},{"type":"Feature","geometry":{"type":"Point","coordinates":[-79.97625,40.50109]},"properties":{"p":"0165B00210000000","a":"WIBLE RUN RD","m":"Shaler","u":"L","o":"individual","sf":43473,"v":15300}},{"type":"Feature","geometry":{"type":"Point","coordinates":[-79.97616,40.49986]},"properties":{"p":"0165B00242000000","a":"WIBLE RUN RD","m":"Shaler","u":"L","o":"individual","sf":2854,"v":1100}},{"type":"Feature","geometry":{"type":"Point","coordinates":[-79.97234,40.49777]},"properties":{"p":"0165G00130000000","a":"UPLAND AVE","m":"Shaler","u":"L","o":"individual","sf":9600,"v":35400}},{"type":"Feature","geometry":{"type":"Point","coordinates":[-79.97178,40.49778]},"properties":{"p":"0165G00133000000","a":"UPLAND AVE","m":"Shaler","u":"L","o":"individual","sf":21600,"v":36500}},{"type":"Feature","geometry":{"type":"Point","coordinates":[-79.97765,40.49606]},"properties":{"p":"0165K00288000000","a":"GLENWOOD AVE","m":"Shaler","u":"L","o":"individual","sf":3912,"v":1500}},{"type":"Feature","geometry":{"type":"Point","coordinates":[-79.96944,40.49065]},"properties":{"p":"0118D00180000000","a":"HUGEL DR","m":"Shaler","u":"L","o":"individual","sf":5576,"v":17600}},{"type":"Feature","geometry":{"type":"Point","coordinates":[-79.97965,40.49801]},"properties":{"p":"0165E00063000000","a":"GRAZELLA ST","m":"Shaler","u":"L","o":"individual","sf":7162,"v":35200}},{"type":"Feature","geometry":{"type":"Point","coordinates":[-79.97368,40.49681]},"properties":{"p":"0165G00275000000","a":"MILLVALE AVE","m":"Shaler","u":"L","o":"individual","sf":2500,"v":1000}},{"type":"Feature","geometry":{"type":"Point","coordinates":[-79.97786,40.49594]},"properties":{"p":"0165K00293000000","a":"GEYER RD","m":"Shaler","u":"L","o":"individual","sf":420,"v":200}},{"type":"Feature","geometry":{"type":"Point","coordinates":[-79.97803,40.49618]},"properties":{"p":"0165K00298000000","a":"GLENWOOD AVE","m":"Shaler","u":"L","o":"individual","sf":8508,"v":35300}},{"type":"Feature","geometry":{"type":"Point","coordinates":[-79.97859,40.49508]},"properties":{"p":"0165K00310000000","a":"GEYER RD","m":"Shaler","u":"L","o":"individual","sf":60984,"v":40200}},{"type":"Feature","geometry":{"type":"Point","coordinates":[-79.97228,40.50015]},"properties":{"p":"0165C00101000000","a":"BARRINGTON DR","m":"Shaler","u":"L","o":"individual","sf":7140,"v":35200}},{"type":"Feature","geometry":{"type":"Point","coordinates":[-79.9725,40.50024]},"properties":{"p":"0165C00103000000","a":"BARRINGTON DR","m":"Shaler","u":"L","o":"individual","sf":9239,"v":35400}},{"type":"Feature","geometry":{"type":"Point","coordinates":[-79.97676,40.49754]},"properties":{"p":"0165F00265000000","a":"EVERGREEN AVE","m":"Shaler","u":"L","o":"corp","sf":7402,"v":35200}},{"type":"Feature","geometry":{"type":"Point","coordinates":[-79.96275,40.4901]},"properties":{"p":"0119A00116000000","a":"35 SOLLINGER LN","m":"Shaler","u":"L","o":"individual","sf":8850,"v":17900}},{"type":"Feature","geometry":{"type":"Point","coordinates":[-79.97915,40.49964]},"properties":{"p":"0165A00221000000","a":"EVERGREEN AVE","m":"Shaler","u":"L","o":"individual","sf":1098,"v":500}},{"type":"Feature","geometry":{"type":"Point","coordinates":[-79.97994,40.49735]},"properties":{"p":"0165E00150000000","a":"LADLEY ST","m":"Shaler","u":"L","o":"individual","sf":1875,"v":800}},{"type":"Feature","geometry":{"type":"Point","coordinates":[-79.97978,40.49827]},"properties":{"p":"0165E00350000000","a":"WYNNE ST","m":"Shaler","u":"L","o":"individual","sf":42677,"v":15000}},{"type":"Feature","geometry":{"type":"Point","coordinates":[-79.97928,40.49619]},"properties":{"p":"0165J00080000000","a":"GLENWOOD AVE","m":"Shaler","u":"L","o":"individual","sf":1935,"v":24300}},{"type":"Feature","geometry":{"type":"Point","coordinates":[-79.96707,40.49729]},"properties":{"p":"0165H00163000000","a":"EMERSON RD","m":"Shaler","u":"L","o":"individual","sf":400,"v":200}},{"type":"Feature","geometry":{"type":"Point","coordinates":[-79.9783,40.49956]},"properties":{"p":"0165B00141000000","a":"LORI ANN WAY","m":"Shaler","u":"L","o":"individual","sf":1742,"v":6100}},{"type":"Feature","geometry":{"type":"Point","coordinates":[-79.97225,40.49667]},"properties":{"p":"0165G00078000000","a":"LOCUST AVE","m":"Shaler","u":"L","o":"individual","sf":14500,"v":10000}},{"type":"Feature","geometry":{"type":"Point","coordinates":[-79.97153,40.49739]},"properties":{"p":"0165G00110000000","a":"UPLAND AVE","m":"Shaler","u":"L","o":"individual","sf":2400,"v":900}},{"type":"Feature","geometry":{"type":"Point","coordinates":[-79.97326,40.49744]},"properties":{"p":"0165G00223000000","a":"MANSION AVE","m":"Shaler","u":"L","o":"individual","sf":7500,"v":2700}},{"type":"Feature","geometry":{"type":"Point","coordinates":[-79.97376,40.49858]},"properties":{"p":"0165G00248000000","a":"MILLVALE AVE","m":"Shaler","u":"L","o":"corp","sf":1701,"v":700}},{"type":"Feature","geometry":{"type":"Point","coordinates":[-79.97374,40.49806]},"properties":{"p":"0165G00249000000","a":"MILLVALE AVE","m":"Shaler","u":"L","o":"individual","sf":34700,"v":37700}},{"type":"Feature","geometry":{"type":"Point","coordinates":[-79.97371,40.49746]},"properties":{"p":"0165G00264000000","a":"MILLVALE AVE","m":"Shaler","u":"L","o":"individual","sf":5000,"v":35000}},{"type":"Feature","geometry":{"type":"Point","coordinates":[-79.97371,40.49736]},"properties":{"p":"0165G00266000000","a":"MILLVALE AVE","m":"Shaler","u":"L","o":"individual","sf":2500,"v":1000}},{"type":"Feature","geometry":{"type":"Point","coordinates":[-79.9737,40.49722]},"properties":{"p":"0165G00267000000","a":"MILLVALE AVE","m":"Shaler","u":"L","o":"individual","sf":7500,"v":35200}},{"type":"Feature","geometry":{"type":"Point","coordinates":[-79.9737,40.49708]},"properties":{"p":"0165G00270000000","a":"MILLVALE AVE","m":"Shaler","u":"L","o":"individual","sf":2500,"v":1000}},{"type":"Feature","geometry":{"type":"Point","coordinates":[-79.97369,40.497]},"properties":{"p":"0165G00271000000","a":"MILLVALE AVE","m":"Shaler","u":"L","o":"individual","sf":3750,"v":1400}},{"type":"Feature","geometry":{"type":"Point","coordinates":[-79.97907,40.49709]},"properties":{"p":"0165E00120000000","a":"SMITH ST","m":"Shaler","u":"L","o":"corp","sf":23000,"v":5500}},{"type":"Feature","geometry":{"type":"Point","coordinates":[-79.97947,40.49698]},"properties":{"p":"0165E00123000000","a":"LADLEY ST","m":"Shaler","u":"L","o":"corp","sf":7524,"v":35200}},{"type":"Feature","geometry":{"type":"Point","coordinates":[-79.97897,40.49666]},"properties":{"p":"0165E00126000000","a":"BABCOCK BLVD","m":"Shaler","u":"L","o":"corp","sf":60287,"v":40100}},{"type":"Feature","geometry":{"type":"Point","coordinates":[-79.97533,40.49716]},"properties":{"p":"0165F00160000000","a":"MARVIN AVE","m":"Shaler","u":"L","o":"individual","sf":62639,"v":200}},{"type":"Feature","geometry":{"type":"Point","coordinates":[-79.97996,40.49562]},"properties":{"p":"0165J00145000000","a":"GEYER RD","m":"Shaler","u":"L","o":"individual","sf":32160,"v":11400}},{"type":"Feature","geometry":{"type":"Point","coordinates":[-79.96331,40.49359]},"properties":{"p":"0166N00124000000","a":"PARKER ST","m":"Shaler","u":"L","o":"individual","sf":31050,"v":37300}},{"type":"Feature","geometry":{"type":"Point","coordinates":[-79.96478,40.50074]},"properties":{"p":"0166A00217000000","a":"BEULAH ST","m":"Shaler","u":"L","o":"individual","sf":5460,"v":35000}},{"type":"Feature","geometry":{"type":"Point","coordinates":[-79.97139,40.49653]},"properties":{"p":"0165G00068000000","a":"CONVENT AVE","m":"Shaler","u":"L","o":"individual","sf":22000,"v":36500}},{"type":"Feature","geometry":{"type":"Point","coordinates":[-79.97271,40.49632]},"properties":{"p":"0165L00344000000","a":"201 MARIE AVE","m":"Shaler","u":"L","o":"individual","sf":2400,"v":900}},{"type":"Feature","geometry":{"type":"Point","coordinates":[-79.97156,40.49812]},"properties":{"p":"0165G00153000000","a":"ORCHARD AVE","m":"Shaler","u":"L","o":"individual","sf":18000,"v":36200}},{"type":"Feature","geometry":{"type":"Point","coordinates":[-79.9719,40.49668]},"properties":{"p":"0165G00072000000","a":"LOCUST AVE","m":"Shaler","u":"L","o":"individual","sf":5000,"v":35000}},{"type":"Feature","geometry":{"type":"Point","coordinates":[-79.97369,40.4969]},"properties":{"p":"0165G00273000000","a":"MILLVALE AVE","m":"Shaler","u":"L","o":"individual","sf":3750,"v":1400}},{"type":"Feature","geometry":{"type":"Point","coordinates":[-79.97091,40.4979]},"properties":{"p":"0165G00039000000","a":"CONVENT AVE","m":"Shaler","u":"L","o":"individual","sf":10000,"v":3600}},{"type":"Feature","geometry":{"type":"Point","coordinates":[-79.9717,40.49738]},"properties":{"p":"0165G00113000000","a":"UPLAND AVE","m":"Shaler","u":"L","o":"individual","sf":2400,"v":900}},{"type":"Feature","geometry":{"type":"Point","coordinates":[-79.97732,40.50456]},"properties":{"p":"0220K00160000000","a":"ANDERSON RD","m":"Shaler","u":"L","o":"individual","sf":18790,"v":6700}},{"type":"Feature","geometry":{"type":"Point","coordinates":[-79.97709,40.50738]},"properties":{"p":"0220F00175000000","a":"KLIR RD","m":"Shaler","u":"L","o":"individual","sf":5009,"v":500}},{"type":"Feature","geometry":{"type":"Point","coordinates":[-79.97818,40.49967]},"properties":{"p":"0165B00139000000","a":"WILLIAM ST","m":"Shaler","u":"L","o":"individual","sf":1742,"v":700}},{"type":"Feature","geometry":{"type":"Point","coordinates":[-79.96274,40.49798]},"properties":{"p":"0166E00275000000","a":"FENWAY RD","m":"Shaler","u":"L","o":"individual","sf":1500,"v":600}},{"type":"Feature","geometry":{"type":"Point","coordinates":[-79.97093,40.49835]},"properties":{"p":"0165G00034000000","a":"CONVENT AVE","m":"Shaler","u":"L","o":"individual","sf":2500,"v":1000}},{"type":"Feature","geometry":{"type":"Point","coordinates":[-79.97279,40.49829]},"properties":{"p":"0165G00189000000","a":"MANSION AVE","m":"Shaler","u":"L","o":"individual","sf":5000,"v":35000}},{"type":"Feature","geometry":{"type":"Point","coordinates":[-79.96721,40.49756]},"properties":{"p":"0165H00210000000","a":"EMERSON RD","m":"Shaler","u":"L","o":"individual","sf":12202,"v":18200}},{"type":"Feature","geometry":{"type":"Point","coordinates":[-79.97049,40.50853]},"properties":{"p":"0220H00080000000","a":"WIBLE RUN RD","m":"Shaler","u":"B","o":"corp","sf":18738,"v":7000}},{"type":"Feature","geometry":{"type":"Point","coordinates":[-79.97034,40.50823]},"properties":{"p":"0220H00082000000","a":"WIBLE RUN RD","m":"Shaler","u":"B","o":"corp","sf":21477,"v":7300}},{"type":"Feature","geometry":{"type":"Point","coordinates":[-79.97026,40.50796]},"properties":{"p":"0220H00084000000","a":"WIBLE RUN RD","m":"Shaler","u":"B","o":"corp","sf":25891,"v":7800}},{"type":"Feature","geometry":{"type":"Point","coordinates":[-79.97017,40.50734]},"properties":{"p":"0220H00088000000","a":"WIBLE RUN RD","m":"Shaler","u":"B","o":"corp","sf":22355,"v":7400}},{"type":"Feature","geometry":{"type":"Point","coordinates":[-79.96995,40.50683]},"properties":{"p":"0220H00090000000","a":"WIBLE RUN RD","m":"Shaler","u":"B","o":"corp","sf":37607,"v":8900}},{"type":"Feature","geometry":{"type":"Point","coordinates":[-79.97061,40.50881]},"properties":{"p":"0220D00320000000","a":"WIBLE RUN RD","m":"Shaler","u":"B","o":"corp","sf":18594,"v":7000}},{"type":"Feature","geometry":{"type":"Point","coordinates":[-79.96349,40.49063]},"properties":{"p":"0119A00200000000","a":"121 LOCUST RIDGE DR","m":"Shaler","u":"B","o":"corp","sf":4713,"v":4400}},{"type":"Feature","geometry":{"type":"Point","coordinates":[-79.96361,40.49059]},"properties":{"p":"0119A00202000000","a":"119 LOCUST RIDGE DR","m":"Shaler","u":"B","o":"corp","sf":3635,"v":3400}},{"type":"Feature","geometry":{"type":"Point","coordinates":[-79.96363,40.49048]},"properties":{"p":"0119A00204000000","a":"117 LOCUST RIDGE DR","m":"Shaler","u":"B","o":"corp","sf":3514,"v":3200}},{"type":"Feature","geometry":{"type":"Point","coordinates":[-79.96384,40.49035]},"properties":{"p":"0119A00206000000","a":"115 LOCUST RIDGE DR","m":"Shaler","u":"B","o":"corp","sf":8281,"v":7700}},{"type":"Feature","geometry":{"type":"Point","coordinates":[-79.96392,40.49015]},"properties":{"p":"0119A00208000000","a":"113 LOCUST RIDGE DR","m":"Shaler","u":"B","o":"corp","sf":6303,"v":5900}},{"type":"Feature","geometry":{"type":"Point","coordinates":[-79.96384,40.49001]},"properties":{"p":"0119A00210000000","a":"111 LOCUST RIDGE DR","m":"Shaler","u":"B","o":"corp","sf":5290,"v":4900}},{"type":"Feature","geometry":{"type":"Point","coordinates":[-79.97021,40.50765]},"properties":{"p":"0220H00086000000","a":"WIBLE RUN RD","m":"Shaler","u":"B","o":"corp","sf":23114,"v":7500}}]}