{"type":"FeatureCollection","features":[{"type":"Feature","geometry":{"type":"Point","coordinates":[-79.96444,40.47481]},"properties":{"p":"0080N00016000001","a":"1 43RD ST","m":"9th Ward - PITTSBURGH","u":"I","o":"corp","sf":47101,"v":162200}},{"type":"Feature","geometry":{"type":"Point","coordinates":[-79.96594,40.47006]},"properties":{"p":"0049A00003000000","a":"39TH ST","m":"6th Ward - PITTSBURGH","u":"C","o":"corp","sf":25765,"v":195500}},{"type":"Feature","geometry":{"type":"Point","coordinates":[-79.96602,40.47023]},"properties":{"p":"0049A00005000000","a":"39TH ST","m":"6th Ward - PITTSBURGH","u":"C","o":"corp","sf":41164,"v":299000}},{"type":"Feature","geometry":{"type":"Point","coordinates":[-79.96143,40.47033]},"properties":{"p":"0049B00127000000","a":"BANNER WAY","m":"9th Ward - PITTSBURGH","u":"C","o":"corp","sf":488,"v":300}},{"type":"Feature","geometry":{"type":"Point","coordinates":[-79.96115,40.47286]},"properties":{"p":"0080P00038000000","a":"LONG WAY","m":"9th Ward - PITTSBURGH","u":"C","o":"corp","sf":133,"v":100}},{"type":"Feature","geometry":{"type":"Point","coordinates":[-79.96015,40.47043]},"properties":{"p":"0049B00237000000","a":"4200 BUTLER ST","m":"9th Ward - PITTSBURGH","u":"C","o":"corp","sf":1859,"v":54900}},{"type":"Feature","geometry":{"type":"Point","coordinates":[-79.96019,40.47038]},"properties":{"p":"0049B00238000000","a":"4200 BUTLER ST","m":"9th Ward - PITTSBURGH","u":"C","o":"corp","sf":2500,"v":4000}},{"type":"Feature","geometry":{"type":"Point","coordinates":[-79.96162,40.47406]},"properties":{"p":"0080P00131000000","a":"45TH ST","m":"9th Ward - PITTSBURGH","u":"C","o":"individual","sf":2000,"v":6000}},{"type":"Feature","geometry":{"type":"Point","coordinates":[-79.96941,40.47685]},"properties":{"p":"0079M00002000000","a":"MARYLAND AVE","m":"Millvale","u":"C","o":"corp","sf":2156,"v":400}},{"type":"Feature","geometry":{"type":"Point","coordinates":[-79.97389,40.47864]},"properties":{"p":"0079G00144000000","a":"504 STANTON AVE","m":"Millvale","u":"C","o":"individual","sf":8640,"v":7800}},{"type":"Feature","geometry":{"type":"Point","coordinates":[-79.97105,40.47799]},"properties":{"p":"0079G00187000000","a":"STANTON AVE","m":"Millvale","u":"C","o":"individual","sf":1588,"v":10400}},{"type":"Feature","geometry":{"type":"Point","coordinates":[-79.97382,40.47259]},"properties":{"p":"0079R00066000000","a":"HERR ST","m":"Millvale","u":"C","o":"individual","sf":6725,"v":15100}},{"type":"Feature","geometry":{"type":"Point","coordinates":[-79.97386,40.47238]},"properties":{"p":"0079R00070000000","a":"HERR ST","m":"Millvale","u":"C","o":"individual","sf":16750,"v":3000}},{"type":"Feature","geometry":{"type":"Point","coordinates":[-79.97111,40.47718]},"properties":{"p":"0079G00322000000","a":"MARYLAND AVE","m":"Millvale","u":"C","o":"corp","sf":3401,"v":12100}},{"type":"Feature","geometry":{"type":"Point","coordinates":[-79.96847,40.47928]},"properties":{"p":"0079H00051000000","a":"112 LINCOLN AVE","m":"Millvale","u":"C","o":"corp","sf":9360,"v":17400}},{"type":"Feature","geometry":{"type":"Point","coordinates":[-79.96828,40.47918]},"properties":{"p":"0079H00054000000","a":"112 LINCOLN AVE","m":"Millvale","u":"C","o":"corp","sf":1658,"v":10500}},{"type":"Feature","geometry":{"type":"Point","coordinates":[-79.96824,40.47916]},"properties":{"p":"0079H00055000000","a":"112 LINCOLN AVE","m":"Millvale","u":"C","o":"corp","sf":1699,"v":10500}},{"type":"Feature","geometry":{"type":"Point","coordinates":[-79.96819,40.47913]},"properties":{"p":"0079H00056000000","a":"112 LINCOLN AVE","m":"Millvale","u":"C","o":"corp","sf":3120,"v":11800}},{"type":"Feature","geometry":{"type":"Point","coordinates":[-79.96811,40.47909]},"properties":{"p":"0079H00057000000","a":"EVERGREEN AVE","m":"Millvale","u":"C","o":"corp","sf":3695,"v":12300}},{"type":"Feature","geometry":{"type":"Point","coordinates":[-79.97051,40.4804]},"properties":{"p":"0079C00278000000","a":"226 MEADE ST","m":"Millvale","u":"C","o":"individual","sf":2197,"v":600}},{"type":"Feature","geometry":{"type":"Point","coordinates":[-79.97624,40.48322]},"properties":{"p":"0118P00094000000","a":"HILL ST","m":"Millvale","u":"C","o":"corp","sf":10282,"v":18300}},{"type":"Feature","geometry":{"type":"Point","coordinates":[-79.9752,40.48013]},"properties":{"p":"0079B00133000000","a":"NORTH AVE","m":"Millvale","u":"C","o":"individual","sf":7200,"v":16200}},{"type":"Feature","geometry":{"type":"Point","coordinates":[-79.97016,40.47909]},"properties":{"p":"0079H00100000000","a":"137 LINCOLN AVE","m":"Millvale","u":"C","o":"individual","sf":1693,"v":2200}},{"type":"Feature","geometry":{"type":"Point","coordinates":[-79.97405,40.47223]},"properties":{"p":"0048C00002000000","a":"HERR ST","m":"Millvale","u":"C","o":"individual","sf":10250,"v":2700}},{"type":"Feature","geometry":{"type":"Point","coordinates":[-79.97423,40.47209]},"properties":{"p":"0048C00005000000","a":"HERR ST","m":"Millvale","u":"C","o":"individual","sf":17036,"v":4400}},{"type":"Feature","geometry":{"type":"Point","coordinates":[-79.96759,40.47705]},"properties":{"p":"0079M00060000000","a":"BRIDGE ST","m":"Millvale","u":"C","o":"corp","sf":63336,"v":58300}},{"type":"Feature","geometry":{"type":"Point","coordinates":[-79.96833,40.47921]},"properties":{"p":"0079H00053000000","a":"112 LINCOLN AVE","m":"Millvale","u":"C","o":"corp","sf":2283,"v":11100}},{"type":"Feature","geometry":{"type":"Point","coordinates":[-79.97132,40.4773]},"properties":{"p":"0079G00318000000","a":"SHERIDAN ST","m":"Millvale","u":"C","o":"corp","sf":14940,"v":22500}},{"type":"Feature","geometry":{"type":"Point","coordinates":[-79.97297,40.4793]},"properties":{"p":"0079G00109000000","a":"HAYS ST","m":"Millvale","u":"C","o":"individual","sf":1340,"v":200}},{"type":"Feature","geometry":{"type":"Point","coordinates":[-79.96117,40.4703]},"properties":{"p":"0049B00168000200","a":"EDEN WAY","m":"9th Ward - PITTSBURGH","u":"L","o":"corp","sf":68,"v":100}},{"type":"Feature","geometry":{"type":"Point","coordinates":[-79.96116,40.47029]},"properties":{"p":"0049B00168000300","a":"EDEN WAY","m":"9th Ward - PITTSBURGH","u":"L","o":"individual","sf":68,"v":100}},{"type":"Feature","geometry":{"type":"Point","coordinates":[-79.96115,40.47029]},"properties":{"p":"0049B00168000400","a":"EDEN WAY","m":"9th Ward - PITTSBURGH","u":"L","o":"corp","sf":68,"v":100}},{"type":"Feature","geometry":{"type":"Point","coordinates":[-79.96113,40.47027]},"properties":{"p":"0049B00168000600","a":"EDEN WAY","m":"9th Ward - PITTSBURGH","u":"L","o":"individual","sf":70,"v":100}},{"type":"Feature","geometry":{"type":"Point","coordinates":[-79.96281,40.47132]},"properties":{"p":"0049A00065000000","a":"BANNER WAY","m":"9th Ward - PITTSBURGH","u":"L","o":"individual","sf":971,"v":400}},{"type":"Feature","geometry":{"type":"Point","coordinates":[-79.96074,40.47168]},"properties":{"p":"0049B00026000000","a":"43RD 1/2 ST","m":"9th Ward - PITTSBURGH","u":"L","o":"individual","sf":1220,"v":3200}},{"type":"Feature","geometry":{"type":"Point","coordinates":[-79.96325,40.47053]},"properties":{"p":"0049A00185000000","a":"148 41ST ST","m":"9th Ward - PITTSBURGH","u":"L","o":"corp","sf":18450,"v":41200}},{"type":"Feature","geometry":{"type":"Point","coordinates":[-79.96308,40.47174]},"properties":{"p":"0049A00080000000","a":"42ND ST","m":"9th Ward - PITTSBURGH","u":"L","o":"corp","sf":1760,"v":7000}},{"type":"Feature","geometry":{"type":"Point","coordinates":[-79.96176,40.47119]},"properties":{"p":"0049B00111000A00","a":"42ND ST","m":"9th Ward - PITTSBURGH","u":"L","o":"individual","sf":774,"v":400}},{"type":"Feature","geometry":{"type":"Point","coordinates":[-79.96118,40.47031]},"properties":{"p":"0049B00168000100","a":"EDEN WAY","m":"9th Ward - PITTSBURGH","u":"L","o":"individual","sf":68,"v":100}},{"type":"Feature","geometry":{"type":"Point","coordinates":[-79.96206,40.47161]},"properties":{"p":"0049A00012000000","a":"43RD ST","m":"9th Ward - PITTSBURGH","u":"L","o":"individual","sf":1968,"v":27900}},{"type":"Feature","geometry":{"type":"Point","coordinates":[-79.9657,40.47122]},"properties":{"p":"0049A00360000000","a":"40TH ST","m":"9th Ward - PITTSBURGH","u":"L","o":"corp","sf":11848,"v":4200}},{"type":"Feature","geometry":{"type":"Point","coordinates":[-79.96208,40.4705]},"properties":{"p":"0049A00131000000","a":"166 BANNER WAY","m":"9th Ward - PITTSBURGH","u":"L","o":"individual","sf":1874,"v":27500}},{"type":"Feature","geometry":{"type":"Point","coordinates":[-79.96225,40.47038]},"properties":{"p":"0049A00134000000","a":"167 41ST ST","m":"9th Ward - PITTSBURGH","u":"L","o":"individual","sf":1874,"v":27500}},{"type":"Feature","geometry":{"type":"Point","coordinates":[-79.96261,40.47311]},"properties":{"p":"0080N00139000000","a":"43RD 1/2 ST","m":"9th Ward - PITTSBURGH","u":"L","o":"individual","sf":880,"v":400}},{"type":"Feature","geometry":{"type":"Point","coordinates":[-79.96012,40.47233]},"properties":{"p":"0080P00084000B00","a":"180 45TH ST","m":"9th Ward - PITTSBURGH","u":"L","o":"individual","sf":1159,"v":500}},{"type":"Feature","geometry":{"type":"Point","coordinates":[-79.96001,40.47226]},"properties":{"p":"0080P00086000A00","a":"187 LOCARNA WAY","m":"9th Ward - PITTSBURGH","u":"L","o":"individual","sf":646,"v":2600}},{"type":"Feature","geometry":{"type":"Point","coordinates":[-79.96286,40.47329]},"properties":{"p":"0080N00146000000","a":"43RD HALF ST","m":"9th Ward - PITTSBURGH","u":"L","o":"corp","sf":16380,"v":41000}},{"type":"Feature","geometry":{"type":"Point","coordinates":[-79.96296,40.47356]},"properties":{"p":"0080N00150000000","a":"44TH ST","m":"9th Ward - PITTSBURGH","u":"L","o":"corp","sf":2000,"v":28000}},{"type":"Feature","geometry":{"type":"Point","coordinates":[-79.96252,40.47255]},"properties":{"p":"0080N00057000000","a":"43RD ST","m":"9th Ward - PITTSBURGH","u":"L","o":"corp","sf":2600,"v":10400}},{"type":"Feature","geometry":{"type":"Point","coordinates":[-79.96312,40.47362]},"properties":{"p":"0080N00154000000","a":"44TH ST","m":"9th Ward - PITTSBURGH","u":"L","o":"corp","sf":3000,"v":25600}},{"type":"Feature","geometry":{"type":"Point","coordinates":[-79.96321,40.47365]},"properties":{"p":"0080N00156000000","a":"44TH ST","m":"9th Ward - PITTSBURGH","u":"L","o":"corp","sf":2600,"v":7600}},{"type":"Feature","geometry":{"type":"Point","coordinates":[-79.96334,40.47375]},"properties":{"p":"0080N00159000000","a":"44TH ST","m":"9th Ward - PITTSBURGH","u":"L","o":"corp","sf":3171,"v":32700}},{"type":"Feature","geometry":{"type":"Point","coordinates":[-79.9634,40.4738]},"properties":{"p":"0080N00160000000","a":"44TH ST","m":"9th Ward - PITTSBURGH","u":"L","o":"corp","sf":1900,"v":800}},{"type":"Feature","geometry":{"type":"Point","coordinates":[-79.96344,40.47382]},"properties":{"p":"0080N00161000000","a":"44TH ST","m":"9th Ward - PITTSBURGH","u":"L","o":"corp","sf":1300,"v":12600}},{"type":"Feature","geometry":{"type":"Point","coordinates":[-79.96348,40.47385]},"properties":{"p":"0080N00162000000","a":"44TH ST","m":"9th Ward - PITTSBURGH","u":"L","o":"corp","sf":1200,"v":11200}},{"type":"Feature","geometry":{"type":"Point","coordinates":[-79.96354,40.47387]},"properties":{"p":"0080N00166000000","a":"44TH ST","m":"9th Ward - PITTSBURGH","u":"L","o":"corp","sf":2700,"v":30800}},{"type":"Feature","geometry":{"type":"Point","coordinates":[-79.96287,40.47275]},"properties":{"p":"0080N00061000000","a":"43RD ST","m":"9th Ward - PITTSBURGH","u":"L","o":"corp","sf":2700,"v":20000}},{"type":"Feature","geometry":{"type":"Point","coordinates":[-79.9631,40.4729]},"properties":{"p":"0080N00066000000","a":"97 43RD ST","m":"9th Ward - PITTSBURGH","u":"L","o":"corp","sf":2450,"v":29800}},{"type":"Feature","geometry":{"type":"Point","coordinates":[-79.96148,40.47344]},"properties":{"p":"0080P00062000000","a":"45TH ST","m":"9th Ward - PITTSBURGH","u":"L","o":"individual","sf":2400,"v":29600}},{"type":"Feature","geometry":{"type":"Point","coordinates":[-79.96136,40.47335]},"properties":{"p":"0080P00064000000","a":"45TH ST","m":"9th Ward - PITTSBURGH","u":"L","o":"individual","sf":2400,"v":29600}},{"type":"Feature","geometry":{"type":"Point","coordinates":[-79.96222,40.47361]},"properties":{"p":"0080N00183000000","a":"LOCARNA WAY","m":"9th Ward - PITTSBURGH","u":"L","o":"individual","sf":960,"v":400}},{"type":"Feature","geometry":{"type":"Point","coordinates":[-79.96289,40.47307]},"properties":{"p":"0080N00115000000","a":"108 43RD HALF ST","m":"9th Ward - PITTSBURGH","u":"L","o":"corp","sf":1500,"v":26000}},{"type":"Feature","geometry":{"type":"Point","coordinates":[-79.96154,40.47404]},"properties":{"p":"0080P00130000000","a":"121 45TH ST","m":"9th Ward - PITTSBURGH","u":"L","o":"individual","sf":2000,"v":28000}},{"type":"Feature","geometry":{"type":"Point","coordinates":[-79.96098,40.47297]},"properties":{"p":"0080P00070000B00","a":"154 1/2 45TH ST","m":"9th Ward - PITTSBURGH","u":"L","o":"individual","sf":1128,"v":500}},{"type":"Feature","geometry":{"type":"Point","coordinates":[-79.97103,40.48605]},"properties":{"p":"0118L00264000000","a":"PARK ST","m":"Millvale","u":"L","o":"individual","sf":5614,"v":14100}},{"type":"Feature","geometry":{"type":"Point","coordinates":[-79.97116,40.48604]},"properties":{"p":"0118L00265000000","a":"PARK ST","m":"Millvale","u":"L","o":"corp","sf":2880,"v":1000}},{"type":"Feature","geometry":{"type":"Point","coordinates":[-79.97145,40.48599]},"properties":{"p":"0118L00270000000","a":"PATRICK ST","m":"Millvale","u":"L","o":"individual","sf":3814,"v":1200}},{"type":"Feature","geometry":{"type":"Point","coordinates":[-79.97126,40.48551]},"properties":{"p":"0118L00271000000","a":"22 PARK ST","m":"Millvale","u":"L","o":"corp","sf":947,"v":400}},{"type":"Feature","geometry":{"type":"Point","coordinates":[-79.97131,40.48581]},"properties":{"p":"0118L00273000000","a":"PARK ST","m":"Millvale","u":"L","o":"individual","sf":1278,"v":500}},{"type":"Feature","geometry":{"type":"Point","coordinates":[-79.97341,40.47552]},"properties":{"p":"0079L00301000000","a":"HILL ST","m":"Millvale","u":"L","o":"individual","sf":3792,"v":1200}},{"type":"Feature","geometry":{"type":"Point","coordinates":[-79.978,40.48276]},"properties":{"p":"0118P00033000000","a":"CLARA ST","m":"Millvale","u":"L","o":"individual","sf":3299,"v":1100}},{"type":"Feature","geometry":{"type":"Point","coordinates":[-79.97804,40.48289]},"properties":{"p":"0118P00034000000","a":"148 CLARA ST","m":"Millvale","u":"L","o":"individual","sf":6244,"v":7100}},{"type":"Feature","geometry":{"type":"Point","coordinates":[-79.9781,40.48313]},"properties":{"p":"0118P00037000000","a":"148 CLARA ST","m":"Millvale","u":"L","o":"individual","sf":3113,"v":1000}},{"type":"Feature","geometry":{"type":"Point","coordinates":[-79.97777,40.48316]},"properties":{"p":"0118P00039000000","a":"SIEGEL ST","m":"Millvale","u":"L","o":"individual","sf":2875,"v":1000}},{"type":"Feature","geometry":{"type":"Point","coordinates":[-79.97776,40.48309]},"properties":{"p":"0118P00040000000","a":"SIEGEL ST","m":"Millvale","u":"L","o":"individual","sf":2200,"v":800}},{"type":"Feature","geometry":{"type":"Point","coordinates":[-79.97766,40.48307]},"properties":{"p":"0118P00041000000","a":"SIEGEL ST","m":"Millvale","u":"L","o":"individual","sf":2200,"v":800}},{"type":"Feature","geometry":{"type":"Point","coordinates":[-79.97878,40.47908]},"properties":{"p":"0079E00040000000","a":"SPRUCE ST","m":"Millvale","u":"L","o":"individual","sf":3552,"v":12000}},{"type":"Feature","geometry":{"type":"Point","coordinates":[-79.97882,40.47902]},"properties":{"p":"0079E00042000000","a":"SPRING ST","m":"Millvale","u":"L","o":"individual","sf":3552,"v":12000}},{"type":"Feature","geometry":{"type":"Point","coordinates":[-79.97885,40.47896]},"properties":{"p":"0079E00044000000","a":"SPRING ST","m":"Millvale","u":"L","o":"individual","sf":3552,"v":1200}},{"type":"Feature","geometry":{"type":"Point","coordinates":[-79.9789,40.47887]},"properties":{"p":"0079E00048000000","a":"SPRING ST","m":"Millvale","u":"L","o":"corp","sf":7152,"v":2200}},{"type":"Feature","geometry":{"type":"Point","coordinates":[-79.97902,40.47864]},"properties":{"p":"0079E00054000000","a":"SPRING ST","m":"Millvale","u":"L","o":"corp","sf":5337,"v":1700}},{"type":"Feature","geometry":{"type":"Point","coordinates":[-79.97907,40.47855]},"properties":{"p":"0079E00056000000","a":"SPRING ST","m":"Millvale","u":"L","o":"individual","sf":5360,"v":14000}},{"type":"Feature","geometry":{"type":"Point","coordinates":[-79.97911,40.47847]},"properties":{"p":"0079E00058000000","a":"SPRING ST","m":"Millvale","u":"L","o":"individual","sf":3552,"v":12000}},{"type":"Feature","geometry":{"type":"Point","coordinates":[-79.97937,40.47799]},"properties":{"p":"0079E00082000000","a":"SPRING ST","m":"Millvale","u":"L","o":"individual","sf":94917,"v":22300}},{"type":"Feature","geometry":{"type":"Point","coordinates":[-79.97163,40.48379]},"properties":{"p":"0118R00218000000","a":"EVERGREEN AVE","m":"Millvale","u":"L","o":"individual","sf":988,"v":400}},{"type":"Feature","geometry":{"type":"Point","coordinates":[-79.97156,40.48396]},"properties":{"p":"0118R00220000000","a":"EVERGREEN AVE","m":"Millvale","u":"L","o":"individual","sf":4285,"v":6000}},{"type":"Feature","geometry":{"type":"Point","coordinates":[-79.97975,40.48019]},"properties":{"p":"0079A00146000000","a":"821 STANTON AVE","m":"Millvale","u":"L","o":"individual","sf":154,"v":1200}},{"type":"Feature","geometry":{"type":"Point","coordinates":[-79.97451,40.48774]},"properties":{"p":"0118F00045000000","a":"MARY AVE","m":"Millvale","u":"L","o":"individual","sf":27540,"v":16000}},{"type":"Feature","geometry":{"type":"Point","coordinates":[-79.97441,40.48648]},"properties":{"p":"0118F00046000000","a":"MARY AVE","m":"Millvale","u":"L","o":"individual","sf":88562,"v":21700}},{"type":"Feature","geometry":{"type":"Point","coordinates":[-79.97515,40.48717]},"properties":{"p":"0118F00067000000","a":"COLTON ST","m":"Millvale","u":"L","o":"individual","sf":64769,"v":19500}},{"type":"Feature","geometry":{"type":"Point","coordinates":[-79.97519,40.4878]},"properties":{"p":"0118F00068000000","a":"FREDERICK ST","m":"Millvale","u":"L","o":"individual","sf":7680,"v":2400}},{"type":"Feature","geometry":{"type":"Point","coordinates":[-79.97524,40.48829]},"properties":{"p":"0118F00074000100","a":"FREDERICK ST","m":"Millvale","u":"L","o":"individual","sf":3411,"v":1200}},{"type":"Feature","geometry":{"type":"Point","coordinates":[-79.97448,40.47795]},"properties":{"p":"0079F00195000000","a":"MARYLAND AVE","m":"Millvale","u":"L","o":"corp","sf":9718,"v":14400}},{"type":"Feature","geometry":{"type":"Point","coordinates":[-79.97471,40.47799]},"properties":{"p":"0079F00197000000","a":"MARYLAND AVE","m":"Millvale","u":"L","o":"corp","sf":4400,"v":13200}},{"type":"Feature","geometry":{"type":"Point","coordinates":[-79.97502,40.47761]},"properties":{"p":"0079F00201000000","a":"MARYLAND AVE","m":"Millvale","u":"L","o":"individual","sf":26266,"v":15900}},{"type":"Feature","geometry":{"type":"Point","coordinates":[-79.97474,40.47759]},"properties":{"p":"0079F00206000000","a":"MARYLAND AVE","m":"Millvale","u":"L","o":"corp","sf":6338,"v":14100}},{"type":"Feature","geometry":{"type":"Point","coordinates":[-79.97461,40.47756]},"properties":{"p":"0079F00208000000","a":"MARYLAND AVE","m":"Millvale","u":"L","o":"corp","sf":2870,"v":1000}},{"type":"Feature","geometry":{"type":"Point","coordinates":[-79.97452,40.47755]},"properties":{"p":"0079F00209000000","a":"MARYLAND AVE","m":"Millvale","u":"L","o":"corp","sf":2870,"v":1000}},{"type":"Feature","geometry":{"type":"Point","coordinates":[-79.97444,40.47753]},"properties":{"p":"0079F00210000000","a":"MARYLAND AVE","m":"Millvale","u":"L","o":"corp","sf":2870,"v":1000}},{"type":"Feature","geometry":{"type":"Point","coordinates":[-79.97461,40.47728]},"properties":{"p":"0079F00212000000","a":"OAK ST","m":"Millvale","u":"L","o":"corp","sf":15808,"v":15000}},{"type":"Feature","geometry":{"type":"Point","coordinates":[-79.97489,40.47727]},"properties":{"p":"0079F00214000000","a":"MARYLAND AVE","m":"Millvale","u":"L","o":"individual","sf":3860,"v":1300}},{"type":"Feature","geometry":{"type":"Point","coordinates":[-79.97334,40.48434]},"properties":{"p":"0118R00079000000","a":"SPRUCE ST","m":"Millvale","u":"L","o":"corp","sf":3134,"v":1000}},{"type":"Feature","geometry":{"type":"Point","coordinates":[-79.97336,40.48411]},"properties":{"p":"0118R00082000000","a":"SPRUCE ST","m":"Millvale","u":"L","o":"corp","sf":9720,"v":14400}},{"type":"Feature","geometry":{"type":"Point","coordinates":[-79.97356,40.47857]},"properties":{"p":"0079G00150000000","a":"418 STANTON AVE","m":"Millvale","u":"L","o":"individual","sf":2400,"v":800}},{"type":"Feature","geometry":{"type":"Point","coordinates":[-79.97156,40.48419]},"properties":{"p":"0118R00223000000","a":"EVERGREEN AVE","m":"Millvale","u":"L","o":"corp","sf":2028,"v":700}},{"type":"Feature","geometry":{"type":"Point","coordinates":[-79.97156,40.48426]},"properties":{"p":"0118R00224000000","a":"EVERGREEN AVE","m":"Millvale","u":"L","o":"individual","sf":2692,"v":10800}},{"type":"Feature","geometry":{"type":"Point","coordinates":[-79.97115,40.48421]},"properties":{"p":"0118R00231000000","a":"BROWN ST","m":"Millvale","u":"L","o":"individual","sf":6624,"v":14200}},{"type":"Feature","geometry":{"type":"Point","coordinates":[-79.97114,40.48408]},"properties":{"p":"0118R00233000000","a":"BROWN ST","m":"Millvale","u":"L","o":"individual","sf":2255,"v":800}},{"type":"Feature","geometry":{"type":"Point","coordinates":[-79.97113,40.48381]},"properties":{"p":"0118R00234000000","a":"CHARLES ST","m":"Millvale","u":"L","o":"individual","sf":15976,"v":15000}},{"type":"Feature","geometry":{"type":"Point","coordinates":[-79.97513,40.4848]},"properties":{"p":"0118K00005000000","a":"COLTON ST","m":"Millvale","u":"L","o":"individual","sf":2880,"v":1000}},{"type":"Feature","geometry":{"type":"Point","coordinates":[-79.97476,40.4852]},"properties":{"p":"0118K00020000000","a":"MARY ST","m":"Millvale","u":"L","o":"individual","sf":6183,"v":14100}},{"type":"Feature","geometry":{"type":"Point","coordinates":[-79.97494,40.48595]},"properties":{"p":"0118K00045000000","a":"COLTON ST","m":"Millvale","u":"L","o":"individual","sf":91642,"v":22000}},{"type":"Feature","geometry":{"type":"Point","coordinates":[-79.97509,40.48646]},"properties":{"p":"0118K00050000000","a":"MARY ST","m":"Millvale","u":"L","o":"individual","sf":11831,"v":14600}},{"type":"Feature","geometry":{"type":"Point","coordinates":[-79.97115,40.48482]},"properties":{"p":"0118L00319000000","a":"BROWN ST","m":"Millvale","u":"L","o":"individual","sf":2592,"v":900}},{"type":"Feature","geometry":{"type":"Point","coordinates":[-79.97383,40.47781]},"properties":{"p":"0079G00286000000","a":"252 MARYLAND AVE","m":"Millvale","u":"L","o":"individual","sf":2190,"v":800}},{"type":"Feature","geometry":{"type":"Point","coordinates":[-79.97376,40.47779]},"properties":{"p":"0079G00287000000","a":"MARYLAND AVE","m":"Millvale","u":"L","o":"individual","sf":2200,"v":10100}},{"type":"Feature","geometry":{"type":"Point","coordinates":[-79.97311,40.47681]},"properties":{"p":"0079L00030000000","a":"LOGAN ST","m":"Millvale","u":"L","o":"corp","sf":49789,"v":18100}},{"type":"Feature","geometry":{"type":"Point","coordinates":[-79.97353,40.4769]},"properties":{"p":"0079L00032000000","a":"OAK ST","m":"Millvale","u":"L","o":"corp","sf":2928,"v":1000}},{"type":"Feature","geometry":{"type":"Point","coordinates":[-79.97261,40.47677]},"properties":{"p":"0079L00041000000","a":"LOGAN ST","m":"Millvale","u":"L","o":"individual","sf":3742,"v":1200}},{"type":"Feature","geometry":{"type":"Point","coordinates":[-79.97246,40.47677]},"properties":{"p":"0079L00043000000","a":"LOGAN ST","m":"Millvale","u":"L","o":"individual","sf":1739,"v":600}},{"type":"Feature","geometry":{"type":"Point","coordinates":[-79.97474,40.47877]},"properties":{"p":"0079F00009000000","a":"STANTON AVE","m":"Millvale","u":"L","o":"individual","sf":2090,"v":700}},{"type":"Feature","geometry":{"type":"Point","coordinates":[-79.9752,40.4789]},"properties":{"p":"0079F00010000000","a":"STANTON AVE","m":"Millvale","u":"L","o":"individual","sf":1920,"v":700}},{"type":"Feature","geometry":{"type":"Point","coordinates":[-79.97507,40.4791]},"properties":{"p":"0079F00011000000","a":"FARRAGUT ST","m":"Millvale","u":"L","o":"individual","sf":960,"v":400}},{"type":"Feature","geometry":{"type":"Point","coordinates":[-79.97524,40.47911]},"properties":{"p":"0079F00017000000","a":"STANTON AVE","m":"Millvale","u":"L","o":"individual","sf":9360,"v":14400}},{"type":"Feature","geometry":{"type":"Point","coordinates":[-79.97513,40.47888]},"properties":{"p":"0079F00020000000","a":"STANTON AVE","m":"Millvale","u":"L","o":"individual","sf":1142,"v":400}},{"type":"Feature","geometry":{"type":"Point","coordinates":[-79.97062,40.48458]},"properties":{"p":"0118L00329000000","a":"CHARLES ST","m":"Millvale","u":"L","o":"individual","sf":10094,"v":14500}},{"type":"Feature","geometry":{"type":"Point","coordinates":[-79.97117,40.48955]},"properties":{"p":"0118C00049000000","a":"HANSEN ST","m":"Millvale","u":"L","o":"individual","sf":2000,"v":700}},{"type":"Feature","geometry":{"type":"Point","coordinates":[-79.97107,40.48981]},"properties":{"p":"0118C00054000000","a":"HANSEN ST","m":"Millvale","u":"L","o":"individual","sf":2400,"v":900}},{"type":"Feature","geometry":{"type":"Point","coordinates":[-79.97102,40.48686]},"properties":{"p":"0118G00190000000","a":"LAWRENCE ST","m":"Millvale","u":"L","o":"corp","sf":5760,"v":14100}},{"type":"Feature","geometry":{"type":"Point","coordinates":[-79.97506,40.47886]},"properties":{"p":"0079F00022000000","a":"STANTON AVE","m":"Millvale","u":"L","o":"individual","sf":1200,"v":500}},{"type":"Feature","geometry":{"type":"Point","coordinates":[-79.97171,40.47814]},"properties":{"p":"0079G00180000000","a":"302 STANTON AVE","m":"Millvale","u":"L","o":"corp","sf":1440,"v":500}},{"type":"Feature","geometry":{"type":"Point","coordinates":[-79.97332,40.48525]},"properties":{"p":"0118L00055000000","a":"NORTH AVE","m":"Millvale","u":"L","o":"individual","sf":2487,"v":800}},{"type":"Feature","geometry":{"type":"Point","coordinates":[-79.97784,40.48215]},"properties":{"p":"0118P00025000000","a":"126 CLARA ST","m":"Millvale","u":"L","o":"individual","sf":3762,"v":2100}},{"type":"Feature","geometry":{"type":"Point","coordinates":[-79.97542,40.48118]},"properties":{"p":"0079B00035000000","a":"207 DICKEY ST","m":"Millvale","u":"L","o":"individual","sf":924,"v":400}},{"type":"Feature","geometry":{"type":"Point","coordinates":[-79.97552,40.48115]},"properties":{"p":"0079B00037000000","a":"SAMPLE ST","m":"Millvale","u":"L","o":"corp","sf":1990,"v":700}},{"type":"Feature","geometry":{"type":"Point","coordinates":[-79.97563,40.48107]},"properties":{"p":"0079B00039000000","a":"GERWIG ST","m":"Millvale","u":"L","o":"individual","sf":1563,"v":2000}},{"type":"Feature","geometry":{"type":"Point","coordinates":[-79.97486,40.48409]},"properties":{"p":"0118P00168000000","a":"COLTON ST","m":"Millvale","u":"L","o":"individual","sf":4247,"v":13000}},{"type":"Feature","geometry":{"type":"Point","coordinates":[-79.97485,40.484]},"properties":{"p":"0118P00169000000","a":"COLTON ST","m":"Millvale","u":"L","o":"individual","sf":4792,"v":13700}},{"type":"Feature","geometry":{"type":"Point","coordinates":[-79.97202,40.47549]},"properties":{"p":"0079L00134000000","a":"SHOUP ST","m":"Millvale","u":"L","o":"individual","sf":1103,"v":400}},{"type":"Feature","geometry":{"type":"Point","coordinates":[-79.97655,40.47853]},"properties":{"p":"0079F00120000000","a":"STANTON AVE","m":"Millvale","u":"L","o":"individual","sf":14331,"v":14800}},{"type":"Feature","geometry":{"type":"Point","coordinates":[-79.97798,40.48267]},"properties":{"p":"0118P00032000000","a":"CLARA ST","m":"Millvale","u":"L","o":"corp","sf":3407,"v":1100}},{"type":"Feature","geometry":{"type":"Point","coordinates":[-79.97469,40.48373]},"properties":{"p":"0118P00174000100","a":"505 SCOTT WAY","m":"Millvale","u":"L","o":"corp","sf":1372,"v":500}},{"type":"Feature","geometry":{"type":"Point","coordinates":[-79.97196,40.4842]},"properties":{"p":"0118R00177000000","a":"EVERGREEN AVE","m":"Millvale","u":"L","o":"individual","sf":3393,"v":1100}},{"type":"Feature","geometry":{"type":"Point","coordinates":[-79.97221,40.48419]},"properties":{"p":"0118R00179000000","a":"BAUERLEIN ST","m":"Millvale","u":"L","o":"individual","sf":2726,"v":900}},{"type":"Feature","geometry":{"type":"Point","coordinates":[-79.97994,40.48041]},"properties":{"p":"0079A00140000000","a":"STANTON AVE","m":"Millvale","u":"L","o":"corp","sf":110,"v":100}},{"type":"Feature","geometry":{"type":"Point","coordinates":[-79.97631,40.48154]},"properties":{"p":"0079B00194000000","a":"123 BECKERT ST","m":"Millvale","u":"L","o":"individual","sf":2200,"v":800}},{"type":"Feature","geometry":{"type":"Point","coordinates":[-79.97529,40.48877]},"properties":{"p":"0118F00024000000","a":"FREDERICK ST","m":"Millvale","u":"L","o":"individual","sf":2880,"v":1000}},{"type":"Feature","geometry":{"type":"Point","coordinates":[-79.9705,40.48873]},"properties":{"p":"0118G00250000000","a":"WALNUT AVE","m":"Millvale","u":"L","o":"corp","sf":34019,"v":11000}},{"type":"Feature","geometry":{"type":"Point","coordinates":[-79.97396,40.47823]},"properties":{"p":"0079G00246000000","a":"STANTON AVE","m":"Millvale","u":"L","o":"individual","sf":4840,"v":13800}},{"type":"Feature","geometry":{"type":"Point","coordinates":[-79.97411,40.47826]},"properties":{"p":"0079G00248000000","a":"STANTON AVE","m":"Millvale","u":"L","o":"corp","sf":4510,"v":13300}},{"type":"Feature","geometry":{"type":"Point","coordinates":[-79.97425,40.47829]},"properties":{"p":"0079G00250000000","a":"STANTON AVE","m":"Millvale","u":"L","o":"individual","sf":4400,"v":13200}},{"type":"Feature","geometry":{"type":"Point","coordinates":[-79.97439,40.47832]},"properties":{"p":"0079G00252000000","a":"STANTON AVE","m":"Millvale","u":"L","o":"individual","sf":4629,"v":13500}},{"type":"Feature","geometry":{"type":"Point","coordinates":[-79.97312,40.47795]},"properties":{"p":"0079G00257000000","a":"401 STANTON AVE","m":"Millvale","u":"L","o":"corp","sf":601,"v":300}},{"type":"Feature","geometry":{"type":"Point","coordinates":[-79.97072,40.47749]},"properties":{"p":"0079G00267000000","a":"GOODWIN ST","m":"Millvale","u":"L","o":"individual","sf":610,"v":300}},{"type":"Feature","geometry":{"type":"Point","coordinates":[-79.97203,40.4833]},"properties":{"p":"0118R00192000000","a":"EVERGREEN AVE","m":"Millvale","u":"L","o":"individual","sf":9795,"v":14400}},{"type":"Feature","geometry":{"type":"Point","coordinates":[-79.97209,40.48318]},"properties":{"p":"0118R00193000000","a":"EVERGREEN AVE","m":"Millvale","u":"L","o":"individual","sf":2450,"v":800}},{"type":"Feature","geometry":{"type":"Point","coordinates":[-79.97213,40.48312]},"properties":{"p":"0118R00194000000","a":"EVERGREEN AVE","m":"Millvale","u":"L","o":"individual","sf":2655,"v":900}},{"type":"Feature","geometry":{"type":"Point","coordinates":[-79.97312,40.48194]},"properties":{"p":"0118R00209000000","a":"EVERGREEN RD","m":"Millvale","u":"L","o":"corp","sf":18156,"v":15200}},{"type":"Feature","geometry":{"type":"Point","coordinates":[-79.97136,40.48515]},"properties":{"p":"0118L00299000000","a":"FRIDAY RD","m":"Millvale","u":"L","o":"individual","sf":5131,"v":14000}},{"type":"Feature","geometry":{"type":"Point","coordinates":[-79.97119,40.48517]},"properties":{"p":"0118L00301000000","a":"FRIDAY RD","m":"Millvale","u":"L","o":"corp","sf":3166,"v":1100}},{"type":"Feature","geometry":{"type":"Point","coordinates":[-79.97099,40.4852]},"properties":{"p":"0118L00304000000","a":"FRIDAY RD","m":"Millvale","u":"L","o":"individual","sf":1573,"v":5700}},{"type":"Feature","geometry":{"type":"Point","coordinates":[-79.9709,40.48522]},"properties":{"p":"0118L00305000000","a":"FRIDAY RD","m":"Millvale","u":"L","o":"individual","sf":1573,"v":600}},{"type":"Feature","geometry":{"type":"Point","coordinates":[-79.97082,40.48523]},"properties":{"p":"0118L00306000000","a":"FRIDAY RD","m":"Millvale","u":"L","o":"individual","sf":1572,"v":9200}},{"type":"Feature","geometry":{"type":"Point","coordinates":[-79.97413,40.47787]},"properties":{"p":"0079G00282000000","a":"MARYLAND AVE","m":"Millvale","u":"L","o":"individual","sf":2420,"v":800}},{"type":"Feature","geometry":{"type":"Point","coordinates":[-79.97405,40.47786]},"properties":{"p":"0079G00283000000","a":"254 MARYLAND AVE","m":"Millvale","u":"L","o":"individual","sf":2420,"v":800}},{"type":"Feature","geometry":{"type":"Point","coordinates":[-79.97156,40.4837]},"properties":{"p":"0118R00217000000","a":"EVERGREEN AVE","m":"Millvale","u":"L","o":"corp","sf":4560,"v":13400}},{"type":"Feature","geometry":{"type":"Point","coordinates":[-79.97183,40.48581]},"properties":{"p":"0118L00219000000","a":"PATRICK ST","m":"Millvale","u":"L","o":"individual","sf":2168,"v":800}},{"type":"Feature","geometry":{"type":"Point","coordinates":[-79.97185,40.48588]},"properties":{"p":"0118L00220000000","a":"PATRICK ST","m":"Millvale","u":"L","o":"individual","sf":2256,"v":800}},{"type":"Feature","geometry":{"type":"Point","coordinates":[-79.97187,40.48637]},"properties":{"p":"0118L00235000000","a":"LAWRENCE ST","m":"Millvale","u":"L","o":"individual","sf":2640,"v":900}},{"type":"Feature","geometry":{"type":"Point","coordinates":[-79.97131,40.48641]},"properties":{"p":"0118L00240000000","a":"LAWRENCE ST","m":"Millvale","u":"L","o":"individual","sf":10560,"v":2700}},{"type":"Feature","geometry":{"type":"Point","coordinates":[-79.9743,40.48376]},"properties":{"p":"0118R00008000000","a":"MARY AVE","m":"Millvale","u":"L","o":"individual","sf":2880,"v":1000}},{"type":"Feature","geometry":{"type":"Point","coordinates":[-79.97938,40.47998]},"properties":{"p":"0079A00170000000","a":"TROY ST","m":"Millvale","u":"L","o":"individual","sf":980,"v":400}},{"type":"Feature","geometry":{"type":"Point","coordinates":[-79.97368,40.47648]},"properties":{"p":"0079L00072000000","a":"LOGAN ST","m":"Millvale","u":"L","o":"individual","sf":3094,"v":11300}},{"type":"Feature","geometry":{"type":"Point","coordinates":[-79.97837,40.48182]},"properties":{"p":"0079B00246000000","a":"CLARA ST","m":"Millvale","u":"L","o":"individual","sf":10047,"v":14500}},{"type":"Feature","geometry":{"type":"Point","coordinates":[-79.97836,40.48168]},"properties":{"p":"0079B00249000000","a":"CLARA ST","m":"Millvale","u":"L","o":"individual","sf":6957,"v":14200}},{"type":"Feature","geometry":{"type":"Point","coordinates":[-79.9785,40.48289]},"properties":{"p":"0118P00004000000","a":"CLARA ST","m":"Millvale","u":"L","o":"corp","sf":4882,"v":6800}},{"type":"Feature","geometry":{"type":"Point","coordinates":[-79.97843,40.48228]},"properties":{"p":"0118P00015000000","a":"CLARA ST","m":"Millvale","u":"L","o":"individual","sf":5919,"v":14100}},{"type":"Feature","geometry":{"type":"Point","coordinates":[-79.97221,40.48343]},"properties":{"p":"0118R00169000000","a":"500 BAUERLEIN ST","m":"Millvale","u":"L","o":"individual","sf":4111,"v":1300}},{"type":"Feature","geometry":{"type":"Point","coordinates":[-79.97066,40.47655]},"properties":{"p":"0079L00118000000","a":"SHOUP ST","m":"Millvale","u":"L","o":"individual","sf":8458,"v":14300}},{"type":"Feature","geometry":{"type":"Point","coordinates":[-79.97358,40.47963]},"properties":{"p":"0079C00188000000","a":"BUTLER ST","m":"Millvale","u":"L","o":"corp","sf":3120,"v":1000}},{"type":"Feature","geometry":{"type":"Point","coordinates":[-79.97363,40.47957]},"properties":{"p":"0079C00190000000","a":"BUTLER ST","m":"Millvale","u":"L","o":"corp","sf":2925,"v":1000}},{"type":"Feature","geometry":{"type":"Point","coordinates":[-79.97705,40.47855]},"properties":{"p":"0079F00095000000","a":"STANTON AVE","m":"Millvale","u":"L","o":"individual","sf":3686,"v":1200}},{"type":"Feature","geometry":{"type":"Point","coordinates":[-79.9743,40.48302]},"properties":{"p":"0118R00037000000","a":"SAMPLE ST","m":"Millvale","u":"L","o":"individual","sf":193,"v":200}},{"type":"Feature","geometry":{"type":"Point","coordinates":[-79.97409,40.48254]},"properties":{"p":"0118R00049000000","a":"FREMONT ST","m":"Millvale","u":"L","o":"individual","sf":960,"v":400}},{"type":"Feature","geometry":{"type":"Point","coordinates":[-79.97059,40.48389]},"properties":{"p":"0118R00243000000","a":"CHARLES ST","m":"Millvale","u":"L","o":"corp","sf":2760,"v":900}},{"type":"Feature","geometry":{"type":"Point","coordinates":[-79.97623,40.48106]},"properties":{"p":"0079B00186000100","a":"127 -129 BATEMAN ST","m":"Millvale","u":"L","o":"individual","sf":770,"v":300}},{"type":"Feature","geometry":{"type":"Point","coordinates":[-79.9731,40.47809]},"properties":{"p":"0079G00234000000","a":"401 STANTON AVE","m":"Millvale","u":"L","o":"corp","sf":3509,"v":4900}},{"type":"Feature","geometry":{"type":"Point","coordinates":[-79.97356,40.47814]},"properties":{"p":"0079G00240000000","a":"415 STANTON AVE","m":"Millvale","u":"L","o":"individual","sf":2200,"v":800}},{"type":"Feature","geometry":{"type":"Point","coordinates":[-79.97306,40.47378]},"properties":{"p":"0079R00046000000","a":"HERR ST","m":"Millvale","u":"L","o":"individual","sf":6861,"v":14200}},{"type":"Feature","geometry":{"type":"Point","coordinates":[-79.97013,40.48394]},"properties":{"p":"0118S00005000000","a":"BISMARK ST","m":"Millvale","u":"L","o":"corp","sf":5520,"v":14100}},{"type":"Feature","geometry":{"type":"Point","coordinates":[-79.97023,40.4837]},"properties":{"p":"0118S00008000000","a":"36 BISMARK ST","m":"Millvale","u":"L","o":"individual","sf":1084,"v":400}},{"type":"Feature","geometry":{"type":"Point","coordinates":[-79.97992,40.47806]},"properties":{"p":"0079E00089000000","a":"SPRING ST","m":"Millvale","u":"L","o":"individual","sf":8640,"v":14300}},{"type":"Feature","geometry":{"type":"Point","coordinates":[-79.97986,40.47819]},"properties":{"p":"0079E00092000000","a":"TROY ST","m":"Millvale","u":"L","o":"individual","sf":2880,"v":1000}},{"type":"Feature","geometry":{"type":"Point","coordinates":[-79.97032,40.48574]},"properties":{"p":"0118L00290000000","a":"48 PARK ST","m":"Millvale","u":"L","o":"individual","sf":4560,"v":13400}},{"type":"Feature","geometry":{"type":"Point","coordinates":[-79.97029,40.48547]},"properties":{"p":"0118L00291000000","a":"PARK ST","m":"Millvale","u":"L","o":"individual","sf":4310,"v":13000}},{"type":"Feature","geometry":{"type":"Point","coordinates":[-79.97464,40.48266]},"properties":{"p":"0118P00193000000","a":"SAMPLE ST","m":"Millvale","u":"L","o":"individual","sf":1470,"v":500}},{"type":"Feature","geometry":{"type":"Point","coordinates":[-79.97325,40.47349]},"properties":{"p":"0079R00052000000","a":"HERR ST","m":"Millvale","u":"L","o":"individual","sf":15004,"v":14900}},{"type":"Feature","geometry":{"type":"Point","coordinates":[-79.97345,40.47289]},"properties":{"p":"0079R00060000000","a":"HERR ST","m":"Millvale","u":"L","o":"individual","sf":17112,"v":15100}},{"type":"Feature","geometry":{"type":"Point","coordinates":[-79.97367,40.47283]},"properties":{"p":"0079R00062000000","a":"HERR ST","m":"Millvale","u":"L","o":"individual","sf":8951,"v":14400}},{"type":"Feature","geometry":{"type":"Point","coordinates":[-79.97439,40.48868]},"properties":{"p":"0118G00008000000","a":"OBRIEN ST","m":"Millvale","u":"L","o":"individual","sf":1442,"v":100}},{"type":"Feature","geometry":{"type":"Point","coordinates":[-79.97737,40.48129]},"properties":{"p":"0079B00227000000","a":"BECKERT ST","m":"Millvale","u":"L","o":"corp","sf":927,"v":400}},{"type":"Feature","geometry":{"type":"Point","coordinates":[-79.97739,40.48128]},"properties":{"p":"0079B00228000000","a":"BECKERT ST","m":"Millvale","u":"L","o":"individual","sf":211,"v":200}},{"type":"Feature","geometry":{"type":"Point","coordinates":[-79.97768,40.48152]},"properties":{"p":"0079B00238000000","a":"CLARA ST","m":"Millvale","u":"L","o":"corp","sf":4891,"v":1000}},{"type":"Feature","geometry":{"type":"Point","coordinates":[-79.97439,40.4885]},"properties":{"p":"0118G00011000000","a":"OBRIEN ST","m":"Millvale","u":"L","o":"individual","sf":1440,"v":600}},{"type":"Feature","geometry":{"type":"Point","coordinates":[-79.97436,40.48452]},"properties":{"p":"0118L00004000000","a":"JOSEPH ST","m":"Millvale","u":"L","o":"individual","sf":5760,"v":14100}},{"type":"Feature","geometry":{"type":"Point","coordinates":[-79.9738,40.48472]},"properties":{"p":"0118L00032000000","a":"SPRUCE ST","m":"Millvale","u":"L","o":"individual","sf":2909,"v":1000}},{"type":"Feature","geometry":{"type":"Point","coordinates":[-79.97043,40.47873]},"properties":{"p":"0079G00013000000","a":"136 GRANT AVE","m":"Millvale","u":"L","o":"individual","sf":2051,"v":700}},{"type":"Feature","geometry":{"type":"Point","coordinates":[-79.97048,40.47875]},"properties":{"p":"0079G00014000000","a":"136 GRANT AVE","m":"Millvale","u":"L","o":"individual","sf":2109,"v":700}},{"type":"Feature","geometry":{"type":"Point","coordinates":[-79.97236,40.47679]},"properties":{"p":"0079L00044000000","a":"LOGAN ST","m":"Millvale","u":"L","o":"individual","sf":2208,"v":800}},{"type":"Feature","geometry":{"type":"Point","coordinates":[-79.97363,40.48419]},"properties":{"p":"0118R00021000A00","a":"SPRUCE ST","m":"Millvale","u":"L","o":"individual","sf":1104,"v":400}},{"type":"Feature","geometry":{"type":"Point","coordinates":[-79.97097,40.47724]},"properties":{"p":"0079G00324000000","a":"MARYLAND AVE","m":"Millvale","u":"L","o":"corp","sf":2400,"v":10400}},{"type":"Feature","geometry":{"type":"Point","coordinates":[-79.97066,40.4772]},"properties":{"p":"0079G00328000000","a":"GOODWIN ST","m":"Millvale","u":"L","o":"corp","sf":2835,"v":1000}},{"type":"Feature","geometry":{"type":"Point","coordinates":[-79.97159,40.4883]},"properties":{"p":"0118G00200000000","a":"DORF DR","m":"Millvale","u":"L","o":"corp","sf":5180,"v":1800}},{"type":"Feature","geometry":{"type":"Point","coordinates":[-79.97566,40.47916]},"properties":{"p":"0079F00027000000","a":"600 STANTON AVE","m":"Millvale","u":"L","o":"individual","sf":5308,"v":14000}},{"type":"Feature","geometry":{"type":"Point","coordinates":[-79.97639,40.47944]},"properties":{"p":"0079F00042000000","a":"STANTON AVE","m":"Millvale","u":"L","o":"individual","sf":2160,"v":800}},{"type":"Feature","geometry":{"type":"Point","coordinates":[-79.97068,40.4776]},"properties":{"p":"0079G00201000000","a":"207 STANTON AVE","m":"Millvale","u":"L","o":"individual","sf":1190,"v":500}},{"type":"Feature","geometry":{"type":"Point","coordinates":[-79.97075,40.47761]},"properties":{"p":"0079G00202000000","a":"209 STANTON AVE","m":"Millvale","u":"L","o":"individual","sf":1800,"v":600}},{"type":"Feature","geometry":{"type":"Point","coordinates":[-79.97435,40.47751]},"properties":{"p":"0079G00370000000","a":"MARYLAND AVE","m":"Millvale","u":"L","o":"corp","sf":2629,"v":900}},{"type":"Feature","geometry":{"type":"Point","coordinates":[-79.96971,40.47983]},"properties":{"p":"0079D00024000000","a":"SHERIDAN ST","m":"Millvale","u":"L","o":"individual","sf":288,"v":200}},{"type":"Feature","geometry":{"type":"Point","coordinates":[-79.9731,40.4791]},"properties":{"p":"0079G00101000000","a":"12 BUTLER ST","m":"Millvale","u":"L","o":"corp","sf":670,"v":300}},{"type":"Feature","geometry":{"type":"Point","coordinates":[-79.97308,40.47913]},"properties":{"p":"0079G00102000000","a":"12 BUTLER ST","m":"Millvale","u":"L","o":"corp","sf":682,"v":300}},{"type":"Feature","geometry":{"type":"Point","coordinates":[-79.97303,40.47917]},"properties":{"p":"0079G00103000000","a":"12 BUTLER ST","m":"Millvale","u":"L","o":"corp","sf":1286,"v":500}},{"type":"Feature","geometry":{"type":"Point","coordinates":[-79.97736,40.47981]},"properties":{"p":"0079B00334000000","a":"STANTON AVE","m":"Millvale","u":"L","o":"individual","sf":4320,"v":13100}},{"type":"Feature","geometry":{"type":"Point","coordinates":[-79.97016,40.47805]},"properties":{"p":"0079H00153000000","a":"GRANT AVE","m":"Millvale","u":"L","o":"individual","sf":2016,"v":700}},{"type":"Feature","geometry":{"type":"Point","coordinates":[-79.96991,40.47795]},"properties":{"p":"0079H00158000000","a":"GRANT AVE","m":"Millvale","u":"L","o":"individual","sf":3340,"v":1100}},{"type":"Feature","geometry":{"type":"Point","coordinates":[-79.96993,40.47779]},"properties":{"p":"0079H00168000000","a":"STANTON AVE","m":"Millvale","u":"L","o":"corp","sf":4679,"v":1500}},{"type":"Feature","geometry":{"type":"Point","coordinates":[-79.97409,40.48956]},"properties":{"p":"0118C00181000000","a":"OBRIEN ST","m":"Millvale","u":"L","o":"individual","sf":11520,"v":26600}},{"type":"Feature","geometry":{"type":"Point","coordinates":[-79.97039,40.48027]},"properties":{"p":"0079C00284000000","a":"216 MEADE ST","m":"Millvale","u":"L","o":"individual","sf":7465,"v":14200}},{"type":"Feature","geometry":{"type":"Point","coordinates":[-79.97666,40.48258]},"properties":{"p":"0118P00085000000","a":"LIPPERT ST","m":"Millvale","u":"L","o":"individual","sf":1880,"v":700}},{"type":"Feature","geometry":{"type":"Point","coordinates":[-79.97655,40.48266]},"properties":{"p":"0118P00087000000","a":"116 LIPPERT ST","m":"Millvale","u":"L","o":"individual","sf":2103,"v":700}},{"type":"Feature","geometry":{"type":"Point","coordinates":[-79.97635,40.48288]},"properties":{"p":"0118P00091000000","a":"124 LIPPERT ST","m":"Millvale","u":"L","o":"individual","sf":2103,"v":700}},{"type":"Feature","geometry":{"type":"Point","coordinates":[-79.97628,40.48296]},"properties":{"p":"0118P00092000000","a":"124 LIPPERT ST","m":"Millvale","u":"L","o":"individual","sf":4555,"v":13400}},{"type":"Feature","geometry":{"type":"Point","coordinates":[-79.97606,40.48321]},"properties":{"p":"0118P00096000000","a":"HILL ST","m":"Millvale","u":"L","o":"individual","sf":3289,"v":1100}},{"type":"Feature","geometry":{"type":"Point","coordinates":[-79.97885,40.48038]},"properties":{"p":"0079A00052000000","a":"STANTON AVE","m":"Millvale","u":"L","o":"individual","sf":500,"v":300}},{"type":"Feature","geometry":{"type":"Point","coordinates":[-79.97925,40.48078]},"properties":{"p":"0079A00057000100","a":"PAMELA DR","m":"Millvale","u":"L","o":"corp","sf":1260,"v":500}},{"type":"Feature","geometry":{"type":"Point","coordinates":[-79.97928,40.48052]},"properties":{"p":"0079A00062000000","a":"7 JOHNSON ST","m":"Millvale","u":"L","o":"individual","sf":1206,"v":500}},{"type":"Feature","geometry":{"type":"Point","coordinates":[-79.97227,40.48817]},"properties":{"p":"0118G00144000000","a":"EVERGREEN AVE","m":"Millvale","u":"L","o":"individual","sf":2880,"v":20500}},{"type":"Feature","geometry":{"type":"Point","coordinates":[-79.97324,40.47727]},"properties":{"p":"0079G00356000000","a":"MARYLAND AVE","m":"Millvale","u":"L","o":"individual","sf":2410,"v":800}},{"type":"Feature","geometry":{"type":"Point","coordinates":[-79.97331,40.47728]},"properties":{"p":"0079G00357000000","a":"MARYLAND AVE","m":"Millvale","u":"L","o":"individual","sf":2341,"v":800}},{"type":"Feature","geometry":{"type":"Point","coordinates":[-79.97339,40.4773]},"properties":{"p":"0079G00358000000","a":"MARYLAND AVE","m":"Millvale","u":"L","o":"corp","sf":2880,"v":1000}},{"type":"Feature","geometry":{"type":"Point","coordinates":[-79.97355,40.47735]},"properties":{"p":"0079G00360000000","a":"MARYLAND AVE","m":"Millvale","u":"L","o":"individual","sf":2880,"v":1000}},{"type":"Feature","geometry":{"type":"Point","coordinates":[-79.97364,40.47736]},"properties":{"p":"0079G00361000000","a":"MARYLAND AVE","m":"Millvale","u":"L","o":"individual","sf":2870,"v":1000}},{"type":"Feature","geometry":{"type":"Point","coordinates":[-79.97507,40.48026]},"properties":{"p":"0079B00136000000","a":"NORTH AVE","m":"Millvale","u":"L","o":"individual","sf":3600,"v":12000}},{"type":"Feature","geometry":{"type":"Point","coordinates":[-79.97416,40.47747]},"properties":{"p":"0079G00368000000","a":"MARYLAND AVE","m":"Millvale","u":"L","o":"individual","sf":5280,"v":14000}},{"type":"Feature","geometry":{"type":"Point","coordinates":[-79.97427,40.4775]},"properties":{"p":"0079G00369000000","a":"MARYLAND AVE","m":"Millvale","u":"L","o":"corp","sf":2631,"v":900}},{"type":"Feature","geometry":{"type":"Point","coordinates":[-79.97169,40.48967]},"properties":{"p":"0118C00089000000","a":"916 EVERGREEN AVE","m":"Millvale","u":"L","o":"individual","sf":2880,"v":1000}},{"type":"Feature","geometry":{"type":"Point","coordinates":[-79.9696,40.47977]},"properties":{"p":"0079D00018000000","a":"SHERIDAN ST","m":"Millvale","u":"L","o":"individual","sf":72,"v":100}},{"type":"Feature","geometry":{"type":"Point","coordinates":[-79.97569,40.4824]},"properties":{"p":"0118P00138000000","a":"WILLIAM ST","m":"Millvale","u":"L","o":"individual","sf":5520,"v":14100}},{"type":"Feature","geometry":{"type":"Point","coordinates":[-79.97233,40.48282]},"properties":{"p":"0118R00158000A00","a":"EVERGREEN AVE","m":"Millvale","u":"L","o":"individual","sf":1578,"v":600}},{"type":"Feature","geometry":{"type":"Point","coordinates":[-79.97228,40.48288]},"properties":{"p":"0118R00158000B00","a":"EVERGREEN AVE","m":"Millvale","u":"L","o":"individual","sf":1056,"v":400}},{"type":"Feature","geometry":{"type":"Point","coordinates":[-79.9723,40.48285]},"properties":{"p":"0118R00158000C00","a":"EVERGREEN AVE","m":"Millvale","u":"L","o":"individual","sf":1021,"v":400}},{"type":"Feature","geometry":{"type":"Point","coordinates":[-79.97226,40.4829]},"properties":{"p":"0118R00158000D00","a":"EVERGREEN AVE","m":"Millvale","u":"L","o":"individual","sf":960,"v":400}},{"type":"Feature","geometry":{"type":"Point","coordinates":[-79.97709,40.47971]},"properties":{"p":"0079B00331000000","a":"STANTON AVE","m":"Millvale","u":"L","o":"individual","sf":6300,"v":14100}},{"type":"Feature","geometry":{"type":"Point","coordinates":[-79.97724,40.47977]},"properties":{"p":"0079B00332000000","a":"STANTON AVE","m":"Millvale","u":"L","o":"individual","sf":2160,"v":800}},{"type":"Feature","geometry":{"type":"Point","coordinates":[-79.97711,40.4828]},"properties":{"p":"0118P00076000000","a":"107 LIPPERT ST","m":"Millvale","u":"L","o":"individual","sf":4400,"v":13200}},{"type":"Feature","geometry":{"type":"Point","coordinates":[-79.97893,40.48225]},"properties":{"p":"0079A00006000000","a":"40TH ST","m":"Millvale","u":"L","o":"corp","sf":42253,"v":17400}},{"type":"Feature","geometry":{"type":"Point","coordinates":[-79.96934,40.47864]},"properties":{"p":"0079H00118000000","a":"LINCOLN AVE","m":"Millvale","u":"L","o":"corp","sf":3120,"v":1000}},{"type":"Feature","geometry":{"type":"Point","coordinates":[-79.96927,40.4786]},"properties":{"p":"0079H00120000000","a":"LINCOLN AVE","m":"Millvale","u":"L","o":"corp","sf":3120,"v":11400}},{"type":"Feature","geometry":{"type":"Point","coordinates":[-79.97343,40.48979]},"properties":{"p":"0118C00168000000","a":"OBRIEN ST","m":"Millvale","u":"L","o":"individual","sf":2640,"v":900}},{"type":"Feature","geometry":{"type":"Point","coordinates":[-79.97345,40.48973]},"properties":{"p":"0118C00169000000","a":"OBRIEN ST","m":"Millvale","u":"L","o":"individual","sf":3049,"v":10000}},{"type":"Feature","geometry":{"type":"Point","coordinates":[-79.97722,40.48278]},"properties":{"p":"0118P00077000000","a":"SIEGEL ST","m":"Millvale","u":"L","o":"individual","sf":2200,"v":800}},{"type":"Feature","geometry":{"type":"Point","coordinates":[-79.97711,40.48243]},"properties":{"p":"0118P00079000000","a":"LIPPERT ST","m":"Millvale","u":"L","o":"individual","sf":2020,"v":9800}},{"type":"Feature","geometry":{"type":"Point","coordinates":[-79.97975,40.48129]},"properties":{"p":"0079A00030000000","a":"40TH ST","m":"Millvale","u":"L","o":"corp","sf":17820,"v":5400}},{"type":"Feature","geometry":{"type":"Point","coordinates":[-79.97913,40.48106]},"properties":{"p":"0079A00039000000","a":"JOHNSON ST","m":"Millvale","u":"L","o":"individual","sf":5760,"v":14100}},{"type":"Feature","geometry":{"type":"Point","coordinates":[-79.97503,40.48016]},"properties":{"p":"0079B00112000000","a":"NORTH AVE","m":"Millvale","u":"L","o":"individual","sf":1413,"v":500}},{"type":"Feature","geometry":{"type":"Point","coordinates":[-79.97036,40.4772]},"properties":{"p":"0079G00332000000","a":"JEFFERSON ST","m":"Millvale","u":"L","o":"individual","sf":2385,"v":800}},{"type":"Feature","geometry":{"type":"Point","coordinates":[-79.97432,40.48217]},"properties":{"p":"0118R00139000000","a":"FREMONT ST","m":"Millvale","u":"L","o":"corp","sf":937,"v":400}},{"type":"Feature","geometry":{"type":"Point","coordinates":[-79.97331,40.48045]},"properties":{"p":"0079C00068000000","a":"BLACK ST","m":"Millvale","u":"L","o":"individual","sf":1560,"v":600}},{"type":"Feature","geometry":{"type":"Point","coordinates":[-79.97748,40.48254]},"properties":{"p":"0118P00050000000","a":"SIEGEL ST","m":"Millvale","u":"L","o":"corp","sf":2200,"v":10100}},{"type":"Feature","geometry":{"type":"Point","coordinates":[-79.97737,40.48222]},"properties":{"p":"0118P00055000000","a":"SIEGEL ST","m":"Millvale","u":"L","o":"individual","sf":4400,"v":13200}},{"type":"Feature","geometry":{"type":"Point","coordinates":[-79.97728,40.48196]},"properties":{"p":"0118P00059000000","a":"VAN BUREN ST","m":"Millvale","u":"L","o":"individual","sf":6600,"v":14100}},{"type":"Feature","geometry":{"type":"Point","coordinates":[-79.97723,40.48314]},"properties":{"p":"0118P00062000000","a":"SIEGEL ST","m":"Millvale","u":"L","o":"individual","sf":8432,"v":14300}},{"type":"Feature","geometry":{"type":"Point","coordinates":[-79.97699,40.48315]},"properties":{"p":"0118P00064000000","a":null,"m":"Millvale","u":"L","o":"individual","sf":4555,"v":13400}},{"type":"Feature","geometry":{"type":"Point","coordinates":[-79.97459,40.47191]},"properties":{"p":"0048B00352000000","a":"HERR ST","m":"Millvale","u":"L","o":"individual","sf":24979,"v":15800}},{"type":"Feature","geometry":{"type":"Point","coordinates":[-79.97288,40.48987]},"properties":{"p":"0118C00150000000","a":"917 NORTH AVE","m":"Millvale","u":"L","o":"individual","sf":2640,"v":900}},{"type":"Feature","geometry":{"type":"Point","coordinates":[-79.97866,40.47932]},"properties":{"p":"0079E00032000000","a":"SPRING ST","m":"Millvale","u":"L","o":"individual","sf":3552,"v":12000}},{"type":"Feature","geometry":{"type":"Point","coordinates":[-79.97322,40.47927]},"properties":{"p":"0079G00119000000","a":"12 BUTLER ST","m":"Millvale","u":"L","o":"corp","sf":1829,"v":700}},{"type":"Feature","geometry":{"type":"Point","coordinates":[-79.97328,40.47922]},"properties":{"p":"0079G00120000000","a":"12 BUTLER ST","m":"Millvale","u":"L","o":"corp","sf":1778,"v":600}},{"type":"Feature","geometry":{"type":"Point","coordinates":[-79.97318,40.47909]},"properties":{"p":"0079G00121000000","a":"12 BUTLER ST","m":"Millvale","u":"L","o":"corp","sf":3120,"v":1000}},{"type":"Feature","geometry":{"type":"Point","coordinates":[-79.97494,40.47971]},"properties":{"p":"0079B00082000000","a":"9 SEDGWICK ST","m":"Millvale","u":"L","o":"individual","sf":2990,"v":1000}},{"type":"Feature","geometry":{"type":"Point","coordinates":[-79.97499,40.47966]},"properties":{"p":"0079B00083000000","a":"9 SEDGWICK ST","m":"Millvale","u":"L","o":"individual","sf":3120,"v":1800}},{"type":"Feature","geometry":{"type":"Point","coordinates":[-79.97506,40.47958]},"properties":{"p":"0079B00085000000","a":"SEDGWICK ST","m":"Millvale","u":"L","o":"individual","sf":3120,"v":1800}},{"type":"Feature","geometry":{"type":"Point","coordinates":[-79.97213,40.48447]},"properties":{"p":"0118L00133000000","a":"EVERGREEN AVE","m":"Millvale","u":"L","o":"corp","sf":3252,"v":1100}},{"type":"Feature","geometry":{"type":"Point","coordinates":[-79.97205,40.48442]},"properties":{"p":"0118L00134000000","a":"EVERGREEN AVE","m":"Millvale","u":"L","o":"corp","sf":2171,"v":800}},{"type":"Feature","geometry":{"type":"Point","coordinates":[-79.97202,40.48435]},"properties":{"p":"0118L00135000000","a":"EVERGREEN AVE","m":"Millvale","u":"L","o":"corp","sf":3415,"v":1100}},{"type":"Feature","geometry":{"type":"Point","coordinates":[-79.97341,40.4789]},"properties":{"p":"0079G00125000000","a":"BUTLER ST","m":"Millvale","u":"L","o":"corp","sf":5320,"v":15000}},{"type":"Feature","geometry":{"type":"Point","coordinates":[-79.97095,40.47691]},"properties":{"p":"0079L00006000000","a":"MARYLAND AVE","m":"Millvale","u":"L","o":"individual","sf":1539,"v":600}},{"type":"Feature","geometry":{"type":"Point","coordinates":[-79.97572,40.48299]},"properties":{"p":"0118P00106000000","a":"315 COLTON ST","m":"Millvale","u":"L","o":"individual","sf":1488,"v":500}},{"type":"Feature","geometry":{"type":"Point","coordinates":[-79.97956,40.48076]},"properties":{"p":"0079A00066000C00","a":"PAMELA DR","m":"Millvale","u":"L","o":"individual","sf":1554,"v":600}},{"type":"Feature","geometry":{"type":"Point","coordinates":[-79.97115,40.4783]},"properties":{"p":"0079G00070000000","a":"SHERIDAN ST","m":"Millvale","u":"L","o":"individual","sf":630,"v":300}},{"type":"Feature","geometry":{"type":"Point","coordinates":[-79.97401,40.48235]},"properties":{"p":"0118R00130000000","a":"403 NORTH AVE","m":"Millvale","u":"L","o":"corp","sf":2444,"v":800}},{"type":"Feature","geometry":{"type":"Point","coordinates":[-79.97947,40.48088]},"properties":{"p":"0079A00066000D00","a":"PAMELA DR","m":"Millvale","u":"L","o":"corp","sf":2685,"v":900}},{"type":"Feature","geometry":{"type":"Point","coordinates":[-79.97138,40.48901]},"properties":{"p":"0118G00165000000","a":"910 HANSEN ST","m":"Millvale","u":"L","o":"individual","sf":2400,"v":900}},{"type":"Feature","geometry":{"type":"Point","coordinates":[-79.97362,40.47496]},"properties":{"p":"0079L00224000000","a":"PITTVIEW AVE","m":"Reserve","u":"L","o":"individual","sf":17770,"v":21200}},{"type":"Feature","geometry":{"type":"Point","coordinates":[-79.97393,40.47611]},"properties":{"p":"0079L00240000000","a":"PITTVIEW AVE","m":"Reserve","u":"L","o":"individual","sf":11618,"v":20600}},{"type":"Feature","geometry":{"type":"Point","coordinates":[-79.97404,40.47578]},"properties":{"p":"0079L00257000000","a":"PITTVIEW AVE","m":"Reserve","u":"L","o":"individual","sf":567,"v":300}},{"type":"Feature","geometry":{"type":"Point","coordinates":[-79.9742,40.47509]},"properties":{"p":"0079L00269000000","a":"PITTVIEW AVE","m":"Reserve","u":"L","o":"individual","sf":396,"v":200}},{"type":"Feature","geometry":{"type":"Point","coordinates":[-79.97958,40.47204]},"properties":{"p":"0048A00105000000","a":"E BECKERT AVE","m":"Reserve","u":"L","o":"individual","sf":6595,"v":20100}},{"type":"Feature","geometry":{"type":"Point","coordinates":[-79.97987,40.4766]},"properties":{"p":"0079J00050000000","a":"JAMES DR","m":"Reserve","u":"L","o":"corp","sf":232349,"v":54900}},{"type":"Feature","geometry":{"type":"Point","coordinates":[-79.97502,40.47703]},"properties":{"p":"0079K00010000000","a":"LOGAN ST","m":"Reserve","u":"L","o":"individual","sf":4075,"v":1400}},{"type":"Feature","geometry":{"type":"Point","coordinates":[-79.97449,40.47672]},"properties":{"p":"0079K00012000000","a":"LOGAN ST","m":"Reserve","u":"L","o":"individual","sf":73216,"v":26300}},{"type":"Feature","geometry":{"type":"Point","coordinates":[-79.97472,40.47615]},"properties":{"p":"0079K00026000000","a":"LOGAN ST","m":"Reserve","u":"L","o":"individual","sf":14647,"v":20900}},{"type":"Feature","geometry":{"type":"Point","coordinates":[-79.97545,40.47328]},"properties":{"p":"0079P00140000000","a":"PITTVIEW AVE","m":"Reserve","u":"L","o":"individual","sf":5335,"v":1800}},{"type":"Feature","geometry":{"type":"Point","coordinates":[-79.97532,40.47336]},"properties":{"p":"0079P00142000000","a":"PITTVIEW AVE","m":"Reserve","u":"L","o":"individual","sf":7117,"v":2400}},{"type":"Feature","geometry":{"type":"Point","coordinates":[-79.97528,40.47696]},"properties":{"p":"0079F00220000000","a":"LOGAN ST","m":"Reserve","u":"L","o":"individual","sf":15158,"v":20900}},{"type":"Feature","geometry":{"type":"Point","coordinates":[-79.97616,40.47747]},"properties":{"p":"0079F00228000000","a":"304 LOGAN ST","m":"Reserve","u":"L","o":"individual","sf":5000,"v":1700}},{"type":"Feature","geometry":{"type":"Point","coordinates":[-79.9778,40.47823]},"properties":{"p":"0079F00248000000","a":"LOGAN ST","m":"Reserve","u":"L","o":"individual","sf":2500,"v":900}},{"type":"Feature","geometry":{"type":"Point","coordinates":[-79.97789,40.47827]},"properties":{"p":"0079F00250000000","a":"LOGAN ST","m":"Reserve","u":"L","o":"individual","sf":4100,"v":1400}},{"type":"Feature","geometry":{"type":"Point","coordinates":[-79.97543,40.48504]},"properties":{"p":"0118K00083000000","a":"COLTON ST","m":"Reserve","u":"L","o":"corp","sf":38300,"v":13500}},{"type":"Feature","geometry":{"type":"Point","coordinates":[-79.97928,40.47291]},"properties":{"p":"0079N00232000000","a":"E BECKERT AVE","m":"Reserve","u":"L","o":"individual","sf":6525,"v":20100}},{"type":"Feature","geometry":{"type":"Point","coordinates":[-79.97442,40.47554]},"properties":{"p":"0079L00279000000","a":"ARLINGTON ST","m":"Reserve","u":"L","o":"individual","sf":15823,"v":21000}},{"type":"Feature","geometry":{"type":"Point","coordinates":[-79.97763,40.47361]},"properties":{"p":"0079P00112000000","a":"PITTVIEW AVE","m":"Reserve","u":"L","o":"corp","sf":17298,"v":21100}},{"type":"Feature","geometry":{"type":"Point","coordinates":[-79.97661,40.47457]},"properties":{"p":"0079P00119000000","a":"ARLINGTON ST","m":"Reserve","u":"L","o":"individual","sf":7980,"v":20300}},{"type":"Feature","geometry":{"type":"Point","coordinates":[-79.97535,40.47546]},"properties":{"p":"0079K00124000000","a":"ARLINGTON ST","m":"Reserve","u":"L","o":"individual","sf":4394,"v":1500}},{"type":"Feature","geometry":{"type":"Point","coordinates":[-79.9737,40.47419]},"properties":{"p":"0079R00025000000","a":"W R OF W","m":"Reserve","u":"L","o":"corp","sf":525,"v":300}},{"type":"Feature","geometry":{"type":"Point","coordinates":[-79.973,40.47483]},"properties":{"p":"0079R00030000000","a":"HERR ST","m":"Reserve","u":"L","o":"individual","sf":16165,"v":21000}},{"type":"Feature","geometry":{"type":"Point","coordinates":[-79.97713,40.47124]},"properties":{"p":"0048B00082000000","a":"SCHICK ST","m":"Reserve","u":"L","o":"individual","sf":28730,"v":12100}},{"type":"Feature","geometry":{"type":"Point","coordinates":[-79.97557,40.47206]},"properties":{"p":"0048B00370000000","a":"PITTVIEW AVE","m":"Reserve","u":"L","o":"individual","sf":43604,"v":23600}},{"type":"Feature","geometry":{"type":"Point","coordinates":[-79.97464,40.47293]},"properties":{"p":"0079P00041000000","a":"W R OF W","m":"Reserve","u":"L","o":"corp","sf":7200,"v":20200}},{"type":"Feature","geometry":{"type":"Point","coordinates":[-79.97543,40.47265]},"properties":{"p":"0079P00059000000","a":"PITTVIEW AVE","m":"Reserve","u":"L","o":"individual","sf":10369,"v":20500}},{"type":"Feature","geometry":{"type":"Point","coordinates":[-79.97559,40.47261]},"properties":{"p":"0079P00061000000","a":"PITTVIEW AVE","m":"Reserve","u":"L","o":"individual","sf":7841,"v":20300}},{"type":"Feature","geometry":{"type":"Point","coordinates":[-79.97587,40.47251]},"properties":{"p":"0079P00066000000","a":"PITTVIEW AVE","m":"Reserve","u":"L","o":"corp","sf":23674,"v":21700}},{"type":"Feature","geometry":{"type":"Point","coordinates":[-79.97748,40.47239]},"properties":{"p":"0079P00100000000","a":"PITTVIEW AVE","m":"Reserve","u":"L","o":"individual","sf":435469,"v":7500}},{"type":"Feature","geometry":{"type":"Point","coordinates":[-79.9761,40.47698]},"properties":{"p":"0079K00043000000","a":"LOGAN ST","m":"Reserve","u":"L","o":"individual","sf":6300,"v":2100}},{"type":"Feature","geometry":{"type":"Point","coordinates":[-79.97673,40.47686]},"properties":{"p":"0079K00048000000","a":"BAUN RD","m":"Reserve","u":"L","o":"corp","sf":4200,"v":1400}},{"type":"Feature","geometry":{"type":"Point","coordinates":[-79.97559,40.47635]},"properties":{"p":"0079K00078000000","a":"BARN LN","m":"Reserve","u":"L","o":"individual","sf":20792,"v":6800}},{"type":"Feature","geometry":{"type":"Point","coordinates":[-79.9743,40.47353]},"properties":{"p":"0079R00008000000","a":"PITTVIEW AVE","m":"Reserve","u":"L","o":"corp","sf":3200,"v":1100}},{"type":"Feature","geometry":{"type":"Point","coordinates":[-79.9765,40.47704]},"properties":{"p":"0079F00280000000","a":"OVERHILL ST","m":"Reserve","u":"L","o":"individual","sf":2705,"v":1000}},{"type":"Feature","geometry":{"type":"Point","coordinates":[-79.97637,40.47715]},"properties":{"p":"0079F00282000000","a":"LOGAN ST","m":"Reserve","u":"L","o":"individual","sf":3066,"v":1100}},{"type":"Feature","geometry":{"type":"Point","coordinates":[-79.97627,40.47714]},"properties":{"p":"0079F00284000000","a":"LOGAN ST","m":"Reserve","u":"L","o":"individual","sf":2150,"v":800}},{"type":"Feature","geometry":{"type":"Point","coordinates":[-79.97621,40.47708]},"properties":{"p":"0079F00285000000","a":"LOGAN ST","m":"Reserve","u":"L","o":"individual","sf":2625,"v":900}},{"type":"Feature","geometry":{"type":"Point","coordinates":[-79.97856,40.47158]},"properties":{"p":"0048B00008000000","a":"PITTVIEW AVE","m":"Reserve","u":"L","o":"individual","sf":3752,"v":1300}},{"type":"Feature","geometry":{"type":"Point","coordinates":[-79.97761,40.47135]},"properties":{"p":"0048B00075000000","a":"SCHICK ST","m":"Reserve","u":"L","o":"individual","sf":6563,"v":20100}},{"type":"Feature","geometry":{"type":"Point","coordinates":[-79.97541,40.48391]},"properties":{"p":"0118P00255000000","a":"COLTON ST","m":"Reserve","u":"L","o":"individual","sf":400,"v":500}},{"type":"Feature","geometry":{"type":"Point","coordinates":[-79.9759,40.48359]},"properties":{"p":"0118P00266000000","a":"ELIZABETH ST","m":"Reserve","u":"L","o":"corp","sf":11520,"v":4100}},{"type":"Feature","geometry":{"type":"Point","coordinates":[-79.97578,40.48421]},"properties":{"p":"0118P00267000000","a":"JOSEPH ST","m":"Reserve","u":"L","o":"corp","sf":21459,"v":27700}},{"type":"Feature","geometry":{"type":"Point","coordinates":[-79.96233,40.4893]},"properties":{"p":"0119A00103000000","a":"GRENO DR","m":"Shaler","u":"L","o":"individual","sf":8850,"v":35400}},{"type":"Feature","geometry":{"type":"Point","coordinates":[-79.96399,40.48929]},"properties":{"p":"0119E00315000000","a":"ELBE DR","m":"Shaler","u":"L","o":"corp","sf":4350,"v":700}},{"type":"Feature","geometry":{"type":"Point","coordinates":[-79.96747,40.48452]},"properties":{"p":"0118M00068000000","a":"SAINT PETER ST","m":"Shaler","u":"L","o":"individual","sf":3341,"v":1300}},{"type":"Feature","geometry":{"type":"Point","coordinates":[-79.96683,40.48432]},"properties":{"p":"0118M00078000000","a":"SAINT PETER ST","m":"Shaler","u":"L","o":"individual","sf":30976,"v":37300}},{"type":"Feature","geometry":{"type":"Point","coordinates":[-79.96773,40.48481]},"properties":{"p":"0118M00128000000","a":"SAINT PETER ST","m":"Shaler","u":"L","o":"individual","sf":1330,"v":600}},{"type":"Feature","geometry":{"type":"Point","coordinates":[-79.9689,40.48203]},"properties":{"p":"0118S00184000000","a":"VERMILLION DR","m":"Shaler","u":"L","o":"individual","sf":6469,"v":17600}},{"type":"Feature","geometry":{"type":"Point","coordinates":[-79.96998,40.4895]},"properties":{"p":"0118D00325000000","a":"ELBE DR","m":"Shaler","u":"L","o":"corp","sf":65645,"v":2400}},{"type":"Feature","geometry":{"type":"Point","coordinates":[-79.96956,40.48627]},"properties":{"p":"0118M00383000000","a":"PARK ST","m":"Shaler","u":"L","o":"individual","sf":5496,"v":35000}},{"type":"Feature","geometry":{"type":"Point","coordinates":[-79.96234,40.48702]},"properties":{"p":"0119E00023000000","a":"SCHOOL ST","m":"Shaler","u":"L","o":"individual","sf":8893,"v":17900}},{"type":"Feature","geometry":{"type":"Point","coordinates":[-79.96741,40.48544]},"properties":{"p":"0118S00300000000","a":"FRIDAY RD","m":"Shaler","u":"L","o":"individual","sf":15000,"v":3900}},{"type":"Feature","geometry":{"type":"Point","coordinates":[-79.96991,40.48658]},"properties":{"p":"0118M00390000000","a":"LAWRENCE ST","m":"Shaler","u":"L","o":"individual","sf":5310,"v":35000}},{"type":"Feature","geometry":{"type":"Point","coordinates":[-79.9696,40.48667]},"properties":{"p":"0118M00394000000","a":"LAWRENCE ST","m":"Shaler","u":"L","o":"individual","sf":2866,"v":1100}},{"type":"Feature","geometry":{"type":"Point","coordinates":[-79.96909,40.48809]},"properties":{"p":"0118H00240000000","a":"LOCUST RIDGE DR","m":"Shaler","u":"L","o":"individual","sf":7727,"v":35300}},{"type":"Feature","geometry":{"type":"Point","coordinates":[-79.96885,40.48821]},"properties":{"p":"0118H00242000000","a":"LOCUST RIDGE DR","m":"Shaler","u":"L","o":"individual","sf":11517,"v":35600}},{"type":"Feature","geometry":{"type":"Point","coordinates":[-79.96423,40.48983]},"properties":{"p":"0119E00300000000","a":"LOCUST RIDGE DR","m":"Shaler","u":"L","o":"corp","sf":2845,"v":400}},{"type":"Feature","geometry":{"type":"Point","coordinates":[-79.96033,40.48785]},"properties":{"p":"0119F00184000000","a":"MEINERT ST","m":"Shaler","u":"L","o":"individual","sf":6471,"v":11800}},{"type":"Feature","geometry":{"type":"Point","coordinates":[-79.96705,40.48668]},"properties":{"p":"0118M00293000000","a":"CATHERINE ST","m":"Shaler","u":"L","o":"individual","sf":5285,"v":35000}},{"type":"Feature","geometry":{"type":"Point","coordinates":[-79.96976,40.48454]},"properties":{"p":"0118M00020000000","a":"MATHILDA ST","m":"Shaler","u":"L","o":"corp","sf":2192,"v":2800}},{"type":"Feature","geometry":{"type":"Point","coordinates":[-79.96133,40.489]},"properties":{"p":"0119F00076000100","a":"ELIZABETH ST","m":"Shaler","u":"L","o":"individual","sf":5817,"v":2100}},{"type":"Feature","geometry":{"type":"Point","coordinates":[-79.96207,40.48876]},"properties":{"p":"0119F00094000000","a":"SOLLINGER LN","m":"Shaler","u":"L","o":"individual","sf":60291,"v":30000}},{"type":"Feature","geometry":{"type":"Point","coordinates":[-79.96686,40.48768]},"properties":{"p":"0118H00165000000","a":"LAWRENCE ST","m":"Shaler","u":"L","o":"corp","sf":7841,"v":2800}},{"type":"Feature","geometry":{"type":"Point","coordinates":[-79.96875,40.48605]},"properties":{"p":"0118M00337000000","a":"PARK ST","m":"Shaler","u":"L","o":"individual","sf":4439,"v":1700}},{"type":"Feature","geometry":{"type":"Point","coordinates":[-79.964,40.48452]},"properties":{"p":"0119J00100000000","a":"380 FRIDAY RD","m":"Shaler","u":"L","o":"corp","sf":63598,"v":40400}},{"type":"Feature","geometry":{"type":"Point","coordinates":[-79.96648,40.48436]},"properties":{"p":"0118M00184000000","a":"FRIDAY RD","m":"Shaler","u":"L","o":"individual","sf":48569,"v":39000}},{"type":"Feature","geometry":{"type":"Point","coordinates":[-79.96986,40.48157]},"properties":{"p":"0079D00130000000","a":"EVERGREEN AVE","m":"Shaler","u":"L","o":"individual","sf":12371,"v":35700}},{"type":"Feature","geometry":{"type":"Point","coordinates":[-79.9685,40.48699]},"properties":{"p":"0118H00200000000","a":"PARK ST","m":"Shaler","u":"L","o":"individual","sf":17118,"v":6100}},{"type":"Feature","geometry":{"type":"Point","coordinates":[-79.9673,40.48281]},"properties":{"p":"0118S00225000000","a":"HEIGHTS DR","m":"Shaler","u":"L","o":"individual","sf":3920,"v":1500}},{"type":"Feature","geometry":{"type":"Point","coordinates":[-79.96019,40.48704]},"properties":{"p":"0119F00138000000","a":"GREENWOOD AVE","m":"Shaler","u":"L","o":"corp","sf":3834,"v":1400}},{"type":"Feature","geometry":{"type":"Point","coordinates":[-79.97046,40.48356]},"properties":{"p":"0118S00012000000","a":"BISMARK ST","m":"Shaler","u":"L","o":"individual","sf":33859,"v":20100}},{"type":"Feature","geometry":{"type":"Point","coordinates":[-79.96932,40.48385]},"properties":{"p":"0118S00015000000","a":"BISMARK ST","m":"Shaler","u":"L","o":"individual","sf":5158,"v":17500}},{"type":"Feature","geometry":{"type":"Point","coordinates":[-79.96958,40.48381]},"properties":{"p":"0118S00016000000","a":"BISMARK ST","m":"Shaler","u":"L","o":"individual","sf":5032,"v":17500}},{"type":"Feature","geometry":{"type":"Point","coordinates":[-79.96253,40.48968]},"properties":{"p":"0119A00112000000","a":"GRENO DR","m":"Shaler","u":"L","o":"individual","sf":8850,"v":35400}},{"type":"Feature","geometry":{"type":"Point","coordinates":[-79.96132,40.48833]},"properties":{"p":"0119F00074000000","a":"FRIDAY RD","m":"Shaler","u":"L","o":"individual","sf":4574,"v":1700}},{"type":"Feature","geometry":{"type":"Point","coordinates":[-79.97244,40.48199]},"properties":{"p":"0079C00365000000","a":"EVERGREEN AVE","m":"Shaler","u":"L","o":"corp","sf":348088,"v":18000}},{"type":"Feature","geometry":{"type":"Point","coordinates":[-79.96805,40.48468]},"properties":{"p":"0118M00131000000","a":"SAINT PETER ST","m":"Shaler","u":"L","o":"individual","sf":2311,"v":900}},{"type":"Feature","geometry":{"type":"Point","coordinates":[-79.9669,40.48225]},"properties":{"p":"0118S00204000000","a":"HEIGHTS DR","m":"Shaler","u":"L","o":"corp","sf":11732,"v":35600}},{"type":"Feature","geometry":{"type":"Point","coordinates":[-79.96698,40.4823]},"properties":{"p":"0118S00204000100","a":"HEIGHTS DR","m":"Shaler","u":"L","o":"individual","sf":875,"v":400}},{"type":"Feature","geometry":{"type":"Point","coordinates":[-79.96676,40.48222]},"properties":{"p":"0118S00206000000","a":"HEIGHTS DR","m":"Shaler","u":"L","o":"corp","sf":8520,"v":35300}},{"type":"Feature","geometry":{"type":"Point","coordinates":[-79.97147,40.48347]},"properties":{"p":"0118R00270000000","a":"EVERGREEN AVE","m":"Shaler","u":"L","o":"individual","sf":9365,"v":4400}},{"type":"Feature","geometry":{"type":"Point","coordinates":[-79.96605,40.48186]},"properties":{"p":"0118S00214000000","a":"103 RIVER HEIGHTS DR","m":"Shaler","u":"L","o":"individual","sf":1288,"v":600}},{"type":"Feature","geometry":{"type":"Point","coordinates":[-79.96377,40.48862]},"properties":{"p":"0119E00115000000","a":"WALLACE RD","m":"Shaler","u":"L","o":"individual","sf":7598,"v":2800}},{"type":"Feature","geometry":{"type":"Point","coordinates":[-79.96963,40.48542]},"properties":{"p":"0118M00240000000","a":"FRIDAY RD","m":"Shaler","u":"L","o":"individual","sf":13625,"v":35800}},{"type":"Feature","geometry":{"type":"Point","coordinates":[-79.96936,40.48547]},"properties":{"p":"0118M00245000000","a":"FRIDAY RD","m":"Shaler","u":"L","o":"individual","sf":3266,"v":1200}},{"type":"Feature","geometry":{"type":"Point","coordinates":[-79.96911,40.48551]},"properties":{"p":"0118M00249000000","a":"FRIDAY RD","m":"Shaler","u":"L","o":"individual","sf":5835,"v":35100}},{"type":"Feature","geometry":{"type":"Point","coordinates":[-79.9717,40.4822]},"properties":{"p":"0118R00305000000","a":"HEIGHTS DR","m":"Shaler","u":"L","o":"individual","sf":2814,"v":1100}},{"type":"Feature","geometry":{"type":"Point","coordinates":[-79.97155,40.48225]},"properties":{"p":"0118R00307000000","a":"HEIGHTS DR","m":"Shaler","u":"L","o":"individual","sf":5663,"v":17600}},{"type":"Feature","geometry":{"type":"Point","coordinates":[-79.96698,40.47981]},"properties":{"p":"0079H00040000000","a":"EVERGREEN AVE","m":"Shaler","u":"L","o":"individual","sf":17000,"v":14400}},{"type":"Feature","geometry":{"type":"Point","coordinates":[-79.9728,40.47804]},"properties":{"p":"0079G00228000000","a":"STANTON AVE","m":"Millvale","u":"L","o":"individual","sf":590,"v":300}},{"type":"Feature","geometry":{"type":"Point","coordinates":[-79.97632,40.48085]},"properties":{"p":"0079B00162000000","a":"121 HOWARD ST","m":"Millvale","u":"L","o":"individual","sf":2200,"v":800}},{"type":"Feature","geometry":{"type":"Point","coordinates":[-79.97372,40.47738]},"properties":{"p":"0079G00362000000","a":"MARYLAND AVE","m":"Millvale","u":"L","o":"individual","sf":2868,"v":1000}},{"type":"Feature","geometry":{"type":"Point","coordinates":[-79.96851,40.48566]},"properties":{"p":"0118M00258000000","a":"201 FRIDAY RD","m":"Shaler","u":"L","o":"individual","sf":7800,"v":2800}},{"type":"Feature","geometry":{"type":"Point","coordinates":[-79.96695,40.48614]},"properties":{"p":"0118M00278000000","a":"241 FRIDAY RD","m":"Shaler","u":"L","o":"individual","sf":3690,"v":1400}},{"type":"Feature","geometry":{"type":"Point","coordinates":[-79.97872,40.4792]},"properties":{"p":"0079E00036000000","a":"SPRING ST","m":"Millvale","u":"L","o":"individual","sf":3552,"v":12000}},{"type":"Feature","geometry":{"type":"Point","coordinates":[-79.97087,40.47692]},"properties":{"p":"0079L00005000000","a":"MARYLAND AVE","m":"Millvale","u":"L","o":"individual","sf":1465,"v":500}},{"type":"Feature","geometry":{"type":"Point","coordinates":[-79.97107,40.48519]},"properties":{"p":"0118L00303000000","a":"FRIDAY RD","m":"Millvale","u":"L","o":"individual","sf":1573,"v":2000}},{"type":"Feature","geometry":{"type":"Point","coordinates":[-79.97373,40.47947]},"properties":{"p":"0079C00194000000","a":"15 BUTLER ST","m":"Millvale","u":"L","o":"corp","sf":3315,"v":1100}},{"type":"Feature","geometry":{"type":"Point","coordinates":[-79.97061,40.48412]},"properties":{"p":"0118R00244000000","a":"CHARLES ST","m":"Millvale","u":"L","o":"individual","sf":16506,"v":15000}},{"type":"Feature","geometry":{"type":"Point","coordinates":[-79.96138,40.47029]},"properties":{"p":"0049B00128000000","a":"BANNER WAY","m":"9th Ward - PITTSBURGH","u":"L","o":"individual","sf":1536,"v":6100}},{"type":"Feature","geometry":{"type":"Point","coordinates":[-79.97449,40.48036]},"properties":{"p":"0079B00100000000","a":"FORNOFF ST","m":"Millvale","u":"L","o":"individual","sf":1560,"v":600}},{"type":"Feature","geometry":{"type":"Point","coordinates":[-79.96291,40.47015]},"properties":{"p":"0049A00218000000","a":"ALMOND WAY","m":"9th Ward - PITTSBURGH","u":"L","o":"corp","sf":1875,"v":2000}},{"type":"Feature","geometry":{"type":"Point","coordinates":[-79.96246,40.47168]},"properties":{"p":"0049A00039000A00","a":"42ND ST","m":"9th Ward - PITTSBURGH","u":"L","o":"individual","sf":803,"v":400}},{"type":"Feature","geometry":{"type":"Point","coordinates":[-79.97378,40.47941]},"properties":{"p":"0079G00127000000","a":"15 BUTLER ST","m":"Millvale","u":"L","o":"corp","sf":3120,"v":1000}},{"type":"Feature","geometry":{"type":"Point","coordinates":[-79.97896,40.47875]},"properties":{"p":"0079E00052000000","a":"SPRING ST","m":"Millvale","u":"L","o":"individual","sf":7150,"v":14200}},{"type":"Feature","geometry":{"type":"Point","coordinates":[-79.97709,40.48136]},"properties":{"p":"0079B00218000000","a":"SIEGEL ST","m":"Millvale","u":"L","o":"individual","sf":2200,"v":800}},{"type":"Feature","geometry":{"type":"Point","coordinates":[-79.9723,40.4881]},"properties":{"p":"0118G00143000000","a":"EVERGREEN AVE","m":"Millvale","u":"L","o":"corp","sf":2880,"v":20500}},{"type":"Feature","geometry":{"type":"Point","coordinates":[-79.97253,40.47919]},"properties":{"p":"0079G00093000000","a":"SHERMAN ST","m":"Millvale","u":"L","o":"individual","sf":1300,"v":500}},{"type":"Feature","geometry":{"type":"Point","coordinates":[-79.96314,40.47349]},"properties":{"p":"0080N00152000000","a":"92 1/2 44TH ST","m":"9th Ward - PITTSBURGH","u":"L","o":"corp","sf":936,"v":400}},{"type":"Feature","geometry":{"type":"Point","coordinates":[-79.97877,40.47075]},"properties":{"p":"0048A00270000000","a":"STRAUBS LN","m":"24th Ward - PITTSBURGH","u":"L","o":"individual","sf":9900,"v":12400}},{"type":"Feature","geometry":{"type":"Point","coordinates":[-79.96114,40.47028]},"properties":{"p":"0049B00168000500","a":"EDEN WAY","m":"9th Ward - PITTSBURGH","u":"L","o":"individual","sf":68,"v":100}},{"type":"Feature","geometry":{"type":"Point","coordinates":[-79.97428,40.4779]},"properties":{"p":"0079G00280000000","a":"MARYLAND AVE","m":"Millvale","u":"L","o":"corp","sf":2518,"v":900}},{"type":"Feature","geometry":{"type":"Point","coordinates":[-79.97409,40.4758]},"properties":{"p":"0079L00255000000","a":"PITTVIEW AVE","m":"Reserve","u":"L","o":"individual","sf":2927,"v":1000}},{"type":"Feature","geometry":{"type":"Point","coordinates":[-79.973,40.47803]},"properties":{"p":"0079G00230000000","a":"401 STANTON AVE","m":"Millvale","u":"L","o":"corp","sf":2420,"v":800}},{"type":"Feature","geometry":{"type":"Point","coordinates":[-79.97375,40.47271]},"properties":{"p":"0079R00064000000","a":"HERR ST","m":"Millvale","u":"L","o":"individual","sf":9215,"v":14400}},{"type":"Feature","geometry":{"type":"Point","coordinates":[-79.97074,40.47633]},"properties":{"p":"0079L00156000000","a":"SHOUP ST","m":"Millvale","u":"L","o":"individual","sf":3983,"v":12600}},{"type":"Feature","geometry":{"type":"Point","coordinates":[-79.97936,40.48115]},"properties":{"p":"0079A00035000000","a":"JOHNSON ST","m":"Millvale","u":"L","o":"corp","sf":11520,"v":14600}},{"type":"Feature","geometry":{"type":"Point","coordinates":[-79.97143,40.48589]},"properties":{"p":"0118L00272000000","a":"PATRICK ST","m":"Millvale","u":"L","o":"individual","sf":1907,"v":700}},{"type":"Feature","geometry":{"type":"Point","coordinates":[-79.97328,40.47769]},"properties":{"p":"0079G00294000000","a":"MARYLAND AVE","m":"Millvale","u":"L","o":"corp","sf":2190,"v":800}},{"type":"Feature","geometry":{"type":"Point","coordinates":[-79.97567,40.48303]},"properties":{"p":"0118P00105000000","a":"319 COLTON ST","m":"Millvale","u":"L","o":"individual","sf":1487,"v":500}},{"type":"Feature","geometry":{"type":"Point","coordinates":[-79.9738,40.48464]},"properties":{"p":"0118L00033000000","a":"SPRUCE ST","m":"Millvale","u":"L","o":"individual","sf":3026,"v":2600}},{"type":"Feature","geometry":{"type":"Point","coordinates":[-79.97579,40.48097]},"properties":{"p":"0079B00155000000","a":"GERWIG ST","m":"Millvale","u":"L","o":"individual","sf":1059,"v":400}},{"type":"Feature","geometry":{"type":"Point","coordinates":[-79.97202,40.47662]},"properties":{"p":"0079L00050000000","a":"LOGAN ST","m":"Millvale","u":"L","o":"individual","sf":2746,"v":900}},{"type":"Feature","geometry":{"type":"Point","coordinates":[-79.97787,40.48]},"properties":{"p":"0079B00340000000","a":"STANTON AVE","m":"Millvale","u":"L","o":"individual","sf":2160,"v":800}},{"type":"Feature","geometry":{"type":"Point","coordinates":[-79.96196,40.47071]},"properties":{"p":"0049A00049000000","a":"BANNER WAY","m":"9th Ward - PITTSBURGH","u":"L","o":"individual","sf":1630,"v":700}},{"type":"Feature","geometry":{"type":"Point","coordinates":[-79.97727,40.47169]},"properties":{"p":"0048B00078000000","a":"SCHICK ST","m":"Reserve","u":"L","o":"individual","sf":6566,"v":20100}},{"type":"Feature","geometry":{"type":"Point","coordinates":[-79.9763,40.47412]},"properties":{"p":"0079P00180000000","a":"ARLINGTON ST","m":"Reserve","u":"L","o":"individual","sf":19292,"v":21300}},{"type":"Feature","geometry":{"type":"Point","coordinates":[-79.96664,40.4821]},"properties":{"p":"0118S00208000000","a":"HEIGHTS DR","m":"Shaler","u":"L","o":"individual","sf":9175,"v":17900}},{"type":"Feature","geometry":{"type":"Point","coordinates":[-79.97089,40.48728]},"properties":{"p":"0118G00206000000","a":"DORF DR","m":"Millvale","u":"B","o":"individual","sf":12187,"v":4600}},{"type":"Feature","geometry":{"type":"Point","coordinates":[-79.97122,40.48726]},"properties":{"p":"0118G00207000000","a":"DORF DR","m":"Millvale","u":"B","o":"individual","sf":6958,"v":4100}},{"type":"Feature","geometry":{"type":"Point","coordinates":[-79.97025,40.48841]},"properties":{"p":"0118G00228000000","a":"DORF DR","m":"Millvale","u":"B","o":"corp","sf":5180,"v":3900}},{"type":"Feature","geometry":{"type":"Point","coordinates":[-79.97157,40.48727]},"properties":{"p":"0118G00208000000","a":"DORF DR","m":"Millvale","u":"B","o":"individual","sf":7948,"v":4200}}]}