{"type":"FeatureCollection","features":[{"type":"Feature","geometry":{"type":"Point","coordinates":[-79.96076,40.52237]},"properties":{"p":"0355P00099000000","a":"HOFFMAN ST","m":"Shaler","u":"C","o":"individual","sf":6098,"v":2400}},{"type":"Feature","geometry":{"type":"Point","coordinates":[-79.97276,40.52813]},"properties":{"p":"0354C00170000000","a":"485 MCELHENY RD","m":"Shaler","u":"C","o":"corp","sf":339463,"v":23500}},{"type":"Feature","geometry":{"type":"Point","coordinates":[-79.97592,40.51063]},"properties":{"p":"0220B00166000000","a":"ANDERSON RD","m":"Shaler","u":"L","o":"individual","sf":1896,"v":200}},{"type":"Feature","geometry":{"type":"Point","coordinates":[-79.97645,40.51064]},"properties":{"p":"0220B00180000000","a":"1263 ANDERSON RD","m":"Shaler","u":"L","o":"individual","sf":6068,"v":600}},{"type":"Feature","geometry":{"type":"Point","coordinates":[-79.96224,40.52199]},"properties":{"p":"0355P00066000000","a":"N SPRING ST","m":"Shaler","u":"L","o":"individual","sf":8190,"v":3000}},{"type":"Feature","geometry":{"type":"Point","coordinates":[-79.96506,40.52741]},"properties":{"p":"0355E00182000000","a":"SHALER DR","m":"Shaler","u":"L","o":"individual","sf":10500,"v":42200}},{"type":"Feature","geometry":{"type":"Point","coordinates":[-79.96425,40.52396]},"properties":{"p":"0355J00204000000","a":"WETZEL RD","m":"Shaler","u":"L","o":"individual","sf":12160,"v":1200}},{"type":"Feature","geometry":{"type":"Point","coordinates":[-79.96396,40.52401]},"properties":{"p":"0355J00206000000","a":"WETZEL RD","m":"Shaler","u":"L","o":"individual","sf":14026,"v":22800}},{"type":"Feature","geometry":{"type":"Point","coordinates":[-79.96123,40.52459]},"properties":{"p":"0355K00252000000","a":"1616 MOUNT ROYAL BLVD","m":"Shaler","u":"L","o":"corp","sf":13926,"v":21400}},{"type":"Feature","geometry":{"type":"Point","coordinates":[-79.9619,40.52376]},"properties":{"p":"0355K00038000000","a":"ELLEN ST","m":"Shaler","u":"L","o":"individual","sf":6063,"v":2200}},{"type":"Feature","geometry":{"type":"Point","coordinates":[-79.96383,40.52144]},"properties":{"p":"0355N00129000000","a":"HOFFMAN ST","m":"Shaler","u":"L","o":"individual","sf":4719,"v":1800}},{"type":"Feature","geometry":{"type":"Point","coordinates":[-79.97324,40.51077]},"properties":{"p":"0220C00215000000","a":"SHALER AVE","m":"Shaler","u":"L","o":"individual","sf":43499,"v":5000}},{"type":"Feature","geometry":{"type":"Point","coordinates":[-79.96109,40.51647]},"properties":{"p":"0284F00100000000","a":"LOUANN ST","m":"Shaler","u":"L","o":"individual","sf":23385,"v":8300}},{"type":"Feature","geometry":{"type":"Point","coordinates":[-79.97847,40.52551]},"properties":{"p":"0354F00048000000","a":"MCELHENY RD","m":"Shaler","u":"L","o":"individual","sf":7288,"v":700}},{"type":"Feature","geometry":{"type":"Point","coordinates":[-79.97908,40.51242]},"properties":{"p":"0283P00010000000","a":"ANDERSON RD","m":"Shaler","u":"L","o":"individual","sf":29652,"v":46800}},{"type":"Feature","geometry":{"type":"Point","coordinates":[-79.96216,40.51243]},"properties":{"p":"0284P00325000000","a":"LITTLE PINE CREEK RD","m":"Shaler","u":"L","o":"individual","sf":1800,"v":700}},{"type":"Feature","geometry":{"type":"Point","coordinates":[-79.9619,40.51243]},"properties":{"p":"0284P00327000000","a":"LITTLE PINE CREEK RD","m":"Shaler","u":"L","o":"individual","sf":14000,"v":18300}},{"type":"Feature","geometry":{"type":"Point","coordinates":[-79.96154,40.51285]},"properties":{"p":"0284P00333000000","a":"LITTLE PINE CREEK RD","m":"Shaler","u":"L","o":"individual","sf":16690,"v":36100}},{"type":"Feature","geometry":{"type":"Point","coordinates":[-79.96768,40.52991]},"properties":{"p":"0354D00212000000","a":"SHALER DR","m":"Shaler","u":"L","o":"individual","sf":597,"v":29600}},{"type":"Feature","geometry":{"type":"Point","coordinates":[-79.97248,40.51174]},"properties":{"p":"0283R00130000000","a":"WIBLE RUN RD","m":"Shaler","u":"L","o":"individual","sf":2308,"v":200}},{"type":"Feature","geometry":{"type":"Point","coordinates":[-79.97044,40.51399]},"properties":{"p":"0283M00112000000","a":"GERARD DR","m":"Shaler","u":"L","o":"individual","sf":12673,"v":45100}},{"type":"Feature","geometry":{"type":"Point","coordinates":[-79.96362,40.51609]},"properties":{"p":"0284E00305000000","a":"WINTERHAVEN DR","m":"Shaler","u":"L","o":"individual","sf":19166,"v":11000}},{"type":"Feature","geometry":{"type":"Point","coordinates":[-79.97261,40.52974]},"properties":{"p":"0354C00055000000","a":"MCELHENY RD","m":"Shaler","u":"L","o":"individual","sf":1500,"v":200}},{"type":"Feature","geometry":{"type":"Point","coordinates":[-79.97498,40.51159]},"properties":{"p":"0283R00260000000","a":"SHALER AVE","m":"Shaler","u":"L","o":"individual","sf":43560,"v":500}},{"type":"Feature","geometry":{"type":"Point","coordinates":[-79.96217,40.5184]},"properties":{"p":"0284B00003000000","a":"HOMER PL","m":"Shaler","u":"L","o":"corp","sf":7498,"v":35200}},{"type":"Feature","geometry":{"type":"Point","coordinates":[-79.96803,40.5167]},"properties":{"p":"0283H00240000000","a":"MARZOLF RD EXT","m":"Shaler","u":"L","o":"corp","sf":10000,"v":41200}},{"type":"Feature","geometry":{"type":"Point","coordinates":[-79.96765,40.51661]},"properties":{"p":"0283H00242000000","a":"BRAY ST","m":"Shaler","u":"L","o":"individual","sf":3659,"v":400}},{"type":"Feature","geometry":{"type":"Point","coordinates":[-79.9676,40.51709]},"properties":{"p":"0283H00250000000","a":"200 BRAY ST","m":"Shaler","u":"L","o":"individual","sf":25143,"v":4000}},{"type":"Feature","geometry":{"type":"Point","coordinates":[-79.96411,40.5299]},"properties":{"p":"0355A00154000000","a":"ROBINSON PL","m":"Shaler","u":"L","o":"individual","sf":3037,"v":5700}},{"type":"Feature","geometry":{"type":"Point","coordinates":[-79.96167,40.5158]},"properties":{"p":"0284K00301000000","a":"LITTLE PINE CREEK RD","m":"Shaler","u":"L","o":"individual","sf":63162,"v":50300}},{"type":"Feature","geometry":{"type":"Point","coordinates":[-79.96203,40.51462]},"properties":{"p":"0284K00302000000","a":"LITTLE PINE CREEK RD","m":"Shaler","u":"L","o":"individual","sf":71438,"v":800}},{"type":"Feature","geometry":{"type":"Point","coordinates":[-79.96123,40.51483]},"properties":{"p":"0284K00310000000","a":"LITTLE PINE CREEK RD","m":"Shaler","u":"L","o":"individual","sf":522,"v":300}},{"type":"Feature","geometry":{"type":"Point","coordinates":[-79.96117,40.51465]},"properties":{"p":"0284K00312000000","a":"LITTLE PINE CREEK RD","m":"Shaler","u":"L","o":"individual","sf":12656,"v":4500}},{"type":"Feature","geometry":{"type":"Point","coordinates":[-79.97079,40.51906]},"properties":{"p":"0283C00325000000","a":"WIBLE RUN RD","m":"Shaler","u":"L","o":"individual","sf":11087,"v":1100}},{"type":"Feature","geometry":{"type":"Point","coordinates":[-79.96825,40.5149]},"properties":{"p":"0283M00262000000","a":"STEVENS DR","m":"Shaler","u":"L","o":"individual","sf":6052,"v":600}},{"type":"Feature","geometry":{"type":"Point","coordinates":[-79.96268,40.51866]},"properties":{"p":"0284B00072000000","a":"BRAUN ST","m":"Shaler","u":"L","o":"individual","sf":25146,"v":15500}},{"type":"Feature","geometry":{"type":"Point","coordinates":[-79.96084,40.5131]},"properties":{"p":"0284P00303000000","a":"LITTLE PINE CREEK RD","m":"Shaler","u":"L","o":"corp","sf":2342,"v":900}},{"type":"Feature","geometry":{"type":"Point","coordinates":[-79.9639,40.51793]},"properties":{"p":"0284E00129000000","a":"MEIER LN","m":"Shaler","u":"L","o":"individual","sf":28009,"v":46600}},{"type":"Feature","geometry":{"type":"Point","coordinates":[-79.97112,40.52319]},"properties":{"p":"0354S00010000000","a":"WETZEL RD","m":"Shaler","u":"L","o":"individual","sf":30693,"v":3100}},{"type":"Feature","geometry":{"type":"Point","coordinates":[-79.96108,40.51426]},"properties":{"p":"0284K00145000000","a":"WILLJOHN ST","m":"Shaler","u":"L","o":"individual","sf":21175,"v":7500}},{"type":"Feature","geometry":{"type":"Point","coordinates":[-79.97115,40.51338]},"properties":{"p":"0283R00012000000","a":"GERARD DR","m":"Shaler","u":"L","o":"individual","sf":10500,"v":42200}},{"type":"Feature","geometry":{"type":"Point","coordinates":[-79.97181,40.51135]},"properties":{"p":"0283R00110000000","a":"WIBLE RUN RD","m":"Shaler","u":"L","o":"individual","sf":37774,"v":27300}},{"type":"Feature","geometry":{"type":"Point","coordinates":[-79.96421,40.5199]},"properties":{"p":"0284A00176000000","a":"MEIER LN","m":"Shaler","u":"L","o":"individual","sf":29129,"v":24300}},{"type":"Feature","geometry":{"type":"Point","coordinates":[-79.96422,40.51853]},"properties":{"p":"0284A00236000000","a":"MEIER LN","m":"Shaler","u":"L","o":"individual","sf":38070,"v":47600}},{"type":"Feature","geometry":{"type":"Point","coordinates":[-79.96237,40.51351]},"properties":{"p":"0284P00310000000","a":"LITTLE PINE CREEK RD","m":"Shaler","u":"L","o":"individual","sf":9235,"v":17900}},{"type":"Feature","geometry":{"type":"Point","coordinates":[-79.9782,40.5267]},"properties":{"p":"0354F00190000000","a":"MCELHENY RD","m":"Shaler","u":"L","o":"individual","sf":21781,"v":2200}},{"type":"Feature","geometry":{"type":"Point","coordinates":[-79.97521,40.52485]},"properties":{"p":"0354K00116000000","a":"BARBOUR DR","m":"Shaler","u":"L","o":"individual","sf":43996,"v":4800}},{"type":"Feature","geometry":{"type":"Point","coordinates":[-79.97325,40.51135]},"properties":{"p":"0283R00115000000","a":"SHALER DR","m":"Shaler","u":"L","o":"individual","sf":84071,"v":2000}},{"type":"Feature","geometry":{"type":"Point","coordinates":[-79.96023,40.52975]},"properties":{"p":"0355B00063000000","a":"BUTLER PLANK RD","m":"Shaler","u":"L","o":"individual","sf":21524,"v":23500}},{"type":"Feature","geometry":{"type":"Point","coordinates":[-79.96733,40.51603]},"properties":{"p":"0283H00222000000","a":"MARZOLF RD EXT","m":"Shaler","u":"L","o":"individual","sf":2047,"v":200}},{"type":"Feature","geometry":{"type":"Point","coordinates":[-79.96694,40.51627]},"properties":{"p":"0283H00226000000","a":"MARZOLF RD EXT","m":"Shaler","u":"L","o":"individual","sf":2614,"v":300}},{"type":"Feature","geometry":{"type":"Point","coordinates":[-79.973,40.52878]},"properties":{"p":"0354C00222000000","a":"490 MCELHENY RD","m":"Shaler","u":"L","o":"individual","sf":3950,"v":400}},{"type":"Feature","geometry":{"type":"Point","coordinates":[-79.96767,40.51246]},"properties":{"p":"0283S00140000000","a":"MARZOLF RD EXT","m":"Shaler","u":"L","o":"individual","sf":65688,"v":25000}},{"type":"Feature","geometry":{"type":"Point","coordinates":[-79.96881,40.51244]},"properties":{"p":"0283S00180000000","a":"MARZOLF RD","m":"Shaler","u":"L","o":"individual","sf":223310,"v":66800}},{"type":"Feature","geometry":{"type":"Point","coordinates":[-79.97795,40.52228]},"properties":{"p":"0354P00220000000","a":"860 WIBLE RUN RD","m":"Shaler","u":"L","o":"individual","sf":27766,"v":20000}},{"type":"Feature","geometry":{"type":"Point","coordinates":[-79.96121,40.5172]},"properties":{"p":"0284F00108000000","a":"1013 LOUANN ST","m":"Shaler","u":"L","o":"individual","sf":9000,"v":17900}},{"type":"Feature","geometry":{"type":"Point","coordinates":[-79.9653,40.51873]},"properties":{"p":"0284A00086000000","a":"MEIER LN","m":"Shaler","u":"L","o":"individual","sf":5009,"v":9000}},{"type":"Feature","geometry":{"type":"Point","coordinates":[-79.96537,40.51992]},"properties":{"p":"0284A00126000000","a":"MEIER LN","m":"Shaler","u":"L","o":"individual","sf":14671,"v":1300}},{"type":"Feature","geometry":{"type":"Point","coordinates":[-79.9633,40.51772]},"properties":{"p":"0284E00020000000","a":"LITTLE PINE CREEK RD","m":"Shaler","u":"L","o":"individual","sf":103237,"v":54400}},{"type":"Feature","geometry":{"type":"Point","coordinates":[-79.96283,40.51669]},"properties":{"p":"0284E00085000000","a":"MARZOLF RD EXT","m":"Shaler","u":"L","o":"individual","sf":41818,"v":48000}},{"type":"Feature","geometry":{"type":"Point","coordinates":[-79.97513,40.52638]},"properties":{"p":"0354F00093000000","a":"MCELHENY RD","m":"Shaler","u":"L","o":"individual","sf":137650,"v":14200}},{"type":"Feature","geometry":{"type":"Point","coordinates":[-79.97451,40.52119]},"properties":{"p":"0354R00055000000","a":"WISE LN","m":"Shaler","u":"L","o":"individual","sf":75359,"v":29100}},{"type":"Feature","geometry":{"type":"Point","coordinates":[-79.97942,40.52982]},"properties":{"p":"0354A00115000000","a":"VILSACK RD","m":"Shaler","u":"L","o":"individual","sf":43996,"v":4600}},{"type":"Feature","geometry":{"type":"Point","coordinates":[-79.97885,40.51688]},"properties":{"p":"0283E00128000000","a":"ANDERSON RD","m":"Shaler","u":"L","o":"individual","sf":187125,"v":19300}},{"type":"Feature","geometry":{"type":"Point","coordinates":[-79.97928,40.52668]},"properties":{"p":"0354E00075000000","a":"NORTHVIEW DR","m":"Shaler","u":"L","o":"individual","sf":214751,"v":22200}},{"type":"Feature","geometry":{"type":"Point","coordinates":[-79.9723,40.51444]},"properties":{"p":"0283L00084000000","a":"WIBLE RUN RD","m":"Shaler","u":"L","o":"individual","sf":66734,"v":25300}},{"type":"Feature","geometry":{"type":"Point","coordinates":[-79.97049,40.51536]},"properties":{"p":"0283M00016000000","a":"MARZOLF RD","m":"Shaler","u":"L","o":"individual","sf":9186,"v":7500}},{"type":"Feature","geometry":{"type":"Point","coordinates":[-79.96025,40.51295]},"properties":{"p":"0284P00194000000","a":"LOUANN ST","m":"Shaler","u":"L","o":"individual","sf":10217,"v":35500}},{"type":"Feature","geometry":{"type":"Point","coordinates":[-79.96935,40.52962]},"properties":{"p":"0354D00120000000","a":"WOODSIDE RD","m":"Shaler","u":"L","o":"individual","sf":4072,"v":2500}},{"type":"Feature","geometry":{"type":"Point","coordinates":[-79.96215,40.51801]},"properties":{"p":"0284F00035000000","a":"HOMER PL","m":"Shaler","u":"L","o":"corp","sf":7291,"v":2700}},{"type":"Feature","geometry":{"type":"Point","coordinates":[-79.96267,40.5182]},"properties":{"p":"0284F00038000000","a":"HOMER PL","m":"Shaler","u":"L","o":"corp","sf":50094,"v":600}},{"type":"Feature","geometry":{"type":"Point","coordinates":[-79.96204,40.51739]},"properties":{"p":"0284F00050000000","a":"LITTLE PINE CREEK RD","m":"Shaler","u":"L","o":"individual","sf":81457,"v":42000}},{"type":"Feature","geometry":{"type":"Point","coordinates":[-79.96177,40.51668]},"properties":{"p":"0284F00060000000","a":"LITTLE PINE CREEK RD","m":"Shaler","u":"L","o":"individual","sf":66211,"v":40600}},{"type":"Feature","geometry":{"type":"Point","coordinates":[-79.97831,40.51897]},"properties":{"p":"0283B00190000000","a":"JOAN DR","m":"Shaler","u":"L","o":"individual","sf":86684,"v":11500}},{"type":"Feature","geometry":{"type":"Point","coordinates":[-79.96265,40.51242]},"properties":{"p":"0284N00250000000","a":"LITTLE PINE CREEK RD","m":"Shaler","u":"L","o":"individual","sf":41600,"v":8500}},{"type":"Feature","geometry":{"type":"Point","coordinates":[-79.96028,40.51111]},"properties":{"p":"0284P00004000000","a":"W PENNVIEW ST","m":"Shaler","u":"L","o":"individual","sf":5663,"v":2100}},{"type":"Feature","geometry":{"type":"Point","coordinates":[-79.97821,40.525]},"properties":{"p":"0354K00190000000","a":"MCELHENY RD","m":"Shaler","u":"L","o":"individual","sf":14036,"v":1400}},{"type":"Feature","geometry":{"type":"Point","coordinates":[-79.97193,40.52509]},"properties":{"p":"0354L00150000000","a":"PRESIDENT DR","m":"Shaler","u":"L","o":"corp","sf":319730,"v":68600}},{"type":"Feature","geometry":{"type":"Point","coordinates":[-79.96625,40.52636]},"properties":{"p":"0355E00075000000","a":"1811 PARK CIRCLE DR","m":"Shaler","u":"L","o":"individual","sf":20748,"v":2300}},{"type":"Feature","geometry":{"type":"Point","coordinates":[-79.96209,40.52149]},"properties":{"p":"0355P00177000000","a":"N SPRING ST","m":"Shaler","u":"L","o":"individual","sf":31520,"v":37400}},{"type":"Feature","geometry":{"type":"Point","coordinates":[-79.96622,40.52521]},"properties":{"p":"0355J00024000000","a":"MASON DR","m":"Shaler","u":"L","o":"individual","sf":10696,"v":42600}},{"type":"Feature","geometry":{"type":"Point","coordinates":[-79.96297,40.52009]},"properties":{"p":"0284A00307000000","a":"LITTLE PINE CREEK RD","m":"Shaler","u":"L","o":"individual","sf":32181,"v":3200}},{"type":"Feature","geometry":{"type":"Point","coordinates":[-79.96243,40.51952]},"properties":{"p":"0284B00400000000","a":"SEEL ST","m":"Shaler","u":"L","o":"individual","sf":100715,"v":54200}},{"type":"Feature","geometry":{"type":"Point","coordinates":[-79.97982,40.52382]},"properties":{"p":"0354J00249000000","a":"925 WIBLE RUN RD","m":"Shaler","u":"L","o":"individual","sf":5000,"v":500}},{"type":"Feature","geometry":{"type":"Point","coordinates":[-79.96279,40.51363]},"properties":{"p":"0284J00340000000","a":"LITTLE PINE CREEK RD","m":"Shaler","u":"L","o":"individual","sf":7971,"v":2900}},{"type":"Feature","geometry":{"type":"Point","coordinates":[-79.97221,40.52976]},"properties":{"p":"0354C00057000000","a":"MCELHENY RD","m":"Shaler","u":"L","o":"individual","sf":3200,"v":300}},{"type":"Feature","geometry":{"type":"Point","coordinates":[-79.97911,40.52552]},"properties":{"p":"0354K00205000000","a":"660 MCELHENY RD","m":"Shaler","u":"L","o":"corp","sf":21406,"v":45900}},{"type":"Feature","geometry":{"type":"Point","coordinates":[-79.97559,40.52631]},"properties":{"p":"0354F00082000000","a":"MCELHENY RD","m":"Shaler","u":"L","o":"individual","sf":15407,"v":4500}},{"type":"Feature","geometry":{"type":"Point","coordinates":[-79.97594,40.52441]},"properties":{"p":"0354K00122000000","a":"BARBOUR DR","m":"Shaler","u":"L","o":"individual","sf":7500,"v":9000}},{"type":"Feature","geometry":{"type":"Point","coordinates":[-79.97435,40.52202]},"properties":{"p":"0354R00150000000","a":"WETZEL RD","m":"Shaler","u":"L","o":"individual","sf":21780,"v":23500}},{"type":"Feature","geometry":{"type":"Point","coordinates":[-79.97454,40.51102]},"properties":{"p":"0283R00270000000","a":"SHALER AVE","m":"Shaler","u":"L","o":"individual","sf":24835,"v":29800}},{"type":"Feature","geometry":{"type":"Point","coordinates":[-79.96723,40.51662]},"properties":{"p":"0283H00244000000","a":"BRAY ST","m":"Shaler","u":"L","o":"individual","sf":3812,"v":400}},{"type":"Feature","geometry":{"type":"Point","coordinates":[-79.97123,40.51445]},"properties":{"p":"0283L00020000000","a":"BYRD LN","m":"Shaler","u":"B","o":"individual","sf":28421,"v":8000}},{"type":"Feature","geometry":{"type":"Point","coordinates":[-79.97197,40.51484]},"properties":{"p":"0283L00088000000","a":"WIBLE RUN RD","m":"Shaler","u":"B","o":"individual","sf":70445,"v":12800}},{"type":"Feature","geometry":{"type":"Point","coordinates":[-79.9718,40.51512]},"properties":{"p":"0283L00092000000","a":"WIBLE RUN RD","m":"Shaler","u":"B","o":"individual","sf":68860,"v":12600}},{"type":"Feature","geometry":{"type":"Point","coordinates":[-79.97168,40.51549]},"properties":{"p":"0283L00095000000","a":"WIBLE RUN RD","m":"Shaler","u":"B","o":"individual","sf":41039,"v":9300}}]}