{"type":"FeatureCollection","features":[{"type":"Feature","geometry":{"type":"Point","coordinates":[-79.96506,40.22509]},"properties":{"p":"1912E00284000000","a":"BUNOLA RIVER RD","m":"Forward","u":"L","o":"individual","sf":36160,"v":3600}},{"type":"Feature","geometry":{"type":"Point","coordinates":[-79.96505,40.22955]},"properties":{"p":"1741N00311000000","a":"ELIZABETH RD","m":"Forward","u":"L","o":"individual","sf":143312,"v":9900}},{"type":"Feature","geometry":{"type":"Point","coordinates":[-79.96481,40.22391]},"properties":{"p":"1912J00271000000","a":"BUNOLA RIVER RD","m":"Forward","u":"L","o":"individual","sf":915,"v":100}},{"type":"Feature","geometry":{"type":"Point","coordinates":[-79.96485,40.22406]},"properties":{"p":"1912J00278000000","a":"BUNOLA RIVER RD","m":"Forward","u":"L","o":"individual","sf":10890,"v":1100}},{"type":"Feature","geometry":{"type":"Point","coordinates":[-79.96338,40.22319]},"properties":{"p":"1912J00125000000","a":"PUBLIC RD","m":"Forward","u":"L","o":"individual","sf":3668,"v":400}},{"type":"Feature","geometry":{"type":"Point","coordinates":[-79.96304,40.2232]},"properties":{"p":"1912J00133000000","a":"MONONGAHELA RD","m":"Forward","u":"L","o":"individual","sf":52708,"v":5500}},{"type":"Feature","geometry":{"type":"Point","coordinates":[-79.96434,40.22394]},"properties":{"p":"1912J00223000000","a":"269 BUNOLA RIVER RD","m":"Forward","u":"L","o":"individual","sf":43124,"v":24900}}]}