{"type":"FeatureCollection","features":[{"type":"Feature","geometry":{"type":"Point","coordinates":[-79.96083,40.23401]},"properties":{"p":"1741F00185000000","a":"ELIZABETH RD","m":"Forward","u":"L","o":"individual","sf":1675,"v":200}},{"type":"Feature","geometry":{"type":"Point","coordinates":[-79.9638,40.23213]},"properties":{"p":"1741J00058000000","a":"301 BUNOLA RIVER RD","m":"Forward","u":"L","o":"individual","sf":45821,"v":47600}},{"type":"Feature","geometry":{"type":"Point","coordinates":[-79.96287,40.23253]},"properties":{"p":"1741J00087000000","a":"305 BUNOLA RIVER RD","m":"Forward","u":"L","o":"individual","sf":25820,"v":2600}},{"type":"Feature","geometry":{"type":"Point","coordinates":[-79.96306,40.23364]},"properties":{"p":"1741J00146000000","a":"ELKHORN RD","m":"Forward","u":"L","o":"individual","sf":45302,"v":24800}}]}