{"type":"FeatureCollection","features":[{"type":"Feature","geometry":{"type":"Point","coordinates":[-79.9606,40.27897]},"properties":{"p":"1006P00002000000","a":"S RANDOLPH DR","m":"Jefferson Hills","u":"C","o":"individual","sf":41459,"v":800}},{"type":"Feature","geometry":{"type":"Point","coordinates":[-79.9633,40.28016]},"properties":{"p":"1006J00002000000","a":"INDEPENDENCE DR","m":"Jefferson Hills","u":"C","o":"corp","sf":332798,"v":30400}},{"type":"Feature","geometry":{"type":"Point","coordinates":[-79.96326,40.28922]},"properties":{"p":"0883N00018000000","a":"NEILSON DR","m":"Jefferson Hills","u":"L","o":"individual","sf":12558,"v":14200}},{"type":"Feature","geometry":{"type":"Point","coordinates":[-79.96461,40.28872]},"properties":{"p":"0883N00234000000","a":"STEINBACH LN","m":"Jefferson Hills","u":"L","o":"individual","sf":8587,"v":900}},{"type":"Feature","geometry":{"type":"Point","coordinates":[-79.96419,40.28995]},"properties":{"p":"0883J00250000000","a":"STEINBACH LN","m":"Jefferson Hills","u":"L","o":"individual","sf":4356,"v":400}},{"type":"Feature","geometry":{"type":"Point","coordinates":[-79.9627,40.2878]},"properties":{"p":"0883P00085000000","a":"NEW WORLD DR","m":"Jefferson Hills","u":"L","o":"corp","sf":82115,"v":51400}},{"type":"Feature","geometry":{"type":"Point","coordinates":[-79.96209,40.28106]},"properties":{"p":"1006K00150000000","a":"INDEPENDENCE DR","m":"Jefferson Hills","u":"L","o":"corp","sf":71530,"v":7400}},{"type":"Feature","geometry":{"type":"Point","coordinates":[-79.97405,40.28286]},"properties":{"p":"1007L00001000000","a":"BIDEFORD DR","m":"South Park","u":"L","o":"individual","sf":523,"v":100}},{"type":"Feature","geometry":{"type":"Point","coordinates":[-79.9739,40.28288]},"properties":{"p":"1007L00002000000","a":"BIDEFORD DR","m":"South Park","u":"L","o":"individual","sf":1671,"v":200}},{"type":"Feature","geometry":{"type":"Point","coordinates":[-79.97315,40.28231]},"properties":{"p":"1007L00011000000","a":"BIDEFORD DR","m":"South Park","u":"L","o":"corp","sf":5301,"v":500}},{"type":"Feature","geometry":{"type":"Point","coordinates":[-79.97627,40.28441]},"properties":{"p":"1007F00007000000","a":"BARNSLEY DR","m":"South Park","u":"L","o":"corp","sf":314634,"v":0}},{"type":"Feature","geometry":{"type":"Point","coordinates":[-79.97366,40.27869]},"properties":{"p":"1007K00201000000","a":"HAWTHORN DR","m":"South Park","u":"L","o":"corp","sf":2400640,"v":0}},{"type":"Feature","geometry":{"type":"Point","coordinates":[-79.96597,40.27953]},"properties":{"p":"1006N00032000000","a":"STATION ST","m":"South Park","u":"L","o":"individual","sf":2744,"v":300}},{"type":"Feature","geometry":{"type":"Point","coordinates":[-79.96557,40.27785]},"properties":{"p":"1006N00072000000","a":"MEADOW LN","m":"South Park","u":"L","o":"individual","sf":7230,"v":700}},{"type":"Feature","geometry":{"type":"Point","coordinates":[-79.965,40.27819]},"properties":{"p":"1006N00081000000","a":"MEADOW LN","m":"South Park","u":"L","o":"individual","sf":6000,"v":600}},{"type":"Feature","geometry":{"type":"Point","coordinates":[-79.96523,40.27744]},"properties":{"p":"1137A00112000000","a":"MEADOW LN","m":"South Park","u":"L","o":"individual","sf":3000,"v":300}},{"type":"Feature","geometry":{"type":"Point","coordinates":[-79.96517,40.27732]},"properties":{"p":"1137A00114000000","a":"MEADOW LN","m":"South Park","u":"L","o":"individual","sf":2600,"v":300}},{"type":"Feature","geometry":{"type":"Point","coordinates":[-79.96527,40.27728]},"properties":{"p":"1137A00116000000","a":"MEADOW LN","m":"South Park","u":"L","o":"individual","sf":3050,"v":300}},{"type":"Feature","geometry":{"type":"Point","coordinates":[-79.96908,40.2811]},"properties":{"p":"1007M00003000000","a":"3530 SNOWDEN RD","m":"South Park","u":"L","o":"individual","sf":365582,"v":22100}},{"type":"Feature","geometry":{"type":"Point","coordinates":[-79.97449,40.27061]},"properties":{"p":"1138L00020000000","a":"PINEY FORK RD","m":"South Park","u":"L","o":"individual","sf":261360,"v":12800}},{"type":"Feature","geometry":{"type":"Point","coordinates":[-79.976,40.27908]},"properties":{"p":"1007P00123000000","a":"PINEY FORK RD","m":"South Park","u":"L","o":"individual","sf":176766,"v":4000}},{"type":"Feature","geometry":{"type":"Point","coordinates":[-79.96591,40.27652]},"properties":{"p":"1137A00075000000","a":"MEADOW LN","m":"South Park","u":"L","o":"individual","sf":6524,"v":700}},{"type":"Feature","geometry":{"type":"Point","coordinates":[-79.96568,40.27698]},"properties":{"p":"1137A00080000000","a":"SUNNY DR","m":"South Park","u":"L","o":"individual","sf":10964,"v":43100}},{"type":"Feature","geometry":{"type":"Point","coordinates":[-79.96556,40.2771]},"properties":{"p":"1137A00085000000","a":"SUNNY DR","m":"South Park","u":"L","o":"individual","sf":5201,"v":32200}},{"type":"Feature","geometry":{"type":"Point","coordinates":[-79.96637,40.2793]},"properties":{"p":"1007S00049000000","a":"STATION ST","m":"South Park","u":"L","o":"individual","sf":13000,"v":1300}},{"type":"Feature","geometry":{"type":"Point","coordinates":[-79.96659,40.2787]},"properties":{"p":"1007S00061000000","a":"STATION ST","m":"South Park","u":"L","o":"individual","sf":12000,"v":1200}},{"type":"Feature","geometry":{"type":"Point","coordinates":[-79.96669,40.27831]},"properties":{"p":"1007S00082000000","a":"SNOWDEN RD","m":"South Park","u":"L","o":"individual","sf":47001,"v":48600}},{"type":"Feature","geometry":{"type":"Point","coordinates":[-79.97346,40.28133]},"properties":{"p":"1007L00075000000","a":"BIDEFORD DR","m":"South Park","u":"L","o":"corp","sf":88078,"v":52900}},{"type":"Feature","geometry":{"type":"Point","coordinates":[-79.967,40.276]},"properties":{"p":"1138D00075000000","a":"SNOWDEN RD","m":"South Park","u":"L","o":"individual","sf":5374,"v":500}},{"type":"Feature","geometry":{"type":"Point","coordinates":[-79.96633,40.2798]},"properties":{"p":"1007S00004000000","a":"SNOWDEN RD","m":"South Park","u":"L","o":"individual","sf":19327,"v":14550}},{"type":"Feature","geometry":{"type":"Point","coordinates":[-79.96486,40.27868]},"properties":{"p":"1006N00089000000","a":"MEADOW LN","m":"South Park","u":"L","o":"individual","sf":6360,"v":600}},{"type":"Feature","geometry":{"type":"Point","coordinates":[-79.96293,40.2782]},"properties":{"p":"1006N00100000000","a":"MEADOW LN","m":"South Park","u":"L","o":"individual","sf":107114,"v":11100}},{"type":"Feature","geometry":{"type":"Point","coordinates":[-79.96809,40.27999]},"properties":{"p":"1007S00007000000","a":"SNOWDEN DR","m":"South Park","u":"L","o":"individual","sf":234836,"v":18500}},{"type":"Feature","geometry":{"type":"Point","coordinates":[-79.96679,40.27923]},"properties":{"p":"1007S00037000000","a":"STATION ST","m":"South Park","u":"L","o":"individual","sf":12000,"v":14550}},{"type":"Feature","geometry":{"type":"Point","coordinates":[-79.96741,40.28741]},"properties":{"p":"1007D00075000000","a":"SNOWDEN RD","m":"South Park","u":"L","o":"individual","sf":2785,"v":300}},{"type":"Feature","geometry":{"type":"Point","coordinates":[-79.97439,40.27711]},"properties":{"p":"1138C00001000000","a":"PINEY FORK RD","m":"South Park","u":"L","o":"individual","sf":61855,"v":6400}},{"type":"Feature","geometry":{"type":"Point","coordinates":[-79.96659,40.27591]},"properties":{"p":"1138D00002000000","a":"SNOWDEN RD","m":"South Park","u":"L","o":"individual","sf":19040,"v":1900}},{"type":"Feature","geometry":{"type":"Point","coordinates":[-79.96642,40.27739]},"properties":{"p":"1138D00030000000","a":"SNOWDEN RD","m":"South Park","u":"L","o":"individual","sf":5075,"v":500}},{"type":"Feature","geometry":{"type":"Point","coordinates":[-79.97965,40.27932]},"properties":{"p":"1007N00115000000","a":"CONNOR RD","m":"South Park","u":"L","o":"individual","sf":11710,"v":20000}},{"type":"Feature","geometry":{"type":"Point","coordinates":[-79.97931,40.27971]},"properties":{"p":"1007N00123000000","a":"CONNOR RD","m":"South Park","u":"L","o":"individual","sf":15000,"v":45300}},{"type":"Feature","geometry":{"type":"Point","coordinates":[-79.96748,40.28944]},"properties":{"p":"0884S00060000000","a":"SNOWDEN RD","m":"South Park","u":"L","o":"individual","sf":39130,"v":47700}},{"type":"Feature","geometry":{"type":"Point","coordinates":[-79.96744,40.28857]},"properties":{"p":"0884S00095000000","a":"SNOWDEN RD","m":"South Park","u":"L","o":"individual","sf":105110,"v":10900}},{"type":"Feature","geometry":{"type":"Point","coordinates":[-79.96796,40.28932]},"properties":{"p":"0884S00155000000","a":"3060 FELIX DR","m":"South Park","u":"L","o":"individual","sf":7759,"v":1000}},{"type":"Feature","geometry":{"type":"Point","coordinates":[-79.97663,40.28914]},"properties":{"p":"0884P00030000000","a":"RIGGS RD","m":"South Park","u":"L","o":"individual","sf":13244,"v":45100}},{"type":"Feature","geometry":{"type":"Point","coordinates":[-79.97142,40.28584]},"properties":{"p":"1007D00235000000","a":"SNOWDEN RD","m":"South Park","u":"L","o":"corp","sf":150718,"v":21000}},{"type":"Feature","geometry":{"type":"Point","coordinates":[-79.96591,40.2787]},"properties":{"p":"1006M00038000000","a":"STATION ST","m":"South Park","u":"L","o":"individual","sf":16100,"v":45400}},{"type":"Feature","geometry":{"type":"Point","coordinates":[-79.96684,40.27545]},"properties":{"p":"1138D00085000000","a":"SNOWDEN RD","m":"South Park","u":"L","o":"individual","sf":23870,"v":46200}},{"type":"Feature","geometry":{"type":"Point","coordinates":[-79.96693,40.28031]},"properties":{"p":"1007M00075000000","a":"SNOWDEN RD","m":"South Park","u":"L","o":"individual","sf":29100,"v":46700}},{"type":"Feature","geometry":{"type":"Point","coordinates":[-79.96569,40.27741]},"properties":{"p":"1137A00093000000","a":"MEADOW LN","m":"South Park","u":"L","o":"individual","sf":7927,"v":800}},{"type":"Feature","geometry":{"type":"Point","coordinates":[-79.96698,40.27982]},"properties":{"p":"1007S00015000000","a":"SNOWDEN RD","m":"South Park","u":"L","o":"individual","sf":27405,"v":2700}},{"type":"Feature","geometry":{"type":"Point","coordinates":[-79.9634,40.28664]},"properties":{"p":"1006A00007000000","a":"JACKSON DR","m":"Jefferson Hills","u":"B","o":"individual","sf":25681,"v":7400}},{"type":"Feature","geometry":{"type":"Point","coordinates":[-79.97312,40.28211]},"properties":{"p":"1007L00012000000","a":"BIDEFORD DR","m":"South Park","u":"B","o":"corp","sf":12000,"v":6400}},{"type":"Feature","geometry":{"type":"Point","coordinates":[-79.96855,40.27723]},"properties":{"p":"1138D00115000000","a":"4277 HAWTHORN DR","m":"South Park","u":"B","o":"individual","sf":11400,"v":2200}},{"type":"Feature","geometry":{"type":"Point","coordinates":[-79.96842,40.27672]},"properties":{"p":"1138D00118000000","a":"4271 HAWTHORN DR","m":"South Park","u":"B","o":"individual","sf":10685,"v":2100}},{"type":"Feature","geometry":{"type":"Point","coordinates":[-79.96855,40.27585]},"properties":{"p":"1138D00144000000","a":"4262 HAWTHORN DR","m":"South Park","u":"B","o":"corp","sf":11464,"v":2200}},{"type":"Feature","geometry":{"type":"Point","coordinates":[-79.96811,40.27606]},"properties":{"p":"1138D00146000000","a":"4266 HAWTHORN DR","m":"South Park","u":"B","o":"corp","sf":12494,"v":2500}},{"type":"Feature","geometry":{"type":"Point","coordinates":[-79.96868,40.27864]},"properties":{"p":"1007S00241000000","a":"4296 HAWTHORN DR","m":"South Park","u":"B","o":"individual","sf":9659,"v":1900}},{"type":"Feature","geometry":{"type":"Point","coordinates":[-79.96909,40.27639]},"properties":{"p":"1138D00122000000","a":"4259 HAWTHORN DR","m":"South Park","u":"B","o":"individual","sf":11093,"v":2200}}]}