{"type":"FeatureCollection","features":[{"type":"Feature","geometry":{"type":"Point","coordinates":[-79.97308,40.30097]},"properties":{"p":"0769L00110000000","a":"WALLACE RD","m":"Jefferson Hills","u":"C","o":"individual","sf":2394,"v":300}},{"type":"Feature","geometry":{"type":"Point","coordinates":[-79.97188,40.30008]},"properties":{"p":"0769L00200000000","a":"MILL RD","m":"Jefferson Hills","u":"C","o":"individual","sf":16553,"v":11400}},{"type":"Feature","geometry":{"type":"Point","coordinates":[-79.96251,40.30027]},"properties":{"p":"0768J00058000000","a":"GILL HALL RD","m":"Jefferson Hills","u":"C","o":"individual","sf":14950,"v":37400}},{"type":"Feature","geometry":{"type":"Point","coordinates":[-79.97937,40.30941]},"properties":{"p":"0662J00169000000","a":"MCELHENY RD","m":"South Park","u":"C","o":"individual","sf":16512,"v":12400}},{"type":"Feature","geometry":{"type":"Point","coordinates":[-79.97179,40.3086]},"properties":{"p":"0662R00124000000","a":"DEER PARK DR W","m":"Jefferson Hills","u":"L","o":"individual","sf":7869,"v":800}},{"type":"Feature","geometry":{"type":"Point","coordinates":[-79.9672,40.30908]},"properties":{"p":"0662S00030000000","a":"DALE ST","m":"Jefferson Hills","u":"L","o":"individual","sf":1357,"v":100}},{"type":"Feature","geometry":{"type":"Point","coordinates":[-79.9744,40.30567]},"properties":{"p":"0769C00278000000","a":"102 ARCH ST","m":"Jefferson Hills","u":"L","o":"individual","sf":32752,"v":46300}},{"type":"Feature","geometry":{"type":"Point","coordinates":[-79.96787,40.30551]},"properties":{"p":"0769D00100000000","a":"GILLCREST DR","m":"Jefferson Hills","u":"L","o":"corp","sf":19481,"v":2000}},{"type":"Feature","geometry":{"type":"Point","coordinates":[-79.96897,40.30504]},"properties":{"p":"0769D00120000000","a":"GILLCREST DR","m":"Jefferson Hills","u":"L","o":"individual","sf":7619,"v":800}},{"type":"Feature","geometry":{"type":"Point","coordinates":[-79.96753,40.30515]},"properties":{"p":"0769D00280000000","a":"123 GILLCREST DR","m":"Jefferson Hills","u":"L","o":"individual","sf":50530,"v":25700}},{"type":"Feature","geometry":{"type":"Point","coordinates":[-79.96696,40.30552]},"properties":{"p":"0769D00285000000","a":"GILLCREST DR","m":"Jefferson Hills","u":"L","o":"corp","sf":31156,"v":46100}},{"type":"Feature","geometry":{"type":"Point","coordinates":[-79.96202,40.29856]},"properties":{"p":"0768P00038000000","a":"GILL HALL RD","m":"Jefferson Hills","u":"L","o":"corp","sf":10890,"v":34700}},{"type":"Feature","geometry":{"type":"Point","coordinates":[-79.96145,40.29841]},"properties":{"p":"0768P00048000100","a":"WATERMAN RD","m":"Jefferson Hills","u":"L","o":"individual","sf":980,"v":100}},{"type":"Feature","geometry":{"type":"Point","coordinates":[-79.96137,40.29796]},"properties":{"p":"0768P00050000000","a":"WATERMAN RD","m":"Jefferson Hills","u":"L","o":"individual","sf":40075,"v":4000}},{"type":"Feature","geometry":{"type":"Point","coordinates":[-79.97206,40.30198]},"properties":{"p":"0769L00300000000","a":"WATERMAN RD","m":"Jefferson Hills","u":"L","o":"individual","sf":302742,"v":54000}},{"type":"Feature","geometry":{"type":"Point","coordinates":[-79.97581,40.30985]},"properties":{"p":"0662K00205000000","a":"COCHRAN MILL RD","m":"Jefferson Hills","u":"L","o":"individual","sf":5963,"v":600}},{"type":"Feature","geometry":{"type":"Point","coordinates":[-79.97459,40.30877]},"properties":{"p":"0662R00091000000","a":"SNEE DR","m":"Jefferson Hills","u":"L","o":"individual","sf":14680,"v":1500}},{"type":"Feature","geometry":{"type":"Point","coordinates":[-79.97399,40.30588]},"properties":{"p":"0769C00025000000","a":"ARCH ST","m":"Jefferson Hills","u":"L","o":"corp","sf":10138,"v":1000}},{"type":"Feature","geometry":{"type":"Point","coordinates":[-79.96687,40.29838]},"properties":{"p":"0769S00050000000","a":"GILL HALL RD","m":"Jefferson Hills","u":"L","o":"individual","sf":622922,"v":94600}},{"type":"Feature","geometry":{"type":"Point","coordinates":[-79.96701,40.30776]},"properties":{"p":"0662S00468000000","a":"ARNONI DR","m":"Jefferson Hills","u":"L","o":"individual","sf":36658,"v":5300}},{"type":"Feature","geometry":{"type":"Point","coordinates":[-79.96413,40.30452]},"properties":{"p":"0768A00129000000","a":"GILL HALL RD","m":"Jefferson Hills","u":"L","o":"individual","sf":25480,"v":23200}},{"type":"Feature","geometry":{"type":"Point","coordinates":[-79.96164,40.30482]},"properties":{"p":"0768B00030000000","a":"COAL VALLEY RD","m":"Jefferson Hills","u":"L","o":"individual","sf":75794,"v":5200}},{"type":"Feature","geometry":{"type":"Point","coordinates":[-79.97267,40.30517]},"properties":{"p":"0769C00326000000","a":"163 ARNONI DR","m":"Jefferson Hills","u":"L","o":"corp","sf":61799,"v":12400}},{"type":"Feature","geometry":{"type":"Point","coordinates":[-79.96308,40.29835]},"properties":{"p":"0768N00080000100","a":"GILL HALL RD","m":"Jefferson Hills","u":"L","o":"individual","sf":3093,"v":300}},{"type":"Feature","geometry":{"type":"Point","coordinates":[-79.96513,40.29915]},"properties":{"p":"0768N00401000000","a":"GILL HALL RD","m":"Jefferson Hills","u":"L","o":"individual","sf":38332,"v":3800}},{"type":"Feature","geometry":{"type":"Point","coordinates":[-79.97006,40.30257]},"properties":{"p":"0769H00020000000","a":"WALLACE RD","m":"Jefferson Hills","u":"L","o":"individual","sf":435600,"v":87900}},{"type":"Feature","geometry":{"type":"Point","coordinates":[-79.97663,40.30934]},"properties":{"p":"0662K00130000000","a":"502 COCHRAN MILL RD","m":"Jefferson Hills","u":"L","o":"individual","sf":62726,"v":6500}},{"type":"Feature","geometry":{"type":"Point","coordinates":[-79.97608,40.30854]},"properties":{"p":"0662P00287000000","a":"COCHRAN MILL RD","m":"Jefferson Hills","u":"L","o":"individual","sf":6613,"v":700}},{"type":"Feature","geometry":{"type":"Point","coordinates":[-79.97148,40.3087]},"properties":{"p":"0662R00126000000","a":"DEER PARK DR W","m":"Jefferson Hills","u":"L","o":"individual","sf":3538,"v":400}},{"type":"Feature","geometry":{"type":"Point","coordinates":[-79.97046,40.30841]},"properties":{"p":"0662R00252000000","a":"ANTLER DR","m":"Jefferson Hills","u":"L","o":"corp","sf":6899,"v":700}},{"type":"Feature","geometry":{"type":"Point","coordinates":[-79.96144,40.29989]},"properties":{"p":"0768K00025000000","a":"GILL HALL RD","m":"Jefferson Hills","u":"L","o":"individual","sf":82764,"v":51500}},{"type":"Feature","geometry":{"type":"Point","coordinates":[-79.96157,40.30182]},"properties":{"p":"0768K00075000000","a":"GILL HALL RD","m":"Jefferson Hills","u":"L","o":"individual","sf":7088,"v":700}},{"type":"Feature","geometry":{"type":"Point","coordinates":[-79.96389,40.2994]},"properties":{"p":"0768N00018000000","a":"GILL HALL RD","m":"Jefferson Hills","u":"L","o":"individual","sf":16118,"v":1600}},{"type":"Feature","geometry":{"type":"Point","coordinates":[-79.96518,40.30916]},"properties":{"p":"0661J00100000100","a":"GILL HALL RD","m":"Jefferson Hills","u":"L","o":"individual","sf":8668,"v":900}},{"type":"Feature","geometry":{"type":"Point","coordinates":[-79.96038,40.29742]},"properties":{"p":"0768P00086000000","a":"NEY LN","m":"Jefferson Hills","u":"L","o":"individual","sf":19000,"v":33000}},{"type":"Feature","geometry":{"type":"Point","coordinates":[-79.96007,40.29703]},"properties":{"p":"0768P00090000000","a":"WATERMAN RD","m":"Jefferson Hills","u":"L","o":"individual","sf":15300,"v":39700}},{"type":"Feature","geometry":{"type":"Point","coordinates":[-79.96549,40.30692]},"properties":{"p":"0661N00085000000","a":"GILL HALL RD","m":"Jefferson Hills","u":"L","o":"individual","sf":5225,"v":500}},{"type":"Feature","geometry":{"type":"Point","coordinates":[-79.96612,40.30673]},"properties":{"p":"0661N00100000000","a":"PRIVATE RD","m":"Jefferson Hills","u":"L","o":"individual","sf":5100,"v":500}},{"type":"Feature","geometry":{"type":"Point","coordinates":[-79.96443,40.30412]},"properties":{"p":"0768E00165000000","a":"GILL HALL RD","m":"Jefferson Hills","u":"L","o":"individual","sf":5185,"v":500}},{"type":"Feature","geometry":{"type":"Point","coordinates":[-79.96232,40.30423]},"properties":{"p":"0768F00006000000","a":"1172 CHAMBERLIN RD","m":"Jefferson Hills","u":"L","o":"individual","sf":8578,"v":900}},{"type":"Feature","geometry":{"type":"Point","coordinates":[-79.96208,40.30429]},"properties":{"p":"0768F00014000000","a":"CHAMBERLIN RD","m":"Jefferson Hills","u":"L","o":"individual","sf":11007,"v":34800}},{"type":"Feature","geometry":{"type":"Point","coordinates":[-79.96164,40.30379]},"properties":{"p":"0768F00210000000","a":"CHAMBERLIN RD","m":"Jefferson Hills","u":"L","o":"individual","sf":174240,"v":60900}},{"type":"Feature","geometry":{"type":"Point","coordinates":[-79.96511,40.30683]},"properties":{"p":"0661N00174000000","a":"GILL HALL RD","m":"Jefferson Hills","u":"L","o":"individual","sf":6050,"v":600}},{"type":"Feature","geometry":{"type":"Point","coordinates":[-79.96467,40.30678]},"properties":{"p":"0661N00179000000","a":"GILL HALL RD","m":"Jefferson Hills","u":"L","o":"individual","sf":7536,"v":800}},{"type":"Feature","geometry":{"type":"Point","coordinates":[-79.96438,40.30792]},"properties":{"p":"0661N00290000100","a":"GILL HALL RD","m":"Jefferson Hills","u":"L","o":"individual","sf":6577,"v":700}},{"type":"Feature","geometry":{"type":"Point","coordinates":[-79.96142,40.29924]},"properties":{"p":"0768P00320000000","a":"GILL HALL RD","m":"Jefferson Hills","u":"L","o":"individual","sf":153767,"v":58800}},{"type":"Feature","geometry":{"type":"Point","coordinates":[-79.96084,40.2914]},"properties":{"p":"0883K00132000000","a":"1210 GILL HALL RD","m":"Jefferson Hills","u":"L","o":"individual","sf":29041,"v":45900}},{"type":"Feature","geometry":{"type":"Point","coordinates":[-79.9616,40.29678]},"properties":{"p":"0883B00002000000","a":"GILL HALL RD","m":"Jefferson Hills","u":"L","o":"corp","sf":91868,"v":52400}},{"type":"Feature","geometry":{"type":"Point","coordinates":[-79.96306,40.29634]},"properties":{"p":"0883A00080000000","a":"GILL HALL RD","m":"Jefferson Hills","u":"L","o":"individual","sf":48352,"v":18200}},{"type":"Feature","geometry":{"type":"Point","coordinates":[-79.96527,40.29519]},"properties":{"p":"0883A00087000000","a":"KLEIN RD","m":"Jefferson Hills","u":"L","o":"corp","sf":44645,"v":4600}},{"type":"Feature","geometry":{"type":"Point","coordinates":[-79.96348,40.2958]},"properties":{"p":"0883A00088000000","a":"WASHINGTON DR","m":"Jefferson Hills","u":"L","o":"corp","sf":17001,"v":1700}},{"type":"Feature","geometry":{"type":"Point","coordinates":[-79.9629,40.29602]},"properties":{"p":"0883A00090000000","a":"WASHINGTON DR","m":"Jefferson Hills","u":"L","o":"corp","sf":10579,"v":1100}},{"type":"Feature","geometry":{"type":"Point","coordinates":[-79.96635,40.29286]},"properties":{"p":"0883E00300000000","a":"KLEIN RD","m":"Jefferson Hills","u":"L","o":"individual","sf":13051,"v":1300}},{"type":"Feature","geometry":{"type":"Point","coordinates":[-79.96145,40.29254]},"properties":{"p":"0883F00023000000","a":"1135 GILL HALL RD","m":"Jefferson Hills","u":"L","o":"individual","sf":19977,"v":2000}},{"type":"Feature","geometry":{"type":"Point","coordinates":[-79.9627,40.29226]},"properties":{"p":"0883J00098000000","a":"GILL HALL RD","m":"Jefferson Hills","u":"L","o":"individual","sf":8277,"v":800}},{"type":"Feature","geometry":{"type":"Point","coordinates":[-79.96196,40.29202]},"properties":{"p":"0883K00006000000","a":"GILL HALL RD","m":"Jefferson Hills","u":"L","o":"individual","sf":11880,"v":35800}},{"type":"Feature","geometry":{"type":"Point","coordinates":[-79.97083,40.29458]},"properties":{"p":"0884H00025000000","a":"COCHRAN MILL RD","m":"Jefferson Hills","u":"L","o":"individual","sf":175416,"v":4000}},{"type":"Feature","geometry":{"type":"Point","coordinates":[-79.96422,40.29429]},"properties":{"p":"0883E00010000000","a":"GILL HALL RD","m":"Jefferson Hills","u":"L","o":"corp","sf":174275,"v":60900}},{"type":"Feature","geometry":{"type":"Point","coordinates":[-79.9644,40.29335]},"properties":{"p":"0883E00080000000","a":"GILL HALL RD","m":"Jefferson Hills","u":"L","o":"corp","sf":44431,"v":10000}},{"type":"Feature","geometry":{"type":"Point","coordinates":[-79.96505,40.29322]},"properties":{"p":"0883E00120000000","a":"GILL HALL RD","m":"Jefferson Hills","u":"L","o":"corp","sf":83635,"v":8600}},{"type":"Feature","geometry":{"type":"Point","coordinates":[-79.96347,40.29162]},"properties":{"p":"0883J00164000000","a":"COCHRAN MILL RD","m":"Jefferson Hills","u":"L","o":"individual","sf":23317,"v":45300}},{"type":"Feature","geometry":{"type":"Point","coordinates":[-79.97905,40.30875]},"properties":{"p":"0662N00008000000","a":"MCELHENY RD","m":"South Park","u":"L","o":"individual","sf":6720,"v":700}},{"type":"Feature","geometry":{"type":"Point","coordinates":[-79.97657,40.30843]},"properties":{"p":"0662P00201000000","a":"1011 MCELHENY RD","m":"South Park","u":"L","o":"corp","sf":59111,"v":49900}},{"type":"Feature","geometry":{"type":"Point","coordinates":[-79.97363,40.30077]},"properties":{"p":"0769L00050000000","a":"WALLACE RD","m":"South Park","u":"L","o":"individual","sf":12415,"v":45000}},{"type":"Feature","geometry":{"type":"Point","coordinates":[-79.97962,40.30896]},"properties":{"p":"0662J00124000000","a":"MCELHENY RD","m":"South Park","u":"L","o":"individual","sf":8580,"v":900}},{"type":"Feature","geometry":{"type":"Point","coordinates":[-79.9782,40.30904]},"properties":{"p":"0662K00110000000","a":"MCELHENY RD","m":"South Park","u":"L","o":"individual","sf":43560,"v":500}},{"type":"Feature","geometry":{"type":"Point","coordinates":[-79.97665,40.29712]},"properties":{"p":"0884B00002000000","a":"2520 BONNIE DELL DR","m":"South Park","u":"L","o":"individual","sf":18295,"v":45600}},{"type":"Feature","geometry":{"type":"Point","coordinates":[-79.97588,40.29266]},"properties":{"p":"0884P00200000000","a":"LICK RUN RD","m":"South Park","u":"L","o":"corp","sf":2678940,"v":207000}},{"type":"Feature","geometry":{"type":"Point","coordinates":[-79.97041,40.29323]},"properties":{"p":"0884S00005000000","a":"SNOWDEN RD","m":"South Park","u":"L","o":"corp","sf":348044,"v":10000}},{"type":"Feature","geometry":{"type":"Point","coordinates":[-79.96458,40.29946]},"properties":{"p":"0768N00400000000","a":"GILL HALL RD","m":"Jefferson Hills","u":"L","o":"individual","sf":37928,"v":3800}},{"type":"Feature","geometry":{"type":"Point","coordinates":[-79.9699,40.30127]},"properties":{"p":"0769M00110000000","a":"WATERMAN RD","m":"Jefferson Hills","u":"L","o":"individual","sf":222156,"v":57600}},{"type":"Feature","geometry":{"type":"Point","coordinates":[-79.96981,40.30566]},"properties":{"p":"0769D00290000000","a":"213 COLIN CT","m":"Jefferson Hills","u":"L","o":"individual","sf":523169,"v":57300}},{"type":"Feature","geometry":{"type":"Point","coordinates":[-79.96707,40.29038]},"properties":{"p":"0884M00050000000","a":"COCHRAN MILL RD","m":"Jefferson Hills","u":"L","o":"individual","sf":660321,"v":36000}},{"type":"Feature","geometry":{"type":"Point","coordinates":[-79.96669,40.3086]},"properties":{"p":"0662S00469000000","a":"ARNONI DR","m":"Jefferson Hills","u":"B","o":"corp","sf":18083,"v":3600}},{"type":"Feature","geometry":{"type":"Point","coordinates":[-79.96666,40.30892]},"properties":{"p":"0662S00470000000","a":"ARNONI DR","m":"Jefferson Hills","u":"B","o":"corp","sf":6762,"v":1400}},{"type":"Feature","geometry":{"type":"Point","coordinates":[-79.97157,40.29938]},"properties":{"p":"0769R00102000000","a":"COCHRAN MILL RD","m":"Jefferson Hills","u":"B","o":"corp","sf":21762,"v":2800}},{"type":"Feature","geometry":{"type":"Point","coordinates":[-79.97221,40.298]},"properties":{"p":"0769R00103000000","a":"COCHRAN MILL RD","m":"Jefferson Hills","u":"B","o":"corp","sf":43852,"v":5800}},{"type":"Feature","geometry":{"type":"Point","coordinates":[-79.96884,40.29983]},"properties":{"p":"0769M00120000000","a":"225 WASHINGTON DR","m":"Jefferson Hills","u":"B","o":"corp","sf":14529,"v":2300}},{"type":"Feature","geometry":{"type":"Point","coordinates":[-79.96771,40.30792]},"properties":{"p":"0662S00299000000","a":"ARNONI DR","m":"Jefferson Hills","u":"B","o":"individual","sf":69051,"v":13900}},{"type":"Feature","geometry":{"type":"Point","coordinates":[-79.96815,40.30008]},"properties":{"p":"0769S00124000000","a":"WASHINGTON DR","m":"Jefferson Hills","u":"B","o":"corp","sf":17176,"v":2700}},{"type":"Feature","geometry":{"type":"Point","coordinates":[-79.96684,40.30932]},"properties":{"p":"0662S00297000000","a":"ARNONI DR","m":"Jefferson Hills","u":"B","o":"corp","sf":5592,"v":1100}},{"type":"Feature","geometry":{"type":"Point","coordinates":[-79.96758,40.30878]},"properties":{"p":"0662S00298000000","a":"ARNONI DR","m":"Jefferson Hills","u":"B","o":"corp","sf":72510,"v":14500}},{"type":"Feature","geometry":{"type":"Point","coordinates":[-79.97029,40.2965]},"properties":{"p":"0884D00109000000","a":"GREENE DR","m":"Jefferson Hills","u":"B","o":"corp","sf":30517,"v":4000}}]}