{"type":"FeatureCollection","features":[{"type":"Feature","geometry":{"type":"Point","coordinates":[-79.94069,40.48648]},"properties":{"p":"0120L00014000100","a":"SAWYER ST","m":"8th Ward - PITTSBURGH","u":"C","o":"individual","sf":1200,"v":1000}},{"type":"Feature","geometry":{"type":"Point","coordinates":[-79.9579,40.47827]},"properties":{"p":"0080F00090000000","a":"4920 HARRISON ST","m":"9th Ward - PITTSBURGH","u":"C","o":"corp","sf":1000,"v":33000}},{"type":"Feature","geometry":{"type":"Point","coordinates":[-79.94272,40.47048]},"properties":{"p":"0050B00047000000","a":"BREESPORT ST","m":"10th Ward - PITTSBURGH","u":"C","o":"corp","sf":2220,"v":900}},{"type":"Feature","geometry":{"type":"Point","coordinates":[-79.94426,40.47163]},"properties":{"p":"0050B00501000000","a":"MOSSFIELD ST","m":"10th Ward - PITTSBURGH","u":"C","o":"corp","sf":30989,"v":37300}},{"type":"Feature","geometry":{"type":"Point","coordinates":[-79.94114,40.47173]},"properties":{"p":"0050B00113000000","a":"SCHENLEY AVE","m":"10th Ward - PITTSBURGH","u":"C","o":"individual","sf":3000,"v":1800}},{"type":"Feature","geometry":{"type":"Point","coordinates":[-79.95824,40.47399]},"properties":{"p":"0080P00315000000","a":"BUTLER ST","m":"9th Ward - PITTSBURGH","u":"C","o":"corp","sf":2895,"v":4600}},{"type":"Feature","geometry":{"type":"Point","coordinates":[-79.95436,40.48012]},"properties":{"p":"0080C00099000000","a":"BUTLER ST","m":"10th Ward - PITTSBURGH","u":"C","o":"individual","sf":1502,"v":26000}},{"type":"Feature","geometry":{"type":"Point","coordinates":[-79.95587,40.47859]},"properties":{"p":"0080G00140000000","a":"5103 BUTLER ST","m":"10th Ward - PITTSBURGH","u":"C","o":"corp","sf":2833,"v":2300}},{"type":"Feature","geometry":{"type":"Point","coordinates":[-79.94084,40.48799]},"properties":{"p":"0120G00145000000","a":"BUTLER ST","m":"10th Ward - PITTSBURGH","u":"C","o":"corp","sf":618883,"v":2131100}},{"type":"Feature","geometry":{"type":"Point","coordinates":[-79.9484,40.48527]},"properties":{"p":"0120J00022000000","a":"HARRISON ST","m":"10th Ward - PITTSBURGH","u":"C","o":"corp","sf":1176,"v":2000}},{"type":"Feature","geometry":{"type":"Point","coordinates":[-79.95078,40.48377]},"properties":{"p":"0119S00221000000","a":"HARRISON ST","m":"10th Ward - PITTSBURGH","u":"C","o":"corp","sf":2000,"v":25000}},{"type":"Feature","geometry":{"type":"Point","coordinates":[-79.95177,40.4828]},"properties":{"p":"0119S00163000000","a":"5323 BUTLER ST","m":"10th Ward - PITTSBURGH","u":"C","o":"corp","sf":2000,"v":28000}},{"type":"Feature","geometry":{"type":"Point","coordinates":[-79.94296,40.48484]},"properties":{"p":"0120K00065000000","a":"BUTLER ST","m":"10th Ward - PITTSBURGH","u":"C","o":"corp","sf":290763,"v":10000}},{"type":"Feature","geometry":{"type":"Point","coordinates":[-79.95266,40.4818]},"properties":{"p":"0080D00008000000","a":"BUTLER ST","m":"10th Ward - PITTSBURGH","u":"C","o":"corp","sf":1260,"v":5000}},{"type":"Feature","geometry":{"type":"Point","coordinates":[-79.95795,40.47823]},"properties":{"p":"0080F00201000000","a":"4920 HARRISON ST","m":"9th Ward - PITTSBURGH","u":"C","o":"corp","sf":1000,"v":33000}},{"type":"Feature","geometry":{"type":"Point","coordinates":[-79.94257,40.47052]},"properties":{"p":"0050B00045000000","a":"BREESPORT ST","m":"10th Ward - PITTSBURGH","u":"C","o":"corp","sf":2220,"v":900}},{"type":"Feature","geometry":{"type":"Point","coordinates":[-79.95268,40.48045]},"properties":{"p":"0080D00120000000","a":"NATRONA WAY","m":"10th Ward - PITTSBURGH","u":"C","o":"corp","sf":439,"v":300}},{"type":"Feature","geometry":{"type":"Point","coordinates":[-79.95881,40.47754]},"properties":{"p":"0080F00113000000","a":"HARRISON ST","m":"9th Ward - PITTSBURGH","u":"L","o":"individual","sf":1000,"v":500}},{"type":"Feature","geometry":{"type":"Point","coordinates":[-79.95728,40.47699]},"properties":{"p":"0080L00003000000","a":"4835 -4837 BUTLER ST","m":"9th Ward - PITTSBURGH","u":"L","o":"corp","sf":2996,"v":32000}},{"type":"Feature","geometry":{"type":"Point","coordinates":[-79.95867,40.47718]},"properties":{"p":"0080F00134000A00","a":"PLUM WAY","m":"9th Ward - PITTSBURGH","u":"L","o":"individual","sf":992,"v":4000}},{"type":"Feature","geometry":{"type":"Point","coordinates":[-79.95839,40.47737]},"properties":{"p":"0080F00139000A00","a":"4844 PLUM WAY","m":"9th Ward - PITTSBURGH","u":"L","o":"individual","sf":750,"v":400}},{"type":"Feature","geometry":{"type":"Point","coordinates":[-79.95739,40.47867]},"properties":{"p":"0080G00013000000","a":"4934 HARRISON ST","m":"9th Ward - PITTSBURGH","u":"L","o":"corp","sf":1114,"v":500}},{"type":"Feature","geometry":{"type":"Point","coordinates":[-79.95678,40.47758]},"properties":{"p":"0080G00083000000","a":"BUTLER ST","m":"9th Ward - PITTSBURGH","u":"L","o":"individual","sf":2000,"v":8000}},{"type":"Feature","geometry":{"type":"Point","coordinates":[-79.9595,40.47659]},"properties":{"p":"0080K00060000A00","a":"4742 PLUM WAY","m":"9th Ward - PITTSBURGH","u":"L","o":"individual","sf":1265,"v":500}},{"type":"Feature","geometry":{"type":"Point","coordinates":[-79.95991,40.47546]},"properties":{"p":"0080K00159000000","a":"HATFIELD ST","m":"9th Ward - PITTSBURGH","u":"L","o":"corp","sf":2200,"v":28800}},{"type":"Feature","geometry":{"type":"Point","coordinates":[-79.95773,40.47821]},"properties":{"p":"0080F00086000000","a":"4920 HARRISON ST","m":"9th Ward - PITTSBURGH","u":"L","o":"corp","sf":1500,"v":600}},{"type":"Feature","geometry":{"type":"Point","coordinates":[-79.95784,40.47831]},"properties":{"p":"0080F00086000A00","a":"4920 HARRISON ST","m":"9th Ward - PITTSBURGH","u":"L","o":"corp","sf":1000,"v":500}},{"type":"Feature","geometry":{"type":"Point","coordinates":[-79.9578,40.47815]},"properties":{"p":"0080F00089000000","a":"4920 HARRISON ST","m":"9th Ward - PITTSBURGH","u":"L","o":"corp","sf":1500,"v":600}},{"type":"Feature","geometry":{"type":"Point","coordinates":[-79.95944,40.47465]},"properties":{"p":"0080K00244000A00","a":"PLUMMER ST","m":"9th Ward - PITTSBURGH","u":"L","o":"corp","sf":700,"v":300}},{"type":"Feature","geometry":{"type":"Point","coordinates":[-79.95955,40.47005]},"properties":{"p":"0049B00263000000","a":"43RD ST","m":"9th Ward - PITTSBURGH","u":"L","o":"corp","sf":727,"v":2900}},{"type":"Feature","geometry":{"type":"Point","coordinates":[-79.95966,40.47008]},"properties":{"p":"0049B00264000000","a":"43RD ST","m":"9th Ward - PITTSBURGH","u":"L","o":"corp","sf":2479,"v":7400}},{"type":"Feature","geometry":{"type":"Point","coordinates":[-79.94403,40.47109]},"properties":{"p":"0050B00209000000","a":"4846 SULLIVAN ST","m":"10th Ward - PITTSBURGH","u":"L","o":"corp","sf":5377,"v":2000}},{"type":"Feature","geometry":{"type":"Point","coordinates":[-79.94421,40.47087]},"properties":{"p":"0050B00213000000","a":"N MATHILDA ST","m":"10th Ward - PITTSBURGH","u":"L","o":"individual","sf":3280,"v":1000}},{"type":"Feature","geometry":{"type":"Point","coordinates":[-79.94283,40.47046]},"properties":{"p":"0050B00049000000","a":"4939 BREESPORT ST","m":"10th Ward - PITTSBURGH","u":"L","o":"corp","sf":4400,"v":32900}},{"type":"Feature","geometry":{"type":"Point","coordinates":[-79.95984,40.47384]},"properties":{"p":"0080P00242000000","a":"4602 PLUMMER ST","m":"9th Ward - PITTSBURGH","u":"L","o":"individual","sf":2133,"v":8500}},{"type":"Feature","geometry":{"type":"Point","coordinates":[-79.94009,40.47197]},"properties":{"p":"0050C00047000A00","a":"SCHENLEY AVE","m":"10th Ward - PITTSBURGH","u":"L","o":"corp","sf":3000,"v":1200}},{"type":"Feature","geometry":{"type":"Point","coordinates":[-79.94016,40.47196]},"properties":{"p":"0050C00048000000","a":"SCHENLEY AVE","m":"10th Ward - PITTSBURGH","u":"L","o":"corp","sf":3000,"v":1200}},{"type":"Feature","geometry":{"type":"Point","coordinates":[-79.94027,40.47193]},"properties":{"p":"0050C00050000000","a":"SCHENLEY AVE","m":"10th Ward - PITTSBURGH","u":"L","o":"corp","sf":3000,"v":1200}},{"type":"Feature","geometry":{"type":"Point","coordinates":[-79.94037,40.47191]},"properties":{"p":"0050C00051000000","a":"SCHENLEY AVE","m":"10th Ward - PITTSBURGH","u":"L","o":"corp","sf":3000,"v":1200}},{"type":"Feature","geometry":{"type":"Point","coordinates":[-79.94052,40.47187]},"properties":{"p":"0050C00053000000","a":"SCHENLEY AVE","m":"10th Ward - PITTSBURGH","u":"L","o":"corp","sf":3000,"v":10500}},{"type":"Feature","geometry":{"type":"Point","coordinates":[-79.94101,40.47179]},"properties":{"p":"0050C00060000000","a":"SCHENLEY AVE","m":"10th Ward - PITTSBURGH","u":"L","o":"corp","sf":3000,"v":10500}},{"type":"Feature","geometry":{"type":"Point","coordinates":[-79.94109,40.47178]},"properties":{"p":"0050C00060000A00","a":"SCHENLEY AVE","m":"10th Ward - PITTSBURGH","u":"L","o":"corp","sf":3000,"v":10500}},{"type":"Feature","geometry":{"type":"Point","coordinates":[-79.94435,40.47047]},"properties":{"p":"0050B00221000000","a":"N MATHILDA ST","m":"10th Ward - PITTSBURGH","u":"L","o":"corp","sf":4640,"v":33700}},{"type":"Feature","geometry":{"type":"Point","coordinates":[-79.94444,40.47035]},"properties":{"p":"0050B00223000000","a":"N MATHILDA ST","m":"10th Ward - PITTSBURGH","u":"L","o":"corp","sf":2120,"v":2500}},{"type":"Feature","geometry":{"type":"Point","coordinates":[-79.94461,40.4701]},"properties":{"p":"0050B00228000000","a":"N MATHILDA ST","m":"10th Ward - PITTSBURGH","u":"L","o":"individual","sf":2120,"v":800}},{"type":"Feature","geometry":{"type":"Point","coordinates":[-79.94397,40.47018]},"properties":{"p":"0050B00065000000","a":"BREESPORT ST","m":"10th Ward - PITTSBURGH","u":"L","o":"individual","sf":2200,"v":900}},{"type":"Feature","geometry":{"type":"Point","coordinates":[-79.94408,40.47018]},"properties":{"p":"0050B00066000000","a":"BREESPORT ST","m":"10th Ward - PITTSBURGH","u":"L","o":"corp","sf":13283,"v":35800}},{"type":"Feature","geometry":{"type":"Point","coordinates":[-79.9429,40.47082]},"properties":{"p":"0050B00083000000","a":"4824 SCHENLEY AVE","m":"10th Ward - PITTSBURGH","u":"L","o":"individual","sf":4400,"v":12000}},{"type":"Feature","geometry":{"type":"Point","coordinates":[-79.94341,40.4707]},"properties":{"p":"0050B00077000000","a":"4906 SCHENLEY AVE","m":"10th Ward - PITTSBURGH","u":"L","o":"individual","sf":4400,"v":15400}},{"type":"Feature","geometry":{"type":"Point","coordinates":[-79.94314,40.47076]},"properties":{"p":"0050B00081000000","a":"SCHENLEY AVE","m":"10th Ward - PITTSBURGH","u":"L","o":"individual","sf":2200,"v":7700}},{"type":"Feature","geometry":{"type":"Point","coordinates":[-79.94121,40.47172]},"properties":{"p":"0050B00114000000","a":"SCHENLEY AVE","m":"10th Ward - PITTSBURGH","u":"L","o":"individual","sf":3000,"v":10500}},{"type":"Feature","geometry":{"type":"Point","coordinates":[-79.94135,40.47169]},"properties":{"p":"0050B00116000000","a":"SCHENLEY AVE","m":"10th Ward - PITTSBURGH","u":"L","o":"individual","sf":3000,"v":10500}},{"type":"Feature","geometry":{"type":"Point","coordinates":[-79.94181,40.47168]},"properties":{"p":"0050B00134000000","a":"AISBETT ST","m":"10th Ward - PITTSBURGH","u":"L","o":"individual","sf":2376,"v":25800}},{"type":"Feature","geometry":{"type":"Point","coordinates":[-79.94293,40.47044]},"properties":{"p":"0050B00050000000","a":"BREESPORT ST","m":"10th Ward - PITTSBURGH","u":"L","o":"individual","sf":2200,"v":7700}},{"type":"Feature","geometry":{"type":"Point","coordinates":[-79.94306,40.47041]},"properties":{"p":"0050B00052000000","a":"BREESPORT ST","m":"10th Ward - PITTSBURGH","u":"L","o":"individual","sf":2200,"v":7700}},{"type":"Feature","geometry":{"type":"Point","coordinates":[-79.94313,40.47039]},"properties":{"p":"0050B00053000000","a":"BREESPORT ST","m":"10th Ward - PITTSBURGH","u":"L","o":"corp","sf":2200,"v":900}},{"type":"Feature","geometry":{"type":"Point","coordinates":[-79.94328,40.47036]},"properties":{"p":"0050B00055000000","a":"BREESPORT ST","m":"10th Ward - PITTSBURGH","u":"L","o":"individual","sf":2200,"v":900}},{"type":"Feature","geometry":{"type":"Point","coordinates":[-79.94341,40.47032]},"properties":{"p":"0050B00057000000","a":"BREESPORT ST","m":"10th Ward - PITTSBURGH","u":"L","o":"individual","sf":2200,"v":7700}},{"type":"Feature","geometry":{"type":"Point","coordinates":[-79.9437,40.47026]},"properties":{"p":"0050B00061000000","a":"BREESPORT ST","m":"10th Ward - PITTSBURGH","u":"L","o":"individual","sf":2970,"v":1100}},{"type":"Feature","geometry":{"type":"Point","coordinates":[-79.95268,40.4805]},"properties":{"p":"0080D00116000B00","a":"NATRONA WAY","m":"10th Ward - PITTSBURGH","u":"L","o":"corp","sf":572,"v":300}},{"type":"Feature","geometry":{"type":"Point","coordinates":[-79.95317,40.48103]},"properties":{"p":"0080D00052000000","a":"5238 DRESDEN WAY","m":"10th Ward - PITTSBURGH","u":"L","o":"corp","sf":1393,"v":22400}},{"type":"Feature","geometry":{"type":"Point","coordinates":[-79.95312,40.4811]},"properties":{"p":"0080D00053000000","a":"5240 DRESDEN WAY","m":"10th Ward - PITTSBURGH","u":"L","o":"individual","sf":1393,"v":22400}},{"type":"Feature","geometry":{"type":"Point","coordinates":[-79.95304,40.48115]},"properties":{"p":"0080D00055000000","a":"5242 DRESDEN WAY","m":"10th Ward - PITTSBURGH","u":"L","o":"individual","sf":1483,"v":22700}},{"type":"Feature","geometry":{"type":"Point","coordinates":[-79.95299,40.48011]},"properties":{"p":"0080D00135000A00","a":"NATRONA WAY","m":"10th Ward - PITTSBURGH","u":"L","o":"individual","sf":636,"v":300}},{"type":"Feature","geometry":{"type":"Point","coordinates":[-79.95162,40.4811]},"properties":{"p":"0080D00192000000","a":"5264 NATRONA WAY","m":"10th Ward - PITTSBURGH","u":"L","o":"individual","sf":1000,"v":3500}},{"type":"Feature","geometry":{"type":"Point","coordinates":[-79.9543,40.47989]},"properties":{"p":"0080C00086000000","a":"DRESDEN WAY","m":"10th Ward - PITTSBURGH","u":"L","o":"corp","sf":2200,"v":2000}},{"type":"Feature","geometry":{"type":"Point","coordinates":[-79.94626,40.47893]},"properties":{"p":"0081E00157000000","a":"MCCANDLESS AVE","m":"10th Ward - PITTSBURGH","u":"L","o":"individual","sf":4678,"v":16400}},{"type":"Feature","geometry":{"type":"Point","coordinates":[-79.95124,40.48069]},"properties":{"p":"0080D00257000000","a":"5260 KEYSTONE ST","m":"10th Ward - PITTSBURGH","u":"L","o":"individual","sf":2300,"v":8100}},{"type":"Feature","geometry":{"type":"Point","coordinates":[-79.95118,40.48072]},"properties":{"p":"0080D00258000000","a":"KEYSTONE ST","m":"10th Ward - PITTSBURGH","u":"L","o":"individual","sf":2300,"v":8100}},{"type":"Feature","geometry":{"type":"Point","coordinates":[-79.95264,40.48053]},"properties":{"p":"0080D00116000300","a":"NATRONA WAY","m":"10th Ward - PITTSBURGH","u":"L","o":"corp","sf":604,"v":300}},{"type":"Feature","geometry":{"type":"Point","coordinates":[-79.95029,40.47856]},"properties":{"p":"0080H00252000000","a":"POE WAY","m":"10th Ward - PITTSBURGH","u":"L","o":"corp","sf":2000,"v":800}},{"type":"Feature","geometry":{"type":"Point","coordinates":[-79.94243,40.47139]},"properties":{"p":"0050B00180000000","a":"COLUMBO ST","m":"10th Ward - PITTSBURGH","u":"L","o":"corp","sf":3000,"v":1200}},{"type":"Feature","geometry":{"type":"Point","coordinates":[-79.94228,40.47138]},"properties":{"p":"0050B00181000000","a":"COLUMBO ST","m":"10th Ward - PITTSBURGH","u":"L","o":"corp","sf":6750,"v":35200}},{"type":"Feature","geometry":{"type":"Point","coordinates":[-79.95291,40.4786]},"properties":{"p":"0080H00048000A00","a":"KENT WAY","m":"10th Ward - PITTSBURGH","u":"L","o":"individual","sf":1000,"v":500}},{"type":"Feature","geometry":{"type":"Point","coordinates":[-79.9431,40.47127]},"properties":{"p":"0050B00188000000","a":"COLUMBO ST","m":"10th Ward - PITTSBURGH","u":"L","o":"corp","sf":2000,"v":24500}},{"type":"Feature","geometry":{"type":"Point","coordinates":[-79.94314,40.47131]},"properties":{"p":"0050B00189000000","a":"COLUMBO ST","m":"10th Ward - PITTSBURGH","u":"L","o":"corp","sf":2000,"v":24500}},{"type":"Feature","geometry":{"type":"Point","coordinates":[-79.94319,40.47134]},"properties":{"p":"0050B00190000000","a":"COLUMBO ST","m":"10th Ward - PITTSBURGH","u":"L","o":"corp","sf":2000,"v":24500}},{"type":"Feature","geometry":{"type":"Point","coordinates":[-79.94345,40.4711]},"properties":{"p":"0050B00196000000","a":"4909 SCHENLEY AVE","m":"10th Ward - PITTSBURGH","u":"L","o":"individual","sf":6300,"v":2500}},{"type":"Feature","geometry":{"type":"Point","coordinates":[-79.94341,40.4715]},"properties":{"p":"0050B00197000000","a":"COLUMBO ST","m":"10th Ward - PITTSBURGH","u":"L","o":"corp","sf":5606,"v":17600}},{"type":"Feature","geometry":{"type":"Point","coordinates":[-79.94353,40.47155]},"properties":{"p":"0050B00198000000","a":"COLUMBO ST","m":"10th Ward - PITTSBURGH","u":"L","o":"individual","sf":2912,"v":10200}},{"type":"Feature","geometry":{"type":"Point","coordinates":[-79.95372,40.47746]},"properties":{"p":"0080G00287000000","a":"5145 STANTON AVE","m":"10th Ward - PITTSBURGH","u":"L","o":"corp","sf":9000,"v":11900}},{"type":"Feature","geometry":{"type":"Point","coordinates":[-79.9552,40.4783]},"properties":{"p":"0080G00292000000","a":"DRESDAN WAY","m":"10th Ward - PITTSBURGH","u":"L","o":"individual","sf":368,"v":300}},{"type":"Feature","geometry":{"type":"Point","coordinates":[-79.94374,40.47159]},"properties":{"p":"0050B00200000000","a":"COLUMBO ST","m":"10th Ward - PITTSBURGH","u":"L","o":"corp","sf":1635,"v":700}},{"type":"Feature","geometry":{"type":"Point","coordinates":[-79.95493,40.47881]},"properties":{"p":"0080G00174000A00","a":"DRESDEN WAY","m":"10th Ward - PITTSBURGH","u":"L","o":"corp","sf":672,"v":500}},{"type":"Feature","geometry":{"type":"Point","coordinates":[-79.95132,40.47873]},"properties":{"p":"0080H00166000000","a":"5208 LOTUS WAY","m":"10th Ward - PITTSBURGH","u":"L","o":"individual","sf":2100,"v":24900}},{"type":"Feature","geometry":{"type":"Point","coordinates":[-79.94977,40.48107]},"properties":{"p":"0080D00330000000","a":"HOLMES ST","m":"10th Ward - PITTSBURGH","u":"L","o":"individual","sf":2360,"v":4000}},{"type":"Feature","geometry":{"type":"Point","coordinates":[-79.95216,40.47849]},"properties":{"p":"0080H00121000A00","a":"5144 HOLMES ST","m":"10th Ward - PITTSBURGH","u":"L","o":"individual","sf":6696,"v":17700}},{"type":"Feature","geometry":{"type":"Point","coordinates":[-79.95278,40.47999]},"properties":{"p":"0080D00161000A00","a":"NATRONA WAY","m":"10th Ward - PITTSBURGH","u":"L","o":"individual","sf":1080,"v":500}},{"type":"Feature","geometry":{"type":"Point","coordinates":[-79.95262,40.48006]},"properties":{"p":"0080D00162000000","a":"NATRONA WAY","m":"10th Ward - PITTSBURGH","u":"L","o":"corp","sf":1470,"v":600}},{"type":"Feature","geometry":{"type":"Point","coordinates":[-79.95264,40.48002]},"properties":{"p":"0080D00162000B00","a":"NATRONA WAY","m":"10th Ward - PITTSBURGH","u":"L","o":"corp","sf":1345,"v":500}},{"type":"Feature","geometry":{"type":"Point","coordinates":[-79.95258,40.48009]},"properties":{"p":"0080D00164000000","a":"NATRONA WAY","m":"10th Ward - PITTSBURGH","u":"L","o":"corp","sf":2100,"v":800}},{"type":"Feature","geometry":{"type":"Point","coordinates":[-79.95047,40.47921]},"properties":{"p":"0080H00223000L00","a":"800 MCCANDLESS AVE","m":"10th Ward - PITTSBURGH","u":"L","o":"corp","sf":1408,"v":14700}},{"type":"Feature","geometry":{"type":"Point","coordinates":[-79.95492,40.47839]},"properties":{"p":"0080G00197000C00","a":"DRESDEN WAY","m":"10th Ward - PITTSBURGH","u":"L","o":"individual","sf":650,"v":300}},{"type":"Feature","geometry":{"type":"Point","coordinates":[-79.95054,40.48171]},"properties":{"p":"0080D00214000A00","a":"5322 NATRONA WAY","m":"10th Ward - PITTSBURGH","u":"L","o":"individual","sf":588,"v":2000}},{"type":"Feature","geometry":{"type":"Point","coordinates":[-79.95332,40.47899]},"properties":{"p":"0080H00014000000","a":"NATRONA WAY","m":"10th Ward - PITTSBURGH","u":"L","o":"individual","sf":1500,"v":600}},{"type":"Feature","geometry":{"type":"Point","coordinates":[-79.95172,40.47897]},"properties":{"p":"0080H00135000000","a":"HOLMES ST","m":"10th Ward - PITTSBURGH","u":"L","o":"individual","sf":2100,"v":7400}},{"type":"Feature","geometry":{"type":"Point","coordinates":[-79.95035,40.47849]},"properties":{"p":"0080H00254000000","a":"5225 WICKLIFF ST","m":"10th Ward - PITTSBURGH","u":"L","o":"individual","sf":4000,"v":31500}},{"type":"Feature","geometry":{"type":"Point","coordinates":[-79.95043,40.47839]},"properties":{"p":"0080H00255000000","a":"5223 WICKLIFF ST","m":"10th Ward - PITTSBURGH","u":"L","o":"individual","sf":4000,"v":31500}},{"type":"Feature","geometry":{"type":"Point","coordinates":[-79.95089,40.47942]},"properties":{"p":"0080H00147000000","a":"LOTUS WAY","m":"10th Ward - PITTSBURGH","u":"L","o":"individual","sf":940,"v":400}},{"type":"Feature","geometry":{"type":"Point","coordinates":[-79.95499,40.47871]},"properties":{"p":"0080G00177000000","a":"DRESDEN WAY","m":"10th Ward - PITTSBURGH","u":"L","o":"individual","sf":624,"v":300}},{"type":"Feature","geometry":{"type":"Point","coordinates":[-79.95239,40.48047]},"properties":{"p":"0080D00174000000","a":"5248 NATRONA WAY","m":"10th Ward - PITTSBURGH","u":"L","o":"corp","sf":1537,"v":600}},{"type":"Feature","geometry":{"type":"Point","coordinates":[-79.95233,40.48054]},"properties":{"p":"0080D00175000000","a":"5248 NATRONA WAY","m":"10th Ward - PITTSBURGH","u":"L","o":"corp","sf":1612,"v":23100}},{"type":"Feature","geometry":{"type":"Point","coordinates":[-79.95466,40.47882]},"properties":{"p":"0080G00207000B00","a":"DRESDEN WAY","m":"10th Ward - PITTSBURGH","u":"L","o":"corp","sf":834,"v":400}},{"type":"Feature","geometry":{"type":"Point","coordinates":[-79.95463,40.47886]},"properties":{"p":"0080G00208000B00","a":"DRESDEN WAY","m":"10th Ward - PITTSBURGH","u":"L","o":"corp","sf":825,"v":400}},{"type":"Feature","geometry":{"type":"Point","coordinates":[-79.95457,40.47893]},"properties":{"p":"0080G00209000A00","a":"DRESDEN WAY","m":"10th Ward - PITTSBURGH","u":"L","o":"corp","sf":806,"v":400}},{"type":"Feature","geometry":{"type":"Point","coordinates":[-79.95458,40.47899]},"properties":{"p":"0080G00210000A00","a":"DRESDEN WAY","m":"10th Ward - PITTSBURGH","u":"L","o":"individual","sf":800,"v":400}},{"type":"Feature","geometry":{"type":"Point","coordinates":[-79.95501,40.47868]},"properties":{"p":"0080G00178000000","a":"DRESDEN WAY","m":"10th Ward - PITTSBURGH","u":"L","o":"corp","sf":624,"v":500}},{"type":"Feature","geometry":{"type":"Point","coordinates":[-79.95503,40.47864]},"properties":{"p":"0080G00179000000","a":"DRESDEN WAY","m":"10th Ward - PITTSBURGH","u":"L","o":"corp","sf":672,"v":500}},{"type":"Feature","geometry":{"type":"Point","coordinates":[-79.95366,40.48041]},"properties":{"p":"0080D00037000000","a":"DRESDEN WAY","m":"10th Ward - PITTSBURGH","u":"L","o":"corp","sf":1120,"v":500}},{"type":"Feature","geometry":{"type":"Point","coordinates":[-79.95341,40.47793]},"properties":{"p":"0080H00034000000","a":"5122 KEYSTONE ST","m":"10th Ward - PITTSBURGH","u":"L","o":"individual","sf":2000,"v":800}},{"type":"Feature","geometry":{"type":"Point","coordinates":[-79.951,40.47928]},"properties":{"p":"0080H00151000L00","a":"5230 LOTUS WAY","m":"10th Ward - PITTSBURGH","u":"L","o":"corp","sf":1000,"v":21000}},{"type":"Feature","geometry":{"type":"Point","coordinates":[-79.9512,40.47787]},"properties":{"p":"0080H00197000A00","a":"POE WAY","m":"10th Ward - PITTSBURGH","u":"L","o":"individual","sf":1000,"v":500}},{"type":"Feature","geometry":{"type":"Point","coordinates":[-79.95092,40.47918]},"properties":{"p":"0080H00152000000","a":"5231 DUNCAN ST","m":"10th Ward - PITTSBURGH","u":"L","o":"corp","sf":2100,"v":24900}},{"type":"Feature","geometry":{"type":"Point","coordinates":[-79.94316,40.47186]},"properties":{"p":"0050B00160000000","a":"MOSSFIELD ST","m":"10th Ward - PITTSBURGH","u":"L","o":"individual","sf":3240,"v":11300}},{"type":"Feature","geometry":{"type":"Point","coordinates":[-79.94341,40.47186]},"properties":{"p":"0050B00164000000","a":"COLUMBO ST","m":"10th Ward - PITTSBURGH","u":"L","o":"individual","sf":3900,"v":31200}},{"type":"Feature","geometry":{"type":"Point","coordinates":[-79.94304,40.4717]},"properties":{"p":"0050B00170000000","a":"COLUMBO ST","m":"10th Ward - PITTSBURGH","u":"L","o":"individual","sf":1100,"v":500}},{"type":"Feature","geometry":{"type":"Point","coordinates":[-79.95449,40.47911]},"properties":{"p":"0080G00212000B00","a":"DRESDEN WAY","m":"10th Ward - PITTSBURGH","u":"L","o":"individual","sf":679,"v":300}},{"type":"Feature","geometry":{"type":"Point","coordinates":[-79.95447,40.47914]},"properties":{"p":"0080G00212000D00","a":"DRESDEN WAY","m":"10th Ward - PITTSBURGH","u":"L","o":"individual","sf":648,"v":300}},{"type":"Feature","geometry":{"type":"Point","coordinates":[-79.95067,40.47886]},"properties":{"p":"0080H00218000L00","a":"5228 DUNCAN ST","m":"10th Ward - PITTSBURGH","u":"L","o":"corp","sf":1100,"v":21400}},{"type":"Feature","geometry":{"type":"Point","coordinates":[-79.95047,40.47884]},"properties":{"p":"0080H00219000L00","a":"5231 POE WAY","m":"10th Ward - PITTSBURGH","u":"L","o":"corp","sf":1000,"v":21000}},{"type":"Feature","geometry":{"type":"Point","coordinates":[-79.94388,40.47113]},"properties":{"p":"0050B00268000000","a":"4846 SULLIVAN ST","m":"10th Ward - PITTSBURGH","u":"L","o":"corp","sf":1796,"v":700}},{"type":"Feature","geometry":{"type":"Point","coordinates":[-79.95124,40.47965]},"properties":{"p":"0080D00363000A00","a":"5240 HOLMES ST","m":"10th Ward - PITTSBURGH","u":"L","o":"individual","sf":1060,"v":1200}},{"type":"Feature","geometry":{"type":"Point","coordinates":[-79.94281,40.47173]},"properties":{"p":"0050B00174000000","a":"COLUMBO ST","m":"10th Ward - PITTSBURGH","u":"L","o":"corp","sf":2309,"v":25600}},{"type":"Feature","geometry":{"type":"Point","coordinates":[-79.94952,40.47928]},"properties":{"p":"0080H00233000000","a":"WICKLIFF ST","m":"10th Ward - PITTSBURGH","u":"L","o":"corp","sf":2140,"v":500}},{"type":"Feature","geometry":{"type":"Point","coordinates":[-79.95051,40.47879]},"properties":{"p":"0080H00236000L00","a":"5229 POE WAY","m":"10th Ward - PITTSBURGH","u":"L","o":"corp","sf":1000,"v":21000}},{"type":"Feature","geometry":{"type":"Point","coordinates":[-79.9501,40.4788]},"properties":{"p":"0080H00247000000","a":"5237 WICKLIFF ST","m":"10th Ward - PITTSBURGH","u":"L","o":"individual","sf":2000,"v":800}},{"type":"Feature","geometry":{"type":"Point","coordinates":[-79.95014,40.47875]},"properties":{"p":"0080H00248000000","a":"WICKLIFF ST","m":"10th Ward - PITTSBURGH","u":"L","o":"individual","sf":2000,"v":800}},{"type":"Feature","geometry":{"type":"Point","coordinates":[-79.94597,40.48473]},"properties":{"p":"0120J00207000000","a":"57TH ST","m":"10th Ward - PITTSBURGH","u":"L","o":"individual","sf":1500,"v":600}},{"type":"Feature","geometry":{"type":"Point","coordinates":[-79.9497,40.48257]},"properties":{"p":"0119S00023000000","a":"5417 NATRONA WAY","m":"10th Ward - PITTSBURGH","u":"L","o":"individual","sf":2000,"v":3300}},{"type":"Feature","geometry":{"type":"Point","coordinates":[-79.94673,40.48443]},"properties":{"p":"0120J00193000000","a":"DONSON WAY","m":"10th Ward - PITTSBURGH","u":"L","o":"individual","sf":1558,"v":600}},{"type":"Feature","geometry":{"type":"Point","coordinates":[-79.94109,40.48677]},"properties":{"p":"0120G00127000000","a":"BUTLER ST","m":"10th Ward - PITTSBURGH","u":"L","o":"corp","sf":3550,"v":6500}},{"type":"Feature","geometry":{"type":"Point","coordinates":[-79.94051,40.48661]},"properties":{"p":"0120L00011000A00","a":"6038 SAWYER ST","m":"10th Ward - PITTSBURGH","u":"L","o":"individual","sf":1440,"v":600}},{"type":"Feature","geometry":{"type":"Point","coordinates":[-79.94059,40.48658]},"properties":{"p":"0120L00012000000","a":"6038 SAWYER ST","m":"10th Ward - PITTSBURGH","u":"L","o":"individual","sf":2400,"v":8400}},{"type":"Feature","geometry":{"type":"Point","coordinates":[-79.94074,40.48647]},"properties":{"p":"0120L00014000000","a":"SAWYER ST","m":"10th Ward - PITTSBURGH","u":"L","o":"corp","sf":1200,"v":500}},{"type":"Feature","geometry":{"type":"Point","coordinates":[-79.95164,40.48337]},"properties":{"p":"0119S00236000000","a":"HARRISON ST","m":"10th Ward - PITTSBURGH","u":"L","o":"individual","sf":689,"v":300}},{"type":"Feature","geometry":{"type":"Point","coordinates":[-79.95168,40.48335]},"properties":{"p":"0119S00237000000","a":"HARRISON ST","m":"10th Ward - PITTSBURGH","u":"L","o":"individual","sf":742,"v":20100}},{"type":"Feature","geometry":{"type":"Point","coordinates":[-79.94476,40.48481]},"properties":{"p":"0120K00035000000","a":"209 57TH ST","m":"10th Ward - PITTSBURGH","u":"L","o":"individual","sf":4843,"v":17000}},{"type":"Feature","geometry":{"type":"Point","coordinates":[-79.94466,40.48501]},"properties":{"p":"0120K00040000000","a":"DONSON WAY","m":"10th Ward - PITTSBURGH","u":"L","o":"individual","sf":4900,"v":17200}},{"type":"Feature","geometry":{"type":"Point","coordinates":[-79.94092,40.48456]},"properties":{"p":"0120L00100000000","a":"DOWNLOOK ST","m":"10th Ward - PITTSBURGH","u":"L","o":"individual","sf":6890,"v":22700}},{"type":"Feature","geometry":{"type":"Point","coordinates":[-79.94182,40.48445]},"properties":{"p":"0120K00082000000","a":"994 DRIVE ST","m":"10th Ward - PITTSBURGH","u":"L","o":"individual","sf":3920,"v":40100}},{"type":"Feature","geometry":{"type":"Point","coordinates":[-79.9511,40.48233]},"properties":{"p":"0119S00052000B00","a":"DRESDEN WAY","m":"10th Ward - PITTSBURGH","u":"L","o":"corp","sf":784,"v":400}},{"type":"Feature","geometry":{"type":"Point","coordinates":[-79.95114,40.4823]},"properties":{"p":"0119S00052000C00","a":"DRESDEN WAY","m":"10th Ward - PITTSBURGH","u":"L","o":"individual","sf":598,"v":19600}},{"type":"Feature","geometry":{"type":"Point","coordinates":[-79.95106,40.48235]},"properties":{"p":"0119S00053000A00","a":"DRESDEN WAY","m":"10th Ward - PITTSBURGH","u":"L","o":"corp","sf":616,"v":300}},{"type":"Feature","geometry":{"type":"Point","coordinates":[-79.94141,40.48658]},"properties":{"p":"0120K00118000000","a":"6030 BUTLER ST","m":"10th Ward - PITTSBURGH","u":"L","o":"corp","sf":10608,"v":15900}},{"type":"Feature","geometry":{"type":"Point","coordinates":[-79.94207,40.48644]},"properties":{"p":"0120K00125000000","a":"6026 BUTLER ST","m":"10th Ward - PITTSBURGH","u":"L","o":"corp","sf":1893,"v":800}},{"type":"Feature","geometry":{"type":"Point","coordinates":[-79.94001,40.48476]},"properties":{"p":"0120L00129000000","a":"FAIRFIELD ST","m":"10th Ward - PITTSBURGH","u":"L","o":"individual","sf":7349,"v":22700}},{"type":"Feature","geometry":{"type":"Point","coordinates":[-79.95079,40.48269]},"properties":{"p":"0119S00111000000","a":"54TH ST","m":"10th Ward - PITTSBURGH","u":"L","o":"corp","sf":480,"v":300}},{"type":"Feature","geometry":{"type":"Point","coordinates":[-79.95158,40.48246]},"properties":{"p":"0119S00120000000","a":"BUTLER ST","m":"10th Ward - PITTSBURGH","u":"L","o":"individual","sf":872,"v":400}},{"type":"Feature","geometry":{"type":"Point","coordinates":[-79.95087,40.48372]},"properties":{"p":"0119S00222000000","a":"HARRISON ST","m":"10th Ward - PITTSBURGH","u":"L","o":"corp","sf":4500,"v":33300}},{"type":"Feature","geometry":{"type":"Point","coordinates":[-79.95189,40.4821]},"properties":{"p":"0119S00130000A00","a":"DRESDEN WAY","m":"10th Ward - PITTSBURGH","u":"L","o":"corp","sf":763,"v":2700}},{"type":"Feature","geometry":{"type":"Point","coordinates":[-79.95193,40.48208]},"properties":{"p":"0119S00130000B00","a":"DRESDEN WAY","m":"10th Ward - PITTSBURGH","u":"L","o":"corp","sf":757,"v":2700}},{"type":"Feature","geometry":{"type":"Point","coordinates":[-79.95197,40.48206]},"properties":{"p":"0119S00130000C00","a":"DRESDEN WAY","m":"10th Ward - PITTSBURGH","u":"L","o":"corp","sf":757,"v":2700}},{"type":"Feature","geometry":{"type":"Point","coordinates":[-79.95202,40.48203]},"properties":{"p":"0119S00130000D00","a":"DRESDEN WAY","m":"10th Ward - PITTSBURGH","u":"L","o":"corp","sf":757,"v":2700}},{"type":"Feature","geometry":{"type":"Point","coordinates":[-79.95032,40.48275]},"properties":{"p":"0119S00068000A00","a":"5412 DRESDEN WAY","m":"10th Ward - PITTSBURGH","u":"L","o":"individual","sf":1070,"v":500}},{"type":"Feature","geometry":{"type":"Point","coordinates":[-79.95027,40.48278]},"properties":{"p":"0119S00069000A00","a":"5412 DRESDEN WAY","m":"10th Ward - PITTSBURGH","u":"L","o":"individual","sf":1080,"v":500}},{"type":"Feature","geometry":{"type":"Point","coordinates":[-79.94086,40.48685]},"properties":{"p":"0120G00122000000","a":"BUTLER ST","m":"10th Ward - PITTSBURGH","u":"L","o":"corp","sf":2750,"v":2700}},{"type":"Feature","geometry":{"type":"Point","coordinates":[-79.94094,40.48683]},"properties":{"p":"0120G00123000000","a":"BUTLER ST","m":"10th Ward - PITTSBURGH","u":"L","o":"corp","sf":2420,"v":2500}},{"type":"Feature","geometry":{"type":"Point","coordinates":[-79.94977,40.48255]},"properties":{"p":"0119S00024000000","a":"5417 NATRONA WAY","m":"10th Ward - PITTSBURGH","u":"L","o":"individual","sf":1000,"v":500}},{"type":"Feature","geometry":{"type":"Point","coordinates":[-79.94384,40.48095]},"properties":{"p":"0081B00122000000","a":"MCCANDLESS AVE","m":"10th Ward - PITTSBURGH","u":"L","o":"individual","sf":2000,"v":800}},{"type":"Feature","geometry":{"type":"Point","coordinates":[-79.94789,40.47999]},"properties":{"p":"0081A00098000000","a":"WICKLIFF ST","m":"10th Ward - PITTSBURGH","u":"L","o":"individual","sf":1580,"v":700}},{"type":"Feature","geometry":{"type":"Point","coordinates":[-79.94777,40.48011]},"properties":{"p":"0081A00101000000","a":"WICKLIFF ST","m":"10th Ward - PITTSBURGH","u":"L","o":"corp","sf":1152,"v":500}},{"type":"Feature","geometry":{"type":"Point","coordinates":[-79.9474,40.48027]},"properties":{"p":"0081A00115000000","a":"54TH ST","m":"10th Ward - PITTSBURGH","u":"L","o":"corp","sf":4000,"v":15000}},{"type":"Feature","geometry":{"type":"Point","coordinates":[-79.94749,40.48033]},"properties":{"p":"0081A00116000000","a":"54TH ST","m":"10th Ward - PITTSBURGH","u":"L","o":"individual","sf":2000,"v":24500}},{"type":"Feature","geometry":{"type":"Point","coordinates":[-79.94758,40.48041]},"properties":{"p":"0081A00118000000","a":"54TH ST","m":"10th Ward - PITTSBURGH","u":"L","o":"individual","sf":2000,"v":7000}},{"type":"Feature","geometry":{"type":"Point","coordinates":[-79.94888,40.48062]},"properties":{"p":"0081A00028000000","a":"DUNCAN ST","m":"10th Ward - PITTSBURGH","u":"L","o":"corp","sf":4000,"v":31500}},{"type":"Feature","geometry":{"type":"Point","coordinates":[-79.94897,40.48057]},"properties":{"p":"0081A00029000000","a":"DUNCAN ST","m":"10th Ward - PITTSBURGH","u":"L","o":"corp","sf":2000,"v":800}},{"type":"Feature","geometry":{"type":"Point","coordinates":[-79.94527,40.48024]},"properties":{"p":"0081B00053000000","a":"5502 CAMELIA ST","m":"10th Ward - PITTSBURGH","u":"L","o":"individual","sf":2000,"v":800}},{"type":"Feature","geometry":{"type":"Point","coordinates":[-79.94933,40.48046]},"properties":{"p":"0081A00034000A00","a":"5312 LOTUS WAY","m":"10th Ward - PITTSBURGH","u":"L","o":"corp","sf":1000,"v":500}},{"type":"Feature","geometry":{"type":"Point","coordinates":[-79.94829,40.47865]},"properties":{"p":"0081E00078000000","a":"906 53RD ST","m":"10th Ward - PITTSBURGH","u":"L","o":"individual","sf":16548,"v":36000}},{"type":"Feature","geometry":{"type":"Point","coordinates":[-79.94807,40.47863]},"properties":{"p":"0081E00079000000","a":"53RD ST","m":"10th Ward - PITTSBURGH","u":"L","o":"individual","sf":1089,"v":3800}},{"type":"Feature","geometry":{"type":"Point","coordinates":[-79.94793,40.47911]},"properties":{"p":"0081E00089000000","a":"CELADINE ST","m":"10th Ward - PITTSBURGH","u":"L","o":"corp","sf":4900,"v":34700}},{"type":"Feature","geometry":{"type":"Point","coordinates":[-79.94777,40.47925]},"properties":{"p":"0081E00093000000","a":"CELADINE ST","m":"10th Ward - PITTSBURGH","u":"L","o":"corp","sf":1652,"v":23300}},{"type":"Feature","geometry":{"type":"Point","coordinates":[-79.94761,40.47937]},"properties":{"p":"0081E00095000000","a":"CELADINE ST","m":"10th Ward - PITTSBURGH","u":"L","o":"corp","sf":7560,"v":35200}},{"type":"Feature","geometry":{"type":"Point","coordinates":[-79.94815,40.48082]},"properties":{"p":"0081A00129000000","a":"5406 DUNCAN ST","m":"10th Ward - PITTSBURGH","u":"L","o":"individual","sf":5300,"v":35000}},{"type":"Feature","geometry":{"type":"Point","coordinates":[-79.94837,40.48106]},"properties":{"p":"0081A00132000000","a":"54TH ST","m":"10th Ward - PITTSBURGH","u":"L","o":"individual","sf":1456,"v":600}},{"type":"Feature","geometry":{"type":"Point","coordinates":[-79.94874,40.47911]},"properties":{"p":"0081E00015000000","a":"53RD ST","m":"10th Ward - PITTSBURGH","u":"L","o":"corp","sf":4480,"v":33200}},{"type":"Feature","geometry":{"type":"Point","coordinates":[-79.94867,40.47905]},"properties":{"p":"0081E00017000000","a":"53RD ST","m":"10th Ward - PITTSBURGH","u":"L","o":"corp","sf":2220,"v":25300}},{"type":"Feature","geometry":{"type":"Point","coordinates":[-79.94925,40.47991]},"properties":{"p":"0081A00040000000","a":"5300 DUNCAN ST","m":"10th Ward - PITTSBURGH","u":"L","o":"corp","sf":1363,"v":600}},{"type":"Feature","geometry":{"type":"Point","coordinates":[-79.94914,40.47999]},"properties":{"p":"0081A00042000000","a":"DUNCAN ST","m":"10th Ward - PITTSBURGH","u":"L","o":"corp","sf":1537,"v":8200}},{"type":"Feature","geometry":{"type":"Point","coordinates":[-79.94426,40.48108]},"properties":{"p":"0081B00075000000","a":"CAMELIA ST","m":"10th Ward - PITTSBURGH","u":"L","o":"individual","sf":2000,"v":7000}},{"type":"Feature","geometry":{"type":"Point","coordinates":[-79.94856,40.47898]},"properties":{"p":"0081E00018000000","a":"53RD ST","m":"10th Ward - PITTSBURGH","u":"L","o":"corp","sf":4984,"v":34900}},{"type":"Feature","geometry":{"type":"Point","coordinates":[-79.94884,40.47858]},"properties":{"p":"0081E00038000000","a":"MCCANDLESS AVE","m":"10th Ward - PITTSBURGH","u":"L","o":"individual","sf":2040,"v":7100}},{"type":"Feature","geometry":{"type":"Point","coordinates":[-79.94759,40.48524]},"properties":{"p":"0120J00050000000","a":"HARRISON ST","m":"10th Ward - PITTSBURGH","u":"L","o":"corp","sf":2196,"v":7700}},{"type":"Feature","geometry":{"type":"Point","coordinates":[-79.94774,40.48052]},"properties":{"p":"0081A00135000000","a":"54TH ST","m":"10th Ward - PITTSBURGH","u":"L","o":"individual","sf":2000,"v":4600}},{"type":"Feature","geometry":{"type":"Point","coordinates":[-79.94553,40.48001]},"properties":{"p":"0081A00312000000","a":"CAMELLIA ST","m":"10th Ward - PITTSBURGH","u":"L","o":"individual","sf":3822,"v":13400}},{"type":"Feature","geometry":{"type":"Point","coordinates":[-79.94177,40.47788]},"properties":{"p":"0081F00205000100","a":"COLERIDGE ST","m":"10th Ward - PITTSBURGH","u":"L","o":"individual","sf":1007,"v":400}},{"type":"Feature","geometry":{"type":"Point","coordinates":[-79.94932,40.47891]},"properties":{"p":"0081E00049000000","a":"MCCANDLESS AVE","m":"10th Ward - PITTSBURGH","u":"L","o":"corp","sf":2400,"v":900}},{"type":"Feature","geometry":{"type":"Point","coordinates":[-79.94941,40.47894]},"properties":{"p":"0081E00056000000","a":"901 MCCANDLESS AVE","m":"10th Ward - PITTSBURGH","u":"L","o":"corp","sf":1837,"v":6400}},{"type":"Feature","geometry":{"type":"Point","coordinates":[-79.94411,40.48121]},"properties":{"p":"0081B00078000000","a":"CAMELIA ST","m":"10th Ward - PITTSBURGH","u":"L","o":"corp","sf":2000,"v":7000}},{"type":"Feature","geometry":{"type":"Point","coordinates":[-79.9435,40.48172]},"properties":{"p":"0081B00092000000","a":"CAMELIA ST","m":"10th Ward - PITTSBURGH","u":"L","o":"corp","sf":2000,"v":800}},{"type":"Feature","geometry":{"type":"Point","coordinates":[-79.94856,40.48167]},"properties":{"p":"0081A00152000000","a":"KENDALL ST","m":"10th Ward - PITTSBURGH","u":"L","o":"individual","sf":2000,"v":800}},{"type":"Feature","geometry":{"type":"Point","coordinates":[-79.94756,40.48093]},"properties":{"p":"0081A00170000000","a":"LEYDON ST","m":"10th Ward - PITTSBURGH","u":"L","o":"corp","sf":2000,"v":1500}},{"type":"Feature","geometry":{"type":"Point","coordinates":[-79.94615,40.47951]},"properties":{"p":"0081A00325000000","a":"CAMELIA ST","m":"10th Ward - PITTSBURGH","u":"L","o":"individual","sf":2000,"v":800}},{"type":"Feature","geometry":{"type":"Point","coordinates":[-79.9462,40.47947]},"properties":{"p":"0081A00326000000","a":"5404 CAMELIA ST","m":"10th Ward - PITTSBURGH","u":"L","o":"individual","sf":2000,"v":7000}},{"type":"Feature","geometry":{"type":"Point","coordinates":[-79.94547,40.48523]},"properties":{"p":"0120J00151000000","a":"BUTLER ST","m":"10th Ward - PITTSBURGH","u":"L","o":"individual","sf":2400,"v":8400}},{"type":"Feature","geometry":{"type":"Point","coordinates":[-79.94738,40.48079]},"properties":{"p":"0081A00173000000","a":"KENDALL ST","m":"10th Ward - PITTSBURGH","u":"L","o":"corp","sf":4000,"v":3000}},{"type":"Feature","geometry":{"type":"Point","coordinates":[-79.95333,40.47921]},"properties":{"p":"0080H00322000000","a":"5176 NATRONA WAY","m":"10th Ward - PITTSBURGH","u":"L","o":"individual","sf":1320,"v":600}},{"type":"Feature","geometry":{"type":"Point","coordinates":[-79.94485,40.48169]},"properties":{"p":"0081B00013000000","a":"CELADINE ST","m":"10th Ward - PITTSBURGH","u":"L","o":"individual","sf":2000,"v":7000}},{"type":"Feature","geometry":{"type":"Point","coordinates":[-79.94719,40.48121]},"properties":{"p":"0081A00198000000","a":"KENDALL ST","m":"10th Ward - PITTSBURGH","u":"L","o":"individual","sf":6720,"v":17700}},{"type":"Feature","geometry":{"type":"Point","coordinates":[-79.94457,40.47961]},"properties":{"p":"0081B00159000000","a":"UPVIEW TER","m":"10th Ward - PITTSBURGH","u":"L","o":"individual","sf":4140,"v":1600}},{"type":"Feature","geometry":{"type":"Point","coordinates":[-79.94941,40.47935]},"properties":{"p":"0081E00001000000","a":"WICKLIFF ST","m":"10th Ward - PITTSBURGH","u":"L","o":"individual","sf":2140,"v":7500}},{"type":"Feature","geometry":{"type":"Point","coordinates":[-79.94947,40.47932]},"properties":{"p":"0081E00002000000","a":"5259 WICKLIFF ST","m":"10th Ward - PITTSBURGH","u":"L","o":"individual","sf":2140,"v":900}},{"type":"Feature","geometry":{"type":"Point","coordinates":[-79.94907,40.47942]},"properties":{"p":"0081E00006000000","a":"726 53RD ST","m":"10th Ward - PITTSBURGH","u":"L","o":"individual","sf":3139,"v":11000}},{"type":"Feature","geometry":{"type":"Point","coordinates":[-79.94453,40.48146]},"properties":{"p":"0081B00031000000","a":"5549 CAMELIA ST","m":"10th Ward - PITTSBURGH","u":"L","o":"individual","sf":2000,"v":7000}},{"type":"Feature","geometry":{"type":"Point","coordinates":[-79.94463,40.48138]},"properties":{"p":"0081B00033000000","a":"CAMELIA ST","m":"10th Ward - PITTSBURGH","u":"L","o":"individual","sf":1263,"v":4400}},{"type":"Feature","geometry":{"type":"Point","coordinates":[-79.94231,40.47833]},"properties":{"p":"0081F00162000000","a":"COLERIDGE ST","m":"10th Ward - PITTSBURGH","u":"L","o":"individual","sf":5000,"v":23000}},{"type":"Feature","geometry":{"type":"Point","coordinates":[-79.94762,40.48154]},"properties":{"p":"0081A00206000000","a":"KENDALL ST","m":"10th Ward - PITTSBURGH","u":"L","o":"corp","sf":6490,"v":35100}},{"type":"Feature","geometry":{"type":"Point","coordinates":[-79.94469,40.4833]},"properties":{"p":"0120P00146000000","a":"57TH ST","m":"10th Ward - PITTSBURGH","u":"L","o":"individual","sf":1810,"v":700}},{"type":"Feature","geometry":{"type":"Point","coordinates":[-79.94019,40.48251]},"properties":{"p":"0120R00056000000","a":"CAMELIA ST","m":"10th Ward - PITTSBURGH","u":"L","o":"individual","sf":4000,"v":8400}},{"type":"Feature","geometry":{"type":"Point","coordinates":[-79.94008,40.48249]},"properties":{"p":"0120R00058000000","a":"CAMELIA ST","m":"10th Ward - PITTSBURGH","u":"L","o":"individual","sf":2400,"v":10800}},{"type":"Feature","geometry":{"type":"Point","coordinates":[-79.94355,40.48376]},"properties":{"p":"0120P00229000000","a":"57TH ST","m":"10th Ward - PITTSBURGH","u":"L","o":"corp","sf":10294,"v":35500}},{"type":"Feature","geometry":{"type":"Point","coordinates":[-79.94373,40.48386]},"properties":{"p":"0120P00231000000","a":"57TH ST","m":"10th Ward - PITTSBURGH","u":"L","o":"corp","sf":7796,"v":35300}},{"type":"Feature","geometry":{"type":"Point","coordinates":[-79.94944,40.48257]},"properties":{"p":"0120N00023000000","a":"NATRONA WAY","m":"10th Ward - PITTSBURGH","u":"L","o":"individual","sf":945,"v":400}},{"type":"Feature","geometry":{"type":"Point","coordinates":[-79.94924,40.48236]},"properties":{"p":"0120N00028000000","a":"KEYSTONE ST","m":"10th Ward - PITTSBURGH","u":"L","o":"corp","sf":2000,"v":24500}},{"type":"Feature","geometry":{"type":"Point","coordinates":[-79.94551,40.4831]},"properties":{"p":"0120N00211000000","a":"DUNCAN ST","m":"10th Ward - PITTSBURGH","u":"L","o":"individual","sf":4150,"v":10000}},{"type":"Feature","geometry":{"type":"Point","coordinates":[-79.94576,40.4834]},"properties":{"p":"0120N00219000000","a":"DUNCAN ST","m":"10th Ward - PITTSBURGH","u":"L","o":"individual","sf":8256,"v":3000}},{"type":"Feature","geometry":{"type":"Point","coordinates":[-79.94601,40.48329]},"properties":{"p":"0120N00225000000","a":"DUNCAN ST","m":"10th Ward - PITTSBURGH","u":"L","o":"individual","sf":10000,"v":7500}},{"type":"Feature","geometry":{"type":"Point","coordinates":[-79.94209,40.48387]},"properties":{"p":"0120P00343000000","a":"1002 PREMIER ST","m":"10th Ward - PITTSBURGH","u":"L","o":"individual","sf":2940,"v":13200}},{"type":"Feature","geometry":{"type":"Point","coordinates":[-79.94084,40.48324]},"properties":{"p":"0120R00296000000","a":"PREMIER ST","m":"10th Ward - PITTSBURGH","u":"L","o":"corp","sf":4230,"v":19000}},{"type":"Feature","geometry":{"type":"Point","coordinates":[-79.94176,40.48224]},"properties":{"p":"0120P00041000000","a":"MCCANDLESS AVE","m":"10th Ward - PITTSBURGH","u":"L","o":"corp","sf":2798,"v":1100}},{"type":"Feature","geometry":{"type":"Point","coordinates":[-79.94707,40.48371]},"properties":{"p":"0120N00271000000","a":"CARNEGIE ST","m":"10th Ward - PITTSBURGH","u":"L","o":"corp","sf":3427,"v":12000}},{"type":"Feature","geometry":{"type":"Point","coordinates":[-79.94698,40.48375]},"properties":{"p":"0120N00273000000","a":"CARNEGIE ST","m":"10th Ward - PITTSBURGH","u":"L","o":"corp","sf":3250,"v":11400}},{"type":"Feature","geometry":{"type":"Point","coordinates":[-79.9469,40.48379]},"properties":{"p":"0120N00274000000","a":"CARNEGIE ST","m":"10th Ward - PITTSBURGH","u":"L","o":"corp","sf":3250,"v":11400}},{"type":"Feature","geometry":{"type":"Point","coordinates":[-79.94682,40.48382]},"properties":{"p":"0120N00275000000","a":"CARNEGIE ST","m":"10th Ward - PITTSBURGH","u":"L","o":"corp","sf":3250,"v":11400}},{"type":"Feature","geometry":{"type":"Point","coordinates":[-79.94666,40.48389]},"properties":{"p":"0120N00276000000","a":"CARNEGIE ST","m":"10th Ward - PITTSBURGH","u":"L","o":"corp","sf":9750,"v":35400}},{"type":"Feature","geometry":{"type":"Point","coordinates":[-79.94645,40.48399]},"properties":{"p":"0120N00280000000","a":"CARNEGIE ST","m":"10th Ward - PITTSBURGH","u":"L","o":"corp","sf":8190,"v":35300}},{"type":"Feature","geometry":{"type":"Point","coordinates":[-79.94679,40.48432]},"properties":{"p":"0120N00286000000","a":"5618 DONSON WAY","m":"10th Ward - PITTSBURGH","u":"L","o":"individual","sf":2000,"v":1700}},{"type":"Feature","geometry":{"type":"Point","coordinates":[-79.94166,40.48412]},"properties":{"p":"0120P00364000000","a":"1007 PREMIER ST","m":"10th Ward - PITTSBURGH","u":"L","o":"individual","sf":3000,"v":1200}},{"type":"Feature","geometry":{"type":"Point","coordinates":[-79.94875,40.48213]},"properties":{"p":"0120N00047000000","a":"KEYSTONE ST","m":"10th Ward - PITTSBURGH","u":"L","o":"individual","sf":2000,"v":800}},{"type":"Feature","geometry":{"type":"Point","coordinates":[-79.94882,40.4821]},"properties":{"p":"0120N00048000000","a":"KEYSTONE ST","m":"10th Ward - PITTSBURGH","u":"L","o":"individual","sf":2000,"v":7000}},{"type":"Feature","geometry":{"type":"Point","coordinates":[-79.94887,40.48207]},"properties":{"p":"0120N00049000000","a":"KEYSTONE ST","m":"10th Ward - PITTSBURGH","u":"L","o":"individual","sf":2000,"v":7000}},{"type":"Feature","geometry":{"type":"Point","coordinates":[-79.94053,40.4833]},"properties":{"p":"0120R00304000000","a":"1060 PREMIER ST","m":"10th Ward - PITTSBURGH","u":"L","o":"individual","sf":4200,"v":1700}},{"type":"Feature","geometry":{"type":"Point","coordinates":[-79.94425,40.48252]},"properties":{"p":"0120P00099000000","a":"56TH ST","m":"10th Ward - PITTSBURGH","u":"L","o":"individual","sf":2000,"v":7000}},{"type":"Feature","geometry":{"type":"Point","coordinates":[-79.94439,40.48264]},"properties":{"p":"0120P00101000000","a":"56TH ST","m":"10th Ward - PITTSBURGH","u":"L","o":"individual","sf":2000,"v":7000}},{"type":"Feature","geometry":{"type":"Point","coordinates":[-79.94443,40.48268]},"properties":{"p":"0120P00102000000","a":"56TH ST","m":"10th Ward - PITTSBURGH","u":"L","o":"individual","sf":2000,"v":7000}},{"type":"Feature","geometry":{"type":"Point","coordinates":[-79.94828,40.48206]},"properties":{"p":"0120N00057000000","a":"KENDALL ST","m":"10th Ward - PITTSBURGH","u":"L","o":"corp","sf":1987,"v":7000}},{"type":"Feature","geometry":{"type":"Point","coordinates":[-79.94821,40.482]},"properties":{"p":"0120N00059000000","a":"KENDALL ST","m":"10th Ward - PITTSBURGH","u":"L","o":"corp","sf":5040,"v":17500}},{"type":"Feature","geometry":{"type":"Point","coordinates":[-79.94809,40.48196]},"properties":{"p":"0120N00062000000","a":"KENDALL ST","m":"10th Ward - PITTSBURGH","u":"L","o":"individual","sf":2500,"v":8800}},{"type":"Feature","geometry":{"type":"Point","coordinates":[-79.94086,40.48291]},"properties":{"p":"0120R00037000000","a":"CAMELIA ST","m":"10th Ward - PITTSBURGH","u":"L","o":"corp","sf":7500,"v":35200}},{"type":"Feature","geometry":{"type":"Point","coordinates":[-79.94051,40.48258]},"properties":{"p":"0120R00054000000","a":"CAMELIA ST","m":"10th Ward - PITTSBURGH","u":"L","o":"individual","sf":7400,"v":45200}},{"type":"Feature","geometry":{"type":"Point","coordinates":[-79.94029,40.48255]},"properties":{"p":"0120R00055000000","a":"CAMELIA ST","m":"10th Ward - PITTSBURGH","u":"L","o":"individual","sf":2400,"v":10800}},{"type":"Feature","geometry":{"type":"Point","coordinates":[-79.946,40.48274]},"properties":{"p":"0120N00203000000","a":"DUNCAN ST","m":"10th Ward - PITTSBURGH","u":"L","o":"individual","sf":1760,"v":6200}},{"type":"Feature","geometry":{"type":"Point","coordinates":[-79.94418,40.48312]},"properties":{"p":"0120P00153000000","a":"57TH ST","m":"10th Ward - PITTSBURGH","u":"L","o":"corp","sf":3364,"v":11800}},{"type":"Feature","geometry":{"type":"Point","coordinates":[-79.94373,40.48257]},"properties":{"p":"0120P00169000000","a":"57TH ST","m":"10th Ward - PITTSBURGH","u":"L","o":"individual","sf":1960,"v":6900}},{"type":"Feature","geometry":{"type":"Point","coordinates":[-79.94617,40.48422]},"properties":{"p":"0120N00310000000","a":"CARNEGIE ST","m":"10th Ward - PITTSBURGH","u":"L","o":"corp","sf":1872,"v":800}},{"type":"Feature","geometry":{"type":"Point","coordinates":[-79.94632,40.48414]},"properties":{"p":"0120N00312000000","a":"CARNEGIE ST","m":"10th Ward - PITTSBURGH","u":"L","o":"individual","sf":1300,"v":600}},{"type":"Feature","geometry":{"type":"Point","coordinates":[-79.95967,40.48741]},"properties":{"p":"0119F00216000000","a":"MEINERT ST","m":"Shaler","u":"L","o":"individual","sf":3200,"v":1200}},{"type":"Feature","geometry":{"type":"Point","coordinates":[-79.95694,40.48873]},"properties":{"p":"0119G00200000000","a":"E OHIO ST","m":"Shaler","u":"L","o":"individual","sf":5076,"v":35000}},{"type":"Feature","geometry":{"type":"Point","coordinates":[-79.95621,40.48869]},"properties":{"p":"0119G00220000000","a":"E OHIO ST","m":"Shaler","u":"L","o":"individual","sf":31059,"v":37400}},{"type":"Feature","geometry":{"type":"Point","coordinates":[-79.95621,40.48941]},"properties":{"p":"0119G00230000000","a":"E OHIO ST","m":"Shaler","u":"L","o":"individual","sf":66211,"v":40600}},{"type":"Feature","geometry":{"type":"Point","coordinates":[-79.95554,40.48897]},"properties":{"p":"0119G00248000000","a":"E OHIO ST","m":"Shaler","u":"L","o":"corp","sf":14224,"v":35800}},{"type":"Feature","geometry":{"type":"Point","coordinates":[-79.95861,40.48859]},"properties":{"p":"0119F00334000100","a":"FRIDAY RD","m":"Shaler","u":"L","o":"individual","sf":95832,"v":10000}},{"type":"Feature","geometry":{"type":"Point","coordinates":[-79.95956,40.4878]},"properties":{"p":"0119F00254000000","a":"HIMBER ST","m":"Shaler","u":"L","o":"individual","sf":3200,"v":28700}},{"type":"Feature","geometry":{"type":"Point","coordinates":[-79.95951,40.4877]},"properties":{"p":"0119F00255000000","a":"HIMBER ST","m":"Shaler","u":"L","o":"individual","sf":1600,"v":700}},{"type":"Feature","geometry":{"type":"Point","coordinates":[-79.95946,40.48759]},"properties":{"p":"0119F00256000000","a":"HIMBER ST","m":"Shaler","u":"L","o":"individual","sf":1600,"v":700}},{"type":"Feature","geometry":{"type":"Point","coordinates":[-79.95438,40.47971]},"properties":{"p":"0080C00089000000","a":"BUTLER ST","m":"10th Ward - PITTSBURGH","u":"L","o":"corp","sf":1440,"v":22500}},{"type":"Feature","geometry":{"type":"Point","coordinates":[-79.95304,40.48004]},"properties":{"p":"0080D00138000100","a":"NATRONA WAY","m":"10th Ward - PITTSBURGH","u":"L","o":"individual","sf":1060,"v":500}},{"type":"Feature","geometry":{"type":"Point","coordinates":[-79.95291,40.47985]},"properties":{"p":"0080D00157000000","a":"NATRONA WAY","m":"10th Ward - PITTSBURGH","u":"L","o":"individual","sf":730,"v":500}},{"type":"Feature","geometry":{"type":"Point","coordinates":[-79.95063,40.47891]},"properties":{"p":"0080H00240000L00","a":"5230 DUNCAN ST","m":"10th Ward - PITTSBURGH","u":"L","o":"corp","sf":1100,"v":21400}},{"type":"Feature","geometry":{"type":"Point","coordinates":[-79.95231,40.48065]},"properties":{"p":"0080D00177000000","a":"NATRONA WAY","m":"10th Ward - PITTSBURGH","u":"L","o":"corp","sf":1269,"v":500}},{"type":"Feature","geometry":{"type":"Point","coordinates":[-79.95287,40.48095]},"properties":{"p":"0080D00051000100","a":"CARNEGIE ST","m":"10th Ward - PITTSBURGH","u":"L","o":"individual","sf":128,"v":100}},{"type":"Feature","geometry":{"type":"Point","coordinates":[-79.94091,40.48244]},"properties":{"p":"0120R00023000000","a":"MCCANDLESS AVE","m":"10th Ward - PITTSBURGH","u":"L","o":"individual","sf":38851,"v":38100}},{"type":"Feature","geometry":{"type":"Point","coordinates":[-79.94257,40.47159]},"properties":{"p":"0050B00176000000","a":"COLUMBO ST","m":"10th Ward - PITTSBURGH","u":"L","o":"individual","sf":3776,"v":13200}},{"type":"Feature","geometry":{"type":"Point","coordinates":[-79.95084,40.4792]},"properties":{"p":"0080H00156000L00","a":"5233 DUNCAN ST","m":"10th Ward - PITTSBURGH","u":"L","o":"corp","sf":1100,"v":17500}},{"type":"Feature","geometry":{"type":"Point","coordinates":[-79.94464,40.47005]},"properties":{"p":"0050B00229000000","a":"N MATHILDA ST","m":"10th Ward - PITTSBURGH","u":"L","o":"individual","sf":2012,"v":800}},{"type":"Feature","geometry":{"type":"Point","coordinates":[-79.95434,40.47806]},"properties":{"p":"0080G00249000000","a":"CARNEGIE ST","m":"10th Ward - PITTSBURGH","u":"L","o":"individual","sf":1953,"v":19100}},{"type":"Feature","geometry":{"type":"Point","coordinates":[-79.95118,40.47891]},"properties":{"p":"0080H00161000000","a":"5219 DUNCAN ST","m":"10th Ward - PITTSBURGH","u":"L","o":"individual","sf":2100,"v":24900}},{"type":"Feature","geometry":{"type":"Point","coordinates":[-79.94045,40.48651]},"properties":{"p":"0120L00011000000","a":"OSBORNE ST","m":"10th Ward - PITTSBURGH","u":"L","o":"individual","sf":960,"v":400}},{"type":"Feature","geometry":{"type":"Point","coordinates":[-79.94375,40.47126]},"properties":{"p":"0050B00204000000","a":"SULLIVAN ST","m":"10th Ward - PITTSBURGH","u":"L","o":"corp","sf":2700,"v":1000}},{"type":"Feature","geometry":{"type":"Point","coordinates":[-79.9403,40.487]},"properties":{"p":"0120G00112000000","a":"BUTLER ST","m":"10th Ward - PITTSBURGH","u":"L","o":"corp","sf":3140,"v":2900}},{"type":"Feature","geometry":{"type":"Point","coordinates":[-79.94101,40.4868]},"properties":{"p":"0120G00124000000","a":"BUTLER ST","m":"10th Ward - PITTSBURGH","u":"L","o":"corp","sf":2200,"v":2300}},{"type":"Feature","geometry":{"type":"Point","coordinates":[-79.94606,40.48019]},"properties":{"p":"0081A00299000000","a":"5435 CAMELIA ST","m":"10th Ward - PITTSBURGH","u":"L","o":"individual","sf":2000,"v":800}},{"type":"Feature","geometry":{"type":"Point","coordinates":[-79.94076,40.48317]},"properties":{"p":"0120R00299000000","a":"CHRISTOPHER ST","m":"10th Ward - PITTSBURGH","u":"L","o":"individual","sf":1468,"v":200}},{"type":"Feature","geometry":{"type":"Point","coordinates":[-79.94897,40.48201]},"properties":{"p":"0120N00051000000","a":"KEYSTONE ST","m":"10th Ward - PITTSBURGH","u":"L","o":"individual","sf":2000,"v":800}},{"type":"Feature","geometry":{"type":"Point","coordinates":[-79.94298,40.48611]},"properties":{"p":"0120K00153000000","a":"6002 BUTLER ST","m":"10th Ward - PITTSBURGH","u":"L","o":"corp","sf":1900,"v":800}},{"type":"Feature","geometry":{"type":"Point","coordinates":[-79.94798,40.47963]},"properties":{"p":"0081A00110000000","a":"CELADINE ST","m":"10th Ward - PITTSBURGH","u":"L","o":"individual","sf":35739,"v":3780}},{"type":"Feature","geometry":{"type":"Point","coordinates":[-79.95747,40.47811]},"properties":{"p":"0080G0002400AL00","a":"4916 PLUM WAY","m":"9th Ward - PITTSBURGH","u":"L","o":"corp","sf":1000,"v":24000}},{"type":"Feature","geometry":{"type":"Point","coordinates":[-79.95997,40.47223]},"properties":{"p":"0080P00086000000","a":"187 LOCARNA WAY","m":"9th Ward - PITTSBURGH","u":"L","o":"individual","sf":547,"v":2200}},{"type":"Feature","geometry":{"type":"Point","coordinates":[-79.95136,40.48062]},"properties":{"p":"0080D00260000000","a":"5256 KEYSTONE ST","m":"10th Ward - PITTSBURGH","u":"L","o":"individual","sf":2300,"v":8100}},{"type":"Feature","geometry":{"type":"Point","coordinates":[-79.95251,40.47846]},"properties":{"p":"0080H00083000000","a":"HOLMES ST","m":"10th Ward - PITTSBURGH","u":"L","o":"individual","sf":1000,"v":3500}},{"type":"Feature","geometry":{"type":"Point","coordinates":[-79.94076,40.47182]},"properties":{"p":"0050C00059000000","a":"SCHENLEY AVE","m":"10th Ward - PITTSBURGH","u":"L","o":"corp","sf":18000,"v":36200}},{"type":"Feature","geometry":{"type":"Point","coordinates":[-79.94378,40.47059]},"properties":{"p":"0050B00072000000","a":"N MATHILDA ST","m":"10th Ward - PITTSBURGH","u":"L","o":"corp","sf":10320,"v":35500}},{"type":"Feature","geometry":{"type":"Point","coordinates":[-79.94483,40.4829]},"properties":{"p":"0120P00110000000","a":"56TH ST","m":"10th Ward - PITTSBURGH","u":"L","o":"individual","sf":4000,"v":1500}},{"type":"Feature","geometry":{"type":"Point","coordinates":[-79.95999,40.48802]},"properties":{"p":"0119F00228000000","a":"MEINERT ST","m":"Shaler","u":"L","o":"individual","sf":3200,"v":1200}},{"type":"Feature","geometry":{"type":"Point","coordinates":[-79.95514,40.48908]},"properties":{"p":"0119G00258000000","a":"E OHIO ST","m":"Shaler","u":"L","o":"corp","sf":33871,"v":37600}}]}