{"type":"FeatureCollection","features":[{"type":"Feature","geometry":{"type":"Point","coordinates":[-79.94024,40.35748]},"properties":{"p":"0245R00050000000","a":"LEBANON RD","m":"West Mifflin","u":"I","o":"corp","sf":598602,"v":421700}},{"type":"Feature","geometry":{"type":"Point","coordinates":[-79.94574,40.36964]},"properties":{"p":"0186J00340000000","a":"STREETS RUN RD","m":"Baldwin Boro","u":"I","o":"corp","sf":8751,"v":2600}},{"type":"Feature","geometry":{"type":"Point","coordinates":[-79.95028,40.35823]},"properties":{"p":"0246M00275000000","a":"WILLOCK AVE","m":"West Mifflin","u":"C","o":"corp","sf":213008,"v":4900}},{"type":"Feature","geometry":{"type":"Point","coordinates":[-79.94664,40.36867]},"properties":{"p":"0186J00295000000","a":"STREETS RUN RD","m":"West Mifflin","u":"C","o":"corp","sf":40001,"v":11400}},{"type":"Feature","geometry":{"type":"Point","coordinates":[-79.94625,40.36852]},"properties":{"p":"0186J00310000000","a":"4740 STREETS RUN RD","m":"West Mifflin","u":"C","o":"corp","sf":25047,"v":6500}},{"type":"Feature","geometry":{"type":"Point","coordinates":[-79.94178,40.36957]},"properties":{"p":"0186G00050000000","a":"IRWIN RUN RD","m":"West Mifflin","u":"C","o":"corp","sf":809432,"v":18600}},{"type":"Feature","geometry":{"type":"Point","coordinates":[-79.9587,40.35835]},"properties":{"p":"0246K00132000000","a":"PROSPECT RD","m":"Baldwin Boro","u":"C","o":"corp","sf":36050,"v":79700}},{"type":"Feature","geometry":{"type":"Point","coordinates":[-79.95744,40.35545]},"properties":{"p":"0246K00175000000","a":"PROSPECT RD","m":"Baldwin Boro","u":"C","o":"corp","sf":546778,"v":12300}},{"type":"Feature","geometry":{"type":"Point","coordinates":[-79.95833,40.35753]},"properties":{"p":"0246K00205000000","a":"ELMWOOD DR","m":"Baldwin Boro","u":"C","o":"corp","sf":119298,"v":16000}},{"type":"Feature","geometry":{"type":"Point","coordinates":[-79.95892,40.3593]},"properties":{"p":"0246K00101000000","a":"PROSPECT RD","m":"Baldwin Boro","u":"C","o":"corp","sf":73834,"v":46500}},{"type":"Feature","geometry":{"type":"Point","coordinates":[-79.95375,40.36926]},"properties":{"p":"0187L00150000000","a":"WILLETT RD","m":"Baldwin Boro","u":"C","o":"corp","sf":1089000,"v":50000}},{"type":"Feature","geometry":{"type":"Point","coordinates":[-79.95135,40.35948]},"properties":{"p":"0246M00148000000","a":"STREETS RUN RD","m":"West Mifflin","u":"L","o":"individual","sf":28533,"v":2600}},{"type":"Feature","geometry":{"type":"Point","coordinates":[-79.95251,40.35846]},"properties":{"p":"0246M00201000000","a":"506 WILLOCK AVE","m":"West Mifflin","u":"L","o":"individual","sf":40213,"v":2500}},{"type":"Feature","geometry":{"type":"Point","coordinates":[-79.95489,40.35643]},"properties":{"p":"0246R00093000000","a":"WILLOCK AVE","m":"West Mifflin","u":"L","o":"individual","sf":10000,"v":15000}},{"type":"Feature","geometry":{"type":"Point","coordinates":[-79.95478,40.35655]},"properties":{"p":"0246R00095000000","a":"WILLOCK AVE","m":"West Mifflin","u":"L","o":"corp","sf":10000,"v":15000}},{"type":"Feature","geometry":{"type":"Point","coordinates":[-79.95423,40.35642]},"properties":{"p":"0246R00097000000","a":"WILLOCK AVE","m":"West Mifflin","u":"L","o":"individual","sf":36524,"v":3300}},{"type":"Feature","geometry":{"type":"Point","coordinates":[-79.95458,40.35678]},"properties":{"p":"0246R00099000000","a":"WILLOCK AVE","m":"West Mifflin","u":"L","o":"individual","sf":10000,"v":900}},{"type":"Feature","geometry":{"type":"Point","coordinates":[-79.95421,40.35673]},"properties":{"p":"0246R00101000000","a":"WILLOCK AVE","m":"West Mifflin","u":"L","o":"individual","sf":22371,"v":2000}},{"type":"Feature","geometry":{"type":"Point","coordinates":[-79.95534,40.35739]},"properties":{"p":"0246R00167000000","a":"STREETS RUN RD","m":"West Mifflin","u":"L","o":"corp","sf":12458,"v":1100}},{"type":"Feature","geometry":{"type":"Point","coordinates":[-79.95199,40.35809]},"properties":{"p":"0246M00351000000","a":"WILLOCK AVE","m":"West Mifflin","u":"L","o":"individual","sf":500,"v":100}},{"type":"Feature","geometry":{"type":"Point","coordinates":[-79.959,40.35155]},"properties":{"p":"0313F00150000000","a":"STREETS RUN RD","m":"West Mifflin","u":"L","o":"corp","sf":35213,"v":21400}},{"type":"Feature","geometry":{"type":"Point","coordinates":[-79.95557,40.35528]},"properties":{"p":"0313C00238000000","a":"124 WILLOCK AVE","m":"West Mifflin","u":"L","o":"individual","sf":19147,"v":9000}},{"type":"Feature","geometry":{"type":"Point","coordinates":[-79.95725,40.36238]},"properties":{"p":"0246G00100000000","a":"HOLLYROOD DR","m":"Baldwin Boro","u":"L","o":"corp","sf":286189,"v":56100}},{"type":"Feature","geometry":{"type":"Point","coordinates":[-79.95767,40.35453]},"properties":{"p":"0313F00300000000","a":"STREETS RUN RD","m":"Baldwin Boro","u":"L","o":"individual","sf":64469,"v":5900}},{"type":"Feature","geometry":{"type":"Point","coordinates":[-79.95645,40.35788]},"properties":{"p":"0246L00168000000","a":"STREETS RUN RD","m":"Baldwin Boro","u":"L","o":"individual","sf":77101,"v":900}},{"type":"Feature","geometry":{"type":"Point","coordinates":[-79.95516,40.3584]},"properties":{"p":"0246L00169000000","a":"1641 STREETS RUN RD","m":"Baldwin Boro","u":"L","o":"individual","sf":3717,"v":1400}},{"type":"Feature","geometry":{"type":"Point","coordinates":[-79.95338,40.35938]},"properties":{"p":"0246M00025000000","a":"STREETS RUN RD","m":"Baldwin Boro","u":"L","o":"corp","sf":138085,"v":1600}},{"type":"Feature","geometry":{"type":"Point","coordinates":[-79.95736,40.3616]},"properties":{"p":"0246G00051000000","a":"HOLLYROOD RD","m":"Baldwin Boro","u":"L","o":"individual","sf":6450,"v":2400}},{"type":"Feature","geometry":{"type":"Point","coordinates":[-79.95052,40.36581]},"properties":{"p":"0187S00020000000","a":"BRENTWOOD RD","m":"Baldwin Boro","u":"L","o":"individual","sf":16000,"v":24300}},{"type":"Feature","geometry":{"type":"Point","coordinates":[-79.95214,40.36634]},"properties":{"p":"0187S00040000000","a":"BRENTWOOD RD","m":"Baldwin Boro","u":"L","o":"corp","sf":16000,"v":1500}},{"type":"Feature","geometry":{"type":"Point","coordinates":[-79.95011,40.36855]},"properties":{"p":"0186J00100000000","a":"STREETS RUN RD","m":"Baldwin Boro","u":"L","o":"individual","sf":1664645,"v":27200}},{"type":"Feature","geometry":{"type":"Point","coordinates":[-79.95101,40.3691]},"properties":{"p":"0187M00053000000","a":"WILLETT RD","m":"Baldwin Boro","u":"L","o":"individual","sf":11600,"v":3800}},{"type":"Feature","geometry":{"type":"Point","coordinates":[-79.95084,40.3692]},"properties":{"p":"0187M00055000000","a":"WILLETT RD","m":"Baldwin Boro","u":"L","o":"individual","sf":11600,"v":2700}},{"type":"Feature","geometry":{"type":"Point","coordinates":[-79.95067,40.36929]},"properties":{"p":"0187M00057000000","a":"WILLETT RD","m":"Baldwin Boro","u":"L","o":"individual","sf":11600,"v":2700}},{"type":"Feature","geometry":{"type":"Point","coordinates":[-79.9505,40.36938]},"properties":{"p":"0187M00059000000","a":"WILLETT RD","m":"Baldwin Boro","u":"L","o":"individual","sf":11600,"v":2600}},{"type":"Feature","geometry":{"type":"Point","coordinates":[-79.95031,40.36949]},"properties":{"p":"0187M00061000000","a":"WILLETT RD","m":"Baldwin Boro","u":"L","o":"individual","sf":15045,"v":3400}},{"type":"Feature","geometry":{"type":"Point","coordinates":[-79.95008,40.36962]},"properties":{"p":"0187M00063000000","a":"WILLETT RD","m":"Baldwin Boro","u":"L","o":"individual","sf":16440,"v":3800}},{"type":"Feature","geometry":{"type":"Point","coordinates":[-79.95988,40.36287]},"properties":{"p":"0246F00045000000","a":"HOLLYROOD DR","m":"Baldwin Boro","u":"L","o":"corp","sf":64512,"v":5900}},{"type":"Feature","geometry":{"type":"Point","coordinates":[-79.95123,40.36894]},"properties":{"p":"0187M00051000000","a":"WILLETT RD","m":"Baldwin Boro","u":"L","o":"individual","sf":24000,"v":7800}},{"type":"Feature","geometry":{"type":"Point","coordinates":[-79.95887,40.36121]},"properties":{"p":"0246F00124000000","a":"ELDERSLEE RD","m":"Baldwin Boro","u":"L","o":"individual","sf":7320,"v":2700}},{"type":"Feature","geometry":{"type":"Point","coordinates":[-79.94982,40.36461]},"properties":{"p":"0246D00050000000","a":"STREETS RUN RD","m":"Baldwin Boro","u":"L","o":"corp","sf":6533,"v":2200}},{"type":"Feature","geometry":{"type":"Point","coordinates":[-79.95488,40.36466]},"properties":{"p":"0246D00100000000","a":"STREETS RUN RD","m":"Baldwin Boro","u":"L","o":"individual","sf":6149923,"v":311500}},{"type":"Feature","geometry":{"type":"Point","coordinates":[-79.95526,40.36836]},"properties":{"p":"0187L00054000000","a":"BRENTWOOD RD","m":"Baldwin Boro","u":"L","o":"individual","sf":7150,"v":2400}},{"type":"Feature","geometry":{"type":"Point","coordinates":[-79.95074,40.35908]},"properties":{"p":"0246M00265000000","a":"WILLOCK AVE","m":"West Mifflin","u":"L","o":"individual","sf":12789,"v":1200}},{"type":"Feature","geometry":{"type":"Point","coordinates":[-79.95467,40.35594]},"properties":{"p":"0246R00084000000","a":"WILLOCK AVE","m":"West Mifflin","u":"L","o":"individual","sf":17936,"v":1600}},{"type":"Feature","geometry":{"type":"Point","coordinates":[-79.94978,40.36978]},"properties":{"p":"0187M00065000000","a":"WILLETT RD","m":"Baldwin Boro","u":"L","o":"individual","sf":24420,"v":5600}},{"type":"Feature","geometry":{"type":"Point","coordinates":[-79.95463,40.35765]},"properties":{"p":"0246R00157000000","a":"WILLOCK AVE","m":"West Mifflin","u":"L","o":"corp","sf":128066,"v":4500}}]}