{"type":"FeatureCollection","features":[{"type":"Feature","geometry":{"type":"Point","coordinates":[-79.94843,40.52194]},"properties":{"p":"0356N00175000000","a":"1120 WILLIAM FLYNN  HWY","m":"Shaler","u":"I","o":"corp","sf":2400,"v":400}},{"type":"Feature","geometry":{"type":"Point","coordinates":[-79.95292,40.51863]},"properties":{"p":"0284D00250000000","a":"1065 -1071 WILLIAM FLYNN HWY","m":"Shaler","u":"I","o":"corp","sf":225763,"v":301300}},{"type":"Feature","geometry":{"type":"Point","coordinates":[-79.94986,40.52437]},"properties":{"p":"0356J00235000000","a":"CLIFTON AVE","m":"Shaler","u":"I","o":"individual","sf":136343,"v":20000}},{"type":"Feature","geometry":{"type":"Point","coordinates":[-79.94483,40.52338]},"properties":{"p":"0356K00010000000","a":"BUTLER RD","m":"Shaler","u":"I","o":"corp","sf":62421,"v":11500}},{"type":"Feature","geometry":{"type":"Point","coordinates":[-79.9475,40.51085]},"properties":{"p":"0222A00196000000","a":"BUTLER ST","m":"Shaler","u":"C","o":"corp","sf":22126,"v":0}},{"type":"Feature","geometry":{"type":"Point","coordinates":[-79.94978,40.52693]},"properties":{"p":"0356E00302000000","a":"WILLIAM FLYNN HWY","m":"Shaler","u":"C","o":"corp","sf":2700,"v":1100}},{"type":"Feature","geometry":{"type":"Point","coordinates":[-79.94968,40.52695]},"properties":{"p":"0356E00303000000","a":"WILLIAM FLYNN HWY","m":"Shaler","u":"C","o":"individual","sf":3150,"v":500}},{"type":"Feature","geometry":{"type":"Point","coordinates":[-79.95171,40.51419]},"properties":{"p":"0284M00076000000","a":"WILLIAM FLYNN HWY","m":"Shaler","u":"C","o":"corp","sf":5235,"v":10500}},{"type":"Feature","geometry":{"type":"Point","coordinates":[-79.95111,40.51449]},"properties":{"p":"0284M00170000000","a":"WILLIAM FLYNN HWY","m":"Shaler","u":"C","o":"corp","sf":27924,"v":2600}},{"type":"Feature","geometry":{"type":"Point","coordinates":[-79.95879,40.51641]},"properties":{"p":"0284F00282000000","a":"904 MOUNT ROYAL BLVD","m":"Shaler","u":"C","o":"corp","sf":1808,"v":600}},{"type":"Feature","geometry":{"type":"Point","coordinates":[-79.94612,40.51239]},"properties":{"p":"0285N00128000000","a":"923 SAXONBURG BLVD","m":"Shaler","u":"C","o":"individual","sf":8180,"v":16400}},{"type":"Feature","geometry":{"type":"Point","coordinates":[-79.95758,40.51255]},"properties":{"p":"0284R00107000000","a":"E UNDERCLIFF ST","m":"Shaler","u":"C","o":"individual","sf":7187,"v":2900}},{"type":"Feature","geometry":{"type":"Point","coordinates":[-79.95728,40.51261]},"properties":{"p":"0284R00110000000","a":"E UNDERCLIFF ST","m":"Shaler","u":"C","o":"individual","sf":7188,"v":2900}},{"type":"Feature","geometry":{"type":"Point","coordinates":[-79.9493,40.51245]},"properties":{"p":"0284S00240000000","a":"BUTLER PLANK ST","m":"Shaler","u":"C","o":"corp","sf":76666,"v":7800}},{"type":"Feature","geometry":{"type":"Point","coordinates":[-79.94834,40.52549]},"properties":{"p":"0356J00140000000","a":"WILLIAM FLYNN HWY","m":"Shaler","u":"C","o":"corp","sf":58806,"v":23600}},{"type":"Feature","geometry":{"type":"Point","coordinates":[-79.95026,40.52744]},"properties":{"p":"0355H00038000000","a":"1302 WILLIAM FLYNN HWY","m":"Shaler","u":"C","o":"individual","sf":1450,"v":2900}},{"type":"Feature","geometry":{"type":"Point","coordinates":[-79.95035,40.52756]},"properties":{"p":"0355H00041000000","a":"BUTLER RD","m":"Shaler","u":"C","o":"individual","sf":320,"v":100}},{"type":"Feature","geometry":{"type":"Point","coordinates":[-79.94589,40.51066]},"properties":{"p":"0222A00222000000","a":"BUTLER ST","m":"Shaler","u":"C","o":"corp","sf":1873,"v":1300}},{"type":"Feature","geometry":{"type":"Point","coordinates":[-79.94626,40.52418]},"properties":{"p":"0356J00065000000","a":"WILLOW ST","m":"Shaler","u":"C","o":"individual","sf":65906,"v":800}},{"type":"Feature","geometry":{"type":"Point","coordinates":[-79.95144,40.51433]},"properties":{"p":"0284M00175000000","a":"WILLIAM FLYNN HWY","m":"Shaler","u":"C","o":"corp","sf":40039,"v":46000}},{"type":"Feature","geometry":{"type":"Point","coordinates":[-79.95169,40.51014]},"properties":{"p":"0221D00311000000","a":"7 REESE AVE","m":"Shaler","u":"L","o":"individual","sf":2288,"v":900}},{"type":"Feature","geometry":{"type":"Point","coordinates":[-79.943,40.51047]},"properties":{"p":"0222B00100000000","a":"WILLIAM FLYNN HWY","m":"Shaler","u":"L","o":"individual","sf":475335,"v":60500}},{"type":"Feature","geometry":{"type":"Point","coordinates":[-79.9415,40.51058]},"properties":{"p":"0222B00125000000","a":"BADALI DR","m":"Shaler","u":"L","o":"individual","sf":21740,"v":7700}},{"type":"Feature","geometry":{"type":"Point","coordinates":[-79.94982,40.51052]},"properties":{"p":"0221D00280000000","a":"REESE AVE","m":"Shaler","u":"L","o":"individual","sf":90256,"v":42800}},{"type":"Feature","geometry":{"type":"Point","coordinates":[-79.9512,40.51056]},"properties":{"p":"0221D00292000000","a":"FISCHER AVE","m":"Shaler","u":"L","o":"corp","sf":5037,"v":10000}},{"type":"Feature","geometry":{"type":"Point","coordinates":[-79.94901,40.51022]},"properties":{"p":"0222A00300000000","a":"ELIZABETH ST","m":"Shaler","u":"L","o":"individual","sf":66865,"v":40700}},{"type":"Feature","geometry":{"type":"Point","coordinates":[-79.94852,40.51031]},"properties":{"p":"0222A00030000000","a":"REESE AVE","m":"Shaler","u":"L","o":"individual","sf":3693,"v":1400}},{"type":"Feature","geometry":{"type":"Point","coordinates":[-79.9484,40.51007]},"properties":{"p":"0222A00056000000","a":"GRACE AVE","m":"Shaler","u":"L","o":"individual","sf":3319,"v":1300}},{"type":"Feature","geometry":{"type":"Point","coordinates":[-79.95965,40.51044]},"properties":{"p":"0221B00125000000","a":"IRENE ST","m":"Shaler","u":"L","o":"individual","sf":22905,"v":36600}},{"type":"Feature","geometry":{"type":"Point","coordinates":[-79.94039,40.511]},"properties":{"p":"0222C00085000000","a":"BADALI DR","m":"Shaler","u":"L","o":"individual","sf":1499,"v":600}},{"type":"Feature","geometry":{"type":"Point","coordinates":[-79.94778,40.52727]},"properties":{"p":"0356E00181000000","a":"ELM ST","m":"Shaler","u":"L","o":"individual","sf":2750,"v":300}},{"type":"Feature","geometry":{"type":"Point","coordinates":[-79.95282,40.52167]},"properties":{"p":"0355S00217000000","a":"CLIFTON AVE","m":"Shaler","u":"L","o":"individual","sf":7200,"v":2600}},{"type":"Feature","geometry":{"type":"Point","coordinates":[-79.9583,40.52728]},"properties":{"p":"0355G00150000000","a":"CLINTON RD","m":"Shaler","u":"L","o":"individual","sf":204732,"v":53400}},{"type":"Feature","geometry":{"type":"Point","coordinates":[-79.95439,40.52295]},"properties":{"p":"0355R00307000000","a":"GLENN AVE","m":"Shaler","u":"L","o":"individual","sf":9853,"v":17900}},{"type":"Feature","geometry":{"type":"Point","coordinates":[-79.95916,40.52385]},"properties":{"p":"0355K00114000000","a":"ZEUGER ST","m":"Shaler","u":"L","o":"individual","sf":18055,"v":6400}},{"type":"Feature","geometry":{"type":"Point","coordinates":[-79.95625,40.52603]},"properties":{"p":"0355G00218000000","a":"GLENSHAW AVE","m":"Shaler","u":"L","o":"individual","sf":22284,"v":7900}},{"type":"Feature","geometry":{"type":"Point","coordinates":[-79.94763,40.52693]},"properties":{"p":"0356E00149000000","a":"BEECH ST","m":"Shaler","u":"L","o":"corp","sf":5500,"v":36500}},{"type":"Feature","geometry":{"type":"Point","coordinates":[-79.94731,40.52694]},"properties":{"p":"0356E00153000000","a":"BEECH ST","m":"Shaler","u":"L","o":"individual","sf":2750,"v":300}},{"type":"Feature","geometry":{"type":"Point","coordinates":[-79.94911,40.52712]},"properties":{"p":"0356E00254000000","a":"WILLOW ST","m":"Shaler","u":"L","o":"individual","sf":11000,"v":48000}},{"type":"Feature","geometry":{"type":"Point","coordinates":[-79.94899,40.52641]},"properties":{"p":"0356E00258000000","a":"WILLOW ST","m":"Shaler","u":"L","o":"individual","sf":20849,"v":51000}},{"type":"Feature","geometry":{"type":"Point","coordinates":[-79.95287,40.52433]},"properties":{"p":"0355M00269000000","a":"HIGHLAND AVE","m":"Shaler","u":"L","o":"corp","sf":8024,"v":17800}},{"type":"Feature","geometry":{"type":"Point","coordinates":[-79.9478,40.52651]},"properties":{"p":"0356E00124000000","a":"BEECH ST","m":"Shaler","u":"L","o":"corp","sf":5500,"v":36500}},{"type":"Feature","geometry":{"type":"Point","coordinates":[-79.94793,40.52651]},"properties":{"p":"0356E00125000000","a":"BEECH ST","m":"Shaler","u":"L","o":"individual","sf":2750,"v":300}},{"type":"Feature","geometry":{"type":"Point","coordinates":[-79.94819,40.5265]},"properties":{"p":"0356E00128000000","a":"BEECH ST","m":"Shaler","u":"L","o":"corp","sf":2943,"v":300}},{"type":"Feature","geometry":{"type":"Point","coordinates":[-79.94833,40.5265]},"properties":{"p":"0356E00130000000","a":"BEECH ST","m":"Shaler","u":"L","o":"individual","sf":5500,"v":36500}},{"type":"Feature","geometry":{"type":"Point","coordinates":[-79.9485,40.5265]},"properties":{"p":"0356E00132000000","a":"BEECH ST","m":"Shaler","u":"L","o":"individual","sf":5500,"v":36500}},{"type":"Feature","geometry":{"type":"Point","coordinates":[-79.94712,40.52653]},"properties":{"p":"0356E00200000000","a":"BEECH ST","m":"Shaler","u":"L","o":"corp","sf":2750,"v":300}},{"type":"Feature","geometry":{"type":"Point","coordinates":[-79.94805,40.52768]},"properties":{"p":"0356E00202000000","a":"ELM ST","m":"Shaler","u":"L","o":"corp","sf":8250,"v":42200}},{"type":"Feature","geometry":{"type":"Point","coordinates":[-79.94752,40.52769]},"properties":{"p":"0356E00209000000","a":"ELM ST","m":"Shaler","u":"L","o":"corp","sf":2750,"v":300}},{"type":"Feature","geometry":{"type":"Point","coordinates":[-79.95944,40.52379]},"properties":{"p":"0355K00189000000","a":"ZEUGER ST","m":"Shaler","u":"L","o":"individual","sf":1766,"v":700}},{"type":"Feature","geometry":{"type":"Point","coordinates":[-79.94874,40.52776]},"properties":{"p":"0356E00237000000","a":"WILLOW ST","m":"Shaler","u":"L","o":"corp","sf":2050,"v":200}},{"type":"Feature","geometry":{"type":"Point","coordinates":[-79.95152,40.52245]},"properties":{"p":"0355S00234000000","a":"CLIFTON AVE","m":"Shaler","u":"L","o":"individual","sf":585,"v":400}},{"type":"Feature","geometry":{"type":"Point","coordinates":[-79.95304,40.52507]},"properties":{"p":"0355M00347000000","a":"HIGHLAND AVE","m":"Shaler","u":"L","o":"individual","sf":1620,"v":700}},{"type":"Feature","geometry":{"type":"Point","coordinates":[-79.95222,40.52506]},"properties":{"p":"0355M00358000000","a":"HIGHLAND AVE","m":"Shaler","u":"L","o":"individual","sf":15735,"v":5600}},{"type":"Feature","geometry":{"type":"Point","coordinates":[-79.94079,40.52123]},"properties":{"p":"0356R00020000000","a":"MIDDLE RD","m":"Shaler","u":"L","o":"individual","sf":27026,"v":3000}},{"type":"Feature","geometry":{"type":"Point","coordinates":[-79.94076,40.52323]},"properties":{"p":"0356R00043000000","a":"MIDDLE RD","m":"Shaler","u":"L","o":"individual","sf":25911,"v":2900}},{"type":"Feature","geometry":{"type":"Point","coordinates":[-79.95337,40.52543]},"properties":{"p":"0355M00375000000","a":"HIGHLAND AVE","m":"Shaler","u":"L","o":"corp","sf":1867,"v":800}},{"type":"Feature","geometry":{"type":"Point","coordinates":[-79.95271,40.52242]},"properties":{"p":"0355S00066000000","a":"KING OAKS AVE","m":"Shaler","u":"L","o":"individual","sf":7500,"v":2700}},{"type":"Feature","geometry":{"type":"Point","coordinates":[-79.95152,40.51107]},"properties":{"p":"0221C00325000000","a":"FISCHER AVE","m":"Shaler","u":"L","o":"corp","sf":116597,"v":45300}},{"type":"Feature","geometry":{"type":"Point","coordinates":[-79.95115,40.5193]},"properties":{"p":"0284D00048000000","a":"WILLIAM FLYNN HWY","m":"Shaler","u":"L","o":"individual","sf":13899,"v":50300}},{"type":"Feature","geometry":{"type":"Point","coordinates":[-79.95695,40.52016]},"properties":{"p":"0284C00116000000","a":"1314 LINDBERGH AVE","m":"Shaler","u":"L","o":"individual","sf":5000,"v":35000}},{"type":"Feature","geometry":{"type":"Point","coordinates":[-79.94539,40.51261]},"properties":{"p":"0285N00144000000","a":"SAXONBURG BLVD","m":"Shaler","u":"L","o":"individual","sf":1481,"v":600}},{"type":"Feature","geometry":{"type":"Point","coordinates":[-79.95605,40.51523]},"properties":{"p":"0284L00256000000","a":"GROVER ST","m":"Shaler","u":"L","o":"individual","sf":2500,"v":1000}},{"type":"Feature","geometry":{"type":"Point","coordinates":[-79.95595,40.5152]},"properties":{"p":"0284L00257000000","a":"GROVER ST","m":"Shaler","u":"L","o":"individual","sf":2500,"v":1000}},{"type":"Feature","geometry":{"type":"Point","coordinates":[-79.95582,40.51481]},"properties":{"p":"0284L00263000000","a":"GROVER ST","m":"Shaler","u":"L","o":"individual","sf":2500,"v":1000}},{"type":"Feature","geometry":{"type":"Point","coordinates":[-79.95563,40.51449]},"properties":{"p":"0284L00269000000","a":"201 E PENNVIEW ST","m":"Shaler","u":"L","o":"individual","sf":2500,"v":1000}},{"type":"Feature","geometry":{"type":"Point","coordinates":[-79.95523,40.51341]},"properties":{"p":"0284L00021000000","a":"ALMA ST","m":"Shaler","u":"L","o":"individual","sf":2500,"v":1000}},{"type":"Feature","geometry":{"type":"Point","coordinates":[-79.95532,40.5134]},"properties":{"p":"0284L00022000000","a":"ALMA ST","m":"Shaler","u":"L","o":"individual","sf":2500,"v":1000}},{"type":"Feature","geometry":{"type":"Point","coordinates":[-79.95694,40.51349]},"properties":{"p":"0284L00034000000","a":"189 ALMA ST","m":"Shaler","u":"L","o":"individual","sf":2500,"v":1000}},{"type":"Feature","geometry":{"type":"Point","coordinates":[-79.95801,40.51432]},"properties":{"p":"0284L00122000000","a":"ARGONNE AVE","m":"Shaler","u":"L","o":"individual","sf":4195,"v":1600}},{"type":"Feature","geometry":{"type":"Point","coordinates":[-79.95803,40.51442]},"properties":{"p":"0284L00124000000","a":"ARGONNE AVE","m":"Shaler","u":"L","o":"individual","sf":2240,"v":900}},{"type":"Feature","geometry":{"type":"Point","coordinates":[-79.95803,40.51533]},"properties":{"p":"0284L00138000000","a":"ARGONNE AVE","m":"Shaler","u":"L","o":"individual","sf":2500,"v":1000}},{"type":"Feature","geometry":{"type":"Point","coordinates":[-79.9579,40.51521]},"properties":{"p":"0284L00139000000","a":"ARGONNE AVE","m":"Shaler","u":"L","o":"individual","sf":10000,"v":3600}},{"type":"Feature","geometry":{"type":"Point","coordinates":[-79.95782,40.51498]},"properties":{"p":"0284L00145000000","a":"818 ARGONNE AVE","m":"Shaler","u":"L","o":"individual","sf":2500,"v":1000}},{"type":"Feature","geometry":{"type":"Point","coordinates":[-79.95779,40.51487]},"properties":{"p":"0284L00146000000","a":"ARGONNE AVE","m":"Shaler","u":"L","o":"individual","sf":5000,"v":35000}},{"type":"Feature","geometry":{"type":"Point","coordinates":[-79.95979,40.5147]},"properties":{"p":"0284K00195000000","a":"803 MOUNT ROYAL BLVD","m":"Shaler","u":"L","o":"individual","sf":6750,"v":35200}},{"type":"Feature","geometry":{"type":"Point","coordinates":[-79.95897,40.51233]},"properties":{"p":"0284P00161000000","a":"LOUANN ST","m":"Shaler","u":"L","o":"individual","sf":5000,"v":35000}},{"type":"Feature","geometry":{"type":"Point","coordinates":[-79.94111,40.51075]},"properties":{"p":"0285R00036000000","a":"BADALI DR","m":"Shaler","u":"L","o":"individual","sf":46174,"v":4200}},{"type":"Feature","geometry":{"type":"Point","coordinates":[-79.95675,40.51506]},"properties":{"p":"0284L00207000000","a":"ROSEMONT AVE","m":"Shaler","u":"L","o":"individual","sf":2500,"v":1000}},{"type":"Feature","geometry":{"type":"Point","coordinates":[-79.95238,40.51302]},"properties":{"p":"0284S00031000000","a":"PENNYVIEW ST","m":"Shaler","u":"L","o":"individual","sf":871,"v":400}},{"type":"Feature","geometry":{"type":"Point","coordinates":[-79.94602,40.51417]},"properties":{"p":"0285J00038000000","a":"939 MIDDLE RD","m":"Shaler","u":"L","o":"individual","sf":9840,"v":35400}},{"type":"Feature","geometry":{"type":"Point","coordinates":[-79.94542,40.51239]},"properties":{"p":"0285N00134000000","a":"SAXONBURG BLVD","m":"Shaler","u":"L","o":"individual","sf":2150,"v":5700}},{"type":"Feature","geometry":{"type":"Point","coordinates":[-79.95504,40.52914]},"properties":{"p":"0355C00077000000","a":"GLENSHAW AVE","m":"Shaler","u":"L","o":"individual","sf":18347,"v":6500}},{"type":"Feature","geometry":{"type":"Point","coordinates":[-79.95476,40.52927]},"properties":{"p":"0355C00079000000","a":"GLENSHAW AVE","m":"Shaler","u":"L","o":"individual","sf":11281,"v":4000}},{"type":"Feature","geometry":{"type":"Point","coordinates":[-79.95563,40.52027]},"properties":{"p":"0284C00220000000","a":"LEA ST","m":"Shaler","u":"L","o":"individual","sf":18088,"v":36200}},{"type":"Feature","geometry":{"type":"Point","coordinates":[-79.95547,40.51594]},"properties":{"p":"0284G00101000000","a":"656 EDGECLIFF AVE","m":"Shaler","u":"L","o":"individual","sf":1100,"v":500}},{"type":"Feature","geometry":{"type":"Point","coordinates":[-79.95776,40.5129]},"properties":{"p":"0284R00096000000","a":"ALMA ST","m":"Shaler","u":"L","o":"individual","sf":5000,"v":1900}},{"type":"Feature","geometry":{"type":"Point","coordinates":[-79.95627,40.51463]},"properties":{"p":"0284L00227000000","a":"GROVER ST","m":"Shaler","u":"L","o":"corp","sf":5000,"v":35000}},{"type":"Feature","geometry":{"type":"Point","coordinates":[-79.94527,40.51509]},"properties":{"p":"0285K00032000000","a":"MIDDLE RD","m":"Shaler","u":"L","o":"corp","sf":18105,"v":6400}},{"type":"Feature","geometry":{"type":"Point","coordinates":[-79.95685,40.51383]},"properties":{"p":"0284L00097000000","a":"E PENNVIEW ST","m":"Shaler","u":"L","o":"individual","sf":2500,"v":1000}},{"type":"Feature","geometry":{"type":"Point","coordinates":[-79.95703,40.51379]},"properties":{"p":"0284L00099000000","a":"E PENNVIEW ST","m":"Shaler","u":"L","o":"individual","sf":2500,"v":1000}},{"type":"Feature","geometry":{"type":"Point","coordinates":[-79.95684,40.51192]},"properties":{"p":"0284R00225000000","a":"CLOVER ST","m":"Shaler","u":"L","o":"individual","sf":12278,"v":35700}},{"type":"Feature","geometry":{"type":"Point","coordinates":[-79.95706,40.51222]},"properties":{"p":"0284R00229000000","a":"CLOVER ST","m":"Shaler","u":"L","o":"individual","sf":6139,"v":35100}},{"type":"Feature","geometry":{"type":"Point","coordinates":[-79.9574,40.51372]},"properties":{"p":"0284L00104000000","a":"E PENNVIEW ST","m":"Shaler","u":"L","o":"individual","sf":2500,"v":1000}},{"type":"Feature","geometry":{"type":"Point","coordinates":[-79.9575,40.5137]},"properties":{"p":"0284L00105000000","a":"E PENNVIEW ST","m":"Shaler","u":"L","o":"individual","sf":2500,"v":1000}},{"type":"Feature","geometry":{"type":"Point","coordinates":[-79.94128,40.51276]},"properties":{"p":"0285K00320000000","a":"SAXONBURG BLVD","m":"Shaler","u":"L","o":"corp","sf":337154,"v":5800}},{"type":"Feature","geometry":{"type":"Point","coordinates":[-79.94427,40.51584]},"properties":{"p":"0285K00375000000","a":"SAXONBURG BLVD","m":"Shaler","u":"L","o":"corp","sf":81022,"v":7400}},{"type":"Feature","geometry":{"type":"Point","coordinates":[-79.95543,40.5179]},"properties":{"p":"0284G00211000000","a":"ORVIS AVE","m":"Shaler","u":"L","o":"individual","sf":9516,"v":3400}},{"type":"Feature","geometry":{"type":"Point","coordinates":[-79.95425,40.51437]},"properties":{"p":"0284L00325000000","a":"E PENNVIEW ST","m":"Shaler","u":"L","o":"individual","sf":2500,"v":1000}},{"type":"Feature","geometry":{"type":"Point","coordinates":[-79.94529,40.51258]},"properties":{"p":"0285P00035000000","a":"SAXONBURG BLVD","m":"Shaler","u":"L","o":"individual","sf":2006,"v":800}},{"type":"Feature","geometry":{"type":"Point","coordinates":[-79.94526,40.51273]},"properties":{"p":"0285P00039000000","a":"SAXONBURG BLVD","m":"Shaler","u":"L","o":"individual","sf":2701,"v":1000}},{"type":"Feature","geometry":{"type":"Point","coordinates":[-79.95745,40.51527]},"properties":{"p":"0284L00184000000","a":"815 ROSEMONT AVE","m":"Shaler","u":"L","o":"individual","sf":6250,"v":2300}},{"type":"Feature","geometry":{"type":"Point","coordinates":[-79.95757,40.51561]},"properties":{"p":"0284L00191000000","a":"ROSEMONT AVE","m":"Shaler","u":"L","o":"individual","sf":5000,"v":35000}},{"type":"Feature","geometry":{"type":"Point","coordinates":[-79.957,40.51551]},"properties":{"p":"0284L00198000000","a":"ROSEMONT AVE","m":"Shaler","u":"L","o":"individual","sf":5000,"v":17500}},{"type":"Feature","geometry":{"type":"Point","coordinates":[-79.95697,40.51541]},"properties":{"p":"0284L00200000000","a":"ROSEMONT AVE","m":"Shaler","u":"L","o":"individual","sf":2500,"v":1000}},{"type":"Feature","geometry":{"type":"Point","coordinates":[-79.95695,40.51535]},"properties":{"p":"0284L00201000000","a":"ROSEMONT AVE","m":"Shaler","u":"L","o":"individual","sf":2500,"v":1000}},{"type":"Feature","geometry":{"type":"Point","coordinates":[-79.95781,40.51331]},"properties":{"p":"0284R00063000000","a":"181 ALMA ST","m":"Shaler","u":"L","o":"individual","sf":2500,"v":1000}},{"type":"Feature","geometry":{"type":"Point","coordinates":[-79.94348,40.51684]},"properties":{"p":"0285F00200000000","a":"SAXONBURG BLVD","m":"Shaler","u":"L","o":"corp","sf":150064,"v":13800}},{"type":"Feature","geometry":{"type":"Point","coordinates":[-79.95476,40.51422]},"properties":{"p":"0284L00072000000","a":"E PENNVIEW ST","m":"Shaler","u":"L","o":"individual","sf":2500,"v":1000}},{"type":"Feature","geometry":{"type":"Point","coordinates":[-79.95621,40.51395]},"properties":{"p":"0284L00090000000","a":"E PENNVIEW ST","m":"Shaler","u":"L","o":"individual","sf":2500,"v":1000}},{"type":"Feature","geometry":{"type":"Point","coordinates":[-79.95629,40.51317]},"properties":{"p":"0284R00079000000","a":"ALMA ST","m":"Shaler","u":"L","o":"individual","sf":300,"v":200}},{"type":"Feature","geometry":{"type":"Point","coordinates":[-79.95917,40.51209]},"properties":{"p":"0284P00224000000","a":"LOUANN ST","m":"Shaler","u":"L","o":"individual","sf":6268,"v":35100}},{"type":"Feature","geometry":{"type":"Point","coordinates":[-79.95957,40.51195]},"properties":{"p":"0284P00229000000","a":"W PENNVIEW ST","m":"Shaler","u":"L","o":"individual","sf":7011,"v":35200}},{"type":"Feature","geometry":{"type":"Point","coordinates":[-79.94776,40.51907]},"properties":{"p":"0285A00350000000","a":"GLEN MALCOLM DR","m":"Shaler","u":"L","o":"corp","sf":9235,"v":5000}},{"type":"Feature","geometry":{"type":"Point","coordinates":[-79.9424,40.51877]},"properties":{"p":"0285B00020000000","a":"SAXONBURG BLVD","m":"Shaler","u":"L","o":"individual","sf":51706,"v":39300}},{"type":"Feature","geometry":{"type":"Point","coordinates":[-79.94716,40.52266]},"properties":{"p":"0353L00075000000","a":"WILLIAM FLYNN HWY","m":"Shaler","u":"L","o":"corp","sf":74052,"v":8500}},{"type":"Feature","geometry":{"type":"Point","coordinates":[-79.94331,40.51883]},"properties":{"p":"0285B00090000000","a":"GLEN MALCOLM DR","m":"Shaler","u":"L","o":"corp","sf":57064,"v":55200}},{"type":"Feature","geometry":{"type":"Point","coordinates":[-79.94426,40.51829]},"properties":{"p":"0285B00120000000","a":"MIDDLE RD","m":"Shaler","u":"L","o":"individual","sf":60548,"v":55600}},{"type":"Feature","geometry":{"type":"Point","coordinates":[-79.95542,40.51492]},"properties":{"p":"0284L00279000000","a":"EDGECLIFF AVE","m":"Shaler","u":"L","o":"individual","sf":5000,"v":35000}},{"type":"Feature","geometry":{"type":"Point","coordinates":[-79.95546,40.51505]},"properties":{"p":"0284L00281000000","a":"EDGECLIFF AVE","m":"Shaler","u":"L","o":"individual","sf":5000,"v":35000}},{"type":"Feature","geometry":{"type":"Point","coordinates":[-79.9555,40.51515]},"properties":{"p":"0284L00282000000","a":"EDGECLIFF AVE","m":"Shaler","u":"L","o":"individual","sf":2500,"v":1000}},{"type":"Feature","geometry":{"type":"Point","coordinates":[-79.95759,40.51456]},"properties":{"p":"0284L00153000000","a":"814 ARGONNE AVE","m":"Shaler","u":"L","o":"individual","sf":2500,"v":1000}},{"type":"Feature","geometry":{"type":"Point","coordinates":[-79.95734,40.51417]},"properties":{"p":"0284L00162000000","a":"E PENNVIEW ST","m":"Shaler","u":"L","o":"individual","sf":2500,"v":1000}},{"type":"Feature","geometry":{"type":"Point","coordinates":[-79.95725,40.51419]},"properties":{"p":"0284L00163000000","a":"E PENNVIEW ST","m":"Shaler","u":"L","o":"individual","sf":2500,"v":1000}},{"type":"Feature","geometry":{"type":"Point","coordinates":[-79.95601,40.51367]},"properties":{"p":"0284L00048000000","a":"199 ALMA ST","m":"Shaler","u":"L","o":"individual","sf":2500,"v":1000}},{"type":"Feature","geometry":{"type":"Point","coordinates":[-79.95475,40.51391]},"properties":{"p":"0284L00064000000","a":"ALMA ST","m":"Shaler","u":"L","o":"individual","sf":2500,"v":1000}},{"type":"Feature","geometry":{"type":"Point","coordinates":[-79.95698,40.51425]},"properties":{"p":"0284L00166000000","a":"E PENNVIEW ST","m":"Shaler","u":"L","o":"individual","sf":3250,"v":1200}},{"type":"Feature","geometry":{"type":"Point","coordinates":[-79.94654,40.52402]},"properties":{"p":"0356J00095000000","a":"BUTLER PLANK RD","m":"Shaler","u":"L","o":"corp","sf":3438,"v":400}},{"type":"Feature","geometry":{"type":"Point","coordinates":[-79.94676,40.52339]},"properties":{"p":"0356J00120000000","a":"WILLIAM FLYNN  HWY","m":"Shaler","u":"L","o":"corp","sf":18077,"v":20000}},{"type":"Feature","geometry":{"type":"Point","coordinates":[-79.95786,40.52343]},"properties":{"p":"0355L00044000000","a":"OAK AVE","m":"Shaler","u":"L","o":"individual","sf":17550,"v":36100}},{"type":"Feature","geometry":{"type":"Point","coordinates":[-79.95244,40.52813]},"properties":{"p":"0355D00045000000","a":"CHARLES ST","m":"Shaler","u":"L","o":"individual","sf":19868,"v":7100}},{"type":"Feature","geometry":{"type":"Point","coordinates":[-79.95174,40.52533]},"properties":{"p":"0355M00185000000","a":"GLENN AVE","m":"Shaler","u":"L","o":"individual","sf":32670,"v":11500}},{"type":"Feature","geometry":{"type":"Point","coordinates":[-79.95237,40.52412]},"properties":{"p":"0355M00220000000","a":"GLENN AVE","m":"Shaler","u":"L","o":"individual","sf":183388,"v":51400}},{"type":"Feature","geometry":{"type":"Point","coordinates":[-79.95288,40.52447]},"properties":{"p":"0355M00266000000","a":"NORTH PARK AVE","m":"Shaler","u":"L","o":"individual","sf":8100,"v":2900}},{"type":"Feature","geometry":{"type":"Point","coordinates":[-79.94285,40.52938]},"properties":{"p":"0356B00059000000","a":"CHERRYWOOD DR","m":"Shaler","u":"L","o":"individual","sf":19331,"v":25800}},{"type":"Feature","geometry":{"type":"Point","coordinates":[-79.95435,40.52643]},"properties":{"p":"0355H00226000000","a":"CHARLES ST","m":"Shaler","u":"L","o":"individual","sf":1375,"v":600}},{"type":"Feature","geometry":{"type":"Point","coordinates":[-79.95371,40.52632]},"properties":{"p":"0355H00227000000","a":"CHARLES ST","m":"Shaler","u":"L","o":"individual","sf":7020,"v":2600}},{"type":"Feature","geometry":{"type":"Point","coordinates":[-79.94804,40.52576]},"properties":{"p":"0356E00073000000","a":"WILLOW ST","m":"Shaler","u":"L","o":"corp","sf":13910,"v":50300}},{"type":"Feature","geometry":{"type":"Point","coordinates":[-79.94814,40.52616]},"properties":{"p":"0356E00084000000","a":"LINDEN ST","m":"Shaler","u":"L","o":"corp","sf":5500,"v":36500}},{"type":"Feature","geometry":{"type":"Point","coordinates":[-79.94796,40.52617]},"properties":{"p":"0356E00086000000","a":"LINDEN ST","m":"Shaler","u":"L","o":"corp","sf":5500,"v":36500}},{"type":"Feature","geometry":{"type":"Point","coordinates":[-79.95787,40.52183]},"properties":{"p":"0355R00053000000","a":"PENNSYLVANIA AVE","m":"Shaler","u":"L","o":"individual","sf":15720,"v":5600}},{"type":"Feature","geometry":{"type":"Point","coordinates":[-79.94688,40.52503]},"properties":{"p":"0356J00025000000","a":"WILLOW ST","m":"Shaler","u":"L","o":"corp","sf":8066,"v":41900}},{"type":"Feature","geometry":{"type":"Point","coordinates":[-79.94665,40.52503]},"properties":{"p":"0356J00028000000","a":"1211 MAPLE ST","m":"Shaler","u":"L","o":"individual","sf":5500,"v":36500}},{"type":"Feature","geometry":{"type":"Point","coordinates":[-79.94624,40.52504]},"properties":{"p":"0356J00032000000","a":"MAPLE ST","m":"Shaler","u":"L","o":"individual","sf":11000,"v":48000}},{"type":"Feature","geometry":{"type":"Point","coordinates":[-79.94597,40.52504]},"properties":{"p":"0356J00036000000","a":"HAZEL ST","m":"Shaler","u":"L","o":"individual","sf":5500,"v":600}},{"type":"Feature","geometry":{"type":"Point","coordinates":[-79.94688,40.52544]},"properties":{"p":"0356J00051000000","a":"HAZEL ST","m":"Shaler","u":"L","o":"individual","sf":8250,"v":900}},{"type":"Feature","geometry":{"type":"Point","coordinates":[-79.94743,40.52543]},"properties":{"p":"0356J00056000000","a":"HAZEL ST","m":"Shaler","u":"L","o":"corp","sf":2860,"v":300}},{"type":"Feature","geometry":{"type":"Point","coordinates":[-79.94626,40.52608]},"properties":{"p":"0356E00045000000","a":"MAPLE AVE","m":"Shaler","u":"L","o":"individual","sf":5500,"v":1100}},{"type":"Feature","geometry":{"type":"Point","coordinates":[-79.94625,40.52572]},"properties":{"p":"0356E00052000000","a":"MAPLE ST","m":"Shaler","u":"L","o":"corp","sf":6600,"v":38800}},{"type":"Feature","geometry":{"type":"Point","coordinates":[-79.94731,40.52577]},"properties":{"p":"0356E00064000000","a":"LINDEN ST","m":"Shaler","u":"L","o":"corp","sf":5500,"v":36500}},{"type":"Feature","geometry":{"type":"Point","coordinates":[-79.94767,40.52576]},"properties":{"p":"0356E00070000000","a":"LINDEN ST","m":"Shaler","u":"L","o":"corp","sf":5500,"v":36500}},{"type":"Feature","geometry":{"type":"Point","coordinates":[-79.94785,40.52576]},"properties":{"p":"0356E00072000000","a":"LINDEN ST","m":"Shaler","u":"L","o":"corp","sf":5500,"v":36500}},{"type":"Feature","geometry":{"type":"Point","coordinates":[-79.94586,40.52546]},"properties":{"p":"0356K00150000000","a":"LINDEN ST","m":"Shaler","u":"L","o":"individual","sf":20225,"v":2200}},{"type":"Feature","geometry":{"type":"Point","coordinates":[-79.95905,40.5223]},"properties":{"p":"0355P00295000000","a":"ELLA ST","m":"Shaler","u":"L","o":"individual","sf":2439,"v":8500}},{"type":"Feature","geometry":{"type":"Point","coordinates":[-79.95254,40.52991]},"properties":{"p":"0355D00235000000","a":"BUTLER RD","m":"Shaler","u":"L","o":"corp","sf":4340,"v":500}},{"type":"Feature","geometry":{"type":"Point","coordinates":[-79.95578,40.52136]},"properties":{"p":"0355R00136000000","a":"PENNSYLVANIA AVE","m":"Shaler","u":"L","o":"individual","sf":3298,"v":1300}},{"type":"Feature","geometry":{"type":"Point","coordinates":[-79.9463,40.52704]},"properties":{"p":"0356E00029000000","a":"1232 1/2 MAPLE ST","m":"Shaler","u":"L","o":"individual","sf":5500,"v":2000}},{"type":"Feature","geometry":{"type":"Point","coordinates":[-79.95743,40.52453]},"properties":{"p":"0355L00068000000","a":"ELM ST","m":"Shaler","u":"L","o":"individual","sf":9757,"v":3500}},{"type":"Feature","geometry":{"type":"Point","coordinates":[-79.9456,40.52407]},"properties":{"p":"0356K00028000000","a":"WILLOW ST","m":"Shaler","u":"L","o":"individual","sf":4282,"v":500}},{"type":"Feature","geometry":{"type":"Point","coordinates":[-79.9532,40.52759]},"properties":{"p":"0355H00289000100","a":"CHARLES ST","m":"Shaler","u":"L","o":"individual","sf":494,"v":100}},{"type":"Feature","geometry":{"type":"Point","coordinates":[-79.955,40.5207]},"properties":{"p":"0284C00303000000","a":"LEA ST","m":"Shaler","u":"L","o":"individual","sf":9823,"v":3500}},{"type":"Feature","geometry":{"type":"Point","coordinates":[-79.95647,40.51517]},"properties":{"p":"0284L00235000000","a":"GROVER ST","m":"Shaler","u":"L","o":"individual","sf":2500,"v":1000}},{"type":"Feature","geometry":{"type":"Point","coordinates":[-79.95422,40.51431]},"properties":{"p":"0284L00326000000","a":"E PENNVIEW ST","m":"Shaler","u":"L","o":"individual","sf":2500,"v":1000}},{"type":"Feature","geometry":{"type":"Point","coordinates":[-79.95289,40.52478]},"properties":{"p":"0355M00260000000","a":"NORTH PARK AVE","m":"Shaler","u":"L","o":"individual","sf":16200,"v":5800}},{"type":"Feature","geometry":{"type":"Point","coordinates":[-79.94597,40.52428]},"properties":{"p":"0356J00006000000","a":"OAK AVE","m":"Shaler","u":"L","o":"individual","sf":36053,"v":52700}},{"type":"Feature","geometry":{"type":"Point","coordinates":[-79.94672,40.52578]},"properties":{"p":"0356E00058000000","a":"LINDEN ST","m":"Shaler","u":"L","o":"individual","sf":8250,"v":42200}},{"type":"Feature","geometry":{"type":"Point","coordinates":[-79.94501,40.51306]},"properties":{"p":"0285P00049000000","a":"SAXONBURG BLVD","m":"Shaler","u":"L","o":"individual","sf":4262,"v":1600}},{"type":"Feature","geometry":{"type":"Point","coordinates":[-79.94913,40.5275]},"properties":{"p":"0356E00249000000","a":"WILLOW ST","m":"Shaler","u":"L","o":"individual","sf":5000,"v":35500}},{"type":"Feature","geometry":{"type":"Point","coordinates":[-79.95716,40.51421]},"properties":{"p":"0284L00164000000","a":"E PENNVIEW ST","m":"Shaler","u":"L","o":"individual","sf":2500,"v":1000}},{"type":"Feature","geometry":{"type":"Point","coordinates":[-79.94629,40.52673]},"properties":{"p":"0356E00034000000","a":"MAPLE AVE","m":"Shaler","u":"L","o":"individual","sf":2750,"v":300}},{"type":"Feature","geometry":{"type":"Point","coordinates":[-79.94703,40.52653]},"properties":{"p":"0356E00115000000","a":"BEECH ST","m":"Shaler","u":"L","o":"individual","sf":2750,"v":300}},{"type":"Feature","geometry":{"type":"Point","coordinates":[-79.94702,40.52771]},"properties":{"p":"0356E00214000000","a":"ELM ST","m":"Shaler","u":"L","o":"individual","sf":5500,"v":11400}},{"type":"Feature","geometry":{"type":"Point","coordinates":[-79.95704,40.51304]},"properties":{"p":"0284R00087000000","a":"ALMA ST","m":"Shaler","u":"L","o":"individual","sf":2500,"v":1000}},{"type":"Feature","geometry":{"type":"Point","coordinates":[-79.9593,40.5184]},"properties":{"p":"0284B00036000000","a":"MOUNT ROYAL BLVD","m":"Shaler","u":"L","o":"corp","sf":7047,"v":21900}},{"type":"Feature","geometry":{"type":"Point","coordinates":[-79.95691,40.51307]},"properties":{"p":"0284R00086000000","a":"184 ALMA ST","m":"Shaler","u":"L","o":"individual","sf":5000,"v":1900}},{"type":"Feature","geometry":{"type":"Point","coordinates":[-79.95773,40.51443]},"properties":{"p":"0284L00154000000","a":"814 ARGONNE AVE","m":"Shaler","u":"L","o":"individual","sf":2500,"v":1000}},{"type":"Feature","geometry":{"type":"Point","coordinates":[-79.95467,40.51424]},"properties":{"p":"0284L00071000000","a":"294 E PENNVIEW ST","m":"Shaler","u":"L","o":"corp","sf":2500,"v":1000}},{"type":"Feature","geometry":{"type":"Point","coordinates":[-79.9566,40.51556]},"properties":{"p":"0284L00242000000","a":"GROVER ST","m":"Shaler","u":"L","o":"individual","sf":2500,"v":1000}},{"type":"Feature","geometry":{"type":"Point","coordinates":[-79.94162,40.52678]},"properties":{"p":"0356F00032000000","a":"107 HEIM CT","m":"Shaler","u":"B","o":"corp","sf":13699,"v":6000}},{"type":"Feature","geometry":{"type":"Point","coordinates":[-79.94179,40.52664]},"properties":{"p":"0356F00034000000","a":"109 HEIM CT","m":"Shaler","u":"B","o":"corp","sf":13789,"v":6100}},{"type":"Feature","geometry":{"type":"Point","coordinates":[-79.94197,40.5265]},"properties":{"p":"0356F00036000000","a":"111 HEIM CT","m":"Shaler","u":"B","o":"corp","sf":16892,"v":7400}},{"type":"Feature","geometry":{"type":"Point","coordinates":[-79.94214,40.52635]},"properties":{"p":"0356F00038000000","a":"HEIM CT","m":"Shaler","u":"B","o":"corp","sf":14073,"v":6200}},{"type":"Feature","geometry":{"type":"Point","coordinates":[-79.9423,40.52618]},"properties":{"p":"0356F00040000000","a":"HEIM CT","m":"Shaler","u":"B","o":"corp","sf":14990,"v":6600}},{"type":"Feature","geometry":{"type":"Point","coordinates":[-79.94312,40.52622]},"properties":{"p":"0356F00042000000","a":"131 HEIM CT","m":"Shaler","u":"B","o":"corp","sf":12403,"v":5400}},{"type":"Feature","geometry":{"type":"Point","coordinates":[-79.94321,40.52639]},"properties":{"p":"0356F00044000000","a":"133 HEIM CT","m":"Shaler","u":"B","o":"corp","sf":13120,"v":5800}},{"type":"Feature","geometry":{"type":"Point","coordinates":[-79.94332,40.52671]},"properties":{"p":"0356F00046000000","a":"135 HEIM CT","m":"Shaler","u":"B","o":"corp","sf":14728,"v":6500}},{"type":"Feature","geometry":{"type":"Point","coordinates":[-79.9437,40.52666]},"properties":{"p":"0356F00048000000","a":"137 HEIM CT","m":"Shaler","u":"B","o":"corp","sf":25088,"v":11000}},{"type":"Feature","geometry":{"type":"Point","coordinates":[-79.94427,40.52672]},"properties":{"p":"0356F00050000000","a":"138 HEIM CT","m":"Shaler","u":"B","o":"corp","sf":33124,"v":14700}},{"type":"Feature","geometry":{"type":"Point","coordinates":[-79.94395,40.52589]},"properties":{"p":"0356F00052000000","a":"132 HEIM CT","m":"Shaler","u":"B","o":"corp","sf":16178,"v":7100}},{"type":"Feature","geometry":{"type":"Point","coordinates":[-79.94296,40.5261]},"properties":{"p":"0356F00054000000","a":"127 HEIM CT","m":"Shaler","u":"B","o":"corp","sf":11305,"v":5000}},{"type":"Feature","geometry":{"type":"Point","coordinates":[-79.94329,40.52548]},"properties":{"p":"0356F00056000000","a":"HEIM CT","m":"Shaler","u":"B","o":"corp","sf":14196,"v":6200}},{"type":"Feature","geometry":{"type":"Point","coordinates":[-79.94135,40.52613]},"properties":{"p":"0356F00062000000","a":"110 HEIM CT","m":"Shaler","u":"B","o":"corp","sf":13726,"v":4300}},{"type":"Feature","geometry":{"type":"Point","coordinates":[-79.94245,40.52603]},"properties":{"p":"0356F00064000000","a":"HEIM CT","m":"Shaler","u":"B","o":"corp","sf":10879,"v":4800}},{"type":"Feature","geometry":{"type":"Point","coordinates":[-79.94258,40.5259]},"properties":{"p":"0356F00066000000","a":"HEIM CT","m":"Shaler","u":"B","o":"corp","sf":10538,"v":4600}},{"type":"Feature","geometry":{"type":"Point","coordinates":[-79.9442,40.52596]},"properties":{"p":"0356F00070000000","a":"134 HEIM CT","m":"Shaler","u":"B","o":"corp","sf":16783,"v":7400}},{"type":"Feature","geometry":{"type":"Point","coordinates":[-79.95493,40.51498]},"properties":{"p":"0284L00310000000","a":"EDGECLIFF AVE","m":"Shaler","u":"B","o":"individual","sf":12500,"v":5900}},{"type":"Feature","geometry":{"type":"Point","coordinates":[-79.95432,40.51456]},"properties":{"p":"0284L00322000000","a":"E PENNVIEW ST","m":"Shaler","u":"B","o":"individual","sf":2500,"v":3900}},{"type":"Feature","geometry":{"type":"Point","coordinates":[-79.95428,40.51447]},"properties":{"p":"0284L00323000000","a":"E PENNVIEW ST","m":"Shaler","u":"B","o":"individual","sf":5000,"v":5300}},{"type":"Feature","geometry":{"type":"Point","coordinates":[-79.94381,40.52572]},"properties":{"p":"0356K00280000000","a":"130 HEIM CT","m":"Shaler","u":"B","o":"corp","sf":21136,"v":9300}},{"type":"Feature","geometry":{"type":"Point","coordinates":[-79.94421,40.52632]},"properties":{"p":"0356F00072000000","a":"136 HEIM CT","m":"Shaler","u":"B","o":"corp","sf":14092,"v":6200}},{"type":"Feature","geometry":{"type":"Point","coordinates":[-79.9419,40.52572]},"properties":{"p":"0356K00268000000","a":"116 HEIM CT","m":"Shaler","u":"B","o":"corp","sf":10318,"v":4500}},{"type":"Feature","geometry":{"type":"Point","coordinates":[-79.94277,40.52534]},"properties":{"p":"0356K00274000000","a":"122 HEIM CT","m":"Shaler","u":"B","o":"corp","sf":11655,"v":5100}},{"type":"Feature","geometry":{"type":"Point","coordinates":[-79.94302,40.5254]},"properties":{"p":"0356K00276000000","a":"124 HEIM CT","m":"Shaler","u":"B","o":"corp","sf":12256,"v":5400}},{"type":"Feature","geometry":{"type":"Point","coordinates":[-79.94358,40.52557]},"properties":{"p":"0356K00278000000","a":"128 HEIM CT","m":"Shaler","u":"B","o":"corp","sf":17057,"v":7500}},{"type":"Feature","geometry":{"type":"Point","coordinates":[-79.94142,40.52691]},"properties":{"p":"0356G00250000000","a":"105 HEIM CT","m":"Shaler","u":"B","o":"corp","sf":13596,"v":6000}},{"type":"Feature","geometry":{"type":"Point","coordinates":[-79.94114,40.52699]},"properties":{"p":"0356G00252000000","a":"103 HEIM CT","m":"Shaler","u":"B","o":"corp","sf":13286,"v":4900}},{"type":"Feature","geometry":{"type":"Point","coordinates":[-79.94059,40.52701]},"properties":{"p":"0356G00256000000","a":"100 HEIM CT","m":"Shaler","u":"B","o":"corp","sf":33742,"v":14900}},{"type":"Feature","geometry":{"type":"Point","coordinates":[-79.94098,40.52646]},"properties":{"p":"0356G00260000000","a":"106 HEIM CT","m":"Shaler","u":"B","o":"corp","sf":15463,"v":6800}},{"type":"Feature","geometry":{"type":"Point","coordinates":[-79.94119,40.52628]},"properties":{"p":"0356G00262000000","a":"108 HEIM CT","m":"Shaler","u":"B","o":"corp","sf":9525,"v":4200}},{"type":"Feature","geometry":{"type":"Point","coordinates":[-79.94284,40.52591]},"properties":{"p":"0356K00056000000","a":"125 HEIM CT","m":"Shaler","u":"B","o":"corp","sf":11062,"v":4900}},{"type":"Feature","geometry":{"type":"Point","coordinates":[-79.94153,40.52599]},"properties":{"p":"0356F00060000000","a":"112 HEIM CT","m":"Shaler","u":"B","o":"corp","sf":9775,"v":4300}},{"type":"Feature","geometry":{"type":"Point","coordinates":[-79.94169,40.52585]},"properties":{"p":"0356F00058000000","a":"114 HEIM CT","m":"Shaler","u":"B","o":"corp","sf":9629,"v":4200}},{"type":"Feature","geometry":{"type":"Point","coordinates":[-79.9425,40.52531]},"properties":{"p":"0356K00270000000","a":"120 HEIM CT","m":"Shaler","u":"B","o":"corp","sf":15586,"v":6800}}]}