{"type":"FeatureCollection","features":[{"type":"Feature","geometry":{"type":"Point","coordinates":[-79.94006,40.37655]},"properties":{"p":"0135R00100000000","a":"BALDWIN RD","m":"31st Ward - PITTSBURGH","u":"C","o":"corp","sf":158994,"v":26100}},{"type":"Feature","geometry":{"type":"Point","coordinates":[-79.95584,40.38971]},"properties":{"p":"0093G00070000000","a":"GLASS RUN RD","m":"Baldwin Boro","u":"C","o":"corp","sf":27383,"v":81700}},{"type":"Feature","geometry":{"type":"Point","coordinates":[-79.94512,40.3703]},"properties":{"p":"0186F00125000000","a":"STREETS RUN RD","m":"Baldwin Boro","u":"C","o":"corp","sf":45050,"v":6800}},{"type":"Feature","geometry":{"type":"Point","coordinates":[-79.95762,40.37137]},"properties":{"p":"0187G00090000000","a":"SCHUETTE RD","m":"Baldwin Boro","u":"C","o":"corp","sf":44866,"v":123700}},{"type":"Feature","geometry":{"type":"Point","coordinates":[-79.94172,40.37223]},"properties":{"p":"0186B00300000000","a":"4842 STREETS RUN RD","m":"Baldwin Boro","u":"C","o":"individual","sf":844933,"v":18700}},{"type":"Feature","geometry":{"type":"Point","coordinates":[-79.94026,40.37829]},"properties":{"p":"0135L00109000000","a":"RAND ST","m":"31st Ward - PITTSBURGH","u":"L","o":"corp","sf":48787,"v":16000}},{"type":"Feature","geometry":{"type":"Point","coordinates":[-79.94156,40.37592]},"properties":{"p":"0135P00010000000","a":"BALDWIN RD","m":"31st Ward - PITTSBURGH","u":"L","o":"individual","sf":174240,"v":27500}},{"type":"Feature","geometry":{"type":"Point","coordinates":[-79.94348,40.37642]},"properties":{"p":"0135P00050000000","a":"BALDWIN RD","m":"31st Ward - PITTSBURGH","u":"L","o":"corp","sf":626392,"v":54000}},{"type":"Feature","geometry":{"type":"Point","coordinates":[-79.94011,40.37562]},"properties":{"p":"0135R00135000000","a":"BALDWIN RD","m":"31st Ward - PITTSBURGH","u":"L","o":"individual","sf":5754,"v":1700}},{"type":"Feature","geometry":{"type":"Point","coordinates":[-79.94001,40.37569]},"properties":{"p":"0135R00138000000","a":"BALDWIN RD","m":"31st Ward - PITTSBURGH","u":"L","o":"individual","sf":5250,"v":1600}},{"type":"Feature","geometry":{"type":"Point","coordinates":[-79.94916,40.38927]},"properties":{"p":"0093M00064000000","a":"CATHELL RD","m":"Baldwin Boro","u":"L","o":"individual","sf":25328,"v":27800}},{"type":"Feature","geometry":{"type":"Point","coordinates":[-79.95407,40.38933]},"properties":{"p":"0093G00025000000","a":"GLASS RUN RD","m":"Baldwin Boro","u":"L","o":"individual","sf":71852,"v":32100}},{"type":"Feature","geometry":{"type":"Point","coordinates":[-79.95512,40.38976]},"properties":{"p":"0093G00060000000","a":"GLASS RUN RD","m":"Baldwin Boro","u":"L","o":"corp","sf":21884,"v":7500}},{"type":"Feature","geometry":{"type":"Point","coordinates":[-79.95205,40.38993]},"properties":{"p":"0093H00015000000","a":"GLASS RUN RD","m":"Baldwin Boro","u":"L","o":"individual","sf":65201,"v":31500}},{"type":"Feature","geometry":{"type":"Point","coordinates":[-79.95056,40.38981]},"properties":{"p":"0093H00042000000","a":"CATHELL RD","m":"Baldwin Boro","u":"L","o":"individual","sf":756,"v":300}},{"type":"Feature","geometry":{"type":"Point","coordinates":[-79.95737,40.38649]},"properties":{"p":"0093R00100000000","a":"HARTL LN","m":"Baldwin Boro","u":"L","o":"corp","sf":100057,"v":17900}},{"type":"Feature","geometry":{"type":"Point","coordinates":[-79.95663,40.38615]},"properties":{"p":"0093R00110000000","a":"HARTL LN","m":"Baldwin Boro","u":"L","o":"individual","sf":9186,"v":3000}},{"type":"Feature","geometry":{"type":"Point","coordinates":[-79.95997,40.3881]},"properties":{"p":"0093K00076000000","a":"177 WALTON RD","m":"Baldwin Boro","u":"L","o":"individual","sf":18034,"v":2800}},{"type":"Feature","geometry":{"type":"Point","coordinates":[-79.95947,40.38749]},"properties":{"p":"0093K00085000000","a":"WALTON RD","m":"Baldwin Boro","u":"L","o":"individual","sf":44044,"v":29600}},{"type":"Feature","geometry":{"type":"Point","coordinates":[-79.95839,40.38736]},"properties":{"p":"0093K00104000000","a":"GOUCHER DR","m":"Baldwin Boro","u":"L","o":"corp","sf":4954,"v":1700}},{"type":"Feature","geometry":{"type":"Point","coordinates":[-79.9486,40.3854]},"properties":{"p":"0092N00136000000","a":"3533 CHURCHVIEW AVE","m":"Baldwin Boro","u":"L","o":"individual","sf":32750,"v":10600}},{"type":"Feature","geometry":{"type":"Point","coordinates":[-79.94888,40.38575]},"properties":{"p":"0092N00165000000","a":"CATHELL RD","m":"Baldwin Boro","u":"L","o":"individual","sf":36176,"v":3500}},{"type":"Feature","geometry":{"type":"Point","coordinates":[-79.94393,40.38824]},"properties":{"p":"0092K00005000000","a":"CATHELL RD","m":"Baldwin Boro","u":"L","o":"individual","sf":120356,"v":36600}},{"type":"Feature","geometry":{"type":"Point","coordinates":[-79.94529,40.38637]},"properties":{"p":"0092N00080000000","a":"CHURCHVIEW AVE","m":"Baldwin Boro","u":"L","o":"individual","sf":43952,"v":29600}},{"type":"Feature","geometry":{"type":"Point","coordinates":[-79.9461,40.38684]},"properties":{"p":"0092N00090000000","a":"3625 CHURCHVIEW AVE","m":"Baldwin Boro","u":"L","o":"individual","sf":17901,"v":3000}},{"type":"Feature","geometry":{"type":"Point","coordinates":[-79.94141,40.38492]},"properties":{"p":"0092P00007000000","a":"CHURCHVIEW AVE","m":"Baldwin Boro","u":"L","o":"individual","sf":16043,"v":5200}},{"type":"Feature","geometry":{"type":"Point","coordinates":[-79.94161,40.38498]},"properties":{"p":"0092P00009000000","a":"CHURCHVIEW AVE","m":"Baldwin Boro","u":"L","o":"individual","sf":15651,"v":5000}},{"type":"Feature","geometry":{"type":"Point","coordinates":[-79.94144,40.38552]},"properties":{"p":"0092P00010000000","a":"CHURCHVIEW AVE","m":"Baldwin Boro","u":"L","o":"individual","sf":8668,"v":13300}},{"type":"Feature","geometry":{"type":"Point","coordinates":[-79.95109,40.38859]},"properties":{"p":"0093M00100000000","a":"1415 AGNES RD","m":"Baldwin Boro","u":"L","o":"individual","sf":11500,"v":3800}},{"type":"Feature","geometry":{"type":"Point","coordinates":[-79.95209,40.38865]},"properties":{"p":"0093M00126000000","a":"FLORA RD","m":"Baldwin Boro","u":"L","o":"individual","sf":161782,"v":40400}},{"type":"Feature","geometry":{"type":"Point","coordinates":[-79.95503,40.3862]},"properties":{"p":"0093R00155000000","a":"HARTL LN","m":"Baldwin Boro","u":"L","o":"individual","sf":4462,"v":1500}},{"type":"Feature","geometry":{"type":"Point","coordinates":[-79.95677,40.38471]},"properties":{"p":"0093R00242000000","a":"HARTL LN","m":"Baldwin Boro","u":"L","o":"individual","sf":10500,"v":3500}},{"type":"Feature","geometry":{"type":"Point","coordinates":[-79.94871,40.38642]},"properties":{"p":"0092N00032000000","a":"CATHELL RD","m":"Baldwin Boro","u":"L","o":"individual","sf":13150,"v":26700}},{"type":"Feature","geometry":{"type":"Point","coordinates":[-79.94769,40.3845]},"properties":{"p":"0092N00193000000","a":"CHURCHVIEW AVE","m":"Baldwin Boro","u":"L","o":"individual","sf":27617,"v":28000}},{"type":"Feature","geometry":{"type":"Point","coordinates":[-79.94609,40.38728]},"properties":{"p":"0092J00025000000","a":"1532 CATHELL RD","m":"Baldwin Boro","u":"L","o":"individual","sf":10890,"v":26500}},{"type":"Feature","geometry":{"type":"Point","coordinates":[-79.95048,40.38764]},"properties":{"p":"0093M00011000000","a":"1425 EVELYN RD","m":"Baldwin Boro","u":"L","o":"individual","sf":1488,"v":600}},{"type":"Feature","geometry":{"type":"Point","coordinates":[-79.95681,40.38906]},"properties":{"p":"0093L00072000000","a":"GENSLER RD","m":"Baldwin Boro","u":"L","o":"individual","sf":8930,"v":26400}},{"type":"Feature","geometry":{"type":"Point","coordinates":[-79.95807,40.38775]},"properties":{"p":"0093K00196000000","a":"GOUCHER DR","m":"Baldwin Boro","u":"L","o":"individual","sf":1668,"v":600}},{"type":"Feature","geometry":{"type":"Point","coordinates":[-79.95479,40.38902]},"properties":{"p":"0093L00020000000","a":"GLASS RUN RD","m":"Baldwin Boro","u":"L","o":"individual","sf":107288,"v":35400}},{"type":"Feature","geometry":{"type":"Point","coordinates":[-79.94849,40.38806]},"properties":{"p":"0092J00163000000","a":"EVELYN RD","m":"Baldwin Boro","u":"L","o":"individual","sf":34882,"v":28700}},{"type":"Feature","geometry":{"type":"Point","coordinates":[-79.95572,40.38908]},"properties":{"p":"0093L00035000000","a":"GLASS RUN RD","m":"Baldwin Boro","u":"L","o":"corp","sf":43560,"v":500}},{"type":"Feature","geometry":{"type":"Point","coordinates":[-79.94882,40.38909]},"properties":{"p":"0092J00050000000","a":"CATHELL RD","m":"Baldwin Boro","u":"L","o":"individual","sf":88296,"v":33700}},{"type":"Feature","geometry":{"type":"Point","coordinates":[-79.94646,40.38899]},"properties":{"p":"0092J00090000000","a":"CATHELL RD","m":"Baldwin Boro","u":"L","o":"corp","sf":54189,"v":10000}},{"type":"Feature","geometry":{"type":"Point","coordinates":[-79.94528,40.38877]},"properties":{"p":"0092J00110000000","a":"CATHELL RD","m":"Baldwin Boro","u":"L","o":"individual","sf":12096,"v":4000}},{"type":"Feature","geometry":{"type":"Point","coordinates":[-79.95305,40.37026]},"properties":{"p":"0187M00024000000","a":"WILLETT RD","m":"Baldwin Boro","u":"L","o":"individual","sf":59895,"v":31000}},{"type":"Feature","geometry":{"type":"Point","coordinates":[-79.94417,40.38026]},"properties":{"p":"0135F00028000000","a":"BENCH DR","m":"Baldwin Boro","u":"L","o":"individual","sf":98010,"v":17500}},{"type":"Feature","geometry":{"type":"Point","coordinates":[-79.94434,40.38199]},"properties":{"p":"0135F00106000000","a":"REVO RD","m":"Baldwin Boro","u":"L","o":"individual","sf":37976,"v":12300}},{"type":"Feature","geometry":{"type":"Point","coordinates":[-79.94893,40.37849]},"properties":{"p":"0135J00008000000","a":"BRICKLEY DR","m":"Baldwin Boro","u":"L","o":"corp","sf":10293,"v":26500}},{"type":"Feature","geometry":{"type":"Point","coordinates":[-79.95073,40.37319]},"properties":{"p":"0187D00268000000","a":"FREDERICK ST","m":"Baldwin Boro","u":"L","o":"individual","sf":12872,"v":26700}},{"type":"Feature","geometry":{"type":"Point","coordinates":[-79.94525,40.38101]},"properties":{"p":"0135E00074000000","a":"BENCH DR","m":"Baldwin Boro","u":"L","o":"individual","sf":3738,"v":1300}},{"type":"Feature","geometry":{"type":"Point","coordinates":[-79.9548,40.37254]},"properties":{"p":"0187G00006000000","a":"WILLETT RD","m":"Baldwin Boro","u":"L","o":"individual","sf":6629,"v":2200}},{"type":"Feature","geometry":{"type":"Point","coordinates":[-79.9475,40.37181]},"properties":{"p":"0186E00034000000","a":"FREDERICK CT","m":"Baldwin Boro","u":"L","o":"individual","sf":11280,"v":3700}},{"type":"Feature","geometry":{"type":"Point","coordinates":[-79.94904,40.3713]},"properties":{"p":"0186E00050000000","a":"LOUISA ST","m":"Baldwin Boro","u":"L","o":"individual","sf":124015,"v":36900}},{"type":"Feature","geometry":{"type":"Point","coordinates":[-79.95436,40.37127]},"properties":{"p":"0187G00117000000","a":"CYNTHIA DR","m":"Baldwin Boro","u":"L","o":"corp","sf":1920,"v":700}},{"type":"Feature","geometry":{"type":"Point","coordinates":[-79.95447,40.37107]},"properties":{"p":"0187G00118000000","a":"3836 CYNTHIA DR","m":"Baldwin Boro","u":"L","o":"corp","sf":392,"v":400}},{"type":"Feature","geometry":{"type":"Point","coordinates":[-79.95466,40.37107]},"properties":{"p":"0187G00120000000","a":"3836 CYNTHIA DR","m":"Baldwin Boro","u":"L","o":"corp","sf":1350,"v":500}},{"type":"Feature","geometry":{"type":"Point","coordinates":[-79.95533,40.37328]},"properties":{"p":"0187C00154000000","a":"OAKLEAF RD","m":"Baldwin Boro","u":"L","o":"individual","sf":4574,"v":1600}},{"type":"Feature","geometry":{"type":"Point","coordinates":[-79.94109,40.38331]},"properties":{"p":"0135B00040000000","a":"3740 CREADY HILL RD","m":"Baldwin Boro","u":"L","o":"individual","sf":13436,"v":26800}},{"type":"Feature","geometry":{"type":"Point","coordinates":[-79.94129,40.38418]},"properties":{"p":"0135B00045000000","a":"CREADY HILL RD","m":"Baldwin Boro","u":"L","o":"individual","sf":5068,"v":1700}},{"type":"Feature","geometry":{"type":"Point","coordinates":[-79.94039,40.38364]},"properties":{"p":"0135C00065000000","a":"3737 CREADY HILL RD","m":"Baldwin Boro","u":"L","o":"individual","sf":21836,"v":27500}},{"type":"Feature","geometry":{"type":"Point","coordinates":[-79.95659,40.38531]},"properties":{"p":"0136C00074000000","a":"HARTL LN","m":"Baldwin Boro","u":"L","o":"individual","sf":24176,"v":7800}},{"type":"Feature","geometry":{"type":"Point","coordinates":[-79.95686,40.38501]},"properties":{"p":"0136C00075000000","a":"HARTL LN","m":"Baldwin Boro","u":"L","o":"individual","sf":6250,"v":2100}},{"type":"Feature","geometry":{"type":"Point","coordinates":[-79.95771,40.3836]},"properties":{"p":"0136C00083000000","a":"758 LECHNER LN","m":"Baldwin Boro","u":"L","o":"individual","sf":4966,"v":1700}},{"type":"Feature","geometry":{"type":"Point","coordinates":[-79.94247,40.38112]},"properties":{"p":"0135F00228000000","a":"REVO RD","m":"Baldwin Boro","u":"L","o":"individual","sf":7871,"v":2600}},{"type":"Feature","geometry":{"type":"Point","coordinates":[-79.94259,40.38157]},"properties":{"p":"0135F00232000000","a":"REVO RD","m":"Baldwin Boro","u":"L","o":"individual","sf":6527,"v":2200}},{"type":"Feature","geometry":{"type":"Point","coordinates":[-79.94249,40.38197]},"properties":{"p":"0135F00250000000","a":"REVO RD","m":"Baldwin Boro","u":"L","o":"individual","sf":31102,"v":15400}},{"type":"Feature","geometry":{"type":"Point","coordinates":[-79.94067,40.37875]},"properties":{"p":"0135L00145000000","a":"REVO RD","m":"Baldwin Boro","u":"L","o":"corp","sf":132536,"v":24700}},{"type":"Feature","geometry":{"type":"Point","coordinates":[-79.95072,40.38319]},"properties":{"p":"0136D00167000000","a":"CHURCHVIEW AVE","m":"Baldwin Boro","u":"L","o":"individual","sf":130680,"v":24500}},{"type":"Feature","geometry":{"type":"Point","coordinates":[-79.94902,40.37318]},"properties":{"p":"0186A00028000000","a":"3854 LOUISA ST","m":"Baldwin Boro","u":"L","o":"individual","sf":3575,"v":1200}},{"type":"Feature","geometry":{"type":"Point","coordinates":[-79.94896,40.37313]},"properties":{"p":"0186A00029000000","a":"3862 LOUISA ST","m":"Baldwin Boro","u":"L","o":"individual","sf":3575,"v":1200}},{"type":"Feature","geometry":{"type":"Point","coordinates":[-79.94897,40.38461]},"properties":{"p":"0135A00070000000","a":"CHURCHVIEW AVE","m":"Baldwin Boro","u":"L","o":"individual","sf":13166,"v":26700}},{"type":"Feature","geometry":{"type":"Point","coordinates":[-79.94721,40.38058]},"properties":{"p":"0135E00126000000","a":"PINCHTOWN RD","m":"Baldwin Boro","u":"L","o":"individual","sf":7180,"v":2400}},{"type":"Feature","geometry":{"type":"Point","coordinates":[-79.95401,40.37484]},"properties":{"p":"0187C00030000000","a":"SONGO ST","m":"Baldwin Boro","u":"L","o":"individual","sf":117394,"v":36300}},{"type":"Feature","geometry":{"type":"Point","coordinates":[-79.94249,40.38234]},"properties":{"p":"0135B00003000000","a":"REVO RD","m":"Baldwin Boro","u":"L","o":"individual","sf":19145,"v":6200}},{"type":"Feature","geometry":{"type":"Point","coordinates":[-79.9584,40.37726]},"properties":{"p":"0136P00018000000","a":"OAKLEAF RD","m":"Baldwin Boro","u":"L","o":"individual","sf":18328,"v":6000}},{"type":"Feature","geometry":{"type":"Point","coordinates":[-79.94307,40.38056]},"properties":{"p":"0135F00182000000","a":"REVO RD","m":"Baldwin Boro","u":"L","o":"corp","sf":14630,"v":26900}},{"type":"Feature","geometry":{"type":"Point","coordinates":[-79.9447,40.38144]},"properties":{"p":"0135F00185000000","a":"REVO RD","m":"Baldwin Boro","u":"L","o":"individual","sf":148975,"v":1700}},{"type":"Feature","geometry":{"type":"Point","coordinates":[-79.94625,40.3817]},"properties":{"p":"0135E00019000000","a":"CATHELL RD","m":"Baldwin Boro","u":"L","o":"corp","sf":1820,"v":700}},{"type":"Feature","geometry":{"type":"Point","coordinates":[-79.95543,40.37712]},"properties":{"p":"0136R00126000000","a":"WALLACE DR","m":"Baldwin Boro","u":"L","o":"corp","sf":6270,"v":2100}},{"type":"Feature","geometry":{"type":"Point","coordinates":[-79.9533,40.37534]},"properties":{"p":"0136S00015000000","a":"LOUISA ST","m":"Baldwin Boro","u":"L","o":"corp","sf":114345,"v":10500}},{"type":"Feature","geometry":{"type":"Point","coordinates":[-79.95239,40.37651]},"properties":{"p":"0136S00050000000","a":"LOUISA ST","m":"Baldwin Boro","u":"L","o":"corp","sf":387405,"v":49400}},{"type":"Feature","geometry":{"type":"Point","coordinates":[-79.94641,40.37537]},"properties":{"p":"0135J00300000000","a":"LOUISA ST","m":"Baldwin Boro","u":"L","o":"corp","sf":3589301,"v":132000}},{"type":"Feature","geometry":{"type":"Point","coordinates":[-79.94364,40.38296]},"properties":{"p":"0135B00096000000","a":"REVO RD","m":"Baldwin Boro","u":"L","o":"individual","sf":27662,"v":28000}},{"type":"Feature","geometry":{"type":"Point","coordinates":[-79.95633,40.37082]},"properties":{"p":"0187G00230000000","a":"GARY DR","m":"Baldwin Boro","u":"L","o":"individual","sf":4104,"v":1400}},{"type":"Feature","geometry":{"type":"Point","coordinates":[-79.94208,40.37837]},"properties":{"p":"0135K00020000000","a":"BALDWIN RD","m":"31st Ward - PITTSBURGH","u":"L","o":"corp","sf":51,"v":100}},{"type":"Feature","geometry":{"type":"Point","coordinates":[-79.95673,40.38944]},"properties":{"p":"0093L00045000000","a":"GLASS RUN RD","m":"Baldwin Boro","u":"L","o":"individual","sf":13460,"v":13800}},{"type":"Feature","geometry":{"type":"Point","coordinates":[-79.94604,40.38951]},"properties":{"p":"0092E00024000000","a":"CATHELL RD","m":"Baldwin Boro","u":"L","o":"corp","sf":447361,"v":24600}},{"type":"Feature","geometry":{"type":"Point","coordinates":[-79.95258,40.37214]},"properties":{"p":"0187H00178000000","a":"ELIZABETH ST","m":"Baldwin Boro","u":"L","o":"individual","sf":9000,"v":26400}},{"type":"Feature","geometry":{"type":"Point","coordinates":[-79.94461,40.38295]},"properties":{"p":"0135B00105000000","a":"CATHELL RD","m":"Baldwin Boro","u":"L","o":"individual","sf":69696,"v":10000}},{"type":"Feature","geometry":{"type":"Point","coordinates":[-79.95235,40.37289]},"properties":{"p":"0187D00030000000","a":"ELIZABETH ST","m":"Baldwin Boro","u":"L","o":"individual","sf":107027,"v":35400}},{"type":"Feature","geometry":{"type":"Point","coordinates":[-79.95209,40.37359]},"properties":{"p":"0187D00060000000","a":"SONGO ST","m":"Baldwin Boro","u":"L","o":"individual","sf":105681,"v":22300}},{"type":"Feature","geometry":{"type":"Point","coordinates":[-79.95768,40.38373]},"properties":{"p":"0136C00087000000","a":"LECHNER LN","m":"Baldwin Boro","u":"L","o":"individual","sf":3787,"v":1300}},{"type":"Feature","geometry":{"type":"Point","coordinates":[-79.95798,40.38315]},"properties":{"p":"0136B00038000000","a":"LECHNER LN","m":"Baldwin Boro","u":"L","o":"individual","sf":4135,"v":1400}},{"type":"Feature","geometry":{"type":"Point","coordinates":[-79.95746,40.38778]},"properties":{"p":"0093L00120000000","a":"GENSLER RD","m":"Baldwin Boro","u":"L","o":"individual","sf":65340,"v":31500}},{"type":"Feature","geometry":{"type":"Point","coordinates":[-79.95364,40.37291]},"properties":{"p":"0187C00010000000","a":"487 SONGO ST","m":"Baldwin Boro","u":"L","o":"individual","sf":5440,"v":26000}},{"type":"Feature","geometry":{"type":"Point","coordinates":[-79.94292,40.37962]},"properties":{"p":"0135K00200000000","a":"CATHELL RD","m":"Baldwin Boro","u":"L","o":"individual","sf":23088,"v":27600}},{"type":"Feature","geometry":{"type":"Point","coordinates":[-79.94123,40.38415]},"properties":{"p":"0135B00044000000","a":"CREADY HILL RD","m":"Baldwin Boro","u":"L","o":"individual","sf":3266,"v":1100}},{"type":"Feature","geometry":{"type":"Point","coordinates":[-79.94094,40.38082]},"properties":{"p":"0135F00205000000","a":"REVO RD","m":"Baldwin Boro","u":"L","o":"corp","sf":263538,"v":48700}}]}