{"type":"FeatureCollection","features":[{"type":"Feature","geometry":{"type":"Point","coordinates":[-79.94112,40.49758]},"properties":{"p":"0167F00180000000","a":"BRIDGE ST","m":"Etna","u":"I","o":"corp","sf":15639,"v":14100}},{"type":"Feature","geometry":{"type":"Point","coordinates":[-79.9486,40.49365]},"properties":{"p":"0167N00032000000","a":"WASHINGTON ST","m":"Etna","u":"C","o":"corp","sf":3682,"v":3500}},{"type":"Feature","geometry":{"type":"Point","coordinates":[-79.94828,40.49353]},"properties":{"p":"0167N00036000000","a":"191 BUTLER ST","m":"Etna","u":"C","o":"individual","sf":5427,"v":12800}},{"type":"Feature","geometry":{"type":"Point","coordinates":[-79.94845,40.49348]},"properties":{"p":"0167N00039000000","a":"191 BUTLER ST","m":"Etna","u":"C","o":"individual","sf":4476,"v":11400}},{"type":"Feature","geometry":{"type":"Point","coordinates":[-79.95028,40.49109]},"properties":{"p":"0119D00199000000","a":"BUTLER ST","m":"Etna","u":"C","o":"individual","sf":379,"v":100}},{"type":"Feature","geometry":{"type":"Point","coordinates":[-79.95036,40.49098]},"properties":{"p":"0119D00201000000","a":"BUTLER ST","m":"Etna","u":"C","o":"individual","sf":1414,"v":300}},{"type":"Feature","geometry":{"type":"Point","coordinates":[-79.95047,40.49087]},"properties":{"p":"0119D00203000000","a":"BUTLER ST","m":"Etna","u":"C","o":"individual","sf":5739,"v":1300}},{"type":"Feature","geometry":{"type":"Point","coordinates":[-79.95062,40.49082]},"properties":{"p":"0119D00205000000","a":"BUTLER ST","m":"Etna","u":"C","o":"corp","sf":3084,"v":700}},{"type":"Feature","geometry":{"type":"Point","coordinates":[-79.9514,40.49026]},"properties":{"p":"0119D00210000000","a":"BUTLER ST","m":"Etna","u":"C","o":"corp","sf":500,"v":100}},{"type":"Feature","geometry":{"type":"Point","coordinates":[-79.9448,40.49344]},"properties":{"p":"0167P00029000000","a":"MIDDLE ST","m":"Etna","u":"C","o":"individual","sf":4000,"v":12600}},{"type":"Feature","geometry":{"type":"Point","coordinates":[-79.94488,40.49338]},"properties":{"p":"0167P00030000000","a":"MIDDLE ST","m":"Etna","u":"C","o":"individual","sf":2000,"v":10800}},{"type":"Feature","geometry":{"type":"Point","coordinates":[-79.94494,40.49334]},"properties":{"p":"0167P00031000000","a":"MIDDLE ST","m":"Etna","u":"C","o":"individual","sf":1820,"v":1600}},{"type":"Feature","geometry":{"type":"Point","coordinates":[-79.945,40.49331]},"properties":{"p":"0167P00032000000","a":"MIDDLE ST","m":"Etna","u":"C","o":"individual","sf":1650,"v":1500}},{"type":"Feature","geometry":{"type":"Point","coordinates":[-79.94219,40.49687]},"properties":{"p":"0167F00124000000","a":"48 BRIDGE ST","m":"Etna","u":"C","o":"individual","sf":2063,"v":1900}},{"type":"Feature","geometry":{"type":"Point","coordinates":[-79.9423,40.49685]},"properties":{"p":"0167F00125000000","a":"48 BRIDGE ST","m":"Etna","u":"C","o":"individual","sf":5341,"v":4800}},{"type":"Feature","geometry":{"type":"Point","coordinates":[-79.94252,40.49403]},"properties":{"p":"0167P00090000000","a":"UNION ST","m":"Etna","u":"C","o":"corp","sf":630,"v":500}},{"type":"Feature","geometry":{"type":"Point","coordinates":[-79.94279,40.49516]},"properties":{"p":"0167K00310000000","a":"MIDDLE ST","m":"Etna","u":"C","o":"corp","sf":3441,"v":3100}},{"type":"Feature","geometry":{"type":"Point","coordinates":[-79.94402,40.49812]},"properties":{"p":"0167F00212000100","a":"BUTLER ST","m":"Etna","u":"C","o":"corp","sf":126,"v":100}},{"type":"Feature","geometry":{"type":"Point","coordinates":[-79.94484,40.49622]},"properties":{"p":"0167K00016000000","a":"333 BUTLER ST","m":"Etna","u":"C","o":"corp","sf":1650,"v":1900}},{"type":"Feature","geometry":{"type":"Point","coordinates":[-79.94488,40.49619]},"properties":{"p":"0167K00017000000","a":"333 BUTLER ST","m":"Etna","u":"C","o":"corp","sf":1980,"v":2300}},{"type":"Feature","geometry":{"type":"Point","coordinates":[-79.95024,40.49113]},"properties":{"p":"0119D00198000000","a":"BUTLER ST","m":"Etna","u":"C","o":"individual","sf":377,"v":100}},{"type":"Feature","geometry":{"type":"Point","coordinates":[-79.94611,40.49364]},"properties":{"p":"0167N00158000000","a":"CHERRY ST","m":"Etna","u":"C","o":"individual","sf":2034,"v":1800}},{"type":"Feature","geometry":{"type":"Point","coordinates":[-79.94691,40.50233]},"properties":{"p":"0222N00144000000","a":"BUTLER ST","m":"Etna","u":"C","o":"corp","sf":39840,"v":52500}},{"type":"Feature","geometry":{"type":"Point","coordinates":[-79.94236,40.49612]},"properties":{"p":"0167K00192000000","a":"24 SYCAMORE ST","m":"Etna","u":"C","o":"individual","sf":1486,"v":300}},{"type":"Feature","geometry":{"type":"Point","coordinates":[-79.94239,40.49607]},"properties":{"p":"0167K00193000000","a":"24 SYCAMORE ST","m":"Etna","u":"C","o":"individual","sf":1526,"v":300}},{"type":"Feature","geometry":{"type":"Point","coordinates":[-79.94874,40.49301]},"properties":{"p":"0167N00072000000","a":"BUTLER ST","m":"Etna","u":"C","o":"individual","sf":884,"v":200}},{"type":"Feature","geometry":{"type":"Point","coordinates":[-79.94864,40.49301]},"properties":{"p":"0167N00074000000","a":"BUTLER ST","m":"Etna","u":"C","o":"individual","sf":2592,"v":9100}},{"type":"Feature","geometry":{"type":"Point","coordinates":[-79.94854,40.49306]},"properties":{"p":"0167N00076000000","a":"BUTLER ST","m":"Etna","u":"C","o":"individual","sf":2140,"v":8600}},{"type":"Feature","geometry":{"type":"Point","coordinates":[-79.94759,40.49344]},"properties":{"p":"0167N00088000000","a":"BUTLER ST","m":"Etna","u":"C","o":"corp","sf":736,"v":900}},{"type":"Feature","geometry":{"type":"Point","coordinates":[-79.94364,40.49633]},"properties":{"p":"0167K00059000000","a":"FREEPORT ST","m":"Etna","u":"C","o":"individual","sf":2237,"v":11000}},{"type":"Feature","geometry":{"type":"Point","coordinates":[-79.94223,40.4961]},"properties":{"p":"0167K00190000000","a":"24 SYCAMORE ST","m":"Etna","u":"C","o":"individual","sf":1502,"v":1400}},{"type":"Feature","geometry":{"type":"Point","coordinates":[-79.95917,40.49441]},"properties":{"p":"0166K00034000000","a":"309 DAVIS AVE","m":"Shaler","u":"C","o":"corp","sf":4250,"v":1700}},{"type":"Feature","geometry":{"type":"Point","coordinates":[-79.95899,40.49441]},"properties":{"p":"0166K00036000000","a":"309 DAVIS AVE","m":"Shaler","u":"C","o":"corp","sf":4250,"v":1700}},{"type":"Feature","geometry":{"type":"Point","coordinates":[-79.9547,40.49931]},"properties":{"p":"0166C00200000000","a":"SEAVEY RD","m":"Shaler","u":"C","o":"corp","sf":52002,"v":140800}},{"type":"Feature","geometry":{"type":"Point","coordinates":[-79.94012,40.49991]},"properties":{"p":"0167C00200000000","a":"ALLEGHENY AVE","m":"Shaler","u":"C","o":"corp","sf":78894,"v":205400}},{"type":"Feature","geometry":{"type":"Point","coordinates":[-79.95115,40.50587]},"properties":{"p":"0221M00280000000","a":"LEHR AVE","m":"Shaler","u":"C","o":"individual","sf":30000,"v":88000}},{"type":"Feature","geometry":{"type":"Point","coordinates":[-79.94654,40.49413]},"properties":{"p":"0167J00168000000","a":"BUTLER ST","m":"Etna","u":"C","o":"individual","sf":4725,"v":17500}},{"type":"Feature","geometry":{"type":"Point","coordinates":[-79.94883,40.49295]},"properties":{"p":"0167N00070000000","a":"BUTLER ST","m":"Etna","u":"C","o":"corp","sf":293,"v":4600}},{"type":"Feature","geometry":{"type":"Point","coordinates":[-79.94198,40.49665]},"properties":{"p":"0167F00128000000","a":"42 CHERRY ST","m":"Etna","u":"C","o":"individual","sf":882,"v":800}},{"type":"Feature","geometry":{"type":"Point","coordinates":[-79.95766,40.5016]},"properties":{"p":"0221R00295000000","a":"HOUSTON ST","m":"Etna","u":"L","o":"individual","sf":28543,"v":8700}},{"type":"Feature","geometry":{"type":"Point","coordinates":[-79.95703,40.50161]},"properties":{"p":"0221R00301000000","a":"HOUSTON ST","m":"Etna","u":"L","o":"individual","sf":8018,"v":18300}},{"type":"Feature","geometry":{"type":"Point","coordinates":[-79.95676,40.50162]},"properties":{"p":"0221R00304000000","a":"HOUSTON ST","m":"Etna","u":"L","o":"individual","sf":8096,"v":18300}},{"type":"Feature","geometry":{"type":"Point","coordinates":[-79.95649,40.50163]},"properties":{"p":"0221R00308000000","a":"HOUSTON ST","m":"Etna","u":"L","o":"individual","sf":2726,"v":900}},{"type":"Feature","geometry":{"type":"Point","coordinates":[-79.94528,40.50701]},"properties":{"p":"0222F00016000000","a":"LINCOLN ST","m":"Etna","u":"L","o":"individual","sf":2900,"v":1000}},{"type":"Feature","geometry":{"type":"Point","coordinates":[-79.9484,40.50489]},"properties":{"p":"0222J00220000000","a":"ANGLE ALY","m":"Etna","u":"L","o":"individual","sf":4745,"v":1500}},{"type":"Feature","geometry":{"type":"Point","coordinates":[-79.94763,40.49396]},"properties":{"p":"0167N00008000000","a":"BUTLER ST","m":"Etna","u":"L","o":"individual","sf":2940,"v":1000}},{"type":"Feature","geometry":{"type":"Point","coordinates":[-79.9519,40.49229]},"properties":{"p":"0166S00247000000","a":"VISTA ST","m":"Etna","u":"L","o":"individual","sf":2500,"v":900}},{"type":"Feature","geometry":{"type":"Point","coordinates":[-79.94616,40.49847]},"properties":{"p":"0167E00042000000","a":"ELM LN","m":"Etna","u":"L","o":"individual","sf":2500,"v":8300}},{"type":"Feature","geometry":{"type":"Point","coordinates":[-79.94594,40.50343]},"properties":{"p":"0222N00021000000","a":"CATHERINE ST","m":"Etna","u":"L","o":"individual","sf":6800,"v":18200}},{"type":"Feature","geometry":{"type":"Point","coordinates":[-79.947,40.49659]},"properties":{"p":"0167E00295000000","a":"VINE ST","m":"Etna","u":"L","o":"individual","sf":9400,"v":3100}},{"type":"Feature","geometry":{"type":"Point","coordinates":[-79.94534,40.50586]},"properties":{"p":"0222J00006000000","a":"LINCOLN ST","m":"Etna","u":"L","o":"individual","sf":6700,"v":18200}},{"type":"Feature","geometry":{"type":"Point","coordinates":[-79.94406,40.50272]},"properties":{"p":"0222P00113000000","a":"GANSTER ST","m":"Etna","u":"L","o":"individual","sf":5567,"v":1800}},{"type":"Feature","geometry":{"type":"Point","coordinates":[-79.94414,40.5028]},"properties":{"p":"0222P00115000000","a":"GANSTER ST","m":"Etna","u":"L","o":"corp","sf":10867,"v":18500}},{"type":"Feature","geometry":{"type":"Point","coordinates":[-79.94454,40.50303]},"properties":{"p":"0222P00125000000","a":"GANSTER ST","m":"Etna","u":"L","o":"individual","sf":25671,"v":19900}},{"type":"Feature","geometry":{"type":"Point","coordinates":[-79.95446,40.4921]},"properties":{"p":"0166R00154000000","a":"WASHINGTON ST","m":"Etna","u":"L","o":"individual","sf":5216,"v":23000}},{"type":"Feature","geometry":{"type":"Point","coordinates":[-79.95472,40.49198]},"properties":{"p":"0166R00157000000","a":"169 WASHINGTON ST","m":"Etna","u":"L","o":"individual","sf":2642,"v":6100}},{"type":"Feature","geometry":{"type":"Point","coordinates":[-79.94828,40.50611]},"properties":{"p":"0222J00242000000","a":"HIGHLAND AVE","m":"Etna","u":"L","o":"individual","sf":8000,"v":18300}},{"type":"Feature","geometry":{"type":"Point","coordinates":[-79.95331,40.49342]},"properties":{"p":"0166S00052000000","a":"SHERMAN AVE","m":"Etna","u":"L","o":"individual","sf":2500,"v":500}},{"type":"Feature","geometry":{"type":"Point","coordinates":[-79.95308,40.49353]},"properties":{"p":"0166S00055000000","a":"PARKER ST","m":"Etna","u":"L","o":"individual","sf":2500,"v":900}},{"type":"Feature","geometry":{"type":"Point","coordinates":[-79.94636,40.50341]},"properties":{"p":"0222N00025000000","a":"CATHERINE ST","m":"Etna","u":"L","o":"individual","sf":3206,"v":14800}},{"type":"Feature","geometry":{"type":"Point","coordinates":[-79.94654,40.49755]},"properties":{"p":"0167E00304000000","a":"HIGH ST","m":"Etna","u":"L","o":"individual","sf":2160,"v":16500}},{"type":"Feature","geometry":{"type":"Point","coordinates":[-79.94691,40.49544]},"properties":{"p":"0167J00081000000","a":"VINE ST","m":"Etna","u":"L","o":"individual","sf":11910,"v":23600}},{"type":"Feature","geometry":{"type":"Point","coordinates":[-79.95016,40.49386]},"properties":{"p":"0166S00071000000","a":"WASHINGTON ST","m":"Etna","u":"L","o":"individual","sf":10890,"v":3600}},{"type":"Feature","geometry":{"type":"Point","coordinates":[-79.95295,40.49327]},"properties":{"p":"0166S00090000000","a":"WASHINGTON ST","m":"Etna","u":"L","o":"individual","sf":2989,"v":1100}},{"type":"Feature","geometry":{"type":"Point","coordinates":[-79.95308,40.49319]},"properties":{"p":"0166S00092000000","a":"WASHINGTON ST","m":"Etna","u":"L","o":"individual","sf":4351,"v":10000}},{"type":"Feature","geometry":{"type":"Point","coordinates":[-79.95326,40.49308]},"properties":{"p":"0166S00095000000","a":"WASHINGTON ST","m":"Etna","u":"L","o":"individual","sf":7320,"v":23200}},{"type":"Feature","geometry":{"type":"Point","coordinates":[-79.94836,40.49986]},"properties":{"p":"0167A00277000000","a":"GRANDVIEW AVE","m":"Etna","u":"L","o":"individual","sf":5000,"v":23000}},{"type":"Feature","geometry":{"type":"Point","coordinates":[-79.94848,40.50056]},"properties":{"p":"0167A00289000000","a":"HICKORY ST","m":"Etna","u":"L","o":"individual","sf":6000,"v":23100}},{"type":"Feature","geometry":{"type":"Point","coordinates":[-79.94887,40.50123]},"properties":{"p":"0167A00298000000","a":"HIGH ST","m":"Etna","u":"L","o":"individual","sf":39015,"v":26100}},{"type":"Feature","geometry":{"type":"Point","coordinates":[-79.94859,40.49974]},"properties":{"p":"0167A00328000000","a":"GRANDVIEW AVE","m":"Etna","u":"L","o":"individual","sf":1299,"v":500}},{"type":"Feature","geometry":{"type":"Point","coordinates":[-79.94902,40.50019]},"properties":{"p":"0167A00344000000","a":"GRANDVIEW AVE","m":"Etna","u":"L","o":"individual","sf":6000,"v":23100}},{"type":"Feature","geometry":{"type":"Point","coordinates":[-79.94795,40.50105]},"properties":{"p":"0167A00094000000","a":"MAPLEWOOD ST","m":"Etna","u":"L","o":"individual","sf":18954,"v":24300}},{"type":"Feature","geometry":{"type":"Point","coordinates":[-79.9477,40.50088]},"properties":{"p":"0167A00100000000","a":"MAPLEWOOD ST","m":"Etna","u":"L","o":"individual","sf":2500,"v":900}},{"type":"Feature","geometry":{"type":"Point","coordinates":[-79.94762,40.50084]},"properties":{"p":"0167A00101000000","a":"MAPLEWOOD ST","m":"Etna","u":"L","o":"individual","sf":2500,"v":900}},{"type":"Feature","geometry":{"type":"Point","coordinates":[-79.94752,40.50078]},"properties":{"p":"0167A00102000000","a":"MAPLEWOOD ST","m":"Etna","u":"L","o":"individual","sf":5000,"v":1700}},{"type":"Feature","geometry":{"type":"Point","coordinates":[-79.94741,40.50072]},"properties":{"p":"0167A00104000000","a":"MAPLEWOOD ST","m":"Etna","u":"L","o":"individual","sf":2500,"v":900}},{"type":"Feature","geometry":{"type":"Point","coordinates":[-79.94731,40.50065]},"properties":{"p":"0167A00105000000","a":"MAPLEWOOD ST","m":"Etna","u":"L","o":"individual","sf":5000,"v":23000}},{"type":"Feature","geometry":{"type":"Point","coordinates":[-79.94756,40.49885]},"properties":{"p":"0167E00088000000","a":"33 OAKLAND ST","m":"Etna","u":"L","o":"individual","sf":2500,"v":12500}},{"type":"Feature","geometry":{"type":"Point","coordinates":[-79.95766,40.50267]},"properties":{"p":"0221R00179000000","a":"3 CEDAR ST","m":"Etna","u":"L","o":"individual","sf":2500,"v":900}},{"type":"Feature","geometry":{"type":"Point","coordinates":[-79.9486,40.50813]},"properties":{"p":"0222E00050000000","a":"14 ELIZABETH ST","m":"Etna","u":"L","o":"individual","sf":16277,"v":19000}},{"type":"Feature","geometry":{"type":"Point","coordinates":[-79.94267,40.49689]},"properties":{"p":"0167F00120000000","a":"GARDEN WAY","m":"Etna","u":"L","o":"corp","sf":1041,"v":400}},{"type":"Feature","geometry":{"type":"Point","coordinates":[-79.94251,40.49697]},"properties":{"p":"0167F00121000000","a":"BRIDGE ST","m":"Etna","u":"L","o":"individual","sf":1500,"v":600}},{"type":"Feature","geometry":{"type":"Point","coordinates":[-79.9425,40.4969]},"properties":{"p":"0167F00122000000","a":"BRIDGE ST","m":"Etna","u":"L","o":"individual","sf":1500,"v":600}},{"type":"Feature","geometry":{"type":"Point","coordinates":[-79.94765,40.49596]},"properties":{"p":"0167J00228000000","a":"113 MORELOCK ST","m":"Etna","u":"L","o":"individual","sf":7189,"v":23200}},{"type":"Feature","geometry":{"type":"Point","coordinates":[-79.9547,40.4938]},"properties":{"p":"0166R00030000000","a":"PARKER ST","m":"Etna","u":"L","o":"individual","sf":5189,"v":23000}},{"type":"Feature","geometry":{"type":"Point","coordinates":[-79.95477,40.4936]},"properties":{"p":"0166R00033000000","a":"NAUMAN ST","m":"Etna","u":"L","o":"individual","sf":7116,"v":23200}},{"type":"Feature","geometry":{"type":"Point","coordinates":[-79.9482,40.49604]},"properties":{"p":"0167J00246000000","a":"BOTTOMFIELD ST","m":"Etna","u":"L","o":"individual","sf":6090,"v":1900}},{"type":"Feature","geometry":{"type":"Point","coordinates":[-79.95131,40.49305]},"properties":{"p":"0166S00203000000","a":"104 VISTA ST","m":"Etna","u":"L","o":"individual","sf":5837,"v":11600}},{"type":"Feature","geometry":{"type":"Point","coordinates":[-79.95213,40.49269]},"properties":{"p":"0166S00215000000","a":"116 VISTA ST","m":"Etna","u":"L","o":"individual","sf":2500,"v":900}},{"type":"Feature","geometry":{"type":"Point","coordinates":[-79.95691,40.50302]},"properties":{"p":"0221R00080000000","a":"DEWEY ST","m":"Etna","u":"L","o":"corp","sf":2500,"v":900}},{"type":"Feature","geometry":{"type":"Point","coordinates":[-79.94868,40.50293]},"properties":{"p":"0222N00277000000","a":"SPRING ST","m":"Etna","u":"L","o":"individual","sf":12441,"v":18700}},{"type":"Feature","geometry":{"type":"Point","coordinates":[-79.95459,40.49359]},"properties":{"p":"0166R00035000000","a":"NAUMAN ST","m":"Etna","u":"L","o":"individual","sf":3600,"v":19800}},{"type":"Feature","geometry":{"type":"Point","coordinates":[-79.95622,40.4931]},"properties":{"p":"0166R00055000000","a":"BUCKEYE WAY","m":"Etna","u":"L","o":"individual","sf":11602,"v":12100}},{"type":"Feature","geometry":{"type":"Point","coordinates":[-79.95574,40.49278]},"properties":{"p":"0166R00060000000","a":"152 SHERMAN AVE","m":"Etna","u":"L","o":"individual","sf":5000,"v":11500}},{"type":"Feature","geometry":{"type":"Point","coordinates":[-79.95555,40.49287]},"properties":{"p":"0166R00065000000","a":"152 SHERMAN AVE","m":"Etna","u":"L","o":"individual","sf":7500,"v":11700}},{"type":"Feature","geometry":{"type":"Point","coordinates":[-79.94664,40.49973]},"properties":{"p":"0167A00155000000","a":"MAPLEWOOD ST","m":"Etna","u":"L","o":"individual","sf":5000,"v":5800}},{"type":"Feature","geometry":{"type":"Point","coordinates":[-79.95461,40.50236]},"properties":{"p":"0221R00236000000","a":"HOUSTON ST","m":"Etna","u":"L","o":"individual","sf":23460,"v":19700}},{"type":"Feature","geometry":{"type":"Point","coordinates":[-79.95452,40.5025]},"properties":{"p":"0221R00238000000","a":"SPRING ST","m":"Etna","u":"L","o":"individual","sf":2500,"v":900}},{"type":"Feature","geometry":{"type":"Point","coordinates":[-79.94464,40.50393]},"properties":{"p":"0222K00094000000","a":"KITTANNING ST","m":"Etna","u":"L","o":"individual","sf":14505,"v":18900}},{"type":"Feature","geometry":{"type":"Point","coordinates":[-79.95219,40.49095]},"properties":{"p":"0119D00118000000","a":"ANN ST","m":"Etna","u":"L","o":"individual","sf":4809,"v":22600}},{"type":"Feature","geometry":{"type":"Point","coordinates":[-79.95282,40.49049]},"properties":{"p":"0119D00128000000","a":"ANN ST","m":"Etna","u":"L","o":"individual","sf":4800,"v":1600}},{"type":"Feature","geometry":{"type":"Point","coordinates":[-79.94513,40.50655]},"properties":{"p":"0222F00008000000","a":"LINCOLN ST","m":"Etna","u":"L","o":"individual","sf":874,"v":1600}},{"type":"Feature","geometry":{"type":"Point","coordinates":[-79.95266,40.49415]},"properties":{"p":"0166S00034000000","a":"98 PARKER ST","m":"Etna","u":"L","o":"individual","sf":11279,"v":23600}},{"type":"Feature","geometry":{"type":"Point","coordinates":[-79.94524,40.49643]},"properties":{"p":"0167K00003000000","a":"37 LOCUST ST","m":"Etna","u":"L","o":"corp","sf":2600,"v":13300}},{"type":"Feature","geometry":{"type":"Point","coordinates":[-79.95298,40.49034]},"properties":{"p":"0119D00131000000","a":"ANN ST","m":"Etna","u":"L","o":"individual","sf":4458,"v":10300}},{"type":"Feature","geometry":{"type":"Point","coordinates":[-79.95381,40.49072]},"properties":{"p":"0119D00140000000","a":"ANN ST","m":"Etna","u":"L","o":"corp","sf":60910,"v":1400}},{"type":"Feature","geometry":{"type":"Point","coordinates":[-79.94655,40.49636]},"properties":{"p":"0167J00050000000","a":"45 PROSPECT ST","m":"Etna","u":"L","o":"individual","sf":4000,"v":20700}},{"type":"Feature","geometry":{"type":"Point","coordinates":[-79.9445,40.50233]},"properties":{"p":"0222P00061000000","a":"GANSTER ST","m":"Etna","u":"L","o":"corp","sf":2025,"v":700}},{"type":"Feature","geometry":{"type":"Point","coordinates":[-79.94442,40.5023]},"properties":{"p":"0222P00062000000","a":"GANSTER ST","m":"Etna","u":"L","o":"corp","sf":1377,"v":500}},{"type":"Feature","geometry":{"type":"Point","coordinates":[-79.94432,40.5023]},"properties":{"p":"0222P00063000000","a":"GANSTER ST","m":"Etna","u":"L","o":"corp","sf":756,"v":300}},{"type":"Feature","geometry":{"type":"Point","coordinates":[-79.94427,40.50226]},"properties":{"p":"0222P00064000000","a":"GANSTER ST","m":"Etna","u":"L","o":"individual","sf":128,"v":100}},{"type":"Feature","geometry":{"type":"Point","coordinates":[-79.94392,40.50171]},"properties":{"p":"0222P00075000000","a":"GANSTER ST","m":"Etna","u":"L","o":"individual","sf":431,"v":200}},{"type":"Feature","geometry":{"type":"Point","coordinates":[-79.94372,40.50233]},"properties":{"p":"0222P00107000000","a":"GANSTER ST","m":"Etna","u":"L","o":"corp","sf":14657,"v":18900}},{"type":"Feature","geometry":{"type":"Point","coordinates":[-79.94391,40.50255]},"properties":{"p":"0222P00110000000","a":"GANSTER ST","m":"Etna","u":"L","o":"corp","sf":5476,"v":1700}},{"type":"Feature","geometry":{"type":"Point","coordinates":[-79.94396,40.5026]},"properties":{"p":"0222P00111000000","a":"GANSTER ST","m":"Etna","u":"L","o":"corp","sf":5479,"v":1700}},{"type":"Feature","geometry":{"type":"Point","coordinates":[-79.94796,40.49955]},"properties":{"p":"0167A00254000000","a":"HIGH ST","m":"Etna","u":"L","o":"individual","sf":6500,"v":23100}},{"type":"Feature","geometry":{"type":"Point","coordinates":[-79.94794,40.49917]},"properties":{"p":"0167A00259000000","a":"HIGH ST","m":"Etna","u":"L","o":"individual","sf":2500,"v":900}},{"type":"Feature","geometry":{"type":"Point","coordinates":[-79.94718,40.49376]},"properties":{"p":"0167N00099000000","a":"BUTLER ST","m":"Etna","u":"L","o":"individual","sf":2000,"v":700}},{"type":"Feature","geometry":{"type":"Point","coordinates":[-79.94712,40.49379]},"properties":{"p":"0167N00100000000","a":"BUTLER ST","m":"Etna","u":"L","o":"corp","sf":2000,"v":16100}},{"type":"Feature","geometry":{"type":"Point","coordinates":[-79.95625,40.50282]},"properties":{"p":"0221R00154000000","a":"GREELEY AVE","m":"Etna","u":"L","o":"individual","sf":2400,"v":13300}},{"type":"Feature","geometry":{"type":"Point","coordinates":[-79.95037,40.5071]},"properties":{"p":"0221H00088000000","a":"MOUNT HOPE ST","m":"Etna","u":"L","o":"individual","sf":4474,"v":17100}},{"type":"Feature","geometry":{"type":"Point","coordinates":[-79.9426,40.49701]},"properties":{"p":"0167F00118000000","a":"BRIDGE ST","m":"Etna","u":"L","o":"individual","sf":1023,"v":400}},{"type":"Feature","geometry":{"type":"Point","coordinates":[-79.94256,40.49699]},"properties":{"p":"0167F00119000000","a":"BRIDGE ST","m":"Etna","u":"L","o":"individual","sf":998,"v":400}},{"type":"Feature","geometry":{"type":"Point","coordinates":[-79.94542,40.49456]},"properties":{"p":"0167J00161000000","a":"116 CHERRY ST","m":"Etna","u":"L","o":"individual","sf":2000,"v":16100}},{"type":"Feature","geometry":{"type":"Point","coordinates":[-79.94532,40.49464]},"properties":{"p":"0167J00163000000","a":"CHERRY ST","m":"Etna","u":"L","o":"individual","sf":2000,"v":5000}},{"type":"Feature","geometry":{"type":"Point","coordinates":[-79.95703,40.5034]},"properties":{"p":"0221R00052000000","a":"DEWEY ST","m":"Etna","u":"L","o":"individual","sf":2500,"v":900}},{"type":"Feature","geometry":{"type":"Point","coordinates":[-79.94173,40.49594]},"properties":{"p":"0167K00287000000","a":"SYCAMORE ST","m":"Etna","u":"L","o":"corp","sf":2000,"v":700}},{"type":"Feature","geometry":{"type":"Point","coordinates":[-79.9527,40.49312]},"properties":{"p":"0166S00135000000","a":"VISTA ST","m":"Etna","u":"L","o":"corp","sf":1763,"v":700}},{"type":"Feature","geometry":{"type":"Point","coordinates":[-79.95189,40.49312]},"properties":{"p":"0166S00143000000","a":"SUMMITT ST","m":"Etna","u":"L","o":"individual","sf":32116,"v":25400}},{"type":"Feature","geometry":{"type":"Point","coordinates":[-79.95223,40.49297]},"properties":{"p":"0166S00144000000","a":"VISTA ST","m":"Etna","u":"L","o":"individual","sf":4400,"v":12700}},{"type":"Feature","geometry":{"type":"Point","coordinates":[-79.95053,40.49336]},"properties":{"p":"0166S00160000000","a":"WASHINGTON ST","m":"Etna","u":"L","o":"individual","sf":30840,"v":25300}},{"type":"Feature","geometry":{"type":"Point","coordinates":[-79.95777,40.50298]},"properties":{"p":"0221R00075000000","a":"DEWEY ST","m":"Etna","u":"L","o":"individual","sf":2500,"v":900}},{"type":"Feature","geometry":{"type":"Point","coordinates":[-79.95621,40.50217]},"properties":{"p":"0221R00214000000","a":"GREELEY AVE","m":"Etna","u":"L","o":"individual","sf":150,"v":100}},{"type":"Feature","geometry":{"type":"Point","coordinates":[-79.9478,40.50709]},"properties":{"p":"0222E00106000000","a":"MOUNT HOPE ST","m":"Etna","u":"L","o":"individual","sf":29112,"v":20200}},{"type":"Feature","geometry":{"type":"Point","coordinates":[-79.94766,40.50654]},"properties":{"p":"0222E00111000000","a":"ANGLE ALY","m":"Etna","u":"L","o":"individual","sf":18935,"v":19300}},{"type":"Feature","geometry":{"type":"Point","coordinates":[-79.94806,40.50649]},"properties":{"p":"0222E00115000000","a":"ROBERTSON PL","m":"Etna","u":"L","o":"individual","sf":10214,"v":18500}},{"type":"Feature","geometry":{"type":"Point","coordinates":[-79.95143,40.50652]},"properties":{"p":"0221H00186000000","a":"GRANT AVE","m":"Etna","u":"L","o":"individual","sf":5113,"v":18000}},{"type":"Feature","geometry":{"type":"Point","coordinates":[-79.95476,40.50493]},"properties":{"p":"0221L00065000000","a":"JONES ST","m":"Etna","u":"L","o":"individual","sf":12500,"v":18700}},{"type":"Feature","geometry":{"type":"Point","coordinates":[-79.95789,40.50196]},"properties":{"p":"0221P00020000000","a":"LEWIS ST","m":"Etna","u":"L","o":"individual","sf":14276,"v":4400}},{"type":"Feature","geometry":{"type":"Point","coordinates":[-79.95793,40.50266]},"properties":{"p":"0221P00031000000","a":"3 CEDAR ST","m":"Etna","u":"L","o":"individual","sf":2500,"v":900}},{"type":"Feature","geometry":{"type":"Point","coordinates":[-79.95808,40.50265]},"properties":{"p":"0221P00034000000","a":"3 CEDAR ST","m":"Etna","u":"L","o":"individual","sf":6095,"v":18100}},{"type":"Feature","geometry":{"type":"Point","coordinates":[-79.94558,40.50482]},"properties":{"p":"0222K00004000000","a":"GARRARD ST","m":"Etna","u":"L","o":"individual","sf":5220,"v":2000}},{"type":"Feature","geometry":{"type":"Point","coordinates":[-79.94481,40.50556]},"properties":{"p":"0222K00065000000","a":"KITTANNING RD","m":"Etna","u":"L","o":"individual","sf":10388,"v":18500}},{"type":"Feature","geometry":{"type":"Point","coordinates":[-79.95386,40.49145]},"properties":{"p":"0119C00029000000","a":"155 -157 VISTA ST","m":"Etna","u":"L","o":"individual","sf":4731,"v":10900}},{"type":"Feature","geometry":{"type":"Point","coordinates":[-79.95342,40.49166]},"properties":{"p":"0119D00007000000","a":"VISTA ST","m":"Etna","u":"L","o":"individual","sf":4654,"v":5000}},{"type":"Feature","geometry":{"type":"Point","coordinates":[-79.95353,40.49161]},"properties":{"p":"0119D00008000000","a":"VISTA ST","m":"Etna","u":"L","o":"corp","sf":2330,"v":800}},{"type":"Feature","geometry":{"type":"Point","coordinates":[-79.94514,40.50309]},"properties":{"p":"0222P00045000000","a":"KITTANNING ST","m":"Etna","u":"L","o":"individual","sf":7957,"v":18300}},{"type":"Feature","geometry":{"type":"Point","coordinates":[-79.95612,40.50165]},"properties":{"p":"0221R00311000000","a":"HOUSTON ST","m":"Etna","u":"L","o":"individual","sf":8297,"v":18300}},{"type":"Feature","geometry":{"type":"Point","coordinates":[-79.94882,40.49528]},"properties":{"p":"0167J00285000000","a":"CHRISTLER ST","m":"Etna","u":"L","o":"individual","sf":4900,"v":11300}},{"type":"Feature","geometry":{"type":"Point","coordinates":[-79.94858,40.49508]},"properties":{"p":"0167J00289000000","a":"CHRISTLER ST","m":"Etna","u":"L","o":"individual","sf":4900,"v":11300}},{"type":"Feature","geometry":{"type":"Point","coordinates":[-79.94887,40.49332]},"properties":{"p":"0167N00045000000","a":"BUTLER ST","m":"Etna","u":"L","o":"individual","sf":9240,"v":23400}},{"type":"Feature","geometry":{"type":"Point","coordinates":[-79.95188,40.49115]},"properties":{"p":"0119D00113000000","a":"ANN ST","m":"Etna","u":"L","o":"individual","sf":2400,"v":900}},{"type":"Feature","geometry":{"type":"Point","coordinates":[-79.95167,40.49222]},"properties":{"p":"0166S00262000000","a":"VISTA ST","m":"Etna","u":"L","o":"individual","sf":680,"v":300}},{"type":"Feature","geometry":{"type":"Point","coordinates":[-79.95448,40.50277]},"properties":{"p":"0221R00128000000","a":"JONES ST","m":"Etna","u":"L","o":"corp","sf":2025,"v":700}},{"type":"Feature","geometry":{"type":"Point","coordinates":[-79.95267,40.50252]},"properties":{"p":"0221S00206000100","a":"SPRING ST","m":"Etna","u":"L","o":"individual","sf":25352,"v":19800}},{"type":"Feature","geometry":{"type":"Point","coordinates":[-79.94511,40.4948]},"properties":{"p":"0167K00116000000","a":"CHERRY ST","m":"Etna","u":"L","o":"individual","sf":2614,"v":17500}},{"type":"Feature","geometry":{"type":"Point","coordinates":[-79.9457,40.50522]},"properties":{"p":"0222J00017000000","a":"LINCOLN ST","m":"Etna","u":"L","o":"individual","sf":5200,"v":1700}},{"type":"Feature","geometry":{"type":"Point","coordinates":[-79.94559,40.50515]},"properties":{"p":"0222J00020000000","a":"17 LINCOLN ST","m":"Etna","u":"L","o":"individual","sf":2500,"v":900}},{"type":"Feature","geometry":{"type":"Point","coordinates":[-79.94734,40.49366]},"properties":{"p":"0167N00096000100","a":"BUTLER ST","m":"Etna","u":"L","o":"individual","sf":2000,"v":4600}},{"type":"Feature","geometry":{"type":"Point","coordinates":[-79.94665,40.4981]},"properties":{"p":"0167E00061000000","a":"ELM LN","m":"Etna","u":"L","o":"individual","sf":2500,"v":5800}},{"type":"Feature","geometry":{"type":"Point","coordinates":[-79.94464,40.49747]},"properties":{"p":"0167F00258000000","a":"LOCUST ST","m":"Etna","u":"L","o":"individual","sf":201,"v":200}},{"type":"Feature","geometry":{"type":"Point","coordinates":[-79.9469,40.49954]},"properties":{"p":"0167A00203000000","a":"HICKORY ST","m":"Etna","u":"L","o":"individual","sf":2500,"v":17300}},{"type":"Feature","geometry":{"type":"Point","coordinates":[-79.95171,40.49362]},"properties":{"p":"0166S00100000000","a":"PARKER ST","m":"Etna","u":"L","o":"individual","sf":78408,"v":29700}},{"type":"Feature","geometry":{"type":"Point","coordinates":[-79.95348,40.49245]},"properties":{"p":"0166S00102000000","a":"WOOD ST","m":"Etna","u":"L","o":"individual","sf":1200,"v":500}},{"type":"Feature","geometry":{"type":"Point","coordinates":[-79.95358,40.49258]},"properties":{"p":"0166S00105000000","a":"WASHINGTON ST","m":"Etna","u":"L","o":"individual","sf":1296,"v":500}},{"type":"Feature","geometry":{"type":"Point","coordinates":[-79.95658,40.50342]},"properties":{"p":"0221R00047000000","a":"DEWEY ST","m":"Etna","u":"L","o":"individual","sf":2500,"v":900}},{"type":"Feature","geometry":{"type":"Point","coordinates":[-79.94626,40.49493]},"properties":{"p":"0167J00097000000","a":"PROSPECT ST","m":"Etna","u":"L","o":"individual","sf":2000,"v":700}},{"type":"Feature","geometry":{"type":"Point","coordinates":[-79.94772,40.49464]},"properties":{"p":"0167J00117000000","a":"MORELOCK ST","m":"Etna","u":"L","o":"individual","sf":862,"v":400}},{"type":"Feature","geometry":{"type":"Point","coordinates":[-79.94744,40.49471]},"properties":{"p":"0167J00118000000","a":"MORELOCK ST","m":"Etna","u":"L","o":"individual","sf":3876,"v":20400}},{"type":"Feature","geometry":{"type":"Point","coordinates":[-79.94905,40.5008]},"properties":{"p":"0167A00356000000","a":"GRANDVIEW AVE","m":"Etna","u":"L","o":"individual","sf":2200,"v":800}},{"type":"Feature","geometry":{"type":"Point","coordinates":[-79.94905,40.50085]},"properties":{"p":"0167A00357000000","a":"HIGH ST","m":"Etna","u":"L","o":"corp","sf":2350,"v":900}},{"type":"Feature","geometry":{"type":"Point","coordinates":[-79.94905,40.50092]},"properties":{"p":"0167A00358000000","a":"HIGH ST","m":"Etna","u":"L","o":"corp","sf":1650,"v":600}},{"type":"Feature","geometry":{"type":"Point","coordinates":[-79.95183,40.50288]},"properties":{"p":"0221S00136000000","a":"SPRING ST","m":"Etna","u":"L","o":"individual","sf":4083,"v":16400}},{"type":"Feature","geometry":{"type":"Point","coordinates":[-79.95465,40.49153]},"properties":{"p":"0119C00014000000","a":"WOOD ST","m":"Etna","u":"L","o":"individual","sf":2400,"v":900}},{"type":"Feature","geometry":{"type":"Point","coordinates":[-79.95437,40.49121]},"properties":{"p":"0119C00022000000","a":"VISTA ST","m":"Etna","u":"L","o":"individual","sf":4826,"v":11100}},{"type":"Feature","geometry":{"type":"Point","coordinates":[-79.95422,40.49128]},"properties":{"p":"0119C00024000000","a":"VISTA ST","m":"Etna","u":"L","o":"individual","sf":4800,"v":22500}},{"type":"Feature","geometry":{"type":"Point","coordinates":[-79.95512,40.49306]},"properties":{"p":"0166R00070000000","a":"140 SHERMAN AVE","m":"Etna","u":"L","o":"individual","sf":5000,"v":23000}},{"type":"Feature","geometry":{"type":"Point","coordinates":[-79.95371,40.49325]},"properties":{"p":"0166R00091000000","a":"SHERMAN AVE","m":"Etna","u":"L","o":"individual","sf":22500,"v":24600}},{"type":"Feature","geometry":{"type":"Point","coordinates":[-79.955,40.50155]},"properties":{"p":"0221R00325000000","a":"HOUSTON ST","m":"Shaler","u":"L","o":"individual","sf":130680,"v":46600}},{"type":"Feature","geometry":{"type":"Point","coordinates":[-79.95311,40.50156]},"properties":{"p":"0221S00206000000","a":"SPRING ST EXT","m":"Shaler","u":"L","o":"individual","sf":309276,"v":56700}},{"type":"Feature","geometry":{"type":"Point","coordinates":[-79.95802,40.50944]},"properties":{"p":"0221B00046000000","a":"IRENE ST","m":"Shaler","u":"L","o":"individual","sf":19051,"v":36300}},{"type":"Feature","geometry":{"type":"Point","coordinates":[-79.95558,40.49926]},"properties":{"p":"0166C00337000000","a":"599 MOUNT VERNON DR","m":"Shaler","u":"L","o":"individual","sf":2000,"v":800}},{"type":"Feature","geometry":{"type":"Point","coordinates":[-79.94894,40.5092]},"properties":{"p":"0222A00350000000","a":"ELIZABETH ST","m":"Shaler","u":"L","o":"individual","sf":30461,"v":37300}},{"type":"Feature","geometry":{"type":"Point","coordinates":[-79.95414,40.50916]},"properties":{"p":"0221C00025000000","a":"RIDGE AVE","m":"Shaler","u":"L","o":"individual","sf":21714,"v":7700}},{"type":"Feature","geometry":{"type":"Point","coordinates":[-79.9518,40.50013]},"properties":{"p":"0166D00100000000","a":"LANG AVE","m":"Shaler","u":"L","o":"individual","sf":27882,"v":3000}},{"type":"Feature","geometry":{"type":"Point","coordinates":[-79.95246,40.50016]},"properties":{"p":"0166D00104000000","a":"MCKINLEY AVE","m":"Shaler","u":"L","o":"individual","sf":9729,"v":35400}},{"type":"Feature","geometry":{"type":"Point","coordinates":[-79.95646,40.49891]},"properties":{"p":"0166G00090000000","a":"SEAVEY RD","m":"Shaler","u":"L","o":"corp","sf":873,"v":400}},{"type":"Feature","geometry":{"type":"Point","coordinates":[-79.95255,40.49892]},"properties":{"p":"0166H00018000000","a":"COLUMBIA AVE","m":"Shaler","u":"L","o":"individual","sf":14635,"v":35900}},{"type":"Feature","geometry":{"type":"Point","coordinates":[-79.95173,40.50916]},"properties":{"p":"0221D00146000000","a":"2 ORCHARD AVE","m":"Shaler","u":"L","o":"individual","sf":3500,"v":1300}},{"type":"Feature","geometry":{"type":"Point","coordinates":[-79.9553,40.50565]},"properties":{"p":"0221L00284000000","a":"LITTLE PINE CREEK RD","m":"Shaler","u":"L","o":"individual","sf":7200,"v":3300}},{"type":"Feature","geometry":{"type":"Point","coordinates":[-79.95281,40.50752]},"properties":{"p":"0221H00299000000","a":"LEHR AVE","m":"Shaler","u":"L","o":"individual","sf":10017,"v":35500}},{"type":"Feature","geometry":{"type":"Point","coordinates":[-79.95465,40.50032]},"properties":{"p":"0166C00224000000","a":"317 DEWEY AVENUE EXT","m":"Shaler","u":"L","o":"individual","sf":6091,"v":9000}},{"type":"Feature","geometry":{"type":"Point","coordinates":[-79.9439,40.50485]},"properties":{"p":"0222K00189000000","a":"13 VALLEY ST","m":"Shaler","u":"L","o":"individual","sf":4200,"v":1600}},{"type":"Feature","geometry":{"type":"Point","coordinates":[-79.94397,40.50451]},"properties":{"p":"0222K00197000000","a":"VALLEY ST","m":"Shaler","u":"L","o":"individual","sf":7200,"v":1600}},{"type":"Feature","geometry":{"type":"Point","coordinates":[-79.94287,40.50447]},"properties":{"p":"0222K00266000000","a":"BETHANY DR","m":"Shaler","u":"L","o":"corp","sf":27835,"v":37100}},{"type":"Feature","geometry":{"type":"Point","coordinates":[-79.94326,40.50468]},"properties":{"p":"0222K00276000000","a":"KLAVON ST","m":"Shaler","u":"L","o":"individual","sf":17577,"v":1200}},{"type":"Feature","geometry":{"type":"Point","coordinates":[-79.96,40.49438]},"properties":{"p":"0166K00026000000","a":"PARKER ST","m":"Shaler","u":"L","o":"individual","sf":2516,"v":1000}},{"type":"Feature","geometry":{"type":"Point","coordinates":[-79.9598,40.50948]},"properties":{"p":"0221B00218000000","a":"LITTLE PINE CREEK RD","m":"Shaler","u":"L","o":"individual","sf":29618,"v":10500}},{"type":"Feature","geometry":{"type":"Point","coordinates":[-79.94581,40.50899]},"properties":{"p":"0222A00256000000","a":"BUTLER ST","m":"Shaler","u":"L","o":"corp","sf":6311,"v":2300}},{"type":"Feature","geometry":{"type":"Point","coordinates":[-79.9495,40.50916]},"properties":{"p":"0222A00325000000","a":"423 ELIZABETH ST","m":"Shaler","u":"L","o":"individual","sf":33775,"v":37600}},{"type":"Feature","geometry":{"type":"Point","coordinates":[-79.94434,40.505]},"properties":{"p":"0222K00138000000","a":"92 KITTANNING ST","m":"Shaler","u":"L","o":"individual","sf":5639,"v":2100}},{"type":"Feature","geometry":{"type":"Point","coordinates":[-79.94436,40.50551]},"properties":{"p":"0222K00147000000","a":"KITTANNING ST","m":"Shaler","u":"L","o":"individual","sf":4087,"v":1500}},{"type":"Feature","geometry":{"type":"Point","coordinates":[-79.9564,40.49447]},"properties":{"p":"0166L00143000000","a":"PARKER ST","m":"Shaler","u":"L","o":"individual","sf":2251,"v":900}},{"type":"Feature","geometry":{"type":"Point","coordinates":[-79.95817,40.50769]},"properties":{"p":"0221F00050000000","a":"LITTLE PINE CREEK RD","m":"Shaler","u":"L","o":"individual","sf":54842,"v":39600}},{"type":"Feature","geometry":{"type":"Point","coordinates":[-79.94432,40.50564]},"properties":{"p":"0222K00152000000","a":"KITTANNING ST","m":"Shaler","u":"L","o":"individual","sf":8719,"v":35300}},{"type":"Feature","geometry":{"type":"Point","coordinates":[-79.95404,40.50102]},"properties":{"p":"0166C00187000000","a":"DEWEY AVE EXT","m":"Shaler","u":"L","o":"individual","sf":5175,"v":1900}},{"type":"Feature","geometry":{"type":"Point","coordinates":[-79.954,40.50036]},"properties":{"p":"0166C00211000000","a":"DEWEY AVE EXT","m":"Shaler","u":"L","o":"individual","sf":2500,"v":1000}},{"type":"Feature","geometry":{"type":"Point","coordinates":[-79.95409,40.50035]},"properties":{"p":"0166C00212000000","a":"DEWEY AVE EXT","m":"Shaler","u":"L","o":"individual","sf":2500,"v":1000}},{"type":"Feature","geometry":{"type":"Point","coordinates":[-79.94897,40.49861]},"properties":{"p":"0167E00159000000","a":"JAMES ST","m":"Shaler","u":"L","o":"individual","sf":13860,"v":35800}},{"type":"Feature","geometry":{"type":"Point","coordinates":[-79.94895,40.49827]},"properties":{"p":"0167E00165000000","a":"22 JAMES ST","m":"Shaler","u":"L","o":"individual","sf":5198,"v":2000}},{"type":"Feature","geometry":{"type":"Point","coordinates":[-79.94904,40.49732]},"properties":{"p":"0167E00178000000","a":"SEAVEY RD","m":"Shaler","u":"L","o":"individual","sf":2438,"v":1000}},{"type":"Feature","geometry":{"type":"Point","coordinates":[-79.9483,40.50917]},"properties":{"p":"0222A00085000000","a":"ELIZABETH ST","m":"Shaler","u":"L","o":"individual","sf":60548,"v":40100}},{"type":"Feature","geometry":{"type":"Point","coordinates":[-79.94643,40.5087]},"properties":{"p":"0222A00124000000","a":"835 BUTLER ST","m":"Shaler","u":"L","o":"individual","sf":6650,"v":35200}},{"type":"Feature","geometry":{"type":"Point","coordinates":[-79.95557,40.49915]},"properties":{"p":"0166C00340000000","a":"MOUNT VERNON DR","m":"Shaler","u":"L","o":"individual","sf":2000,"v":800}},{"type":"Feature","geometry":{"type":"Point","coordinates":[-79.95557,40.49903]},"properties":{"p":"0166C00344000000","a":"MOUNT VERNON DR","m":"Shaler","u":"L","o":"individual","sf":2000,"v":800}},{"type":"Feature","geometry":{"type":"Point","coordinates":[-79.94987,40.49911]},"properties":{"p":"0166D00008000000","a":"JAMES ST","m":"Shaler","u":"L","o":"individual","sf":1875,"v":800}},{"type":"Feature","geometry":{"type":"Point","coordinates":[-79.9564,40.49511]},"properties":{"p":"0166L00113000000","a":"DAVIS AVE","m":"Shaler","u":"L","o":"corp","sf":2800,"v":1100}},{"type":"Feature","geometry":{"type":"Point","coordinates":[-79.9564,40.49472]},"properties":{"p":"0166L00114000000","a":"DAVIS AVE","m":"Shaler","u":"L","o":"individual","sf":2251,"v":900}},{"type":"Feature","geometry":{"type":"Point","coordinates":[-79.95661,40.49475]},"properties":{"p":"0166L00115000000","a":"DAVIS AVE","m":"Shaler","u":"L","o":"individual","sf":2182,"v":900}},{"type":"Feature","geometry":{"type":"Point","coordinates":[-79.95369,40.50987]},"properties":{"p":"0221D00354000000","a":"GRANT AVE","m":"Shaler","u":"L","o":"individual","sf":11081,"v":4000}},{"type":"Feature","geometry":{"type":"Point","coordinates":[-79.95908,40.4972]},"properties":{"p":"0166F00180000000","a":"SEAVEY RD","m":"Shaler","u":"L","o":"corp","sf":66211,"v":40600}},{"type":"Feature","geometry":{"type":"Point","coordinates":[-79.95941,40.49691]},"properties":{"p":"0166F00181000000","a":"SEAVEY RD","m":"Shaler","u":"L","o":"individual","sf":10555,"v":18000}},{"type":"Feature","geometry":{"type":"Point","coordinates":[-79.95556,40.50025]},"properties":{"p":"0166C00138000000","a":"SHORT AVE","m":"Shaler","u":"L","o":"individual","sf":7985,"v":35300}},{"type":"Feature","geometry":{"type":"Point","coordinates":[-79.95516,40.50061]},"properties":{"p":"0166C00155000000","a":"DEWEY AVE EXT","m":"Shaler","u":"L","o":"individual","sf":2450,"v":1000}},{"type":"Feature","geometry":{"type":"Point","coordinates":[-79.95501,40.50098]},"properties":{"p":"0166C00157000000","a":"COLEMAN WAY","m":"Shaler","u":"L","o":"individual","sf":21058,"v":7500}},{"type":"Feature","geometry":{"type":"Point","coordinates":[-79.95709,40.50909]},"properties":{"p":"0221C00110000000","a":"MOUNT ROYAL BLVD","m":"Shaler","u":"L","o":"individual","sf":88862,"v":1000}},{"type":"Feature","geometry":{"type":"Point","coordinates":[-79.9547,40.50125]},"properties":{"p":"0166C00162000000","a":"COLEMAN WAY","m":"Shaler","u":"L","o":"individual","sf":5932,"v":17600}},{"type":"Feature","geometry":{"type":"Point","coordinates":[-79.94003,40.50521]},"properties":{"p":"0222L00187000100","a":"BETHANY DR","m":"Shaler","u":"L","o":"individual","sf":1032,"v":500}},{"type":"Feature","geometry":{"type":"Point","coordinates":[-79.9569,40.50794]},"properties":{"p":"0221G00045000000","a":"SHORT ST","m":"Shaler","u":"L","o":"individual","sf":10192,"v":3700}},{"type":"Feature","geometry":{"type":"Point","coordinates":[-79.95527,40.50798]},"properties":{"p":"0221G00068000000","a":"BEYRLEYE AVE","m":"Shaler","u":"L","o":"individual","sf":32247,"v":11400}},{"type":"Feature","geometry":{"type":"Point","coordinates":[-79.95396,40.49942]},"properties":{"p":"0166C00280000000","a":"185 SEAVEY RD","m":"Shaler","u":"L","o":"individual","sf":6375,"v":2300}},{"type":"Feature","geometry":{"type":"Point","coordinates":[-79.95426,40.49957]},"properties":{"p":"0166C00284000000","a":"SEAVEY RD","m":"Shaler","u":"L","o":"individual","sf":2000,"v":800}},{"type":"Feature","geometry":{"type":"Point","coordinates":[-79.95513,40.4995]},"properties":{"p":"0166C00309000000","a":"MOUNT VERNON DR","m":"Shaler","u":"L","o":"individual","sf":6000,"v":35100}},{"type":"Feature","geometry":{"type":"Point","coordinates":[-79.95507,40.4997]},"properties":{"p":"0166C00310000000","a":"SEAVEY RD","m":"Shaler","u":"L","o":"individual","sf":2375,"v":25800}},{"type":"Feature","geometry":{"type":"Point","coordinates":[-79.95559,40.49937]},"properties":{"p":"0166C00332000000","a":"599 MOUNT VERNON DR","m":"Shaler","u":"L","o":"individual","sf":2000,"v":800}},{"type":"Feature","geometry":{"type":"Point","coordinates":[-79.95559,40.49931]},"properties":{"p":"0166C00334000000","a":"599 MOUNT VERNON DR","m":"Shaler","u":"L","o":"individual","sf":2000,"v":800}},{"type":"Feature","geometry":{"type":"Point","coordinates":[-79.94016,40.50097]},"properties":{"p":"0167G00300000000","a":"ALLEGHENY AVE","m":"Shaler","u":"L","o":"individual","sf":153723,"v":6750}},{"type":"Feature","geometry":{"type":"Point","coordinates":[-79.95431,40.50982]},"properties":{"p":"0221C00304000000","a":"MOUNT ROYAL BLVD","m":"Shaler","u":"L","o":"individual","sf":8744,"v":35300}},{"type":"Feature","geometry":{"type":"Point","coordinates":[-79.95411,40.50983]},"properties":{"p":"0221C00306000000","a":"MOUNT ROYAL BLVD","m":"Shaler","u":"L","o":"individual","sf":10126,"v":35500}},{"type":"Feature","geometry":{"type":"Point","coordinates":[-79.95026,40.49841]},"properties":{"p":"0166H00100000000","a":"SEAVEY RD","m":"Shaler","u":"L","o":"corp","sf":32550,"v":11500}},{"type":"Feature","geometry":{"type":"Point","coordinates":[-79.94387,40.50633]},"properties":{"p":"0222F00276000000","a":"KITTANNING ST","m":"Shaler","u":"L","o":"individual","sf":7356,"v":13000}},{"type":"Feature","geometry":{"type":"Point","coordinates":[-79.95948,40.49656]},"properties":{"p":"0166K00361000000","a":"F ST","m":"Shaler","u":"L","o":"individual","sf":10468,"v":35500}},{"type":"Feature","geometry":{"type":"Point","coordinates":[-79.94941,40.49995]},"properties":{"p":"0167A00378000000","a":"PERLICK ST","m":"Shaler","u":"L","o":"individual","sf":2707,"v":27000}},{"type":"Feature","geometry":{"type":"Point","coordinates":[-79.94969,40.50075]},"properties":{"p":"0166D00261000000","a":"CRAFT AVE","m":"Shaler","u":"L","o":"corp","sf":4230,"v":1600}},{"type":"Feature","geometry":{"type":"Point","coordinates":[-79.94993,40.50139]},"properties":{"p":"0166D00274000000","a":"CRAFT AVE","m":"Shaler","u":"L","o":"individual","sf":92347,"v":43000}},{"type":"Feature","geometry":{"type":"Point","coordinates":[-79.95136,40.50177]},"properties":{"p":"0166D00295000000","a":"DEWEY AVE","m":"Shaler","u":"L","o":"individual","sf":235224,"v":55000}},{"type":"Feature","geometry":{"type":"Point","coordinates":[-79.94418,40.50428]},"properties":{"p":"0222K00119000000","a":"SNYDER ST","m":"Shaler","u":"L","o":"corp","sf":5078,"v":1900}},{"type":"Feature","geometry":{"type":"Point","coordinates":[-79.958,40.49548]},"properties":{"p":"0166K00260000000","a":"SCHWARTZ AVE","m":"Shaler","u":"L","o":"individual","sf":4095,"v":1500}},{"type":"Feature","geometry":{"type":"Point","coordinates":[-79.94702,40.5087]},"properties":{"p":"0222E00300000000","a":"815 BUTLER ST","m":"Shaler","u":"L","o":"individual","sf":45768,"v":38800}},{"type":"Feature","geometry":{"type":"Point","coordinates":[-79.948,40.50798]},"properties":{"p":"0222E00375000000","a":"ELIZABETH ST","m":"Shaler","u":"L","o":"corp","sf":65340,"v":40600}},{"type":"Feature","geometry":{"type":"Point","coordinates":[-79.9439,40.50722]},"properties":{"p":"0222F00060000000","a":"KITTANNING ST","m":"Shaler","u":"L","o":"individual","sf":11446,"v":18100}},{"type":"Feature","geometry":{"type":"Point","coordinates":[-79.94501,40.50796]},"properties":{"p":"0222F00112000000","a":"LINCOLN AVE","m":"Shaler","u":"L","o":"individual","sf":16620,"v":36100}},{"type":"Feature","geometry":{"type":"Point","coordinates":[-79.94175,40.50808]},"properties":{"p":"0222F00170000000","a":"KITTANNING RD","m":"Shaler","u":"L","o":"individual","sf":24176,"v":8600}},{"type":"Feature","geometry":{"type":"Point","coordinates":[-79.94169,40.5072]},"properties":{"p":"0222F00220000000","a":"KITTANNING RD","m":"Shaler","u":"L","o":"individual","sf":293595,"v":59600}},{"type":"Feature","geometry":{"type":"Point","coordinates":[-79.94842,40.49913]},"properties":{"p":"0167A00265000000","a":"HIGH ST","m":"Shaler","u":"L","o":"individual","sf":5000,"v":35000}},{"type":"Feature","geometry":{"type":"Point","coordinates":[-79.94898,40.4995]},"properties":{"p":"0167A00331000000","a":"GRANDVIEW AVE","m":"Shaler","u":"L","o":"individual","sf":4000,"v":1500}},{"type":"Feature","geometry":{"type":"Point","coordinates":[-79.94374,40.50643]},"properties":{"p":"0222F00270000000","a":"KITTANNING ST","m":"Shaler","u":"L","o":"individual","sf":6673,"v":2400}},{"type":"Feature","geometry":{"type":"Point","coordinates":[-79.95768,40.49606]},"properties":{"p":"0166L00040000000","a":"REETZ AVE","m":"Shaler","u":"L","o":"individual","sf":49249,"v":39100}},{"type":"Feature","geometry":{"type":"Point","coordinates":[-79.95188,40.50022]},"properties":{"p":"0166D00141000000","a":"MCKINLEY AVE","m":"Shaler","u":"L","o":"individual","sf":5000,"v":2000}},{"type":"Feature","geometry":{"type":"Point","coordinates":[-79.95048,40.49978]},"properties":{"p":"0166D00145000000","a":"LANG AVE","m":"Shaler","u":"L","o":"individual","sf":3644,"v":1400}},{"type":"Feature","geometry":{"type":"Point","coordinates":[-79.95136,40.50054]},"properties":{"p":"0166D00160000000","a":"SCHLEY AVE","m":"Shaler","u":"L","o":"individual","sf":44867,"v":500}},{"type":"Feature","geometry":{"type":"Point","coordinates":[-79.95694,40.4955]},"properties":{"p":"0166L00078000000","a":"SCHWARTZ AVE","m":"Shaler","u":"L","o":"individual","sf":5850,"v":35100}},{"type":"Feature","geometry":{"type":"Point","coordinates":[-79.9564,40.4955]},"properties":{"p":"0166L00083000000","a":"SCHWARTZ AVE","m":"Shaler","u":"L","o":"corp","sf":2925,"v":1100}},{"type":"Feature","geometry":{"type":"Point","coordinates":[-79.95035,40.50062]},"properties":{"p":"0166D00236000000","a":"CRAFT AVE","m":"Shaler","u":"L","o":"individual","sf":10000,"v":35500}},{"type":"Feature","geometry":{"type":"Point","coordinates":[-79.95008,40.5005]},"properties":{"p":"0166D00237000000","a":"CRAFT AVE","m":"Shaler","u":"L","o":"individual","sf":7500,"v":2700}},{"type":"Feature","geometry":{"type":"Point","coordinates":[-79.95882,40.49545]},"properties":{"p":"0166K00251000000","a":"SCHWARTZ AVE","m":"Shaler","u":"L","o":"individual","sf":5850,"v":35100}},{"type":"Feature","geometry":{"type":"Point","coordinates":[-79.95867,40.49545]},"properties":{"p":"0166K00253000000","a":"450 SCHWARTZ AVE","m":"Shaler","u":"L","o":"individual","sf":936,"v":400}},{"type":"Feature","geometry":{"type":"Point","coordinates":[-79.94525,40.50754]},"properties":{"p":"0222E00220000000","a":"SARAH ST","m":"Shaler","u":"L","o":"individual","sf":2534,"v":1000}},{"type":"Feature","geometry":{"type":"Point","coordinates":[-79.9454,40.50824]},"properties":{"p":"0222E00232000000","a":"SARAH ST","m":"Shaler","u":"L","o":"individual","sf":2500,"v":1000}},{"type":"Feature","geometry":{"type":"Point","coordinates":[-79.95553,40.49383]},"properties":{"p":"0166R00350000000","a":"PARKER ST","m":"Shaler","u":"L","o":"corp","sf":97574,"v":1100}},{"type":"Feature","geometry":{"type":"Point","coordinates":[-79.9535,40.49777]},"properties":{"p":"0166H00188000000","a":"SEAVEY RD","m":"Shaler","u":"L","o":"individual","sf":104544,"v":1200}},{"type":"Feature","geometry":{"type":"Point","coordinates":[-79.9564,40.50668]},"properties":{"p":"0221G00247000000","a":"LITTLE PINE CREEK RD","m":"Shaler","u":"L","o":"corp","sf":5186,"v":35000}},{"type":"Feature","geometry":{"type":"Point","coordinates":[-79.95947,40.49614]},"properties":{"p":"0166K00363000000","a":"F ST","m":"Shaler","u":"L","o":"individual","sf":10250,"v":35500}},{"type":"Feature","geometry":{"type":"Point","coordinates":[-79.9583,40.4966]},"properties":{"p":"0166K00386000000","a":"D ST","m":"Shaler","u":"L","o":"individual","sf":9000,"v":35400}},{"type":"Feature","geometry":{"type":"Point","coordinates":[-79.95813,40.49657]},"properties":{"p":"0166K00388000000","a":"D ST","m":"Shaler","u":"L","o":"individual","sf":9600,"v":35400}},{"type":"Feature","geometry":{"type":"Point","coordinates":[-79.95162,40.49994]},"properties":{"p":"0166D00135000000","a":"MCKINLEY AVE","m":"Shaler","u":"L","o":"corp","sf":2500,"v":1000}},{"type":"Feature","geometry":{"type":"Point","coordinates":[-79.95167,40.5]},"properties":{"p":"0166D00136000000","a":"MCKINLEY AVE","m":"Shaler","u":"L","o":"corp","sf":2500,"v":1000}},{"type":"Feature","geometry":{"type":"Point","coordinates":[-79.95172,40.50005]},"properties":{"p":"0166D00137000000","a":"MCKINLEY AVE","m":"Shaler","u":"L","o":"individual","sf":2500,"v":1000}},{"type":"Feature","geometry":{"type":"Point","coordinates":[-79.95084,40.49883]},"properties":{"p":"0166H00022000000","a":"COLUMBIA AVE","m":"Shaler","u":"L","o":"individual","sf":23029,"v":19100}},{"type":"Feature","geometry":{"type":"Point","coordinates":[-79.95029,40.49884]},"properties":{"p":"0166H00038000000","a":"COLUMBIA AVE","m":"Shaler","u":"L","o":"individual","sf":43691,"v":29700}},{"type":"Feature","geometry":{"type":"Point","coordinates":[-79.95604,40.49128]},"properties":{"p":"0119C00170000000","a":"WASHINGTON ST","m":"Shaler","u":"L","o":"individual","sf":5808,"v":17600}},{"type":"Feature","geometry":{"type":"Point","coordinates":[-79.94021,40.50338]},"properties":{"p":"0222R00071000000","a":"FOUNDRY ST","m":"Shaler","u":"L","o":"individual","sf":8031,"v":2900}},{"type":"Feature","geometry":{"type":"Point","coordinates":[-79.94445,40.50639]},"properties":{"p":"0222F00046000000","a":"KITTANNING ST","m":"Etna","u":"L","o":"individual","sf":6401,"v":18100}},{"type":"Feature","geometry":{"type":"Point","coordinates":[-79.94193,40.50494]},"properties":{"p":"0222K00334000000","a":"BETHANY DR","m":"Shaler","u":"L","o":"individual","sf":6045,"v":35100}},{"type":"Feature","geometry":{"type":"Point","coordinates":[-79.95382,40.50039]},"properties":{"p":"0166C00210000000","a":"DEWEY AVE EXT","m":"Shaler","u":"L","o":"individual","sf":8953,"v":17900}},{"type":"Feature","geometry":{"type":"Point","coordinates":[-79.94516,40.49419]},"properties":{"p":"0167K00122000000","a":"125 CHERRY ST","m":"Etna","u":"L","o":"individual","sf":2000,"v":700}},{"type":"Feature","geometry":{"type":"Point","coordinates":[-79.9551,40.50557]},"properties":{"p":"0221L00280000000","a":"LITTLE PINE CREEK RD","m":"Shaler","u":"L","o":"individual","sf":14566,"v":18400}},{"type":"Feature","geometry":{"type":"Point","coordinates":[-79.95932,40.50335]},"properties":{"p":"0221P00078000000","a":"DEWEY ST","m":"Shaler","u":"L","o":"individual","sf":26572,"v":19400}},{"type":"Feature","geometry":{"type":"Point","coordinates":[-79.95673,40.50303]},"properties":{"p":"0221R00082000000","a":"DEWEY ST","m":"Etna","u":"L","o":"individual","sf":2500,"v":13500}},{"type":"Feature","geometry":{"type":"Point","coordinates":[-79.95557,40.49909]},"properties":{"p":"0166C00342000000","a":"MOUNT VERNON DR","m":"Shaler","u":"L","o":"individual","sf":2000,"v":800}},{"type":"Feature","geometry":{"type":"Point","coordinates":[-79.95437,40.50827]},"properties":{"p":"0221G00088000000","a":"SHORT ST","m":"Shaler","u":"L","o":"individual","sf":6238,"v":17600}},{"type":"Feature","geometry":{"type":"Point","coordinates":[-79.94344,40.50352]},"properties":{"p":"0222P00160000000","a":"SNYDER ST","m":"Shaler","u":"L","o":"individual","sf":11326,"v":35600}},{"type":"Feature","geometry":{"type":"Point","coordinates":[-79.9466,40.4959]},"properties":{"p":"0167J00059000000","a":"VINE ST","m":"Etna","u":"L","o":"individual","sf":2190,"v":800}},{"type":"Feature","geometry":{"type":"Point","coordinates":[-79.94499,40.49433]},"properties":{"p":"0167K00124000000","a":"CHERRY ST","m":"Etna","u":"L","o":"individual","sf":8000,"v":23300}},{"type":"Feature","geometry":{"type":"Point","coordinates":[-79.94297,40.5029]},"properties":{"p":"0222P00240000000","a":"FOUNDRY ST","m":"Shaler","u":"L","o":"individual","sf":113256,"v":4400}},{"type":"Feature","geometry":{"type":"Point","coordinates":[-79.95176,40.49759]},"properties":{"p":"0166H00200000000","a":"SEAVEY RD","m":"Shaler","u":"L","o":"individual","sf":18687,"v":36200}},{"type":"Feature","geometry":{"type":"Point","coordinates":[-79.94955,40.50125]},"properties":{"p":"0166D00250000000","a":"CRAFT AVE","m":"Etna","u":"L","o":"corp","sf":4500,"v":1500}},{"type":"Feature","geometry":{"type":"Point","coordinates":[-79.94401,40.50266]},"properties":{"p":"0222P00112000000","a":"GANSTER ST","m":"Etna","u":"L","o":"corp","sf":5356,"v":1700}},{"type":"Feature","geometry":{"type":"Point","coordinates":[-79.95422,40.50478]},"properties":{"p":"0221L00046000000","a":"VILSACK ST","m":"Etna","u":"L","o":"individual","sf":42464,"v":21400}},{"type":"Feature","geometry":{"type":"Point","coordinates":[-79.95278,40.49335]},"properties":{"p":"0166S00088000000","a":"PARKER ST","m":"Etna","u":"L","o":"individual","sf":6287,"v":23100}},{"type":"Feature","geometry":{"type":"Point","coordinates":[-79.94285,40.4955]},"properties":{"p":"0167K00268000000","a":"SYCAMORE ST","m":"Etna","u":"L","o":"individual","sf":2496,"v":900}},{"type":"Feature","geometry":{"type":"Point","coordinates":[-79.9523,40.49418]},"properties":{"p":"0166S00030000000","a":"PARKER ST","m":"Etna","u":"L","o":"individual","sf":11766,"v":23600}},{"type":"Feature","geometry":{"type":"Point","coordinates":[-79.94534,40.49636]},"properties":{"p":"0167J00004000000","a":"33 LOCUST ST","m":"Etna","u":"L","o":"corp","sf":2600,"v":13300}},{"type":"Feature","geometry":{"type":"Point","coordinates":[-79.95202,40.50024]},"properties":{"p":"0166D00143000000","a":"MCKINLEY AVE","m":"Shaler","u":"L","o":"individual","sf":6393,"v":2000}},{"type":"Feature","geometry":{"type":"Point","coordinates":[-79.95312,40.50012]},"properties":{"p":"0166D00082000000","a":"BUTTERFIELD AVE","m":"Shaler","u":"L","o":"individual","sf":2892,"v":1100}},{"type":"Feature","geometry":{"type":"Point","coordinates":[-79.95209,40.49762]},"properties":{"p":"0166H00196000000","a":"SEAVEY RD","m":"Shaler","u":"L","o":"individual","sf":11231,"v":2500}},{"type":"Feature","geometry":{"type":"Point","coordinates":[-79.94215,40.50496]},"properties":{"p":"0222K00332000000","a":"56 B BETHANY DR","m":"Shaler","u":"L","o":"individual","sf":6695,"v":35200}},{"type":"Feature","geometry":{"type":"Point","coordinates":[-79.94643,40.50881]},"properties":{"p":"0222A00128000000","a":"835 BUTLER ST","m":"Shaler","u":"L","o":"individual","sf":3339,"v":1300}},{"type":"Feature","geometry":{"type":"Point","coordinates":[-79.9539,40.50984]},"properties":{"p":"0221C00312000000","a":"GRANT AVE","m":"Shaler","u":"L","o":"individual","sf":10563,"v":35500}}]}