{"type":"FeatureCollection","features":[{"type":"Feature","geometry":{"type":"Point","coordinates":[-79.94991,40.44981]},"properties":{"p":"0027H00229000000","a":"BAYARD ST","m":"4th Ward - PITTSBURGH","u":"C","o":"corp","sf":5221,"v":102900}},{"type":"Feature","geometry":{"type":"Point","coordinates":[-79.95143,40.44759]},"properties":{"p":"0027M00160000A00","a":"N DITHRIDGE ST","m":"4th Ward - PITTSBURGH","u":"C","o":"corp","sf":144,"v":400}},{"type":"Feature","geometry":{"type":"Point","coordinates":[-79.95115,40.44699]},"properties":{"p":"0027M00162000A00","a":"4415 5TH AVE","m":"4th Ward - PITTSBURGH","u":"C","o":"corp","sf":1562,"v":145700}},{"type":"Feature","geometry":{"type":"Point","coordinates":[-79.95999,40.4301]},"properties":{"p":"0029F00029000000","a":"200 TECHNOLOGY DR","m":"4th Ward - PITTSBURGH","u":"C","o":"corp","sf":15115,"v":105800}},{"type":"Feature","geometry":{"type":"Point","coordinates":[-79.95942,40.43307]},"properties":{"p":"0029B00059000000","a":"MACKEY ST","m":"4th Ward - PITTSBURGH","u":"C","o":"corp","sf":192,"v":200}},{"type":"Feature","geometry":{"type":"Point","coordinates":[-79.95576,40.43061]},"properties":{"p":"0029G00218000000","a":"FRAZIER ST","m":"4th Ward - PITTSBURGH","u":"C","o":"corp","sf":2500,"v":22200}},{"type":"Feature","geometry":{"type":"Point","coordinates":[-79.95067,40.43307]},"properties":{"p":"0028S00230000000","a":"BOUNDARY ST","m":"4th Ward - PITTSBURGH","u":"C","o":"corp","sf":244372,"v":293300}},{"type":"Feature","geometry":{"type":"Point","coordinates":[-79.95967,40.43923]},"properties":{"p":"0028F00215000000","a":"3434 -3444 FORBES AVE","m":"4th Ward - PITTSBURGH","u":"C","o":"corp","sf":15120,"v":463100}},{"type":"Feature","geometry":{"type":"Point","coordinates":[-79.95848,40.43853]},"properties":{"p":"0028F00308000000","a":"256 -294 MCKEE PL","m":"4th Ward - PITTSBURGH","u":"C","o":"corp","sf":67231,"v":1136300}},{"type":"Feature","geometry":{"type":"Point","coordinates":[-79.95606,40.44011]},"properties":{"p":"0028G00213000000","a":"251 -253 ATWOOD ST","m":"4th Ward - PITTSBURGH","u":"C","o":"corp","sf":3120,"v":101500}},{"type":"Feature","geometry":{"type":"Point","coordinates":[-79.95733,40.44032]},"properties":{"p":"0028G00110000900","a":"3600 FORBES AVE","m":"4th Ward - PITTSBURGH","u":"C","o":"corp","sf":98385,"v":700000}},{"type":"Feature","geometry":{"type":"Point","coordinates":[-79.9484,40.44609]},"properties":{"p":"0052J00168000000","a":"207 S CRAIG ST","m":"4th Ward - PITTSBURGH","u":"C","o":"individual","sf":1200,"v":15000}},{"type":"Feature","geometry":{"type":"Point","coordinates":[-79.94784,40.44388]},"properties":{"p":"0052N00059000000","a":"4608 -4644 FORBES AVE","m":"4th Ward - PITTSBURGH","u":"C","o":"corp","sf":85386,"v":1431300}},{"type":"Feature","geometry":{"type":"Point","coordinates":[-79.94562,40.44932]},"properties":{"p":"0052E00192000000","a":"4836 ELLSWORTH AVE","m":"7th Ward - PITTSBURGH","u":"C","o":"corp","sf":12702,"v":127000}},{"type":"Feature","geometry":{"type":"Point","coordinates":[-79.95657,40.44109]},"properties":{"p":"0028C00189000000","a":"OAKLAND AVE","m":"4th Ward - PITTSBURGH","u":"C","o":"individual","sf":178,"v":1800}},{"type":"Feature","geometry":{"type":"Point","coordinates":[-79.95864,40.43302]},"properties":{"p":"0029B00133000000","a":"BATES ST","m":"4th Ward - PITTSBURGH","u":"C","o":"corp","sf":1593,"v":39600}},{"type":"Feature","geometry":{"type":"Point","coordinates":[-79.95809,40.43329]},"properties":{"p":"0028P00234000000","a":"BATES ST","m":"4th Ward - PITTSBURGH","u":"C","o":"corp","sf":4774,"v":5700}},{"type":"Feature","geometry":{"type":"Point","coordinates":[-79.95078,40.44012]},"properties":{"p":"0028H00266000000","a":"7 BOUNDARY ST","m":"4th Ward - PITTSBURGH","u":"L","o":"individual","sf":990,"v":4500}},{"type":"Feature","geometry":{"type":"Point","coordinates":[-79.95463,40.43578]},"properties":{"p":"0028L00378000000","a":"WARD ST","m":"4th Ward - PITTSBURGH","u":"L","o":"individual","sf":840,"v":3800}},{"type":"Feature","geometry":{"type":"Point","coordinates":[-79.95144,40.43936]},"properties":{"p":"0028H00177000000","a":"BOUNDARY ST","m":"4th Ward - PITTSBURGH","u":"L","o":"corp","sf":4080,"v":18400}},{"type":"Feature","geometry":{"type":"Point","coordinates":[-79.95017,40.43728]},"properties":{"p":"0028M00175000000","a":"BOUNDARY ST","m":"4th Ward - PITTSBURGH","u":"L","o":"corp","sf":126324,"v":57100}},{"type":"Feature","geometry":{"type":"Point","coordinates":[-79.95003,40.4366]},"properties":{"p":"0028M00200000000","a":"BOUNDARY ST","m":"4th Ward - PITTSBURGH","u":"L","o":"corp","sf":29210,"v":47400}},{"type":"Feature","geometry":{"type":"Point","coordinates":[-79.95095,40.44026]},"properties":{"p":"0028H00252000000","a":"3 JONCAIRE ST","m":"4th Ward - PITTSBURGH","u":"L","o":"individual","sf":51227,"v":49600}},{"type":"Feature","geometry":{"type":"Point","coordinates":[-79.95412,40.4367]},"properties":{"p":"0028L00295000000","a":"SEMPLE ST","m":"4th Ward - PITTSBURGH","u":"L","o":"individual","sf":1800,"v":6000}},{"type":"Feature","geometry":{"type":"Point","coordinates":[-79.95771,40.44802]},"properties":{"p":"0027G00198000000","a":"PARKMAN AVE","m":"4th Ward - PITTSBURGH","u":"L","o":"individual","sf":2000,"v":32000}},{"type":"Feature","geometry":{"type":"Point","coordinates":[-79.95639,40.43061]},"properties":{"p":"0029G00205000000","a":"WAKEFIELD ST","m":"4th Ward - PITTSBURGH","u":"L","o":"corp","sf":2500,"v":7500}},{"type":"Feature","geometry":{"type":"Point","coordinates":[-79.95645,40.43066]},"properties":{"p":"0029G00206000000","a":"WAKEFIELD ST","m":"4th Ward - PITTSBURGH","u":"L","o":"corp","sf":2500,"v":11300}},{"type":"Feature","geometry":{"type":"Point","coordinates":[-79.95652,40.4307]},"properties":{"p":"0029G00207000000","a":"WAKEFIELD ST","m":"4th Ward - PITTSBURGH","u":"L","o":"individual","sf":2500,"v":11300}},{"type":"Feature","geometry":{"type":"Point","coordinates":[-79.95658,40.43075]},"properties":{"p":"0029G00208000000","a":"WAKEFIELD ST","m":"4th Ward - PITTSBURGH","u":"L","o":"individual","sf":2500,"v":11300}},{"type":"Feature","geometry":{"type":"Point","coordinates":[-79.9536,40.43195]},"properties":{"p":"0029D00024000000","a":"DAWSON ST","m":"4th Ward - PITTSBURGH","u":"L","o":"individual","sf":2232,"v":10000}},{"type":"Feature","geometry":{"type":"Point","coordinates":[-79.95095,40.43154]},"properties":{"p":"0029D00240000000","a":"101 PANTHER HOLLOW RD","m":"4th Ward - PITTSBURGH","u":"L","o":"corp","sf":8190,"v":45300}},{"type":"Feature","geometry":{"type":"Point","coordinates":[-79.95934,40.43319]},"properties":{"p":"0029B00057000000","a":"MACKEY ST","m":"4th Ward - PITTSBURGH","u":"L","o":"corp","sf":4120,"v":540}},{"type":"Feature","geometry":{"type":"Point","coordinates":[-79.95927,40.43309]},"properties":{"p":"0029B00058000000","a":"MACKEY ST","m":"4th Ward - PITTSBURGH","u":"L","o":"individual","sf":2197,"v":16200}},{"type":"Feature","geometry":{"type":"Point","coordinates":[-79.95665,40.4308]},"properties":{"p":"0029G00209000000","a":"WAKEFIELD ST","m":"4th Ward - PITTSBURGH","u":"L","o":"individual","sf":2500,"v":11300}},{"type":"Feature","geometry":{"type":"Point","coordinates":[-79.9567,40.43085]},"properties":{"p":"0029G00210000000","a":"WAKEFIELD ST","m":"4th Ward - PITTSBURGH","u":"L","o":"corp","sf":2500,"v":11300}},{"type":"Feature","geometry":{"type":"Point","coordinates":[-79.95731,40.43257]},"properties":{"p":"0029C00086000100","a":"ROMEO ST","m":"4th Ward - PITTSBURGH","u":"L","o":"individual","sf":2400,"v":10800}},{"type":"Feature","geometry":{"type":"Point","coordinates":[-79.95732,40.4325]},"properties":{"p":"0029C00086000200","a":"ROMEO ST","m":"4th Ward - PITTSBURGH","u":"L","o":"individual","sf":2760,"v":12400}},{"type":"Feature","geometry":{"type":"Point","coordinates":[-79.95351,40.43194]},"properties":{"p":"0029D00025000000","a":"SWINBURNE ST","m":"4th Ward - PITTSBURGH","u":"L","o":"individual","sf":2232,"v":10000}},{"type":"Feature","geometry":{"type":"Point","coordinates":[-79.95498,40.43111]},"properties":{"p":"0029C00242000000","a":"3208 WARD ST","m":"4th Ward - PITTSBURGH","u":"L","o":"individual","sf":16427,"v":46100}},{"type":"Feature","geometry":{"type":"Point","coordinates":[-79.95956,40.43291]},"properties":{"p":"0029B00064000000","a":"MACKEY ST","m":"4th Ward - PITTSBURGH","u":"L","o":"corp","sf":3360,"v":1300}},{"type":"Feature","geometry":{"type":"Point","coordinates":[-79.95974,40.43271]},"properties":{"p":"0029B00067000000","a":"MACKEY ST","m":"4th Ward - PITTSBURGH","u":"L","o":"individual","sf":2900,"v":13100}},{"type":"Feature","geometry":{"type":"Point","coordinates":[-79.95679,40.43091]},"properties":{"p":"0029C00008000000","a":"WAKEFIELD ST","m":"4th Ward - PITTSBURGH","u":"L","o":"corp","sf":5000,"v":22500}},{"type":"Feature","geometry":{"type":"Point","coordinates":[-79.95689,40.43098]},"properties":{"p":"0029C00009000000","a":"WAKEFIELD ST","m":"4th Ward - PITTSBURGH","u":"L","o":"corp","sf":2500,"v":11300}},{"type":"Feature","geometry":{"type":"Point","coordinates":[-79.95947,40.43269]},"properties":{"p":"0029B00074000000","a":"HODGE ST","m":"4th Ward - PITTSBURGH","u":"L","o":"individual","sf":1568,"v":7100}},{"type":"Feature","geometry":{"type":"Point","coordinates":[-79.95939,40.43276]},"properties":{"p":"0029B00075000000","a":"HODGE ST","m":"4th Ward - PITTSBURGH","u":"L","o":"individual","sf":1632,"v":7300}},{"type":"Feature","geometry":{"type":"Point","coordinates":[-79.95925,40.43289]},"properties":{"p":"0029B00078000000","a":"HODGE ST","m":"4th Ward - PITTSBURGH","u":"L","o":"corp","sf":1872,"v":540}},{"type":"Feature","geometry":{"type":"Point","coordinates":[-79.95912,40.43291]},"properties":{"p":"0029B00079000000","a":"HODGE ST","m":"4th Ward - PITTSBURGH","u":"L","o":"corp","sf":4620,"v":540}},{"type":"Feature","geometry":{"type":"Point","coordinates":[-79.95899,40.43304]},"properties":{"p":"0029B00084000000","a":"HODGE ST","m":"4th Ward - PITTSBURGH","u":"L","o":"corp","sf":3316,"v":1300}},{"type":"Feature","geometry":{"type":"Point","coordinates":[-79.95906,40.43321]},"properties":{"p":"0029B00087000000","a":"HALKET ST","m":"4th Ward - PITTSBURGH","u":"L","o":"individual","sf":1866,"v":8400}},{"type":"Feature","geometry":{"type":"Point","coordinates":[-79.95218,40.43122]},"properties":{"p":"0029D00137000000","a":"SWINBURNE ST","m":"4th Ward - PITTSBURGH","u":"L","o":"corp","sf":4301,"v":19400}},{"type":"Feature","geometry":{"type":"Point","coordinates":[-79.95723,40.43293]},"properties":{"p":"0029C00091000000","a":"ROMEO ST","m":"4th Ward - PITTSBURGH","u":"L","o":"individual","sf":5520,"v":22600}},{"type":"Feature","geometry":{"type":"Point","coordinates":[-79.95482,40.43163]},"properties":{"p":"0029C00246000000","a":"OAKLAND CT","m":"4th Ward - PITTSBURGH","u":"L","o":"individual","sf":621,"v":300}},{"type":"Feature","geometry":{"type":"Point","coordinates":[-79.95717,40.43109]},"properties":{"p":"0029C00013000000","a":"WAKEFIELD ST","m":"4th Ward - PITTSBURGH","u":"L","o":"corp","sf":1000,"v":500}},{"type":"Feature","geometry":{"type":"Point","coordinates":[-79.95476,40.43168]},"properties":{"p":"0029C00248000000","a":"OAKLAND CT","m":"4th Ward - PITTSBURGH","u":"L","o":"individual","sf":621,"v":300}},{"type":"Feature","geometry":{"type":"Point","coordinates":[-79.9548,40.43172]},"properties":{"p":"0029C00249000000","a":"OAKLAND CT","m":"4th Ward - PITTSBURGH","u":"L","o":"individual","sf":621,"v":300}},{"type":"Feature","geometry":{"type":"Point","coordinates":[-79.95479,40.43176]},"properties":{"p":"0029C00250000000","a":"OAKLAND CT","m":"4th Ward - PITTSBURGH","u":"L","o":"corp","sf":621,"v":2800}},{"type":"Feature","geometry":{"type":"Point","coordinates":[-79.95474,40.43178]},"properties":{"p":"0029C00251000000","a":"OAKLAND CT","m":"4th Ward - PITTSBURGH","u":"L","o":"individual","sf":617,"v":300}},{"type":"Feature","geometry":{"type":"Point","coordinates":[-79.959,40.43268]},"properties":{"p":"0029B00099000000","a":"HODGE ST","m":"4th Ward - PITTSBURGH","u":"L","o":"corp","sf":6300,"v":540}},{"type":"Feature","geometry":{"type":"Point","coordinates":[-79.95767,40.43141]},"properties":{"p":"0029C00022000000","a":"WAKEFIELD ST","m":"4th Ward - PITTSBURGH","u":"L","o":"corp","sf":1872,"v":800}},{"type":"Feature","geometry":{"type":"Point","coordinates":[-79.95401,40.43373]},"properties":{"p":"0028R00064000000","a":"3329 DAWSON ST","m":"4th Ward - PITTSBURGH","u":"L","o":"corp","sf":2584,"v":11600}},{"type":"Feature","geometry":{"type":"Point","coordinates":[-79.95366,40.43377]},"properties":{"p":"0028R00073000000","a":"DAWSON ST","m":"4th Ward - PITTSBURGH","u":"L","o":"corp","sf":3500,"v":38300}},{"type":"Feature","geometry":{"type":"Point","coordinates":[-79.95367,40.43371]},"properties":{"p":"0028R00075000000","a":"DAWSON ST","m":"4th Ward - PITTSBURGH","u":"L","o":"corp","sf":3500,"v":38300}},{"type":"Feature","geometry":{"type":"Point","coordinates":[-79.95872,40.43267]},"properties":{"p":"0029B00128000000","a":"BATES ST","m":"4th Ward - PITTSBURGH","u":"L","o":"corp","sf":3400,"v":15300}},{"type":"Feature","geometry":{"type":"Point","coordinates":[-79.95039,40.43342]},"properties":{"p":"0028S00235000000","a":"101 PANTHER HOLLOW RD","m":"4th Ward - PITTSBURGH","u":"L","o":"corp","sf":2400,"v":10800}},{"type":"Feature","geometry":{"type":"Point","coordinates":[-79.95678,40.43276]},"properties":{"p":"0029C00105000000","a":"JULIET ST","m":"4th Ward - PITTSBURGH","u":"L","o":"corp","sf":2760,"v":10800}},{"type":"Feature","geometry":{"type":"Point","coordinates":[-79.95135,40.43548]},"properties":{"p":"0028S00118000L00","a":"3440 PARKVIEW AVE","m":"4th Ward - PITTSBURGH","u":"L","o":"corp","sf":7910,"v":45300}},{"type":"Feature","geometry":{"type":"Point","coordinates":[-79.95479,40.43182]},"properties":{"p":"0029C00252000000","a":"OAKLAND CT","m":"4th Ward - PITTSBURGH","u":"L","o":"individual","sf":1485,"v":6700}},{"type":"Feature","geometry":{"type":"Point","coordinates":[-79.95478,40.43186]},"properties":{"p":"0029C00253000000","a":"OAKLAND CT","m":"4th Ward - PITTSBURGH","u":"L","o":"individual","sf":545,"v":300}},{"type":"Feature","geometry":{"type":"Point","coordinates":[-79.9564,40.43108]},"properties":{"p":"0029C00049000000","a":"FRAZIER ST","m":"4th Ward - PITTSBURGH","u":"L","o":"corp","sf":2500,"v":1000}},{"type":"Feature","geometry":{"type":"Point","coordinates":[-79.95646,40.43113]},"properties":{"p":"0029C00050000000","a":"FRAZIER ST","m":"4th Ward - PITTSBURGH","u":"L","o":"corp","sf":2500,"v":1000}},{"type":"Feature","geometry":{"type":"Point","coordinates":[-79.95695,40.43247]},"properties":{"p":"0029C00109000000","a":"JULIET ST","m":"4th Ward - PITTSBURGH","u":"L","o":"corp","sf":2760,"v":12400}},{"type":"Feature","geometry":{"type":"Point","coordinates":[-79.95654,40.43555]},"properties":{"p":"0028R00365000000","a":"BATES ST","m":"4th Ward - PITTSBURGH","u":"L","o":"corp","sf":18484,"v":46400}},{"type":"Feature","geometry":{"type":"Point","coordinates":[-79.95468,40.43183]},"properties":{"p":"0029C00254000000","a":"OAKLAND CT","m":"4th Ward - PITTSBURGH","u":"L","o":"individual","sf":291,"v":200}},{"type":"Feature","geometry":{"type":"Point","coordinates":[-79.95458,40.43183]},"properties":{"p":"0029C00255000000","a":"OAKLAND CT","m":"4th Ward - PITTSBURGH","u":"L","o":"individual","sf":545,"v":200}},{"type":"Feature","geometry":{"type":"Point","coordinates":[-79.95458,40.4318]},"properties":{"p":"0029C00256000000","a":"OAKLAND CT","m":"4th Ward - PITTSBURGH","u":"L","o":"individual","sf":545,"v":2500}},{"type":"Feature","geometry":{"type":"Point","coordinates":[-79.9546,40.43177]},"properties":{"p":"0029C00257000000","a":"OAKLAND CT","m":"4th Ward - PITTSBURGH","u":"L","o":"individual","sf":621,"v":300}},{"type":"Feature","geometry":{"type":"Point","coordinates":[-79.95863,40.43314]},"properties":{"p":"0029B00134000000","a":"BATES ST","m":"4th Ward - PITTSBURGH","u":"L","o":"corp","sf":3263,"v":37200}},{"type":"Feature","geometry":{"type":"Point","coordinates":[-79.95813,40.43312]},"properties":{"p":"0029B00142000000","a":"BATES ST","m":"4th Ward - PITTSBURGH","u":"L","o":"corp","sf":2568,"v":34100}},{"type":"Feature","geometry":{"type":"Point","coordinates":[-79.95401,40.4332]},"properties":{"p":"0029C00306000A00","a":"BELGREEN PL","m":"4th Ward - PITTSBURGH","u":"L","o":"individual","sf":644,"v":300}},{"type":"Feature","geometry":{"type":"Point","coordinates":[-79.95974,40.43337]},"properties":{"p":"0028P00194000000","a":"MACKEY ST","m":"4th Ward - PITTSBURGH","u":"L","o":"corp","sf":2349,"v":1000}},{"type":"Feature","geometry":{"type":"Point","coordinates":[-79.95965,40.43348]},"properties":{"p":"0028P00196000000","a":"MACKEY ST","m":"4th Ward - PITTSBURGH","u":"L","o":"corp","sf":2349,"v":1000}},{"type":"Feature","geometry":{"type":"Point","coordinates":[-79.95259,40.43141]},"properties":{"p":"0029D00119000000","a":"PARKVIEW AVE","m":"4th Ward - PITTSBURGH","u":"L","o":"individual","sf":1202,"v":27900}},{"type":"Feature","geometry":{"type":"Point","coordinates":[-79.95461,40.43173]},"properties":{"p":"0029C00258000000","a":"OAKLAND CT","m":"4th Ward - PITTSBURGH","u":"L","o":"individual","sf":621,"v":300}},{"type":"Feature","geometry":{"type":"Point","coordinates":[-79.95463,40.43164]},"properties":{"p":"0029C00261000000","a":"OAKLAND CT","m":"4th Ward - PITTSBURGH","u":"L","o":"individual","sf":618,"v":300}},{"type":"Feature","geometry":{"type":"Point","coordinates":[-79.95665,40.43127]},"properties":{"p":"0029C00053000000","a":"3504 FRAZIER ST","m":"4th Ward - PITTSBURGH","u":"L","o":"individual","sf":2000,"v":9000}},{"type":"Feature","geometry":{"type":"Point","coordinates":[-79.9569,40.43146]},"properties":{"p":"0029C00058000000","a":"3454 FRAZIER ST","m":"4th Ward - PITTSBURGH","u":"L","o":"individual","sf":2000,"v":6000}},{"type":"Feature","geometry":{"type":"Point","coordinates":[-79.95463,40.43167]},"properties":{"p":"0029C00262000000","a":"OAKLAND CT","m":"4th Ward - PITTSBURGH","u":"L","o":"individual","sf":621,"v":300}},{"type":"Feature","geometry":{"type":"Point","coordinates":[-79.9582,40.43228]},"properties":{"p":"0029B00156000000","a":"BATES ST","m":"4th Ward - PITTSBURGH","u":"L","o":"corp","sf":1625,"v":700}},{"type":"Feature","geometry":{"type":"Point","coordinates":[-79.9582,40.43223]},"properties":{"p":"0029B00157000000","a":"BATES ST","m":"4th Ward - PITTSBURGH","u":"L","o":"corp","sf":1500,"v":6800}},{"type":"Feature","geometry":{"type":"Point","coordinates":[-79.9582,40.43214]},"properties":{"p":"0029B00158000000","a":"BATES ST","m":"4th Ward - PITTSBURGH","u":"L","o":"corp","sf":1575,"v":7100}},{"type":"Feature","geometry":{"type":"Point","coordinates":[-79.95818,40.43195]},"properties":{"p":"0029B00162000000","a":"ROMEO ST","m":"4th Ward - PITTSBURGH","u":"L","o":"corp","sf":637,"v":2900}},{"type":"Feature","geometry":{"type":"Point","coordinates":[-79.95783,40.43281]},"properties":{"p":"0029B00192000000","a":"ROMEO ST","m":"4th Ward - PITTSBURGH","u":"L","o":"corp","sf":2400,"v":1000}},{"type":"Feature","geometry":{"type":"Point","coordinates":[-79.95633,40.43167]},"properties":{"p":"0029C00121000000","a":"JULIET ST","m":"4th Ward - PITTSBURGH","u":"L","o":"corp","sf":4125,"v":12300}},{"type":"Feature","geometry":{"type":"Point","coordinates":[-79.95551,40.43231]},"properties":{"p":"0029C00214000000","a":"WARD ST","m":"4th Ward - PITTSBURGH","u":"L","o":"corp","sf":4785,"v":44000}},{"type":"Feature","geometry":{"type":"Point","coordinates":[-79.95613,40.43042]},"properties":{"p":"0029G00200000000","a":"WAKEFIELD ST","m":"4th Ward - PITTSBURGH","u":"L","o":"corp","sf":2500,"v":11300}},{"type":"Feature","geometry":{"type":"Point","coordinates":[-79.9562,40.43047]},"properties":{"p":"0029G00201000000","a":"WAKEFIELD ST","m":"4th Ward - PITTSBURGH","u":"L","o":"corp","sf":2500,"v":11300}},{"type":"Feature","geometry":{"type":"Point","coordinates":[-79.95632,40.43236]},"properties":{"p":"0029C00153000000","a":"JULIET ST","m":"4th Ward - PITTSBURGH","u":"L","o":"corp","sf":2062,"v":900}},{"type":"Feature","geometry":{"type":"Point","coordinates":[-79.95579,40.43103]},"properties":{"p":"0029C00168000000","a":"FRAZIER ST","m":"4th Ward - PITTSBURGH","u":"L","o":"corp","sf":1034,"v":500}},{"type":"Feature","geometry":{"type":"Point","coordinates":[-79.95614,40.43527]},"properties":{"p":"0028R00249000000","a":"BLVD OF THE ALLIES","m":"4th Ward - PITTSBURGH","u":"L","o":"corp","sf":1468,"v":6600}},{"type":"Feature","geometry":{"type":"Point","coordinates":[-79.95584,40.43518]},"properties":{"p":"0028R00254000000","a":"BLVD OF THE ALLIES","m":"4th Ward - PITTSBURGH","u":"L","o":"corp","sf":1458,"v":6600}},{"type":"Feature","geometry":{"type":"Point","coordinates":[-79.95564,40.43514]},"properties":{"p":"0028R00257000000","a":"3519 BLVD OF THE ALLIES","m":"4th Ward - PITTSBURGH","u":"L","o":"corp","sf":2429,"v":10900}},{"type":"Feature","geometry":{"type":"Point","coordinates":[-79.95558,40.43201]},"properties":{"p":"0029C00220000000","a":"WARD ST","m":"4th Ward - PITTSBURGH","u":"L","o":"corp","sf":6270,"v":45100}},{"type":"Feature","geometry":{"type":"Point","coordinates":[-79.95338,40.43837]},"properties":{"p":"0028H00045000000","a":"3710 BATES ST","m":"4th Ward - PITTSBURGH","u":"L","o":"individual","sf":4505,"v":42800}},{"type":"Feature","geometry":{"type":"Point","coordinates":[-79.95508,40.43972]},"properties":{"p":"0028G00282000000","a":"OAKLAND AVE","m":"4th Ward - PITTSBURGH","u":"L","o":"corp","sf":4000,"v":40500}},{"type":"Feature","geometry":{"type":"Point","coordinates":[-79.95299,40.43989]},"properties":{"p":"0028H00021000000","a":"S BOUQUET ST","m":"4th Ward - PITTSBURGH","u":"L","o":"corp","sf":1456,"v":2000}},{"type":"Feature","geometry":{"type":"Point","coordinates":[-79.95561,40.44021]},"properties":{"p":"0028G00291000000","a":"246 OAKLAND AVE","m":"4th Ward - PITTSBURGH","u":"L","o":"corp","sf":2400,"v":33300}},{"type":"Feature","geometry":{"type":"Point","coordinates":[-79.95572,40.4403]},"properties":{"p":"0028G00294000000","a":"246 OAKLAND AVE","m":"4th Ward - PITTSBURGH","u":"L","o":"corp","sf":5040,"v":45000}},{"type":"Feature","geometry":{"type":"Point","coordinates":[-79.95588,40.44036]},"properties":{"p":"0028G00296000000","a":"246 OAKLAND AVE","m":"4th Ward - PITTSBURGH","u":"L","o":"corp","sf":3465,"v":38100}},{"type":"Feature","geometry":{"type":"Point","coordinates":[-79.95299,40.43643]},"properties":{"p":"0028M00080000000","a":"DAWSON ST","m":"4th Ward - PITTSBURGH","u":"L","o":"individual","sf":300,"v":200}},{"type":"Feature","geometry":{"type":"Point","coordinates":[-79.95155,40.43828]},"properties":{"p":"0028H00106000000","a":"DAWSON ST","m":"4th Ward - PITTSBURGH","u":"L","o":"corp","sf":3499,"v":15800}},{"type":"Feature","geometry":{"type":"Point","coordinates":[-79.95775,40.43956]},"properties":{"p":"0028G00031000000","a":"SEMPLE ST","m":"4th Ward - PITTSBURGH","u":"L","o":"corp","sf":1300,"v":600}},{"type":"Feature","geometry":{"type":"Point","coordinates":[-79.95759,40.43942]},"properties":{"p":"0028G00034000000","a":"SEMPLE ST","m":"4th Ward - PITTSBURGH","u":"L","o":"individual","sf":1210,"v":500}},{"type":"Feature","geometry":{"type":"Point","coordinates":[-79.95132,40.43939]},"properties":{"p":"0028H00175000000","a":"BOUNDARY ST","m":"4th Ward - PITTSBURGH","u":"L","o":"corp","sf":4080,"v":18400}},{"type":"Feature","geometry":{"type":"Point","coordinates":[-79.95591,40.43937]},"properties":{"p":"0028G00179000000","a":"304 ATWOOD ST","m":"4th Ward - PITTSBURGH","u":"L","o":"individual","sf":308,"v":1400}},{"type":"Feature","geometry":{"type":"Point","coordinates":[-79.95048,40.43819]},"properties":{"p":"0028H00124000000","a":"BOUNDARY ST","m":"4th Ward - PITTSBURGH","u":"L","o":"individual","sf":1995,"v":800}},{"type":"Feature","geometry":{"type":"Point","coordinates":[-79.95074,40.43828]},"properties":{"p":"0028H00128000000","a":"BOUNDARY ST","m":"4th Ward - PITTSBURGH","u":"L","o":"individual","sf":6045,"v":2300}},{"type":"Feature","geometry":{"type":"Point","coordinates":[-79.95076,40.43884]},"properties":{"p":"0028H00142000000","a":"BOUNDARY ST","m":"4th Ward - PITTSBURGH","u":"L","o":"individual","sf":9200,"v":22900}},{"type":"Feature","geometry":{"type":"Point","coordinates":[-79.94827,40.4452]},"properties":{"p":"0052N00270000000","a":"4612 -4614 FILMORE ST","m":"4th Ward - PITTSBURGH","u":"L","o":"corp","sf":3250,"v":37100}},{"type":"Feature","geometry":{"type":"Point","coordinates":[-79.94764,40.44606]},"properties":{"p":"0052J00198000000","a":"WINTHROP ST","m":"4th Ward - PITTSBURGH","u":"L","o":"corp","sf":2000,"v":9000}},{"type":"Feature","geometry":{"type":"Point","coordinates":[-79.95632,40.43056]},"properties":{"p":"0029G00293000000","a":"WAKEFIELD ST","m":"4th Ward - PITTSBURGH","u":"L","o":"corp","sf":2500,"v":11300}},{"type":"Feature","geometry":{"type":"Point","coordinates":[-79.94698,40.44584]},"properties":{"p":"0052J00292000000","a":"4638 WINTHROP ST","m":"4th Ward - PITTSBURGH","u":"L","o":"corp","sf":2518,"v":11300}},{"type":"Feature","geometry":{"type":"Point","coordinates":[-79.94736,40.44576]},"properties":{"p":"0052J00296000000","a":"4636 WINTHROP ST","m":"4th Ward - PITTSBURGH","u":"L","o":"corp","sf":1090,"v":4900}},{"type":"Feature","geometry":{"type":"Point","coordinates":[-79.94721,40.44561]},"properties":{"p":"0052J00305000000","a":"FILMORE ST","m":"4th Ward - PITTSBURGH","u":"L","o":"corp","sf":4370,"v":1700}},{"type":"Feature","geometry":{"type":"Point","coordinates":[-79.95161,40.43011]},"properties":{"p":"0029H00177000000","a":"SWINBURNE ST","m":"4th Ward - PITTSBURGH","u":"L","o":"individual","sf":2660,"v":1100}},{"type":"Feature","geometry":{"type":"Point","coordinates":[-79.9517,40.43016]},"properties":{"p":"0029H00178000000","a":"CHILDS ST","m":"4th Ward - PITTSBURGH","u":"L","o":"individual","sf":5664,"v":2200}},{"type":"Feature","geometry":{"type":"Point","coordinates":[-79.94751,40.44549]},"properties":{"p":"0052J00310000000","a":"FILMORE ST","m":"4th Ward - PITTSBURGH","u":"L","o":"corp","sf":2480,"v":33700}},{"type":"Feature","geometry":{"type":"Point","coordinates":[-79.95235,40.43045]},"properties":{"p":"0029H00190000000","a":"3639 CHILDS ST","m":"4th Ward - PITTSBURGH","u":"L","o":"individual","sf":3105,"v":14000}},{"type":"Feature","geometry":{"type":"Point","coordinates":[-79.95507,40.43071]},"properties":{"p":"0029G00233000000","a":"WARD ST","m":"4th Ward - PITTSBURGH","u":"L","o":"individual","sf":3827,"v":17200}},{"type":"Feature","geometry":{"type":"Point","coordinates":[-79.95522,40.43063]},"properties":{"p":"0029G00234000000","a":"FRAZIER ST","m":"4th Ward - PITTSBURGH","u":"L","o":"individual","sf":2845,"v":12800}},{"type":"Feature","geometry":{"type":"Point","coordinates":[-79.95154,40.43062]},"properties":{"p":"0029H00233000000","a":"101 PANTHER HOLLOW RD","m":"4th Ward - PITTSBURGH","u":"L","o":"corp","sf":5347,"v":45000}},{"type":"Feature","geometry":{"type":"Point","coordinates":[-79.95116,40.43044]},"properties":{"p":"0029H00237000000","a":"101 PANTHER HOLLOW RD","m":"4th Ward - PITTSBURGH","u":"L","o":"corp","sf":4557,"v":43000}},{"type":"Feature","geometry":{"type":"Point","coordinates":[-79.95058,40.43075]},"properties":{"p":"0029H00284000000","a":"101 PANTHER HOLLOW RD","m":"4th Ward - PITTSBURGH","u":"L","o":"individual","sf":3288,"v":14800}},{"type":"Feature","geometry":{"type":"Point","coordinates":[-79.95482,40.43051]},"properties":{"p":"0029G00242000000","a":"FRAZIER ST","m":"4th Ward - PITTSBURGH","u":"L","o":"corp","sf":5981,"v":45100}},{"type":"Feature","geometry":{"type":"Point","coordinates":[-79.95851,40.43357]},"properties":{"p":"0028P00243000000","a":"BATES ST","m":"4th Ward - PITTSBURGH","u":"L","o":"corp","sf":4670,"v":540}},{"type":"Feature","geometry":{"type":"Point","coordinates":[-79.95838,40.4336]},"properties":{"p":"0028P00245000000","a":"BATES ST","m":"4th Ward - PITTSBURGH","u":"L","o":"corp","sf":2301,"v":1000}},{"type":"Feature","geometry":{"type":"Point","coordinates":[-79.95823,40.43372]},"properties":{"p":"0028P00247000000","a":"BATES ST","m":"4th Ward - PITTSBURGH","u":"L","o":"corp","sf":2460,"v":540}},{"type":"Feature","geometry":{"type":"Point","coordinates":[-79.95817,40.43378]},"properties":{"p":"0028P00248000000","a":"BATES ST","m":"4th Ward - PITTSBURGH","u":"L","o":"corp","sf":1885,"v":540}},{"type":"Feature","geometry":{"type":"Point","coordinates":[-79.95812,40.43382]},"properties":{"p":"0028P00249000000","a":"BATES ST","m":"4th Ward - PITTSBURGH","u":"L","o":"corp","sf":1947,"v":540}},{"type":"Feature","geometry":{"type":"Point","coordinates":[-79.95807,40.43386]},"properties":{"p":"0028P00250000000","a":"BATES ST","m":"4th Ward - PITTSBURGH","u":"L","o":"corp","sf":1444,"v":600}},{"type":"Feature","geometry":{"type":"Point","coordinates":[-79.95795,40.43397]},"properties":{"p":"0028P00252000000","a":"BATES ST","m":"4th Ward - PITTSBURGH","u":"L","o":"individual","sf":2850,"v":1200}},{"type":"Feature","geometry":{"type":"Point","coordinates":[-79.95578,40.43358]},"properties":{"p":"0028R00126000000","a":"HARDIE WAY","m":"4th Ward - PITTSBURGH","u":"L","o":"individual","sf":1120,"v":5000}},{"type":"Feature","geometry":{"type":"Point","coordinates":[-79.95858,40.43367]},"properties":{"p":"0028P00256000000","a":"HALKET ST","m":"4th Ward - PITTSBURGH","u":"L","o":"corp","sf":4958,"v":540}},{"type":"Feature","geometry":{"type":"Point","coordinates":[-79.95847,40.43386]},"properties":{"p":"0028P00260000000","a":"HALKET ST","m":"4th Ward - PITTSBURGH","u":"L","o":"corp","sf":2580,"v":540}},{"type":"Feature","geometry":{"type":"Point","coordinates":[-79.9584,40.43393]},"properties":{"p":"0028P00261000000","a":"HODGE ST","m":"4th Ward - PITTSBURGH","u":"L","o":"corp","sf":2580,"v":540}},{"type":"Feature","geometry":{"type":"Point","coordinates":[-79.95828,40.43406]},"properties":{"p":"0028P00263000000","a":"HALKET ST","m":"4th Ward - PITTSBURGH","u":"L","o":"corp","sf":2820,"v":540}},{"type":"Feature","geometry":{"type":"Point","coordinates":[-79.95821,40.43413]},"properties":{"p":"0028P00264000000","a":"HALKET ST","m":"4th Ward - PITTSBURGH","u":"L","o":"corp","sf":2790,"v":540}},{"type":"Feature","geometry":{"type":"Point","coordinates":[-79.95603,40.4338]},"properties":{"p":"0028R00142000000","a":"JULIET ST","m":"4th Ward - PITTSBURGH","u":"L","o":"corp","sf":1268,"v":600}},{"type":"Feature","geometry":{"type":"Point","coordinates":[-79.95337,40.43501]},"properties":{"p":"0028S00018000000","a":"DAWSON ST","m":"4th Ward - PITTSBURGH","u":"L","o":"corp","sf":2550,"v":1000}},{"type":"Feature","geometry":{"type":"Point","coordinates":[-79.95381,40.43495]},"properties":{"p":"0028R00003000000","a":"3621 BLVD OF THE ALLIES","m":"4th Ward - PITTSBURGH","u":"L","o":"individual","sf":323,"v":1500}},{"type":"Feature","geometry":{"type":"Point","coordinates":[-79.95377,40.43494]},"properties":{"p":"0028R00004000000","a":"3623 BLVD OF THE ALLIES","m":"4th Ward - PITTSBURGH","u":"L","o":"individual","sf":320,"v":200}},{"type":"Feature","geometry":{"type":"Point","coordinates":[-79.95364,40.43494]},"properties":{"p":"0028R00009000000","a":"BLVD OF THE ALLIES","m":"4th Ward - PITTSBURGH","u":"L","o":"individual","sf":400,"v":200}},{"type":"Feature","geometry":{"type":"Point","coordinates":[-79.95887,40.43412]},"properties":{"p":"0028P00208000000","a":"HODGE ST","m":"4th Ward - PITTSBURGH","u":"L","o":"corp","sf":16379,"v":540}},{"type":"Feature","geometry":{"type":"Point","coordinates":[-79.9592,40.43345]},"properties":{"p":"0028P00225000000","a":"MACKEY ST","m":"4th Ward - PITTSBURGH","u":"L","o":"individual","sf":1500,"v":700}},{"type":"Feature","geometry":{"type":"Point","coordinates":[-79.95902,40.43334]},"properties":{"p":"0028P00228000000","a":"HALKET ST","m":"4th Ward - PITTSBURGH","u":"L","o":"individual","sf":1582,"v":7100}},{"type":"Feature","geometry":{"type":"Point","coordinates":[-79.95253,40.43417]},"properties":{"p":"0028S00087000000","a":"PARKVIEW AVE","m":"4th Ward - PITTSBURGH","u":"L","o":"corp","sf":703,"v":2600}},{"type":"Feature","geometry":{"type":"Point","coordinates":[-79.95858,40.4334]},"properties":{"p":"0028P00241000000","a":"BATES ST","m":"4th Ward - PITTSBURGH","u":"L","o":"corp","sf":2702,"v":540}},{"type":"Feature","geometry":{"type":"Point","coordinates":[-79.95764,40.44937]},"properties":{"p":"0027G00024000000","a":"BRYN MAWR RD","m":"5th Ward - PITTSBURGH","u":"L","o":"individual","sf":754,"v":2300}},{"type":"Feature","geometry":{"type":"Point","coordinates":[-79.94086,40.44963]},"properties":{"p":"0052G00045000100","a":"CASTLEMAN ST","m":"7th Ward - PITTSBURGH","u":"L","o":"individual","sf":3240,"v":15000}},{"type":"Feature","geometry":{"type":"Point","coordinates":[-79.94686,40.44977]},"properties":{"p":"0052E00158000100","a":"ELLSWORTH TER","m":"7th Ward - PITTSBURGH","u":"L","o":"corp","sf":5560,"v":7200}},{"type":"Feature","geometry":{"type":"Point","coordinates":[-79.94679,40.44975]},"properties":{"p":"0052E00158000300","a":"ELLSWORTH TER","m":"7th Ward - PITTSBURGH","u":"L","o":"individual","sf":5560,"v":7200}},{"type":"Feature","geometry":{"type":"Point","coordinates":[-79.94676,40.44973]},"properties":{"p":"0052E00158000400","a":"ELLSWORTH TER","m":"7th Ward - PITTSBURGH","u":"L","o":"individual","sf":5560,"v":7200}},{"type":"Feature","geometry":{"type":"Point","coordinates":[-79.94674,40.44971]},"properties":{"p":"0052E00158000500","a":"ELLSWORTH TER","m":"7th Ward - PITTSBURGH","u":"L","o":"individual","sf":5657,"v":2700}},{"type":"Feature","geometry":{"type":"Point","coordinates":[-79.94672,40.44969]},"properties":{"p":"0052E00158000600","a":"ELLSWORTH TER","m":"7th Ward - PITTSBURGH","u":"L","o":"individual","sf":5560,"v":7200}},{"type":"Feature","geometry":{"type":"Point","coordinates":[-79.9467,40.44967]},"properties":{"p":"0052E00158000700","a":"ELLSWORTH TER","m":"7th Ward - PITTSBURGH","u":"L","o":"corp","sf":5560,"v":7200}},{"type":"Feature","geometry":{"type":"Point","coordinates":[-79.94665,40.44963]},"properties":{"p":"0052E00158000900","a":"ELLSWORTH TER","m":"7th Ward - PITTSBURGH","u":"L","o":"individual","sf":5560,"v":2700}},{"type":"Feature","geometry":{"type":"Point","coordinates":[-79.94663,40.44961]},"properties":{"p":"0052E00158001000","a":"ELLSWORTH TER","m":"7th Ward - PITTSBURGH","u":"L","o":"individual","sf":5560,"v":2700}},{"type":"Feature","geometry":{"type":"Point","coordinates":[-79.94661,40.44959]},"properties":{"p":"0052E00158001100","a":"ELLSWORTH TER","m":"7th Ward - PITTSBURGH","u":"L","o":"individual","sf":5560,"v":7200}},{"type":"Feature","geometry":{"type":"Point","coordinates":[-79.94659,40.44958]},"properties":{"p":"0052E00158001200","a":"ELLSWORTH TER","m":"7th Ward - PITTSBURGH","u":"L","o":"individual","sf":5560,"v":7200}},{"type":"Feature","geometry":{"type":"Point","coordinates":[-79.94434,40.44837]},"properties":{"p":"0052F00018000000","a":"DEVONSHIRE ST","m":"7th Ward - PITTSBURGH","u":"L","o":"individual","sf":152,"v":300}},{"type":"Feature","geometry":{"type":"Point","coordinates":[-79.94459,40.44834]},"properties":{"p":"0052F00020000000","a":"820 DEVONSHIRE ST","m":"7th Ward - PITTSBURGH","u":"L","o":"individual","sf":105,"v":2500}},{"type":"Feature","geometry":{"type":"Point","coordinates":[-79.94056,40.44577]},"properties":{"p":"0052L00116000000","a":"1074 DEVON RD","m":"14th Ward - PITTSBURGH","u":"L","o":"individual","sf":510,"v":7100}},{"type":"Feature","geometry":{"type":"Point","coordinates":[-79.94063,40.44691]},"properties":{"p":"0052L00074000000","a":"WARWICK TER","m":"14th Ward - PITTSBURGH","u":"L","o":"individual","sf":5313,"v":7000}},{"type":"Feature","geometry":{"type":"Point","coordinates":[-79.95003,40.43229]},"properties":{"p":"0029H00320000000","a":"BOUNDARY ST","m":"14th Ward - PITTSBURGH","u":"L","o":"corp","sf":188179,"v":198900}},{"type":"Feature","geometry":{"type":"Point","coordinates":[-79.94123,40.43015]},"properties":{"p":"0054F00158000000","a":"NAYLOR ST","m":"14th Ward - PITTSBURGH","u":"L","o":"individual","sf":6204,"v":20000}},{"type":"Feature","geometry":{"type":"Point","coordinates":[-79.94144,40.43017]},"properties":{"p":"0054F00159000000","a":"NAYLOR ST","m":"14th Ward - PITTSBURGH","u":"L","o":"individual","sf":1560,"v":5000}},{"type":"Feature","geometry":{"type":"Point","coordinates":[-79.94169,40.43019]},"properties":{"p":"0054F00162000000","a":"NAYLOR ST","m":"14th Ward - PITTSBURGH","u":"L","o":"individual","sf":1032,"v":7200}},{"type":"Feature","geometry":{"type":"Point","coordinates":[-79.94233,40.43015]},"properties":{"p":"0054F00170000000","a":"NAYLOR ST","m":"14th Ward - PITTSBURGH","u":"L","o":"individual","sf":2424,"v":1200}},{"type":"Feature","geometry":{"type":"Point","coordinates":[-79.9424,40.43012]},"properties":{"p":"0054F00171000000","a":"707 NAYLOR ST","m":"14th Ward - PITTSBURGH","u":"L","o":"individual","sf":2376,"v":1100}},{"type":"Feature","geometry":{"type":"Point","coordinates":[-79.94256,40.43007]},"properties":{"p":"0054F00173000000","a":"NAYLOR ST","m":"14th Ward - PITTSBURGH","u":"L","o":"individual","sf":2257,"v":1100}},{"type":"Feature","geometry":{"type":"Point","coordinates":[-79.94264,40.43004]},"properties":{"p":"0054F00175000000","a":"NAYLOR ST","m":"14th Ward - PITTSBURGH","u":"L","o":"individual","sf":2202,"v":20900}},{"type":"Feature","geometry":{"type":"Point","coordinates":[-79.94102,40.43012]},"properties":{"p":"0054G00003000000","a":"NAYLOR ST","m":"14th Ward - PITTSBURGH","u":"L","o":"individual","sf":1699,"v":23800}},{"type":"Feature","geometry":{"type":"Point","coordinates":[-79.95552,40.43043]},"properties":{"p":"0029G00222000000","a":"3600 FRAZIER ST","m":"4th Ward - PITTSBURGH","u":"L","o":"corp","sf":2400,"v":33300}},{"type":"Feature","geometry":{"type":"Point","coordinates":[-79.95163,40.43813]},"properties":{"p":"0028M00272000000","a":"3730 DAWSON ST","m":"4th Ward - PITTSBURGH","u":"L","o":"individual","sf":5500,"v":22600}},{"type":"Feature","geometry":{"type":"Point","coordinates":[-79.94729,40.44577]},"properties":{"p":"0052J00295000000","a":"4636 WINTHROP ST","m":"4th Ward - PITTSBURGH","u":"L","o":"corp","sf":1479,"v":6700}},{"type":"Feature","geometry":{"type":"Point","coordinates":[-79.95947,40.43301]},"properties":{"p":"0029B00060000000","a":"MACKEY ST","m":"4th Ward - PITTSBURGH","u":"L","o":"corp","sf":1872,"v":800}},{"type":"Feature","geometry":{"type":"Point","coordinates":[-79.95187,40.43012]},"properties":{"p":"0029H00179000000","a":"CHILDS ST","m":"4th Ward - PITTSBURGH","u":"L","o":"individual","sf":5664,"v":2200}},{"type":"Feature","geometry":{"type":"Point","coordinates":[-79.95966,40.43279]},"properties":{"p":"0029B00065000000","a":"MACKEY ST","m":"4th Ward - PITTSBURGH","u":"L","o":"corp","sf":1650,"v":700}},{"type":"Feature","geometry":{"type":"Point","coordinates":[-79.95477,40.43164]},"properties":{"p":"0029C00247000000","a":"OAKLAND CT","m":"4th Ward - PITTSBURGH","u":"L","o":"individual","sf":621,"v":300}},{"type":"Feature","geometry":{"type":"Point","coordinates":[-79.95462,40.4317]},"properties":{"p":"0029C00259000000","a":"OAKLAND CT","m":"4th Ward - PITTSBURGH","u":"L","o":"individual","sf":621,"v":300}},{"type":"Feature","geometry":{"type":"Point","coordinates":[-79.9582,40.43205]},"properties":{"p":"0029B00161000000","a":"BATES ST","m":"4th Ward - PITTSBURGH","u":"L","o":"individual","sf":2050,"v":900}},{"type":"Feature","geometry":{"type":"Point","coordinates":[-79.9559,40.4352]},"properties":{"p":"0028R00253000000","a":"BLVD OF THE ALLIES","m":"4th Ward - PITTSBURGH","u":"L","o":"corp","sf":1466,"v":6600}},{"type":"Feature","geometry":{"type":"Point","coordinates":[-79.95964,40.44786]},"properties":{"p":"0027K00003000000","a":"ALLEQUIPPA ST","m":"5th Ward - PITTSBURGH","u":"L","o":"individual","sf":6344,"v":30100}},{"type":"Feature","geometry":{"type":"Point","coordinates":[-79.957,40.4322]},"properties":{"p":"0029C00114000000","a":"JULIET ST","m":"4th Ward - PITTSBURGH","u":"L","o":"individual","sf":2740,"v":1100}},{"type":"Feature","geometry":{"type":"Point","coordinates":[-79.95775,40.44931]},"properties":{"p":"0027G00026000000","a":"BRYN MAWR RD","m":"5th Ward - PITTSBURGH","u":"L","o":"corp","sf":1580,"v":4700}},{"type":"Feature","geometry":{"type":"Point","coordinates":[-79.94681,40.44977]},"properties":{"p":"0052E00158000200","a":"ELLSWORTH TER","m":"7th Ward - PITTSBURGH","u":"L","o":"corp","sf":5560,"v":10800}},{"type":"Feature","geometry":{"type":"Point","coordinates":[-79.95723,40.43169]},"properties":{"p":"0029C00064000000","a":"FRAZIER ST","m":"4th Ward - PITTSBURGH","u":"L","o":"individual","sf":2000,"v":800}},{"type":"Feature","geometry":{"type":"Point","coordinates":[-79.95521,40.43754]},"properties":{"p":"0028L00182000000","a":"SEMPLE ST","m":"4th Ward - PITTSBURGH","u":"L","o":"individual","sf":1869,"v":8400}},{"type":"Feature","geometry":{"type":"Point","coordinates":[-79.95204,40.43023]},"properties":{"p":"0029H00183000000","a":"CHILDS ST","m":"4th Ward - PITTSBURGH","u":"L","o":"individual","sf":5208,"v":45000}},{"type":"Feature","geometry":{"type":"Point","coordinates":[-79.95813,40.43283]},"properties":{"p":"0029B00145000000","a":"BATES ST","m":"4th Ward - PITTSBURGH","u":"L","o":"corp","sf":1476,"v":600}},{"type":"Feature","geometry":{"type":"Point","coordinates":[-79.95969,40.43343]},"properties":{"p":"0028P00195000000","a":"MACKEY ST","m":"4th Ward - PITTSBURGH","u":"L","o":"individual","sf":2349,"v":1000}},{"type":"Feature","geometry":{"type":"Point","coordinates":[-79.95157,40.43822]},"properties":{"p":"0028H00105000000","a":"DAWSON ST","m":"4th Ward - PITTSBURGH","u":"L","o":"corp","sf":3497,"v":15700}},{"type":"Feature","geometry":{"type":"Point","coordinates":[-79.95684,40.43184]},"properties":{"p":"0029C00119000000","a":"JULIET ST","m":"4th Ward - PITTSBURGH","u":"L","o":"individual","sf":5280,"v":45000}},{"type":"Feature","geometry":{"type":"Point","coordinates":[-79.95571,40.43515]},"properties":{"p":"0028R00256000000","a":"3519 BLVD OF THE ALLIES","m":"4th Ward - PITTSBURGH","u":"L","o":"corp","sf":1538,"v":6900}},{"type":"Feature","geometry":{"type":"Point","coordinates":[-79.95626,40.43051]},"properties":{"p":"0029G00294000000","a":"WAKEFIELD ST","m":"4th Ward - PITTSBURGH","u":"L","o":"corp","sf":2500,"v":11300}},{"type":"Feature","geometry":{"type":"Point","coordinates":[-79.9574,40.44973]},"properties":{"p":"0027G00020000000","a":"BRYN MAWR RD","m":"5th Ward - PITTSBURGH","u":"L","o":"individual","sf":90,"v":100}},{"type":"Feature","geometry":{"type":"Point","coordinates":[-79.95577,40.43422]},"properties":{"p":"0028R00158000000","a":"VIRGILA PL","m":"4th Ward - PITTSBURGH","u":"L","o":"individual","sf":1712,"v":700}},{"type":"Feature","geometry":{"type":"Point","coordinates":[-79.94667,40.44965]},"properties":{"p":"0052E00158000800","a":"ELLSWORTH TER","m":"7th Ward - PITTSBURGH","u":"L","o":"individual","sf":5560,"v":7200}}]}