{"type":"FeatureCollection","features":[{"type":"Feature","geometry":{"type":"Point","coordinates":[-79.9594,40.56365]},"properties":{"p":"0719K00099000000","a":"OLD ROUTE 8","m":"Hampton","u":"C","o":"corp","sf":2362,"v":1900}},{"type":"Feature","geometry":{"type":"Point","coordinates":[-79.95941,40.56354]},"properties":{"p":"0719K00101000000","a":"OLD ROUTE 8","m":"Hampton","u":"C","o":"corp","sf":5000,"v":5200}},{"type":"Feature","geometry":{"type":"Point","coordinates":[-79.95943,40.5634]},"properties":{"p":"0719K00104000000","a":"OLD ROUTE 8","m":"Hampton","u":"C","o":"corp","sf":3996,"v":4100}},{"type":"Feature","geometry":{"type":"Point","coordinates":[-79.95904,40.56213]},"properties":{"p":"0719K00005000000","a":"ROUTE 8","m":"Hampton","u":"C","o":"corp","sf":3619,"v":6200}},{"type":"Feature","geometry":{"type":"Point","coordinates":[-79.95456,40.56368]},"properties":{"p":"0719M00321000000","a":"CLEARVIEW RD","m":"Hampton","u":"C","o":"individual","sf":10142,"v":31800}},{"type":"Feature","geometry":{"type":"Point","coordinates":[-79.9589,40.56464]},"properties":{"p":"0719G00286000000","a":"OLD ROUTE 8","m":"Hampton","u":"C","o":"corp","sf":143312,"v":7500}},{"type":"Feature","geometry":{"type":"Point","coordinates":[-79.94266,40.56908]},"properties":{"p":"0831P00189000000","a":"HARTS RUN RD","m":"Hampton","u":"C","o":"corp","sf":178160,"v":12300}},{"type":"Feature","geometry":{"type":"Point","coordinates":[-79.95137,40.56938]},"properties":{"p":"0830S00029000000","a":"HARTS RUN RD","m":"Hampton","u":"C","o":"corp","sf":76721,"v":66000}},{"type":"Feature","geometry":{"type":"Point","coordinates":[-79.95171,40.5695]},"properties":{"p":"0830S00031000000","a":"HARTS RUN RD","m":"Hampton","u":"C","o":"corp","sf":30276,"v":26000}},{"type":"Feature","geometry":{"type":"Point","coordinates":[-79.95469,40.56174]},"properties":{"p":"0719R00001000000","a":"2714 CLEARVIEW RD","m":"Hampton","u":"C","o":"corp","sf":4870,"v":25000}},{"type":"Feature","geometry":{"type":"Point","coordinates":[-79.95382,40.56845]},"properties":{"p":"0719D00357000000","a":"HARTS RUN RD","m":"Hampton","u":"C","o":"corp","sf":78277,"v":81000}},{"type":"Feature","geometry":{"type":"Point","coordinates":[-79.95242,40.55615]},"properties":{"p":"0616H00283000000","a":"HIEBER RD","m":"Hampton","u":"C","o":"individual","sf":1013249,"v":149200}},{"type":"Feature","geometry":{"type":"Point","coordinates":[-79.95428,40.55461]},"properties":{"p":"0616H00242000000","a":"HIEBER RD","m":"Hampton","u":"L","o":"individual","sf":17946,"v":2900}},{"type":"Feature","geometry":{"type":"Point","coordinates":[-79.95955,40.56267]},"properties":{"p":"0719K00119000000","a":"ROUTE 8","m":"Hampton","u":"L","o":"individual","sf":7500,"v":700}},{"type":"Feature","geometry":{"type":"Point","coordinates":[-79.95985,40.56316]},"properties":{"p":"0719K00145000000","a":"TENNYSON AVE","m":"Hampton","u":"L","o":"individual","sf":1380,"v":100}},{"type":"Feature","geometry":{"type":"Point","coordinates":[-79.95466,40.56697]},"properties":{"p":"0719G00070000000","a":"ROUTE 8","m":"Hampton","u":"L","o":"individual","sf":14375,"v":2300}},{"type":"Feature","geometry":{"type":"Point","coordinates":[-79.94743,40.55428]},"properties":{"p":"0617J00008000000","a":"2807 E ELFINWILD RD","m":"Hampton","u":"L","o":"individual","sf":126093,"v":87000}},{"type":"Feature","geometry":{"type":"Point","coordinates":[-79.9501,40.55566]},"properties":{"p":"0617J00098000000","a":"E ELFINWILD RD","m":"Hampton","u":"L","o":"individual","sf":326700,"v":40000}},{"type":"Feature","geometry":{"type":"Point","coordinates":[-79.95856,40.55735]},"properties":{"p":"0616B00137000000","a":"OLD ROUTE 8","m":"Hampton","u":"L","o":"individual","sf":5120,"v":800}},{"type":"Feature","geometry":{"type":"Point","coordinates":[-79.95862,40.55751]},"properties":{"p":"0616B00138000000","a":"OLD ROUTE 8","m":"Hampton","u":"L","o":"corp","sf":1740,"v":300}},{"type":"Feature","geometry":{"type":"Point","coordinates":[-79.95868,40.55766]},"properties":{"p":"0616B00139000000","a":"OLD ROUTE 8","m":"Hampton","u":"L","o":"individual","sf":1511,"v":200}},{"type":"Feature","geometry":{"type":"Point","coordinates":[-79.9587,40.56362]},"properties":{"p":"0719K00028000000","a":"ROUTE 8","m":"Hampton","u":"L","o":"individual","sf":5278,"v":21600}},{"type":"Feature","geometry":{"type":"Point","coordinates":[-79.95909,40.56309]},"properties":{"p":"0719K00044000000","a":"ROUTE 8","m":"Hampton","u":"L","o":"individual","sf":5000,"v":21300}},{"type":"Feature","geometry":{"type":"Point","coordinates":[-79.95945,40.5633]},"properties":{"p":"0719K00106000000","a":"TENNYSON AVE","m":"Hampton","u":"L","o":"individual","sf":2500,"v":200}},{"type":"Feature","geometry":{"type":"Point","coordinates":[-79.95633,40.56681]},"properties":{"p":"0719G00365000000","a":"SURREY DR","m":"Hampton","u":"L","o":"individual","sf":68825,"v":66700}},{"type":"Feature","geometry":{"type":"Point","coordinates":[-79.95854,40.55812]},"properties":{"p":"0616C00344000000","a":"MURRAY AVE","m":"Hampton","u":"L","o":"individual","sf":5000,"v":8800}},{"type":"Feature","geometry":{"type":"Point","coordinates":[-79.94573,40.55478]},"properties":{"p":"0617E00001000000","a":"2823 E ELFINWILD RD","m":"Hampton","u":"L","o":"individual","sf":6228,"v":1000}},{"type":"Feature","geometry":{"type":"Point","coordinates":[-79.94648,40.55769]},"properties":{"p":"0617E00024000000","a":"E ELFINWILD RD","m":"Hampton","u":"L","o":"individual","sf":424710,"v":106500}},{"type":"Feature","geometry":{"type":"Point","coordinates":[-79.95486,40.56921]},"properties":{"p":"0719C00031000000","a":"ROUTE 8","m":"Hampton","u":"L","o":"individual","sf":146362,"v":77400}},{"type":"Feature","geometry":{"type":"Point","coordinates":[-79.95742,40.55863]},"properties":{"p":"0616C00240000000","a":"MURRAY AVE","m":"Hampton","u":"L","o":"individual","sf":8032,"v":1300}},{"type":"Feature","geometry":{"type":"Point","coordinates":[-79.95643,40.55719]},"properties":{"p":"0616C00245000000","a":"MURRAY AVE","m":"Hampton","u":"L","o":"individual","sf":299257,"v":103700}},{"type":"Feature","geometry":{"type":"Point","coordinates":[-79.95642,40.56873]},"properties":{"p":"0719C00217000000","a":"HERRON RD","m":"Hampton","u":"L","o":"corp","sf":130680,"v":18000}},{"type":"Feature","geometry":{"type":"Point","coordinates":[-79.95581,40.56765]},"properties":{"p":"0719C00219000000","a":"HERRON RD","m":"Hampton","u":"L","o":"corp","sf":44431,"v":6100}},{"type":"Feature","geometry":{"type":"Point","coordinates":[-79.94455,40.56419]},"properties":{"p":"0720K00316000000","a":"CLEARVIEW RD","m":"Hampton","u":"L","o":"individual","sf":374,"v":100}},{"type":"Feature","geometry":{"type":"Point","coordinates":[-79.944,40.56435]},"properties":{"p":"0720K00325000000","a":"CLEARVIEW RD","m":"Hampton","u":"L","o":"individual","sf":7797,"v":1300}},{"type":"Feature","geometry":{"type":"Point","coordinates":[-79.949,40.56921]},"properties":{"p":"0831N00180000000","a":"HARTS RUN RD","m":"Hampton","u":"L","o":"corp","sf":135864,"v":1600}},{"type":"Feature","geometry":{"type":"Point","coordinates":[-79.94458,40.56386]},"properties":{"p":"0720K00265000000","a":"CLEARVIEW RD","m":"Hampton","u":"L","o":"individual","sf":14460,"v":2300}},{"type":"Feature","geometry":{"type":"Point","coordinates":[-79.94581,40.56528]},"properties":{"p":"0720F00303000000","a":"HANNA WAY","m":"Hampton","u":"L","o":"individual","sf":24800,"v":35800}},{"type":"Feature","geometry":{"type":"Point","coordinates":[-79.94688,40.56066]},"properties":{"p":"0720N00310000000","a":"ASH DR","m":"Hampton","u":"L","o":"individual","sf":25225,"v":15000}},{"type":"Feature","geometry":{"type":"Point","coordinates":[-79.94581,40.56922]},"properties":{"p":"0720B00349000000","a":"LEE DR","m":"Hampton","u":"L","o":"individual","sf":36154,"v":72600}},{"type":"Feature","geometry":{"type":"Point","coordinates":[-79.9402,40.56632]},"properties":{"p":"0720G00390000000","a":"CLEARVIEW RD","m":"Hampton","u":"L","o":"individual","sf":43699,"v":7000}},{"type":"Feature","geometry":{"type":"Point","coordinates":[-79.94181,40.56911]},"properties":{"p":"0831R00002000000","a":"HARTS RUN RD","m":"Hampton","u":"L","o":"individual","sf":49658,"v":33800}},{"type":"Feature","geometry":{"type":"Point","coordinates":[-79.94079,40.56313]},"properties":{"p":"0720L00088000000","a":"CLEARVIEW RD","m":"Hampton","u":"L","o":"individual","sf":3128,"v":500}},{"type":"Feature","geometry":{"type":"Point","coordinates":[-79.94181,40.56306]},"properties":{"p":"0720L00284000000","a":"CLEARVIEW RD","m":"Hampton","u":"L","o":"individual","sf":52272,"v":40200}},{"type":"Feature","geometry":{"type":"Point","coordinates":[-79.94057,40.56384]},"properties":{"p":"0720L00311000000","a":"CLEARVIEW RD","m":"Hampton","u":"L","o":"corp","sf":61311,"v":76600}},{"type":"Feature","geometry":{"type":"Point","coordinates":[-79.94457,40.56466]},"properties":{"p":"0720F00200000000","a":"LEE DR","m":"Hampton","u":"L","o":"corp","sf":1494,"v":200}},{"type":"Feature","geometry":{"type":"Point","coordinates":[-79.94798,40.56107]},"properties":{"p":"0720N00187000000","a":"CATHERINE DR","m":"Hampton","u":"L","o":"individual","sf":1190,"v":200}},{"type":"Feature","geometry":{"type":"Point","coordinates":[-79.95237,40.56205]},"properties":{"p":"0719S00055000000","a":"CLEARVIEW RD","m":"Hampton","u":"L","o":"individual","sf":19400,"v":3100}},{"type":"Feature","geometry":{"type":"Point","coordinates":[-79.95798,40.56329]},"properties":{"p":"0719L00339000000","a":"ROUTE 8","m":"Hampton","u":"L","o":"corp","sf":122905,"v":5000}},{"type":"Feature","geometry":{"type":"Point","coordinates":[-79.95781,40.55319]},"properties":{"p":"0616L00020000000","a":"BUTLER RD","m":"Shaler","u":"L","o":"corp","sf":159560,"v":38600}},{"type":"Feature","geometry":{"type":"Point","coordinates":[-79.95708,40.5532]},"properties":{"p":"0616L00146000000","a":"E ELFINWILD RD","m":"Shaler","u":"L","o":"individual","sf":16314,"v":1100}},{"type":"Feature","geometry":{"type":"Point","coordinates":[-79.95611,40.55411]},"properties":{"p":"0616L00156000000","a":"ELFINWILD RD","m":"Shaler","u":"L","o":"individual","sf":35112,"v":3900}},{"type":"Feature","geometry":{"type":"Point","coordinates":[-79.94006,40.55334]},"properties":{"p":"0617L00194000000","a":"BLACK OAK DR","m":"Shaler","u":"L","o":"individual","sf":9774,"v":45400}},{"type":"Feature","geometry":{"type":"Point","coordinates":[-79.94856,40.55424]},"properties":{"p":"0617J00080000000","a":"2796 E ELFINWILD RD","m":"Shaler","u":"L","o":"individual","sf":43560,"v":12000}},{"type":"Feature","geometry":{"type":"Point","coordinates":[-79.95187,40.55218]},"properties":{"p":"0616M00122000000","a":"HIEBER RD","m":"Shaler","u":"L","o":"corp","sf":8168,"v":900}},{"type":"Feature","geometry":{"type":"Point","coordinates":[-79.95218,40.55265]},"properties":{"p":"0616M00124000000","a":"HIEBER RD","m":"Shaler","u":"L","o":"corp","sf":14549,"v":1700}},{"type":"Feature","geometry":{"type":"Point","coordinates":[-79.95218,40.55289]},"properties":{"p":"0616M00126000000","a":"HIEBER RD","m":"Shaler","u":"L","o":"individual","sf":15686,"v":1700}},{"type":"Feature","geometry":{"type":"Point","coordinates":[-79.95173,40.55168]},"properties":{"p":"0616S00192000000","a":"E ELFINWILD RD","m":"Shaler","u":"L","o":"individual","sf":24857,"v":26400}},{"type":"Feature","geometry":{"type":"Point","coordinates":[-79.95197,40.55146]},"properties":{"p":"0616S00194000000","a":"1204 E ELFINWILD RD","m":"Shaler","u":"L","o":"individual","sf":27983,"v":26700}},{"type":"Feature","geometry":{"type":"Point","coordinates":[-79.94097,40.5528]},"properties":{"p":"0617K00300000000","a":"TAMARACK DR","m":"Shaler","u":"L","o":"individual","sf":13884,"v":50300}},{"type":"Feature","geometry":{"type":"Point","coordinates":[-79.9462,40.55121]},"properties":{"p":"0617J00105000002","a":"ELFINWILD RD","m":"Shaler","u":"L","o":"corp","sf":295903,"v":75400}},{"type":"Feature","geometry":{"type":"Point","coordinates":[-79.95281,40.55333]},"properties":{"p":"0616M00135000100","a":"HIEBER RD","m":"Shaler","u":"L","o":"individual","sf":13175,"v":50200}},{"type":"Feature","geometry":{"type":"Point","coordinates":[-79.95794,40.55783]},"properties":{"p":"0616C00329000000","a":"PINE ST","m":"Hampton","u":"L","o":"individual","sf":5000,"v":800}},{"type":"Feature","geometry":{"type":"Point","coordinates":[-79.95487,40.55284]},"properties":{"p":"0616M00056000000","a":"HIEBER RD","m":"Shaler","u":"L","o":"individual","sf":53405,"v":4900}},{"type":"Feature","geometry":{"type":"Point","coordinates":[-79.94732,40.56077]},"properties":{"p":"0720N00314000000","a":"ASH DR","m":"Hampton","u":"L","o":"individual","sf":25712,"v":15000}},{"type":"Feature","geometry":{"type":"Point","coordinates":[-79.94036,40.55603]},"properties":{"p":"0617G00281000000","a":"HILL RD","m":"Hampton","u":"L","o":"individual","sf":21780,"v":70300}}]}