{"type":"FeatureCollection","features":[{"type":"Feature","geometry":{"type":"Point","coordinates":[-79.95303,40.63132]},"properties":{"p":"1664M00179000000","a":"RICHLAND RD","m":"Richland","u":"C","o":"corp","sf":72005,"v":21500}},{"type":"Feature","geometry":{"type":"Point","coordinates":[-79.94133,40.63068]},"properties":{"p":"1665L00353000000","a":"WESTLAND DR","m":"Richland","u":"C","o":"corp","sf":65776,"v":9100}},{"type":"Feature","geometry":{"type":"Point","coordinates":[-79.95668,40.63212]},"properties":{"p":"1664L00101000100","a":"GIBSONIA RD","m":"Richland","u":"C","o":"corp","sf":217887,"v":65000}},{"type":"Feature","geometry":{"type":"Point","coordinates":[-79.94837,40.64467]},"properties":{"p":"1832E00088000000","a":"DICKEY RD","m":"Richland","u":"C","o":"corp","sf":251777,"v":20700}},{"type":"Feature","geometry":{"type":"Point","coordinates":[-79.95075,40.63102]},"properties":{"p":"1664M00071000000","a":"EWALT RD","m":"Richland","u":"L","o":"individual","sf":43560,"v":59000}},{"type":"Feature","geometry":{"type":"Point","coordinates":[-79.94416,40.63359]},"properties":{"p":"1665F00129000000","a":"BEECH ST","m":"Richland","u":"L","o":"individual","sf":21875,"v":28800}},{"type":"Feature","geometry":{"type":"Point","coordinates":[-79.95402,40.6379]},"properties":{"p":"1664C00295000000","a":"MERIDIAN RD","m":"Richland","u":"L","o":"individual","sf":57791,"v":60800}},{"type":"Feature","geometry":{"type":"Point","coordinates":[-79.95469,40.6301]},"properties":{"p":"1664R00149000000","a":"SHEPARD RD","m":"Richland","u":"L","o":"individual","sf":1300,"v":200}},{"type":"Feature","geometry":{"type":"Point","coordinates":[-79.94486,40.63554]},"properties":{"p":"1665F00384000000","a":"GIBSONIA RD","m":"Richland","u":"L","o":"corp","sf":87120,"v":37500}},{"type":"Feature","geometry":{"type":"Point","coordinates":[-79.94531,40.63583]},"properties":{"p":"1665F00389000000","a":"GIBSONIA RD","m":"Richland","u":"L","o":"individual","sf":43560,"v":59000}},{"type":"Feature","geometry":{"type":"Point","coordinates":[-79.95426,40.6424]},"properties":{"p":"1831G00133000000","a":"MERIDIAN RD","m":"Richland","u":"L","o":"individual","sf":7741,"v":1000}},{"type":"Feature","geometry":{"type":"Point","coordinates":[-79.95559,40.64261]},"properties":{"p":"1831G00148000000","a":"MERIDIAN RD","m":"Richland","u":"L","o":"individual","sf":8450,"v":1100}},{"type":"Feature","geometry":{"type":"Point","coordinates":[-79.9555,40.64038]},"properties":{"p":"1831L00144000000","a":"MERIDIAN RD","m":"Richland","u":"L","o":"individual","sf":37418,"v":58300}},{"type":"Feature","geometry":{"type":"Point","coordinates":[-79.95597,40.64191]},"properties":{"p":"1831L00280000000","a":"MILTON DR","m":"Richland","u":"L","o":"individual","sf":19406,"v":2500}},{"type":"Feature","geometry":{"type":"Point","coordinates":[-79.9567,40.64184]},"properties":{"p":"1831L00293000000","a":"MILTON DR","m":"Richland","u":"L","o":"individual","sf":17683,"v":2300}},{"type":"Feature","geometry":{"type":"Point","coordinates":[-79.94483,40.64515]},"properties":{"p":"1832B00148000000","a":"DICKEY RD","m":"Richland","u":"L","o":"individual","sf":43599,"v":31500}},{"type":"Feature","geometry":{"type":"Point","coordinates":[-79.94005,40.64975]},"properties":{"p":"2007R00384000000","a":"REX NORREY DR","m":"Richland","u":"L","o":"corp","sf":40230,"v":39000}},{"type":"Feature","geometry":{"type":"Point","coordinates":[-79.94354,40.64858]},"properties":{"p":"2007P00130000000","a":"4015 LORD LYON DR","m":"Richland","u":"L","o":"individual","sf":1800,"v":200}},{"type":"Feature","geometry":{"type":"Point","coordinates":[-79.95279,40.634]},"properties":{"p":"1664H00235000000","a":"FISHER RD","m":"Richland","u":"L","o":"individual","sf":8400,"v":1100}},{"type":"Feature","geometry":{"type":"Point","coordinates":[-79.95839,40.64396]},"properties":{"p":"1831F00023000000","a":"FRANKLIN DR","m":"Richland","u":"L","o":"individual","sf":27396,"v":24500}},{"type":"Feature","geometry":{"type":"Point","coordinates":[-79.95846,40.64446]},"properties":{"p":"1831F00049000000","a":"FRANKLIN DR","m":"Richland","u":"L","o":"corp","sf":25720,"v":29300}},{"type":"Feature","geometry":{"type":"Point","coordinates":[-79.95323,40.64024]},"properties":{"p":"1831S00390000000","a":"4005 SUMMIT ST","m":"Richland","u":"L","o":"individual","sf":12000,"v":1600}},{"type":"Feature","geometry":{"type":"Point","coordinates":[-79.94838,40.63405]},"properties":{"p":"1665E00294000000","a":"GIBSONIA RD","m":"Richland","u":"L","o":"individual","sf":64469,"v":34100}},{"type":"Feature","geometry":{"type":"Point","coordinates":[-79.9468,40.63417]},"properties":{"p":"1665E00330000000","a":"GIBSONIA RD","m":"Richland","u":"L","o":"individual","sf":109336,"v":67300}},{"type":"Feature","geometry":{"type":"Point","coordinates":[-79.94993,40.63466]},"properties":{"p":"1664H00001000000","a":"FISHER RD","m":"Richland","u":"L","o":"individual","sf":967,"v":100}},{"type":"Feature","geometry":{"type":"Point","coordinates":[-79.95496,40.64008]},"properties":{"p":"1831R00263000000","a":"MERIDIAN RD","m":"Richland","u":"L","o":"individual","sf":27306,"v":3600}},{"type":"Feature","geometry":{"type":"Point","coordinates":[-79.95581,40.63972]},"properties":{"p":"1831R00299000000","a":"DICKEY RD","m":"Richland","u":"L","o":"individual","sf":9670,"v":1300}},{"type":"Feature","geometry":{"type":"Point","coordinates":[-79.95568,40.64004]},"properties":{"p":"1831R00309000000","a":"MERIDIAN RD","m":"Richland","u":"L","o":"individual","sf":32930,"v":4300}},{"type":"Feature","geometry":{"type":"Point","coordinates":[-79.94918,40.63128]},"properties":{"p":"1665J00107000000","a":"EWALT RD","m":"Richland","u":"L","o":"individual","sf":43560,"v":59000}},{"type":"Feature","geometry":{"type":"Point","coordinates":[-79.9585,40.64535]},"properties":{"p":"1831B00039000000","a":"FRANKLIN DR","m":"Richland","u":"L","o":"corp","sf":25720,"v":56700}},{"type":"Feature","geometry":{"type":"Point","coordinates":[-79.95651,40.64243]},"properties":{"p":"1831L00322000000","a":"WESLEYANN DR","m":"Richland","u":"L","o":"individual","sf":27662,"v":57000}},{"type":"Feature","geometry":{"type":"Point","coordinates":[-79.95746,40.64162]},"properties":{"p":"1831L00346000000","a":"WESLEYANN DR","m":"Richland","u":"L","o":"individual","sf":19340,"v":2500}},{"type":"Feature","geometry":{"type":"Point","coordinates":[-79.95381,40.64421]},"properties":{"p":"1831G00048000000","a":"MERIDIAN RD","m":"Richland","u":"L","o":"individual","sf":29952,"v":3900}},{"type":"Feature","geometry":{"type":"Point","coordinates":[-79.95403,40.64461]},"properties":{"p":"1831G00055000000","a":"MERIDIAN RD","m":"Richland","u":"L","o":"individual","sf":20500,"v":2700}},{"type":"Feature","geometry":{"type":"Point","coordinates":[-79.94633,40.64016]},"properties":{"p":"1832J00187000000","a":"DICKEY RD","m":"Richland","u":"L","o":"individual","sf":344124,"v":44800}},{"type":"Feature","geometry":{"type":"Point","coordinates":[-79.94653,40.63837]},"properties":{"p":"1832N00135000000","a":"FIELD BROOK LN","m":"Richland","u":"L","o":"individual","sf":10993,"v":1400}},{"type":"Feature","geometry":{"type":"Point","coordinates":[-79.94499,40.63804]},"properties":{"p":"1832P00330000000","a":"310 CHARDICK DR","m":"Richland","u":"L","o":"individual","sf":34731,"v":4500}},{"type":"Feature","geometry":{"type":"Point","coordinates":[-79.95499,40.6341]},"properties":{"p":"1664G00181000000","a":"MERIDIAN RD","m":"Richland","u":"L","o":"individual","sf":18900,"v":2500}},{"type":"Feature","geometry":{"type":"Point","coordinates":[-79.94773,40.64677]},"properties":{"p":"1832A00010000000","a":"TIFFANY CT","m":"Richland","u":"L","o":"individual","sf":23086,"v":3000}},{"type":"Feature","geometry":{"type":"Point","coordinates":[-79.95426,40.63292]},"properties":{"p":"1664G00117000000","a":"GIBSONIA RD","m":"Richland","u":"L","o":"individual","sf":24069,"v":3100}},{"type":"Feature","geometry":{"type":"Point","coordinates":[-79.95388,40.6345]},"properties":{"p":"1664G00154000000","a":"MERIDIAN RD","m":"Richland","u":"L","o":"individual","sf":22464,"v":4400}},{"type":"Feature","geometry":{"type":"Point","coordinates":[-79.95389,40.63499]},"properties":{"p":"1664G00162000000","a":"AUSTIN DR","m":"Richland","u":"L","o":"individual","sf":23412,"v":4400}},{"type":"Feature","geometry":{"type":"Point","coordinates":[-79.94905,40.63571]},"properties":{"p":"1665E00391000000","a":"FISHER RD","m":"Richland","u":"L","o":"individual","sf":87120,"v":64500}},{"type":"Feature","geometry":{"type":"Point","coordinates":[-79.94232,40.63014]},"properties":{"p":"1665P00080000000","a":"WESTLAND DR","m":"Richland","u":"L","o":"individual","sf":1720,"v":200}},{"type":"Feature","geometry":{"type":"Point","coordinates":[-79.9535,40.64344]},"properties":{"p":"1831H00116000000","a":"OAKLAND AVE","m":"Richland","u":"L","o":"corp","sf":62291,"v":61400}},{"type":"Feature","geometry":{"type":"Point","coordinates":[-79.95996,40.63061]},"properties":{"p":"1664K00195000000","a":"ANDERSON RD","m":"Richland","u":"L","o":"individual","sf":16450,"v":2100}},{"type":"Feature","geometry":{"type":"Point","coordinates":[-79.94641,40.6358]},"properties":{"p":"1665A00075000000","a":"BENEDICK RD","m":"Richland","u":"L","o":"corp","sf":48552,"v":12900}},{"type":"Feature","geometry":{"type":"Point","coordinates":[-79.95224,40.63405]},"properties":{"p":"1664H00248000000","a":"FISHER RD","m":"Richland","u":"L","o":"individual","sf":9729,"v":1300}},{"type":"Feature","geometry":{"type":"Point","coordinates":[-79.95076,40.6315]},"properties":{"p":"1664M00098000000","a":"EWALT RD","m":"Richland","u":"L","o":"individual","sf":43390,"v":59000}},{"type":"Feature","geometry":{"type":"Point","coordinates":[-79.95302,40.63501]},"properties":{"p":"1664H00377000000","a":"AUSTIN DR","m":"Richland","u":"L","o":"individual","sf":56410,"v":45500}},{"type":"Feature","geometry":{"type":"Point","coordinates":[-79.94885,40.63723]},"properties":{"p":"1665A00063000000","a":"109 FIELD BROOK LN","m":"Richland","u":"B","o":"corp","sf":40290,"v":12000}},{"type":"Feature","geometry":{"type":"Point","coordinates":[-79.94659,40.6375]},"properties":{"p":"1665A00051000000","a":"102 FIELD BROOK LN","m":"Richland","u":"B","o":"individual","sf":40863,"v":12000}},{"type":"Feature","geometry":{"type":"Point","coordinates":[-79.95024,40.63676]},"properties":{"p":"1832N00103000000","a":"203 FIELD BROOK CT","m":"Richland","u":"B","o":"corp","sf":67945,"v":15300}}]}