{"type":"FeatureCollection","features":[{"type":"Feature","geometry":{"type":"Point","coordinates":[-79.95481,40.5826]},"properties":{"p":"0949L00058000000","a":"MOUNT ROYAL BLVD","m":"Hampton","u":"C","o":"individual","sf":3267,"v":600}},{"type":"Feature","geometry":{"type":"Point","coordinates":[-79.95507,40.57345]},"properties":{"p":"0830L00070000000","a":"ROUTE 8","m":"Hampton","u":"C","o":"corp","sf":51401,"v":11000}},{"type":"Feature","geometry":{"type":"Point","coordinates":[-79.95137,40.58593]},"properties":{"p":"0949H00100000000","a":"4517 MOUNT ROYAL BLVD","m":"Hampton","u":"C","o":"corp","sf":107419,"v":10000}},{"type":"Feature","geometry":{"type":"Point","coordinates":[-79.95149,40.58694]},"properties":{"p":"0949D00030000000","a":"ROUTE 8","m":"Hampton","u":"C","o":"corp","sf":403366,"v":150000}},{"type":"Feature","geometry":{"type":"Point","coordinates":[-79.95027,40.58805]},"properties":{"p":"0949D00040000000","a":"ROUTE 8","m":"Hampton","u":"C","o":"corp","sf":90713,"v":150000}},{"type":"Feature","geometry":{"type":"Point","coordinates":[-79.94714,40.57365]},"properties":{"p":"0831J00112000000","a":"ROSANNA DR","m":"Hampton","u":"C","o":"corp","sf":40903,"v":73300}},{"type":"Feature","geometry":{"type":"Point","coordinates":[-79.95063,40.58908]},"properties":{"p":"1076S00080000000","a":"ROUTE 8","m":"Hampton","u":"C","o":"corp","sf":436593,"v":150000}},{"type":"Feature","geometry":{"type":"Point","coordinates":[-79.94879,40.58785]},"properties":{"p":"0950A00353000000","a":"ROUTE 8","m":"Hampton","u":"C","o":"corp","sf":21780,"v":52800}},{"type":"Feature","geometry":{"type":"Point","coordinates":[-79.95858,40.57079]},"properties":{"p":"0830P00038000000","a":"MAPLE LN","m":"Hampton","u":"L","o":"corp","sf":46174,"v":35000}},{"type":"Feature","geometry":{"type":"Point","coordinates":[-79.94777,40.57997]},"properties":{"p":"0950N00065000000","a":"TREMONTE CIR","m":"Hampton","u":"L","o":"individual","sf":25265,"v":70800}},{"type":"Feature","geometry":{"type":"Point","coordinates":[-79.95891,40.58353]},"properties":{"p":"0949K00133000000","a":"MAPLE LN","m":"Hampton","u":"L","o":"individual","sf":45999,"v":63600}},{"type":"Feature","geometry":{"type":"Point","coordinates":[-79.94816,40.57016]},"properties":{"p":"0831N00190000000","a":"HARTS RUN RD","m":"Hampton","u":"L","o":"individual","sf":48526,"v":7800}},{"type":"Feature","geometry":{"type":"Point","coordinates":[-79.94933,40.57571]},"properties":{"p":"0831E00359000000","a":"ROSANNA DR","m":"Hampton","u":"L","o":"corp","sf":16596,"v":2700}},{"type":"Feature","geometry":{"type":"Point","coordinates":[-79.95875,40.57565]},"properties":{"p":"0830F00042000000","a":"LORELAND RD","m":"Hampton","u":"L","o":"individual","sf":25706,"v":60800}},{"type":"Feature","geometry":{"type":"Point","coordinates":[-79.9549,40.57941]},"properties":{"p":"0949R00006000000","a":"CRAIGHEAD RD","m":"Hampton","u":"L","o":"individual","sf":43865,"v":17200}},{"type":"Feature","geometry":{"type":"Point","coordinates":[-79.95133,40.58047]},"properties":{"p":"0949S00081000000","a":"MCCULLY RD","m":"Hampton","u":"L","o":"individual","sf":53143,"v":600}},{"type":"Feature","geometry":{"type":"Point","coordinates":[-79.95203,40.57985]},"properties":{"p":"0949S00098000000","a":"MCCULLY RD","m":"Hampton","u":"L","o":"corp","sf":87120,"v":60600}},{"type":"Feature","geometry":{"type":"Point","coordinates":[-79.95365,40.5796]},"properties":{"p":"0949S00342000000","a":"CRAIGHEAD RD","m":"Hampton","u":"L","o":"individual","sf":4312,"v":600}},{"type":"Feature","geometry":{"type":"Point","coordinates":[-79.95037,40.58328]},"properties":{"p":"0949M00077000000","a":"ROUTE 8","m":"Hampton","u":"L","o":"individual","sf":21875,"v":70300}},{"type":"Feature","geometry":{"type":"Point","coordinates":[-79.94959,40.58279]},"properties":{"p":"0950J00301000000","a":"BIRCHWOOD LN","m":"Hampton","u":"L","o":"individual","sf":38688,"v":6200}},{"type":"Feature","geometry":{"type":"Point","coordinates":[-79.94456,40.58469]},"properties":{"p":"0950K00269000000","a":"MCCULLY RD","m":"Hampton","u":"L","o":"individual","sf":386382,"v":21200}},{"type":"Feature","geometry":{"type":"Point","coordinates":[-79.95117,40.5778]},"properties":{"p":"0831A00393000000","a":"ROSANNA DR","m":"Hampton","u":"L","o":"individual","sf":380475,"v":50000}},{"type":"Feature","geometry":{"type":"Point","coordinates":[-79.94866,40.57666]},"properties":{"p":"0831E00131000000","a":"ROSANNA DR","m":"Hampton","u":"L","o":"corp","sf":34740,"v":10000}},{"type":"Feature","geometry":{"type":"Point","coordinates":[-79.94404,40.57171]},"properties":{"p":"0831P00343000000","a":"HARTS RUN RD","m":"Hampton","u":"L","o":"individual","sf":87120,"v":16600}},{"type":"Feature","geometry":{"type":"Point","coordinates":[-79.95019,40.5843]},"properties":{"p":"0949H00004000000","a":"ROUTE 8","m":"Hampton","u":"L","o":"corp","sf":90997,"v":81400}},{"type":"Feature","geometry":{"type":"Point","coordinates":[-79.95832,40.57495]},"properties":{"p":"0830G00172000000","a":"LORELAND RD","m":"Hampton","u":"L","o":"individual","sf":20909,"v":2900}},{"type":"Feature","geometry":{"type":"Point","coordinates":[-79.95731,40.57542]},"properties":{"p":"0830G00295000000","a":"4370 MOUNT ROYAL BLVD","m":"Hampton","u":"L","o":"individual","sf":150064,"v":77900}},{"type":"Feature","geometry":{"type":"Point","coordinates":[-79.95638,40.57638]},"properties":{"p":"0830G00362000000","a":"4370 MOUNT ROYAL BLVD","m":"Hampton","u":"L","o":"individual","sf":69260,"v":66800}},{"type":"Feature","geometry":{"type":"Point","coordinates":[-79.95297,40.57673]},"properties":{"p":"0830D00218000000","a":"ROUTE 8","m":"Hampton","u":"L","o":"corp","sf":165964,"v":10000}},{"type":"Feature","geometry":{"type":"Point","coordinates":[-79.95275,40.57887]},"properties":{"p":"0830D00330000000","a":"OLD ROUTE 8","m":"Hampton","u":"L","o":"individual","sf":37505,"v":72800}},{"type":"Feature","geometry":{"type":"Point","coordinates":[-79.94795,40.57704]},"properties":{"p":"0831A00064000000","a":"HARTS RUN RD","m":"Hampton","u":"L","o":"individual","sf":21780,"v":3500}},{"type":"Feature","geometry":{"type":"Point","coordinates":[-79.9574,40.58833]},"properties":{"p":"0949C00379000000","a":"WILDWOOD RD","m":"Hampton","u":"L","o":"individual","sf":25265,"v":51500}},{"type":"Feature","geometry":{"type":"Point","coordinates":[-79.94678,40.57823]},"properties":{"p":"0831A00200000000","a":"TREMONTE LN","m":"Hampton","u":"L","o":"corp","sf":94264,"v":81900}},{"type":"Feature","geometry":{"type":"Point","coordinates":[-79.95451,40.58882]},"properties":{"p":"1076R00165000000","a":"WILDWOOD RD","m":"Hampton","u":"L","o":"individual","sf":166835,"v":80000}},{"type":"Feature","geometry":{"type":"Point","coordinates":[-79.94616,40.58982]},"properties":{"p":"1077N00322000000","a":"WILDWOOD RD EXT","m":"Hampton","u":"L","o":"corp","sf":6050,"v":700}},{"type":"Feature","geometry":{"type":"Point","coordinates":[-79.94587,40.58982]},"properties":{"p":"1077N00338000000","a":"WILDWOOD RD EXT","m":"Hampton","u":"L","o":"corp","sf":21780,"v":51100}},{"type":"Feature","geometry":{"type":"Point","coordinates":[-79.94551,40.58994]},"properties":{"p":"1077P00329000000","a":"SCHOOL DR","m":"Hampton","u":"L","o":"corp","sf":21929,"v":51100}},{"type":"Feature","geometry":{"type":"Point","coordinates":[-79.95448,40.58031]},"properties":{"p":"0949R00345000000","a":"MOUNT ROYAL BLVD","m":"Hampton","u":"L","o":"individual","sf":150500,"v":78000}},{"type":"Feature","geometry":{"type":"Point","coordinates":[-79.95146,40.57983]},"properties":{"p":"0949S00092000000","a":"MCCULLY RD","m":"Hampton","u":"L","o":"corp","sf":39796,"v":55000}},{"type":"Feature","geometry":{"type":"Point","coordinates":[-79.95862,40.57624]},"properties":{"p":"0830F00061000000","a":"MOUNT ROYAL BLVD","m":"Hampton","u":"L","o":"individual","sf":40393,"v":20000}},{"type":"Feature","geometry":{"type":"Point","coordinates":[-79.95305,40.58863]},"properties":{"p":"1076S00129000000","a":"WILDWOOD RD","m":"Hampton","u":"L","o":"individual","sf":169884,"v":68100}}]}