{"type":"FeatureCollection","features":[{"type":"Feature","geometry":{"type":"Point","coordinates":[-79.92909,40.53571]},"properties":{"p":"0436J00259000000","a":"BERRYHILL RD","m":"Indiana","u":"L","o":"individual","sf":478289,"v":27840}},{"type":"Feature","geometry":{"type":"Point","coordinates":[-79.9259,40.53981]},"properties":{"p":"0436B00016000000","a":"5024 SILENT MEADOW CT","m":"Indiana","u":"L","o":"corp","sf":53910,"v":43100}},{"type":"Feature","geometry":{"type":"Point","coordinates":[-79.93222,40.53976]},"properties":{"p":"0436A00201000000","a":"1832 MIDDLE RD","m":"Indiana","u":"L","o":"individual","sf":17032,"v":1500}},{"type":"Feature","geometry":{"type":"Point","coordinates":[-79.93227,40.53868]},"properties":{"p":"0436A00290000000","a":"MIDDLE RD","m":"Indiana","u":"L","o":"individual","sf":125583,"v":14200}},{"type":"Feature","geometry":{"type":"Point","coordinates":[-79.92676,40.53739]},"properties":{"p":"0436F00282000000","a":"395 FRANCIONI HILL LN","m":"Indiana","u":"L","o":"individual","sf":337329,"v":66400}},{"type":"Feature","geometry":{"type":"Point","coordinates":[-79.93242,40.54951]},"properties":{"p":"0523A00268000000","a":"208 INDIANA DR","m":"Indiana","u":"L","o":"individual","sf":7796,"v":700}},{"type":"Feature","geometry":{"type":"Point","coordinates":[-79.92626,40.54868]},"properties":{"p":"0523C00371000000","a":"KLEIN RD","m":"Indiana","u":"L","o":"individual","sf":87120,"v":8000}},{"type":"Feature","geometry":{"type":"Point","coordinates":[-79.93392,40.54034]},"properties":{"p":"0435D00320000000","a":"MIDDLE RD","m":"Indiana","u":"L","o":"individual","sf":8032,"v":700}},{"type":"Feature","geometry":{"type":"Point","coordinates":[-79.92074,40.54895]},"properties":{"p":"0523H00172000000","a":"BIGLER DR","m":"Indiana","u":"L","o":"individual","sf":201247,"v":32000}},{"type":"Feature","geometry":{"type":"Point","coordinates":[-79.93555,40.54429]},"properties":{"p":"0522M00342000000","a":"TARASI LN","m":"Indiana","u":"L","o":"individual","sf":98663,"v":27200}},{"type":"Feature","geometry":{"type":"Point","coordinates":[-79.92767,40.54984]},"properties":{"p":"0523B00169000000","a":"HILLSIDE LN","m":"Indiana","u":"L","o":"individual","sf":19827,"v":39800}},{"type":"Feature","geometry":{"type":"Point","coordinates":[-79.92792,40.54924]},"properties":{"p":"0523B00348000000","a":"237 INDIANA DR","m":"Indiana","u":"L","o":"individual","sf":43560,"v":4000}},{"type":"Feature","geometry":{"type":"Point","coordinates":[-79.93247,40.54659]},"properties":{"p":"0523E00260000000","a":"WOODS RUN RD","m":"Indiana","u":"L","o":"individual","sf":21956,"v":2000}},{"type":"Feature","geometry":{"type":"Point","coordinates":[-79.92888,40.54597]},"properties":{"p":"0523F00271000000","a":"RED MAPLE LN","m":"Indiana","u":"L","o":"individual","sf":71613,"v":44700}},{"type":"Feature","geometry":{"type":"Point","coordinates":[-79.93529,40.53548]},"properties":{"p":"0435H00080000100","a":"114 OAKWOOD DR","m":"Indiana","u":"L","o":"individual","sf":1083,"v":100}},{"type":"Feature","geometry":{"type":"Point","coordinates":[-79.9323,40.54145]},"properties":{"p":"0523N00328000000","a":"MIDDLE RD","m":"Indiana","u":"L","o":"individual","sf":72571,"v":44800}},{"type":"Feature","geometry":{"type":"Point","coordinates":[-79.92946,40.54294]},"properties":{"p":"0523J00004000000","a":"PARK PL","m":"Indiana","u":"L","o":"individual","sf":23158,"v":2100}},{"type":"Feature","geometry":{"type":"Point","coordinates":[-79.93521,40.53791]},"properties":{"p":"0435H00228000000","a":"MIDDLE RD","m":"Indiana","u":"L","o":"individual","sf":46609,"v":42400}},{"type":"Feature","geometry":{"type":"Point","coordinates":[-79.93555,40.53776]},"properties":{"p":"0435H00233000000","a":"MIDDLE RD","m":"Indiana","u":"L","o":"individual","sf":48787,"v":42600}},{"type":"Feature","geometry":{"type":"Point","coordinates":[-79.93586,40.53687]},"properties":{"p":"0435H00260000000","a":"MIDDLE RD","m":"Indiana","u":"L","o":"corp","sf":22782,"v":20300}},{"type":"Feature","geometry":{"type":"Point","coordinates":[-79.92269,40.54927]},"properties":{"p":"0523C00241000000","a":"KLEIN RD","m":"Indiana","u":"L","o":"individual","sf":168272,"v":53600}},{"type":"Feature","geometry":{"type":"Point","coordinates":[-79.92195,40.54866]},"properties":{"p":"0523C00302000000","a":"KLEIN RD","m":"Indiana","u":"L","o":"individual","sf":83635,"v":45800}},{"type":"Feature","geometry":{"type":"Point","coordinates":[-79.93013,40.53302]},"properties":{"p":"0436J00025000000","a":"BERRYHILL RD","m":"O''Hara","u":"L","o":"individual","sf":46648,"v":31900}},{"type":"Feature","geometry":{"type":"Point","coordinates":[-79.93351,40.53302]},"properties":{"p":"0436J00120000000","a":"BERRYHILL RD","m":"O''Hara","u":"L","o":"individual","sf":23273,"v":3000}},{"type":"Feature","geometry":{"type":"Point","coordinates":[-79.9282,40.53195]},"properties":{"p":"0436P00138000000","a":"BERRYHILL RD","m":"O''Hara","u":"L","o":"individual","sf":2676,"v":400}},{"type":"Feature","geometry":{"type":"Point","coordinates":[-79.92802,40.53132]},"properties":{"p":"0436P00148000000","a":"BERRYHILL RD","m":"O''Hara","u":"L","o":"individual","sf":26140,"v":3400}},{"type":"Feature","geometry":{"type":"Point","coordinates":[-79.92768,40.53061]},"properties":{"p":"0436P00150000100","a":"183 BERRYHILL RD","m":"O''Hara","u":"L","o":"individual","sf":3161,"v":400}},{"type":"Feature","geometry":{"type":"Point","coordinates":[-79.93359,40.53023]},"properties":{"p":"0435S00090000000","a":"SAXONBURG BLVD","m":"O''Hara","u":"L","o":"individual","sf":159430,"v":20100}},{"type":"Feature","geometry":{"type":"Point","coordinates":[-79.93446,40.53226]},"properties":{"p":"0435S00110000000","a":"MIDDLECREST DR","m":"O''Hara","u":"L","o":"individual","sf":130680,"v":17000}},{"type":"Feature","geometry":{"type":"Point","coordinates":[-79.93723,40.53374]},"properties":{"p":"0435M00125000000","a":"1612 MIDDLECREST DR","m":"O''Hara","u":"L","o":"individual","sf":43560,"v":59000}},{"type":"Feature","geometry":{"type":"Point","coordinates":[-79.92401,40.53425]},"properties":{"p":"0436L00020000000","a":"SAXONBURG BLVD","m":"O''Hara","u":"L","o":"corp","sf":613952,"v":106000}},{"type":"Feature","geometry":{"type":"Point","coordinates":[-79.92422,40.53147]},"properties":{"p":"0436R00175000000","a":"1201 SAXONBURG RD","m":"O''Hara","u":"L","o":"individual","sf":204732,"v":79300}},{"type":"Feature","geometry":{"type":"Point","coordinates":[-79.93679,40.5319]},"properties":{"p":"0435S00021000000","a":"MIDDLECREST DR","m":"O''Hara","u":"L","o":"individual","sf":2757,"v":400}},{"type":"Feature","geometry":{"type":"Point","coordinates":[-79.93888,40.53333]},"properties":{"p":"0435L00040000000","a":"MIDDLE RD","m":"Shaler","u":"L","o":"individual","sf":14549,"v":1600}},{"type":"Feature","geometry":{"type":"Point","coordinates":[-79.93774,40.53441]},"properties":{"p":"0435L00004000000","a":"MIDDLE RD","m":"Shaler","u":"L","o":"individual","sf":5977,"v":700}},{"type":"Feature","geometry":{"type":"Point","coordinates":[-79.9395,40.5465]},"properties":{"p":"0522G00249000000","a":"TILLIA ST","m":"Shaler","u":"L","o":"corp","sf":34869,"v":3800}},{"type":"Feature","geometry":{"type":"Point","coordinates":[-79.93809,40.53534]},"properties":{"p":"0435G00010000000","a":"110 HIGHLANDER HEIGHTS DR","m":"Shaler","u":"L","o":"individual","sf":11663,"v":1300}},{"type":"Feature","geometry":{"type":"Point","coordinates":[-79.93893,40.53428]},"properties":{"p":"0435L00231000000","a":"HIGHLANDER HEIGHTS DR","m":"Shaler","u":"L","o":"individual","sf":1306,"v":100}},{"type":"Feature","geometry":{"type":"Point","coordinates":[-79.92741,40.54116]},"properties":{"p":"0523P00056000000","a":"BOARDWALK CT","m":"Indiana","u":"L","o":"individual","sf":21689,"v":20200}},{"type":"Feature","geometry":{"type":"Point","coordinates":[-79.9204,40.53616]},"properties":{"p":"0436H00370000000","a":"SAXONBURG BLVD","m":"Indiana","u":"L","o":"individual","sf":12740,"v":1200}},{"type":"Feature","geometry":{"type":"Point","coordinates":[-79.93181,40.53047]},"properties":{"p":"0357A00025000000","a":"BERRYHILL RD","m":"O''Hara","u":"L","o":"individual","sf":203425,"v":25700}},{"type":"Feature","geometry":{"type":"Point","coordinates":[-79.93276,40.5483]},"properties":{"p":"0523A00153000000","a":"112 DENNIS DR","m":"Indiana","u":"L","o":"corp","sf":46871,"v":22500}},{"type":"Feature","geometry":{"type":"Point","coordinates":[-79.92906,40.53033]},"properties":{"p":"0357B00160000000","a":"R OF W","m":"O''Hara","u":"L","o":"individual","sf":69875,"v":62300}},{"type":"Feature","geometry":{"type":"Point","coordinates":[-79.92798,40.54286]},"properties":{"p":"0523J00008000000","a":"PARK PL","m":"Indiana","u":"L","o":"corp","sf":74623,"v":45000}},{"type":"Feature","geometry":{"type":"Point","coordinates":[-79.93735,40.53189]},"properties":{"p":"0435S00029000000","a":"MIDDLECREST DR","m":"O''Hara","u":"L","o":"individual","sf":2160,"v":300}},{"type":"Feature","geometry":{"type":"Point","coordinates":[-79.92829,40.5425]},"properties":{"p":"0523P00006000000","a":"4013 PARK PL","m":"Indiana","u":"B","o":"corp","sf":25532,"v":6500}},{"type":"Feature","geometry":{"type":"Point","coordinates":[-79.92652,40.54263]},"properties":{"p":"0523P00041000000","a":"3013 BOARDWALK CT","m":"Indiana","u":"B","o":"individual","sf":50120,"v":8800}},{"type":"Feature","geometry":{"type":"Point","coordinates":[-79.92603,40.54067]},"properties":{"p":"0436B00018000000","a":"SILENT MEADOW CT","m":"Indiana","u":"B","o":"corp","sf":48147,"v":8600}}]}