{"type":"FeatureCollection","features":[{"type":"Feature","geometry":{"type":"Point","coordinates":[-79.93882,40.49529]},"properties":{"p":"0167L00200000000","a":"N MAIN ST","m":"Etna","u":"I","o":"corp","sf":11355,"v":1800}},{"type":"Feature","geometry":{"type":"Point","coordinates":[-79.92468,40.49302]},"properties":{"p":"0168P00200000000","a":"MAIN ST","m":"Sharpsburg","u":"I","o":"corp","sf":113735,"v":117495}},{"type":"Feature","geometry":{"type":"Point","coordinates":[-79.92601,40.49617]},"properties":{"p":"0168K00250000100","a":"15TH ST","m":"Sharpsburg","u":"I","o":"corp","sf":123,"v":100}},{"type":"Feature","geometry":{"type":"Point","coordinates":[-79.9353,40.49379]},"properties":{"p":"0167S00108000000","a":"7TH ST","m":"Sharpsburg","u":"I","o":"corp","sf":1840,"v":1700}},{"type":"Feature","geometry":{"type":"Point","coordinates":[-79.9378,40.49468]},"properties":{"p":"0167L00230000000","a":"300 MAIN ST","m":"Sharpsburg","u":"I","o":"corp","sf":4800,"v":900}},{"type":"Feature","geometry":{"type":"Point","coordinates":[-79.93763,40.49473]},"properties":{"p":"0167L00232000000","a":"300 S MAIN ST","m":"Sharpsburg","u":"I","o":"corp","sf":3200,"v":600}},{"type":"Feature","geometry":{"type":"Point","coordinates":[-79.93483,40.49378]},"properties":{"p":"0167S00095000000","a":"101 ALI ST","m":"Sharpsburg","u":"I","o":"corp","sf":2108,"v":400}},{"type":"Feature","geometry":{"type":"Point","coordinates":[-79.93521,40.49344]},"properties":{"p":"0167S00200000000","a":"4 5TH ST","m":"Sharpsburg","u":"I","o":"corp","sf":4966,"v":900}},{"type":"Feature","geometry":{"type":"Point","coordinates":[-79.93483,40.49373]},"properties":{"p":"0167S00094000000","a":"101 ALI ST","m":"Sharpsburg","u":"I","o":"corp","sf":2128,"v":400}},{"type":"Feature","geometry":{"type":"Point","coordinates":[-79.93079,40.49021]},"properties":{"p":"0121A00225000000","a":"RAILROAD ST","m":"10th Ward - PITTSBURGH","u":"C","o":"individual","sf":32253,"v":37000}},{"type":"Feature","geometry":{"type":"Point","coordinates":[-79.93923,40.49229]},"properties":{"p":"0167R00215000000","a":"1 RIVER WAY","m":"Etna","u":"C","o":"corp","sf":7624,"v":15900}},{"type":"Feature","geometry":{"type":"Point","coordinates":[-79.9389,40.49235]},"properties":{"p":"0167R00216000000","a":"1 RIVER WAY","m":"Etna","u":"C","o":"corp","sf":2190,"v":2000}},{"type":"Feature","geometry":{"type":"Point","coordinates":[-79.93925,40.49239]},"properties":{"p":"0167R00218000000","a":"1 RIVER WAY","m":"Etna","u":"C","o":"corp","sf":4869,"v":4400}},{"type":"Feature","geometry":{"type":"Point","coordinates":[-79.93961,40.49224]},"properties":{"p":"0167R00220000000","a":"1 RIVER WAY","m":"Etna","u":"C","o":"corp","sf":4650,"v":13200}},{"type":"Feature","geometry":{"type":"Point","coordinates":[-79.93497,40.49421]},"properties":{"p":"0167M00370000000","a":"7TH ST","m":"Sharpsburg","u":"C","o":"corp","sf":1215,"v":700}},{"type":"Feature","geometry":{"type":"Point","coordinates":[-79.93131,40.4943]},"properties":{"p":"0168J00309000000","a":"1020 MAIN ST","m":"Sharpsburg","u":"C","o":"corp","sf":3434,"v":1000}},{"type":"Feature","geometry":{"type":"Point","coordinates":[-79.93843,40.4944]},"properties":{"p":"0167L00264000000","a":"S MAIN ST","m":"Sharpsburg","u":"C","o":"individual","sf":450,"v":200}},{"type":"Feature","geometry":{"type":"Point","coordinates":[-79.93029,40.49441]},"properties":{"p":"0168J00322000000","a":"MAIN ST","m":"Sharpsburg","u":"C","o":"corp","sf":700,"v":200}},{"type":"Feature","geometry":{"type":"Point","coordinates":[-79.93476,40.49421]},"properties":{"p":"0167M00363000000","a":"703 MAIN ST","m":"Sharpsburg","u":"C","o":"corp","sf":995,"v":600}},{"type":"Feature","geometry":{"type":"Point","coordinates":[-79.93357,40.49442]},"properties":{"p":"0167M00344000000","a":"905 MAIN ST","m":"Sharpsburg","u":"C","o":"corp","sf":1700,"v":5100}},{"type":"Feature","geometry":{"type":"Point","coordinates":[-79.93253,40.49442]},"properties":{"p":"0167M00348000000","a":"MAIN ST","m":"Sharpsburg","u":"C","o":"corp","sf":7526,"v":4500}},{"type":"Feature","geometry":{"type":"Point","coordinates":[-79.93995,40.49703]},"properties":{"p":"0167G00060000000","a":"CLAY ST","m":"Sharpsburg","u":"C","o":"corp","sf":93306,"v":0}},{"type":"Feature","geometry":{"type":"Point","coordinates":[-79.92939,40.4951]},"properties":{"p":"0168J00336000000","a":"13TH ST","m":"Sharpsburg","u":"C","o":"corp","sf":3523,"v":27100}},{"type":"Feature","geometry":{"type":"Point","coordinates":[-79.93405,40.49443]},"properties":{"p":"0167M00351000000","a":"817 MAIN ST","m":"Sharpsburg","u":"C","o":"corp","sf":1700,"v":1000}},{"type":"Feature","geometry":{"type":"Point","coordinates":[-79.93441,40.49425]},"properties":{"p":"0167M00357000001","a":"805 MAIN ST","m":"Sharpsburg","u":"C","o":"corp","sf":1086,"v":3300}},{"type":"Feature","geometry":{"type":"Point","coordinates":[-79.92189,40.49584]},"properties":{"p":"0168L00297000000","a":"CECIL ST","m":"Sharpsburg","u":"L","o":"individual","sf":2523,"v":900}},{"type":"Feature","geometry":{"type":"Point","coordinates":[-79.92685,40.49431]},"properties":{"p":"0168K00033000000","a":"MAIN ST","m":"Sharpsburg","u":"L","o":"corp","sf":1575,"v":100}},{"type":"Feature","geometry":{"type":"Point","coordinates":[-79.92517,40.4955]},"properties":{"p":"0168K00199000000","a":"MIDDLE ST","m":"Sharpsburg","u":"L","o":"corp","sf":1850,"v":7500}},{"type":"Feature","geometry":{"type":"Point","coordinates":[-79.92327,40.49564]},"properties":{"p":"0168L00216000000","a":"210 17TH ST","m":"Sharpsburg","u":"L","o":"individual","sf":1385,"v":3200}},{"type":"Feature","geometry":{"type":"Point","coordinates":[-79.92219,40.49447]},"properties":{"p":"0168L00114000000","a":"1721 MAIN ST","m":"Sharpsburg","u":"L","o":"corp","sf":4690,"v":22300}},{"type":"Feature","geometry":{"type":"Point","coordinates":[-79.92626,40.49538]},"properties":{"p":"0168K00298000000","a":"15TH ST","m":"Sharpsburg","u":"L","o":"corp","sf":2186,"v":16500}},{"type":"Feature","geometry":{"type":"Point","coordinates":[-79.92932,40.49413]},"properties":{"p":"0168J00372000000","a":"MAIN ST","m":"Sharpsburg","u":"L","o":"individual","sf":2166,"v":42500}},{"type":"Feature","geometry":{"type":"Point","coordinates":[-79.92939,40.49412]},"properties":{"p":"0168J00372000A00","a":"MAIN ST","m":"Sharpsburg","u":"L","o":"individual","sf":1834,"v":24800}},{"type":"Feature","geometry":{"type":"Point","coordinates":[-79.92373,40.49559]},"properties":{"p":"0168L00212000000","a":"1636 MIDDLE ST","m":"Sharpsburg","u":"L","o":"individual","sf":2250,"v":16700}},{"type":"Feature","geometry":{"type":"Point","coordinates":[-79.92851,40.49459]},"properties":{"p":"0168K00057000000","a":"MAIN ST","m":"Sharpsburg","u":"L","o":"individual","sf":2850,"v":6100}},{"type":"Feature","geometry":{"type":"Point","coordinates":[-79.92589,40.49507]},"properties":{"p":"0168K00088000000","a":"MIDDLE ST","m":"Sharpsburg","u":"L","o":"individual","sf":385,"v":200}},{"type":"Feature","geometry":{"type":"Point","coordinates":[-79.92694,40.4943]},"properties":{"p":"0168K00034000000","a":"MAIN ST","m":"Sharpsburg","u":"L","o":"corp","sf":3425,"v":19400}},{"type":"Feature","geometry":{"type":"Point","coordinates":[-79.92705,40.49429]},"properties":{"p":"0168K00035000000","a":"MAIN ST","m":"Sharpsburg","u":"L","o":"corp","sf":2625,"v":17500}},{"type":"Feature","geometry":{"type":"Point","coordinates":[-79.92185,40.49561]},"properties":{"p":"0168L00240000000","a":"CECIL ST","m":"Sharpsburg","u":"L","o":"individual","sf":836,"v":400}},{"type":"Feature","geometry":{"type":"Point","coordinates":[-79.92338,40.49524]},"properties":{"p":"0168L00146000000","a":"1701 MIDDLE ST","m":"Sharpsburg","u":"L","o":"individual","sf":1000,"v":400}},{"type":"Feature","geometry":{"type":"Point","coordinates":[-79.93585,40.49355]},"properties":{"p":"0167S00132000000","a":"5TH ST","m":"Sharpsburg","u":"L","o":"individual","sf":880,"v":13500}},{"type":"Feature","geometry":{"type":"Point","coordinates":[-79.93588,40.49367]},"properties":{"p":"0167S00134000000","a":"4 5TH ST","m":"Sharpsburg","u":"L","o":"corp","sf":1500,"v":1000}},{"type":"Feature","geometry":{"type":"Point","coordinates":[-79.93279,40.49496]},"properties":{"p":"0168J00230000000","a":"CLAY ST","m":"Sharpsburg","u":"L","o":"corp","sf":1076,"v":8200}},{"type":"Feature","geometry":{"type":"Point","coordinates":[-79.93616,40.49339]},"properties":{"p":"0167S00183000000","a":"SHORT CANAL ST","m":"Sharpsburg","u":"L","o":"corp","sf":1180,"v":14200}},{"type":"Feature","geometry":{"type":"Point","coordinates":[-79.93344,40.4964]},"properties":{"p":"0167M00007000000","a":"SPRING WAY","m":"Sharpsburg","u":"L","o":"individual","sf":1964,"v":16000}},{"type":"Feature","geometry":{"type":"Point","coordinates":[-79.92912,40.49456]},"properties":{"p":"0168J00358000000","a":"MAIN ST","m":"Sharpsburg","u":"L","o":"individual","sf":4298,"v":21400}},{"type":"Feature","geometry":{"type":"Point","coordinates":[-79.93758,40.49554]},"properties":{"p":"0167L00124000000","a":"N MAIN ST","m":"Sharpsburg","u":"L","o":"individual","sf":3052,"v":11600}},{"type":"Feature","geometry":{"type":"Point","coordinates":[-79.93659,40.49375]},"properties":{"p":"0167S00159000000","a":"14 4TH ST","m":"Sharpsburg","u":"L","o":"individual","sf":1520,"v":600}},{"type":"Feature","geometry":{"type":"Point","coordinates":[-79.93509,40.49503]},"properties":{"p":"0167M00301000A00","a":"CLAY ST","m":"Sharpsburg","u":"L","o":"corp","sf":1170,"v":14200}},{"type":"Feature","geometry":{"type":"Point","coordinates":[-79.92912,40.49669]},"properties":{"p":"0168E00016000000","a":"ROOSEVELT ST","m":"Sharpsburg","u":"L","o":"individual","sf":2983,"v":1700}},{"type":"Feature","geometry":{"type":"Point","coordinates":[-79.93473,40.49415]},"properties":{"p":"0167M00361000000","a":"ALI ST","m":"Sharpsburg","u":"L","o":"individual","sf":1020,"v":400}},{"type":"Feature","geometry":{"type":"Point","coordinates":[-79.93243,40.49675]},"properties":{"p":"0168E00087000000","a":"HIGH ST","m":"Sharpsburg","u":"L","o":"individual","sf":880,"v":400}},{"type":"Feature","geometry":{"type":"Point","coordinates":[-79.93833,40.49621]},"properties":{"p":"0167L00067000000","a":"109 POWERS ALY","m":"Sharpsburg","u":"L","o":"individual","sf":4239,"v":21300}},{"type":"Feature","geometry":{"type":"Point","coordinates":[-79.93715,40.49546]},"properties":{"p":"0167L00113000000","a":"CLAY ST","m":"Sharpsburg","u":"L","o":"individual","sf":1200,"v":14300}},{"type":"Feature","geometry":{"type":"Point","coordinates":[-79.93237,40.49696]},"properties":{"p":"0168E00100000000","a":"HIGH ST","m":"Sharpsburg","u":"L","o":"individual","sf":4600,"v":100}},{"type":"Feature","geometry":{"type":"Point","coordinates":[-79.93217,40.49697]},"properties":{"p":"0168E00120000000","a":"HIGH ST","m":"Sharpsburg","u":"L","o":"individual","sf":1200,"v":100}},{"type":"Feature","geometry":{"type":"Point","coordinates":[-79.93296,40.49527]},"properties":{"p":"0167M00207000000","a":"916 CLAY ST","m":"Sharpsburg","u":"L","o":"individual","sf":1710,"v":5000}},{"type":"Feature","geometry":{"type":"Point","coordinates":[-79.93596,40.49397]},"properties":{"p":"0167S00139000000","a":"22 -24 5TH ST","m":"Sharpsburg","u":"L","o":"individual","sf":1115,"v":500}},{"type":"Feature","geometry":{"type":"Point","coordinates":[-79.93625,40.49366]},"properties":{"p":"0167S00149000000","a":"5TH ST","m":"Sharpsburg","u":"L","o":"individual","sf":1600,"v":15200}},{"type":"Feature","geometry":{"type":"Point","coordinates":[-79.93248,40.49619]},"properties":{"p":"0168J00068000000","a":"302 10TH ST","m":"Sharpsburg","u":"L","o":"individual","sf":1800,"v":700}},{"type":"Feature","geometry":{"type":"Point","coordinates":[-79.93139,40.49681]},"properties":{"p":"0168E00070000000","a":"11TH ST","m":"Sharpsburg","u":"L","o":"individual","sf":1525,"v":600}},{"type":"Feature","geometry":{"type":"Point","coordinates":[-79.92653,40.4984]},"properties":{"p":"0168F00160000000","a":"KITTANNING PIKE","m":"Sharpsburg","u":"L","o":"individual","sf":219542,"v":2500}},{"type":"Feature","geometry":{"type":"Point","coordinates":[-79.92565,40.49776]},"properties":{"p":"0168F00192000000","a":"KITTANNING PIKE","m":"Sharpsburg","u":"L","o":"individual","sf":5301,"v":100}},{"type":"Feature","geometry":{"type":"Point","coordinates":[-79.9255,40.49842]},"properties":{"p":"0168F00194000000","a":"N CANAL ST","m":"Sharpsburg","u":"L","o":"corp","sf":83984,"v":1000}},{"type":"Feature","geometry":{"type":"Point","coordinates":[-79.93603,40.49424]},"properties":{"p":"0167M00388000000","a":"601 MAIN ST","m":"Sharpsburg","u":"L","o":"corp","sf":1866,"v":700}},{"type":"Feature","geometry":{"type":"Point","coordinates":[-79.93591,40.49423]},"properties":{"p":"0167M00389000000","a":"601 MAIN ST","m":"Sharpsburg","u":"L","o":"corp","sf":918,"v":400}},{"type":"Feature","geometry":{"type":"Point","coordinates":[-79.936,40.49409]},"properties":{"p":"0167M00390000000","a":"601 MAIN ST","m":"Sharpsburg","u":"L","o":"corp","sf":2725,"v":1000}},{"type":"Feature","geometry":{"type":"Point","coordinates":[-79.93639,40.49416]},"properties":{"p":"0167M00392000000","a":"413 S MAIN ST","m":"Sharpsburg","u":"L","o":"corp","sf":1088,"v":1000}},{"type":"Feature","geometry":{"type":"Point","coordinates":[-79.93208,40.49697]},"properties":{"p":"0168E00122000000","a":"HIGH ST","m":"Sharpsburg","u":"L","o":"individual","sf":1200,"v":100}},{"type":"Feature","geometry":{"type":"Point","coordinates":[-79.93767,40.49369]},"properties":{"p":"0167R00040000000","a":"17 3RD ST","m":"Sharpsburg","u":"L","o":"individual","sf":2588,"v":5700}},{"type":"Feature","geometry":{"type":"Point","coordinates":[-79.93775,40.49379]},"properties":{"p":"0167R00043000000","a":"3RD ST","m":"Sharpsburg","u":"L","o":"individual","sf":982,"v":400}},{"type":"Feature","geometry":{"type":"Point","coordinates":[-79.92345,40.49672]},"properties":{"p":"0168G00063000000","a":"NOBLE ST","m":"Sharpsburg","u":"L","o":"individual","sf":3100,"v":1100}},{"type":"Feature","geometry":{"type":"Point","coordinates":[-79.92727,40.49654]},"properties":{"p":"0168F00132000000","a":"1414 N CANAL ST","m":"Sharpsburg","u":"L","o":"corp","sf":1190,"v":500}},{"type":"Feature","geometry":{"type":"Point","coordinates":[-79.93457,40.49688]},"properties":{"p":"0167H00099000000","a":"HIGH ST","m":"Sharpsburg","u":"L","o":"individual","sf":1200,"v":100}},{"type":"Feature","geometry":{"type":"Point","coordinates":[-79.93443,40.49688]},"properties":{"p":"0167H00100000000","a":"HIGH ST","m":"Sharpsburg","u":"L","o":"individual","sf":2000,"v":200}},{"type":"Feature","geometry":{"type":"Point","coordinates":[-79.93425,40.49689]},"properties":{"p":"0167H00102000000","a":"HIGH ST","m":"Sharpsburg","u":"L","o":"individual","sf":2000,"v":200}},{"type":"Feature","geometry":{"type":"Point","coordinates":[-79.93412,40.49689]},"properties":{"p":"0167H00104000000","a":"HIGH ST","m":"Sharpsburg","u":"L","o":"individual","sf":1000,"v":100}},{"type":"Feature","geometry":{"type":"Point","coordinates":[-79.93403,40.49689]},"properties":{"p":"0167H00105000000","a":"HIGH ST","m":"Sharpsburg","u":"L","o":"individual","sf":1025,"v":100}},{"type":"Feature","geometry":{"type":"Point","coordinates":[-79.93389,40.4969]},"properties":{"p":"0167H00106000000","a":"HIGH ST","m":"Sharpsburg","u":"L","o":"individual","sf":2200,"v":200}},{"type":"Feature","geometry":{"type":"Point","coordinates":[-79.9337,40.4969]},"properties":{"p":"0167H00108000000","a":"HIGH ST","m":"Sharpsburg","u":"L","o":"individual","sf":2200,"v":200}},{"type":"Feature","geometry":{"type":"Point","coordinates":[-79.93352,40.49691]},"properties":{"p":"0167H00110000000","a":"HIGH ST","m":"Sharpsburg","u":"L","o":"individual","sf":2200,"v":200}},{"type":"Feature","geometry":{"type":"Point","coordinates":[-79.93339,40.49692]},"properties":{"p":"0167H00112000000","a":"HIGH ST","m":"Sharpsburg","u":"L","o":"individual","sf":1125,"v":100}},{"type":"Feature","geometry":{"type":"Point","coordinates":[-79.9333,40.49692]},"properties":{"p":"0167H00113000000","a":"HIGH ST","m":"Sharpsburg","u":"L","o":"individual","sf":1100,"v":100}},{"type":"Feature","geometry":{"type":"Point","coordinates":[-79.93317,40.49692]},"properties":{"p":"0167H00114000000","a":"HIGH ST","m":"Sharpsburg","u":"L","o":"individual","sf":2250,"v":200}},{"type":"Feature","geometry":{"type":"Point","coordinates":[-79.93301,40.49693]},"properties":{"p":"0167H00116000000","a":"HIGH ST","m":"Sharpsburg","u":"L","o":"individual","sf":1880,"v":200}},{"type":"Feature","geometry":{"type":"Point","coordinates":[-79.93735,40.49655]},"properties":{"p":"0167G00010000000","a":"PENN ST","m":"Sharpsburg","u":"L","o":"individual","sf":4531,"v":1600}},{"type":"Feature","geometry":{"type":"Point","coordinates":[-79.93753,40.49657]},"properties":{"p":"0167G00013000000","a":"PENN ST","m":"Sharpsburg","u":"L","o":"individual","sf":1174,"v":500}},{"type":"Feature","geometry":{"type":"Point","coordinates":[-79.93764,40.49657]},"properties":{"p":"0167G00015000000","a":"PENN ST","m":"Sharpsburg","u":"L","o":"individual","sf":1020,"v":0}},{"type":"Feature","geometry":{"type":"Point","coordinates":[-79.93537,40.49569]},"properties":{"p":"0167M00112000000","a":"612 ALTMEYER ST","m":"Sharpsburg","u":"L","o":"individual","sf":3024,"v":18500}},{"type":"Feature","geometry":{"type":"Point","coordinates":[-79.93731,40.49368]},"properties":{"p":"0167R00021000000","a":"3RD ST","m":"Sharpsburg","u":"L","o":"individual","sf":1600,"v":600}},{"type":"Feature","geometry":{"type":"Point","coordinates":[-79.93583,40.49687]},"properties":{"p":"0167H00070000000","a":"HIGH ST","m":"Sharpsburg","u":"L","o":"individual","sf":4643,"v":1600}},{"type":"Feature","geometry":{"type":"Point","coordinates":[-79.93543,40.49687]},"properties":{"p":"0167H00088000000","a":"HIGH ST","m":"Sharpsburg","u":"L","o":"individual","sf":2181,"v":800}},{"type":"Feature","geometry":{"type":"Point","coordinates":[-79.93529,40.49687]},"properties":{"p":"0167H00090000000","a":"HIGH ST","m":"Sharpsburg","u":"L","o":"individual","sf":2280,"v":200}},{"type":"Feature","geometry":{"type":"Point","coordinates":[-79.93501,40.49687]},"properties":{"p":"0167H00093000000","a":"HIGH ST","m":"Sharpsburg","u":"L","o":"individual","sf":3264,"v":200}},{"type":"Feature","geometry":{"type":"Point","coordinates":[-79.93475,40.49688]},"properties":{"p":"0167H00096000000","a":"HIGH ST","m":"Sharpsburg","u":"L","o":"individual","sf":3600,"v":100}},{"type":"Feature","geometry":{"type":"Point","coordinates":[-79.92932,40.49583]},"properties":{"p":"0168J00193000000","a":"205 SCHOOL ST","m":"Sharpsburg","u":"L","o":"individual","sf":1007,"v":400}},{"type":"Feature","geometry":{"type":"Point","coordinates":[-79.92531,40.49714]},"properties":{"p":"0168F00054000000","a":"NOBLE ST","m":"Sharpsburg","u":"L","o":"corp","sf":4900,"v":22800}},{"type":"Feature","geometry":{"type":"Point","coordinates":[-79.92567,40.49683]},"properties":{"p":"0168F00058000000","a":"N CANAL ST","m":"Sharpsburg","u":"L","o":"individual","sf":5897,"v":23100}},{"type":"Feature","geometry":{"type":"Point","coordinates":[-79.93435,40.4965]},"properties":{"p":"0167H00033000200","a":"8TH ST","m":"Sharpsburg","u":"L","o":"individual","sf":400,"v":200}},{"type":"Feature","geometry":{"type":"Point","coordinates":[-79.93794,40.49374]},"properties":{"p":"0167R00052000000","a":"2ND ST","m":"Sharpsburg","u":"L","o":"individual","sf":1200,"v":500}},{"type":"Feature","geometry":{"type":"Point","coordinates":[-79.93221,40.50129]},"properties":{"p":"0168A00092000000","a":"EDGEWOOD AVE","m":"O''Hara","u":"L","o":"individual","sf":3600,"v":1300}},{"type":"Feature","geometry":{"type":"Point","coordinates":[-79.92052,40.50307]},"properties":{"p":"0223R00360000000","a":"KITTANNING PIKE","m":"O''Hara","u":"L","o":"individual","sf":13317,"v":4400}},{"type":"Feature","geometry":{"type":"Point","coordinates":[-79.92872,40.50894]},"properties":{"p":"0223B00035000000","a":"6 GEORGIAN PL","m":"O''Hara","u":"L","o":"individual","sf":42678,"v":30600}},{"type":"Feature","geometry":{"type":"Point","coordinates":[-79.93597,40.49801]},"properties":{"p":"0167H00271000000","a":"RAVINE ST","m":"O''Hara","u":"L","o":"individual","sf":2706,"v":1000}},{"type":"Feature","geometry":{"type":"Point","coordinates":[-79.93605,40.4981]},"properties":{"p":"0167H00272000000","a":"RAVINE ST","m":"O''Hara","u":"L","o":"individual","sf":6720,"v":2300}},{"type":"Feature","geometry":{"type":"Point","coordinates":[-79.93611,40.49822]},"properties":{"p":"0167H00274000000","a":"RAVINE ST","m":"O''Hara","u":"L","o":"corp","sf":869,"v":400}},{"type":"Feature","geometry":{"type":"Point","coordinates":[-79.93605,40.49829]},"properties":{"p":"0167H00275000000","a":"RAVINE ST","m":"O''Hara","u":"L","o":"individual","sf":4125,"v":1400}},{"type":"Feature","geometry":{"type":"Point","coordinates":[-79.93597,40.49834]},"properties":{"p":"0167H00276000000","a":"RAVINE ST","m":"O''Hara","u":"L","o":"corp","sf":4125,"v":1400}},{"type":"Feature","geometry":{"type":"Point","coordinates":[-79.93589,40.49839]},"properties":{"p":"0167H00277000000","a":"RAVINE ST","m":"O''Hara","u":"L","o":"individual","sf":4125,"v":1400}},{"type":"Feature","geometry":{"type":"Point","coordinates":[-79.93588,40.49846]},"properties":{"p":"0167H00278000000","a":"RAVINE ST","m":"O''Hara","u":"L","o":"corp","sf":4125,"v":1400}},{"type":"Feature","geometry":{"type":"Point","coordinates":[-79.92411,40.50146]},"properties":{"p":"0223R00016000000","a":"WINCHELL ST","m":"O''Hara","u":"L","o":"corp","sf":4000,"v":1400}},{"type":"Feature","geometry":{"type":"Point","coordinates":[-79.92522,40.49861]},"properties":{"p":"0168F00215000000","a":"KITTANNING PIKE","m":"O''Hara","u":"L","o":"individual","sf":5337,"v":1800}},{"type":"Feature","geometry":{"type":"Point","coordinates":[-79.9296,40.49927]},"properties":{"p":"0168A00052000000","a":"817 PARKVIEW BLVD","m":"O''Hara","u":"L","o":"corp","sf":15395,"v":26900}},{"type":"Feature","geometry":{"type":"Point","coordinates":[-79.92222,40.50163]},"properties":{"p":"0223R00278000000","a":"KITTANNING PIKE","m":"O''Hara","u":"L","o":"individual","sf":778,"v":400}},{"type":"Feature","geometry":{"type":"Point","coordinates":[-79.92235,40.5013]},"properties":{"p":"0223R00315000000","a":"MARY ST","m":"O''Hara","u":"L","o":"individual","sf":1985,"v":700}},{"type":"Feature","geometry":{"type":"Point","coordinates":[-79.93584,40.50126]},"properties":{"p":"0167D00282000000","a":"RAVINE ST","m":"O''Hara","u":"L","o":"corp","sf":9870,"v":3300}},{"type":"Feature","geometry":{"type":"Point","coordinates":[-79.93617,40.50135]},"properties":{"p":"0167D00292000002","a":"KEYSTONE ST","m":"O''Hara","u":"L","o":"individual","sf":3625,"v":1300}},{"type":"Feature","geometry":{"type":"Point","coordinates":[-79.93504,40.49762]},"properties":{"p":"0167H00200000000","a":"SHARPSHILL RD","m":"O''Hara","u":"L","o":"individual","sf":49223,"v":10000}},{"type":"Feature","geometry":{"type":"Point","coordinates":[-79.93511,40.49847]},"properties":{"p":"0167H00220000000","a":"SHARPSHILL RD","m":"O''Hara","u":"L","o":"individual","sf":64469,"v":31500}},{"type":"Feature","geometry":{"type":"Point","coordinates":[-79.92017,40.50457]},"properties":{"p":"0223M00078000000","a":"COLLINWOOD DR","m":"O''Hara","u":"L","o":"corp","sf":39654,"v":26700}},{"type":"Feature","geometry":{"type":"Point","coordinates":[-79.92775,40.50071]},"properties":{"p":"0168B00150000000","a":"PARKVIEW BLVD","m":"O''Hara","u":"L","o":"individual","sf":264279,"v":48700}},{"type":"Feature","geometry":{"type":"Point","coordinates":[-79.92537,40.50223]},"properties":{"p":"0223P00132000000","a":"51 LOWER RD","m":"O''Hara","u":"L","o":"individual","sf":3879,"v":1300}},{"type":"Feature","geometry":{"type":"Point","coordinates":[-79.92689,40.50199]},"properties":{"p":"0223P00190000000","a":"PARKVIEW BLVD","m":"O''Hara","u":"L","o":"corp","sf":162914,"v":40500}},{"type":"Feature","geometry":{"type":"Point","coordinates":[-79.92759,40.50288]},"properties":{"p":"0223P00230000000","a":"GROVE ST","m":"O''Hara","u":"L","o":"individual","sf":5791,"v":2000}},{"type":"Feature","geometry":{"type":"Point","coordinates":[-79.93001,40.50107]},"properties":{"p":"0168A00127000000","a":"738 EDGEWOOD AVE","m":"O''Hara","u":"L","o":"individual","sf":771,"v":300}},{"type":"Feature","geometry":{"type":"Point","coordinates":[-79.93094,40.50051]},"properties":{"p":"0168A00138000000","a":"EDGEWOOD AVE","m":"O''Hara","u":"L","o":"individual","sf":16948,"v":27100}},{"type":"Feature","geometry":{"type":"Point","coordinates":[-79.93478,40.50305]},"properties":{"p":"0222S00217000000","a":"615 SEIFRIED LN","m":"O''Hara","u":"L","o":"individual","sf":650,"v":0}},{"type":"Feature","geometry":{"type":"Point","coordinates":[-79.93565,40.50151]},"properties":{"p":"0222S00268000000","a":"SHARPSHILL RD","m":"O''Hara","u":"L","o":"individual","sf":6979,"v":2300}},{"type":"Feature","geometry":{"type":"Point","coordinates":[-79.92537,40.49772]},"properties":{"p":"0168F00200000000","a":"KITTANNING PIKE","m":"O''Hara","u":"L","o":"corp","sf":2784,"v":1000}},{"type":"Feature","geometry":{"type":"Point","coordinates":[-79.93578,40.49954]},"properties":{"p":"0167D00218000000","a":"RAVINE ST","m":"O''Hara","u":"L","o":"corp","sf":57238,"v":30800}},{"type":"Feature","geometry":{"type":"Point","coordinates":[-79.93549,40.49952]},"properties":{"p":"0167D00234000000","a":"RAVINE ST","m":"O''Hara","u":"L","o":"individual","sf":2574,"v":900}},{"type":"Feature","geometry":{"type":"Point","coordinates":[-79.93555,40.49942]},"properties":{"p":"0167D00235000000","a":"RAVINE ST","m":"O''Hara","u":"L","o":"individual","sf":31,"v":100}},{"type":"Feature","geometry":{"type":"Point","coordinates":[-79.93563,40.49929]},"properties":{"p":"0167D00236000000","a":"RAVINE ST","m":"O''Hara","u":"L","o":"individual","sf":9264,"v":3100}},{"type":"Feature","geometry":{"type":"Point","coordinates":[-79.93536,40.5028]},"properties":{"p":"0222S00095000000","a":"SEIFRIED LN","m":"O''Hara","u":"L","o":"individual","sf":1989,"v":0}},{"type":"Feature","geometry":{"type":"Point","coordinates":[-79.93464,40.50332]},"properties":{"p":"0222S00120000000","a":"615 SEIFRIED LN","m":"O''Hara","u":"L","o":"corp","sf":8590,"v":2900}},{"type":"Feature","geometry":{"type":"Point","coordinates":[-79.92512,40.49922]},"properties":{"p":"0168B00066000000","a":"65 KITTANNING PIKE","m":"O''Hara","u":"L","o":"individual","sf":5000,"v":1700}},{"type":"Feature","geometry":{"type":"Point","coordinates":[-79.92513,40.49916]},"properties":{"p":"0168B00068000000","a":"KITTANNING PIKE","m":"O''Hara","u":"L","o":"individual","sf":4750,"v":1600}},{"type":"Feature","geometry":{"type":"Point","coordinates":[-79.92654,40.4997]},"properties":{"p":"0168B00105000000","a":"PARKVIEW BLVD","m":"O''Hara","u":"L","o":"individual","sf":243065,"v":46100}},{"type":"Feature","geometry":{"type":"Point","coordinates":[-79.93606,40.4994]},"properties":{"p":"0167D00258000000","a":"KEYSTONE ST","m":"O''Hara","u":"L","o":"corp","sf":2496,"v":900}},{"type":"Feature","geometry":{"type":"Point","coordinates":[-79.9359,40.5001]},"properties":{"p":"0167D00268000000","a":"KEYSTONE ST","m":"O''Hara","u":"L","o":"individual","sf":5000,"v":870}},{"type":"Feature","geometry":{"type":"Point","coordinates":[-79.9358,40.50036]},"properties":{"p":"0167D00270000000","a":"KEYSTONE ST","m":"O''Hara","u":"L","o":"corp","sf":14580,"v":4800}},{"type":"Feature","geometry":{"type":"Point","coordinates":[-79.92307,40.50065]},"properties":{"p":"0168C00116000000","a":"JORDAN AVE","m":"O''Hara","u":"L","o":"individual","sf":7263,"v":2400}},{"type":"Feature","geometry":{"type":"Point","coordinates":[-79.92571,40.50309]},"properties":{"p":"0223P00094000000","a":"LOWER RD","m":"O''Hara","u":"L","o":"individual","sf":2811,"v":1000}},{"type":"Feature","geometry":{"type":"Point","coordinates":[-79.92633,40.50322]},"properties":{"p":"0223P00108000000","a":"ALSOP RD","m":"O''Hara","u":"L","o":"individual","sf":17607,"v":5700}},{"type":"Feature","geometry":{"type":"Point","coordinates":[-79.92621,40.5028]},"properties":{"p":"0223P00114000000","a":"LOWER RD","m":"O''Hara","u":"L","o":"corp","sf":95788,"v":34300}},{"type":"Feature","geometry":{"type":"Point","coordinates":[-79.92549,40.50273]},"properties":{"p":"0223P00120000000","a":"LOWER RD","m":"O''Hara","u":"L","o":"individual","sf":4500,"v":1500}},{"type":"Feature","geometry":{"type":"Point","coordinates":[-79.92552,40.50259]},"properties":{"p":"0223P00122000000","a":"LOWER RD","m":"O''Hara","u":"L","o":"individual","sf":2338,"v":800}},{"type":"Feature","geometry":{"type":"Point","coordinates":[-79.92085,40.50074]},"properties":{"p":"0168C00220000000","a":"GROVE ST","m":"O''Hara","u":"L","o":"individual","sf":43200,"v":29400}},{"type":"Feature","geometry":{"type":"Point","coordinates":[-79.92031,40.501]},"properties":{"p":"0168C00240000000","a":"HARDING RD","m":"O''Hara","u":"L","o":"corp","sf":1750,"v":700}},{"type":"Feature","geometry":{"type":"Point","coordinates":[-79.92546,40.50254]},"properties":{"p":"0223P00124000000","a":"LOWER RD","m":"O''Hara","u":"L","o":"corp","sf":2685,"v":1000}},{"type":"Feature","geometry":{"type":"Point","coordinates":[-79.92541,40.50236]},"properties":{"p":"0223P00128000000","a":"LOWER RD","m":"O''Hara","u":"L","o":"corp","sf":3488,"v":1200}},{"type":"Feature","geometry":{"type":"Point","coordinates":[-79.92048,40.50208]},"properties":{"p":"0223R00372000000","a":"DIVISION ST","m":"O''Hara","u":"L","o":"individual","sf":11516,"v":3800}},{"type":"Feature","geometry":{"type":"Point","coordinates":[-79.92034,40.50145]},"properties":{"p":"0223R00376000000","a":"HARDING RD","m":"O''Hara","u":"L","o":"individual","sf":4632,"v":1600}},{"type":"Feature","geometry":{"type":"Point","coordinates":[-79.92034,40.50121]},"properties":{"p":"0223R00378000000","a":"HARDING RD","m":"O''Hara","u":"L","o":"individual","sf":9750,"v":3200}},{"type":"Feature","geometry":{"type":"Point","coordinates":[-79.93245,40.50049]},"properties":{"p":"0168A00099000000","a":"710 EDGEWOOD AVE","m":"O''Hara","u":"L","o":"individual","sf":9978,"v":3300}},{"type":"Feature","geometry":{"type":"Point","coordinates":[-79.93347,40.50804]},"properties":{"p":"0222H00110000000","a":"SHARPSHILL RD","m":"O''Hara","u":"L","o":"corp","sf":117002,"v":39800}},{"type":"Feature","geometry":{"type":"Point","coordinates":[-79.9209,40.50761]},"properties":{"p":"0223G00100000000","a":"COLLINWOOD DR","m":"O''Hara","u":"L","o":"individual","sf":29218,"v":3800}},{"type":"Feature","geometry":{"type":"Point","coordinates":[-79.93529,40.50185]},"properties":{"p":"0222S00209000000","a":"800 SHARPSHILL RD","m":"O''Hara","u":"L","o":"individual","sf":7832,"v":2600}},{"type":"Feature","geometry":{"type":"Point","coordinates":[-79.9303,40.49771]},"properties":{"p":"0168E00240000000","a":"PARKVIEW BLVD","m":"O''Hara","u":"L","o":"individual","sf":46696,"v":29800}},{"type":"Feature","geometry":{"type":"Point","coordinates":[-79.93236,40.49817]},"properties":{"p":"0168E00280000000","a":"752 PARKVIEW BLVD","m":"O''Hara","u":"L","o":"individual","sf":19125,"v":6200}},{"type":"Feature","geometry":{"type":"Point","coordinates":[-79.93174,40.50196]},"properties":{"p":"0223N00052000000","a":"MIDWAY DR","m":"O''Hara","u":"L","o":"individual","sf":4930,"v":1700}},{"type":"Feature","geometry":{"type":"Point","coordinates":[-79.9246,40.50275]},"properties":{"p":"0223P00011000000","a":"MURRAY ST","m":"O''Hara","u":"L","o":"individual","sf":2000,"v":700}},{"type":"Feature","geometry":{"type":"Point","coordinates":[-79.92463,40.50283]},"properties":{"p":"0223P00013000000","a":"MURRAY ST","m":"O''Hara","u":"L","o":"corp","sf":4000,"v":1400}},{"type":"Feature","geometry":{"type":"Point","coordinates":[-79.92516,40.5026]},"properties":{"p":"0223P00028000000","a":"ALSOP RD","m":"O''Hara","u":"L","o":"individual","sf":946,"v":400}},{"type":"Feature","geometry":{"type":"Point","coordinates":[-79.92509,40.50249]},"properties":{"p":"0223P00030000000","a":"ALSOP RD","m":"O''Hara","u":"L","o":"individual","sf":960,"v":400}},{"type":"Feature","geometry":{"type":"Point","coordinates":[-79.92504,40.5024]},"properties":{"p":"0223P00032000000","a":"WINCHELL ST","m":"O''Hara","u":"L","o":"individual","sf":1000,"v":400}},{"type":"Feature","geometry":{"type":"Point","coordinates":[-79.92498,40.50228]},"properties":{"p":"0223P00034000000","a":"WINCHELL ST","m":"O''Hara","u":"L","o":"individual","sf":1000,"v":400}},{"type":"Feature","geometry":{"type":"Point","coordinates":[-79.92493,40.50212]},"properties":{"p":"0223P00036000000","a":"WINCHELL ST","m":"O''Hara","u":"L","o":"individual","sf":2160,"v":800}},{"type":"Feature","geometry":{"type":"Point","coordinates":[-79.92483,40.50182]},"properties":{"p":"0223P00042000000","a":"WINCHELL ST","m":"O''Hara","u":"L","o":"individual","sf":1800,"v":700}},{"type":"Feature","geometry":{"type":"Point","coordinates":[-79.93587,40.49853]},"properties":{"p":"0167H00279000000","a":"RAVINE ST","m":"O''Hara","u":"L","o":"individual","sf":4125,"v":1400}},{"type":"Feature","geometry":{"type":"Point","coordinates":[-79.92872,40.50071]},"properties":{"p":"0168A00014000000","a":"PARKVIEW BLVD","m":"O''Hara","u":"L","o":"individual","sf":9375,"v":3100}},{"type":"Feature","geometry":{"type":"Point","coordinates":[-79.92886,40.50117]},"properties":{"p":"0168A00020000000","a":"PARKVIEW BLVD","m":"O''Hara","u":"L","o":"corp","sf":10022,"v":26500}},{"type":"Feature","geometry":{"type":"Point","coordinates":[-79.92407,40.50135]},"properties":{"p":"0223R00018000000","a":"WINCHELL ST","m":"O''Hara","u":"L","o":"corp","sf":4000,"v":1400}},{"type":"Feature","geometry":{"type":"Point","coordinates":[-79.92425,40.50292]},"properties":{"p":"0223R00042000000","a":"MURRAY ST","m":"O''Hara","u":"L","o":"individual","sf":3600,"v":1300}},{"type":"Feature","geometry":{"type":"Point","coordinates":[-79.92468,40.49989]},"properties":{"p":"0168B00054000000","a":"77 KITTANNING PIKE","m":"O''Hara","u":"L","o":"individual","sf":1521,"v":600}},{"type":"Feature","geometry":{"type":"Point","coordinates":[-79.9251,40.4993]},"properties":{"p":"0168B00064000000","a":"65 KITTANNING PIKE","m":"O''Hara","u":"L","o":"individual","sf":7000,"v":2300}},{"type":"Feature","geometry":{"type":"Point","coordinates":[-79.92368,40.50197]},"properties":{"p":"0223R00052000000","a":"MURRAY ST","m":"O''Hara","u":"L","o":"individual","sf":30250,"v":28300}},{"type":"Feature","geometry":{"type":"Point","coordinates":[-79.92379,40.50162]},"properties":{"p":"0223R00063000000","a":"SHORT ST","m":"O''Hara","u":"L","o":"individual","sf":100,"v":100}},{"type":"Feature","geometry":{"type":"Point","coordinates":[-79.92496,40.49761]},"properties":{"p":"0168F00246000000","a":"KITTANNING PIKE","m":"O''Hara","u":"L","o":"individual","sf":1488,"v":600}},{"type":"Feature","geometry":{"type":"Point","coordinates":[-79.92441,40.49873]},"properties":{"p":"0168F00274000000","a":"KITTANNING PIKE","m":"O''Hara","u":"L","o":"individual","sf":9509,"v":3100}},{"type":"Feature","geometry":{"type":"Point","coordinates":[-79.93286,40.50275]},"properties":{"p":"0222S00166000000","a":"LINWOOD DR","m":"O''Hara","u":"L","o":"individual","sf":6229,"v":2100}},{"type":"Feature","geometry":{"type":"Point","coordinates":[-79.92389,40.50452]},"properties":{"p":"0223L00095000100","a":"MARBERRY DR","m":"O''Hara","u":"L","o":"individual","sf":9252,"v":1200}},{"type":"Feature","geometry":{"type":"Point","coordinates":[-79.92139,40.50156]},"properties":{"p":"0223R00326000000","a":"20 MARY ST","m":"O''Hara","u":"L","o":"individual","sf":2500,"v":900}},{"type":"Feature","geometry":{"type":"Point","coordinates":[-79.92558,40.50759]},"properties":{"p":"0223F00050000000","a":"LOWER RD","m":"O''Hara","u":"L","o":"individual","sf":114563,"v":10000}},{"type":"Feature","geometry":{"type":"Point","coordinates":[-79.92684,40.50767]},"properties":{"p":"0223F00054000000","a":"CASCADE WAY","m":"O''Hara","u":"L","o":"individual","sf":159787,"v":72700}},{"type":"Feature","geometry":{"type":"Point","coordinates":[-79.92657,40.50896]},"properties":{"p":"0223F00056000000","a":"CASCADE WAY","m":"O''Hara","u":"L","o":"individual","sf":65179,"v":60700}},{"type":"Feature","geometry":{"type":"Point","coordinates":[-79.9348,40.50091]},"properties":{"p":"0167D00120000000","a":"MIDWAY DR","m":"O''Hara","u":"L","o":"individual","sf":10165,"v":3400}},{"type":"Feature","geometry":{"type":"Point","coordinates":[-79.93514,40.50058]},"properties":{"p":"0167D00126000000","a":"SHARPSHILL RD","m":"O''Hara","u":"L","o":"individual","sf":57900,"v":30900}},{"type":"Feature","geometry":{"type":"Point","coordinates":[-79.935,40.4997]},"properties":{"p":"0167D00150000000","a":"SHARPSHILL RD","m":"O''Hara","u":"L","o":"individual","sf":52708,"v":30400}},{"type":"Feature","geometry":{"type":"Point","coordinates":[-79.93505,40.49895]},"properties":{"p":"0167D00170000000","a":"SHARPSHILL RD","m":"O''Hara","u":"L","o":"corp","sf":30079,"v":28300}},{"type":"Feature","geometry":{"type":"Point","coordinates":[-79.93551,40.50046]},"properties":{"p":"0167D00212000000","a":"21 RAVINE ST","m":"O''Hara","u":"L","o":"individual","sf":875,"v":400}},{"type":"Feature","geometry":{"type":"Point","coordinates":[-79.93554,40.50025]},"properties":{"p":"0167D00216000000","a":"RAVINE ST","m":"O''Hara","u":"L","o":"individual","sf":4253,"v":1500}},{"type":"Feature","geometry":{"type":"Point","coordinates":[-79.92377,40.49973]},"properties":{"p":"0168C00100000000","a":"JORDAN AVE","m":"O''Hara","u":"L","o":"individual","sf":2574,"v":900}},{"type":"Feature","geometry":{"type":"Point","coordinates":[-79.92356,40.49996]},"properties":{"p":"0168C00104000000","a":"JORDAN AVE","m":"O''Hara","u":"L","o":"individual","sf":2925,"v":1000}},{"type":"Feature","geometry":{"type":"Point","coordinates":[-79.9235,40.50009]},"properties":{"p":"0168C00106000000","a":"JORDAN AVE","m":"O''Hara","u":"L","o":"individual","sf":2925,"v":1000}},{"type":"Feature","geometry":{"type":"Point","coordinates":[-79.92337,40.50039]},"properties":{"p":"0168C00111000000","a":"JORDAN AVE","m":"O''Hara","u":"L","o":"individual","sf":2516,"v":900}},{"type":"Feature","geometry":{"type":"Point","coordinates":[-79.92938,40.50215]},"properties":{"p":"0223N00084000000","a":"LINWOOD DR","m":"O''Hara","u":"L","o":"corp","sf":9440,"v":3100}},{"type":"Feature","geometry":{"type":"Point","coordinates":[-79.92045,40.50599]},"properties":{"p":"0223G00008000000","a":"CAMDEN DR","m":"O''Hara","u":"L","o":"individual","sf":41103,"v":5300}},{"type":"Feature","geometry":{"type":"Point","coordinates":[-79.92458,40.5011]},"properties":{"p":"0168C00014000000","a":"WINCHELL ST","m":"O''Hara","u":"L","o":"individual","sf":330,"v":200}},{"type":"Feature","geometry":{"type":"Point","coordinates":[-79.92865,40.50299]},"properties":{"p":"0223N00148000000","a":"SPRING GROVE RD","m":"O''Hara","u":"L","o":"individual","sf":51148,"v":30200}},{"type":"Feature","geometry":{"type":"Point","coordinates":[-79.93068,40.50315]},"properties":{"p":"0223N00161000000","a":"LINWOOD DR","m":"O''Hara","u":"L","o":"individual","sf":14320,"v":4700}},{"type":"Feature","geometry":{"type":"Point","coordinates":[-79.93847,40.49969]},"properties":{"p":"0167C00150000000","a":"HIGHLAND AVE","m":"Shaler","u":"L","o":"individual","sf":2500,"v":1000}},{"type":"Feature","geometry":{"type":"Point","coordinates":[-79.93893,40.49911]},"properties":{"p":"0167C00156000000","a":"HIGHLAND AVE","m":"Shaler","u":"L","o":"individual","sf":3000,"v":1200}},{"type":"Feature","geometry":{"type":"Point","coordinates":[-79.93897,40.49993]},"properties":{"p":"0167C00166000000","a":"HIGHLAND AVE","m":"Shaler","u":"L","o":"individual","sf":5000,"v":26300}},{"type":"Feature","geometry":{"type":"Point","coordinates":[-79.93695,40.50443]},"properties":{"p":"0222L00299000000","a":"SADOWSKI AVE","m":"Shaler","u":"L","o":"individual","sf":7798,"v":35300}},{"type":"Feature","geometry":{"type":"Point","coordinates":[-79.93975,40.50522]},"properties":{"p":"0222L00400000000","a":"BETHANY DR","m":"Shaler","u":"L","o":"individual","sf":29045,"v":10300}},{"type":"Feature","geometry":{"type":"Point","coordinates":[-79.93675,40.49914]},"properties":{"p":"0167D00350000000","a":"COMMERCE ST","m":"Shaler","u":"L","o":"individual","sf":4450,"v":1700}},{"type":"Feature","geometry":{"type":"Point","coordinates":[-79.93667,40.49943]},"properties":{"p":"0167D00360000000","a":"LINCOLN AVE","m":"Shaler","u":"L","o":"individual","sf":14457,"v":35900}},{"type":"Feature","geometry":{"type":"Point","coordinates":[-79.93648,40.49982]},"properties":{"p":"0167D00362000000","a":"KEYSTONE ST","m":"Shaler","u":"L","o":"individual","sf":7130,"v":2600}},{"type":"Feature","geometry":{"type":"Point","coordinates":[-79.93668,40.50029]},"properties":{"p":"0167D00372000000","a":"LINCOLN AVE","m":"Shaler","u":"L","o":"individual","sf":5000,"v":35000}},{"type":"Feature","geometry":{"type":"Point","coordinates":[-79.93712,40.49822]},"properties":{"p":"0167G00126000000","a":"WILLOW ST","m":"Shaler","u":"L","o":"individual","sf":3750,"v":1400}},{"type":"Feature","geometry":{"type":"Point","coordinates":[-79.93708,40.4978]},"properties":{"p":"0167G00134000000","a":"WILLOW ST","m":"Shaler","u":"L","o":"individual","sf":22284,"v":36600}},{"type":"Feature","geometry":{"type":"Point","coordinates":[-79.9375,40.49872]},"properties":{"p":"0167G00166000000","a":"CENTRE AVE","m":"Shaler","u":"L","o":"individual","sf":12500,"v":750}},{"type":"Feature","geometry":{"type":"Point","coordinates":[-79.9395,40.49974]},"properties":{"p":"0167C00284000000","a":"ALLEGHENY AVE","m":"Shaler","u":"L","o":"individual","sf":3032,"v":1200}},{"type":"Feature","geometry":{"type":"Point","coordinates":[-79.93948,40.49939]},"properties":{"p":"0167C00291000000","a":"ALLEGHENY AVE","m":"Shaler","u":"L","o":"individual","sf":9000,"v":35400}},{"type":"Feature","geometry":{"type":"Point","coordinates":[-79.93748,40.49807]},"properties":{"p":"0167G00100000000","a":"CENTRE AVE","m":"Shaler","u":"L","o":"individual","sf":24373,"v":19200}},{"type":"Feature","geometry":{"type":"Point","coordinates":[-79.93713,40.4986]},"properties":{"p":"0167G00116000000","a":"WILLOW ST","m":"Shaler","u":"L","o":"individual","sf":1875,"v":800}},{"type":"Feature","geometry":{"type":"Point","coordinates":[-79.93713,40.4985]},"properties":{"p":"0167G00118000000","a":"KEYSTONE ST","m":"Shaler","u":"L","o":"individual","sf":3750,"v":1400}},{"type":"Feature","geometry":{"type":"Point","coordinates":[-79.93983,40.50466]},"properties":{"p":"0222L00128000000","a":"PULASKI AVE","m":"Shaler","u":"L","o":"individual","sf":7996,"v":2900}},{"type":"Feature","geometry":{"type":"Point","coordinates":[-79.93636,40.50135]},"properties":{"p":"0167D00292000001","a":"KEYSTONE ST","m":"Shaler","u":"L","o":"individual","sf":7500,"v":35200}},{"type":"Feature","geometry":{"type":"Point","coordinates":[-79.93627,40.50111]},"properties":{"p":"0167D00296000000","a":"KEYSTONE ST","m":"Shaler","u":"L","o":"individual","sf":5000,"v":35000}},{"type":"Feature","geometry":{"type":"Point","coordinates":[-79.93876,40.5096]},"properties":{"p":"0222C00260000000","a":"ROBIN DEL DR","m":"Shaler","u":"L","o":"individual","sf":52272,"v":39400}},{"type":"Feature","geometry":{"type":"Point","coordinates":[-79.93781,40.50387]},"properties":{"p":"0222L00024000000","a":"BROSKY AVE","m":"Shaler","u":"L","o":"individual","sf":4100,"v":1500}},{"type":"Feature","geometry":{"type":"Point","coordinates":[-79.939,40.50067]},"properties":{"p":"0167C00176000000","a":"HIGHLAND AVE","m":"Shaler","u":"L","o":"individual","sf":2500,"v":1000}},{"type":"Feature","geometry":{"type":"Point","coordinates":[-79.93926,40.50401]},"properties":{"p":"0222L00045000000","a":"1550 ETNA AVE","m":"Shaler","u":"L","o":"individual","sf":7566,"v":2700}},{"type":"Feature","geometry":{"type":"Point","coordinates":[-79.9395,40.50399]},"properties":{"p":"0222L00047000000","a":"1550 ETNA AVE","m":"Shaler","u":"L","o":"individual","sf":1999,"v":800}},{"type":"Feature","geometry":{"type":"Point","coordinates":[-79.93939,40.50467]},"properties":{"p":"0222L00121000000","a":"1550 ETNA AVE","m":"Shaler","u":"L","o":"corp","sf":1999,"v":800}},{"type":"Feature","geometry":{"type":"Point","coordinates":[-79.93949,40.50035]},"properties":{"p":"0167C00243000000","a":"PROSPECT ST","m":"Shaler","u":"L","o":"individual","sf":8129,"v":35300}},{"type":"Feature","geometry":{"type":"Point","coordinates":[-79.93954,40.49983]},"properties":{"p":"0167C00282000000","a":"ALLEGHENY AVE","m":"Shaler","u":"L","o":"individual","sf":4895,"v":1800}},{"type":"Feature","geometry":{"type":"Point","coordinates":[-79.9367,40.50127]},"properties":{"p":"0167D00388000000","a":"LINCOLN AVE","m":"Shaler","u":"L","o":"corp","sf":5000,"v":35000}},{"type":"Feature","geometry":{"type":"Point","coordinates":[-79.9378,40.50441]},"properties":{"p":"0222L00288000000","a":"ETNA AVE","m":"Shaler","u":"L","o":"individual","sf":2575,"v":1000}},{"type":"Feature","geometry":{"type":"Point","coordinates":[-79.93823,40.49819]},"properties":{"p":"0167G00192000000","a":"758 HIGHLAND AVE","m":"Shaler","u":"L","o":"individual","sf":15141,"v":5800}},{"type":"Feature","geometry":{"type":"Point","coordinates":[-79.93854,40.49816]},"properties":{"p":"0167G00198000000","a":"HIGHLAND AVE","m":"Shaler","u":"L","o":"individual","sf":6440,"v":2500}},{"type":"Feature","geometry":{"type":"Point","coordinates":[-79.9384,40.49845]},"properties":{"p":"0167G00206000000","a":"HIGHLAND AVE","m":"Shaler","u":"L","o":"individual","sf":6445,"v":35100}},{"type":"Feature","geometry":{"type":"Point","coordinates":[-79.93841,40.4987]},"properties":{"p":"0167G00212000000","a":"HIGHLAND AVE","m":"Shaler","u":"L","o":"individual","sf":2500,"v":1000}},{"type":"Feature","geometry":{"type":"Point","coordinates":[-79.9362,40.4989]},"properties":{"p":"0167H00310000000","a":"RIDGE AVE","m":"Shaler","u":"L","o":"corp","sf":12116,"v":35600}},{"type":"Feature","geometry":{"type":"Point","coordinates":[-79.93818,40.50653]},"properties":{"p":"0222G00010000000","a":"ALETA ST","m":"Shaler","u":"L","o":"individual","sf":20473,"v":7300}},{"type":"Feature","geometry":{"type":"Point","coordinates":[-79.93716,40.49986]},"properties":{"p":"0167C00060000000","a":"LINCOLN AVE","m":"Shaler","u":"L","o":"individual","sf":2500,"v":1000}},{"type":"Feature","geometry":{"type":"Point","coordinates":[-79.93652,40.49772]},"properties":{"p":"0167H00350000000","a":"RIDGE AVE","m":"Shaler","u":"L","o":"individual","sf":50530,"v":39200}},{"type":"Feature","geometry":{"type":"Point","coordinates":[-79.93676,40.49874]},"properties":{"p":"0167H00360000000","a":"RIDGE AVE","m":"Shaler","u":"L","o":"individual","sf":30000,"v":37300}},{"type":"Feature","geometry":{"type":"Point","coordinates":[-79.93725,40.49914]},"properties":{"p":"0167C00008000000","a":"COMMERCE ST","m":"Shaler","u":"L","o":"individual","sf":2475,"v":1000}},{"type":"Feature","geometry":{"type":"Point","coordinates":[-79.9374,40.49914]},"properties":{"p":"0167C00012000000","a":"COMMERCE ST","m":"Shaler","u":"L","o":"individual","sf":11718,"v":35600}},{"type":"Feature","geometry":{"type":"Point","coordinates":[-79.93759,40.49901]},"properties":{"p":"0167C00020000000","a":"CENTRE AVE","m":"Shaler","u":"L","o":"individual","sf":4551,"v":1700}},{"type":"Feature","geometry":{"type":"Point","coordinates":[-79.93846,40.49911]},"properties":{"p":"0167C00032000000","a":"COMMERCE ST","m":"Shaler","u":"L","o":"individual","sf":2500,"v":1000}},{"type":"Feature","geometry":{"type":"Point","coordinates":[-79.93835,40.49954]},"properties":{"p":"0167C00040000000","a":"COMMERCE ST","m":"Shaler","u":"L","o":"individual","sf":5000,"v":1900}},{"type":"Feature","geometry":{"type":"Point","coordinates":[-79.93767,40.49951]},"properties":{"p":"0167C00048000000","a":"COMMERCE ST","m":"Shaler","u":"L","o":"individual","sf":3250,"v":1200}},{"type":"Feature","geometry":{"type":"Point","coordinates":[-79.93751,40.50168]},"properties":{"p":"0222R00384000000","a":"CENTRE AVE","m":"Shaler","u":"L","o":"individual","sf":4747,"v":1800}},{"type":"Feature","geometry":{"type":"Point","coordinates":[-79.93918,40.5037]},"properties":{"p":"0222R00023000000","a":"HELENA AVE","m":"Shaler","u":"L","o":"individual","sf":2474,"v":1000}},{"type":"Feature","geometry":{"type":"Point","coordinates":[-79.93935,40.50367]},"properties":{"p":"0222R00025000000","a":"HELENA AVE","m":"Shaler","u":"L","o":"individual","sf":6050,"v":2200}},{"type":"Feature","geometry":{"type":"Point","coordinates":[-79.93988,40.50357]},"properties":{"p":"0222R00035000000","a":"HELENA AVE","m":"Shaler","u":"L","o":"individual","sf":16152,"v":36000}},{"type":"Feature","geometry":{"type":"Point","coordinates":[-79.93994,40.5033]},"properties":{"p":"0222R00073000000","a":"FOUNDRY ST","m":"Shaler","u":"L","o":"individual","sf":7356,"v":2700}},{"type":"Feature","geometry":{"type":"Point","coordinates":[-79.93966,40.50336]},"properties":{"p":"0222R00077000000","a":"FOUNDRY ST","m":"Shaler","u":"L","o":"individual","sf":6440,"v":2400}},{"type":"Feature","geometry":{"type":"Point","coordinates":[-79.93827,40.50285]},"properties":{"p":"0222R00350000000","a":"LINCOLN AVE","m":"Shaler","u":"L","o":"individual","sf":20890,"v":36400}},{"type":"Feature","geometry":{"type":"Point","coordinates":[-79.93723,40.50266]},"properties":{"p":"0222R00346000000","a":"LINCOLN AVE","m":"Shaler","u":"L","o":"individual","sf":4000,"v":1500}},{"type":"Feature","geometry":{"type":"Point","coordinates":[-79.93952,40.50362]},"properties":{"p":"0222R00081000000","a":"FOUNDRY ST","m":"Shaler","u":"L","o":"individual","sf":6880,"v":2500}},{"type":"Feature","geometry":{"type":"Point","coordinates":[-79.93935,40.50341]},"properties":{"p":"0222R00083000000","a":"FOUNDRY ST","m":"Shaler","u":"L","o":"individual","sf":1327,"v":600}},{"type":"Feature","geometry":{"type":"Point","coordinates":[-79.93917,40.50345]},"properties":{"p":"0222R00085000000","a":"FOUNDRY ST","m":"Shaler","u":"L","o":"individual","sf":5658,"v":2100}},{"type":"Feature","geometry":{"type":"Point","coordinates":[-79.93887,40.50363]},"properties":{"p":"0222R00090000000","a":"FOUNDRY ST","m":"Shaler","u":"L","o":"individual","sf":5416,"v":2000}},{"type":"Feature","geometry":{"type":"Point","coordinates":[-79.93916,40.5021]},"properties":{"p":"0222R00286000000","a":"HIGHLAND AVE","m":"Shaler","u":"L","o":"individual","sf":9780,"v":3500}},{"type":"Feature","geometry":{"type":"Point","coordinates":[-79.93678,40.50444]},"properties":{"p":"0222M00027000000","a":"SHARPSHILL RD","m":"Shaler","u":"L","o":"individual","sf":1200,"v":100}},{"type":"Feature","geometry":{"type":"Point","coordinates":[-79.93435,40.495]},"properties":{"p":"0167M00312000000","a":"801 CLAY ST","m":"Sharpsburg","u":"L","o":"individual","sf":957,"v":400}},{"type":"Feature","geometry":{"type":"Point","coordinates":[-79.93654,40.49406]},"properties":{"p":"0167M00393000000","a":"413 S MAIN ST","m":"Sharpsburg","u":"L","o":"corp","sf":880,"v":400}},{"type":"Feature","geometry":{"type":"Point","coordinates":[-79.92384,40.49611]},"properties":{"p":"0168L00270000000","a":"MARYS AVE","m":"Sharpsburg","u":"L","o":"individual","sf":1823,"v":700}},{"type":"Feature","geometry":{"type":"Point","coordinates":[-79.9359,40.50903]},"properties":{"p":"0222D00150000000","a":"SHARPSHILL RD","m":"O''Hara","u":"L","o":"individual","sf":10890,"v":7500}},{"type":"Feature","geometry":{"type":"Point","coordinates":[-79.9396,40.50821]},"properties":{"p":"0222G00275000000","a":"KITTANNING RD","m":"Shaler","u":"L","o":"individual","sf":33445,"v":2300}},{"type":"Feature","geometry":{"type":"Point","coordinates":[-79.93456,40.49435]},"properties":{"p":"0167M00359000000","a":"MAIN ST","m":"Sharpsburg","u":"L","o":"corp","sf":3537,"v":1200}},{"type":"Feature","geometry":{"type":"Point","coordinates":[-79.92014,40.49422]},"properties":{"p":"0168M00348000000","a":"MAIN ST","m":"Sharpsburg","u":"L","o":"corp","sf":3168,"v":18800}},{"type":"Feature","geometry":{"type":"Point","coordinates":[-79.92193,40.49562]},"properties":{"p":"0168L00241000000","a":"CECIL ST","m":"Sharpsburg","u":"L","o":"individual","sf":836,"v":400}},{"type":"Feature","geometry":{"type":"Point","coordinates":[-79.93143,40.49808]},"properties":{"p":"0168E00300000000","a":"PARKVIEW BLVD","m":"O''Hara","u":"L","o":"individual","sf":50835,"v":30200}},{"type":"Feature","geometry":{"type":"Point","coordinates":[-79.93654,40.5007]},"properties":{"p":"0167D00380000000","a":"LINCOLN AVE","m":"Shaler","u":"L","o":"individual","sf":1125,"v":500}},{"type":"Feature","geometry":{"type":"Point","coordinates":[-79.93441,40.495]},"properties":{"p":"0167M00311000000","a":"801 CLAY ST","m":"Sharpsburg","u":"L","o":"corp","sf":969,"v":400}},{"type":"Feature","geometry":{"type":"Point","coordinates":[-79.93591,40.49377]},"properties":{"p":"0167S00136000000","a":"5TH ST","m":"Sharpsburg","u":"L","o":"corp","sf":1640,"v":15300}},{"type":"Feature","geometry":{"type":"Point","coordinates":[-79.93948,40.4996]},"properties":{"p":"0167C00286000000","a":"ALLEGHENY AVE","m":"Shaler","u":"L","o":"individual","sf":9000,"v":35400}},{"type":"Feature","geometry":{"type":"Point","coordinates":[-79.93021,40.50056]},"properties":{"p":"0168A00122000000","a":"EDGEWOOD AVE","m":"O''Hara","u":"L","o":"individual","sf":11250,"v":13600}},{"type":"Feature","geometry":{"type":"Point","coordinates":[-79.92381,40.50642]},"properties":{"p":"0223G00072000000","a":"COLLINWOOD DR","m":"O''Hara","u":"L","o":"individual","sf":23120,"v":10000}},{"type":"Feature","geometry":{"type":"Point","coordinates":[-79.92065,40.49673]},"properties":{"p":"0168G00018000000","a":"FRONT ST","m":"Sharpsburg","u":"L","o":"individual","sf":18204,"v":5900}},{"type":"Feature","geometry":{"type":"Point","coordinates":[-79.93494,40.49415]},"properties":{"p":"0167M00371000000","a":"703 MAIN ST","m":"Sharpsburg","u":"L","o":"corp","sf":1775,"v":700}},{"type":"Feature","geometry":{"type":"Point","coordinates":[-79.92031,40.50168]},"properties":{"p":"0223S00030000000","a":"HARDING RD","m":"O''Hara","u":"L","o":"individual","sf":8754,"v":2900}},{"type":"Feature","geometry":{"type":"Point","coordinates":[-79.93609,40.49415]},"properties":{"p":"0167M00389000100","a":"601 MAIN ST","m":"Sharpsburg","u":"L","o":"corp","sf":224,"v":200}},{"type":"Feature","geometry":{"type":"Point","coordinates":[-79.93494,40.50129]},"properties":{"p":"0167D00122000000","a":"MIDWAY DR","m":"O''Hara","u":"L","o":"individual","sf":14200,"v":4600}},{"type":"Feature","geometry":{"type":"Point","coordinates":[-79.93288,40.49496]},"properties":{"p":"0167M00332000000","a":"CLAY ST","m":"Sharpsburg","u":"L","o":"individual","sf":2074,"v":16300}},{"type":"Feature","geometry":{"type":"Point","coordinates":[-79.93518,40.49688]},"properties":{"p":"0167H00092000000","a":"HIGH ST","m":"Sharpsburg","u":"L","o":"individual","sf":1423,"v":100}},{"type":"Feature","geometry":{"type":"Point","coordinates":[-79.92914,40.49479]},"properties":{"p":"0168J00350000000","a":"MIDDLE ST","m":"Sharpsburg","u":"L","o":"individual","sf":516,"v":300}},{"type":"Feature","geometry":{"type":"Point","coordinates":[-79.92554,40.49704]},"properties":{"p":"0168F00056000000","a":"N CANAL ST","m":"Sharpsburg","u":"L","o":"individual","sf":3526,"v":19600}},{"type":"Feature","geometry":{"type":"Point","coordinates":[-79.92645,40.49434]},"properties":{"p":"0168K00028000000","a":"MAIN ST","m":"Sharpsburg","u":"L","o":"individual","sf":4000,"v":1400}},{"type":"Feature","geometry":{"type":"Point","coordinates":[-79.92176,40.49438]},"properties":{"p":"0168L00108000000","a":"MAIN ST","m":"Sharpsburg","u":"L","o":"individual","sf":2450,"v":900}},{"type":"Feature","geometry":{"type":"Point","coordinates":[-79.92445,40.499]},"properties":{"p":"0168B00006000000","a":"KITTANNING PIKE","m":"O''Hara","u":"L","o":"individual","sf":3948,"v":1400}},{"type":"Feature","geometry":{"type":"Point","coordinates":[-79.92746,40.50839]},"properties":{"p":"0223B00031000000","a":"GEORGIAN PL","m":"O''Hara","u":"L","o":"individual","sf":87290,"v":63500}},{"type":"Feature","geometry":{"type":"Point","coordinates":[-79.92574,40.4972]},"properties":{"p":"0168F00115000000","a":"HIGH ST","m":"Sharpsburg","u":"L","o":"individual","sf":630,"v":100}},{"type":"Feature","geometry":{"type":"Point","coordinates":[-79.92626,40.49532]},"properties":{"p":"0168K00300000000","a":"15TH ST","m":"Sharpsburg","u":"L","o":"corp","sf":3820,"v":10500}},{"type":"Feature","geometry":{"type":"Point","coordinates":[-79.93852,40.50367]},"properties":{"p":"0222R00095000000","a":"FOUNDRY ST","m":"Shaler","u":"L","o":"individual","sf":3777,"v":1400}},{"type":"Feature","geometry":{"type":"Point","coordinates":[-79.93712,40.50443]},"properties":{"p":"0222L00297000000","a":"SADOWSKI AVE","m":"Shaler","u":"L","o":"individual","sf":5324,"v":35000}},{"type":"Feature","geometry":{"type":"Point","coordinates":[-79.92996,40.4963]},"properties":{"p":"0168J00022000100","a":"PENN ST","m":"Sharpsburg","u":"L","o":"individual","sf":575,"v":300}},{"type":"Feature","geometry":{"type":"Point","coordinates":[-79.93641,40.49409]},"properties":{"p":"0167M00391000000","a":"413 S MAIN ST","m":"Sharpsburg","u":"L","o":"corp","sf":1233,"v":1000}},{"type":"Feature","geometry":{"type":"Point","coordinates":[-79.93508,40.4978]},"properties":{"p":"0167H00204000000","a":"SHARPSHILL RD","m":"O''Hara","u":"L","o":"individual","sf":12554,"v":2100}},{"type":"Feature","geometry":{"type":"Point","coordinates":[-79.9258,40.4972]},"properties":{"p":"0168F00114000000","a":"HIGH ST","m":"Sharpsburg","u":"L","o":"individual","sf":778,"v":400}},{"type":"Feature","geometry":{"type":"Point","coordinates":[-79.93627,40.50093]},"properties":{"p":"0167D00302000000","a":"KEYSTONE ST","m":"Shaler","u":"L","o":"individual","sf":2500,"v":1000}},{"type":"Feature","geometry":{"type":"Point","coordinates":[-79.92455,40.50262]},"properties":{"p":"0223P00010000000","a":"MURRAY ST","m":"O''Hara","u":"L","o":"individual","sf":8000,"v":2700}},{"type":"Feature","geometry":{"type":"Point","coordinates":[-79.93234,40.50114]},"properties":{"p":"0168A00094000000","a":"EDGEWOOD AVE","m":"O''Hara","u":"L","o":"individual","sf":11250,"v":26600}},{"type":"Feature","geometry":{"type":"Point","coordinates":[-79.92624,40.50773]},"properties":{"p":"0223F00052000000","a":"CASCADE WAY","m":"O''Hara","u":"B","o":"individual","sf":81209,"v":7800}}]}