{"type":"FeatureCollection","features":[{"type":"Feature","geometry":{"type":"Point","coordinates":[-79.92531,40.42932]},"properties":{"p":"0087F00215000000","a":"POCUSSET ST","m":"14th Ward - PITTSBURGH","u":"C","o":"individual","sf":6548,"v":16400}},{"type":"Feature","geometry":{"type":"Point","coordinates":[-79.92631,40.4289]},"properties":{"p":"0087F00218000000","a":"FORWARD AVE","m":"14th Ward - PITTSBURGH","u":"C","o":"individual","sf":52842,"v":124000}},{"type":"Feature","geometry":{"type":"Point","coordinates":[-79.9266,40.42758]},"properties":{"p":"0087K00057000000","a":"MURRAY AVE","m":"14th Ward - PITTSBURGH","u":"C","o":"corp","sf":2800,"v":2100}},{"type":"Feature","geometry":{"type":"Point","coordinates":[-79.92478,40.41674]},"properties":{"p":"0088K00040000000","a":"SALINE ST","m":"14th Ward - PITTSBURGH","u":"C","o":"corp","sf":20124,"v":13900}},{"type":"Feature","geometry":{"type":"Point","coordinates":[-79.92407,40.41583]},"properties":{"p":"0088R00176000000","a":"SALINE ST","m":"15th Ward - PITTSBURGH","u":"C","o":"corp","sf":19445,"v":200}},{"type":"Feature","geometry":{"type":"Point","coordinates":[-79.92699,40.42055]},"properties":{"p":"0088F00084000001","a":"3424 BEECHWOOD BLVD","m":"15th Ward - PITTSBURGH","u":"C","o":"corp","sf":21686,"v":127600}},{"type":"Feature","geometry":{"type":"Point","coordinates":[-79.9262,40.41877]},"properties":{"p":"0088K00080000000","a":"SALINE ST","m":"15th Ward - PITTSBURGH","u":"C","o":"corp","sf":4053,"v":3000}},{"type":"Feature","geometry":{"type":"Point","coordinates":[-79.92886,40.42941]},"properties":{"p":"0087E00044000000","a":"5554 POCUSSET ST","m":"14th Ward - PITTSBURGH","u":"L","o":"individual","sf":1991,"v":1000}},{"type":"Feature","geometry":{"type":"Point","coordinates":[-79.92891,40.42943]},"properties":{"p":"0087E00045000000","a":"5550 POCUSSET ST","m":"14th Ward - PITTSBURGH","u":"L","o":"corp","sf":2100,"v":1000}},{"type":"Feature","geometry":{"type":"Point","coordinates":[-79.9201,40.42637]},"properties":{"p":"0087M00097000000","a":"MORROWFIELD AVE","m":"14th Ward - PITTSBURGH","u":"L","o":"individual","sf":254,"v":200}},{"type":"Feature","geometry":{"type":"Point","coordinates":[-79.92435,40.4281]},"properties":{"p":"0087L00059000000","a":"MORROWFIELD AVE","m":"14th Ward - PITTSBURGH","u":"L","o":"individual","sf":594,"v":400}},{"type":"Feature","geometry":{"type":"Point","coordinates":[-79.92946,40.42931]},"properties":{"p":"0087E00171000000","a":"POCUSSET ST","m":"14th Ward - PITTSBURGH","u":"L","o":"individual","sf":19521,"v":48100}},{"type":"Feature","geometry":{"type":"Point","coordinates":[-79.92619,40.42663]},"properties":{"p":"0087K00196000000","a":"SALINE ST","m":"14th Ward - PITTSBURGH","u":"L","o":"corp","sf":18252,"v":13100}},{"type":"Feature","geometry":{"type":"Point","coordinates":[-79.92839,40.4292]},"properties":{"p":"0087F00256000000","a":"5566 POCUSSET ST","m":"14th Ward - PITTSBURGH","u":"L","o":"individual","sf":10810,"v":46200}},{"type":"Feature","geometry":{"type":"Point","coordinates":[-79.92347,40.42476]},"properties":{"p":"0087R00132000000","a":"EBDY ST","m":"14th Ward - PITTSBURGH","u":"L","o":"individual","sf":1900,"v":900}},{"type":"Feature","geometry":{"type":"Point","coordinates":[-79.92266,40.42505]},"properties":{"p":"0087R00145000000","a":"MONITOR ST","m":"14th Ward - PITTSBURGH","u":"L","o":"individual","sf":4242,"v":92400}},{"type":"Feature","geometry":{"type":"Point","coordinates":[-79.92616,40.42966]},"properties":{"p":"0087F00183000000","a":"5635 POCUSSET ST","m":"14th Ward - PITTSBURGH","u":"L","o":"individual","sf":5600,"v":50000}},{"type":"Feature","geometry":{"type":"Point","coordinates":[-79.92584,40.42627]},"properties":{"p":"0087K00179000000","a":"MONITOR ST","m":"14th Ward - PITTSBURGH","u":"L","o":"individual","sf":4526,"v":2100}},{"type":"Feature","geometry":{"type":"Point","coordinates":[-79.92581,40.42406]},"properties":{"p":"0087P00286000100","a":"4115 SALINE ST","m":"14th Ward - PITTSBURGH","u":"L","o":"individual","sf":174,"v":200}},{"type":"Feature","geometry":{"type":"Point","coordinates":[-79.92538,40.41811]},"properties":{"p":"0088K00030000000","a":"SALINE ST","m":"14th Ward - PITTSBURGH","u":"L","o":"corp","sf":10992,"v":4900}},{"type":"Feature","geometry":{"type":"Point","coordinates":[-79.92562,40.41809]},"properties":{"p":"0088K00032000000","a":"SALINE ST","m":"14th Ward - PITTSBURGH","u":"L","o":"individual","sf":12379,"v":18200}},{"type":"Feature","geometry":{"type":"Point","coordinates":[-79.92447,40.41674]},"properties":{"p":"0088K00050000000","a":"SALINE ST","m":"14th Ward - PITTSBURGH","u":"L","o":"corp","sf":48744,"v":5800}},{"type":"Feature","geometry":{"type":"Point","coordinates":[-79.92359,40.42191]},"properties":{"p":"0088C00193000000","a":"LANDVIEW RD","m":"14th Ward - PITTSBURGH","u":"L","o":"individual","sf":6250,"v":100300}},{"type":"Feature","geometry":{"type":"Point","coordinates":[-79.92255,40.42216]},"properties":{"p":"0088C00211000000","a":"LUSTER ST","m":"14th Ward - PITTSBURGH","u":"L","o":"individual","sf":12441,"v":8000}},{"type":"Feature","geometry":{"type":"Point","coordinates":[-79.92357,40.42105]},"properties":{"p":"0088G00037000000","a":"SHADY AVE","m":"14th Ward - PITTSBURGH","u":"L","o":"individual","sf":3125,"v":31300}},{"type":"Feature","geometry":{"type":"Point","coordinates":[-79.92086,40.42215]},"properties":{"p":"0088C00255000000","a":"6651 LANDVIEW RD","m":"14th Ward - PITTSBURGH","u":"L","o":"individual","sf":4750,"v":97500}},{"type":"Feature","geometry":{"type":"Point","coordinates":[-79.92111,40.42156]},"properties":{"p":"0088C00272000000","a":"6644 LANDVIEW RD","m":"14th Ward - PITTSBURGH","u":"L","o":"individual","sf":3986,"v":500}},{"type":"Feature","geometry":{"type":"Point","coordinates":[-79.9212,40.42155]},"properties":{"p":"0088C00273000A00","a":"LANDVIEW RD","m":"14th Ward - PITTSBURGH","u":"L","o":"individual","sf":2600,"v":26000}},{"type":"Feature","geometry":{"type":"Point","coordinates":[-79.9228,40.42147]},"properties":{"p":"0088C00322000000","a":"LANDVIEW RD","m":"14th Ward - PITTSBURGH","u":"L","o":"individual","sf":2500,"v":1200}},{"type":"Feature","geometry":{"type":"Point","coordinates":[-79.92329,40.41991]},"properties":{"p":"0088G00062000000","a":"BEECHWOOD BLVD","m":"14th Ward - PITTSBURGH","u":"L","o":"individual","sf":1200,"v":600}},{"type":"Feature","geometry":{"type":"Point","coordinates":[-79.92328,40.41981]},"properties":{"p":"0088G00064000000","a":"BEECHWOOD BLVD","m":"14th Ward - PITTSBURGH","u":"L","o":"corp","sf":1352,"v":700}},{"type":"Feature","geometry":{"type":"Point","coordinates":[-79.92455,40.41708]},"properties":{"p":"0088K00005000000","a":"SALINE ST","m":"14th Ward - PITTSBURGH","u":"L","o":"corp","sf":7757,"v":3500}},{"type":"Feature","geometry":{"type":"Point","coordinates":[-79.92508,40.41761]},"properties":{"p":"0088K00011000000","a":"SALINE ST","m":"14th Ward - PITTSBURGH","u":"L","o":"corp","sf":45738,"v":109400}},{"type":"Feature","geometry":{"type":"Point","coordinates":[-79.92015,40.42296]},"properties":{"p":"0088D00264000000","a":"PRIVATE ALY","m":"14th Ward - PITTSBURGH","u":"L","o":"individual","sf":209,"v":200}},{"type":"Feature","geometry":{"type":"Point","coordinates":[-79.92231,40.42024]},"properties":{"p":"0088G00220000000","a":"BEECHWOOD BLVD","m":"14th Ward - PITTSBURGH","u":"L","o":"individual","sf":2550,"v":1200}},{"type":"Feature","geometry":{"type":"Point","coordinates":[-79.92192,40.41442]},"properties":{"p":"0088R00121000000","a":"PARKVIEW BLVD","m":"14th Ward - PITTSBURGH","u":"L","o":"corp","sf":2692,"v":16200}},{"type":"Feature","geometry":{"type":"Point","coordinates":[-79.92008,40.41984]},"properties":{"p":"0088H00067000000","a":"6414 KEMPER ST","m":"14th Ward - PITTSBURGH","u":"L","o":"individual","sf":2500,"v":6500}},{"type":"Feature","geometry":{"type":"Point","coordinates":[-79.92188,40.4177]},"properties":{"p":"0088L00150000000","a":"BEECHWOOD BLVD","m":"14th Ward - PITTSBURGH","u":"L","o":"corp","sf":456522,"v":284500}},{"type":"Feature","geometry":{"type":"Point","coordinates":[-79.92227,40.41919]},"properties":{"p":"0088G00241000000","a":"BEECHWOOD BLVD","m":"14th Ward - PITTSBURGH","u":"L","o":"individual","sf":8432,"v":3800}},{"type":"Feature","geometry":{"type":"Point","coordinates":[-79.92125,40.42007]},"properties":{"p":"0088G00302000000","a":"GUY ST","m":"14th Ward - PITTSBURGH","u":"L","o":"corp","sf":6400,"v":100300}},{"type":"Feature","geometry":{"type":"Point","coordinates":[-79.92076,40.42008]},"properties":{"p":"0088G00311000000","a":"KEMPER ST","m":"14th Ward - PITTSBURGH","u":"L","o":"individual","sf":3867,"v":500}},{"type":"Feature","geometry":{"type":"Point","coordinates":[-79.9205,40.42012]},"properties":{"p":"0088G00313000A00","a":"KEMPER ST","m":"14th Ward - PITTSBURGH","u":"L","o":"individual","sf":10276,"v":101200}},{"type":"Feature","geometry":{"type":"Point","coordinates":[-79.92056,40.42028]},"properties":{"p":"0088G00313000B00","a":"KEMPER ST","m":"14th Ward - PITTSBURGH","u":"L","o":"individual","sf":10387,"v":4700}},{"type":"Feature","geometry":{"type":"Point","coordinates":[-79.9211,40.41931]},"properties":{"p":"0088G00336000000","a":"MAROMAS ST","m":"14th Ward - PITTSBURGH","u":"L","o":"corp","sf":2200,"v":1100}},{"type":"Feature","geometry":{"type":"Point","coordinates":[-79.92041,40.41943]},"properties":{"p":"0088G00343000000","a":"KEMPER ST","m":"14th Ward - PITTSBURGH","u":"L","o":"individual","sf":4922,"v":49200}},{"type":"Feature","geometry":{"type":"Point","coordinates":[-79.92033,40.42104]},"properties":{"p":"0088G00177000000","a":"3046 BEECHWOOD BLVD","m":"14th Ward - PITTSBURGH","u":"L","o":"individual","sf":3310,"v":2500}},{"type":"Feature","geometry":{"type":"Point","coordinates":[-79.92025,40.42106]},"properties":{"p":"0088H00001000000","a":"3046 BEECHWOOD BLVD","m":"14th Ward - PITTSBURGH","u":"L","o":"individual","sf":3105,"v":2500}},{"type":"Feature","geometry":{"type":"Point","coordinates":[-79.9201,40.42053]},"properties":{"p":"0088H00031000000","a":"BEECHWOOD BLVD","m":"14th Ward - PITTSBURGH","u":"L","o":"individual","sf":2013,"v":20100}},{"type":"Feature","geometry":{"type":"Point","coordinates":[-79.92392,40.41631]},"properties":{"p":"0088R00001000000","a":"SALINE ST","m":"14th Ward - PITTSBURGH","u":"L","o":"individual","sf":21780,"v":145400}},{"type":"Feature","geometry":{"type":"Point","coordinates":[-79.92358,40.41608]},"properties":{"p":"0088R00009000000","a":"4613 SALINE ST","m":"14th Ward - PITTSBURGH","u":"L","o":"individual","sf":11283,"v":5300}},{"type":"Feature","geometry":{"type":"Point","coordinates":[-79.92327,40.41618]},"properties":{"p":"0088R00014000000","a":"SALINE ST","m":"14th Ward - PITTSBURGH","u":"L","o":"individual","sf":2000,"v":1000}},{"type":"Feature","geometry":{"type":"Point","coordinates":[-79.92347,40.41587]},"properties":{"p":"0088R00015000000","a":"4625 SALINE ST","m":"14th Ward - PITTSBURGH","u":"L","o":"individual","sf":3473,"v":1600}},{"type":"Feature","geometry":{"type":"Point","coordinates":[-79.92287,40.41565]},"properties":{"p":"0088R00022000000","a":"SALINE ST","m":"14th Ward - PITTSBURGH","u":"L","o":"individual","sf":6359,"v":2900}},{"type":"Feature","geometry":{"type":"Point","coordinates":[-79.93342,40.42443]},"properties":{"p":"0054S00086000000","a":"901 GREENFIELD AVE","m":"15th Ward - PITTSBURGH","u":"L","o":"individual","sf":2500,"v":4500}},{"type":"Feature","geometry":{"type":"Point","coordinates":[-79.9335,40.42443]},"properties":{"p":"0054S00087000000","a":"901 GREENFIELD AVE","m":"15th Ward - PITTSBURGH","u":"L","o":"individual","sf":2500,"v":4500}},{"type":"Feature","geometry":{"type":"Point","coordinates":[-79.93429,40.42519]},"properties":{"p":"0054S00213000000","a":"831 LILAC ST","m":"15th Ward - PITTSBURGH","u":"L","o":"individual","sf":2250,"v":10100}},{"type":"Feature","geometry":{"type":"Point","coordinates":[-79.93599,40.42548]},"properties":{"p":"0054S00150000000","a":"GRAPHIC ST","m":"15th Ward - PITTSBURGH","u":"L","o":"individual","sf":2250,"v":900}},{"type":"Feature","geometry":{"type":"Point","coordinates":[-79.93543,40.42551]},"properties":{"p":"0054S00231000000","a":"KENNEBEC ST","m":"15th Ward - PITTSBURGH","u":"L","o":"individual","sf":2250,"v":900}},{"type":"Feature","geometry":{"type":"Point","coordinates":[-79.93368,40.42444]},"properties":{"p":"0054S00089000000","a":"837 GREENFIELD AVE","m":"15th Ward - PITTSBURGH","u":"L","o":"individual","sf":2500,"v":11300}},{"type":"Feature","geometry":{"type":"Point","coordinates":[-79.93395,40.42446]},"properties":{"p":"0054S00092000000","a":"835 GREENFIELD AVE","m":"15th Ward - PITTSBURGH","u":"L","o":"individual","sf":2500,"v":11300}},{"type":"Feature","geometry":{"type":"Point","coordinates":[-79.93317,40.4258]},"properties":{"p":"0054S00267000000","a":"863 KENNEBEC ST","m":"15th Ward - PITTSBURGH","u":"L","o":"individual","sf":2900,"v":13100}},{"type":"Feature","geometry":{"type":"Point","coordinates":[-79.93473,40.42581]},"properties":{"p":"0054S00294000000","a":"MIRROR ST","m":"15th Ward - PITTSBURGH","u":"L","o":"individual","sf":2322,"v":10500}},{"type":"Feature","geometry":{"type":"Point","coordinates":[-79.9396,40.42682]},"properties":{"p":"0054L00159000000","a":"ALGER ST","m":"15th Ward - PITTSBURGH","u":"L","o":"individual","sf":5713,"v":22600}},{"type":"Feature","geometry":{"type":"Point","coordinates":[-79.93445,40.42623]},"properties":{"p":"0054M00040000000","a":"FLEMINGTON ST","m":"15th Ward - PITTSBURGH","u":"L","o":"individual","sf":1125,"v":5100}},{"type":"Feature","geometry":{"type":"Point","coordinates":[-79.93855,40.41767]},"properties":{"p":"0055L00208000100","a":"4451 MCCASLIN ST","m":"15th Ward - PITTSBURGH","u":"L","o":"corp","sf":660,"v":300}},{"type":"Feature","geometry":{"type":"Point","coordinates":[-79.93822,40.41778]},"properties":{"p":"0055L00212000000","a":"4437 MCCASLIN ST","m":"15th Ward - PITTSBURGH","u":"L","o":"individual","sf":7104,"v":10000}},{"type":"Feature","geometry":{"type":"Point","coordinates":[-79.93724,40.41809]},"properties":{"p":"0055L00226000000","a":"EMAHLEA ST","m":"15th Ward - PITTSBURGH","u":"L","o":"individual","sf":2382,"v":1000}},{"type":"Feature","geometry":{"type":"Point","coordinates":[-79.93709,40.41816]},"properties":{"p":"0055L00228000000","a":"HAZELWOOD AVE","m":"15th Ward - PITTSBURGH","u":"L","o":"individual","sf":4217,"v":41500}},{"type":"Feature","geometry":{"type":"Point","coordinates":[-79.93725,40.41856]},"properties":{"p":"0055L00230000000","a":"HAZELWOOD AVE","m":"15th Ward - PITTSBURGH","u":"L","o":"individual","sf":27399,"v":24700}},{"type":"Feature","geometry":{"type":"Point","coordinates":[-79.93503,40.41937]},"properties":{"p":"0055H00269000000","a":"HAZELWOOD AVE","m":"15th Ward - PITTSBURGH","u":"L","o":"individual","sf":9024,"v":15000}},{"type":"Feature","geometry":{"type":"Point","coordinates":[-79.93481,40.41941]},"properties":{"p":"0055H00274000000","a":"BIGELOW ST","m":"15th Ward - PITTSBURGH","u":"L","o":"individual","sf":1896,"v":8500}},{"type":"Feature","geometry":{"type":"Point","coordinates":[-79.93473,40.41943]},"properties":{"p":"0055H00275000000","a":"BIGELOW ST","m":"15th Ward - PITTSBURGH","u":"L","o":"individual","sf":1872,"v":8400}},{"type":"Feature","geometry":{"type":"Point","coordinates":[-79.93334,40.42101]},"properties":{"p":"0055H00121000000","a":"LORETTA ST","m":"15th Ward - PITTSBURGH","u":"L","o":"corp","sf":2367,"v":10700}},{"type":"Feature","geometry":{"type":"Point","coordinates":[-79.93878,40.41664]},"properties":{"p":"0055L00056000000","a":"HAZELWOOD AVE","m":"15th Ward - PITTSBURGH","u":"L","o":"individual","sf":17784,"v":5000}},{"type":"Feature","geometry":{"type":"Point","coordinates":[-79.93851,40.41678]},"properties":{"p":"0055L00057000000","a":"HAZELWOOD AVE","m":"15th Ward - PITTSBURGH","u":"L","o":"individual","sf":6786,"v":2600}},{"type":"Feature","geometry":{"type":"Point","coordinates":[-79.93843,40.41678]},"properties":{"p":"0055L00058000000","a":"HAZELWOOD AVE","m":"15th Ward - PITTSBURGH","u":"L","o":"individual","sf":665,"v":3000}},{"type":"Feature","geometry":{"type":"Point","coordinates":[-79.93836,40.41695]},"properties":{"p":"0055L00061000000","a":"HAZELWOOD AVE","m":"15th Ward - PITTSBURGH","u":"L","o":"individual","sf":4097,"v":18400}},{"type":"Feature","geometry":{"type":"Point","coordinates":[-79.93801,40.41723]},"properties":{"p":"0055L00068000000","a":"HAZELWOOD AVE","m":"15th Ward - PITTSBURGH","u":"L","o":"individual","sf":4000,"v":1600}},{"type":"Feature","geometry":{"type":"Point","coordinates":[-79.93561,40.41967]},"properties":{"p":"0055H00228000000","a":"609 BIGELOW ST","m":"15th Ward - PITTSBURGH","u":"L","o":"individual","sf":2550,"v":11500}},{"type":"Feature","geometry":{"type":"Point","coordinates":[-79.93623,40.41958]},"properties":{"p":"0055H00234000000","a":"591 BIGELOW ST","m":"15th Ward - PITTSBURGH","u":"L","o":"individual","sf":2400,"v":10800}},{"type":"Feature","geometry":{"type":"Point","coordinates":[-79.93693,40.41947]},"properties":{"p":"0055H00241000000","a":"577 BIGELOW ST","m":"15th Ward - PITTSBURGH","u":"L","o":"individual","sf":1261,"v":5700}},{"type":"Feature","geometry":{"type":"Point","coordinates":[-79.93696,40.42288]},"properties":{"p":"0055D00001000000","a":"4244 MCCASLIN ST","m":"15th Ward - PITTSBURGH","u":"L","o":"individual","sf":365,"v":100}},{"type":"Feature","geometry":{"type":"Point","coordinates":[-79.93745,40.41761]},"properties":{"p":"0055L00076000000","a":"HAZELWOOD AVE","m":"15th Ward - PITTSBURGH","u":"L","o":"individual","sf":4290,"v":41800}},{"type":"Feature","geometry":{"type":"Point","coordinates":[-79.93921,40.41744]},"properties":{"p":"0055L00260000000","a":"WINTERBURN AVE","m":"15th Ward - PITTSBURGH","u":"L","o":"individual","sf":13939,"v":23400}},{"type":"Feature","geometry":{"type":"Point","coordinates":[-79.93529,40.42245]},"properties":{"p":"0055D00126000000","a":"BEEHNER RD","m":"15th Ward - PITTSBURGH","u":"L","o":"individual","sf":3000,"v":13500}},{"type":"Feature","geometry":{"type":"Point","coordinates":[-79.93734,40.41779]},"properties":{"p":"0055L00078000000","a":"HAZELWOOD AVE","m":"15th Ward - PITTSBURGH","u":"L","o":"individual","sf":3430,"v":37900}},{"type":"Feature","geometry":{"type":"Point","coordinates":[-79.93965,40.41699]},"properties":{"p":"0055L00120000000","a":"EMAHLEA ST","m":"15th Ward - PITTSBURGH","u":"L","o":"individual","sf":8725,"v":8000}},{"type":"Feature","geometry":{"type":"Point","coordinates":[-79.93508,40.41778]},"properties":{"p":"0055M00179000000","a":"FRAYNE ST","m":"15th Ward - PITTSBURGH","u":"L","o":"individual","sf":2400,"v":10800}},{"type":"Feature","geometry":{"type":"Point","coordinates":[-79.93449,40.41884]},"properties":{"p":"0055H00320000000","a":"FRAYNE ST","m":"15th Ward - PITTSBURGH","u":"L","o":"individual","sf":2989,"v":1200}},{"type":"Feature","geometry":{"type":"Point","coordinates":[-79.93336,40.42139]},"properties":{"p":"0055D00257000000","a":"701 LORETTA ST","m":"15th Ward - PITTSBURGH","u":"L","o":"individual","sf":1800,"v":8100}},{"type":"Feature","geometry":{"type":"Point","coordinates":[-79.93606,40.41685]},"properties":{"p":"0055M00201000000","a":"FRAYNE ST","m":"15th Ward - PITTSBURGH","u":"L","o":"individual","sf":4359,"v":19600}},{"type":"Feature","geometry":{"type":"Point","coordinates":[-79.93324,40.42312]},"properties":{"p":"0055D00337000000","a":"916 DEELY ST","m":"15th Ward - PITTSBURGH","u":"L","o":"individual","sf":1800,"v":3000}},{"type":"Feature","geometry":{"type":"Point","coordinates":[-79.93706,40.42056]},"properties":{"p":"0055G00235000000","a":"MCCASLIN ST","m":"15th Ward - PITTSBURGH","u":"L","o":"individual","sf":1386,"v":3100}},{"type":"Feature","geometry":{"type":"Point","coordinates":[-79.93607,40.42185]},"properties":{"p":"0055D00139000000","a":"4205 BEEHNER RD","m":"15th Ward - PITTSBURGH","u":"L","o":"individual","sf":3000,"v":13500}},{"type":"Feature","geometry":{"type":"Point","coordinates":[-79.93537,40.42178]},"properties":{"p":"0055D00166000000","a":"MILLINGTON RD","m":"15th Ward - PITTSBURGH","u":"L","o":"individual","sf":4537,"v":20400}},{"type":"Feature","geometry":{"type":"Point","coordinates":[-79.93521,40.42204]},"properties":{"p":"0055D00171000000","a":"615 MELBOURNE ST","m":"15th Ward - PITTSBURGH","u":"L","o":"individual","sf":4260,"v":19200}},{"type":"Feature","geometry":{"type":"Point","coordinates":[-79.93526,40.42186]},"properties":{"p":"0055D00171000100","a":"615 MELBOURNE ST","m":"15th Ward - PITTSBURGH","u":"L","o":"individual","sf":1770,"v":8000}},{"type":"Feature","geometry":{"type":"Point","coordinates":[-79.9366,40.41699]},"properties":{"p":"0055M00118000000","a":"FRAYNE ST","m":"15th Ward - PITTSBURGH","u":"L","o":"individual","sf":3750,"v":39400}},{"type":"Feature","geometry":{"type":"Point","coordinates":[-79.93624,40.41741]},"properties":{"p":"0055M00125000000","a":"FRAYNE ST","m":"15th Ward - PITTSBURGH","u":"L","o":"individual","sf":9413,"v":4400}},{"type":"Feature","geometry":{"type":"Point","coordinates":[-79.93573,40.4179]},"properties":{"p":"0055M00136000000","a":"FRAYNE ST","m":"15th Ward - PITTSBURGH","u":"L","o":"individual","sf":2464,"v":1000}},{"type":"Feature","geometry":{"type":"Point","coordinates":[-79.93623,40.42138]},"properties":{"p":"0055D00158000000","a":"4224 MILLINGTON RD","m":"15th Ward - PITTSBURGH","u":"L","o":"individual","sf":3395,"v":3500}},{"type":"Feature","geometry":{"type":"Point","coordinates":[-79.93634,40.42237]},"properties":{"p":"0055D00076000A00","a":"MCCASLIN ST","m":"15th Ward - PITTSBURGH","u":"L","o":"individual","sf":200,"v":900}},{"type":"Feature","geometry":{"type":"Point","coordinates":[-79.93514,40.4221]},"properties":{"p":"0055D00172000000","a":"615 MELBOURNE ST","m":"15th Ward - PITTSBURGH","u":"L","o":"individual","sf":3000,"v":13500}},{"type":"Feature","geometry":{"type":"Point","coordinates":[-79.93985,40.41733]},"properties":{"p":"0055L00191000000","a":"WINTERBURN AVE","m":"15th Ward - PITTSBURGH","u":"L","o":"individual","sf":2145,"v":9700}},{"type":"Feature","geometry":{"type":"Point","coordinates":[-79.93701,40.42273]},"properties":{"p":"0055C00330000000","a":"848 MCCASLIN ST","m":"15th Ward - PITTSBURGH","u":"L","o":"individual","sf":4440,"v":20000}},{"type":"Feature","geometry":{"type":"Point","coordinates":[-79.9353,40.42303]},"properties":{"p":"0055D00091000000","a":"4128 BEEHNER RD","m":"15th Ward - PITTSBURGH","u":"L","o":"individual","sf":3620,"v":1600}},{"type":"Feature","geometry":{"type":"Point","coordinates":[-79.9358,40.42206]},"properties":{"p":"0055D00135000000","a":"4165 BEEHNER ST","m":"15th Ward - PITTSBURGH","u":"L","o":"individual","sf":2000,"v":800}},{"type":"Feature","geometry":{"type":"Point","coordinates":[-79.93586,40.42202]},"properties":{"p":"0055D00136000000","a":"4205 BEEHNER ST","m":"15th Ward - PITTSBURGH","u":"L","o":"individual","sf":2000,"v":800}},{"type":"Feature","geometry":{"type":"Point","coordinates":[-79.93641,40.41659]},"properties":{"p":"0055M00207000000","a":"FRAYNE ST","m":"15th Ward - PITTSBURGH","u":"L","o":"individual","sf":6000,"v":11300}},{"type":"Feature","geometry":{"type":"Point","coordinates":[-79.93605,40.41636]},"properties":{"p":"0055M00216000000","a":"BLACKSTONE ST","m":"15th Ward - PITTSBURGH","u":"L","o":"individual","sf":8375,"v":3200}},{"type":"Feature","geometry":{"type":"Point","coordinates":[-79.93415,40.41811]},"properties":{"p":"0055M00238000000","a":"HARLEM ST","m":"15th Ward - PITTSBURGH","u":"L","o":"individual","sf":2400,"v":1000}},{"type":"Feature","geometry":{"type":"Point","coordinates":[-79.9342,40.41806]},"properties":{"p":"0055M00239000000","a":"HARLEM ST","m":"15th Ward - PITTSBURGH","u":"L","o":"individual","sf":2400,"v":1000}},{"type":"Feature","geometry":{"type":"Point","coordinates":[-79.93432,40.41796]},"properties":{"p":"0055M00243000000","a":"HARLEM ST","m":"15th Ward - PITTSBURGH","u":"L","o":"individual","sf":7200,"v":2800}},{"type":"Feature","geometry":{"type":"Point","coordinates":[-79.93444,40.41785]},"properties":{"p":"0055M00245000000","a":"HARLEM ST","m":"15th Ward - PITTSBURGH","u":"L","o":"individual","sf":3600,"v":5000}},{"type":"Feature","geometry":{"type":"Point","coordinates":[-79.93445,40.42061]},"properties":{"p":"0055H00102000000","a":"MONTCLAIR ST","m":"15th Ward - PITTSBURGH","u":"L","o":"individual","sf":5006,"v":45000}},{"type":"Feature","geometry":{"type":"Point","coordinates":[-79.93733,40.41709]},"properties":{"p":"0055L00033000000","a":"554 HAZELWOOD AVE","m":"15th Ward - PITTSBURGH","u":"L","o":"individual","sf":4116,"v":1600}},{"type":"Feature","geometry":{"type":"Point","coordinates":[-79.93724,40.41691]},"properties":{"p":"0055L00034000000","a":"ELYRIA WAY","m":"15th Ward - PITTSBURGH","u":"L","o":"individual","sf":261,"v":200}},{"type":"Feature","geometry":{"type":"Point","coordinates":[-79.93405,40.42065]},"properties":{"p":"0055H00108000000","a":"MONTCLAIR ST","m":"15th Ward - PITTSBURGH","u":"L","o":"individual","sf":2206,"v":900}},{"type":"Feature","geometry":{"type":"Point","coordinates":[-79.93399,40.42335]},"properties":{"p":"0055D00105000100","a":"BEEHNER RD","m":"15th Ward - PITTSBURGH","u":"L","o":"individual","sf":565,"v":300}},{"type":"Feature","geometry":{"type":"Point","coordinates":[-79.93404,40.42344]},"properties":{"p":"0055D00106000100","a":"4101 BEEHNER RD","m":"15th Ward - PITTSBURGH","u":"L","o":"individual","sf":1234,"v":5600}},{"type":"Feature","geometry":{"type":"Point","coordinates":[-79.93943,40.426]},"properties":{"p":"0054R00228000000","a":"608 GREENFIELD AVE","m":"15th Ward - PITTSBURGH","u":"L","o":"individual","sf":4290,"v":1700}},{"type":"Feature","geometry":{"type":"Point","coordinates":[-79.93294,40.42729]},"properties":{"p":"0054M00066000000","a":"FLEMINGTON ST","m":"15th Ward - PITTSBURGH","u":"L","o":"individual","sf":1192,"v":5400}},{"type":"Feature","geometry":{"type":"Point","coordinates":[-79.93368,40.42705]},"properties":{"p":"0054M00077000000","a":"FLEMINGTON ST","m":"15th Ward - PITTSBURGH","u":"L","o":"corp","sf":2250,"v":10100}},{"type":"Feature","geometry":{"type":"Point","coordinates":[-79.93387,40.42696]},"properties":{"p":"0054M00080000000","a":"FLEMINGTON ST","m":"15th Ward - PITTSBURGH","u":"L","o":"individual","sf":4500,"v":1500}},{"type":"Feature","geometry":{"type":"Point","coordinates":[-79.93399,40.4269]},"properties":{"p":"0054M00081000000","a":"FLEMINGTON ST","m":"15th Ward - PITTSBURGH","u":"L","o":"individual","sf":2250,"v":10100}},{"type":"Feature","geometry":{"type":"Point","coordinates":[-79.93323,40.42758]},"properties":{"p":"0054M00164000000","a":"MONTEIRO ST","m":"15th Ward - PITTSBURGH","u":"L","o":"corp","sf":6556,"v":1600}},{"type":"Feature","geometry":{"type":"Point","coordinates":[-79.93354,40.42755]},"properties":{"p":"0054M00166000000","a":"MONTEIRO ST","m":"15th Ward - PITTSBURGH","u":"L","o":"corp","sf":1850,"v":500}},{"type":"Feature","geometry":{"type":"Point","coordinates":[-79.93363,40.42753]},"properties":{"p":"0054M00167000000","a":"MONTEIRO ST","m":"15th Ward - PITTSBURGH","u":"L","o":"corp","sf":1475,"v":400}},{"type":"Feature","geometry":{"type":"Point","coordinates":[-79.93517,40.42092]},"properties":{"p":"0055H00047000000","a":"628 LORETTA ST","m":"15th Ward - PITTSBURGH","u":"L","o":"individual","sf":1608,"v":700}},{"type":"Feature","geometry":{"type":"Point","coordinates":[-79.93431,40.42093]},"properties":{"p":"0055H00056000000","a":"656 LORETTA ST","m":"15th Ward - PITTSBURGH","u":"L","o":"individual","sf":2462,"v":11100}},{"type":"Feature","geometry":{"type":"Point","coordinates":[-79.93838,40.42503]},"properties":{"p":"0054R00252000000","a":"740 GREENFIELD AVE","m":"15th Ward - PITTSBURGH","u":"L","o":"individual","sf":2500,"v":11300}},{"type":"Feature","geometry":{"type":"Point","coordinates":[-79.93468,40.41764]},"properties":{"p":"0055M00251000000","a":"HARLEM ST","m":"15th Ward - PITTSBURGH","u":"L","o":"individual","sf":4800,"v":44100}},{"type":"Feature","geometry":{"type":"Point","coordinates":[-79.93476,40.41757]},"properties":{"p":"0055M00252000000","a":"HARLEM ST","m":"15th Ward - PITTSBURGH","u":"L","o":"individual","sf":2400,"v":1000}},{"type":"Feature","geometry":{"type":"Point","coordinates":[-79.93482,40.41752]},"properties":{"p":"0055M00253000000","a":"HARLEM ST","m":"15th Ward - PITTSBURGH","u":"L","o":"individual","sf":2400,"v":1000}},{"type":"Feature","geometry":{"type":"Point","coordinates":[-79.9351,40.41726]},"properties":{"p":"0055M00261000000","a":"HARLEM ST","m":"15th Ward - PITTSBURGH","u":"L","o":"corp","sf":7200,"v":4000}},{"type":"Feature","geometry":{"type":"Point","coordinates":[-79.93533,40.41719]},"properties":{"p":"0055M00266000000","a":"FRAYNE ST","m":"15th Ward - PITTSBURGH","u":"L","o":"individual","sf":12653,"v":4800}},{"type":"Feature","geometry":{"type":"Point","coordinates":[-79.93499,40.41668]},"properties":{"p":"0055M00289000000","a":"HARLEM ST","m":"15th Ward - PITTSBURGH","u":"L","o":"individual","sf":3688,"v":16600}},{"type":"Feature","geometry":{"type":"Point","coordinates":[-79.93478,40.4166]},"properties":{"p":"0055M00291000000","a":"HARLEM ST","m":"15th Ward - PITTSBURGH","u":"L","o":"individual","sf":1756,"v":7900}},{"type":"Feature","geometry":{"type":"Point","coordinates":[-79.93579,40.42637]},"properties":{"p":"0054M00122000000","a":"MONTEIRO ST","m":"15th Ward - PITTSBURGH","u":"L","o":"individual","sf":2060,"v":31800}},{"type":"Feature","geometry":{"type":"Point","coordinates":[-79.93512,40.42092]},"properties":{"p":"0055H00047000100","a":"634 LORETTA ST","m":"15th Ward - PITTSBURGH","u":"L","o":"individual","sf":1636,"v":700}},{"type":"Feature","geometry":{"type":"Point","coordinates":[-79.93858,40.42551]},"properties":{"p":"0054R00244000000","a":"GREENFIELD AVE","m":"15th Ward - PITTSBURGH","u":"L","o":"individual","sf":5275,"v":22500}},{"type":"Feature","geometry":{"type":"Point","coordinates":[-79.93555,40.42381]},"properties":{"p":"0054S00023000000","a":"DEELY ST","m":"15th Ward - PITTSBURGH","u":"L","o":"individual","sf":1500,"v":6800}},{"type":"Feature","geometry":{"type":"Point","coordinates":[-79.93979,40.41884]},"properties":{"p":"0055G00350000100","a":"BIGELOW ST","m":"15th Ward - PITTSBURGH","u":"L","o":"individual","sf":612,"v":2800}},{"type":"Feature","geometry":{"type":"Point","coordinates":[-79.93669,40.41859]},"properties":{"p":"0055M00007000000","a":"HAZELWOOD AVE","m":"15th Ward - PITTSBURGH","u":"L","o":"individual","sf":27250,"v":47200}},{"type":"Feature","geometry":{"type":"Point","coordinates":[-79.93677,40.42017]},"properties":{"p":"0055H00002000000","a":"MONTCLAIR ST","m":"15th Ward - PITTSBURGH","u":"L","o":"individual","sf":4546,"v":20500}},{"type":"Feature","geometry":{"type":"Point","coordinates":[-79.93952,40.41786]},"properties":{"p":"0055L00304000100","a":"SUSANNA CT","m":"15th Ward - PITTSBURGH","u":"L","o":"individual","sf":8058,"v":45300}},{"type":"Feature","geometry":{"type":"Point","coordinates":[-79.93591,40.42412]},"properties":{"p":"0054S00046000000","a":"790 GREENFIELD AVE","m":"15th Ward - PITTSBURGH","u":"L","o":"individual","sf":2377,"v":1200}},{"type":"Feature","geometry":{"type":"Point","coordinates":[-79.93536,40.42413]},"properties":{"p":"0054S00051000000","a":"804 GREENFIELD AVE","m":"15th Ward - PITTSBURGH","u":"L","o":"individual","sf":3000,"v":1200}},{"type":"Feature","geometry":{"type":"Point","coordinates":[-79.93816,40.42464]},"properties":{"p":"0054R00258000000","a":"754 GREENFIELD AVE","m":"15th Ward - PITTSBURGH","u":"L","o":"individual","sf":2925,"v":1200}},{"type":"Feature","geometry":{"type":"Point","coordinates":[-79.93801,40.4245]},"properties":{"p":"0054R00260000000","a":"GREENFIELD AVE","m":"15th Ward - PITTSBURGH","u":"L","o":"corp","sf":9039,"v":45400}},{"type":"Feature","geometry":{"type":"Point","coordinates":[-79.93664,40.42071]},"properties":{"p":"0055H00012000000","a":"TESLA ST","m":"15th Ward - PITTSBURGH","u":"L","o":"individual","sf":3600,"v":16200}},{"type":"Feature","geometry":{"type":"Point","coordinates":[-79.93599,40.42025]},"properties":{"p":"0055H00023000000","a":"TESLA ST","m":"15th Ward - PITTSBURGH","u":"L","o":"individual","sf":2500,"v":25300}},{"type":"Feature","geometry":{"type":"Point","coordinates":[-79.93602,40.42037]},"properties":{"p":"0055H00025000A00","a":"4331 TESLA ST","m":"15th Ward - PITTSBURGH","u":"L","o":"individual","sf":1250,"v":5600}},{"type":"Feature","geometry":{"type":"Point","coordinates":[-79.93757,40.41184]},"properties":{"p":"0056C00063000000","a":"NANSEN ST","m":"15th Ward - PITTSBURGH","u":"L","o":"corp","sf":2400,"v":3000}},{"type":"Feature","geometry":{"type":"Point","coordinates":[-79.9375,40.41183]},"properties":{"p":"0056C00064000000","a":"NANSEN ST","m":"15th Ward - PITTSBURGH","u":"L","o":"corp","sf":1779,"v":400}},{"type":"Feature","geometry":{"type":"Point","coordinates":[-79.93745,40.41182]},"properties":{"p":"0056C00064000A00","a":"NANSEN ST","m":"15th Ward - PITTSBURGH","u":"L","o":"corp","sf":1293,"v":2500}},{"type":"Feature","geometry":{"type":"Point","coordinates":[-79.93739,40.41181]},"properties":{"p":"0056C00065000000","a":"NANSEN ST","m":"15th Ward - PITTSBURGH","u":"L","o":"individual","sf":1728,"v":2700}},{"type":"Feature","geometry":{"type":"Point","coordinates":[-79.9372,40.41179]},"properties":{"p":"0056C00067000000","a":"NANSEN ST","m":"15th Ward - PITTSBURGH","u":"L","o":"corp","sf":2000,"v":500}},{"type":"Feature","geometry":{"type":"Point","coordinates":[-79.93713,40.41178]},"properties":{"p":"0056C00069000000","a":"NANSEN ST","m":"15th Ward - PITTSBURGH","u":"L","o":"corp","sf":2000,"v":2800}},{"type":"Feature","geometry":{"type":"Point","coordinates":[-79.93699,40.41175]},"properties":{"p":"0056C00071000000","a":"FLOWERS AVE","m":"15th Ward - PITTSBURGH","u":"L","o":"corp","sf":1600,"v":400}},{"type":"Feature","geometry":{"type":"Point","coordinates":[-79.93831,40.4124]},"properties":{"p":"0056C00220000000","a":"NANSEN ST","m":"15th Ward - PITTSBURGH","u":"L","o":"corp","sf":632,"v":2300}},{"type":"Feature","geometry":{"type":"Point","coordinates":[-79.9382,40.41229]},"properties":{"p":"0056C00221000000","a":"FLOWERS AVE","m":"15th Ward - PITTSBURGH","u":"L","o":"individual","sf":2014,"v":800}},{"type":"Feature","geometry":{"type":"Point","coordinates":[-79.9383,40.41227]},"properties":{"p":"0056C00222000000","a":"385 FLOWERS AVE","m":"15th Ward - PITTSBURGH","u":"L","o":"individual","sf":2393,"v":600}},{"type":"Feature","geometry":{"type":"Point","coordinates":[-79.93846,40.41222]},"properties":{"p":"0056C00224000000","a":"FLOWERS AVE","m":"15th Ward - PITTSBURGH","u":"L","o":"corp","sf":2400,"v":3000}},{"type":"Feature","geometry":{"type":"Point","coordinates":[-79.93854,40.41219]},"properties":{"p":"0056C00225000000","a":"FLOWERS AVE","m":"15th Ward - PITTSBURGH","u":"L","o":"corp","sf":2400,"v":3000}},{"type":"Feature","geometry":{"type":"Point","coordinates":[-79.9386,40.41216]},"properties":{"p":"0056C00226000000","a":"FLOWERS AVE","m":"15th Ward - PITTSBURGH","u":"L","o":"corp","sf":1600,"v":2600}},{"type":"Feature","geometry":{"type":"Point","coordinates":[-79.93865,40.41213]},"properties":{"p":"0056C00227000000","a":"FLOWERS AVE","m":"15th Ward - PITTSBURGH","u":"L","o":"corp","sf":1600,"v":2600}},{"type":"Feature","geometry":{"type":"Point","coordinates":[-79.9387,40.41211]},"properties":{"p":"0056C00228000000","a":"FLOWERS AVE","m":"15th Ward - PITTSBURGH","u":"L","o":"corp","sf":1600,"v":2600}},{"type":"Feature","geometry":{"type":"Point","coordinates":[-79.9339,40.41282]},"properties":{"p":"0056D00238000000","a":"KILBOURNE ST","m":"15th Ward - PITTSBURGH","u":"L","o":"corp","sf":1890,"v":300}},{"type":"Feature","geometry":{"type":"Point","coordinates":[-79.93841,40.41173]},"properties":{"p":"0056C00049000000","a":"FLOWERS AVE","m":"15th Ward - PITTSBURGH","u":"L","o":"corp","sf":1980,"v":2800}},{"type":"Feature","geometry":{"type":"Point","coordinates":[-79.93815,40.41185]},"properties":{"p":"0056C00054000000","a":"FLOWERS AVE","m":"15th Ward - PITTSBURGH","u":"L","o":"corp","sf":1980,"v":2800}},{"type":"Feature","geometry":{"type":"Point","coordinates":[-79.93809,40.41187]},"properties":{"p":"0056C00055000000","a":"FLOWERS AVE","m":"15th Ward - PITTSBURGH","u":"L","o":"corp","sf":1841,"v":500}},{"type":"Feature","geometry":{"type":"Point","coordinates":[-79.93693,40.41215]},"properties":{"p":"0056C00073000000","a":"FLOWERS AVE","m":"15th Ward - PITTSBURGH","u":"L","o":"corp","sf":1600,"v":2600}},{"type":"Feature","geometry":{"type":"Point","coordinates":[-79.937,40.41216]},"properties":{"p":"0056C00074000000","a":"FLOWERS AVE","m":"15th Ward - PITTSBURGH","u":"L","o":"corp","sf":1600,"v":2600}},{"type":"Feature","geometry":{"type":"Point","coordinates":[-79.93478,40.41303]},"properties":{"p":"0056D00121000000","a":"KILBOURNE ST","m":"15th Ward - PITTSBURGH","u":"L","o":"corp","sf":2480,"v":1000}},{"type":"Feature","geometry":{"type":"Point","coordinates":[-79.93557,40.41289]},"properties":{"p":"0056D00132000000","a":"FLOWERS AVE","m":"15th Ward - PITTSBURGH","u":"L","o":"individual","sf":2400,"v":400}},{"type":"Feature","geometry":{"type":"Point","coordinates":[-79.9338,40.41285]},"properties":{"p":"0056D00239000000","a":"KILBOURNE ST","m":"15th Ward - PITTSBURGH","u":"L","o":"corp","sf":3640,"v":1500}},{"type":"Feature","geometry":{"type":"Point","coordinates":[-79.93371,40.41288]},"properties":{"p":"0056D00241000000","a":"KILBOURNE ST","m":"15th Ward - PITTSBURGH","u":"L","o":"corp","sf":1840,"v":700}},{"type":"Feature","geometry":{"type":"Point","coordinates":[-79.93318,40.41307]},"properties":{"p":"0056D00242000000","a":"KILBOURNE ST","m":"15th Ward - PITTSBURGH","u":"L","o":"corp","sf":22704,"v":5600}},{"type":"Feature","geometry":{"type":"Point","coordinates":[-79.9328,40.41286]},"properties":{"p":"0056D00257000000","a":"KINGLAKE ST","m":"15th Ward - PITTSBURGH","u":"L","o":"corp","sf":1900,"v":400}},{"type":"Feature","geometry":{"type":"Point","coordinates":[-79.93291,40.41289]},"properties":{"p":"0056D00258000000","a":"KINGLAKE ST","m":"15th Ward - PITTSBURGH","u":"L","o":"corp","sf":1862,"v":700}},{"type":"Feature","geometry":{"type":"Point","coordinates":[-79.933,40.41283]},"properties":{"p":"0056D00260000000","a":"KINGLAKE ST","m":"15th Ward - PITTSBURGH","u":"L","o":"corp","sf":3684,"v":1500}},{"type":"Feature","geometry":{"type":"Point","coordinates":[-79.9331,40.4128]},"properties":{"p":"0056D00262000000","a":"KINGLAKE ST","m":"15th Ward - PITTSBURGH","u":"L","o":"corp","sf":2200,"v":2900}},{"type":"Feature","geometry":{"type":"Point","coordinates":[-79.93883,40.41205]},"properties":{"p":"0056C00230000000","a":"FLOWERS AVE","m":"15th Ward - PITTSBURGH","u":"L","o":"corp","sf":2400,"v":3000}},{"type":"Feature","geometry":{"type":"Point","coordinates":[-79.93891,40.41621]},"properties":{"p":"0055R00238000000","a":"HAZELWOOD AVE","m":"15th Ward - PITTSBURGH","u":"L","o":"corp","sf":11798,"v":4900}},{"type":"Feature","geometry":{"type":"Point","coordinates":[-79.93433,40.41395]},"properties":{"p":"0055S00029000000","a":"84 CLARION ST","m":"15th Ward - PITTSBURGH","u":"L","o":"individual","sf":6000,"v":4100}},{"type":"Feature","geometry":{"type":"Point","coordinates":[-79.93364,40.41409]},"properties":{"p":"0055S00038000000","a":"CLARION ST","m":"15th Ward - PITTSBURGH","u":"L","o":"individual","sf":2000,"v":500}},{"type":"Feature","geometry":{"type":"Point","coordinates":[-79.93357,40.4141]},"properties":{"p":"0055S00041000000","a":"CLARION ST","m":"15th Ward - PITTSBURGH","u":"L","o":"individual","sf":2000,"v":500}},{"type":"Feature","geometry":{"type":"Point","coordinates":[-79.93771,40.4122]},"properties":{"p":"0056C00079000000","a":"FLOWERS AVE","m":"15th Ward - PITTSBURGH","u":"L","o":"corp","sf":2129,"v":500}},{"type":"Feature","geometry":{"type":"Point","coordinates":[-79.93761,40.41218]},"properties":{"p":"0056C00081000000","a":"FLOWERS AVE","m":"15th Ward - PITTSBURGH","u":"L","o":"corp","sf":1033,"v":400}},{"type":"Feature","geometry":{"type":"Point","coordinates":[-79.93742,40.41223]},"properties":{"p":"0056C00084000000","a":"FLOWERS AVE","m":"15th Ward - PITTSBURGH","u":"L","o":"corp","sf":2067,"v":2800}},{"type":"Feature","geometry":{"type":"Point","coordinates":[-79.93854,40.41369]},"properties":{"p":"0056C00115000000","a":"GIDDINGS ST","m":"15th Ward - PITTSBURGH","u":"L","o":"corp","sf":5520,"v":4100}},{"type":"Feature","geometry":{"type":"Point","coordinates":[-79.93919,40.41189]},"properties":{"p":"0056C00235000000","a":"357 FLOWERS AVE","m":"15th Ward - PITTSBURGH","u":"L","o":"individual","sf":2400,"v":600}},{"type":"Feature","geometry":{"type":"Point","coordinates":[-79.93942,40.41186]},"properties":{"p":"0056C00238000000","a":"FLOWERS AVE","m":"15th Ward - PITTSBURGH","u":"L","o":"corp","sf":2115,"v":2900}},{"type":"Feature","geometry":{"type":"Point","coordinates":[-79.93571,40.41254]},"properties":{"p":"0056D00169000000","a":"KILBOURNE ST","m":"15th Ward - PITTSBURGH","u":"L","o":"corp","sf":1512,"v":2600}},{"type":"Feature","geometry":{"type":"Point","coordinates":[-79.93576,40.41252]},"properties":{"p":"0056D00170000000","a":"KILBOURNE ST","m":"15th Ward - PITTSBURGH","u":"L","o":"corp","sf":1530,"v":2600}},{"type":"Feature","geometry":{"type":"Point","coordinates":[-79.93582,40.4125]},"properties":{"p":"0056D00171000000","a":"KILBOURNE ST","m":"15th Ward - PITTSBURGH","u":"L","o":"corp","sf":1556,"v":2600}},{"type":"Feature","geometry":{"type":"Point","coordinates":[-79.93321,40.41276]},"properties":{"p":"0056D00264000000","a":"KINGLAKE ST","m":"15th Ward - PITTSBURGH","u":"L","o":"corp","sf":3600,"v":3400}},{"type":"Feature","geometry":{"type":"Point","coordinates":[-79.93331,40.41273]},"properties":{"p":"0056D00265000000","a":"KINGLAKE ST","m":"15th Ward - PITTSBURGH","u":"L","o":"corp","sf":1800,"v":700}},{"type":"Feature","geometry":{"type":"Point","coordinates":[-79.93338,40.41271]},"properties":{"p":"0056D00266000000","a":"KINGLAKE ST","m":"15th Ward - PITTSBURGH","u":"L","o":"corp","sf":1800,"v":700}},{"type":"Feature","geometry":{"type":"Point","coordinates":[-79.93358,40.41265]},"properties":{"p":"0056D00271000000","a":"KINGLAKE ST","m":"15th Ward - PITTSBURGH","u":"L","o":"corp","sf":9000,"v":4400}},{"type":"Feature","geometry":{"type":"Point","coordinates":[-79.93378,40.41259]},"properties":{"p":"0056D00272000000","a":"KINGLAKE ST","m":"15th Ward - PITTSBURGH","u":"L","o":"corp","sf":1840,"v":300}},{"type":"Feature","geometry":{"type":"Point","coordinates":[-79.93846,40.41361]},"properties":{"p":"0056C00118000000","a":"GIDDINGS ST","m":"15th Ward - PITTSBURGH","u":"L","o":"corp","sf":2760,"v":1100}},{"type":"Feature","geometry":{"type":"Point","coordinates":[-79.93812,40.41331]},"properties":{"p":"0056C00124000000","a":"GIDDINGS ST","m":"15th Ward - PITTSBURGH","u":"L","o":"individual","sf":2760,"v":1100}},{"type":"Feature","geometry":{"type":"Point","coordinates":[-79.93796,40.41316]},"properties":{"p":"0056C00126000000","a":"4840 GIDDINGS ST","m":"15th Ward - PITTSBURGH","u":"L","o":"individual","sf":8280,"v":2300}},{"type":"Feature","geometry":{"type":"Point","coordinates":[-79.93784,40.41306]},"properties":{"p":"0056C00129000000","a":"GIDDINGS ST","m":"15th Ward - PITTSBURGH","u":"L","o":"individual","sf":2760,"v":1100}},{"type":"Feature","geometry":{"type":"Point","coordinates":[-79.93779,40.413]},"properties":{"p":"0056C00130000000","a":"GIDDINGS ST","m":"15th Ward - PITTSBURGH","u":"L","o":"individual","sf":2760,"v":1100}},{"type":"Feature","geometry":{"type":"Point","coordinates":[-79.93762,40.41285]},"properties":{"p":"0056C00133000000","a":"GIDDINGS ST","m":"15th Ward - PITTSBURGH","u":"L","o":"individual","sf":2760,"v":1100}},{"type":"Feature","geometry":{"type":"Point","coordinates":[-79.93851,40.41251]},"properties":{"p":"0056C00274000000","a":"NANSEN ST","m":"15th Ward - PITTSBURGH","u":"L","o":"corp","sf":2172,"v":2900}},{"type":"Feature","geometry":{"type":"Point","coordinates":[-79.93858,40.41253]},"properties":{"p":"0056C00275000000","a":"NANSEN ST","m":"15th Ward - PITTSBURGH","u":"L","o":"corp","sf":2014,"v":2800}},{"type":"Feature","geometry":{"type":"Point","coordinates":[-79.93866,40.41253]},"properties":{"p":"0056C00276000000","a":"NANSEN ST","m":"15th Ward - PITTSBURGH","u":"L","o":"corp","sf":1920,"v":2800}},{"type":"Feature","geometry":{"type":"Point","coordinates":[-79.93883,40.41269]},"properties":{"p":"0056C00283000000","a":"NANSEN ST","m":"15th Ward - PITTSBURGH","u":"L","o":"corp","sf":2130,"v":900}},{"type":"Feature","geometry":{"type":"Point","coordinates":[-79.93368,40.41437]},"properties":{"p":"0055S00067000000","a":"PRESCOTT ST","m":"15th Ward - PITTSBURGH","u":"L","o":"individual","sf":2000,"v":800}},{"type":"Feature","geometry":{"type":"Point","coordinates":[-79.9339,40.41419]},"properties":{"p":"0055S00072000000","a":"PRESCOTT ST","m":"15th Ward - PITTSBURGH","u":"L","o":"corp","sf":12000,"v":4600}},{"type":"Feature","geometry":{"type":"Point","coordinates":[-79.93408,40.41426]},"properties":{"p":"0055S00073000000","a":"PRESCOTT ST","m":"15th Ward - PITTSBURGH","u":"L","o":"corp","sf":6000,"v":4100}},{"type":"Feature","geometry":{"type":"Point","coordinates":[-79.93419,40.41424]},"properties":{"p":"0055S00074000000","a":"PRESCOTT ST","m":"15th Ward - PITTSBURGH","u":"L","o":"individual","sf":4000,"v":3600}},{"type":"Feature","geometry":{"type":"Point","coordinates":[-79.93412,40.41398]},"properties":{"p":"0055S00075000000","a":"PRESCOTT ST","m":"15th Ward - PITTSBURGH","u":"L","o":"individual","sf":2000,"v":500}},{"type":"Feature","geometry":{"type":"Point","coordinates":[-79.93662,40.41179]},"properties":{"p":"0056D00200000000","a":"NANSEN ST","m":"15th Ward - PITTSBURGH","u":"L","o":"individual","sf":401,"v":2200}},{"type":"Feature","geometry":{"type":"Point","coordinates":[-79.93603,40.41159]},"properties":{"p":"0056D00206000000","a":"450 KILBOURNE ST","m":"15th Ward - PITTSBURGH","u":"L","o":"individual","sf":5994,"v":2100}},{"type":"Feature","geometry":{"type":"Point","coordinates":[-79.93571,40.41186]},"properties":{"p":"0056D00211000000","a":"KILBOURNE ST","m":"15th Ward - PITTSBURGH","u":"L","o":"corp","sf":9744,"v":4400}},{"type":"Feature","geometry":{"type":"Point","coordinates":[-79.93559,40.41196]},"properties":{"p":"0056D00213000000","a":"KILBOURNE ST","m":"15th Ward - PITTSBURGH","u":"L","o":"corp","sf":9504,"v":4400}},{"type":"Feature","geometry":{"type":"Point","coordinates":[-79.93506,40.41405]},"properties":{"p":"0055S00089000000","a":"PRESCOTT ST","m":"15th Ward - PITTSBURGH","u":"L","o":"individual","sf":10000,"v":4500}},{"type":"Feature","geometry":{"type":"Point","coordinates":[-79.93885,40.41411]},"properties":{"p":"0055R00130000000","a":"GIDDINGS ST","m":"15th Ward - PITTSBURGH","u":"L","o":"individual","sf":8098,"v":4300}},{"type":"Feature","geometry":{"type":"Point","coordinates":[-79.9389,40.41275]},"properties":{"p":"0056C00284000000","a":"NANSEN ST","m":"15th Ward - PITTSBURGH","u":"L","o":"corp","sf":1786,"v":700}},{"type":"Feature","geometry":{"type":"Point","coordinates":[-79.93904,40.41296]},"properties":{"p":"0056C00290000000","a":"NANSEN ST","m":"15th Ward - PITTSBURGH","u":"L","o":"individual","sf":1784,"v":400}},{"type":"Feature","geometry":{"type":"Point","coordinates":[-79.93757,40.4128]},"properties":{"p":"0056C00134000000","a":"GIDDINGS ST","m":"15th Ward - PITTSBURGH","u":"L","o":"individual","sf":2760,"v":600}},{"type":"Feature","geometry":{"type":"Point","coordinates":[-79.9373,40.41253]},"properties":{"p":"0056C00139000000","a":"GIDDINGS ST","m":"15th Ward - PITTSBURGH","u":"L","o":"individual","sf":2540,"v":1000}},{"type":"Feature","geometry":{"type":"Point","coordinates":[-79.93569,40.41284]},"properties":{"p":"0056D00134000000","a":"KILBOURNE ST","m":"15th Ward - PITTSBURGH","u":"L","o":"individual","sf":4800,"v":3900}},{"type":"Feature","geometry":{"type":"Point","coordinates":[-79.9358,40.4128]},"properties":{"p":"0056D00135000000","a":"KILBOURNE ST","m":"15th Ward - PITTSBURGH","u":"L","o":"corp","sf":1476,"v":2600}},{"type":"Feature","geometry":{"type":"Point","coordinates":[-79.93934,40.41331]},"properties":{"p":"0056C00296000000","a":"HAZELWOOD AVE","m":"15th Ward - PITTSBURGH","u":"L","o":"corp","sf":5500,"v":4100}},{"type":"Feature","geometry":{"type":"Point","coordinates":[-79.93936,40.4131]},"properties":{"p":"0056C00298000000","a":"HAZELWOOD AVE","m":"15th Ward - PITTSBURGH","u":"L","o":"individual","sf":4800,"v":3900}},{"type":"Feature","geometry":{"type":"Point","coordinates":[-79.93595,40.41273]},"properties":{"p":"0056D00137000000","a":"FLOWERS AVE","m":"15th Ward - PITTSBURGH","u":"L","o":"corp","sf":2400,"v":1000}},{"type":"Feature","geometry":{"type":"Point","coordinates":[-79.93603,40.4127]},"properties":{"p":"0056D00138000000","a":"FLOWERS AVE","m":"15th Ward - PITTSBURGH","u":"L","o":"corp","sf":2400,"v":1000}},{"type":"Feature","geometry":{"type":"Point","coordinates":[-79.93611,40.41267]},"properties":{"p":"0056D00139000000","a":"KILBOURNE ST","m":"15th Ward - PITTSBURGH","u":"L","o":"corp","sf":4020,"v":3600}},{"type":"Feature","geometry":{"type":"Point","coordinates":[-79.93618,40.41263]},"properties":{"p":"0056D00140000000","a":"KILBOURNE ST","m":"15th Ward - PITTSBURGH","u":"L","o":"individual","sf":2400,"v":600}},{"type":"Feature","geometry":{"type":"Point","coordinates":[-79.93622,40.41246]},"properties":{"p":"0056D00142000000","a":"KILBOURNE ST","m":"15th Ward - PITTSBURGH","u":"L","o":"corp","sf":1962,"v":2800}},{"type":"Feature","geometry":{"type":"Point","coordinates":[-79.9382,40.41279]},"properties":{"p":"0056C00211000000","a":"NANSEN ST","m":"15th Ward - PITTSBURGH","u":"L","o":"individual","sf":5760,"v":4100}},{"type":"Feature","geometry":{"type":"Point","coordinates":[-79.93811,40.41271]},"properties":{"p":"0056C00213000000","a":"NANSEN ST","m":"15th Ward - PITTSBURGH","u":"L","o":"corp","sf":2880,"v":3200}},{"type":"Feature","geometry":{"type":"Point","coordinates":[-79.93806,40.41266]},"properties":{"p":"0056C00214000000","a":"NANSEN ST","m":"15th Ward - PITTSBURGH","u":"L","o":"individual","sf":2880,"v":700}},{"type":"Feature","geometry":{"type":"Point","coordinates":[-79.93795,40.41256]},"properties":{"p":"0056C00216000000","a":"NANSEN ST","m":"15th Ward - PITTSBURGH","u":"L","o":"individual","sf":2880,"v":700}},{"type":"Feature","geometry":{"type":"Point","coordinates":[-79.93789,40.41251]},"properties":{"p":"0056C00217000000","a":"NANSEN ST","m":"15th Ward - PITTSBURGH","u":"L","o":"corp","sf":2880,"v":3200}},{"type":"Feature","geometry":{"type":"Point","coordinates":[-79.93784,40.41246]},"properties":{"p":"0056C00218000000","a":"NANSEN ST","m":"15th Ward - PITTSBURGH","u":"L","o":"corp","sf":3000,"v":700}},{"type":"Feature","geometry":{"type":"Point","coordinates":[-79.9342,40.41179]},"properties":{"p":"0056D00321000000","a":"309 EDINGTON ST","m":"15th Ward - PITTSBURGH","u":"L","o":"individual","sf":4740,"v":1900}},{"type":"Feature","geometry":{"type":"Point","coordinates":[-79.93898,40.41146]},"properties":{"p":"0056C00038000000","a":"FLOWERS AVE","m":"15th Ward - PITTSBURGH","u":"L","o":"corp","sf":2162,"v":2900}},{"type":"Feature","geometry":{"type":"Point","coordinates":[-79.93887,40.41152]},"properties":{"p":"0056C00040000000","a":"FLOWERS AVE","m":"15th Ward - PITTSBURGH","u":"L","o":"individual","sf":2170,"v":2900}},{"type":"Feature","geometry":{"type":"Point","coordinates":[-79.93882,40.41155]},"properties":{"p":"0056C00041000000","a":"FLOWERS AVE","m":"15th Ward - PITTSBURGH","u":"L","o":"corp","sf":2177,"v":500}},{"type":"Feature","geometry":{"type":"Point","coordinates":[-79.938,40.41193]},"properties":{"p":"0056C00057000000","a":"FLOWERS AVE","m":"15th Ward - PITTSBURGH","u":"L","o":"individual","sf":6152,"v":4100}},{"type":"Feature","geometry":{"type":"Point","coordinates":[-79.93782,40.41191]},"properties":{"p":"0056C00059000000","a":"NANSEN ST","m":"15th Ward - PITTSBURGH","u":"L","o":"corp","sf":6400,"v":4100}},{"type":"Feature","geometry":{"type":"Point","coordinates":[-79.93766,40.41185]},"properties":{"p":"0056C00062000000","a":"FLOWERS AVE","m":"15th Ward - PITTSBURGH","u":"L","o":"corp","sf":2400,"v":600}},{"type":"Feature","geometry":{"type":"Point","coordinates":[-79.93416,40.41151]},"properties":{"p":"0056D00325000000","a":"EDINGTON ST","m":"15th Ward - PITTSBURGH","u":"L","o":"individual","sf":8843,"v":4400}},{"type":"Feature","geometry":{"type":"Point","coordinates":[-79.93854,40.41167]},"properties":{"p":"0056C00046000000","a":"FLOWERS AVE","m":"15th Ward - PITTSBURGH","u":"L","o":"individual","sf":2072,"v":2800}},{"type":"Feature","geometry":{"type":"Point","coordinates":[-79.93686,40.41231]},"properties":{"p":"0056D00184000000","a":"GIDDINGS ST","m":"15th Ward - PITTSBURGH","u":"L","o":"corp","sf":1434,"v":600}},{"type":"Feature","geometry":{"type":"Point","coordinates":[-79.93679,40.41213]},"properties":{"p":"0056D00186000000","a":"NANSEN ST","m":"15th Ward - PITTSBURGH","u":"L","o":"corp","sf":2355,"v":2900}},{"type":"Feature","geometry":{"type":"Point","coordinates":[-79.93665,40.4121]},"properties":{"p":"0056D00188000000","a":"FLOWERS AVE","m":"15th Ward - PITTSBURGH","u":"L","o":"individual","sf":1711,"v":2700}},{"type":"Feature","geometry":{"type":"Point","coordinates":[-79.93686,40.41214]},"properties":{"p":"0056D00195000000","a":"FLOWERS AVE","m":"15th Ward - PITTSBURGH","u":"L","o":"corp","sf":1600,"v":2600}},{"type":"Feature","geometry":{"type":"Point","coordinates":[-79.93909,40.41141]},"properties":{"p":"0056G00013000000","a":"FLOWERS AVE","m":"15th Ward - PITTSBURGH","u":"L","o":"individual","sf":2160,"v":900}},{"type":"Feature","geometry":{"type":"Point","coordinates":[-79.93914,40.41139]},"properties":{"p":"0056G00014000000","a":"FLOWERS AVE","m":"15th Ward - PITTSBURGH","u":"L","o":"corp","sf":2160,"v":500}},{"type":"Feature","geometry":{"type":"Point","coordinates":[-79.93366,40.42244]},"properties":{"p":"0055D00299000000","a":"FRANK ST","m":"15th Ward - PITTSBURGH","u":"L","o":"individual","sf":2000,"v":9000}},{"type":"Feature","geometry":{"type":"Point","coordinates":[-79.93429,40.42204]},"properties":{"p":"0055D00209000000","a":"MILLINGTON RD","m":"15th Ward - PITTSBURGH","u":"L","o":"individual","sf":300,"v":200}},{"type":"Feature","geometry":{"type":"Point","coordinates":[-79.93317,40.41423]},"properties":{"p":"0055S00046000000","a":"CLARION ST","m":"15th Ward - PITTSBURGH","u":"L","o":"individual","sf":4000,"v":3600}},{"type":"Feature","geometry":{"type":"Point","coordinates":[-79.93287,40.41419]},"properties":{"p":"0055S00050000000","a":"TESLA ST","m":"15th Ward - PITTSBURGH","u":"L","o":"individual","sf":3772,"v":3500}},{"type":"Feature","geometry":{"type":"Point","coordinates":[-79.93299,40.41442]},"properties":{"p":"0055S00054000000","a":"TESLA ST","m":"15th Ward - PITTSBURGH","u":"L","o":"individual","sf":1558,"v":400}},{"type":"Feature","geometry":{"type":"Point","coordinates":[-79.9332,40.41449]},"properties":{"p":"0055S00060000000","a":"PRESCOTT ST","m":"15th Ward - PITTSBURGH","u":"L","o":"individual","sf":2000,"v":800}},{"type":"Feature","geometry":{"type":"Point","coordinates":[-79.9333,40.41445]},"properties":{"p":"0055S00062000000","a":"PRESCOTT ST","m":"15th Ward - PITTSBURGH","u":"L","o":"individual","sf":4000,"v":3600}},{"type":"Feature","geometry":{"type":"Point","coordinates":[-79.93947,40.41125]},"properties":{"p":"0056G00019000000","a":"FLOWERS AVE","m":"15th Ward - PITTSBURGH","u":"L","o":"corp","sf":2880,"v":700}},{"type":"Feature","geometry":{"type":"Point","coordinates":[-79.93954,40.41121]},"properties":{"p":"0056G00020000000","a":"FLOWERS AVE","m":"15th Ward - PITTSBURGH","u":"L","o":"corp","sf":2880,"v":700}},{"type":"Feature","geometry":{"type":"Point","coordinates":[-79.93984,40.41108]},"properties":{"p":"0056G00024000000","a":"FLOWERS AVE","m":"15th Ward - PITTSBURGH","u":"L","o":"individual","sf":2880,"v":3200}},{"type":"Feature","geometry":{"type":"Point","coordinates":[-79.93992,40.41105]},"properties":{"p":"0056G00025000000","a":"FLOWERS AVE","m":"15th Ward - PITTSBURGH","u":"L","o":"corp","sf":2880,"v":3200}},{"type":"Feature","geometry":{"type":"Point","coordinates":[-79.93404,40.41608]},"properties":{"p":"0055S00218000000","a":"560 BLACKSTONE ST","m":"15th Ward - PITTSBURGH","u":"L","o":"individual","sf":4550,"v":20500}},{"type":"Feature","geometry":{"type":"Point","coordinates":[-79.93488,40.41136]},"properties":{"p":"0056H00115000000","a":"EDINGTON ST","m":"15th Ward - PITTSBURGH","u":"L","o":"corp","sf":9000,"v":4400}},{"type":"Feature","geometry":{"type":"Point","coordinates":[-79.93419,40.41137]},"properties":{"p":"0056H00120000000","a":"EDINGTON ST","m":"15th Ward - PITTSBURGH","u":"L","o":"individual","sf":3132,"v":1300}},{"type":"Feature","geometry":{"type":"Point","coordinates":[-79.93425,40.41121]},"properties":{"p":"0056H00122000000","a":"EDINGTON ST","m":"15th Ward - PITTSBURGH","u":"L","o":"individual","sf":5364,"v":4000}},{"type":"Feature","geometry":{"type":"Point","coordinates":[-79.93386,40.41119]},"properties":{"p":"0056H00126000000","a":"300 EDINGTON ST","m":"15th Ward - PITTSBURGH","u":"L","o":"individual","sf":4012,"v":1600}},{"type":"Feature","geometry":{"type":"Point","coordinates":[-79.93402,40.41123]},"properties":{"p":"0056H00136000000","a":"LONGVIEW ST","m":"15th Ward - PITTSBURGH","u":"L","o":"individual","sf":3392,"v":3400}},{"type":"Feature","geometry":{"type":"Point","coordinates":[-79.93407,40.41346]},"properties":{"p":"0056D00077000000","a":"FLOWERS AVE","m":"15th Ward - PITTSBURGH","u":"L","o":"individual","sf":2728,"v":3100}},{"type":"Feature","geometry":{"type":"Point","coordinates":[-79.93389,40.41349]},"properties":{"p":"0056D00080000000","a":"FLOWERS AVE","m":"15th Ward - PITTSBURGH","u":"L","o":"individual","sf":1380,"v":2600}},{"type":"Feature","geometry":{"type":"Point","coordinates":[-79.93613,40.41556]},"properties":{"p":"0055S00250000000","a":"BLACKSTONE ST","m":"15th Ward - PITTSBURGH","u":"L","o":"individual","sf":6000,"v":30400}},{"type":"Feature","geometry":{"type":"Point","coordinates":[-79.9357,40.41594]},"properties":{"p":"0055S00259000000","a":"535 BLACKSTONE ST","m":"15th Ward - PITTSBURGH","u":"L","o":"individual","sf":1219,"v":5500}},{"type":"Feature","geometry":{"type":"Point","coordinates":[-79.93572,40.416]},"properties":{"p":"0055S00261000000","a":"535 BLACKSTONE ST","m":"15th Ward - PITTSBURGH","u":"L","o":"individual","sf":2300,"v":1000}},{"type":"Feature","geometry":{"type":"Point","coordinates":[-79.93589,40.41627]},"properties":{"p":"0055S00267000000","a":"BLACKSTONE ST","m":"15th Ward - PITTSBURGH","u":"L","o":"individual","sf":7988,"v":22800}},{"type":"Feature","geometry":{"type":"Point","coordinates":[-79.93517,40.41375]},"properties":{"p":"0056D00035000000","a":"CLARION ST","m":"15th Ward - PITTSBURGH","u":"L","o":"individual","sf":24000,"v":5700}},{"type":"Feature","geometry":{"type":"Point","coordinates":[-79.93456,40.41346]},"properties":{"p":"0056D00052000000","a":"CLARION ST","m":"15th Ward - PITTSBURGH","u":"L","o":"individual","sf":2140,"v":2900}},{"type":"Feature","geometry":{"type":"Point","coordinates":[-79.93382,40.41367]},"properties":{"p":"0056D00065000000","a":"CLARION ST","m":"15th Ward - PITTSBURGH","u":"L","o":"individual","sf":2330,"v":900}},{"type":"Feature","geometry":{"type":"Point","coordinates":[-79.9334,40.41374]},"properties":{"p":"0056D00069000000","a":"CLARION ST","m":"15th Ward - PITTSBURGH","u":"L","o":"individual","sf":2000,"v":800}},{"type":"Feature","geometry":{"type":"Point","coordinates":[-79.93864,40.41018]},"properties":{"p":"0056G00247000000","a":"ODIN ST","m":"15th Ward - PITTSBURGH","u":"L","o":"individual","sf":2400,"v":1000}},{"type":"Feature","geometry":{"type":"Point","coordinates":[-79.93868,40.41027]},"properties":{"p":"0056G00249000000","a":"AMPERE ST","m":"15th Ward - PITTSBURGH","u":"L","o":"individual","sf":4800,"v":3900}},{"type":"Feature","geometry":{"type":"Point","coordinates":[-79.93429,40.41601]},"properties":{"p":"0055S00221000000","a":"246 BLACKSTONE ST","m":"15th Ward - PITTSBURGH","u":"L","o":"individual","sf":2000,"v":800}},{"type":"Feature","geometry":{"type":"Point","coordinates":[-79.93439,40.41599]},"properties":{"p":"0055S00223000000","a":"246 BLACKSTONE ST","m":"15th Ward - PITTSBURGH","u":"L","o":"corp","sf":4000,"v":18000}},{"type":"Feature","geometry":{"type":"Point","coordinates":[-79.93504,40.41583]},"properties":{"p":"0055S00232000000","a":"BLACKSTONE ST","m":"15th Ward - PITTSBURGH","u":"L","o":"individual","sf":2000,"v":2500}},{"type":"Feature","geometry":{"type":"Point","coordinates":[-79.93552,40.41571]},"properties":{"p":"0055S00246000000","a":"BLACKSTONE ST","m":"15th Ward - PITTSBURGH","u":"L","o":"individual","sf":26000,"v":2500}},{"type":"Feature","geometry":{"type":"Point","coordinates":[-79.9378,40.41154]},"properties":{"p":"0056C00005000000","a":"KILBOURNE ST","m":"15th Ward - PITTSBURGH","u":"L","o":"corp","sf":3016,"v":1200}},{"type":"Feature","geometry":{"type":"Point","coordinates":[-79.93772,40.41154]},"properties":{"p":"0056C00006000000","a":"KILBOURNE ST","m":"15th Ward - PITTSBURGH","u":"L","o":"corp","sf":1632,"v":700}},{"type":"Feature","geometry":{"type":"Point","coordinates":[-79.93763,40.41154]},"properties":{"p":"0056C00007000000","a":"KILBOURNE ST","m":"15th Ward - PITTSBURGH","u":"L","o":"corp","sf":1404,"v":600}},{"type":"Feature","geometry":{"type":"Point","coordinates":[-79.93749,40.41155]},"properties":{"p":"0056C00008000000","a":"KILBOURNE ST","m":"15th Ward - PITTSBURGH","u":"L","o":"corp","sf":3439,"v":3400}},{"type":"Feature","geometry":{"type":"Point","coordinates":[-79.93309,40.41391]},"properties":{"p":"0056D00091000000","a":"CLARION ST","m":"15th Ward - PITTSBURGH","u":"L","o":"individual","sf":1900,"v":800}},{"type":"Feature","geometry":{"type":"Point","coordinates":[-79.93278,40.4137]},"properties":{"p":"0056D00097000000","a":"KILBOURNE ST","m":"15th Ward - PITTSBURGH","u":"L","o":"individual","sf":4371,"v":900}},{"type":"Feature","geometry":{"type":"Point","coordinates":[-79.933,40.41363]},"properties":{"p":"0056D00101000000","a":"KILBOURNE ST","m":"15th Ward - PITTSBURGH","u":"L","o":"individual","sf":7055,"v":1400}},{"type":"Feature","geometry":{"type":"Point","coordinates":[-79.93725,40.41125]},"properties":{"p":"0056G00307000000","a":"KILBOURNE ST","m":"15th Ward - PITTSBURGH","u":"L","o":"individual","sf":4272,"v":3700}},{"type":"Feature","geometry":{"type":"Point","coordinates":[-79.93713,40.41126]},"properties":{"p":"0056G00309000000","a":"KILBOURNE ST","m":"15th Ward - PITTSBURGH","u":"L","o":"individual","sf":2400,"v":1000}},{"type":"Feature","geometry":{"type":"Point","coordinates":[-79.93696,40.4113]},"properties":{"p":"0056G00310000000","a":"KILBOURNE ST","m":"15th Ward - PITTSBURGH","u":"L","o":"corp","sf":7200,"v":4200}},{"type":"Feature","geometry":{"type":"Point","coordinates":[-79.93295,40.42211]},"properties":{"p":"0055D00281000000","a":"MELBOURNE ST","m":"15th Ward - PITTSBURGH","u":"L","o":"individual","sf":1800,"v":8100}},{"type":"Feature","geometry":{"type":"Point","coordinates":[-79.93313,40.41167]},"properties":{"p":"0056D00392000000","a":"MANITOBA ST","m":"15th Ward - PITTSBURGH","u":"L","o":"corp","sf":1221,"v":300}},{"type":"Feature","geometry":{"type":"Point","coordinates":[-79.93402,40.42258]},"properties":{"p":"0055D00195000000","a":"MILLINGTON RD","m":"15th Ward - PITTSBURGH","u":"L","o":"individual","sf":716,"v":3200}},{"type":"Feature","geometry":{"type":"Point","coordinates":[-79.93406,40.42242]},"properties":{"p":"0055D00196000000","a":"MILLINGTON RD","m":"15th Ward - PITTSBURGH","u":"L","o":"individual","sf":1454,"v":6500}},{"type":"Feature","geometry":{"type":"Point","coordinates":[-79.93091,40.42051]},"properties":{"p":"0088E00090000000","a":"EXETER ST","m":"15th Ward - PITTSBURGH","u":"L","o":"individual","sf":2250,"v":900}},{"type":"Feature","geometry":{"type":"Point","coordinates":[-79.9311,40.42048]},"properties":{"p":"0088E00093000000","a":"28 EXETER ST","m":"15th Ward - PITTSBURGH","u":"L","o":"individual","sf":3375,"v":37700}},{"type":"Feature","geometry":{"type":"Point","coordinates":[-79.93134,40.42046]},"properties":{"p":"0088E00096000000","a":"EXETER ST","m":"15th Ward - PITTSBURGH","u":"L","o":"individual","sf":2311,"v":5200}},{"type":"Feature","geometry":{"type":"Point","coordinates":[-79.93203,40.42766]},"properties":{"p":"0087J00109000000","a":"933 FLEMINGTON ST","m":"15th Ward - PITTSBURGH","u":"L","o":"individual","sf":3580,"v":38600}},{"type":"Feature","geometry":{"type":"Point","coordinates":[-79.93275,40.41403]},"properties":{"p":"0088N00001000000","a":"TESLA ST","m":"15th Ward - PITTSBURGH","u":"L","o":"individual","sf":1660,"v":400}},{"type":"Feature","geometry":{"type":"Point","coordinates":[-79.9327,40.41396]},"properties":{"p":"0088N00002000000","a":"TESLA ST","m":"15th Ward - PITTSBURGH","u":"L","o":"individual","sf":2760,"v":600}},{"type":"Feature","geometry":{"type":"Point","coordinates":[-79.93264,40.41385]},"properties":{"p":"0088N00004000000","a":"TESLA ST","m":"15th Ward - PITTSBURGH","u":"L","o":"individual","sf":2296,"v":500}},{"type":"Feature","geometry":{"type":"Point","coordinates":[-79.92478,40.41503]},"properties":{"p":"0088P00032000000","a":"BROWNS HILL RD","m":"15th Ward - PITTSBURGH","u":"L","o":"corp","sf":4797,"v":2000}},{"type":"Feature","geometry":{"type":"Point","coordinates":[-79.93155,40.41167]},"properties":{"p":"0089A00121000000","a":"MANITOBA ST","m":"15th Ward - PITTSBURGH","u":"L","o":"corp","sf":3600,"v":3400}},{"type":"Feature","geometry":{"type":"Point","coordinates":[-79.93193,40.41159]},"properties":{"p":"0089A00127000000","a":"MANITOBA ST","m":"15th Ward - PITTSBURGH","u":"L","o":"corp","sf":1800,"v":700}},{"type":"Feature","geometry":{"type":"Point","coordinates":[-79.93227,40.42182]},"properties":{"p":"0088A00112000000","a":"740 MELBOURNE ST","m":"15th Ward - PITTSBURGH","u":"L","o":"individual","sf":2250,"v":10100}},{"type":"Feature","geometry":{"type":"Point","coordinates":[-79.93277,40.42232]},"properties":{"p":"0088A00122000000","a":"NORFOLK ST","m":"15th Ward - PITTSBURGH","u":"L","o":"individual","sf":1278,"v":5800}},{"type":"Feature","geometry":{"type":"Point","coordinates":[-79.9322,40.42094]},"properties":{"p":"0088E00026000000","a":"MONTCLAIR ST","m":"15th Ward - PITTSBURGH","u":"L","o":"individual","sf":1800,"v":30600}},{"type":"Feature","geometry":{"type":"Point","coordinates":[-79.93274,40.41297]},"properties":{"p":"0089A00016000000","a":"KINGLAKE ST","m":"15th Ward - PITTSBURGH","u":"L","o":"corp","sf":5688,"v":4100}},{"type":"Feature","geometry":{"type":"Point","coordinates":[-79.93262,40.413]},"properties":{"p":"0089A00020000000","a":"KINGLAKE ST","m":"15th Ward - PITTSBURGH","u":"L","o":"corp","sf":1900,"v":2800}},{"type":"Feature","geometry":{"type":"Point","coordinates":[-79.93255,40.41303]},"properties":{"p":"0089A00021000000","a":"KINGLAKE ST","m":"15th Ward - PITTSBURGH","u":"L","o":"corp","sf":1920,"v":2800}},{"type":"Feature","geometry":{"type":"Point","coordinates":[-79.93249,40.41305]},"properties":{"p":"0089A00022000000","a":"KINGLAKE ST","m":"15th Ward - PITTSBURGH","u":"L","o":"corp","sf":1900,"v":2800}},{"type":"Feature","geometry":{"type":"Point","coordinates":[-79.92209,40.41246]},"properties":{"p":"0089C00177000000","a":"DESDEMONA ST","m":"15th Ward - PITTSBURGH","u":"L","o":"individual","sf":4364,"v":15590}},{"type":"Feature","geometry":{"type":"Point","coordinates":[-79.92169,40.41211]},"properties":{"p":"0089C00202000000","a":"4650 DESDEMONA ST","m":"15th Ward - PITTSBURGH","u":"L","o":"individual","sf":3973,"v":1700}},{"type":"Feature","geometry":{"type":"Point","coordinates":[-79.93199,40.42226]},"properties":{"p":"0088A00131000000","a":"MELBOURNE ST","m":"15th Ward - PITTSBURGH","u":"L","o":"individual","sf":2250,"v":900}},{"type":"Feature","geometry":{"type":"Point","coordinates":[-79.93155,40.42253]},"properties":{"p":"0088A00145000000","a":"DEELY ST","m":"15th Ward - PITTSBURGH","u":"L","o":"individual","sf":1452,"v":600}},{"type":"Feature","geometry":{"type":"Point","coordinates":[-79.93167,40.42251]},"properties":{"p":"0088A00146000000","a":"DEELY ST","m":"15th Ward - PITTSBURGH","u":"L","o":"individual","sf":1372,"v":6200}},{"type":"Feature","geometry":{"type":"Point","coordinates":[-79.93174,40.42251]},"properties":{"p":"0088A00147000000","a":"DEELY ST","m":"15th Ward - PITTSBURGH","u":"L","o":"individual","sf":1575,"v":7100}},{"type":"Feature","geometry":{"type":"Point","coordinates":[-79.93101,40.41153]},"properties":{"p":"0089A00149000000","a":"BOLTON ST","m":"15th Ward - PITTSBURGH","u":"L","o":"corp","sf":5481,"v":4000}},{"type":"Feature","geometry":{"type":"Point","coordinates":[-79.93246,40.42049]},"properties":{"p":"0088E00040000000","a":"MONTCLAIR ST","m":"15th Ward - PITTSBURGH","u":"L","o":"individual","sf":2575,"v":3000}},{"type":"Feature","geometry":{"type":"Point","coordinates":[-79.93178,40.42066]},"properties":{"p":"0088E00049000000","a":"MONTCLAIR ST","m":"15th Ward - PITTSBURGH","u":"L","o":"individual","sf":1475,"v":600}},{"type":"Feature","geometry":{"type":"Point","coordinates":[-79.9316,40.42324]},"properties":{"p":"0088A00234000000","a":"954 GREENFIELD AVE","m":"15th Ward - PITTSBURGH","u":"L","o":"individual","sf":2500,"v":11300}},{"type":"Feature","geometry":{"type":"Point","coordinates":[-79.92919,40.4206]},"properties":{"p":"0088E00347000000","a":"1135 GREENFIELD AVE","m":"15th Ward - PITTSBURGH","u":"L","o":"corp","sf":3273,"v":37200}},{"type":"Feature","geometry":{"type":"Point","coordinates":[-79.93007,40.42184]},"properties":{"p":"0088A00081000000","a":"GREENFIELD AVE","m":"15th Ward - PITTSBURGH","u":"L","o":"individual","sf":3000,"v":1200}},{"type":"Feature","geometry":{"type":"Point","coordinates":[-79.93114,40.42397]},"properties":{"p":"0087N00045000000","a":"DELEVAN ST","m":"15th Ward - PITTSBURGH","u":"L","o":"individual","sf":1373,"v":28700}},{"type":"Feature","geometry":{"type":"Point","coordinates":[-79.92284,40.41287]},"properties":{"p":"0089C00090000000","a":"DESDEMONA ST","m":"15th Ward - PITTSBURGH","u":"L","o":"individual","sf":7357,"v":60300}},{"type":"Feature","geometry":{"type":"Point","coordinates":[-79.92231,40.4129]},"properties":{"p":"0089C00151000000","a":"DESDEMONA ST","m":"15th Ward - PITTSBURGH","u":"L","o":"corp","sf":3600,"v":12850}},{"type":"Feature","geometry":{"type":"Point","coordinates":[-79.92235,40.41279]},"properties":{"p":"0089C00153000000","a":"DESDEMONA ST","m":"15th Ward - PITTSBURGH","u":"L","o":"corp","sf":3600,"v":12850}},{"type":"Feature","geometry":{"type":"Point","coordinates":[-79.92248,40.4124]},"properties":{"p":"0089C00159000000","a":"DESDEMONA ST","m":"15th Ward - PITTSBURGH","u":"L","o":"individual","sf":7200,"v":25700}},{"type":"Feature","geometry":{"type":"Point","coordinates":[-79.92256,40.41218]},"properties":{"p":"0089C00162000000","a":"DESDEMONA ST","m":"15th Ward - PITTSBURGH","u":"L","o":"individual","sf":7200,"v":22700}},{"type":"Feature","geometry":{"type":"Point","coordinates":[-79.9287,40.42691]},"properties":{"p":"0087J00143000000","a":"FLEMINGTON ST","m":"15th Ward - PITTSBURGH","u":"L","o":"individual","sf":2730,"v":12300}},{"type":"Feature","geometry":{"type":"Point","coordinates":[-79.92281,40.41116]},"properties":{"p":"0089C00325000000","a":"DESDEMONA ST","m":"15th Ward - PITTSBURGH","u":"L","o":"individual","sf":99752,"v":10000}},{"type":"Feature","geometry":{"type":"Point","coordinates":[-79.93185,40.41136]},"properties":{"p":"0089E00013000000","a":"BOLTON ST","m":"15th Ward - PITTSBURGH","u":"L","o":"individual","sf":9000,"v":2400}},{"type":"Feature","geometry":{"type":"Point","coordinates":[-79.9328,40.42335]},"properties":{"p":"0088A00172000000","a":"923 DEELY ST","m":"15th Ward - PITTSBURGH","u":"L","o":"individual","sf":2250,"v":900}},{"type":"Feature","geometry":{"type":"Point","coordinates":[-79.93155,40.41961]},"properties":{"p":"0088E00203000000","a":"724 HAZELWOOD AVE","m":"15th Ward - PITTSBURGH","u":"L","o":"corp","sf":10359,"v":3900}},{"type":"Feature","geometry":{"type":"Point","coordinates":[-79.93106,40.41889]},"properties":{"p":"0088E00225000000","a":"BRAY ST","m":"15th Ward - PITTSBURGH","u":"L","o":"corp","sf":1784,"v":2000}},{"type":"Feature","geometry":{"type":"Point","coordinates":[-79.93036,40.42085]},"properties":{"p":"0088E00066000000","a":"MONTCLAIR ST","m":"15th Ward - PITTSBURGH","u":"L","o":"individual","sf":2250,"v":3300}},{"type":"Feature","geometry":{"type":"Point","coordinates":[-79.92709,40.42639]},"properties":{"p":"0087K00302000000","a":"BEECHWOOD BLVD","m":"15th Ward - PITTSBURGH","u":"L","o":"corp","sf":14600,"v":61300}},{"type":"Feature","geometry":{"type":"Point","coordinates":[-79.93059,40.4189]},"properties":{"p":"0088E00230000000","a":"BRAY ST","m":"15th Ward - PITTSBURGH","u":"L","o":"corp","sf":23653,"v":8000}},{"type":"Feature","geometry":{"type":"Point","coordinates":[-79.92961,40.41918]},"properties":{"p":"0088E00248000000","a":"BRAY ST","m":"15th Ward - PITTSBURGH","u":"L","o":"individual","sf":8978,"v":45400}},{"type":"Feature","geometry":{"type":"Point","coordinates":[-79.9324,40.4131]},"properties":{"p":"0089A00023000000","a":"KINGLAKE ST","m":"15th Ward - PITTSBURGH","u":"L","o":"corp","sf":3920,"v":3600}},{"type":"Feature","geometry":{"type":"Point","coordinates":[-79.93218,40.41319]},"properties":{"p":"0089A00027000000","a":"KINGLAKE ST","m":"15th Ward - PITTSBURGH","u":"L","o":"corp","sf":2000,"v":2800}},{"type":"Feature","geometry":{"type":"Point","coordinates":[-79.9321,40.41323]},"properties":{"p":"0089A00028000000","a":"KINGLAKE ST","m":"15th Ward - PITTSBURGH","u":"L","o":"corp","sf":1850,"v":2700}},{"type":"Feature","geometry":{"type":"Point","coordinates":[-79.92987,40.4192]},"properties":{"p":"0088E00250000000","a":"BRAY ST","m":"15th Ward - PITTSBURGH","u":"L","o":"individual","sf":6103,"v":45100}},{"type":"Feature","geometry":{"type":"Point","coordinates":[-79.93016,40.41921]},"properties":{"p":"0088E00256000000","a":"BRAY ST","m":"15th Ward - PITTSBURGH","u":"L","o":"corp","sf":10000,"v":4000}},{"type":"Feature","geometry":{"type":"Point","coordinates":[-79.93042,40.41923]},"properties":{"p":"0088E00258000000","a":"BRAY ST","m":"15th Ward - PITTSBURGH","u":"L","o":"individual","sf":4000,"v":1600}},{"type":"Feature","geometry":{"type":"Point","coordinates":[-79.93089,40.41925]},"properties":{"p":"0088E00265000000","a":"BRAY ST","m":"15th Ward - PITTSBURGH","u":"L","o":"individual","sf":2000,"v":9000}},{"type":"Feature","geometry":{"type":"Point","coordinates":[-79.93096,40.41926]},"properties":{"p":"0088E00266000000","a":"BRAY ST","m":"15th Ward - PITTSBURGH","u":"L","o":"individual","sf":2000,"v":9000}},{"type":"Feature","geometry":{"type":"Point","coordinates":[-79.93129,40.41927]},"properties":{"p":"0088E00272000000","a":"BRAY ST","m":"15th Ward - PITTSBURGH","u":"L","o":"corp","sf":4761,"v":21400}},{"type":"Feature","geometry":{"type":"Point","coordinates":[-79.93218,40.42665]},"properties":{"p":"0087J00280000000","a":"MIRROR ST","m":"15th Ward - PITTSBURGH","u":"L","o":"corp","sf":1617,"v":7300}},{"type":"Feature","geometry":{"type":"Point","coordinates":[-79.93178,40.42637]},"properties":{"p":"0087J00289000000","a":"911 WELFER ST","m":"15th Ward - PITTSBURGH","u":"L","o":"individual","sf":5350,"v":22500}},{"type":"Feature","geometry":{"type":"Point","coordinates":[-79.93162,40.42631]},"properties":{"p":"0087J00291000000","a":"931 WELFER ST","m":"15th Ward - PITTSBURGH","u":"L","o":"individual","sf":2941,"v":1200}},{"type":"Feature","geometry":{"type":"Point","coordinates":[-79.92943,40.42551]},"properties":{"p":"0087N00221000000","a":"WELFER ST","m":"15th Ward - PITTSBURGH","u":"L","o":"individual","sf":1785,"v":800}},{"type":"Feature","geometry":{"type":"Point","coordinates":[-79.93726,40.4118]},"properties":{"p":"0056C00068000000","a":"FLOWERS AVE","m":"15th Ward - PITTSBURGH","u":"L","o":"corp","sf":1800,"v":2700}},{"type":"Feature","geometry":{"type":"Point","coordinates":[-79.93438,40.41348]},"properties":{"p":"0056D00054000000","a":"CLARION ST","m":"15th Ward - PITTSBURGH","u":"L","o":"individual","sf":4718,"v":3900}},{"type":"Feature","geometry":{"type":"Point","coordinates":[-79.93455,40.41775]},"properties":{"p":"0055M00249000000","a":"HARLEM ST","m":"15th Ward - PITTSBURGH","u":"L","o":"individual","sf":6000,"v":2300}},{"type":"Feature","geometry":{"type":"Point","coordinates":[-79.93265,40.42084]},"properties":{"p":"0088E00032000000","a":"MONTCLAIR ST","m":"15th Ward - PITTSBURGH","u":"L","o":"individual","sf":1300,"v":5900}},{"type":"Feature","geometry":{"type":"Point","coordinates":[-79.92469,40.41757]},"properties":{"p":"0088K00006000000","a":"SALINE ST","m":"14th Ward - PITTSBURGH","u":"L","o":"corp","sf":7500,"v":5300}},{"type":"Feature","geometry":{"type":"Point","coordinates":[-79.92995,40.42001]},"properties":{"p":"0088E00155000000","a":"HAZELWOOD AVE","m":"15th Ward - PITTSBURGH","u":"L","o":"individual","sf":2781,"v":1100}},{"type":"Feature","geometry":{"type":"Point","coordinates":[-79.93593,40.41244]},"properties":{"p":"0056D00173000000","a":"KILBOURNE ST","m":"15th Ward - PITTSBURGH","u":"L","o":"individual","sf":1017,"v":300}},{"type":"Feature","geometry":{"type":"Point","coordinates":[-79.92509,40.42589]},"properties":{"p":"0087P00216000000","a":"MONITOR ST","m":"14th Ward - PITTSBURGH","u":"L","o":"individual","sf":2477,"v":10000}},{"type":"Feature","geometry":{"type":"Point","coordinates":[-79.9376,40.41817]},"properties":{"p":"0055L00223000000","a":"EMAHLEA ST","m":"15th Ward - PITTSBURGH","u":"L","o":"individual","sf":12000,"v":23200}},{"type":"Feature","geometry":{"type":"Point","coordinates":[-79.93551,40.41291]},"properties":{"p":"0056D00131000000","a":"FOLSON ST","m":"15th Ward - PITTSBURGH","u":"L","o":"individual","sf":4800,"v":1900}},{"type":"Feature","geometry":{"type":"Point","coordinates":[-79.93537,40.42239]},"properties":{"p":"0055D00127000000","a":"4153 BEEHNER RD","m":"15th Ward - PITTSBURGH","u":"L","o":"individual","sf":3000,"v":13500}},{"type":"Feature","geometry":{"type":"Point","coordinates":[-79.93678,40.41711]},"properties":{"p":"0055M00108000000","a":"ELYRIA WAY","m":"15th Ward - PITTSBURGH","u":"L","o":"individual","sf":4089,"v":18400}},{"type":"Feature","geometry":{"type":"Point","coordinates":[-79.93508,40.41856]},"properties":{"p":"0055M00152000000","a":"HAZELWOOD AVE","m":"15th Ward - PITTSBURGH","u":"L","o":"individual","sf":1462,"v":600}},{"type":"Feature","geometry":{"type":"Point","coordinates":[-79.93874,40.4126]},"properties":{"p":"0056C00278000000","a":"NANSEN ST","m":"15th Ward - PITTSBURGH","u":"L","o":"individual","sf":2880,"v":500}},{"type":"Feature","geometry":{"type":"Point","coordinates":[-79.92117,40.42136]},"properties":{"p":"0088C00273000000","a":"BIRCHWOOD AVE","m":"14th Ward - PITTSBURGH","u":"L","o":"individual","sf":1120,"v":11200}},{"type":"Feature","geometry":{"type":"Point","coordinates":[-79.93618,40.4125]},"properties":{"p":"0056D00141000000","a":"KILBOURNE ST","m":"15th Ward - PITTSBURGH","u":"L","o":"corp","sf":1872,"v":2800}},{"type":"Feature","geometry":{"type":"Point","coordinates":[-79.93414,40.41362]},"properties":{"p":"0056D00058000000","a":"CLARION ST","m":"15th Ward - PITTSBURGH","u":"L","o":"individual","sf":2497,"v":600}},{"type":"Feature","geometry":{"type":"Point","coordinates":[-79.93789,40.41152]},"properties":{"p":"0056C00004000000","a":"KILBOURNE ST","m":"15th Ward - PITTSBURGH","u":"L","o":"corp","sf":2905,"v":3200}},{"type":"Feature","geometry":{"type":"Point","coordinates":[-79.93431,40.41314]},"properties":{"p":"0056D00117000000","a":"KILBOURNE ST","m":"15th Ward - PITTSBURGH","u":"L","o":"individual","sf":12463,"v":4700}},{"type":"Feature","geometry":{"type":"Point","coordinates":[-79.93138,40.4117]},"properties":{"p":"0089A00118000000","a":"MANITOBA ST","m":"15th Ward - PITTSBURGH","u":"L","o":"corp","sf":1800,"v":2700}},{"type":"Feature","geometry":{"type":"Point","coordinates":[-79.92397,40.41437]},"properties":{"p":"0088R00260000000","a":"BROWNS HILL RD","m":"15th Ward - PITTSBURGH","u":"L","o":"individual","sf":35970,"v":12000}},{"type":"Feature","geometry":{"type":"Point","coordinates":[-79.93117,40.41927]},"properties":{"p":"0088E00270000000","a":"BRAY ST","m":"15th Ward - PITTSBURGH","u":"L","o":"corp","sf":2000,"v":9000}},{"type":"Feature","geometry":{"type":"Point","coordinates":[-79.93625,40.41881]},"properties":{"p":"0055H00296000000","a":"619 HAZELWOOD AVE","m":"15th Ward - PITTSBURGH","u":"L","o":"corp","sf":3036,"v":3000}},{"type":"Feature","geometry":{"type":"Point","coordinates":[-79.93912,40.42205]},"properties":{"p":"0055C00249000000","a":"MINNESOTA ST","m":"15th Ward - PITTSBURGH","u":"L","o":"individual","sf":6000,"v":20000}},{"type":"Feature","geometry":{"type":"Point","coordinates":[-79.93493,40.41741]},"properties":{"p":"0055M00257000000","a":"HARLEM ST","m":"15th Ward - PITTSBURGH","u":"L","o":"individual","sf":7200,"v":2800}},{"type":"Feature","geometry":{"type":"Point","coordinates":[-79.9345,40.4262]},"properties":{"p":"0054M00039000000","a":"FLEMINGTON ST","m":"15th Ward - PITTSBURGH","u":"L","o":"individual","sf":2250,"v":10100}},{"type":"Feature","geometry":{"type":"Point","coordinates":[-79.9318,40.42585]},"properties":{"p":"0087N00195000000","a":"932 WELFER ST","m":"15th Ward - PITTSBURGH","u":"L","o":"individual","sf":2750,"v":12400}},{"type":"Feature","geometry":{"type":"Point","coordinates":[-79.93879,40.4275]},"properties":{"p":"0054L00202000000","a":"ALGER ST","m":"15th Ward - PITTSBURGH","u":"L","o":"individual","sf":5877,"v":22600}},{"type":"Feature","geometry":{"type":"Point","coordinates":[-79.93314,40.42079]},"properties":{"p":"0055H00130000000","a":"707 MONTCLAIR ST","m":"15th Ward - PITTSBURGH","u":"L","o":"individual","sf":2223,"v":900}},{"type":"Feature","geometry":{"type":"Point","coordinates":[-79.93492,40.41672]},"properties":{"p":"0055M00290000000","a":"HARLEM ST","m":"15th Ward - PITTSBURGH","u":"L","o":"individual","sf":3681,"v":16600}},{"type":"Feature","geometry":{"type":"Point","coordinates":[-79.93707,40.41217]},"properties":{"p":"0056C00075000000","a":"FLOWERS AVE","m":"15th Ward - PITTSBURGH","u":"L","o":"corp","sf":1600,"v":300}},{"type":"Feature","geometry":{"type":"Point","coordinates":[-79.9384,40.41356]},"properties":{"p":"0056C00119000000","a":"GIDDINGS ST","m":"15th Ward - PITTSBURGH","u":"L","o":"corp","sf":2760,"v":1100}},{"type":"Feature","geometry":{"type":"Point","coordinates":[-79.93586,40.41174]},"properties":{"p":"0056D00208000000","a":"450 KILBOURNE ST","m":"15th Ward - PITTSBURGH","u":"L","o":"individual","sf":15192,"v":4900}},{"type":"Feature","geometry":{"type":"Point","coordinates":[-79.93767,40.41808]},"properties":{"p":"0055L00221000000","a":"EMAHLEA ST","m":"15th Ward - PITTSBURGH","u":"L","o":"individual","sf":4495,"v":20200}},{"type":"Feature","geometry":{"type":"Point","coordinates":[-79.93353,40.42712]},"properties":{"p":"0054M00076000000","a":"FLEMINGTON ST","m":"15th Ward - PITTSBURGH","u":"L","o":"individual","sf":6750,"v":1300}},{"type":"Feature","geometry":{"type":"Point","coordinates":[-79.93616,40.41914]},"properties":{"p":"0055H00257000000","a":"BIGELOW ST","m":"15th Ward - PITTSBURGH","u":"L","o":"individual","sf":1520,"v":1000}},{"type":"Feature","geometry":{"type":"Point","coordinates":[-79.93353,40.4144]},"properties":{"p":"0055S00065000000","a":"PRESCOTT ST","m":"15th Ward - PITTSBURGH","u":"L","o":"corp","sf":2000,"v":2800}},{"type":"Feature","geometry":{"type":"Point","coordinates":[-79.93865,40.41162]},"properties":{"p":"0056C00044000000","a":"FLOWERS AVE","m":"15th Ward - PITTSBURGH","u":"L","o":"individual","sf":2165,"v":500}},{"type":"Feature","geometry":{"type":"Point","coordinates":[-79.92253,40.41994]},"properties":{"p":"0088G00226000000","a":"BEECHWOOD BLVD","m":"14th Ward - PITTSBURGH","u":"L","o":"corp","sf":3375,"v":33800}},{"type":"Feature","geometry":{"type":"Point","coordinates":[-79.9388,40.41631]},"properties":{"p":"0055L00054000000","a":"HAZELWOOD AVE","m":"15th Ward - PITTSBURGH","u":"L","o":"corp","sf":7855,"v":3200}},{"type":"Feature","geometry":{"type":"Point","coordinates":[-79.93661,40.41745]},"properties":{"p":"0055M00055000000","a":"ELYRIA WAY","m":"15th Ward - PITTSBURGH","u":"L","o":"individual","sf":315,"v":200}},{"type":"Feature","geometry":{"type":"Point","coordinates":[-79.93453,40.41909]},"properties":{"p":"0055H00311000001","a":"HAZELWOOD AVE","m":"15th Ward - PITTSBURGH","u":"L","o":"individual","sf":2500,"v":1000}},{"type":"Feature","geometry":{"type":"Point","coordinates":[-79.93407,40.41818]},"properties":{"p":"0055M00237000000","a":"HARLEM ST","m":"15th Ward - PITTSBURGH","u":"L","o":"individual","sf":4400,"v":1700}},{"type":"Feature","geometry":{"type":"Point","coordinates":[-79.93341,40.42757]},"properties":{"p":"0054M00165000000","a":"MONTEIRO ST","m":"15th Ward - PITTSBURGH","u":"L","o":"corp","sf":3483,"v":1400}},{"type":"Feature","geometry":{"type":"Point","coordinates":[-79.93733,40.41181]},"properties":{"p":"0056C00066000000","a":"FLOWERS AVE","m":"15th Ward - PITTSBURGH","u":"L","o":"corp","sf":1800,"v":2700}},{"type":"Feature","geometry":{"type":"Point","coordinates":[-79.93876,40.41208]},"properties":{"p":"0056C00229000000","a":"FLOWERS AVE","m":"15th Ward - PITTSBURGH","u":"L","o":"individual","sf":2400,"v":3000}},{"type":"Feature","geometry":{"type":"Point","coordinates":[-79.93699,40.41232]},"properties":{"p":"0056C00089000000","a":"GIDDINGS ST","m":"15th Ward - PITTSBURGH","u":"L","o":"corp","sf":1732,"v":2700}},{"type":"Feature","geometry":{"type":"Point","coordinates":[-79.93987,40.41164]},"properties":{"p":"0056C00245000000","a":"FLOWERS AVE","m":"15th Ward - PITTSBURGH","u":"L","o":"corp","sf":18317,"v":5200}},{"type":"Feature","geometry":{"type":"Point","coordinates":[-79.93682,40.41168]},"properties":{"p":"0056D00198000000","a":"NANSEN ST","m":"15th Ward - PITTSBURGH","u":"L","o":"corp","sf":2783,"v":3100}},{"type":"Feature","geometry":{"type":"Point","coordinates":[-79.92133,40.42017]},"properties":{"p":"0088G00300000000","a":"GUY ST","m":"14th Ward - PITTSBURGH","u":"L","o":"individual","sf":2500,"v":2300}},{"type":"Feature","geometry":{"type":"Point","coordinates":[-79.93539,40.41269]},"properties":{"p":"0056D00164000000","a":"KILBOURNE ST","m":"15th Ward - PITTSBURGH","u":"L","o":"individual","sf":3080,"v":1200}},{"type":"Feature","geometry":{"type":"Point","coordinates":[-79.93409,40.41098]},"properties":{"p":"0056H00127000000","a":"EDINGTON ST","m":"15th Ward - PITTSBURGH","u":"L","o":"individual","sf":4935,"v":2000}},{"type":"Feature","geometry":{"type":"Point","coordinates":[-79.934,40.41356]},"properties":{"p":"0056D00060000000","a":"FLOWERS AVE","m":"15th Ward - PITTSBURGH","u":"L","o":"individual","sf":2650,"v":3100}},{"type":"Feature","geometry":{"type":"Point","coordinates":[-79.93295,40.41391]},"properties":{"p":"0056D00092000000","a":"CLARION ST","m":"15th Ward - PITTSBURGH","u":"L","o":"individual","sf":5700,"v":2100}},{"type":"Feature","geometry":{"type":"Point","coordinates":[-79.93145,40.41169]},"properties":{"p":"0089A00119000000","a":"MANITOBA ST","m":"15th Ward - PITTSBURGH","u":"L","o":"corp","sf":1800,"v":2700}},{"type":"Feature","geometry":{"type":"Point","coordinates":[-79.92491,40.41516]},"properties":{"p":"0088P00031000000","a":"BROWNS HILL RD","m":"15th Ward - PITTSBURGH","u":"L","o":"corp","sf":3297,"v":1400}},{"type":"Feature","geometry":{"type":"Point","coordinates":[-79.93227,40.41315]},"properties":{"p":"0089A00025000000","a":"KINGLAKE ST","m":"15th Ward - PITTSBURGH","u":"L","o":"corp","sf":3960,"v":3600}},{"type":"Feature","geometry":{"type":"Point","coordinates":[-79.93107,40.41926]},"properties":{"p":"0088E00269000000","a":"BRAY ST","m":"15th Ward - PITTSBURGH","u":"L","o":"individual","sf":4000,"v":18000}},{"type":"Feature","geometry":{"type":"Point","coordinates":[-79.92011,40.41611]},"properties":{"p":"0088S00015000000","a":"SHELBURNE LN","m":"14th Ward - PITTSBURGH","u":"B","o":"corp","sf":27918,"v":147300}}]}