{"type":"FeatureCollection","features":[{"type":"Feature","geometry":{"type":"Point","coordinates":[-79.92382,40.60581]},"properties":{"p":"1213C00351000000","a":"MIDDLE RD","m":"Hampton","u":"C","o":"individual","sf":360503,"v":219400}},{"type":"Feature","geometry":{"type":"Point","coordinates":[-79.93363,40.59743]},"properties":{"p":"1078A00100000000","a":"MIDDLE RD","m":"Hampton","u":"L","o":"corp","sf":19733,"v":3200}},{"type":"Feature","geometry":{"type":"Point","coordinates":[-79.92309,40.59278]},"properties":{"p":"1078L00249000000","a":"MCALISTER FARM LN","m":"Hampton","u":"L","o":"individual","sf":43560,"v":73800}},{"type":"Feature","geometry":{"type":"Point","coordinates":[-79.927,40.59712]},"properties":{"p":"1078B00048000000","a":"ORCHARD DR","m":"Hampton","u":"L","o":"individual","sf":21632,"v":3500}},{"type":"Feature","geometry":{"type":"Point","coordinates":[-79.93883,40.59279]},"properties":{"p":"1077L00180000000","a":"TREELINE DR","m":"Hampton","u":"L","o":"individual","sf":10240,"v":1100}},{"type":"Feature","geometry":{"type":"Point","coordinates":[-79.93877,40.59175]},"properties":{"p":"1077L00182000000","a":"TREELINE DR","m":"Hampton","u":"L","o":"individual","sf":11204,"v":1200}},{"type":"Feature","geometry":{"type":"Point","coordinates":[-79.93915,40.60872]},"properties":{"p":"1355R00227000000","a":"HABERLEIN RD","m":"Hampton","u":"L","o":"individual","sf":10409,"v":1100}},{"type":"Feature","geometry":{"type":"Point","coordinates":[-79.93876,40.60466]},"properties":{"p":"1212G00006000000","a":"HICKORY ST","m":"Hampton","u":"L","o":"corp","sf":70132,"v":78100}},{"type":"Feature","geometry":{"type":"Point","coordinates":[-79.92614,40.59143]},"properties":{"p":"1078P00002000000","a":"KESWICK CT","m":"Hampton","u":"L","o":"individual","sf":24840,"v":70800}},{"type":"Feature","geometry":{"type":"Point","coordinates":[-79.92422,40.59784]},"properties":{"p":"1078B00125000000","a":"PENNSYLVANIA TURNPIKE","m":"Hampton","u":"L","o":"individual","sf":345561,"v":19000}},{"type":"Feature","geometry":{"type":"Point","coordinates":[-79.92492,40.59526]},"properties":{"p":"1078F00096000000","a":"1ST ST","m":"Hampton","u":"L","o":"corp","sf":9602,"v":1500}},{"type":"Feature","geometry":{"type":"Point","coordinates":[-79.92742,40.594]},"properties":{"p":"1078F00100000000","a":"4666 MIDDLE RD","m":"Hampton","u":"L","o":"individual","sf":1585,"v":5800}},{"type":"Feature","geometry":{"type":"Point","coordinates":[-79.92719,40.59507]},"properties":{"p":"1078F00241000000","a":"MIDDLE RD","m":"Hampton","u":"L","o":"corp","sf":11600,"v":1900}},{"type":"Feature","geometry":{"type":"Point","coordinates":[-79.92125,40.60531]},"properties":{"p":"1213G00130000000","a":"CEDAR RIDGE RD","m":"Hampton","u":"L","o":"individual","sf":18144,"v":2000}},{"type":"Feature","geometry":{"type":"Point","coordinates":[-79.93619,40.60723]},"properties":{"p":"1212D00184000000","a":"3047 HABERLEIN RD","m":"Hampton","u":"L","o":"individual","sf":26436,"v":51600}},{"type":"Feature","geometry":{"type":"Point","coordinates":[-79.93589,40.60725]},"properties":{"p":"1212D00186000000","a":"HABERLEIN RD","m":"Hampton","u":"L","o":"individual","sf":30335,"v":52100}},{"type":"Feature","geometry":{"type":"Point","coordinates":[-79.93189,40.59449]},"properties":{"p":"1078E00285000000","a":"WILDWOOD RD EXT","m":"Hampton","u":"L","o":"individual","sf":128820,"v":46200}},{"type":"Feature","geometry":{"type":"Point","coordinates":[-79.93027,40.59112]},"properties":{"p":"1078K00311000000","a":"4625 MIDDLE RD","m":"Hampton","u":"L","o":"corp","sf":219542,"v":101900}},{"type":"Feature","geometry":{"type":"Point","coordinates":[-79.92773,40.59201]},"properties":{"p":"1078K00313000000","a":"MIDDLE RD","m":"Hampton","u":"L","o":"individual","sf":6720,"v":1100}},{"type":"Feature","geometry":{"type":"Point","coordinates":[-79.93342,40.59511]},"properties":{"p":"1077H00058000000","a":"HAMPTON FARMS DR","m":"Hampton","u":"L","o":"individual","sf":4870,"v":500}},{"type":"Feature","geometry":{"type":"Point","coordinates":[-79.93437,40.59478]},"properties":{"p":"1077H00077000000","a":"HAMPTON FARMS DR","m":"Hampton","u":"L","o":"individual","sf":5306,"v":600}},{"type":"Feature","geometry":{"type":"Point","coordinates":[-79.93988,40.60219]},"properties":{"p":"1212L00230000000","a":"SPRUCE LN","m":"Hampton","u":"L","o":"individual","sf":24293,"v":40000}},{"type":"Feature","geometry":{"type":"Point","coordinates":[-79.923,40.59484]},"properties":{"p":"1078G00221000000","a":"MAINE DR","m":"Hampton","u":"L","o":"individual","sf":133947,"v":50000}},{"type":"Feature","geometry":{"type":"Point","coordinates":[-79.92387,40.59467]},"properties":{"p":"1078G00336000000","a":"1ST ST","m":"Hampton","u":"L","o":"individual","sf":13282,"v":2100}},{"type":"Feature","geometry":{"type":"Point","coordinates":[-79.92434,40.59466]},"properties":{"p":"1078G00342000000","a":"MIDDLE RD","m":"Hampton","u":"L","o":"individual","sf":38397,"v":37700}},{"type":"Feature","geometry":{"type":"Point","coordinates":[-79.93305,40.60793]},"properties":{"p":"1213A00352000000","a":"HABERLEIN RD","m":"Hampton","u":"L","o":"corp","sf":22740,"v":2500}},{"type":"Feature","geometry":{"type":"Point","coordinates":[-79.93468,40.59247]},"properties":{"p":"1077M00109000000","a":"HAMPTON FARMS DR","m":"Hampton","u":"L","o":"corp","sf":7260,"v":800}},{"type":"Feature","geometry":{"type":"Point","coordinates":[-79.92378,40.59723]},"properties":{"p":"1078C00228000000","a":"ORCHARD DR","m":"Hampton","u":"L","o":"individual","sf":109771,"v":16000}},{"type":"Feature","geometry":{"type":"Point","coordinates":[-79.92795,40.60556]},"properties":{"p":"1213B00030000000","a":"HABERLEIN RD","m":"Hampton","u":"L","o":"corp","sf":232610,"v":74700}},{"type":"Feature","geometry":{"type":"Point","coordinates":[-79.92643,40.60425]},"properties":{"p":"1213F00086000000","a":"CEDAR RIDGE RD","m":"Hampton","u":"L","o":"individual","sf":40859,"v":53200}},{"type":"Feature","geometry":{"type":"Point","coordinates":[-79.92874,40.59345]},"properties":{"p":"1078K00383000000","a":"MIDDLE RD","m":"Hampton","u":"L","o":"individual","sf":19547,"v":3100}},{"type":"Feature","geometry":{"type":"Point","coordinates":[-79.93665,40.59447]},"properties":{"p":"1077H00201000000","a":"WILDWOOD RD","m":"Hampton","u":"L","o":"individual","sf":39073,"v":53000}},{"type":"Feature","geometry":{"type":"Point","coordinates":[-79.93691,40.59404]},"properties":{"p":"1077H00214000000","a":"WILDWOOD RD EXT","m":"Hampton","u":"L","o":"individual","sf":51662,"v":1000}},{"type":"Feature","geometry":{"type":"Point","coordinates":[-79.93571,40.59561]},"properties":{"p":"1077H00286000000","a":"WILDWOOD RD EXT","m":"Hampton","u":"L","o":"individual","sf":30273,"v":27000}},{"type":"Feature","geometry":{"type":"Point","coordinates":[-79.93052,40.60026]},"properties":{"p":"1213N00201000000","a":"MIDDLE RD","m":"Hampton","u":"L","o":"individual","sf":8450,"v":900}},{"type":"Feature","geometry":{"type":"Point","coordinates":[-79.92021,40.60168]},"properties":{"p":"1213M00305000000","a":"MEADOW CREST DR","m":"Hampton","u":"L","o":"corp","sf":2250,"v":0}},{"type":"Feature","geometry":{"type":"Point","coordinates":[-79.92299,40.60341]},"properties":{"p":"1213L00029000000","a":"SUMMIT DR","m":"Hampton","u":"L","o":"individual","sf":800,"v":100}},{"type":"Feature","geometry":{"type":"Point","coordinates":[-79.93113,40.59922]},"properties":{"p":"1213N00203000000","a":"MIDDLE RD","m":"Hampton","u":"L","o":"corp","sf":17576,"v":2800}},{"type":"Feature","geometry":{"type":"Point","coordinates":[-79.93159,40.59983]},"properties":{"p":"1213N00332000000","a":"MCNEAL RD","m":"Hampton","u":"L","o":"corp","sf":9016,"v":1000}},{"type":"Feature","geometry":{"type":"Point","coordinates":[-79.92015,40.60977]},"properties":{"p":"1356S00261000000","a":"5225 MIDDLE RD","m":"West Deer","u":"L","o":"individual","sf":26484,"v":52400}},{"type":"Feature","geometry":{"type":"Point","coordinates":[-79.93957,40.6011]},"properties":{"p":"1212L00272000000","a":"SPRUCE LN","m":"Hampton","u":"L","o":"individual","sf":55931,"v":44000}},{"type":"Feature","geometry":{"type":"Point","coordinates":[-79.92523,40.59103]},"properties":{"p":"1078P00008000000","a":"KESWICK CT","m":"Hampton","u":"L","o":"individual","sf":25117,"v":70800}},{"type":"Feature","geometry":{"type":"Point","coordinates":[-79.93189,40.60824]},"properties":{"p":"1213A00360000000","a":"3120 HABERLEIN RD","m":"Hampton","u":"L","o":"individual","sf":8712,"v":18100}},{"type":"Feature","geometry":{"type":"Point","coordinates":[-79.93535,40.59694]},"properties":{"p":"1077H00325000000","a":"MCNEAL RD","m":"Hampton","u":"L","o":"individual","sf":411773,"v":37900}},{"type":"Feature","geometry":{"type":"Point","coordinates":[-79.93188,40.59614]},"properties":{"p":"1078E00362000000","a":"3133 WILDWOOD ROAD EXT","m":"Hampton","u":"B","o":"corp","sf":22443,"v":11000}},{"type":"Feature","geometry":{"type":"Point","coordinates":[-79.93151,40.59636]},"properties":{"p":"1078E00364000000","a":"3139 WILDWOOD ROAD EXT","m":"Hampton","u":"B","o":"corp","sf":23149,"v":11100}}]}