{"type":"FeatureCollection","features":[{"type":"Feature","geometry":{"type":"Point","coordinates":[-79.93427,40.55345]},"properties":{"p":"0617M00168000000","a":"MIDDLE RD","m":"Indiana","u":"C","o":"corp","sf":292724,"v":83400}},{"type":"Feature","geometry":{"type":"Point","coordinates":[-79.93075,40.5528]},"properties":{"p":"0617M00185000000","a":"MIDDLE RD","m":"Indiana","u":"C","o":"corp","sf":596816,"v":54500}},{"type":"Feature","geometry":{"type":"Point","coordinates":[-79.93752,40.55674]},"properties":{"p":"0617H00386000000","a":"E ELFINWILD RD","m":"Hampton","u":"L","o":"individual","sf":60104,"v":41400}},{"type":"Feature","geometry":{"type":"Point","coordinates":[-79.92072,40.55906]},"properties":{"p":"0618C00358000000","a":"HARTS RUN RD","m":"Hampton","u":"L","o":"corp","sf":74923,"v":10000}},{"type":"Feature","geometry":{"type":"Point","coordinates":[-79.92275,40.55662]},"properties":{"p":"0618D00025000000","a":"HARTS RUN RD","m":"Hampton","u":"L","o":"individual","sf":524349,"v":110600}},{"type":"Feature","geometry":{"type":"Point","coordinates":[-79.92924,40.55681]},"properties":{"p":"0618F00399000000","a":"HARTS RUN RD","m":"Hampton","u":"L","o":"individual","sf":71003,"v":78200}},{"type":"Feature","geometry":{"type":"Point","coordinates":[-79.93927,40.55752]},"properties":{"p":"0617C00160000000","a":"COLDWATER DR","m":"Hampton","u":"L","o":"individual","sf":3000,"v":500}},{"type":"Feature","geometry":{"type":"Point","coordinates":[-79.93342,40.55744]},"properties":{"p":"0617H00183000000","a":"CUMMINGS DR","m":"Hampton","u":"L","o":"individual","sf":48352,"v":74600}},{"type":"Feature","geometry":{"type":"Point","coordinates":[-79.93668,40.55677]},"properties":{"p":"0617H00279000000","a":"MIDDLE RD","m":"Hampton","u":"L","o":"individual","sf":32848,"v":37100}},{"type":"Feature","geometry":{"type":"Point","coordinates":[-79.9299,40.55858]},"properties":{"p":"0618A00345000000","a":"JOHN GIEL DR","m":"Hampton","u":"L","o":"individual","sf":62726,"v":10100}},{"type":"Feature","geometry":{"type":"Point","coordinates":[-79.92964,40.55856]},"properties":{"p":"0618A00351000000","a":"JOHN GIEL DR","m":"Hampton","u":"L","o":"individual","sf":59677,"v":9600}},{"type":"Feature","geometry":{"type":"Point","coordinates":[-79.93563,40.56015]},"properties":{"p":"0617D00229000000","a":"MIDDLE RD","m":"Hampton","u":"L","o":"individual","sf":22200,"v":3600}},{"type":"Feature","geometry":{"type":"Point","coordinates":[-79.92883,40.55853]},"properties":{"p":"0721P00005000000","a":"MIDDLE RD","m":"Hampton","u":"L","o":"individual","sf":279655,"v":36400}},{"type":"Feature","geometry":{"type":"Point","coordinates":[-79.92908,40.56032]},"properties":{"p":"0721P00010000000","a":"MIDDLE RD","m":"Hampton","u":"L","o":"individual","sf":21780,"v":21800}},{"type":"Feature","geometry":{"type":"Point","coordinates":[-79.93556,40.56285]},"properties":{"p":"0720M00085000000","a":"3925 KRAMER RD","m":"Hampton","u":"L","o":"individual","sf":29868,"v":4800}},{"type":"Feature","geometry":{"type":"Point","coordinates":[-79.93349,40.56123]},"properties":{"p":"0721N00339000000","a":"MIDDLE RD","m":"Hampton","u":"L","o":"individual","sf":390036,"v":108700}},{"type":"Feature","geometry":{"type":"Point","coordinates":[-79.92927,40.56171]},"properties":{"p":"0721N00188000000","a":"HARTS RUN RD","m":"Hampton","u":"L","o":"corp","sf":18525,"v":3000}},{"type":"Feature","geometry":{"type":"Point","coordinates":[-79.92951,40.56227]},"properties":{"p":"0721N00205000000","a":"HARTS RUN RD","m":"Hampton","u":"L","o":"individual","sf":22547,"v":19000}},{"type":"Feature","geometry":{"type":"Point","coordinates":[-79.93444,40.56132]},"properties":{"p":"0720S00058000000","a":"SUNNYFIELD DR","m":"Hampton","u":"L","o":"individual","sf":167358,"v":26900}},{"type":"Feature","geometry":{"type":"Point","coordinates":[-79.9355,40.56225]},"properties":{"p":"0720S00182000000","a":"3919 KRAMER RD","m":"Hampton","u":"L","o":"individual","sf":33803,"v":5400}},{"type":"Feature","geometry":{"type":"Point","coordinates":[-79.93747,40.56196]},"properties":{"p":"0720S00305000000","a":"KRAMER RD","m":"Hampton","u":"L","o":"individual","sf":657756,"v":131300}},{"type":"Feature","geometry":{"type":"Point","coordinates":[-79.92998,40.56371]},"properties":{"p":"0721J00070000000","a":"HARTS RUN RD","m":"Hampton","u":"L","o":"corp","sf":87120,"v":80800}},{"type":"Feature","geometry":{"type":"Point","coordinates":[-79.93746,40.55342]},"properties":{"p":"0617M00308000000","a":"MIDDLE RD","m":"Indiana","u":"L","o":"individual","sf":28234,"v":32600}},{"type":"Feature","geometry":{"type":"Point","coordinates":[-79.92756,40.55074]},"properties":{"p":"0618P00089000000","a":"KLEIN RD","m":"Indiana","u":"L","o":"individual","sf":118919,"v":49100}},{"type":"Feature","geometry":{"type":"Point","coordinates":[-79.93296,40.55213]},"properties":{"p":"0618N00298000000","a":"KLEIN RD","m":"Indiana","u":"L","o":"individual","sf":21780,"v":2000}},{"type":"Feature","geometry":{"type":"Point","coordinates":[-79.93944,40.5537]},"properties":{"p":"0617L00189000000","a":"BLACK OAK DR","m":"Shaler","u":"L","o":"individual","sf":36125,"v":52700}},{"type":"Feature","geometry":{"type":"Point","coordinates":[-79.9385,40.55589]},"properties":{"p":"0617G00125000000","a":"MIDDLE RD","m":"Hampton","u":"L","o":"individual","sf":91171,"v":81400}},{"type":"Feature","geometry":{"type":"Point","coordinates":[-79.93079,40.55805]},"properties":{"p":"0618A00320000000","a":"JOHN GIEL DR","m":"Hampton","u":"L","o":"individual","sf":108900,"v":17500}},{"type":"Feature","geometry":{"type":"Point","coordinates":[-79.9303,40.56069]},"properties":{"p":"0721N00165000000","a":"MIDDLE RD","m":"Hampton","u":"L","o":"individual","sf":23513,"v":70600}}]}