{"type":"FeatureCollection","features":[{"type":"Feature","geometry":{"type":"Point","coordinates":[-79.93955,40.63261]},"properties":{"p":"1665L00313000000","a":"5560 WILLIAM FLYNN HWY","m":"Richland","u":"C","o":"corp","sf":30951,"v":25000}},{"type":"Feature","geometry":{"type":"Point","coordinates":[-79.93851,40.6336]},"properties":{"p":"1665G00142000000","a":"COMMUNITY CENTER DR","m":"Richland","u":"C","o":"corp","sf":471,"v":200}},{"type":"Feature","geometry":{"type":"Point","coordinates":[-79.93817,40.63332]},"properties":{"p":"1665G00145000000","a":"GIBSONIA RD","m":"Richland","u":"C","o":"corp","sf":2328,"v":700}},{"type":"Feature","geometry":{"type":"Point","coordinates":[-79.93717,40.63308]},"properties":{"p":"1665M00266000000","a":"4109 CLENDENNING RD","m":"Richland","u":"C","o":"individual","sf":50530,"v":75000}},{"type":"Feature","geometry":{"type":"Point","coordinates":[-79.93902,40.64255]},"properties":{"p":"1832G00149000000","a":"GRANDVIEW CROSSING DR","m":"Richland","u":"C","o":"corp","sf":29447,"v":13600}},{"type":"Feature","geometry":{"type":"Point","coordinates":[-79.93934,40.63897]},"properties":{"p":"1832R00130000000","a":"GRANDVIEW CROSSING DR","m":"Richland","u":"C","o":"corp","sf":144924,"v":300500}},{"type":"Feature","geometry":{"type":"Point","coordinates":[-79.9346,40.64957]},"properties":{"p":"2007S00320000000","a":"HECKERT RD","m":"Richland","u":"C","o":"corp","sf":16923,"v":108300}},{"type":"Feature","geometry":{"type":"Point","coordinates":[-79.93784,40.63305]},"properties":{"p":"1665G00162000000","a":"GIBSONIA RD","m":"Richland","u":"C","o":"corp","sf":220,"v":100}},{"type":"Feature","geometry":{"type":"Point","coordinates":[-79.93377,40.64203]},"properties":{"p":"1832M00295000000","a":"GRANDVIEW DR","m":"Richland","u":"C","o":"corp","sf":1052715,"v":236300}},{"type":"Feature","geometry":{"type":"Point","coordinates":[-79.93888,40.63619]},"properties":{"p":"1665C00140000000","a":"COMMUNITY CENTER DR","m":"Richland","u":"C","o":"corp","sf":32088,"v":30000}},{"type":"Feature","geometry":{"type":"Point","coordinates":[-79.93874,40.63391]},"properties":{"p":"1665G00156000000","a":"GIBSONIA RD","m":"Richland","u":"C","o":"corp","sf":466,"v":200}},{"type":"Feature","geometry":{"type":"Point","coordinates":[-79.93696,40.64324]},"properties":{"p":"1832L00150000000","a":"GRANDVIEW DR","m":"Richland","u":"C","o":"corp","sf":126002,"v":123900}},{"type":"Feature","geometry":{"type":"Point","coordinates":[-79.93482,40.64647]},"properties":{"p":"1832D00214000000","a":"MEADOW LN","m":"Richland","u":"L","o":"individual","sf":41731,"v":53300}},{"type":"Feature","geometry":{"type":"Point","coordinates":[-79.93219,40.63332]},"properties":{"p":"1666E00312000000","a":"CLENDENNING RD","m":"Richland","u":"L","o":"individual","sf":41861,"v":58800}},{"type":"Feature","geometry":{"type":"Point","coordinates":[-79.93446,40.63707]},"properties":{"p":"1832S00122000000","a":"GRANDVIEW DR","m":"Richland","u":"L","o":"corp","sf":431845,"v":85900}},{"type":"Feature","geometry":{"type":"Point","coordinates":[-79.92884,40.64574]},"properties":{"p":"1833A00227000000","a":"MEADOW LN","m":"Richland","u":"L","o":"individual","sf":265977,"v":74700}},{"type":"Feature","geometry":{"type":"Point","coordinates":[-79.93342,40.64555]},"properties":{"p":"1832D00099000000","a":"MEADOW LN","m":"Richland","u":"L","o":"individual","sf":87120,"v":58600}},{"type":"Feature","geometry":{"type":"Point","coordinates":[-79.93585,40.63242]},"properties":{"p":"1665M00261000100","a":"CLENDENNING RD","m":"Richland","u":"L","o":"individual","sf":31058,"v":4000}},{"type":"Feature","geometry":{"type":"Point","coordinates":[-79.9324,40.64496]},"properties":{"p":"1833A00206000000","a":"MEADOW LN","m":"Richland","u":"L","o":"individual","sf":614697,"v":101000}},{"type":"Feature","geometry":{"type":"Point","coordinates":[-79.93836,40.64727]},"properties":{"p":"1832C00112000000","a":"WILLIAM FLYNN HWY","m":"Richland","u":"L","o":"corp","sf":142877,"v":71500}},{"type":"Feature","geometry":{"type":"Point","coordinates":[-79.93872,40.64612]},"properties":{"p":"1832C00159000000","a":"SAINT GEORGE DR","m":"Richland","u":"L","o":"individual","sf":29047,"v":3800}},{"type":"Feature","geometry":{"type":"Point","coordinates":[-79.92523,40.64649]},"properties":{"p":"1833B00078000000","a":"MCMORRAN RD","m":"Richland","u":"L","o":"individual","sf":41735,"v":4600}},{"type":"Feature","geometry":{"type":"Point","coordinates":[-79.9292,40.63483]},"properties":{"p":"1666E00134000000","a":"CLENDENNING RD","m":"Richland","u":"L","o":"individual","sf":44867,"v":59200}},{"type":"Feature","geometry":{"type":"Point","coordinates":[-79.92395,40.64903]},"properties":{"p":"2008P00109000000","a":"BRICKELL RD","m":"Richland","u":"L","o":"individual","sf":8230,"v":900}},{"type":"Feature","geometry":{"type":"Point","coordinates":[-79.92973,40.64796]},"properties":{"p":"2008N00078000000","a":"3617 PATRICIA LN","m":"Richland","u":"L","o":"individual","sf":82346,"v":58100}},{"type":"Feature","geometry":{"type":"Point","coordinates":[-79.93801,40.63104]},"properties":{"p":"1665L00016000000","a":"PINE TREE DR","m":"Richland","u":"L","o":"corp","sf":23896,"v":56500}},{"type":"Feature","geometry":{"type":"Point","coordinates":[-79.93766,40.63563]},"properties":{"p":"1665C00001000000","a":"COMMUNITY CENTER DR","m":"Richland","u":"L","o":"corp","sf":35446,"v":58000}},{"type":"Feature","geometry":{"type":"Point","coordinates":[-79.9289,40.64354]},"properties":{"p":"1833F00344000000","a":"OAKHILL RD","m":"Richland","u":"L","o":"individual","sf":43560,"v":59000}},{"type":"Feature","geometry":{"type":"Point","coordinates":[-79.92354,40.64275]},"properties":{"p":"1833G00358000000","a":"MCMORRAN RD","m":"Richland","u":"L","o":"individual","sf":216319,"v":24800}},{"type":"Feature","geometry":{"type":"Point","coordinates":[-79.93076,40.6422]},"properties":{"p":"1833E00048000000","a":"5720 OAKHILL RD","m":"Richland","u":"L","o":"individual","sf":3490,"v":500}},{"type":"Feature","geometry":{"type":"Point","coordinates":[-79.93153,40.64338]},"properties":{"p":"1833E00067000000","a":"OAKHILL RD","m":"Richland","u":"L","o":"individual","sf":43500,"v":5700}},{"type":"Feature","geometry":{"type":"Point","coordinates":[-79.92623,40.63909]},"properties":{"p":"1833P00091000000","a":"GRANDVIEW DR","m":"Richland","u":"L","o":"corp","sf":8245,"v":1100}},{"type":"Feature","geometry":{"type":"Point","coordinates":[-79.93618,40.64061]},"properties":{"p":"1832M00096000000","a":"CAMBRIDGE DR","m":"Richland","u":"L","o":"corp","sf":11715,"v":8200}},{"type":"Feature","geometry":{"type":"Point","coordinates":[-79.93496,40.63341]},"properties":{"p":"1665H00076000000","a":"CLENDENNING RD","m":"Richland","u":"L","o":"individual","sf":40249,"v":5200}},{"type":"Feature","geometry":{"type":"Point","coordinates":[-79.92733,40.64202]},"properties":{"p":"1833K00279000000","a":"OAKHILL RD","m":"Richland","u":"L","o":"individual","sf":47480,"v":6000}},{"type":"Feature","geometry":{"type":"Point","coordinates":[-79.93301,40.6395]},"properties":{"p":"1833N00252000000","a":"GRANDVIEW DR","m":"Richland","u":"L","o":"corp","sf":27300,"v":3600}},{"type":"Feature","geometry":{"type":"Point","coordinates":[-79.93819,40.63601]},"properties":{"p":"1665C00037000000","a":"COMMUNITY CENTER DR","m":"Richland","u":"L","o":"individual","sf":5465,"v":700}},{"type":"Feature","geometry":{"type":"Point","coordinates":[-79.93779,40.63677]},"properties":{"p":"1665C00067000000","a":"COMMUNITY CENTER DR","m":"Richland","u":"L","o":"corp","sf":24648,"v":3200}},{"type":"Feature","geometry":{"type":"Point","coordinates":[-79.92165,40.64063]},"properties":{"p":"1833L00126000000","a":"CLENDENNING RD","m":"West Deer","u":"L","o":"individual","sf":71874,"v":57700}},{"type":"Feature","geometry":{"type":"Point","coordinates":[-79.92145,40.64867]},"properties":{"p":"2008R00062000000","a":"BAKERSTOWN CULMERVILLE RD","m":"West Deer","u":"L","o":"individual","sf":9000,"v":3400}},{"type":"Feature","geometry":{"type":"Point","coordinates":[-79.93606,40.64046]},"properties":{"p":"1832M00095000000","a":"CAMBRIDGE DR","m":"Richland","u":"L","o":"corp","sf":13145,"v":8400}},{"type":"Feature","geometry":{"type":"Point","coordinates":[-79.93484,40.64904]},"properties":{"p":"2007S00306000000","a":"HECKERT RD","m":"Richland","u":"L","o":"corp","sf":14865,"v":1600}},{"type":"Feature","geometry":{"type":"Point","coordinates":[-79.92877,40.64058]},"properties":{"p":"1833K00366000000","a":"GRANDVIEW DR","m":"Richland","u":"L","o":"individual","sf":78713,"v":63400}},{"type":"Feature","geometry":{"type":"Point","coordinates":[-79.92519,40.64348]},"properties":{"p":"1833F00291000000","a":"5753 OAKHILL RD","m":"Richland","u":"L","o":"corp","sf":246441,"v":76000}},{"type":"Feature","geometry":{"type":"Point","coordinates":[-79.93615,40.63833]},"properties":{"p":"1832S00212000000","a":"CAMBRIDGE DR","m":"Richland","u":"B","o":"corp","sf":24531,"v":9900}},{"type":"Feature","geometry":{"type":"Point","coordinates":[-79.93456,40.63978]},"properties":{"p":"1832S00236000000","a":"NORTH CHURCH CT","m":"Richland","u":"B","o":"corp","sf":9858,"v":7600}},{"type":"Feature","geometry":{"type":"Point","coordinates":[-79.93484,40.63982]},"properties":{"p":"1832S00237000000","a":"NORTH CHURCH CT","m":"Richland","u":"B","o":"corp","sf":14203,"v":8600}},{"type":"Feature","geometry":{"type":"Point","coordinates":[-79.93511,40.63996]},"properties":{"p":"1832S00238000000","a":"NORTH CHURCH CT","m":"Richland","u":"B","o":"corp","sf":12819,"v":8400}},{"type":"Feature","geometry":{"type":"Point","coordinates":[-79.9355,40.64009]},"properties":{"p":"1832S00241000000","a":"CAMBRIDGE DR","m":"Richland","u":"B","o":"corp","sf":13701,"v":8500}},{"type":"Feature","geometry":{"type":"Point","coordinates":[-79.937,40.6413]},"properties":{"p":"1832M00046000000","a":"CAMBRIDGE DR","m":"Richland","u":"B","o":"corp","sf":22686,"v":9700}},{"type":"Feature","geometry":{"type":"Point","coordinates":[-79.93724,40.64109]},"properties":{"p":"1832M00047000000","a":"CAMBRIDGE DR","m":"Richland","u":"B","o":"corp","sf":9943,"v":7600}},{"type":"Feature","geometry":{"type":"Point","coordinates":[-79.93713,40.64068]},"properties":{"p":"1832M00049000000","a":"CAMBRIDGE DR","m":"Richland","u":"B","o":"corp","sf":8539,"v":7100}},{"type":"Feature","geometry":{"type":"Point","coordinates":[-79.93722,40.64044]},"properties":{"p":"1832M00050000000","a":"CAMBRIDGE DR","m":"Richland","u":"B","o":"corp","sf":9860,"v":7600}},{"type":"Feature","geometry":{"type":"Point","coordinates":[-79.93712,40.64031]},"properties":{"p":"1832M00051000000","a":"CAMBRIDGE DR","m":"Richland","u":"B","o":"corp","sf":10793,"v":7900}},{"type":"Feature","geometry":{"type":"Point","coordinates":[-79.93691,40.64022]},"properties":{"p":"1832M00052000000","a":"CAMBRIDGE DR","m":"Richland","u":"B","o":"corp","sf":11022,"v":8000}},{"type":"Feature","geometry":{"type":"Point","coordinates":[-79.93678,40.64008]},"properties":{"p":"1832M00053000000","a":"CAMBRIDGE DR","m":"Richland","u":"B","o":"corp","sf":11401,"v":8100}},{"type":"Feature","geometry":{"type":"Point","coordinates":[-79.93652,40.64002]},"properties":{"p":"1832M00054000000","a":"CAMBRIDGE DR","m":"Richland","u":"B","o":"corp","sf":8944,"v":7200}},{"type":"Feature","geometry":{"type":"Point","coordinates":[-79.93635,40.63984]},"properties":{"p":"1832M00055000000","a":"CAMBRIDGE DR","m":"Richland","u":"B","o":"corp","sf":12309,"v":8300}},{"type":"Feature","geometry":{"type":"Point","coordinates":[-79.93641,40.64068]},"properties":{"p":"1832M00097000000","a":"CAMBRIDGE DR","m":"Richland","u":"B","o":"corp","sf":11517,"v":8100}},{"type":"Feature","geometry":{"type":"Point","coordinates":[-79.93648,40.64095]},"properties":{"p":"1832M00098000000","a":"CAMBRIDGE DR","m":"Richland","u":"B","o":"corp","sf":12784,"v":8400}},{"type":"Feature","geometry":{"type":"Point","coordinates":[-79.93432,40.63964]},"properties":{"p":"1832S00235000000","a":"NORTH CHURCH CT","m":"Richland","u":"B","o":"corp","sf":12875,"v":8400}},{"type":"Feature","geometry":{"type":"Point","coordinates":[-79.93717,40.64088]},"properties":{"p":"1832M00048000000","a":"CAMBRIDGE DR","m":"Richland","u":"B","o":"corp","sf":11682,"v":8200}},{"type":"Feature","geometry":{"type":"Point","coordinates":[-79.93531,40.64002]},"properties":{"p":"1832S00239000000","a":"CAMBRIDGE DR","m":"Richland","u":"B","o":"corp","sf":12696,"v":8400}},{"type":"Feature","geometry":{"type":"Point","coordinates":[-79.93531,40.63787]},"properties":{"p":"1832S00218000000","a":"CAMBRIDGE DR","m":"Richland","u":"B","o":"corp","sf":26021,"v":10100}}]}