{"type":"FeatureCollection","features":[{"type":"Feature","geometry":{"type":"Point","coordinates":[-79.93956,40.57299]},"properties":{"p":"0831L00125000000","a":"CANTERBURY DR","m":"Hampton","u":"L","o":"individual","sf":10890,"v":1700}},{"type":"Feature","geometry":{"type":"Point","coordinates":[-79.92392,40.57352]},"properties":{"p":"0832L00115000000","a":"FRANCIS DR","m":"Hampton","u":"L","o":"individual","sf":22695,"v":3600}},{"type":"Feature","geometry":{"type":"Point","coordinates":[-79.93557,40.57378]},"properties":{"p":"0831M00020000000","a":"CANTERBURY DR","m":"Hampton","u":"L","o":"corp","sf":49367,"v":0}},{"type":"Feature","geometry":{"type":"Point","coordinates":[-79.93473,40.57644]},"properties":{"p":"0831H00019000000","a":"GLADES DR","m":"Hampton","u":"L","o":"individual","sf":24088,"v":70700}},{"type":"Feature","geometry":{"type":"Point","coordinates":[-79.92964,40.5775]},"properties":{"p":"0832A00020000100","a":"MIDDLE RD","m":"Hampton","u":"L","o":"individual","sf":16332,"v":2600}},{"type":"Feature","geometry":{"type":"Point","coordinates":[-79.92961,40.57686]},"properties":{"p":"0832A00020000200","a":"MIDDLE RD","m":"Hampton","u":"L","o":"individual","sf":40297,"v":6500}},{"type":"Feature","geometry":{"type":"Point","coordinates":[-79.92241,40.57931]},"properties":{"p":"0832C00214000000","a":"MIDDLE RD","m":"Hampton","u":"L","o":"corp","sf":43560,"v":42300}},{"type":"Feature","geometry":{"type":"Point","coordinates":[-79.92812,40.57707]},"properties":{"p":"0832C00302000000","a":"MIDDLE RD","m":"Hampton","u":"L","o":"individual","sf":427977,"v":116300}},{"type":"Feature","geometry":{"type":"Point","coordinates":[-79.93737,40.58095]},"properties":{"p":"0950R00060000000","a":"MCCULLY RD","m":"Hampton","u":"L","o":"individual","sf":118984,"v":85900}},{"type":"Feature","geometry":{"type":"Point","coordinates":[-79.93884,40.58084]},"properties":{"p":"0950R00075000000","a":"MCCULLY RD","m":"Hampton","u":"L","o":"individual","sf":87120,"v":80800}},{"type":"Feature","geometry":{"type":"Point","coordinates":[-79.93254,40.57722]},"properties":{"p":"0832A00018000000","a":"GLADES DR","m":"Hampton","u":"L","o":"individual","sf":53274,"v":600}},{"type":"Feature","geometry":{"type":"Point","coordinates":[-79.93064,40.57366]},"properties":{"p":"0832J00098000000","a":"HENRICH FARM LN","m":"Hampton","u":"L","o":"corp","sf":45738,"v":500}},{"type":"Feature","geometry":{"type":"Point","coordinates":[-79.93381,40.57849]},"properties":{"p":"0831D00023000000","a":"GLADES DR","m":"Hampton","u":"L","o":"individual","sf":2525,"v":400}},{"type":"Feature","geometry":{"type":"Point","coordinates":[-79.92364,40.5749]},"properties":{"p":"0832G00236000000","a":"WAGNER RD","m":"Hampton","u":"L","o":"individual","sf":103551,"v":83400}},{"type":"Feature","geometry":{"type":"Point","coordinates":[-79.92446,40.57409]},"properties":{"p":"0832L00154000000","a":"WAGNER RD","m":"Hampton","u":"L","o":"individual","sf":43560,"v":73800}},{"type":"Feature","geometry":{"type":"Point","coordinates":[-79.92215,40.57425]},"properties":{"p":"0832L00197000000","a":"WAGNER RD","m":"Hampton","u":"L","o":"individual","sf":43560,"v":38800}},{"type":"Feature","geometry":{"type":"Point","coordinates":[-79.93436,40.57973]},"properties":{"p":"0950S00229000000","a":"3090 MCCULLY RD","m":"Hampton","u":"L","o":"individual","sf":80255,"v":79700}},{"type":"Feature","geometry":{"type":"Point","coordinates":[-79.93581,40.58061]},"properties":{"p":"0950S00299000000","a":"MCCULLY RD","m":"Hampton","u":"L","o":"individual","sf":224883,"v":36100}},{"type":"Feature","geometry":{"type":"Point","coordinates":[-79.93603,40.57749]},"properties":{"p":"0831D00019000000","a":"GLADES DR","m":"Hampton","u":"L","o":"corp","sf":583268,"v":110200}},{"type":"Feature","geometry":{"type":"Point","coordinates":[-79.92022,40.58643]},"properties":{"p":"0951G00324000000","a":"MIDDLE RD","m":"Hampton","u":"L","o":"individual","sf":348916,"v":110800}},{"type":"Feature","geometry":{"type":"Point","coordinates":[-79.92312,40.57422]},"properties":{"p":"0832L00184000000","a":"WAGNER RD","m":"Hampton","u":"L","o":"individual","sf":43560,"v":38800}},{"type":"Feature","geometry":{"type":"Point","coordinates":[-79.92774,40.58977]},"properties":{"p":"1078P00263000000","a":"4584 DOGWOOD DR","m":"Hampton","u":"L","o":"corp","sf":79819,"v":79600}},{"type":"Feature","geometry":{"type":"Point","coordinates":[-79.93064,40.57432]},"properties":{"p":"0832E00028000000","a":"HENRICH FARM LN","m":"Hampton","u":"L","o":"individual","sf":35719,"v":5700}}]}