{"type":"FeatureCollection","features":[{"type":"Feature","geometry":{"type":"Point","coordinates":[-79.9348,40.67175]},"properties":{"p":"2382J00381000000","a":"WILLIAM FLYNN HWY","m":"Richland","u":"C","o":"corp","sf":103150,"v":7100}},{"type":"Feature","geometry":{"type":"Point","coordinates":[-79.93119,40.67195]},"properties":{"p":"2382E00303000000","a":"PLANK RD","m":"Richland","u":"L","o":"individual","sf":492,"v":100}},{"type":"Feature","geometry":{"type":"Point","coordinates":[-79.92137,40.67185]},"properties":{"p":"2382L00064000000","a":"4079 SANDY HILL RD","m":"West Deer","u":"L","o":"individual","sf":239580,"v":82600}}]}