{"type":"FeatureCollection","features":[{"type":"Feature","geometry":{"type":"Point","coordinates":[-79.93671,40.22319]},"properties":{"p":"1911M00333000000","a":"KELLY RUN RD","m":"Forward","u":"L","o":"individual","sf":10890,"v":1100}},{"type":"Feature","geometry":{"type":"Point","coordinates":[-79.93677,40.21994]},"properties":{"p":"1911S00356000000","a":"KELLY RUN RD","m":"Forward","u":"L","o":"corp","sf":16507,"v":1700}},{"type":"Feature","geometry":{"type":"Point","coordinates":[-79.92658,40.22717]},"properties":{"p":"1910B00340000000","a":"RIPPEL RD","m":"Forward","u":"L","o":"individual","sf":446185,"v":20000}},{"type":"Feature","geometry":{"type":"Point","coordinates":[-79.92578,40.22688]},"properties":{"p":"1910B00360000000","a":"DETWILER LN","m":"Forward","u":"L","o":"individual","sf":214969,"v":9800}},{"type":"Feature","geometry":{"type":"Point","coordinates":[-79.92495,40.22844]},"properties":{"p":"1910B00362000000","a":"RIPPEL RD","m":"Forward","u":"L","o":"individual","sf":523,"v":600}},{"type":"Feature","geometry":{"type":"Point","coordinates":[-79.92928,40.2278]},"properties":{"p":"1910A00171000000","a":"RIPPEL RD","m":"Forward","u":"L","o":"individual","sf":68389,"v":5500}},{"type":"Feature","geometry":{"type":"Point","coordinates":[-79.93034,40.22867]},"properties":{"p":"1910A00216000000","a":"RIPPLE RD","m":"Forward","u":"L","o":"individual","sf":14680,"v":1500}},{"type":"Feature","geometry":{"type":"Point","coordinates":[-79.93734,40.22412]},"properties":{"p":"1911L00077000000","a":"2021 CHURCH HOLLOW RD","m":"Forward","u":"L","o":"individual","sf":123710,"v":2800}},{"type":"Feature","geometry":{"type":"Point","coordinates":[-79.93871,40.22275]},"properties":{"p":"1911L00110000000","a":"CHURCH HOLLOW RD","m":"Forward","u":"L","o":"individual","sf":52272,"v":5400}},{"type":"Feature","geometry":{"type":"Point","coordinates":[-79.93422,40.2293]},"properties":{"p":"1911D00168000000","a":"KELLY RUN RD","m":"Forward","u":"L","o":"individual","sf":926651,"v":94800}},{"type":"Feature","geometry":{"type":"Point","coordinates":[-79.93622,40.22634]},"properties":{"p":"1911H00276000000","a":"KELLY RUN RD","m":"Forward","u":"L","o":"individual","sf":43560,"v":7500}},{"type":"Feature","geometry":{"type":"Point","coordinates":[-79.93022,40.22769]},"properties":{"p":"1910A00145000000","a":"RIPPEL RD","m":"Forward","u":"L","o":"individual","sf":74923,"v":7700}},{"type":"Feature","geometry":{"type":"Point","coordinates":[-79.93639,40.22387]},"properties":{"p":"1911M00378000000","a":"KELLY RUN RD","m":"Forward","u":"L","o":"individual","sf":43560,"v":47400}}]}