{"type":"FeatureCollection","features":[{"type":"Feature","geometry":{"type":"Point","coordinates":[-79.93966,40.238]},"properties":{"p":"1740C00261000000","a":"BUNOLA RIVER RD","m":"Forward","u":"L","o":"individual","sf":13048,"v":26100}},{"type":"Feature","geometry":{"type":"Point","coordinates":[-79.93921,40.23969]},"properties":{"p":"1577R00054000000","a":"ELIZABETH RD","m":"Forward","u":"L","o":"individual","sf":43560,"v":28900}},{"type":"Feature","geometry":{"type":"Point","coordinates":[-79.93874,40.23974]},"properties":{"p":"1577R00085000000","a":"BUNOLA RIVER RD","m":"Forward","u":"L","o":"individual","sf":43560,"v":28900}}]}