{"type":"FeatureCollection","features":[{"type":"Feature","geometry":{"type":"Point","coordinates":[-79.9232,40.29207]},"properties":{"p":"0881L00100000000","a":"OAK RD","m":"Jefferson Hills","u":"I","o":"individual","sf":893594,"v":57800}},{"type":"Feature","geometry":{"type":"Point","coordinates":[-79.93264,40.30442]},"properties":{"p":"0767D00050000000","a":"STATE ROUTE 51","m":"Jefferson Hills","u":"C","o":"corp","sf":125758,"v":50300}},{"type":"Feature","geometry":{"type":"Point","coordinates":[-79.93514,40.30569]},"properties":{"p":"0767D00352000000","a":"1334 STATE ROUTE 51","m":"Jefferson Hills","u":"C","o":"individual","sf":64730,"v":84200}},{"type":"Feature","geometry":{"type":"Point","coordinates":[-79.92545,40.2909]},"properties":{"p":"0881K00069000000","a":"MAPLE ST","m":"Jefferson Hills","u":"C","o":"individual","sf":6000,"v":5400}},{"type":"Feature","geometry":{"type":"Point","coordinates":[-79.93702,40.30894]},"properties":{"p":"0660S00180000000","a":"STATE ROUTE 51","m":"Jefferson Hills","u":"C","o":"corp","sf":9148,"v":2700}},{"type":"Feature","geometry":{"type":"Point","coordinates":[-79.93686,40.30975]},"properties":{"p":"0660M00012000000","a":"1303 STATE ROUTE 51","m":"Jefferson Hills","u":"C","o":"corp","sf":9148,"v":13600}},{"type":"Feature","geometry":{"type":"Point","coordinates":[-79.9262,40.3005]},"properties":{"p":"0766K00115000000","a":"STATE ROUTE 51","m":"Jefferson Hills","u":"C","o":"corp","sf":91960,"v":70700}},{"type":"Feature","geometry":{"type":"Point","coordinates":[-79.92497,40.30037]},"properties":{"p":"0766L00075000000","a":"STATE ROUTE 51","m":"Jefferson Hills","u":"C","o":"corp","sf":73808,"v":74000}},{"type":"Feature","geometry":{"type":"Point","coordinates":[-79.92873,40.30071]},"properties":{"p":"0766K00085000000","a":"STATE ROUTE 51","m":"Jefferson Hills","u":"C","o":"individual","sf":26419,"v":75800}},{"type":"Feature","geometry":{"type":"Point","coordinates":[-79.92036,40.29298]},"properties":{"p":"0881G00154000000","a":"VINE ST","m":"Jefferson Hills","u":"L","o":"corp","sf":22715,"v":45300}},{"type":"Feature","geometry":{"type":"Point","coordinates":[-79.92128,40.29335]},"properties":{"p":"0881G00173000000","a":"VINE ST","m":"Jefferson Hills","u":"L","o":"individual","sf":42568,"v":47300}},{"type":"Feature","geometry":{"type":"Point","coordinates":[-79.93579,40.29424]},"properties":{"p":"0882H00004000000","a":"114 STETTLER DR","m":"Jefferson Hills","u":"L","o":"individual","sf":6500,"v":1000}},{"type":"Feature","geometry":{"type":"Point","coordinates":[-79.92592,40.29635]},"properties":{"p":"0881B00109000000","a":"OLD CLAIRTON RD","m":"Jefferson Hills","u":"L","o":"individual","sf":7800,"v":31200}},{"type":"Feature","geometry":{"type":"Point","coordinates":[-79.9246,40.29526]},"properties":{"p":"0881C00348000100","a":"SHELLBARK ST","m":"Jefferson Hills","u":"L","o":"individual","sf":2400,"v":200}},{"type":"Feature","geometry":{"type":"Point","coordinates":[-79.92105,40.29545]},"properties":{"p":"0881D00001000000","a":"2063 OLD CLAIRTON RD","m":"Jefferson Hills","u":"L","o":"individual","sf":35654,"v":3600}},{"type":"Feature","geometry":{"type":"Point","coordinates":[-79.92536,40.2983]},"properties":{"p":"0766P00045000000","a":"BUTTERNUT ST","m":"Jefferson Hills","u":"L","o":"individual","sf":10608,"v":12000}},{"type":"Feature","geometry":{"type":"Point","coordinates":[-79.92521,40.29885]},"properties":{"p":"0766P00060000000","a":"BUTTERNUT ST","m":"Jefferson Hills","u":"L","o":"individual","sf":63120,"v":49500}},{"type":"Feature","geometry":{"type":"Point","coordinates":[-79.92223,40.29888]},"properties":{"p":"0766R00190000000","a":"STATE ROUTE 51","m":"Jefferson Hills","u":"L","o":"corp","sf":25875,"v":45600}},{"type":"Feature","geometry":{"type":"Point","coordinates":[-79.92166,40.29802]},"properties":{"p":"0766S00004000000","a":"STATE ROUTE 51","m":"Jefferson Hills","u":"L","o":"corp","sf":30122,"v":46000}},{"type":"Feature","geometry":{"type":"Point","coordinates":[-79.92087,40.29788]},"properties":{"p":"0766S00009000000","a":"STATE ROUTE 51","m":"Jefferson Hills","u":"L","o":"corp","sf":97574,"v":53000}},{"type":"Feature","geometry":{"type":"Point","coordinates":[-79.92087,40.29322]},"properties":{"p":"0881H00353000000","a":"VINE ST","m":"Jefferson Hills","u":"L","o":"corp","sf":3000,"v":300}},{"type":"Feature","geometry":{"type":"Point","coordinates":[-79.9256,40.29017]},"properties":{"p":"0881K00012000000","a":"1022 OAK ST","m":"Jefferson Hills","u":"L","o":"individual","sf":3000,"v":3000}},{"type":"Feature","geometry":{"type":"Point","coordinates":[-79.92582,40.29017]},"properties":{"p":"0881K00016000000","a":"OAK ST","m":"Jefferson Hills","u":"L","o":"individual","sf":3000,"v":300}},{"type":"Feature","geometry":{"type":"Point","coordinates":[-79.92592,40.29017]},"properties":{"p":"0881K00018000000","a":"OAK ST","m":"Jefferson Hills","u":"L","o":"individual","sf":2785,"v":300}},{"type":"Feature","geometry":{"type":"Point","coordinates":[-79.92348,40.3015]},"properties":{"p":"0766L00259000000","a":"WRAY LARGE RD","m":"Jefferson Hills","u":"L","o":"corp","sf":25407,"v":45500}},{"type":"Feature","geometry":{"type":"Point","coordinates":[-79.93149,40.29324]},"properties":{"p":"0881E00011000000","a":"COUNCIL PL","m":"Jefferson Hills","u":"L","o":"individual","sf":13000,"v":53600}},{"type":"Feature","geometry":{"type":"Point","coordinates":[-79.92616,40.29089]},"properties":{"p":"0881K00079000000","a":"MAPLE ST","m":"Jefferson Hills","u":"L","o":"individual","sf":2604,"v":300}},{"type":"Feature","geometry":{"type":"Point","coordinates":[-79.92697,40.29699]},"properties":{"p":"0881B00050000000","a":"BUTTERNUT ST","m":"Jefferson Hills","u":"L","o":"individual","sf":4931,"v":500}},{"type":"Feature","geometry":{"type":"Point","coordinates":[-79.92393,40.29849]},"properties":{"p":"0766R00059000000","a":"BUTTERNUT ST","m":"Jefferson Hills","u":"L","o":"individual","sf":150151,"v":35000}},{"type":"Feature","geometry":{"type":"Point","coordinates":[-79.92124,40.29864]},"properties":{"p":"0766R00152000000","a":"STATE ROUTE 51","m":"Jefferson Hills","u":"L","o":"corp","sf":13920,"v":38100}},{"type":"Feature","geometry":{"type":"Point","coordinates":[-79.92136,40.29884]},"properties":{"p":"0766R00156000000","a":"STATE ROUTE 51","m":"Jefferson Hills","u":"L","o":"corp","sf":12718,"v":36800}},{"type":"Feature","geometry":{"type":"Point","coordinates":[-79.92146,40.29901]},"properties":{"p":"0766R00159000000","a":"STATE ROUTE 51","m":"Jefferson Hills","u":"L","o":"corp","sf":8622,"v":900}},{"type":"Feature","geometry":{"type":"Point","coordinates":[-79.9219,40.29838]},"properties":{"p":"0766R00175000000","a":"STATE ROUTE 51","m":"Jefferson Hills","u":"L","o":"corp","sf":17680,"v":42400}},{"type":"Feature","geometry":{"type":"Point","coordinates":[-79.92203,40.29857]},"properties":{"p":"0766R00179000000","a":"SYCAMORE DR","m":"Jefferson Hills","u":"L","o":"corp","sf":18482,"v":43300}},{"type":"Feature","geometry":{"type":"Point","coordinates":[-79.9257,40.29412]},"properties":{"p":"0881F00150000100","a":"VINE ST","m":"Jefferson Hills","u":"L","o":"individual","sf":7318,"v":700}},{"type":"Feature","geometry":{"type":"Point","coordinates":[-79.93456,40.29104]},"properties":{"p":"0882M00037000100","a":"STETTLER DR","m":"Jefferson Hills","u":"L","o":"individual","sf":1149,"v":200}},{"type":"Feature","geometry":{"type":"Point","coordinates":[-79.93406,40.2911]},"properties":{"p":"0882M00038000100","a":"STETTLER DR","m":"Jefferson Hills","u":"L","o":"individual","sf":2483,"v":400}},{"type":"Feature","geometry":{"type":"Point","coordinates":[-79.93648,40.29204]},"properties":{"p":"0882M00048000000","a":"QUINCEY DR","m":"Jefferson Hills","u":"L","o":"individual","sf":42898,"v":68400}},{"type":"Feature","geometry":{"type":"Point","coordinates":[-79.92443,40.30448]},"properties":{"p":"0766B00080000000","a":"369 WRAY LARGE RD","m":"Jefferson Hills","u":"L","o":"individual","sf":534682,"v":72700}},{"type":"Feature","geometry":{"type":"Point","coordinates":[-79.93285,40.29511]},"properties":{"p":"0881A00131000000","a":"WANDA LN","m":"Jefferson Hills","u":"L","o":"individual","sf":16640,"v":59500}},{"type":"Feature","geometry":{"type":"Point","coordinates":[-79.92634,40.29853]},"properties":{"p":"0766P00063000000","a":"BUTTERNUT ST","m":"Jefferson Hills","u":"L","o":"individual","sf":67954,"v":50000}},{"type":"Feature","geometry":{"type":"Point","coordinates":[-79.92667,40.29756]},"properties":{"p":"0766P00074000000","a":"BUTTERNUT ST","m":"Jefferson Hills","u":"L","o":"individual","sf":10171,"v":33900}},{"type":"Feature","geometry":{"type":"Point","coordinates":[-79.92654,40.29805]},"properties":{"p":"0766P00100000000","a":"BUTTERNUT ST","m":"Jefferson Hills","u":"L","o":"individual","sf":4951,"v":500}},{"type":"Feature","geometry":{"type":"Point","coordinates":[-79.926,40.29849]},"properties":{"p":"0766P00120000000","a":"BUTTERNUT ST","m":"Jefferson Hills","u":"L","o":"individual","sf":8118,"v":800}},{"type":"Feature","geometry":{"type":"Point","coordinates":[-79.93779,40.29143]},"properties":{"p":"0882M00100000000","a":"QUINCEY DR","m":"Jefferson Hills","u":"L","o":"corp","sf":289443,"v":83700}},{"type":"Feature","geometry":{"type":"Point","coordinates":[-79.92046,40.2988]},"properties":{"p":"0766S00085000000","a":"LEWIS RUN RD","m":"Jefferson Hills","u":"L","o":"individual","sf":13661,"v":37800}},{"type":"Feature","geometry":{"type":"Point","coordinates":[-79.92026,40.29966]},"properties":{"p":"0766S00094000000","a":"LEWIS RUN RD","m":"Jefferson Hills","u":"L","o":"individual","sf":17929,"v":42700}},{"type":"Feature","geometry":{"type":"Point","coordinates":[-79.92588,40.2905]},"properties":{"p":"0881K00050000000","a":"1027 MAPLE ST","m":"Jefferson Hills","u":"L","o":"individual","sf":5785,"v":500}},{"type":"Feature","geometry":{"type":"Point","coordinates":[-79.92566,40.29051]},"properties":{"p":"0881K00053000000","a":"MAPLE ST","m":"Jefferson Hills","u":"L","o":"individual","sf":6000,"v":600}},{"type":"Feature","geometry":{"type":"Point","coordinates":[-79.92523,40.29051]},"properties":{"p":"0881K00059000000","a":"MAPLE ST","m":"Jefferson Hills","u":"L","o":"individual","sf":6000,"v":29200}},{"type":"Feature","geometry":{"type":"Point","coordinates":[-79.92024,40.29713]},"properties":{"p":"0881D00145000000","a":"LEWIS RUN RD","m":"Jefferson Hills","u":"L","o":"corp","sf":84506,"v":51700}},{"type":"Feature","geometry":{"type":"Point","coordinates":[-79.93404,40.29564]},"properties":{"p":"0882D00010000000","a":"REDCLIFFE DR","m":"Jefferson Hills","u":"L","o":"individual","sf":3380,"v":500}},{"type":"Feature","geometry":{"type":"Point","coordinates":[-79.93597,40.30799]},"properties":{"p":"0660S00140000000","a":"STATE ROUTE 51","m":"Jefferson Hills","u":"L","o":"corp","sf":5855,"v":600}},{"type":"Feature","geometry":{"type":"Point","coordinates":[-79.92835,40.29547]},"properties":{"p":"0881B00286000000","a":"108 STEVENS RIDGE DR","m":"Jefferson Hills","u":"L","o":"individual","sf":3740,"v":400}},{"type":"Feature","geometry":{"type":"Point","coordinates":[-79.9289,40.29548]},"properties":{"p":"0881B00288000000","a":"104 STEVENS RIDGE DR","m":"Jefferson Hills","u":"L","o":"individual","sf":497,"v":100}},{"type":"Feature","geometry":{"type":"Point","coordinates":[-79.92721,40.29664]},"properties":{"p":"0881B00290000000","a":"HAZELNUT ST","m":"Jefferson Hills","u":"L","o":"corp","sf":543,"v":100}},{"type":"Feature","geometry":{"type":"Point","coordinates":[-79.92048,40.29221]},"properties":{"p":"0881M00060000000","a":"VINE ST","m":"Jefferson Hills","u":"L","o":"individual","sf":70132,"v":50200}},{"type":"Feature","geometry":{"type":"Point","coordinates":[-79.93753,40.30974]},"properties":{"p":"0660L00380000000","a":"STATE ROUTE 51","m":"Jefferson Hills","u":"L","o":"individual","sf":24031,"v":45400}},{"type":"Feature","geometry":{"type":"Point","coordinates":[-79.93465,40.30456]},"properties":{"p":"0767H00014000000","a":"STATE ROUTE 51","m":"Jefferson Hills","u":"L","o":"corp","sf":8493,"v":43700}},{"type":"Feature","geometry":{"type":"Point","coordinates":[-79.92502,40.2909]},"properties":{"p":"0881L00156000000","a":"MAPLE ST","m":"Jefferson Hills","u":"L","o":"individual","sf":6000,"v":600}},{"type":"Feature","geometry":{"type":"Point","coordinates":[-79.92477,40.3094]},"properties":{"p":"0659K00035000000","a":"WRAY LARGE RD","m":"Jefferson Hills","u":"L","o":"individual","sf":50442,"v":5000}},{"type":"Feature","geometry":{"type":"Point","coordinates":[-79.92305,40.30946]},"properties":{"p":"0659K00037000000","a":"WRAY LARGE RD","m":"Jefferson Hills","u":"L","o":"individual","sf":533610,"v":79800}},{"type":"Feature","geometry":{"type":"Point","coordinates":[-79.92418,40.30793]},"properties":{"p":"0659P00010000000","a":"321 WRAY LARGE RD","m":"Jefferson Hills","u":"L","o":"individual","sf":953964,"v":118800}},{"type":"Feature","geometry":{"type":"Point","coordinates":[-79.92248,40.30462]},"properties":{"p":"0766G00001000000","a":"WRAY LARGE RD","m":"Jefferson Hills","u":"L","o":"individual","sf":43996,"v":4400}},{"type":"Feature","geometry":{"type":"Point","coordinates":[-79.92123,40.30365]},"properties":{"p":"0766H00020000000","a":"PAYNE HILL RD","m":"Jefferson Hills","u":"L","o":"individual","sf":479160,"v":72400}},{"type":"Feature","geometry":{"type":"Point","coordinates":[-79.92098,40.29584]},"properties":{"p":"0881C00018000000","a":"OLD CLAIRTON RD","m":"Jefferson Hills","u":"L","o":"individual","sf":23914,"v":2400}},{"type":"Feature","geometry":{"type":"Point","coordinates":[-79.9237,40.29675]},"properties":{"p":"0881C00058000000","a":"CLAIRTON RD","m":"Jefferson Hills","u":"L","o":"individual","sf":142006,"v":57600}},{"type":"Feature","geometry":{"type":"Point","coordinates":[-79.92222,40.29694]},"properties":{"p":"0881C00100000000","a":"OLD CLAIRTON RD","m":"Jefferson Hills","u":"L","o":"individual","sf":67518,"v":4700}},{"type":"Feature","geometry":{"type":"Point","coordinates":[-79.92145,40.29467]},"properties":{"p":"0881C00185000000","a":"OLD CLAIRTON RD","m":"Jefferson Hills","u":"L","o":"individual","sf":176854,"v":18300}},{"type":"Feature","geometry":{"type":"Point","coordinates":[-79.92565,40.2994]},"properties":{"p":"0766K00010000000","a":"UNNAMED RD","m":"Jefferson Hills","u":"L","o":"individual","sf":104108,"v":53700}},{"type":"Feature","geometry":{"type":"Point","coordinates":[-79.92214,40.3013]},"properties":{"p":"0766L00290000000","a":"LEWIS RUN RD","m":"Jefferson Hills","u":"L","o":"individual","sf":64904,"v":6700}},{"type":"Feature","geometry":{"type":"Point","coordinates":[-79.92605,40.29089]},"properties":{"p":"0881K00077000000","a":"MAPLE ST","m":"Jefferson Hills","u":"L","o":"individual","sf":3182,"v":300}},{"type":"Feature","geometry":{"type":"Point","coordinates":[-79.9387,40.3084]},"properties":{"p":"0660L00067000000","a":"ELLIOTT RD","m":"Jefferson Hills","u":"L","o":"corp","sf":770228,"v":1748000}},{"type":"Feature","geometry":{"type":"Point","coordinates":[-79.92219,40.29906]},"properties":{"p":"0766R00192000000","a":"STATE ROUTE 51","m":"Jefferson Hills","u":"L","o":"corp","sf":14081,"v":1400}},{"type":"Feature","geometry":{"type":"Point","coordinates":[-79.92214,40.29873]},"properties":{"p":"0766R00183000000","a":"STATE ROUTE 51","m":"Jefferson Hills","u":"L","o":"corp","sf":13139,"v":37300}},{"type":"Feature","geometry":{"type":"Point","coordinates":[-79.93583,40.30375]},"properties":{"p":"0767H00008000000","a":"5044 ALTA VISTA DR","m":"Jefferson Hills","u":"B","o":"individual","sf":37500,"v":12400}},{"type":"Feature","geometry":{"type":"Point","coordinates":[-79.93473,40.30397]},"properties":{"p":"0767H00016000000","a":"5050 ALTA VISTA DR","m":"Jefferson Hills","u":"B","o":"corp","sf":66490,"v":16700}},{"type":"Feature","geometry":{"type":"Point","coordinates":[-79.93407,40.30354]},"properties":{"p":"0767H00018000000","a":"5049 ALTA VISTA DR","m":"Jefferson Hills","u":"B","o":"individual","sf":119511,"v":24600}}]}