{"type":"FeatureCollection","features":[{"type":"Feature","geometry":{"type":"Point","coordinates":[-79.9392,40.31288]},"properties":{"p":"0660G00127000000","a":"1206 STATE ROUTE 51","m":"Jefferson Hills","u":"C","o":"individual","sf":135306,"v":141100}},{"type":"Feature","geometry":{"type":"Point","coordinates":[-79.93592,40.31539]},"properties":{"p":"0660D00052000000","a":"COAL VALLEY RD","m":"Jefferson Hills","u":"C","o":"corp","sf":43560,"v":13100}},{"type":"Feature","geometry":{"type":"Point","coordinates":[-79.93812,40.31369]},"properties":{"p":"0660G00067000000","a":"COAL VALLEY RD","m":"Jefferson Hills","u":"C","o":"corp","sf":3375,"v":1000}},{"type":"Feature","geometry":{"type":"Point","coordinates":[-79.9374,40.31073]},"properties":{"p":"0660L00026000000","a":"1227 -1237 STATE ROUTE 51","m":"Jefferson Hills","u":"C","o":"corp","sf":134,"v":200}},{"type":"Feature","geometry":{"type":"Point","coordinates":[-79.93742,40.31111]},"properties":{"p":"0660L00042000000","a":"STATE ROUTE 51","m":"Jefferson Hills","u":"C","o":"corp","sf":14684,"v":21900}},{"type":"Feature","geometry":{"type":"Point","coordinates":[-79.93618,40.32654]},"properties":{"p":"0470S00100000000","a":"N LEWIS RUN RD","m":"Jefferson Hills","u":"C","o":"corp","sf":369132,"v":25400}},{"type":"Feature","geometry":{"type":"Point","coordinates":[-79.9356,40.32851]},"properties":{"p":"0469J00050000001","a":"CLAIRTON RD","m":"Jefferson Hills","u":"C","o":"individual","sf":201247,"v":13900}},{"type":"Feature","geometry":{"type":"Point","coordinates":[-79.93285,40.32794]},"properties":{"p":"0469N00170000000","a":"SPARTZ DR","m":"West Mifflin","u":"L","o":"individual","sf":146122,"v":31600}},{"type":"Feature","geometry":{"type":"Point","coordinates":[-79.92567,40.32465]},"properties":{"p":"0560B00127000000","a":"FRONTIER DR","m":"West Mifflin","u":"L","o":"individual","sf":11326,"v":1000}},{"type":"Feature","geometry":{"type":"Point","coordinates":[-79.93075,40.32996]},"properties":{"p":"0469J00232000000","a":"SANIALS  LN","m":"West Mifflin","u":"L","o":"individual","sf":22390,"v":2000}},{"type":"Feature","geometry":{"type":"Point","coordinates":[-79.93075,40.32811]},"properties":{"p":"0469N00195000000","a":"CLAIRTON RD","m":"West Mifflin","u":"L","o":"individual","sf":25265,"v":2300}},{"type":"Feature","geometry":{"type":"Point","coordinates":[-79.93759,40.31639]},"properties":{"p":"0660C00025000000","a":"CHAMBERS LN","m":"Jefferson Hills","u":"L","o":"individual","sf":21693,"v":2200}},{"type":"Feature","geometry":{"type":"Point","coordinates":[-79.93827,40.31364]},"properties":{"p":"0660G00073000000","a":"COAL VALLEY RD","m":"Jefferson Hills","u":"L","o":"corp","sf":4277,"v":400}},{"type":"Feature","geometry":{"type":"Point","coordinates":[-79.93853,40.31353]},"properties":{"p":"0660G00081000000","a":"STATE ROUTE 51","m":"Jefferson Hills","u":"L","o":"corp","sf":10973,"v":34800}},{"type":"Feature","geometry":{"type":"Point","coordinates":[-79.93849,40.31391]},"properties":{"p":"0660G00093000000","a":"STATE ROUTE 51","m":"Jefferson Hills","u":"L","o":"corp","sf":45738,"v":47700}},{"type":"Feature","geometry":{"type":"Point","coordinates":[-79.93382,40.31196]},"properties":{"p":"0660D00075000000","a":"CHAMBERS LN","m":"Jefferson Hills","u":"L","o":"individual","sf":130680,"v":13500}},{"type":"Feature","geometry":{"type":"Point","coordinates":[-79.93272,40.31459]},"properties":{"p":"0660D00115000000","a":"CHAMBERS LN","m":"Jefferson Hills","u":"L","o":"corp","sf":128415,"v":56200}},{"type":"Feature","geometry":{"type":"Point","coordinates":[-79.93322,40.31483]},"properties":{"p":"0660D00118000000","a":"CHAMBERS LN","m":"Jefferson Hills","u":"L","o":"corp","sf":24045,"v":45400}},{"type":"Feature","geometry":{"type":"Point","coordinates":[-79.93377,40.31527]},"properties":{"p":"0660D00125000000","a":"CHAMBERS LN","m":"Jefferson Hills","u":"L","o":"individual","sf":22115,"v":2200}},{"type":"Feature","geometry":{"type":"Point","coordinates":[-79.93443,40.3155]},"properties":{"p":"0660D00133000000","a":"CHAMBERS LN","m":"Jefferson Hills","u":"L","o":"individual","sf":18303,"v":43100}},{"type":"Feature","geometry":{"type":"Point","coordinates":[-79.93826,40.31295]},"properties":{"p":"0660G00036000000","a":"STATE ROUTE 51","m":"Jefferson Hills","u":"L","o":"corp","sf":28000,"v":45800}},{"type":"Feature","geometry":{"type":"Point","coordinates":[-79.93818,40.31636]},"properties":{"p":"0660C00071000000","a":"COAL VALLEY RD","m":"Jefferson Hills","u":"L","o":"corp","sf":111078,"v":1300}},{"type":"Feature","geometry":{"type":"Point","coordinates":[-79.93882,40.31441]},"properties":{"p":"0660C00145000000","a":"STATE ROUTE 51","m":"Jefferson Hills","u":"L","o":"individual","sf":47480,"v":47800}},{"type":"Feature","geometry":{"type":"Point","coordinates":[-79.93999,40.31523]},"properties":{"p":"0660C00212000000","a":"STATE ROUTE 51","m":"Jefferson Hills","u":"L","o":"individual","sf":34868,"v":46500}},{"type":"Feature","geometry":{"type":"Point","coordinates":[-79.92561,40.31146]},"properties":{"p":"0659K00128000000","a":"WRAY LARGE RD","m":"Jefferson Hills","u":"L","o":"individual","sf":11700,"v":35600}},{"type":"Feature","geometry":{"type":"Point","coordinates":[-79.93853,40.31176]},"properties":{"p":"0660L00057000000","a":"1206 STATE ROUTE 51","m":"Jefferson Hills","u":"L","o":"individual","sf":37224,"v":46700}},{"type":"Feature","geometry":{"type":"Point","coordinates":[-79.9386,40.31139]},"properties":{"p":"0660L00058000000","a":"1206 STATE ROUTE 51","m":"Jefferson Hills","u":"L","o":"individual","sf":21432,"v":45100}},{"type":"Feature","geometry":{"type":"Point","coordinates":[-79.93718,40.31142]},"properties":{"p":"0660M00040000000","a":"LEWIS RUN RD","m":"Jefferson Hills","u":"L","o":"corp","sf":13225,"v":37300}},{"type":"Feature","geometry":{"type":"Point","coordinates":[-79.92691,40.31134]},"properties":{"p":"0659K00210000000","a":"PROVIDENCE DR","m":"Jefferson Hills","u":"L","o":"individual","sf":9736,"v":1000}},{"type":"Feature","geometry":{"type":"Point","coordinates":[-79.92143,40.31784]},"properties":{"p":"0560R00230000000","a":"STATE ROUTE 885","m":"Jefferson Hills","u":"L","o":"individual","sf":5271,"v":500}},{"type":"Feature","geometry":{"type":"Point","coordinates":[-79.9239,40.31664]},"properties":{"p":"0659C00198000000","a":"REED DR","m":"Jefferson Hills","u":"L","o":"individual","sf":13600,"v":37800}},{"type":"Feature","geometry":{"type":"Point","coordinates":[-79.93036,40.3147]},"properties":{"p":"0659E00185000000","a":"WRAY LARGE RD","m":"Jefferson Hills","u":"L","o":"corp","sf":237838,"v":36000}},{"type":"Feature","geometry":{"type":"Point","coordinates":[-79.92949,40.32509]},"properties":{"p":"0560A00090000000","a":"STATE ROUTE 885","m":"Jefferson Hills","u":"L","o":"individual","sf":25442,"v":2500}},{"type":"Feature","geometry":{"type":"Point","coordinates":[-79.92995,40.31575]},"properties":{"p":"0659A00014000000","a":"ACORN LN","m":"Jefferson Hills","u":"L","o":"individual","sf":32626,"v":33000}},{"type":"Feature","geometry":{"type":"Point","coordinates":[-79.9234,40.31394]},"properties":{"p":"0659G00073000000","a":"WRAY LARGE RD","m":"Jefferson Hills","u":"L","o":"individual","sf":11427,"v":1100}},{"type":"Feature","geometry":{"type":"Point","coordinates":[-79.92253,40.31997]},"properties":{"p":"0560L00100000000","a":"STATE ROUTE 885","m":"Jefferson Hills","u":"L","o":"individual","sf":1658,"v":200}},{"type":"Feature","geometry":{"type":"Point","coordinates":[-79.9223,40.31936]},"properties":{"p":"0560L00124000000","a":"STATE ROUTE 885","m":"Jefferson Hills","u":"L","o":"individual","sf":3600,"v":400}},{"type":"Feature","geometry":{"type":"Point","coordinates":[-79.9239,40.31231]},"properties":{"p":"0659G00156000000","a":"WRAY LARGE RD","m":"Jefferson Hills","u":"L","o":"individual","sf":9280,"v":900}},{"type":"Feature","geometry":{"type":"Point","coordinates":[-79.92495,40.31809]},"properties":{"p":"0560P00083000000","a":"ROBERTS DR","m":"Jefferson Hills","u":"L","o":"individual","sf":750,"v":100}},{"type":"Feature","geometry":{"type":"Point","coordinates":[-79.92661,40.32239]},"properties":{"p":"0560F00205000000","a":"COAL VALLEY RD","m":"Jefferson Hills","u":"L","o":"individual","sf":4883,"v":500}},{"type":"Feature","geometry":{"type":"Point","coordinates":[-79.92672,40.32223]},"properties":{"p":"0560F00209000000","a":"507 COAL VALLEY RD","m":"Jefferson Hills","u":"L","o":"individual","sf":16085,"v":1600}},{"type":"Feature","geometry":{"type":"Point","coordinates":[-79.92069,40.32348]},"properties":{"p":"0560H00085000000","a":"COAL VALLEY RD","m":"Jefferson Hills","u":"L","o":"individual","sf":304920,"v":67400}},{"type":"Feature","geometry":{"type":"Point","coordinates":[-79.92593,40.32021]},"properties":{"p":"0560K00081000000","a":"200 ABER DR","m":"Jefferson Hills","u":"L","o":"individual","sf":10518,"v":1100}},{"type":"Feature","geometry":{"type":"Point","coordinates":[-79.92336,40.31488]},"properties":{"p":"0659C00166000000","a":"WRAY LARGE RD","m":"Jefferson Hills","u":"L","o":"individual","sf":13686,"v":1400}},{"type":"Feature","geometry":{"type":"Point","coordinates":[-79.92331,40.31576]},"properties":{"p":"0659C00178000000","a":"WRAY LARGE RD","m":"Jefferson Hills","u":"L","o":"individual","sf":12832,"v":1300}},{"type":"Feature","geometry":{"type":"Point","coordinates":[-79.92919,40.31262]},"properties":{"p":"0659E00065000000","a":"LARGE RD","m":"Jefferson Hills","u":"L","o":"corp","sf":335412,"v":36000}},{"type":"Feature","geometry":{"type":"Point","coordinates":[-79.92321,40.31261]},"properties":{"p":"0659G00163000000","a":"159 WRAY LARGE RD","m":"Jefferson Hills","u":"L","o":"individual","sf":23974,"v":23000}},{"type":"Feature","geometry":{"type":"Point","coordinates":[-79.92106,40.31615]},"properties":{"p":"0659C00021000000","a":"129 WRAY DR","m":"Jefferson Hills","u":"L","o":"individual","sf":15099,"v":17100}},{"type":"Feature","geometry":{"type":"Point","coordinates":[-79.92517,40.32518]},"properties":{"p":"0560B00201000000","a":"FRONTIER DR","m":"Jefferson Hills","u":"L","o":"individual","sf":3659,"v":400}},{"type":"Feature","geometry":{"type":"Point","coordinates":[-79.92477,40.32423]},"properties":{"p":"0560B00225000000","a":"125 FRONTIER DR","m":"Jefferson Hills","u":"L","o":"individual","sf":80817,"v":28800}},{"type":"Feature","geometry":{"type":"Point","coordinates":[-79.92004,40.32035]},"properties":{"p":"0560M00090000000","a":"COAL VALLEY RD","m":"Jefferson Hills","u":"L","o":"individual","sf":1292905,"v":98500}},{"type":"Feature","geometry":{"type":"Point","coordinates":[-79.9304,40.31725]},"properties":{"p":"0560N00200000000","a":"COAL VALLEY RD","m":"Jefferson Hills","u":"L","o":"corp","sf":996827,"v":36000}},{"type":"Feature","geometry":{"type":"Point","coordinates":[-79.92615,40.31341]},"properties":{"p":"0659F00101000000","a":"HIDDEN OAK DR","m":"Jefferson Hills","u":"L","o":"corp","sf":63598,"v":49500}},{"type":"Feature","geometry":{"type":"Point","coordinates":[-79.92542,40.31651]},"properties":{"p":"0659B00090000000","a":"HIDDEN OAK DR","m":"Jefferson Hills","u":"L","o":"individual","sf":2825,"v":300}},{"type":"Feature","geometry":{"type":"Point","coordinates":[-79.92508,40.31604]},"properties":{"p":"0659B00092000000","a":"HIDDEN OAK DR","m":"Jefferson Hills","u":"L","o":"individual","sf":3815,"v":400}},{"type":"Feature","geometry":{"type":"Point","coordinates":[-79.93938,40.31712]},"properties":{"p":"0561R00230000000","a":"COAL VALLEY RD","m":"Jefferson Hills","u":"L","o":"corp","sf":237838,"v":65900}},{"type":"Feature","geometry":{"type":"Point","coordinates":[-79.92532,40.3231]},"properties":{"p":"0560F00086000000","a":"COAL VALLEY RD","m":"Jefferson Hills","u":"L","o":"individual","sf":14963,"v":1500}},{"type":"Feature","geometry":{"type":"Point","coordinates":[-79.92498,40.32369]},"properties":{"p":"0560F00097000000","a":"COAL VALLEY RD","m":"Jefferson Hills","u":"L","o":"individual","sf":3855,"v":400}},{"type":"Feature","geometry":{"type":"Point","coordinates":[-79.92742,40.3192]},"properties":{"p":"0560K00065017400","a":"ABER DR","m":"Jefferson Hills","u":"L","o":"individual","sf":17532,"v":25000}},{"type":"Feature","geometry":{"type":"Point","coordinates":[-79.92388,40.31826]},"properties":{"p":"0560R00078000000","a":"REED DR","m":"Jefferson Hills","u":"L","o":"individual","sf":9000,"v":900}},{"type":"Feature","geometry":{"type":"Point","coordinates":[-79.92388,40.31696]},"properties":{"p":"0560R00100000000","a":"REED DR","m":"Jefferson Hills","u":"L","o":"individual","sf":27047,"v":45700}},{"type":"Feature","geometry":{"type":"Point","coordinates":[-79.92161,40.31835]},"properties":{"p":"0560R00320000000","a":"STATE ROUTE 885","m":"Jefferson Hills","u":"L","o":"individual","sf":2001,"v":200}},{"type":"Feature","geometry":{"type":"Point","coordinates":[-79.92415,40.31326]},"properties":{"p":"0659G00024000000","a":"149 REED DR","m":"Jefferson Hills","u":"L","o":"individual","sf":11154,"v":1100}},{"type":"Feature","geometry":{"type":"Point","coordinates":[-79.92769,40.32488]},"properties":{"p":"0560B00049000000","a":"STATE ROUTE 885","m":"Jefferson Hills","u":"L","o":"individual","sf":17450,"v":42100}},{"type":"Feature","geometry":{"type":"Point","coordinates":[-79.92653,40.32453]},"properties":{"p":"0560B00109000000","a":"STATE ROUTE 885","m":"Jefferson Hills","u":"L","o":"individual","sf":978,"v":100}},{"type":"Feature","geometry":{"type":"Point","coordinates":[-79.92595,40.32451]},"properties":{"p":"0560B00133000000","a":"PRIVATE RD","m":"Jefferson Hills","u":"L","o":"individual","sf":15554,"v":1600}},{"type":"Feature","geometry":{"type":"Point","coordinates":[-79.92238,40.31981]},"properties":{"p":"0560L00131000000","a":"1410 STATE ROUTE 885","m":"Jefferson Hills","u":"L","o":"individual","sf":14176,"v":1400}},{"type":"Feature","geometry":{"type":"Point","coordinates":[-79.92054,40.31661]},"properties":{"p":"0659C00005000000","a":"WRAY DR","m":"Jefferson Hills","u":"L","o":"individual","sf":11239,"v":12700}},{"type":"Feature","geometry":{"type":"Point","coordinates":[-79.93511,40.32552]},"properties":{"p":"0561D00133000000","a":"SPARTZ DR","m":"Jefferson Hills","u":"L","o":"individual","sf":216667,"v":65300}},{"type":"Feature","geometry":{"type":"Point","coordinates":[-79.93951,40.32364]},"properties":{"p":"0561G00080000000","a":"555 N LEWIS RUN RD","m":"Jefferson Hills","u":"L","o":"corp","sf":265106,"v":66500}},{"type":"Feature","geometry":{"type":"Point","coordinates":[-79.92304,40.32052]},"properties":{"p":"0560L00150000000","a":"STATE ROUTE 885","m":"Jefferson Hills","u":"L","o":"individual","sf":29484,"v":3000}},{"type":"Feature","geometry":{"type":"Point","coordinates":[-79.92424,40.32148]},"properties":{"p":"0560L00160000000","a":"STATE ROUTE 885","m":"Jefferson Hills","u":"L","o":"individual","sf":14459,"v":12000}},{"type":"Feature","geometry":{"type":"Point","coordinates":[-79.92581,40.32345]},"properties":{"p":"0560F00045000000","a":"FRONTIER DR","m":"Jefferson Hills","u":"L","o":"individual","sf":35508,"v":3600}},{"type":"Feature","geometry":{"type":"Point","coordinates":[-79.92615,40.32315]},"properties":{"p":"0560F00057000000","a":"STATE ROUTE 885","m":"Jefferson Hills","u":"L","o":"individual","sf":38150,"v":24400}},{"type":"Feature","geometry":{"type":"Point","coordinates":[-79.92682,40.31704]},"properties":{"p":"0560P00119000000","a":"TIMBER LN","m":"Jefferson Hills","u":"L","o":"individual","sf":11950,"v":1200}},{"type":"Feature","geometry":{"type":"Point","coordinates":[-79.92743,40.3228]},"properties":{"p":"0560F00257000000","a":"COAL VALLEY RD","m":"Jefferson Hills","u":"L","o":"individual","sf":12775,"v":36800}},{"type":"Feature","geometry":{"type":"Point","coordinates":[-79.92573,40.31927]},"properties":{"p":"0560K00115000000","a":"201 ABER DR","m":"Jefferson Hills","u":"L","o":"individual","sf":9190,"v":900}},{"type":"Feature","geometry":{"type":"Point","coordinates":[-79.93376,40.31431]},"properties":{"p":"0660D00090000000","a":"143 CHAMBERS LN","m":"Jefferson Hills","u":"L","o":"individual","sf":71743,"v":50300}},{"type":"Feature","geometry":{"type":"Point","coordinates":[-79.9341,40.32954]},"properties":{"p":"0469J00060000000","a":"1725 CLAIRTON RD","m":"West Mifflin","u":"L","o":"corp","sf":309276,"v":44500}},{"type":"Feature","geometry":{"type":"Point","coordinates":[-79.92491,40.31386]},"properties":{"p":"0659F00010000000","a":"144 REED DR","m":"Jefferson Hills","u":"L","o":"individual","sf":5713,"v":600}},{"type":"Feature","geometry":{"type":"Point","coordinates":[-79.92926,40.32387]},"properties":{"p":"0560E00174000000","a":"530 COAL VALLEY RD","m":"Jefferson Hills","u":"L","o":"individual","sf":10454,"v":1100}},{"type":"Feature","geometry":{"type":"Point","coordinates":[-79.92804,40.31841]},"properties":{"p":"0560P00200000000","a":"ANDREW DR","m":"Jefferson Hills","u":"L","o":"corp","sf":457325,"v":88700}},{"type":"Feature","geometry":{"type":"Point","coordinates":[-79.92588,40.31091]},"properties":{"p":"0659K00126000000","a":"PROVIDENCE DR","m":"Jefferson Hills","u":"L","o":"individual","sf":62160,"v":49400}},{"type":"Feature","geometry":{"type":"Point","coordinates":[-79.92333,40.31543]},"properties":{"p":"0659C00172000000","a":"WRAY LARGE RD","m":"Jefferson Hills","u":"L","o":"individual","sf":26270,"v":34400}},{"type":"Feature","geometry":{"type":"Point","coordinates":[-79.92969,40.32462]},"properties":{"p":"0560A00035000001","a":"CLAIRTON RD","m":"Jefferson Hills","u":"L","o":"individual","sf":83635,"v":9000}},{"type":"Feature","geometry":{"type":"Point","coordinates":[-79.93932,40.31566]},"properties":{"p":"0660C00163000000","a":"STATE ROUTE 51","m":"Jefferson Hills","u":"L","o":"corp","sf":126106,"v":56000}},{"type":"Feature","geometry":{"type":"Point","coordinates":[-79.92764,40.31195]},"properties":{"p":"0659F00042000000","a":"PROVIDENCE DR","m":"Jefferson Hills","u":"L","o":"individual","sf":123262,"v":12700}},{"type":"Feature","geometry":{"type":"Point","coordinates":[-79.92507,40.31625]},"properties":{"p":"0659B00091000000","a":"HIDDEN OAK DR","m":"Jefferson Hills","u":"L","o":"individual","sf":2256,"v":200}},{"type":"Feature","geometry":{"type":"Point","coordinates":[-79.92517,40.32461]},"properties":{"p":"0560B00214000000","a":"FRONTIER DR","m":"Jefferson Hills","u":"L","o":"individual","sf":10019,"v":11300}},{"type":"Feature","geometry":{"type":"Point","coordinates":[-79.92581,40.31169]},"properties":{"p":"0659K00202000000","a":"110 PROVIDENCE DR","m":"Jefferson Hills","u":"B","o":"individual","sf":22215,"v":7000}},{"type":"Feature","geometry":{"type":"Point","coordinates":[-79.92615,40.31132]},"properties":{"p":"0659K00204000000","a":"106 PROVIDENCE DR","m":"Jefferson Hills","u":"B","o":"individual","sf":14766,"v":5900}},{"type":"Feature","geometry":{"type":"Point","coordinates":[-79.92473,40.31998]},"properties":{"p":"0560L00088000000","a":"126 ABER DR","m":"Jefferson Hills","u":"B","o":"individual","sf":11572,"v":5400}},{"type":"Feature","geometry":{"type":"Point","coordinates":[-79.92529,40.32119]},"properties":{"p":"0560K00065000000","a":"CLAIRTON RD","m":"Jefferson Hills","u":"B","o":"individual","sf":23638,"v":7200}},{"type":"Feature","geometry":{"type":"Point","coordinates":[-79.9249,40.32107]},"properties":{"p":"0560K00067000000","a":"ANDREW DR","m":"Jefferson Hills","u":"B","o":"individual","sf":20265,"v":6800}}]}