{"type":"FeatureCollection","features":[{"type":"Feature","geometry":{"type":"Point","coordinates":[-79.919,40.42007]},"properties":{"p":"0088H00092000000","a":"6440 KEMPER ST","m":"14th Ward - PITTSBURGH","u":"C","o":"corp","sf":480,"v":900}},{"type":"Feature","geometry":{"type":"Point","coordinates":[-79.91811,40.42052]},"properties":{"p":"0088H00020000000","a":"BEECHWOOD BLVD","m":"14th Ward - PITTSBURGH","u":"C","o":"corp","sf":267311,"v":10400}},{"type":"Feature","geometry":{"type":"Point","coordinates":[-79.90744,40.4238]},"properties":{"p":"0128R00001000000","a":"2005 BEECHWOOD BLVD","m":"14th Ward - PITTSBURGH","u":"C","o":"corp","sf":6098,"v":2700}},{"type":"Feature","geometry":{"type":"Point","coordinates":[-79.90728,40.42398]},"properties":{"p":"0128R00002000000","a":"ONONDAGO ST","m":"14th Ward - PITTSBURGH","u":"C","o":"corp","sf":21344,"v":9100}},{"type":"Feature","geometry":{"type":"Point","coordinates":[-79.91121,40.42077]},"properties":{"p":"0129J00100000000","a":"2005 BEECHWOOD BLVD","m":"14th Ward - PITTSBURGH","u":"C","o":"corp","sf":973566,"v":22400}},{"type":"Feature","geometry":{"type":"Point","coordinates":[-79.91462,40.41183]},"properties":{"p":"0130E00201000000","a":"E WATERFRONT DR","m":"Homestead","u":"C","o":"corp","sf":399450,"v":24000}},{"type":"Feature","geometry":{"type":"Point","coordinates":[-79.90039,40.41472]},"properties":{"p":"0129S00050000000","a":"E WATERFRONT DR","m":"Munhall","u":"C","o":"corp","sf":138500,"v":8400}},{"type":"Feature","geometry":{"type":"Point","coordinates":[-79.91929,40.4275]},"properties":{"p":"0087M00056000000","a":"ALDERSON ST","m":"14th Ward - PITTSBURGH","u":"L","o":"individual","sf":330,"v":200}},{"type":"Feature","geometry":{"type":"Point","coordinates":[-79.91841,40.42355]},"properties":{"p":"0088D00025000000","a":"ANITA AVE","m":"14th Ward - PITTSBURGH","u":"L","o":"individual","sf":4050,"v":1800}},{"type":"Feature","geometry":{"type":"Point","coordinates":[-79.91845,40.42321]},"properties":{"p":"0088D00328000000","a":"ANITA AVE","m":"14th Ward - PITTSBURGH","u":"L","o":"individual","sf":363,"v":300}},{"type":"Feature","geometry":{"type":"Point","coordinates":[-79.91918,40.42439]},"properties":{"p":"0087S00158000A00","a":"6414 MONITOR ST","m":"14th Ward - PITTSBURGH","u":"L","o":"individual","sf":258,"v":200}},{"type":"Feature","geometry":{"type":"Point","coordinates":[-79.91714,40.42241]},"properties":{"p":"0088D00083000000","a":"2941 BEECHWOOD BLVD","m":"14th Ward - PITTSBURGH","u":"L","o":"individual","sf":3144,"v":1500}},{"type":"Feature","geometry":{"type":"Point","coordinates":[-79.91958,40.41987]},"properties":{"p":"0088H00061000000","a":"KEMPER ST","m":"14th Ward - PITTSBURGH","u":"L","o":"individual","sf":4152,"v":1900}},{"type":"Feature","geometry":{"type":"Point","coordinates":[-79.91966,40.41985]},"properties":{"p":"0088H00062000000","a":"KEMPER ST","m":"14th Ward - PITTSBURGH","u":"L","o":"individual","sf":4250,"v":2000}},{"type":"Feature","geometry":{"type":"Point","coordinates":[-79.91725,40.41679]},"properties":{"p":"0088H00161000000","a":"2005 BEECHWOOD BLVD","m":"14th Ward - PITTSBURGH","u":"L","o":"corp","sf":626776,"v":300000}},{"type":"Feature","geometry":{"type":"Point","coordinates":[-79.91768,40.41705]},"properties":{"p":"0088M00158000000","a":"SHELBURNE LN","m":"14th Ward - PITTSBURGH","u":"L","o":"corp","sf":6283,"v":140400}},{"type":"Feature","geometry":{"type":"Point","coordinates":[-79.92,40.42055]},"properties":{"p":"0088H00029000000","a":"BEECHWOOD BLVD","m":"14th Ward - PITTSBURGH","u":"L","o":"individual","sf":3203,"v":32000}},{"type":"Feature","geometry":{"type":"Point","coordinates":[-79.91982,40.42028]},"properties":{"p":"0088H00041000000","a":"6421 KEMPER ST","m":"14th Ward - PITTSBURGH","u":"L","o":"individual","sf":2158,"v":1400}},{"type":"Feature","geometry":{"type":"Point","coordinates":[-79.91973,40.4203]},"properties":{"p":"0088H00042000000","a":"6421 KEMPER ST","m":"14th Ward - PITTSBURGH","u":"L","o":"individual","sf":1450,"v":1000}},{"type":"Feature","geometry":{"type":"Point","coordinates":[-79.91933,40.41996]},"properties":{"p":"0088H00058000000","a":"KEMPER ST","m":"14th Ward - PITTSBURGH","u":"L","o":"individual","sf":3575,"v":35800}},{"type":"Feature","geometry":{"type":"Point","coordinates":[-79.91257,40.42695]},"properties":{"p":"0128J00242000000","a":"FORWARD AVE","m":"14th Ward - PITTSBURGH","u":"L","o":"individual","sf":25467,"v":10800}},{"type":"Feature","geometry":{"type":"Point","coordinates":[-79.91176,40.42702]},"properties":{"p":"0128J00247000000","a":"FORWARD AVE","m":"14th Ward - PITTSBURGH","u":"L","o":"individual","sf":39203,"v":16600}},{"type":"Feature","geometry":{"type":"Point","coordinates":[-79.91252,40.42425]},"properties":{"p":"0128N00010000000","a":"HASLEY LN","m":"14th Ward - PITTSBURGH","u":"L","o":"corp","sf":2797,"v":0}},{"type":"Feature","geometry":{"type":"Point","coordinates":[-79.91314,40.42385]},"properties":{"p":"0128N00016000000","a":"HASLEY LN","m":"14th Ward - PITTSBURGH","u":"L","o":"corp","sf":1375,"v":0}},{"type":"Feature","geometry":{"type":"Point","coordinates":[-79.91568,40.42807]},"properties":{"p":"0128J00209000000","a":"BEECHWOOD BLVD","m":"14th Ward - PITTSBURGH","u":"L","o":"individual","sf":95,"v":200}},{"type":"Feature","geometry":{"type":"Point","coordinates":[-79.91391,40.424]},"properties":{"p":"0128N00026000000","a":"FERNWALD RD","m":"14th Ward - PITTSBURGH","u":"L","o":"corp","sf":6809,"v":45400}},{"type":"Feature","geometry":{"type":"Point","coordinates":[-79.91385,40.42689]},"properties":{"p":"0128J00140000000","a":"FERNWALD RD","m":"14th Ward - PITTSBURGH","u":"L","o":"individual","sf":4000,"v":36000}},{"type":"Feature","geometry":{"type":"Point","coordinates":[-79.91376,40.4268]},"properties":{"p":"0128J00142000000","a":"FERNWALD RD","m":"14th Ward - PITTSBURGH","u":"L","o":"individual","sf":4000,"v":36000}},{"type":"Feature","geometry":{"type":"Point","coordinates":[-79.91367,40.42672]},"properties":{"p":"0128J00144000000","a":"FERNWALD RD","m":"14th Ward - PITTSBURGH","u":"L","o":"individual","sf":4000,"v":1500}},{"type":"Feature","geometry":{"type":"Point","coordinates":[-79.91399,40.42921]},"properties":{"p":"0128E00090000000","a":"6564 ENGLISH LN","m":"14th Ward - PITTSBURGH","u":"L","o":"individual","sf":5484,"v":22600}},{"type":"Feature","geometry":{"type":"Point","coordinates":[-79.91347,40.42656]},"properties":{"p":"0128J00148000000","a":"FERNWALD RD","m":"14th Ward - PITTSBURGH","u":"L","o":"individual","sf":4040,"v":1500}},{"type":"Feature","geometry":{"type":"Point","coordinates":[-79.91328,40.42638]},"properties":{"p":"0128J00152000000","a":"FERNWALD RD","m":"14th Ward - PITTSBURGH","u":"L","o":"individual","sf":2496,"v":1500}},{"type":"Feature","geometry":{"type":"Point","coordinates":[-79.91306,40.42611]},"properties":{"p":"0128J00158000000","a":"FERNWALD RD","m":"14th Ward - PITTSBURGH","u":"L","o":"individual","sf":4200,"v":1900}},{"type":"Feature","geometry":{"type":"Point","coordinates":[-79.91312,40.42669]},"properties":{"p":"0128J00173000000","a":"FORWARD AVE","m":"14th Ward - PITTSBURGH","u":"L","o":"individual","sf":3000,"v":1400}},{"type":"Feature","geometry":{"type":"Point","coordinates":[-79.91419,40.42918]},"properties":{"p":"0128E00151000000","a":"6544 ENGLISH LN","m":"14th Ward - PITTSBURGH","u":"L","o":"individual","sf":7109,"v":22700}},{"type":"Feature","geometry":{"type":"Point","coordinates":[-79.90561,40.41995]},"properties":{"p":"0129G00113000000","a":"1126 LOVE ST","m":"14th Ward - PITTSBURGH","u":"L","o":"individual","sf":2500,"v":1200}},{"type":"Feature","geometry":{"type":"Point","coordinates":[-79.90546,40.41996]},"properties":{"p":"0129G00115000000","a":"LOVE ST","m":"14th Ward - PITTSBURGH","u":"L","o":"individual","sf":1000,"v":500}},{"type":"Feature","geometry":{"type":"Point","coordinates":[-79.9057,40.42063]},"properties":{"p":"0129G00042000000","a":"UPTEGRAF ST","m":"14th Ward - PITTSBURGH","u":"L","o":"individual","sf":3700,"v":1700}},{"type":"Feature","geometry":{"type":"Point","coordinates":[-79.90567,40.42133]},"properties":{"p":"0129C00032000000","a":"1130 OLIVIA ST","m":"14th Ward - PITTSBURGH","u":"L","o":"individual","sf":2500,"v":22500}},{"type":"Feature","geometry":{"type":"Point","coordinates":[-79.9033,40.42303]},"properties":{"p":"0129D00174000000","a":"1200 WINDERMERE DR","m":"14th Ward - PITTSBURGH","u":"L","o":"individual","sf":534,"v":300}},{"type":"Feature","geometry":{"type":"Point","coordinates":[-79.90515,40.41998]},"properties":{"p":"0129G00118000000","a":"1140 LOVE ST","m":"14th Ward - PITTSBURGH","u":"L","o":"individual","sf":1500,"v":700}},{"type":"Feature","geometry":{"type":"Point","coordinates":[-79.90571,40.41922]},"properties":{"p":"0129G00179000000","a":"POCONO ST","m":"14th Ward - PITTSBURGH","u":"L","o":"individual","sf":2500,"v":2200}},{"type":"Feature","geometry":{"type":"Point","coordinates":[-79.90562,40.41923]},"properties":{"p":"0129G00180000000","a":"POCONO ST","m":"14th Ward - PITTSBURGH","u":"L","o":"individual","sf":2500,"v":22500}},{"type":"Feature","geometry":{"type":"Point","coordinates":[-79.90544,40.41924]},"properties":{"p":"0129G00182000000","a":"POCONO ST","m":"14th Ward - PITTSBURGH","u":"L","o":"individual","sf":2500,"v":22500}},{"type":"Feature","geometry":{"type":"Point","coordinates":[-79.90535,40.41925]},"properties":{"p":"0129G00183000000","a":"POCONO ST","m":"14th Ward - PITTSBURGH","u":"L","o":"individual","sf":2500,"v":1200}},{"type":"Feature","geometry":{"type":"Point","coordinates":[-79.90471,40.41926]},"properties":{"p":"0129G00191000000","a":"POCONO ST","m":"14th Ward - PITTSBURGH","u":"L","o":"individual","sf":2500,"v":22500}},{"type":"Feature","geometry":{"type":"Point","coordinates":[-79.90606,40.42131]},"properties":{"p":"0129C00036000000","a":"OLIVIA ST","m":"14th Ward - PITTSBURGH","u":"L","o":"individual","sf":500,"v":300}},{"type":"Feature","geometry":{"type":"Point","coordinates":[-79.9063,40.42129]},"properties":{"p":"0129C00039000000","a":"OLIVIA ST","m":"14th Ward - PITTSBURGH","u":"L","o":"individual","sf":2500,"v":22500}},{"type":"Feature","geometry":{"type":"Point","coordinates":[-79.91441,40.42315]},"properties":{"p":"0129A00068000100","a":"39 ROSEMONT LN","m":"14th Ward - PITTSBURGH","u":"L","o":"corp","sf":2091,"v":29300}},{"type":"Feature","geometry":{"type":"Point","coordinates":[-79.91415,40.42301]},"properties":{"p":"0129A00070000100","a":"39 ROSEMONT LN","m":"14th Ward - PITTSBURGH","u":"L","o":"corp","sf":1525,"v":21400}},{"type":"Feature","geometry":{"type":"Point","coordinates":[-79.90393,40.4191]},"properties":{"p":"0129G00228000000","a":"56 PHILANDER ST","m":"14th Ward - PITTSBURGH","u":"L","o":"individual","sf":2500,"v":22500}},{"type":"Feature","geometry":{"type":"Point","coordinates":[-79.90391,40.41896]},"properties":{"p":"0129G00230000000","a":"50 PHILANDER ST","m":"14th Ward - PITTSBURGH","u":"L","o":"individual","sf":2500,"v":1200}},{"type":"Feature","geometry":{"type":"Point","coordinates":[-79.90452,40.42071]},"properties":{"p":"0129G00056000000","a":"UPTEGRAF ST","m":"14th Ward - PITTSBURGH","u":"L","o":"individual","sf":2500,"v":22500}},{"type":"Feature","geometry":{"type":"Point","coordinates":[-79.90189,40.42104]},"properties":{"p":"0129H00350000000","a":"1279 ONONDAGO ST","m":"14th Ward - PITTSBURGH","u":"L","o":"corp","sf":36720,"v":96700}},{"type":"Feature","geometry":{"type":"Point","coordinates":[-79.91563,40.41699]},"properties":{"p":"0129J00004000000","a":"MACFARREN ST","m":"14th Ward - PITTSBURGH","u":"L","o":"corp","sf":822,"v":8200}},{"type":"Feature","geometry":{"type":"Point","coordinates":[-79.91578,40.41685]},"properties":{"p":"0129J00006000000","a":"MACFARREN ST","m":"14th Ward - PITTSBURGH","u":"L","o":"corp","sf":1886,"v":9600}},{"type":"Feature","geometry":{"type":"Point","coordinates":[-79.90486,40.41972]},"properties":{"p":"0129G00152000000","a":"1145 POCONO ST","m":"14th Ward - PITTSBURGH","u":"L","o":"individual","sf":2500,"v":1200}},{"type":"Feature","geometry":{"type":"Point","coordinates":[-79.90596,40.42173]},"properties":{"p":"0129C00058000A00","a":"OLIVIA ST","m":"14th Ward - PITTSBURGH","u":"L","o":"individual","sf":1250,"v":600}},{"type":"Feature","geometry":{"type":"Point","coordinates":[-79.91243,40.42548]},"properties":{"p":"0128N00108000000","a":"SUMMERSET DR","m":"14th Ward - PITTSBURGH","u":"L","o":"corp","sf":114402,"v":112600}},{"type":"Feature","geometry":{"type":"Point","coordinates":[-79.91471,40.42382]},"properties":{"p":"0128N00120000000","a":"ANITA AVE","m":"14th Ward - PITTSBURGH","u":"L","o":"individual","sf":83200,"v":3000}},{"type":"Feature","geometry":{"type":"Point","coordinates":[-79.9029,40.42081]},"properties":{"p":"0129H00009000000","a":"UPTEGRAF ST","m":"14th Ward - PITTSBURGH","u":"L","o":"individual","sf":2500,"v":11300}},{"type":"Feature","geometry":{"type":"Point","coordinates":[-79.90262,40.42077]},"properties":{"p":"0129H00012000000","a":"1262 ONONDAGO ST","m":"14th Ward - PITTSBURGH","u":"L","o":"corp","sf":1704,"v":15000}},{"type":"Feature","geometry":{"type":"Point","coordinates":[-79.9025,40.42078]},"properties":{"p":"0129H00013000000","a":"ONONDAGO ST","m":"14th Ward - PITTSBURGH","u":"L","o":"individual","sf":5499,"v":4600}},{"type":"Feature","geometry":{"type":"Point","coordinates":[-79.90207,40.42056]},"properties":{"p":"0129H00017000000","a":"LOVE ST","m":"14th Ward - PITTSBURGH","u":"L","o":"individual","sf":2368,"v":21300}},{"type":"Feature","geometry":{"type":"Point","coordinates":[-79.90498,40.41999]},"properties":{"p":"0129G00120000000","a":"1140 LOVE ST","m":"14th Ward - PITTSBURGH","u":"L","o":"individual","sf":2500,"v":1200}},{"type":"Feature","geometry":{"type":"Point","coordinates":[-79.90399,40.42005]},"properties":{"p":"0129G00131000000","a":"LOVE ST","m":"14th Ward - PITTSBURGH","u":"L","o":"individual","sf":2500,"v":1200}},{"type":"Feature","geometry":{"type":"Point","coordinates":[-79.90246,40.42057]},"properties":{"p":"0129H00021000000","a":"1247 LOVE ST","m":"14th Ward - PITTSBURGH","u":"L","o":"individual","sf":5000,"v":11700}},{"type":"Feature","geometry":{"type":"Point","coordinates":[-79.91553,40.41678]},"properties":{"p":"0129J00033000000","a":"MACFARREN ST","m":"14th Ward - PITTSBURGH","u":"L","o":"individual","sf":2656,"v":1300}},{"type":"Feature","geometry":{"type":"Point","coordinates":[-79.91526,40.41657]},"properties":{"p":"0129J00037000000","a":"BLACKMORE ST","m":"14th Ward - PITTSBURGH","u":"L","o":"individual","sf":1513,"v":800}},{"type":"Feature","geometry":{"type":"Point","coordinates":[-79.91511,40.41646]},"properties":{"p":"0129J00039000000","a":"BLACKMORE ST","m":"14th Ward - PITTSBURGH","u":"L","o":"individual","sf":9600,"v":4300}},{"type":"Feature","geometry":{"type":"Point","coordinates":[-79.91488,40.4163]},"properties":{"p":"0129J00043000000","a":"119 BLACKMORE ST","m":"14th Ward - PITTSBURGH","u":"L","o":"individual","sf":2400,"v":1200}},{"type":"Feature","geometry":{"type":"Point","coordinates":[-79.91361,40.42502]},"properties":{"p":"0128N00255000000","a":"MOUNT ROYAL RD","m":"14th Ward - PITTSBURGH","u":"L","o":"individual","sf":6000,"v":45200}},{"type":"Feature","geometry":{"type":"Point","coordinates":[-79.90547,40.42037]},"properties":{"p":"0129G00089000000","a":"1133 LOVE ST","m":"14th Ward - PITTSBURGH","u":"L","o":"individual","sf":2500,"v":1200}},{"type":"Feature","geometry":{"type":"Point","coordinates":[-79.9061,40.42033]},"properties":{"p":"0129G00096000000","a":"LOVE ST","m":"14th Ward - PITTSBURGH","u":"L","o":"individual","sf":7020,"v":90400}},{"type":"Feature","geometry":{"type":"Point","coordinates":[-79.91264,40.42454]},"properties":{"p":"0128N00097000000","a":"FERNWALD RD","m":"14th Ward - PITTSBURGH","u":"L","o":"corp","sf":4140,"v":82300}},{"type":"Feature","geometry":{"type":"Point","coordinates":[-79.91281,40.42424]},"properties":{"p":"0128N00103000000","a":"FERNWALD RD","m":"14th Ward - PITTSBURGH","u":"L","o":"corp","sf":415,"v":4900}},{"type":"Feature","geometry":{"type":"Point","coordinates":[-79.90445,40.41899]},"properties":{"p":"0129G00212000000","a":"PHILANDER ST","m":"14th Ward - PITTSBURGH","u":"L","o":"individual","sf":2500,"v":22500}},{"type":"Feature","geometry":{"type":"Point","coordinates":[-79.90574,40.42201]},"properties":{"p":"0129C00085000000","a":"1132 ONONDAGO ST","m":"14th Ward - PITTSBURGH","u":"L","o":"individual","sf":2500,"v":1200}},{"type":"Feature","geometry":{"type":"Point","coordinates":[-79.90593,40.422]},"properties":{"p":"0129C00087000000","a":"ONONDAGO ST","m":"14th Ward - PITTSBURGH","u":"L","o":"individual","sf":2500,"v":11300}},{"type":"Feature","geometry":{"type":"Point","coordinates":[-79.90129,40.42401]},"properties":{"p":"0128S00165000000","a":"WINDERMERE DR","m":"14th Ward - PITTSBURGH","u":"L","o":"individual","sf":62291,"v":700}},{"type":"Feature","geometry":{"type":"Point","coordinates":[-79.90176,40.425]},"properties":{"p":"0128S00183000000","a":"WINDERMERE DR","m":"14th Ward - PITTSBURGH","u":"L","o":"individual","sf":6481,"v":45300}},{"type":"Feature","geometry":{"type":"Point","coordinates":[-79.9012,40.42558]},"properties":{"p":"0128S00194000000","a":"WINDERMERE DR","m":"14th Ward - PITTSBURGH","u":"L","o":"corp","sf":28986,"v":95000}},{"type":"Feature","geometry":{"type":"Point","coordinates":[-79.90383,40.4186]},"properties":{"p":"0129L00051000000","a":"1202 GOODMAN ST","m":"14th Ward - PITTSBURGH","u":"L","o":"individual","sf":2500,"v":22500}},{"type":"Feature","geometry":{"type":"Point","coordinates":[-79.91576,40.42322]},"properties":{"p":"0129A00004000000","a":"GILDA AVE","m":"14th Ward - PITTSBURGH","u":"L","o":"individual","sf":2475,"v":1200}},{"type":"Feature","geometry":{"type":"Point","coordinates":[-79.90515,40.42109]},"properties":{"p":"0129G00010000000","a":"1145 UPTEGRAF ST","m":"14th Ward - PITTSBURGH","u":"L","o":"individual","sf":500,"v":300}},{"type":"Feature","geometry":{"type":"Point","coordinates":[-79.90382,40.41935]},"properties":{"p":"0129G00224000000","a":"POCONO ST","m":"14th Ward - PITTSBURGH","u":"L","o":"individual","sf":2500,"v":10000}},{"type":"Feature","geometry":{"type":"Point","coordinates":[-79.90375,40.42118]},"properties":{"p":"0129C00003000000","a":"UPTEGRAF ST","m":"14th Ward - PITTSBURGH","u":"L","o":"individual","sf":2500,"v":22500}},{"type":"Feature","geometry":{"type":"Point","coordinates":[-79.90624,40.4189]},"properties":{"p":"0129G00193000000","a":"1107 GOODMAN ST","m":"14th Ward - PITTSBURGH","u":"L","o":"individual","sf":2900,"v":26100}},{"type":"Feature","geometry":{"type":"Point","coordinates":[-79.90591,40.42104]},"properties":{"p":"0129G00019000000","a":"1119 UPTEGRAF ST","m":"14th Ward - PITTSBURGH","u":"L","o":"individual","sf":4515,"v":20000}},{"type":"Feature","geometry":{"type":"Point","coordinates":[-79.90613,40.41891]},"properties":{"p":"0129G00194000000","a":"1107 GOODMAN ST","m":"14th Ward - PITTSBURGH","u":"L","o":"individual","sf":2500,"v":22500}},{"type":"Feature","geometry":{"type":"Point","coordinates":[-79.91599,40.42497]},"properties":{"p":"0128N00143000100","a":"FERNWALD RD","m":"14th Ward - PITTSBURGH","u":"L","o":"individual","sf":685,"v":400}},{"type":"Feature","geometry":{"type":"Point","coordinates":[-79.9027,40.42257]},"properties":{"p":"0129D00165000000","a":"COMMERCIAL ST","m":"14th Ward - PITTSBURGH","u":"L","o":"individual","sf":6300,"v":7500}},{"type":"Feature","geometry":{"type":"Point","coordinates":[-79.90362,40.42077]},"properties":{"p":"0129G00065000000","a":"UPTEGRAF ST","m":"14th Ward - PITTSBURGH","u":"L","o":"individual","sf":2500,"v":1200}},{"type":"Feature","geometry":{"type":"Point","coordinates":[-79.90018,40.42563]},"properties":{"p":"0128S00020000000","a":"LEBLANC ST","m":"14th Ward - PITTSBURGH","u":"L","o":"corp","sf":7480,"v":90500}},{"type":"Feature","geometry":{"type":"Point","coordinates":[-79.90636,40.42101]},"properties":{"p":"0129G00024000000","a":"UPTEGRAF ST","m":"14th Ward - PITTSBURGH","u":"L","o":"individual","sf":2500,"v":1200}},{"type":"Feature","geometry":{"type":"Point","coordinates":[-79.90644,40.42101]},"properties":{"p":"0129G00025000000","a":"UPTEGRAF ST","m":"14th Ward - PITTSBURGH","u":"L","o":"individual","sf":2500,"v":7500}},{"type":"Feature","geometry":{"type":"Point","coordinates":[-79.90404,40.42047]},"properties":{"p":"0129G00072000000","a":"LOVE ST","m":"14th Ward - PITTSBURGH","u":"L","o":"individual","sf":2500,"v":1200}},{"type":"Feature","geometry":{"type":"Point","coordinates":[-79.90462,40.42033]},"properties":{"p":"0129G00080000000","a":"PHILANDER ST","m":"14th Ward - PITTSBURGH","u":"L","o":"corp","sf":2500,"v":22500}},{"type":"Feature","geometry":{"type":"Point","coordinates":[-79.90503,40.4204]},"properties":{"p":"0129G00084000000","a":"1141 LOVE ST","m":"14th Ward - PITTSBURGH","u":"L","o":"individual","sf":2500,"v":1200}},{"type":"Feature","geometry":{"type":"Point","coordinates":[-79.90474,40.4214]},"properties":{"p":"0129C00021000000","a":"PHILANDER ST","m":"14th Ward - PITTSBURGH","u":"L","o":"individual","sf":3750,"v":1700}},{"type":"Feature","geometry":{"type":"Point","coordinates":[-79.90496,40.42139]},"properties":{"p":"0129C00024000000","a":"OLIVIA ST","m":"14th Ward - PITTSBURGH","u":"L","o":"individual","sf":2500,"v":1200}},{"type":"Feature","geometry":{"type":"Point","coordinates":[-79.90522,40.42136]},"properties":{"p":"0129C00027000000","a":"OLIVIA ST","m":"14th Ward - PITTSBURGH","u":"L","o":"individual","sf":2500,"v":22500}},{"type":"Feature","geometry":{"type":"Point","coordinates":[-79.9055,40.42134]},"properties":{"p":"0129C00030000000","a":"OLIVIA ST","m":"14th Ward - PITTSBURGH","u":"L","o":"individual","sf":2500,"v":22500}},{"type":"Feature","geometry":{"type":"Point","coordinates":[-79.90549,40.41968]},"properties":{"p":"0129G00159000100","a":"1125 POCONO ST","m":"14th Ward - PITTSBURGH","u":"L","o":"individual","sf":2252,"v":1000}},{"type":"Feature","geometry":{"type":"Point","coordinates":[-79.91395,40.42291]},"properties":{"p":"0129A00072000100","a":"41 ROSEMONT LN","m":"14th Ward - PITTSBURGH","u":"L","o":"individual","sf":1133,"v":600}},{"type":"Feature","geometry":{"type":"Point","coordinates":[-79.9061,40.42061]},"properties":{"p":"0129G00037000000","a":"UPTEGRAF ST","m":"14th Ward - PITTSBURGH","u":"L","o":"individual","sf":1250,"v":600}},{"type":"Feature","geometry":{"type":"Point","coordinates":[-79.90585,40.41966]},"properties":{"p":"0129G00163000000","a":"1117 POCONO ST","m":"14th Ward - PITTSBURGH","u":"L","o":"individual","sf":2500,"v":400}},{"type":"Feature","geometry":{"type":"Point","coordinates":[-79.90602,40.41965]},"properties":{"p":"0129G00165000000","a":"POCONO ST","m":"14th Ward - PITTSBURGH","u":"L","o":"individual","sf":2500,"v":1000}},{"type":"Feature","geometry":{"type":"Point","coordinates":[-79.90611,40.41964]},"properties":{"p":"0129G00166000000","a":"POCONO ST","m":"14th Ward - PITTSBURGH","u":"L","o":"individual","sf":2500,"v":1200}},{"type":"Feature","geometry":{"type":"Point","coordinates":[-79.9062,40.41963]},"properties":{"p":"0129G00167000000","a":"POCONO ST","m":"14th Ward - PITTSBURGH","u":"L","o":"individual","sf":2500,"v":1200}},{"type":"Feature","geometry":{"type":"Point","coordinates":[-79.90445,40.42273]},"properties":{"p":"0129C00200000000","a":"COMMERCIAL ST","m":"14th Ward - PITTSBURGH","u":"L","o":"individual","sf":97470,"v":1100}},{"type":"Feature","geometry":{"type":"Point","coordinates":[-79.90103,40.42022]},"properties":{"p":"0129H00316000000","a":"124 WHIPPLE ST","m":"14th Ward - PITTSBURGH","u":"L","o":"individual","sf":3600,"v":32400}},{"type":"Feature","geometry":{"type":"Point","coordinates":[-79.91415,40.41628]},"properties":{"p":"0129J00057000000","a":"BLACKMORE ST","m":"14th Ward - PITTSBURGH","u":"L","o":"individual","sf":4704,"v":2200}},{"type":"Feature","geometry":{"type":"Point","coordinates":[-79.90313,40.41912]},"properties":{"p":"0129H00120000000","a":"1223 GOODMAN ST","m":"14th Ward - PITTSBURGH","u":"L","o":"individual","sf":600,"v":200}},{"type":"Feature","geometry":{"type":"Point","coordinates":[-79.90362,40.41862]},"properties":{"p":"0129M00015000000","a":"GOODMAN ST","m":"14th Ward - PITTSBURGH","u":"L","o":"individual","sf":10000,"v":4300}},{"type":"Feature","geometry":{"type":"Point","coordinates":[-79.90321,40.41865]},"properties":{"p":"0129M00016000000","a":"1218 GOODMAN ST","m":"14th Ward - PITTSBURGH","u":"L","o":"individual","sf":2500,"v":5000}},{"type":"Feature","geometry":{"type":"Point","coordinates":[-79.90342,40.42051]},"properties":{"p":"0129H00031000000","a":"LOVE ST","m":"14th Ward - PITTSBURGH","u":"L","o":"individual","sf":2000,"v":18000}},{"type":"Feature","geometry":{"type":"Point","coordinates":[-79.90287,40.42005]},"properties":{"p":"0129H00042000000","a":"1238 LOVE ST","m":"14th Ward - PITTSBURGH","u":"L","o":"individual","sf":200,"v":200}},{"type":"Feature","geometry":{"type":"Point","coordinates":[-79.90351,40.41981]},"properties":{"p":"0129H00081000000","a":"POCONO ST","m":"14th Ward - PITTSBURGH","u":"L","o":"individual","sf":2500,"v":22500}},{"type":"Feature","geometry":{"type":"Point","coordinates":[-79.90298,40.41913]},"properties":{"p":"0129H00118000000","a":"GOODMAN ST","m":"14th Ward - PITTSBURGH","u":"L","o":"individual","sf":2500,"v":22500}},{"type":"Feature","geometry":{"type":"Point","coordinates":[-79.91468,40.41666]},"properties":{"p":"0129J00049000000","a":"BLACKMORE ST","m":"14th Ward - PITTSBURGH","u":"L","o":"individual","sf":2340,"v":1100}},{"type":"Feature","geometry":{"type":"Point","coordinates":[-79.91461,40.41662]},"properties":{"p":"0129J00050000000","a":"BLACKMORE ST","m":"14th Ward - PITTSBURGH","u":"L","o":"individual","sf":2342,"v":1100}},{"type":"Feature","geometry":{"type":"Point","coordinates":[-79.91443,40.41649]},"properties":{"p":"0129J00053000000","a":"BLACKMORE ST","m":"14th Ward - PITTSBURGH","u":"L","o":"individual","sf":2342,"v":800}},{"type":"Feature","geometry":{"type":"Point","coordinates":[-79.91384,40.42876]},"properties":{"p":"0128E00094000000","a":"MOUNT ROYAL RD","m":"14th Ward - PITTSBURGH","u":"L","o":"individual","sf":4922,"v":44300}},{"type":"Feature","geometry":{"type":"Point","coordinates":[-79.90592,40.42034]},"properties":{"p":"0129G00094000000","a":"1115 LOVE ST","m":"14th Ward - PITTSBURGH","u":"L","o":"individual","sf":2500,"v":22500}},{"type":"Feature","geometry":{"type":"Point","coordinates":[-79.90552,40.41847]},"properties":{"p":"0129L00032000000","a":"GOODMAN ST","m":"14th Ward - PITTSBURGH","u":"L","o":"individual","sf":2500,"v":3000}},{"type":"Feature","geometry":{"type":"Point","coordinates":[-79.90533,40.42199]},"properties":{"p":"0129C00080000000","a":"ONONDAGO ST","m":"14th Ward - PITTSBURGH","u":"L","o":"individual","sf":8095,"v":45700}},{"type":"Feature","geometry":{"type":"Point","coordinates":[-79.91589,40.41675]},"properties":{"p":"0129J00010000000","a":"ETTWEIN ST","m":"14th Ward - PITTSBURGH","u":"L","o":"corp","sf":433,"v":7600}},{"type":"Feature","geometry":{"type":"Point","coordinates":[-79.9196,40.42033]},"properties":{"p":"0088H00043000000","a":"KEMPER ST","m":"14th Ward - PITTSBURGH","u":"L","o":"corp","sf":4640,"v":96400}},{"type":"Feature","geometry":{"type":"Point","coordinates":[-79.90639,40.42128]},"properties":{"p":"0129C00040000000","a":"OLIVIA ST","m":"14th Ward - PITTSBURGH","u":"L","o":"individual","sf":2500,"v":22500}},{"type":"Feature","geometry":{"type":"Point","coordinates":[-79.91337,40.42648]},"properties":{"p":"0128J00150000000","a":"FERNWALD RD","m":"14th Ward - PITTSBURGH","u":"L","o":"individual","sf":2496,"v":1500}},{"type":"Feature","geometry":{"type":"Point","coordinates":[-79.91632,40.42431]},"properties":{"p":"0087S00251000000","a":"FERNWALD RD","m":"14th Ward - PITTSBURGH","u":"L","o":"individual","sf":2331,"v":21000}},{"type":"Feature","geometry":{"type":"Point","coordinates":[-79.90429,40.42204]},"properties":{"p":"0129C00188000000","a":"1163 ONONDAGO ST","m":"14th Ward - PITTSBURGH","u":"L","o":"individual","sf":23492,"v":24100}},{"type":"Feature","geometry":{"type":"Point","coordinates":[-79.90199,40.41874]},"properties":{"p":"0129H00142000000","a":"1254 GOODMAN ST","m":"14th Ward - PITTSBURGH","u":"L","o":"individual","sf":423,"v":300}},{"type":"Feature","geometry":{"type":"Point","coordinates":[-79.90281,40.42081]},"properties":{"p":"0129H00010000000","a":"1262 ONONDAGO ST","m":"14th Ward - PITTSBURGH","u":"L","o":"corp","sf":2527,"v":15000}},{"type":"Feature","geometry":{"type":"Point","coordinates":[-79.91357,40.42664]},"properties":{"p":"0128J00146000000","a":"FERNWALD RD","m":"14th Ward - PITTSBURGH","u":"L","o":"individual","sf":4000,"v":1500}},{"type":"Feature","geometry":{"type":"Point","coordinates":[-79.90308,40.42273]},"properties":{"p":"0129D00170000000","a":"1200 WINDERMERE DR","m":"14th Ward - PITTSBURGH","u":"L","o":"individual","sf":6600,"v":2900}},{"type":"Feature","geometry":{"type":"Point","coordinates":[-79.91706,40.42114]},"properties":{"p":"0088D00110000000","a":"BEECHWOOD BLVD","m":"14th Ward - PITTSBURGH","u":"L","o":"corp","sf":149585,"v":12500}},{"type":"Feature","geometry":{"type":"Point","coordinates":[-79.90536,40.4185]},"properties":{"p":"0129L00034000100","a":"GOODMAN ST","m":"14th Ward - PITTSBURGH","u":"L","o":"individual","sf":1500,"v":700}},{"type":"Feature","geometry":{"type":"Point","coordinates":[-79.90063,40.41997]},"properties":{"p":"0129H00231000000","a":"135 HOMESTEAD ST","m":"14th Ward - PITTSBURGH","u":"L","o":"individual","sf":7200,"v":45500}},{"type":"Feature","geometry":{"type":"Point","coordinates":[-79.91569,40.42707]},"properties":{"p":"0128J00031000000","a":"WESTLAND DR","m":"14th Ward - PITTSBURGH","u":"L","o":"individual","sf":1399,"v":900}},{"type":"Feature","geometry":{"type":"Point","coordinates":[-79.91995,40.41986]},"properties":{"p":"0088H00066000000","a":"KEMPER ST","m":"14th Ward - PITTSBURGH","u":"L","o":"individual","sf":5000,"v":2300}},{"type":"Feature","geometry":{"type":"Point","coordinates":[-79.90411,40.42075]},"properties":{"p":"0129G00059000000","a":"UPTEGRAF ST","m":"14th Ward - PITTSBURGH","u":"L","o":"individual","sf":6000,"v":3000}},{"type":"Feature","geometry":{"type":"Point","coordinates":[-79.90682,40.42194]},"properties":{"p":"0129C00097000000","a":"ONONDAGO ST","m":"14th Ward - PITTSBURGH","u":"L","o":"individual","sf":2500,"v":11300}},{"type":"Feature","geometry":{"type":"Point","coordinates":[-79.91378,40.42283]},"properties":{"p":"0129A00072000200","a":"41 ROSEMONT LN","m":"14th Ward - PITTSBURGH","u":"L","o":"individual","sf":1133,"v":600}},{"type":"Feature","geometry":{"type":"Point","coordinates":[-79.90327,40.4201]},"properties":{"p":"0129H00039000000","a":"LOVE ST","m":"14th Ward - PITTSBURGH","u":"L","o":"individual","sf":2500,"v":11300}}]}