{"type":"FeatureCollection","features":[{"type":"Feature","geometry":{"type":"Point","coordinates":[-79.9154,40.54788]},"properties":{"p":"0524A00213000000","a":"SAXONBURG BLVD","m":"Indiana","u":"C","o":"corp","sf":256538,"v":59100}},{"type":"Feature","geometry":{"type":"Point","coordinates":[-79.90186,40.53842]},"properties":{"p":"0437D00022000000","a":"HALLSBOROUGH DR","m":"Fox Chapel","u":"L","o":"individual","sf":32670,"v":13100}},{"type":"Feature","geometry":{"type":"Point","coordinates":[-79.90919,40.53876]},"properties":{"p":"0437B00018000000","a":"901 SETTLERS RIDGE RD","m":"Fox Chapel","u":"L","o":"corp","sf":38476,"v":15400}},{"type":"Feature","geometry":{"type":"Point","coordinates":[-79.90666,40.54177]},"properties":{"p":"0524R00011000000","a":"DORSEYVILLE RD","m":"Fox Chapel","u":"L","o":"individual","sf":4791,"v":1900}},{"type":"Feature","geometry":{"type":"Point","coordinates":[-79.91213,40.53138]},"properties":{"p":"0437P00040000000","a":"CRAWFORD LN","m":"Fox Chapel","u":"L","o":"individual","sf":74923,"v":130000}},{"type":"Feature","geometry":{"type":"Point","coordinates":[-79.91202,40.53114]},"properties":{"p":"0437P00045000000","a":"CRAWFORD LN","m":"Fox Chapel","u":"L","o":"individual","sf":3335,"v":1300}},{"type":"Feature","geometry":{"type":"Point","coordinates":[-79.9012,40.53719]},"properties":{"p":"0437H00007000000","a":"455 OLD MILL RD","m":"Fox Chapel","u":"L","o":"corp","sf":125888,"v":208100}},{"type":"Feature","geometry":{"type":"Point","coordinates":[-79.9022,40.53105]},"properties":{"p":"0358D00120000000","a":"OLD MILL RD","m":"Fox Chapel","u":"L","o":"individual","sf":20473,"v":8200}},{"type":"Feature","geometry":{"type":"Point","coordinates":[-79.91072,40.53292]},"properties":{"p":"0437P00122000000","a":"121 WILLOW FARMS CT","m":"Fox Chapel","u":"L","o":"individual","sf":113082,"v":202900}},{"type":"Feature","geometry":{"type":"Point","coordinates":[-79.91165,40.53209]},"properties":{"p":"0437P00123000000","a":"120 WILLOW FARMS CT","m":"Fox Chapel","u":"L","o":"corp","sf":131421,"v":210300}},{"type":"Feature","geometry":{"type":"Point","coordinates":[-79.9097,40.53284]},"properties":{"p":"0437P00124000000","a":"131 WILLOW FARMS CT","m":"Fox Chapel","u":"L","o":"individual","sf":91824,"v":194400}},{"type":"Feature","geometry":{"type":"Point","coordinates":[-79.90805,40.5321]},"properties":{"p":"0437P00127000000","a":"140 WILLOW FARMS CT","m":"Fox Chapel","u":"L","o":"corp","sf":145744,"v":216000}},{"type":"Feature","geometry":{"type":"Point","coordinates":[-79.90999,40.53126]},"properties":{"p":"0437P00202000000","a":"OLD MILL RD","m":"Fox Chapel","u":"L","o":"individual","sf":95135,"v":135000}},{"type":"Feature","geometry":{"type":"Point","coordinates":[-79.91192,40.53675]},"properties":{"p":"0437F00110000000","a":"DORSEYVILLE RD","m":"Fox Chapel","u":"L","o":"corp","sf":94525,"v":195500}},{"type":"Feature","geometry":{"type":"Point","coordinates":[-79.90319,40.53735]},"properties":{"p":"0437H00009000000","a":"455 OLD MILL RD","m":"Fox Chapel","u":"L","o":"corp","sf":311715,"v":12600}},{"type":"Feature","geometry":{"type":"Point","coordinates":[-79.91363,40.53991]},"properties":{"p":"0437A00063000000","a":"CHAPEL CREST TER","m":"Indiana","u":"L","o":"individual","sf":81457,"v":25600}},{"type":"Feature","geometry":{"type":"Point","coordinates":[-79.90505,40.54926]},"properties":{"p":"0524C00015000000","a":"MALLARD DR","m":"Indiana","u":"L","o":"corp","sf":55321,"v":27500}},{"type":"Feature","geometry":{"type":"Point","coordinates":[-79.90887,40.54832]},"properties":{"p":"0524C00200000000","a":"HARTS RUN RD","m":"Indiana","u":"L","o":"individual","sf":181162,"v":10000}},{"type":"Feature","geometry":{"type":"Point","coordinates":[-79.9156,40.5377]},"properties":{"p":"0437A00190000100","a":"204 RIDGE RD","m":"Indiana","u":"L","o":"individual","sf":1456,"v":100}},{"type":"Feature","geometry":{"type":"Point","coordinates":[-79.91201,40.5384]},"properties":{"p":"0437B00111000000","a":"CHAPEL CREST TER","m":"Indiana","u":"L","o":"individual","sf":59459,"v":43600}},{"type":"Feature","geometry":{"type":"Point","coordinates":[-79.91718,40.54823]},"properties":{"p":"0523D00016000000","a":"SAXONBURG BLVD","m":"Indiana","u":"L","o":"individual","sf":16875,"v":1500}},{"type":"Feature","geometry":{"type":"Point","coordinates":[-79.91286,40.53786]},"properties":{"p":"0437E00239000000","a":"CHAPEL CREST TER","m":"Indiana","u":"L","o":"individual","sf":32680,"v":13100}},{"type":"Feature","geometry":{"type":"Point","coordinates":[-79.9148,40.53972]},"properties":{"p":"0524N00036000000","a":"CHAPEL CREST TER","m":"Indiana","u":"L","o":"individual","sf":302737,"v":8400}},{"type":"Feature","geometry":{"type":"Point","coordinates":[-79.91395,40.54031]},"properties":{"p":"0524N00038000000","a":"CHAPEL CREST TER","m":"Indiana","u":"L","o":"corp","sf":37275,"v":21400}},{"type":"Feature","geometry":{"type":"Point","coordinates":[-79.91231,40.53755]},"properties":{"p":"0437F00345000000","a":"DORSEYVILLE RD","m":"Indiana","u":"L","o":"corp","sf":43996,"v":42200}},{"type":"Feature","geometry":{"type":"Point","coordinates":[-79.91394,40.53477]},"properties":{"p":"0437J00083000000","a":"DORSEYVILLE RD","m":"O''Hara","u":"L","o":"individual","sf":3085,"v":400}},{"type":"Feature","geometry":{"type":"Point","coordinates":[-79.91403,40.53091]},"properties":{"p":"0437N00050000000","a":"DORSEYVILLE RD","m":"O''Hara","u":"L","o":"individual","sf":22000,"v":2900}},{"type":"Feature","geometry":{"type":"Point","coordinates":[-79.91332,40.53092]},"properties":{"p":"0437N00051000000","a":"109 CRAWFORD LN","m":"O''Hara","u":"L","o":"individual","sf":20147,"v":56000}},{"type":"Feature","geometry":{"type":"Point","coordinates":[-79.91149,40.53048]},"properties":{"p":"0437P00020000000","a":"DORSEYVILLE RD","m":"O''Hara","u":"L","o":"individual","sf":33193,"v":4300}},{"type":"Feature","geometry":{"type":"Point","coordinates":[-79.91141,40.53098]},"properties":{"p":"0437P00035000000","a":"DORSEYVILLE RD","m":"O''Hara","u":"L","o":"individual","sf":2500,"v":300}},{"type":"Feature","geometry":{"type":"Point","coordinates":[-79.9156,40.53611]},"properties":{"p":"0437E00040000000","a":"KITTANNING PIKE","m":"O''Hara","u":"L","o":"individual","sf":545,"v":100}},{"type":"Feature","geometry":{"type":"Point","coordinates":[-79.91488,40.53369]},"properties":{"p":"0437J00066000000","a":"DORSEYVILLE RD","m":"O''Hara","u":"L","o":"individual","sf":21340,"v":56200}},{"type":"Feature","geometry":{"type":"Point","coordinates":[-79.90215,40.53846]},"properties":{"p":"0437D00050000000","a":"WILMAR MNR","m":"Indiana","u":"L","o":"individual","sf":15333,"v":2600}},{"type":"Feature","geometry":{"type":"Point","coordinates":[-79.90469,40.53986]},"properties":{"p":"0437C00100000000","a":"612 DORSEYVILLE RD","m":"Fox Chapel","u":"L","o":"individual","sf":21649,"v":8700}},{"type":"Feature","geometry":{"type":"Point","coordinates":[-79.90335,40.53116]},"properties":{"p":"0437S00010000000","a":"OLD MILL RD","m":"Fox Chapel","u":"B","o":"corp","sf":264823,"v":175400}},{"type":"Feature","geometry":{"type":"Point","coordinates":[-79.90093,40.54283]},"properties":{"p":"0524M00007000000","a":"WILMAR DR","m":"Fox Chapel","u":"B","o":"individual","sf":50355,"v":29000}},{"type":"Feature","geometry":{"type":"Point","coordinates":[-79.90421,40.53012]},"properties":{"p":"0358C00100000000","a":"HAVERFORD RD","m":"Fox Chapel","u":"B","o":"corp","sf":253476,"v":167900}},{"type":"Feature","geometry":{"type":"Point","coordinates":[-79.90207,40.54084]},"properties":{"p":"0524S00011000000","a":"HIDDEN FALLS CT","m":"Fox Chapel","u":"B","o":"individual","sf":30927,"v":22400}},{"type":"Feature","geometry":{"type":"Point","coordinates":[-79.90093,40.54071]},"properties":{"p":"0524S00020000000","a":"WILMAR DR","m":"Fox Chapel","u":"B","o":"individual","sf":207781,"v":92200}}]}