{"type":"FeatureCollection","features":[{"type":"Feature","geometry":{"type":"Point","coordinates":[-79.90083,40.48064]},"properties":{"p":"0123D00001000000","a":"HIGHLAND DR","m":"12th Ward - PITTSBURGH","u":"C","o":"corp","sf":358690,"v":165900}},{"type":"Feature","geometry":{"type":"Point","coordinates":[-79.90649,40.47114]},"properties":{"p":"0124C00076000000","a":"6343 CLIFFORD ST","m":"12th Ward - PITTSBURGH","u":"C","o":"corp","sf":50207,"v":24700}},{"type":"Feature","geometry":{"type":"Point","coordinates":[-79.91969,40.48718]},"properties":{"p":"0121H00020000000","a":"101 RESERVOIR DR","m":"10th Ward - PITTSBURGH","u":"L","o":"corp","sf":5784,"v":3600}},{"type":"Feature","geometry":{"type":"Point","coordinates":[-79.91938,40.48745]},"properties":{"p":"0121H00034000000","a":"101 RESERVOIR DR","m":"10th Ward - PITTSBURGH","u":"L","o":"corp","sf":10284,"v":35500}},{"type":"Feature","geometry":{"type":"Point","coordinates":[-79.91888,40.48825]},"properties":{"p":"0121H00106000000","a":"RAILROAD ST","m":"10th Ward - PITTSBURGH","u":"L","o":"individual","sf":7473,"v":35200}},{"type":"Feature","geometry":{"type":"Point","coordinates":[-79.91619,40.4754]},"properties":{"p":"0082M00305000000","a":"1240 FARRAGUT ST","m":"11th Ward - PITTSBURGH","u":"L","o":"individual","sf":2398,"v":1200}},{"type":"Feature","geometry":{"type":"Point","coordinates":[-79.91833,40.47397]},"properties":{"p":"0082S00168000000","a":"N HIGHLAND AVE","m":"11th Ward - PITTSBURGH","u":"L","o":"individual","sf":1363,"v":700}},{"type":"Feature","geometry":{"type":"Point","coordinates":[-79.91721,40.47359]},"properties":{"p":"0082S00215000000","a":"FARRAGUT ST","m":"11th Ward - PITTSBURGH","u":"L","o":"individual","sf":1478,"v":800}},{"type":"Feature","geometry":{"type":"Point","coordinates":[-79.91653,40.47251]},"properties":{"p":"0082S00320000000","a":"WELLESLEY AVE","m":"11th Ward - PITTSBURGH","u":"L","o":"individual","sf":2305,"v":27700}},{"type":"Feature","geometry":{"type":"Point","coordinates":[-79.91775,40.47879]},"properties":{"p":"0082H00179000000","a":"1458 N EUCLID AVE","m":"11th Ward - PITTSBURGH","u":"L","o":"individual","sf":712,"v":400}},{"type":"Feature","geometry":{"type":"Point","coordinates":[-79.90362,40.48297]},"properties":{"p":"0122R00350000001","a":"HILLSIDE","m":"12th Ward - PITTSBURGH","u":"L","o":"corp","sf":274994,"v":34900}},{"type":"Feature","geometry":{"type":"Point","coordinates":[-79.90026,40.48271]},"properties":{"p":"0122S00001000000","a":"HILLSIDE","m":"12th Ward - PITTSBURGH","u":"L","o":"corp","sf":365468,"v":36900}},{"type":"Feature","geometry":{"type":"Point","coordinates":[-79.91957,40.47191]},"properties":{"p":"0083D00032000000","a":"N HIGHLAND AVE","m":"11th Ward - PITTSBURGH","u":"L","o":"individual","sf":7592,"v":60700}},{"type":"Feature","geometry":{"type":"Point","coordinates":[-79.91431,40.4763]},"properties":{"p":"0123J00112000000","a":"HEBERTON ST","m":"11th Ward - PITTSBURGH","u":"L","o":"individual","sf":1790,"v":4000}},{"type":"Feature","geometry":{"type":"Point","coordinates":[-79.90033,40.47074]},"properties":{"p":"0124D00125000000","a":"OLIVANT ST","m":"12th Ward - PITTSBURGH","u":"L","o":"individual","sf":36600,"v":6800}},{"type":"Feature","geometry":{"type":"Point","coordinates":[-79.90064,40.47049]},"properties":{"p":"0124D00127000000","a":"MISSOURI ST","m":"12th Ward - PITTSBURGH","u":"L","o":"individual","sf":218671,"v":23600}},{"type":"Feature","geometry":{"type":"Point","coordinates":[-79.91452,40.47633]},"properties":{"p":"0123J00112000100","a":"HEBERTON ST","m":"11th Ward - PITTSBURGH","u":"L","o":"individual","sf":1790,"v":21500}},{"type":"Feature","geometry":{"type":"Point","coordinates":[-79.91474,40.47636]},"properties":{"p":"0123J00112000300","a":"HEBERTON ST","m":"11th Ward - PITTSBURGH","u":"L","o":"individual","sf":1790,"v":2200}},{"type":"Feature","geometry":{"type":"Point","coordinates":[-79.90224,40.47239]},"properties":{"p":"0123S00020000000","a":"OLIVANT PL","m":"12th Ward - PITTSBURGH","u":"L","o":"individual","sf":7346,"v":7200}},{"type":"Feature","geometry":{"type":"Point","coordinates":[-79.90058,40.47283]},"properties":{"p":"0123S00069000000","a":"LEMINGTON AVE","m":"12th Ward - PITTSBURGH","u":"L","o":"corp","sf":43560,"v":17500}},{"type":"Feature","geometry":{"type":"Point","coordinates":[-79.90339,40.47276]},"properties":{"p":"0123S00150000000","a":"OLIVANT ST","m":"12th Ward - PITTSBURGH","u":"L","o":"individual","sf":34123,"v":16600}},{"type":"Feature","geometry":{"type":"Point","coordinates":[-79.91468,40.47512]},"properties":{"p":"0123J00134000000","a":"HEBERTON ST","m":"11th Ward - PITTSBURGH","u":"L","o":"individual","sf":7280,"v":50680}},{"type":"Feature","geometry":{"type":"Point","coordinates":[-79.91481,40.47471]},"properties":{"p":"0123J00139000000","a":"HEBERTON ST","m":"11th Ward - PITTSBURGH","u":"L","o":"individual","sf":7724,"v":60800}},{"type":"Feature","geometry":{"type":"Point","coordinates":[-79.90231,40.47091]},"properties":{"p":"0124D00248000000","a":"DUNMORE ST","m":"12th Ward - PITTSBURGH","u":"L","o":"individual","sf":2720,"v":1100}},{"type":"Feature","geometry":{"type":"Point","coordinates":[-79.90709,40.47027]},"properties":{"p":"0124C00018000000","a":"DEAN ST","m":"12th Ward - PITTSBURGH","u":"L","o":"corp","sf":2500,"v":600}},{"type":"Feature","geometry":{"type":"Point","coordinates":[-79.90684,40.47015]},"properties":{"p":"0124C00024000000","a":"DEAN ST","m":"12th Ward - PITTSBURGH","u":"L","o":"individual","sf":2500,"v":600}},{"type":"Feature","geometry":{"type":"Point","coordinates":[-79.90671,40.47007]},"properties":{"p":"0124C00026000000","a":"DEAN ST","m":"12th Ward - PITTSBURGH","u":"L","o":"corp","sf":2500,"v":600}},{"type":"Feature","geometry":{"type":"Point","coordinates":[-79.90664,40.47003]},"properties":{"p":"0124C00027000000","a":"DEAN ST","m":"12th Ward - PITTSBURGH","u":"L","o":"corp","sf":2500,"v":3000}},{"type":"Feature","geometry":{"type":"Point","coordinates":[-79.90275,40.47078]},"properties":{"p":"0124D00254000000","a":"623 DUNMORE ST","m":"12th Ward - PITTSBURGH","u":"L","o":"individual","sf":19800,"v":5300}},{"type":"Feature","geometry":{"type":"Point","coordinates":[-79.91254,40.47383]},"properties":{"p":"0123N00283000000","a":"JACKSON ST","m":"11th Ward - PITTSBURGH","u":"L","o":"individual","sf":5291,"v":32500}},{"type":"Feature","geometry":{"type":"Point","coordinates":[-79.90639,40.4719]},"properties":{"p":"0124C00115000000","a":"6200 OLIVANT ST","m":"12th Ward - PITTSBURGH","u":"L","o":"individual","sf":43560,"v":7000}},{"type":"Feature","geometry":{"type":"Point","coordinates":[-79.91444,40.4737]},"properties":{"p":"0123N00114000000","a":"1118 HEBERTON ST","m":"11th Ward - PITTSBURGH","u":"L","o":"individual","sf":1718,"v":20600}},{"type":"Feature","geometry":{"type":"Point","coordinates":[-79.91336,40.47168]},"properties":{"p":"0124A00229000000","a":"901 WELLESLEY RD","m":"11th Ward - PITTSBURGH","u":"L","o":"individual","sf":2561,"v":1200}},{"type":"Feature","geometry":{"type":"Point","coordinates":[-79.90132,40.47191]},"properties":{"p":"0124D00041000000","a":"DUNMORE ST","m":"12th Ward - PITTSBURGH","u":"L","o":"individual","sf":6478,"v":7100}},{"type":"Feature","geometry":{"type":"Point","coordinates":[-79.90067,40.47211]},"properties":{"p":"0124D00053000000","a":"MCCUNE ST","m":"12th Ward - PITTSBURGH","u":"L","o":"corp","sf":9410,"v":14400}},{"type":"Feature","geometry":{"type":"Point","coordinates":[-79.90058,40.47231]},"properties":{"p":"0123S00001000000","a":"MCCUNE ST","m":"12th Ward - PITTSBURGH","u":"L","o":"corp","sf":9410,"v":14400}},{"type":"Feature","geometry":{"type":"Point","coordinates":[-79.90048,40.47251]},"properties":{"p":"0123S00005000000","a":"MCCUNE ST","m":"12th Ward - PITTSBURGH","u":"L","o":"corp","sf":9787,"v":14400}},{"type":"Feature","geometry":{"type":"Point","coordinates":[-79.90117,40.47236]},"properties":{"p":"0123S00009000000","a":"DUNMORE ST","m":"12th Ward - PITTSBURGH","u":"L","o":"individual","sf":6376,"v":1600}},{"type":"Feature","geometry":{"type":"Point","coordinates":[-79.90077,40.47191]},"properties":{"p":"0124D00055000000","a":"MCCUNE ST","m":"12th Ward - PITTSBURGH","u":"L","o":"corp","sf":3100,"v":4300}},{"type":"Feature","geometry":{"type":"Point","coordinates":[-79.90083,40.47178]},"properties":{"p":"0124D00060000000","a":"MCCUNE ST","m":"12th Ward - PITTSBURGH","u":"L","o":"corp","sf":9424,"v":14400}},{"type":"Feature","geometry":{"type":"Point","coordinates":[-79.90092,40.47158]},"properties":{"p":"0124D00064000000","a":"MCCUNE ST","m":"12th Ward - PITTSBURGH","u":"L","o":"corp","sf":6280,"v":14100}},{"type":"Feature","geometry":{"type":"Point","coordinates":[-79.90091,40.47132]},"properties":{"p":"0124D00070000000","a":"MCCUNE ST","m":"12th Ward - PITTSBURGH","u":"L","o":"corp","sf":7309,"v":14200}},{"type":"Feature","geometry":{"type":"Point","coordinates":[-79.90691,40.47019]},"properties":{"p":"0124C00023000000","a":"DEAN ST","m":"12th Ward - PITTSBURGH","u":"L","o":"individual","sf":2500,"v":600}},{"type":"Feature","geometry":{"type":"Point","coordinates":[-79.91529,40.47079]},"properties":{"p":"0124A00198000000","a":"WELLESLEY AVE","m":"11th Ward - PITTSBURGH","u":"L","o":"individual","sf":3807,"v":22900}},{"type":"Feature","geometry":{"type":"Point","coordinates":[-79.91997,40.47278]},"properties":{"p":"0082S00078000000","a":"WELLESLEY AVE","m":"11th Ward - PITTSBURGH","u":"L","o":"individual","sf":2266,"v":1100}},{"type":"Feature","geometry":{"type":"Point","coordinates":[-79.91448,40.47254]},"properties":{"p":"0123N00101000000","a":"HEBERTON ST","m":"11th Ward - PITTSBURGH","u":"L","o":"individual","sf":5525,"v":2500}},{"type":"Feature","geometry":{"type":"Point","coordinates":[-79.91979,40.47547]},"properties":{"p":"0082M00183000000","a":"5902 BRYANT ST","m":"11th Ward - PITTSBURGH","u":"L","o":"corp","sf":4180,"v":41300}},{"type":"Feature","geometry":{"type":"Point","coordinates":[-79.90176,40.47155]},"properties":{"p":"0124D00030000000","a":"OLIVANT ST","m":"12th Ward - PITTSBURGH","u":"L","o":"corp","sf":5880,"v":14100}},{"type":"Feature","geometry":{"type":"Point","coordinates":[-79.90074,40.47198]},"properties":{"p":"0124D00054000000","a":"MCCUNE ST","m":"12th Ward - PITTSBURGH","u":"L","o":"corp","sf":3100,"v":4300}}]}