{"type":"FeatureCollection","features":[{"type":"Feature","geometry":{"type":"Point","coordinates":[-79.91471,40.52554]},"properties":{"p":"0358J00100000000","a":"DORSEYVILLE RD","m":"Fox Chapel","u":"L","o":"corp","sf":186437,"v":199200}},{"type":"Feature","geometry":{"type":"Point","coordinates":[-79.90879,40.52173]},"properties":{"p":"0358P00100000000","a":"145 -475 HILLTOP LN","m":"Fox Chapel","u":"L","o":"individual","sf":10210,"v":3500}},{"type":"Feature","geometry":{"type":"Point","coordinates":[-79.90825,40.52585]},"properties":{"p":"0358L00070000000","a":"1421 -1775 HEMLOCK HOLLOW RD","m":"Fox Chapel","u":"L","o":"corp","sf":96877,"v":38900}},{"type":"Feature","geometry":{"type":"Point","coordinates":[-79.90916,40.52577]},"properties":{"p":"0358K00225000000","a":"1421 -1775 HEMLOCK HOLLOW RD","m":"Fox Chapel","u":"L","o":"corp","sf":26390,"v":10600}},{"type":"Feature","geometry":{"type":"Point","coordinates":[-79.90909,40.52303]},"properties":{"p":"0358K00280000000","a":"DEER SPRING LN","m":"Fox Chapel","u":"L","o":"individual","sf":12536,"v":21600}},{"type":"Feature","geometry":{"type":"Point","coordinates":[-79.90177,40.51186]},"properties":{"p":"0287S00095000000","a":"98 RIDING TRAIL LN","m":"Fox Chapel","u":"L","o":"individual","sf":130710,"v":165000}},{"type":"Feature","geometry":{"type":"Point","coordinates":[-79.91265,40.52685]},"properties":{"p":"0358F00045000000","a":"ORCHARD AVE","m":"Fox Chapel","u":"L","o":"corp","sf":71255,"v":159500}},{"type":"Feature","geometry":{"type":"Point","coordinates":[-79.91047,40.52921]},"properties":{"p":"0358B00050000000","a":"555 WOODBRIDGE LN","m":"Fox Chapel","u":"L","o":"individual","sf":89734,"v":193600}},{"type":"Feature","geometry":{"type":"Point","coordinates":[-79.91267,40.52043]},"properties":{"p":"0287A00150000000","a":"DORSEYVILLE RD","m":"Fox Chapel","u":"L","o":"individual","sf":115521,"v":174800}},{"type":"Feature","geometry":{"type":"Point","coordinates":[-79.91246,40.52606]},"properties":{"p":"0358F00052000000","a":"ORCHARD AVE","m":"Fox Chapel","u":"L","o":"corp","sf":57325,"v":154700}},{"type":"Feature","geometry":{"type":"Point","coordinates":[-79.9168,40.51368]},"properties":{"p":"0286M00096000000","a":"RAVENCREST RD","m":"O''Hara","u":"L","o":"corp","sf":24721,"v":56600}},{"type":"Feature","geometry":{"type":"Point","coordinates":[-79.91924,40.51497]},"properties":{"p":"0286M00132000000","a":"KERRWOOD RD","m":"O''Hara","u":"L","o":"individual","sf":7513,"v":1000}},{"type":"Feature","geometry":{"type":"Point","coordinates":[-79.91602,40.52041]},"properties":{"p":"0287A00065000000","a":"DORSEYVILLE RD","m":"O''Hara","u":"L","o":"individual","sf":5163,"v":700}},{"type":"Feature","geometry":{"type":"Point","coordinates":[-79.91609,40.51025]},"properties":{"p":"0223D00010000000","a":"MAURERS LN","m":"O''Hara","u":"L","o":"individual","sf":4504,"v":600}},{"type":"Feature","geometry":{"type":"Point","coordinates":[-79.91798,40.52049]},"properties":{"p":"0286D00065000000","a":"DORSEYVILLE RD","m":"O''Hara","u":"L","o":"individual","sf":33955,"v":57800}},{"type":"Feature","geometry":{"type":"Point","coordinates":[-79.91835,40.51977]},"properties":{"p":"0286D00067000000","a":"DORSEYVILLE RD","m":"O''Hara","u":"L","o":"individual","sf":76230,"v":34700}},{"type":"Feature","geometry":{"type":"Point","coordinates":[-79.91769,40.51994]},"properties":{"p":"0286D00070000000","a":"DORSEYVILLE RD","m":"O''Hara","u":"L","o":"individual","sf":35643,"v":58000}},{"type":"Feature","geometry":{"type":"Point","coordinates":[-79.91759,40.51941]},"properties":{"p":"0286D00080000000","a":"413 DORSEYVILLE RD","m":"O''Hara","u":"L","o":"individual","sf":4000,"v":500}},{"type":"Feature","geometry":{"type":"Point","coordinates":[-79.91495,40.5109]},"properties":{"p":"0224A00064000000","a":"MAURERS LN","m":"O''Hara","u":"L","o":"individual","sf":22128,"v":55300}},{"type":"Feature","geometry":{"type":"Point","coordinates":[-79.91878,40.52802]},"properties":{"p":"0357D00216000000","a":"FOX POINTE DR","m":"O''Hara","u":"L","o":"individual","sf":22545,"v":56300}},{"type":"Feature","geometry":{"type":"Point","coordinates":[-79.91739,40.52082]},"properties":{"p":"0357S00025000000","a":"KITTANNING PIKE","m":"O''Hara","u":"L","o":"individual","sf":49833,"v":59800}},{"type":"Feature","geometry":{"type":"Point","coordinates":[-79.91647,40.52894]},"properties":{"p":"0358A00175000000","a":"DORSEYVILLE RD","m":"O''Hara","u":"L","o":"corp","sf":115434,"v":68100}},{"type":"Feature","geometry":{"type":"Point","coordinates":[-79.90171,40.52985]},"properties":{"p":"0358D00125000000","a":"305 OLD MILL RD","m":"Fox Chapel","u":"B","o":"corp","sf":165315,"v":109500}}]}