{"type":"FeatureCollection","features":[{"type":"Feature","geometry":{"type":"Point","coordinates":[-79.91877,40.37271]},"properties":{"p":"0185D00310000000","a":"MIFFLIN RD","m":"31st Ward - PITTSBURGH","u":"C","o":"corp","sf":3778,"v":20700}},{"type":"Feature","geometry":{"type":"Point","coordinates":[-79.90867,40.37807]},"properties":{"p":"0133K00173000000","a":"4600 MAIN ST","m":"31st Ward - PITTSBURGH","u":"C","o":"corp","sf":5552,"v":8300}},{"type":"Feature","geometry":{"type":"Point","coordinates":[-79.90564,40.38156]},"properties":{"p":"0133G00031000000","a":"4119 MAIN ST","m":"Munhall","u":"C","o":"corp","sf":2500,"v":900}},{"type":"Feature","geometry":{"type":"Point","coordinates":[-79.90122,40.38885]},"properties":{"p":"0132M00029000000","a":"3101 MAIN ST","m":"Munhall","u":"C","o":"corp","sf":3457,"v":1200}},{"type":"Feature","geometry":{"type":"Point","coordinates":[-79.9031,40.38508]},"properties":{"p":"0132S00265000000","a":"3511 MAIN ST","m":"Munhall","u":"C","o":"corp","sf":4031,"v":7300}},{"type":"Feature","geometry":{"type":"Point","coordinates":[-79.91636,40.3877]},"properties":{"p":"0132M00273000000","a":"MORGANS LN","m":"Munhall","u":"C","o":"corp","sf":150339,"v":10400}},{"type":"Feature","geometry":{"type":"Point","coordinates":[-79.91433,40.37129]},"properties":{"p":"0184E00080000000","a":"1233 MIFFLIN RD","m":"31st Ward - PITTSBURGH","u":"C","o":"corp","sf":313196,"v":28600}},{"type":"Feature","geometry":{"type":"Point","coordinates":[-79.91683,40.37496]},"properties":{"p":"0134S00079000000","a":"5019 BARBERRY ST","m":"31st Ward - PITTSBURGH","u":"L","o":"individual","sf":30056,"v":8300}},{"type":"Feature","geometry":{"type":"Point","coordinates":[-79.91988,40.37129]},"properties":{"p":"0185H00199000000","a":"MIFFLIN RD","m":"31st Ward - PITTSBURGH","u":"L","o":"individual","sf":193014,"v":29300}},{"type":"Feature","geometry":{"type":"Point","coordinates":[-79.91137,40.37573]},"properties":{"p":"0133P00096000000","a":"LINDBERG AVE","m":"31st Ward - PITTSBURGH","u":"L","o":"individual","sf":3930,"v":4700}},{"type":"Feature","geometry":{"type":"Point","coordinates":[-79.91921,40.37518]},"properties":{"p":"0134S00500000000","a":"THEODORE ST","m":"31st Ward - PITTSBURGH","u":"L","o":"individual","sf":6153,"v":1800}},{"type":"Feature","geometry":{"type":"Point","coordinates":[-79.91468,40.37291]},"properties":{"p":"0184A00058000000","a":"1177 OAKLEAF DR","m":"31st Ward - PITTSBURGH","u":"L","o":"individual","sf":3600,"v":1260}},{"type":"Feature","geometry":{"type":"Point","coordinates":[-79.91919,40.37998]},"properties":{"p":"0134H00016000000","a":"838 BEECHLAND ST","m":"31st Ward - PITTSBURGH","u":"L","o":"individual","sf":9000,"v":6400}},{"type":"Feature","geometry":{"type":"Point","coordinates":[-79.91444,40.37055]},"properties":{"p":"0184E00050000000","a":"MCKEESPORT BLVD","m":"31st Ward - PITTSBURGH","u":"L","o":"individual","sf":6621,"v":6200}},{"type":"Feature","geometry":{"type":"Point","coordinates":[-79.90945,40.37713]},"properties":{"p":"0133P00155000000","a":"4638 INTERBORO AVE","m":"31st Ward - PITTSBURGH","u":"L","o":"individual","sf":4800,"v":5800}},{"type":"Feature","geometry":{"type":"Point","coordinates":[-79.91439,40.37296]},"properties":{"p":"0184A00079000000","a":"LEASIDE DR","m":"31st Ward - PITTSBURGH","u":"L","o":"individual","sf":4817,"v":1500}},{"type":"Feature","geometry":{"type":"Point","coordinates":[-79.91197,40.37044]},"properties":{"p":"0184F00005000000","a":"5154 DELFORD ST","m":"31st Ward - PITTSBURGH","u":"L","o":"individual","sf":550,"v":300}},{"type":"Feature","geometry":{"type":"Point","coordinates":[-79.91967,40.38048]},"properties":{"p":"0134H00040000000","a":"BEECHLAND ST","m":"31st Ward - PITTSBURGH","u":"L","o":"individual","sf":4792,"v":5800}},{"type":"Feature","geometry":{"type":"Point","coordinates":[-79.91943,40.37117]},"properties":{"p":"0185H00150000000","a":"COX AVE","m":"31st Ward - PITTSBURGH","u":"L","o":"individual","sf":10161,"v":12500}},{"type":"Feature","geometry":{"type":"Point","coordinates":[-79.91891,40.37278]},"properties":{"p":"0185D00306000000","a":"1110 MIFFLIN RD","m":"31st Ward - PITTSBURGH","u":"L","o":"individual","sf":11031,"v":6500}},{"type":"Feature","geometry":{"type":"Point","coordinates":[-79.90899,40.37825]},"properties":{"p":"0133K00135000000","a":"PLAPORT ST","m":"31st Ward - PITTSBURGH","u":"L","o":"corp","sf":6344,"v":1900}},{"type":"Feature","geometry":{"type":"Point","coordinates":[-79.90965,40.37759]},"properties":{"p":"0133K00146000000","a":"PLAPORT ST","m":"31st Ward - PITTSBURGH","u":"L","o":"individual","sf":7350,"v":6200}},{"type":"Feature","geometry":{"type":"Point","coordinates":[-79.9152,40.37483]},"properties":{"p":"0184A00205000000","a":"LOUGEAN AVE","m":"31st Ward - PITTSBURGH","u":"L","o":"individual","sf":5058,"v":1500}},{"type":"Feature","geometry":{"type":"Point","coordinates":[-79.91909,40.38092]},"properties":{"p":"0134H00180000000","a":"807 BEECHLAND ST","m":"31st Ward - PITTSBURGH","u":"L","o":"individual","sf":10000,"v":6500}},{"type":"Feature","geometry":{"type":"Point","coordinates":[-79.91888,40.38168]},"properties":{"p":"0134H00196000000","a":"OAKVILLE ST","m":"31st Ward - PITTSBURGH","u":"L","o":"individual","sf":10054,"v":12500}},{"type":"Feature","geometry":{"type":"Point","coordinates":[-79.91745,40.38463]},"properties":{"p":"0134D00012000000","a":"MAPLEDALE ST","m":"31st Ward - PITTSBURGH","u":"L","o":"individual","sf":16723,"v":2500}},{"type":"Feature","geometry":{"type":"Point","coordinates":[-79.91556,40.3791]},"properties":{"p":"0133J00108000100","a":"LINDBERG AVE","m":"31st Ward - PITTSBURGH","u":"L","o":"individual","sf":2000,"v":2400}},{"type":"Feature","geometry":{"type":"Point","coordinates":[-79.91576,40.37888]},"properties":{"p":"0133J00109000000","a":"MOONEY RD","m":"31st Ward - PITTSBURGH","u":"L","o":"individual","sf":14300,"v":6800}},{"type":"Feature","geometry":{"type":"Point","coordinates":[-79.91549,40.37896]},"properties":{"p":"0133J00110000100","a":"LINDBERG AVE","m":"31st Ward - PITTSBURGH","u":"L","o":"individual","sf":2400,"v":2900}},{"type":"Feature","geometry":{"type":"Point","coordinates":[-79.9188,40.38372]},"properties":{"p":"0134D00024000000","a":"4475 CASSABILL DR","m":"31st Ward - PITTSBURGH","u":"L","o":"corp","sf":14151,"v":27100}},{"type":"Feature","geometry":{"type":"Point","coordinates":[-79.91807,40.37566]},"properties":{"p":"0134S00052000000","a":"5009 GLEN HURST RD","m":"31st Ward - PITTSBURGH","u":"L","o":"individual","sf":5734,"v":3000}},{"type":"Feature","geometry":{"type":"Point","coordinates":[-79.91228,40.3757]},"properties":{"p":"0133N00049000000","a":"LOUGEAN AVE","m":"31st Ward - PITTSBURGH","u":"L","o":"individual","sf":7200,"v":2100}},{"type":"Feature","geometry":{"type":"Point","coordinates":[-79.90846,40.37043]},"properties":{"p":"0184F00254000000","a":"MCBRIDE ST","m":"31st Ward - PITTSBURGH","u":"L","o":"individual","sf":720,"v":300}},{"type":"Feature","geometry":{"type":"Point","coordinates":[-79.91592,40.37328]},"properties":{"p":"0184A00027000000","a":"OAKLEAF DR","m":"31st Ward - PITTSBURGH","u":"L","o":"individual","sf":10190,"v":12500}},{"type":"Feature","geometry":{"type":"Point","coordinates":[-79.91693,40.37885]},"properties":{"p":"0134M00046000000","a":"MOONEY RD","m":"31st Ward - PITTSBURGH","u":"L","o":"individual","sf":26000,"v":7400}},{"type":"Feature","geometry":{"type":"Point","coordinates":[-79.9164,40.37865]},"properties":{"p":"0134M00050000000","a":"MOONEY RD","m":"31st Ward - PITTSBURGH","u":"L","o":"individual","sf":7350,"v":2200}},{"type":"Feature","geometry":{"type":"Point","coordinates":[-79.91298,40.38048]},"properties":{"p":"0133E00040000000","a":"SUNGLOW ST","m":"31st Ward - PITTSBURGH","u":"L","o":"individual","sf":15815,"v":7000}},{"type":"Feature","geometry":{"type":"Point","coordinates":[-79.91961,40.389]},"properties":{"p":"0091M00101000000","a":"GATES DR","m":"31st Ward - PITTSBURGH","u":"L","o":"corp","sf":104544,"v":22100}},{"type":"Feature","geometry":{"type":"Point","coordinates":[-79.91287,40.37647]},"properties":{"p":"0133N00190000000","a":"LINDBERG AVE","m":"31st Ward - PITTSBURGH","u":"L","o":"individual","sf":6827,"v":1200}},{"type":"Feature","geometry":{"type":"Point","coordinates":[-79.91017,40.37802]},"properties":{"p":"0133K00114000000","a":"4617 WEST RUN RD","m":"31st Ward - PITTSBURGH","u":"L","o":"individual","sf":5218,"v":6000}},{"type":"Feature","geometry":{"type":"Point","coordinates":[-79.91879,40.38057]},"properties":{"p":"0134H00105000000","a":"BEECHLAND ST","m":"31st Ward - PITTSBURGH","u":"L","o":"individual","sf":10054,"v":2900}},{"type":"Feature","geometry":{"type":"Point","coordinates":[-79.91429,40.37228]},"properties":{"p":"0184E00222000000","a":"LEASIDE DR","m":"31st Ward - PITTSBURGH","u":"L","o":"individual","sf":1371,"v":500}},{"type":"Feature","geometry":{"type":"Point","coordinates":[-79.91972,40.38576]},"properties":{"p":"0091S00182000000","a":"4540 MARINA DR","m":"31st Ward - PITTSBURGH","u":"L","o":"corp","sf":9375,"v":52500}},{"type":"Feature","geometry":{"type":"Point","coordinates":[-79.91579,40.37948]},"properties":{"p":"0133J00102000100","a":"LINDBERG AVE","m":"31st Ward - PITTSBURGH","u":"L","o":"individual","sf":2000,"v":2400}},{"type":"Feature","geometry":{"type":"Point","coordinates":[-79.91594,40.37926]},"properties":{"p":"0133J00103000000","a":"LINDBERG AVE","m":"31st Ward - PITTSBURGH","u":"L","o":"individual","sf":18378,"v":7200}},{"type":"Feature","geometry":{"type":"Point","coordinates":[-79.91565,40.37925]},"properties":{"p":"0133J00105000000","a":"LINDBERG AVE","m":"31st Ward - PITTSBURGH","u":"L","o":"individual","sf":4000,"v":1200}},{"type":"Feature","geometry":{"type":"Point","coordinates":[-79.91774,40.38719]},"properties":{"p":"0091M00362000000","a":"4500 HOMERIDGE RD","m":"31st Ward - PITTSBURGH","u":"L","o":"individual","sf":6689,"v":13200}},{"type":"Feature","geometry":{"type":"Point","coordinates":[-79.91614,40.3743]},"properties":{"p":"0185D00056000000","a":"LOUGEAN AVE","m":"31st Ward - PITTSBURGH","u":"L","o":"corp","sf":7480,"v":12200}},{"type":"Feature","geometry":{"type":"Point","coordinates":[-79.91242,40.37939]},"properties":{"p":"0133J00341000000","a":"SUNGLOW ST","m":"31st Ward - PITTSBURGH","u":"L","o":"individual","sf":1275,"v":1500}},{"type":"Feature","geometry":{"type":"Point","coordinates":[-79.91883,40.37572]},"properties":{"p":"0134S00044000000","a":"GLENHURST RD","m":"31st Ward - PITTSBURGH","u":"L","o":"individual","sf":6406,"v":1900}},{"type":"Feature","geometry":{"type":"Point","coordinates":[-79.91679,40.38022]},"properties":{"p":"0134H00281000000","a":"MOONEY RD","m":"31st Ward - PITTSBURGH","u":"L","o":"individual","sf":23117,"v":13600}},{"type":"Feature","geometry":{"type":"Point","coordinates":[-79.91948,40.38277]},"properties":{"p":"0134D00138000000","a":"MAPLEDALE ST","m":"31st Ward - PITTSBURGH","u":"L","o":"individual","sf":10000,"v":12500}},{"type":"Feature","geometry":{"type":"Point","coordinates":[-79.91837,40.38335]},"properties":{"p":"0134D00153000000","a":"MAPLEDALE ST","m":"31st Ward - PITTSBURGH","u":"L","o":"individual","sf":21364,"v":7500}},{"type":"Feature","geometry":{"type":"Point","coordinates":[-79.91759,40.383]},"properties":{"p":"0134D00202000000","a":"GREENCOVE ST","m":"31st Ward - PITTSBURGH","u":"L","o":"individual","sf":8463,"v":6300}},{"type":"Feature","geometry":{"type":"Point","coordinates":[-79.91774,40.38292]},"properties":{"p":"0134D00204000000","a":"GREENCOVE ST","m":"31st Ward - PITTSBURGH","u":"L","o":"individual","sf":8463,"v":2500}},{"type":"Feature","geometry":{"type":"Point","coordinates":[-79.91903,40.37977]},"properties":{"p":"0134M00014000000","a":"850 BEECHLAND ST","m":"31st Ward - PITTSBURGH","u":"L","o":"individual","sf":17228,"v":7100}},{"type":"Feature","geometry":{"type":"Point","coordinates":[-79.91886,40.37921]},"properties":{"p":"0134M00030000000","a":"BEECHLAND ST","m":"31st Ward - PITTSBURGH","u":"L","o":"corp","sf":55918,"v":16700}},{"type":"Feature","geometry":{"type":"Point","coordinates":[-79.91627,40.37911]},"properties":{"p":"0134M00041000000","a":"MOONEY RD","m":"31st Ward - PITTSBURGH","u":"L","o":"individual","sf":26021,"v":1100}},{"type":"Feature","geometry":{"type":"Point","coordinates":[-79.91156,40.3736]},"properties":{"p":"0184B00042000000","a":"INTERBORO AVE","m":"31st Ward - PITTSBURGH","u":"L","o":"individual","sf":9121,"v":2700}},{"type":"Feature","geometry":{"type":"Point","coordinates":[-79.91117,40.37364]},"properties":{"p":"0184B00045000000","a":"4909 INTERBORO AVE","m":"31st Ward - PITTSBURGH","u":"L","o":"individual","sf":1158,"v":400}},{"type":"Feature","geometry":{"type":"Point","coordinates":[-79.91162,40.37179]},"properties":{"p":"0184F00029000000","a":"DELFORD ST","m":"31st Ward - PITTSBURGH","u":"L","o":"individual","sf":5089,"v":6000}},{"type":"Feature","geometry":{"type":"Point","coordinates":[-79.91907,40.3819]},"properties":{"p":"0134H00069000000","a":"OAKVILLE ST","m":"31st Ward - PITTSBURGH","u":"L","o":"individual","sf":30161,"v":8300}},{"type":"Feature","geometry":{"type":"Point","coordinates":[-79.91899,40.3808]},"properties":{"p":"0134H00097000000","a":"823 BEECHLAND ST","m":"31st Ward - PITTSBURGH","u":"L","o":"individual","sf":10054,"v":5500}},{"type":"Feature","geometry":{"type":"Point","coordinates":[-79.91616,40.37227]},"properties":{"p":"0184E00150000A00","a":"APDALE ST","m":"31st Ward - PITTSBURGH","u":"L","o":"corp","sf":31276,"v":14400}},{"type":"Feature","geometry":{"type":"Point","coordinates":[-79.91603,40.37991]},"properties":{"p":"0133E00104000100","a":"MOONEY RD","m":"31st Ward - PITTSBURGH","u":"L","o":"individual","sf":2000,"v":2400}},{"type":"Feature","geometry":{"type":"Point","coordinates":[-79.91494,40.37465]},"properties":{"p":"0184A00211000000","a":"LOUGEAN AVE","m":"31st Ward - PITTSBURGH","u":"L","o":"corp","sf":338,"v":200}},{"type":"Feature","geometry":{"type":"Point","coordinates":[-79.91506,40.37713]},"properties":{"p":"0133N00289000000","a":"1024 BEECHLAND ST","m":"31st Ward - PITTSBURGH","u":"L","o":"individual","sf":4941,"v":1500}},{"type":"Feature","geometry":{"type":"Point","coordinates":[-79.91755,40.38669]},"properties":{"p":"0091S00030000100","a":"GATES DR","m":"31st Ward - PITTSBURGH","u":"L","o":"individual","sf":1141,"v":500}},{"type":"Feature","geometry":{"type":"Point","coordinates":[-79.9175,40.38621]},"properties":{"p":"0091S00053000100","a":"GATES DR","m":"31st Ward - PITTSBURGH","u":"L","o":"individual","sf":6825,"v":13200}},{"type":"Feature","geometry":{"type":"Point","coordinates":[-79.90954,40.37613]},"properties":{"p":"0133P00221000000","a":"INTERBORO AVE","m":"31st Ward - PITTSBURGH","u":"L","o":"individual","sf":15600,"v":13000}},{"type":"Feature","geometry":{"type":"Point","coordinates":[-79.91789,40.3816]},"properties":{"p":"0134H00249000000","a":"807 OAKVILLE ST","m":"31st Ward - PITTSBURGH","u":"L","o":"individual","sf":8463,"v":6300}},{"type":"Feature","geometry":{"type":"Point","coordinates":[-79.91744,40.3812]},"properties":{"p":"0134H00258000000","a":"OAKVILLE ST","m":"31st Ward - PITTSBURGH","u":"L","o":"individual","sf":9650,"v":6400}},{"type":"Feature","geometry":{"type":"Point","coordinates":[-79.91717,40.38085]},"properties":{"p":"0134H00261000000","a":"OAKVILLE ST","m":"31st Ward - PITTSBURGH","u":"L","o":"individual","sf":9014,"v":12400}},{"type":"Feature","geometry":{"type":"Point","coordinates":[-79.91697,40.38058]},"properties":{"p":"0134H00269000000","a":"OAKVILLE ST","m":"31st Ward - PITTSBURGH","u":"L","o":"individual","sf":10733,"v":6500}},{"type":"Feature","geometry":{"type":"Point","coordinates":[-79.91017,40.38612]},"properties":{"p":"0132P00184000000","a":"WAYNE RD","m":"Munhall","u":"L","o":"individual","sf":6681,"v":18200}},{"type":"Feature","geometry":{"type":"Point","coordinates":[-79.90998,40.38621]},"properties":{"p":"0132P00186000000","a":"WAYNE RD","m":"Munhall","u":"L","o":"individual","sf":7030,"v":18200}},{"type":"Feature","geometry":{"type":"Point","coordinates":[-79.90978,40.38629]},"properties":{"p":"0132P00188000000","a":"WAYNE RD","m":"Munhall","u":"L","o":"individual","sf":9671,"v":18400}},{"type":"Feature","geometry":{"type":"Point","coordinates":[-79.90952,40.38643]},"properties":{"p":"0132P00192000000","a":"WAYNE RD","m":"Munhall","u":"L","o":"individual","sf":8020,"v":18300}},{"type":"Feature","geometry":{"type":"Point","coordinates":[-79.90936,40.38648]},"properties":{"p":"0132P00194000000","a":"WAYNE RD","m":"Munhall","u":"L","o":"individual","sf":5787,"v":1800}},{"type":"Feature","geometry":{"type":"Point","coordinates":[-79.90573,40.3823]},"properties":{"p":"0133C00153000000","a":"MELVIN ST","m":"Munhall","u":"L","o":"individual","sf":2500,"v":900}},{"type":"Feature","geometry":{"type":"Point","coordinates":[-79.90003,40.38392]},"properties":{"p":"0133D00206000000","a":"MCWHINNEY ST","m":"Munhall","u":"L","o":"corp","sf":2135,"v":700}},{"type":"Feature","geometry":{"type":"Point","coordinates":[-79.90006,40.38366]},"properties":{"p":"0133D00227000000","a":"RED OAK LN","m":"Munhall","u":"L","o":"individual","sf":889,"v":300}},{"type":"Feature","geometry":{"type":"Point","coordinates":[-79.90039,40.38245]},"properties":{"p":"0133D00303000100","a":"RED OAK LN","m":"Munhall","u":"L","o":"corp","sf":3899,"v":1300}},{"type":"Feature","geometry":{"type":"Point","coordinates":[-79.90329,40.38731]},"properties":{"p":"0132M00191000000","a":"W MILLER AVE","m":"Munhall","u":"L","o":"individual","sf":2500,"v":900}},{"type":"Feature","geometry":{"type":"Point","coordinates":[-79.91082,40.38581]},"properties":{"p":"0132P00176000000","a":"WAYNE RD","m":"Munhall","u":"L","o":"individual","sf":5000,"v":1600}},{"type":"Feature","geometry":{"type":"Point","coordinates":[-79.91067,40.38589]},"properties":{"p":"0132P00178000000","a":"WAYNE RD","m":"Munhall","u":"L","o":"individual","sf":5000,"v":1600}},{"type":"Feature","geometry":{"type":"Point","coordinates":[-79.91053,40.38597]},"properties":{"p":"0132P00180000000","a":"WAYNE RD","m":"Munhall","u":"L","o":"individual","sf":5000,"v":1600}},{"type":"Feature","geometry":{"type":"Point","coordinates":[-79.90527,40.38295]},"properties":{"p":"0133C00143000000","a":"TRAUTMAN ST","m":"Munhall","u":"L","o":"individual","sf":6873,"v":18200}},{"type":"Feature","geometry":{"type":"Point","coordinates":[-79.90121,40.38319]},"properties":{"p":"0133D00192000000","a":"MCWHINNEY ST","m":"Munhall","u":"L","o":"individual","sf":34983,"v":10600}},{"type":"Feature","geometry":{"type":"Point","coordinates":[-79.90616,40.37682]},"properties":{"p":"0133R00115000000","a":"ROBERTA DR","m":"Munhall","u":"L","o":"individual","sf":2508,"v":900}},{"type":"Feature","geometry":{"type":"Point","coordinates":[-79.90008,40.38384]},"properties":{"p":"0133D00204000000","a":"MCWHINNEY ST","m":"Munhall","u":"L","o":"corp","sf":3097,"v":1400}},{"type":"Feature","geometry":{"type":"Point","coordinates":[-79.90549,40.38202]},"properties":{"p":"0133G00014000000","a":"MAIN ST","m":"Munhall","u":"L","o":"corp","sf":2400,"v":800}},{"type":"Feature","geometry":{"type":"Point","coordinates":[-79.90167,40.38727]},"properties":{"p":"0132M00138000000","a":"E MILLER AVE","m":"Munhall","u":"L","o":"corp","sf":5364,"v":1700}},{"type":"Feature","geometry":{"type":"Point","coordinates":[-79.9014,40.38842]},"properties":{"p":"0132M00163000000","a":"MAIN ST","m":"Munhall","u":"L","o":"corp","sf":5320,"v":1700}},{"type":"Feature","geometry":{"type":"Point","coordinates":[-79.91368,40.38385]},"properties":{"p":"0133A00115000000","a":"GREENTREE RD","m":"Munhall","u":"L","o":"individual","sf":40364,"v":21200}},{"type":"Feature","geometry":{"type":"Point","coordinates":[-79.91525,40.38428]},"properties":{"p":"0133A00177000000","a":"VIVIAN DR","m":"Munhall","u":"L","o":"individual","sf":3900,"v":1300}},{"type":"Feature","geometry":{"type":"Point","coordinates":[-79.91549,40.38426]},"properties":{"p":"0133A00180000000","a":"VIVIAN DR","m":"Munhall","u":"L","o":"individual","sf":14473,"v":4400}},{"type":"Feature","geometry":{"type":"Point","coordinates":[-79.90167,40.37708]},"properties":{"p":"0133S00055000000","a":"ELIZABETH ST","m":"Munhall","u":"L","o":"individual","sf":7013,"v":18200}},{"type":"Feature","geometry":{"type":"Point","coordinates":[-79.90144,40.38827]},"properties":{"p":"0132M00164000000","a":"MAIN ST","m":"Munhall","u":"L","o":"corp","sf":2069,"v":700}},{"type":"Feature","geometry":{"type":"Point","coordinates":[-79.90168,40.38772]},"properties":{"p":"0132M00171000000","a":"MAIN ST","m":"Munhall","u":"L","o":"corp","sf":4260,"v":1400}},{"type":"Feature","geometry":{"type":"Point","coordinates":[-79.90171,40.38764]},"properties":{"p":"0132M00172000000","a":"MAIN ST","m":"Munhall","u":"L","o":"corp","sf":4585,"v":1500}},{"type":"Feature","geometry":{"type":"Point","coordinates":[-79.90184,40.38756]},"properties":{"p":"0132M00174000000","a":"MAIN ST","m":"Munhall","u":"L","o":"corp","sf":5096,"v":1600}},{"type":"Feature","geometry":{"type":"Point","coordinates":[-79.90193,40.38735]},"properties":{"p":"0132M00178000000","a":"MAIN ST","m":"Munhall","u":"L","o":"corp","sf":9851,"v":3100}},{"type":"Feature","geometry":{"type":"Point","coordinates":[-79.91581,40.38417]},"properties":{"p":"0133A00182000000","a":"VIVIAN DR","m":"Munhall","u":"L","o":"individual","sf":16553,"v":5100}},{"type":"Feature","geometry":{"type":"Point","coordinates":[-79.91394,40.38318]},"properties":{"p":"0133A00082000000","a":"GREENTREE RD","m":"Munhall","u":"L","o":"individual","sf":11084,"v":18600}},{"type":"Feature","geometry":{"type":"Point","coordinates":[-79.90637,40.37599]},"properties":{"p":"0133R00200000000","a":"ROBERTA DR","m":"Munhall","u":"L","o":"individual","sf":8680,"v":18300}},{"type":"Feature","geometry":{"type":"Point","coordinates":[-79.90463,40.3841]},"properties":{"p":"0133C00087000000","a":"GRACE ST","m":"Munhall","u":"L","o":"individual","sf":6374,"v":18100}},{"type":"Feature","geometry":{"type":"Point","coordinates":[-79.90066,40.37686]},"properties":{"p":"0133S00043000000","a":"ELIZABETH ST","m":"Munhall","u":"L","o":"individual","sf":10280,"v":9500}},{"type":"Feature","geometry":{"type":"Point","coordinates":[-79.90099,40.37691]},"properties":{"p":"0133S00046000000","a":"ELIZABETH ST","m":"Munhall","u":"L","o":"individual","sf":8276,"v":2500}},{"type":"Feature","geometry":{"type":"Point","coordinates":[-79.90218,40.38252]},"properties":{"p":"0133D00162000000","a":"CENTER AVE","m":"Munhall","u":"L","o":"individual","sf":2500,"v":900}},{"type":"Feature","geometry":{"type":"Point","coordinates":[-79.90547,40.38236]},"properties":{"p":"0133C00150000000","a":"MELVIN ST","m":"Munhall","u":"L","o":"corp","sf":3015,"v":1000}},{"type":"Feature","geometry":{"type":"Point","coordinates":[-79.91722,40.38497]},"properties":{"p":"0091S00140000000","a":"145 MAPLEDALE DR","m":"Munhall","u":"L","o":"individual","sf":10734,"v":3300}},{"type":"Feature","geometry":{"type":"Point","coordinates":[-79.9173,40.38509]},"properties":{"p":"0091S00142000000","a":"145 MAPLEDALE DR","m":"Munhall","u":"L","o":"corp","sf":10923,"v":3400}},{"type":"Feature","geometry":{"type":"Point","coordinates":[-79.90929,40.38756]},"properties":{"p":"0132K00133000000","a":"YORK ST","m":"Munhall","u":"L","o":"individual","sf":6484,"v":18100}},{"type":"Feature","geometry":{"type":"Point","coordinates":[-79.90387,40.38789]},"properties":{"p":"0132L00096000000","a":"130 W MILLER AVE","m":"Munhall","u":"L","o":"individual","sf":7125,"v":2200}},{"type":"Feature","geometry":{"type":"Point","coordinates":[-79.91745,40.38639]},"properties":{"p":"0091S00054000000","a":"GATES DR","m":"Munhall","u":"L","o":"individual","sf":424,"v":200}},{"type":"Feature","geometry":{"type":"Point","coordinates":[-79.90466,40.38781]},"properties":{"p":"0132L00128000000","a":"W MILLER AVE","m":"Munhall","u":"L","o":"individual","sf":1250,"v":500}},{"type":"Feature","geometry":{"type":"Point","coordinates":[-79.90777,40.38819]},"properties":{"p":"0132L00216000000","a":"514 W MILLER AVE","m":"Munhall","u":"L","o":"individual","sf":3978,"v":1300}},{"type":"Feature","geometry":{"type":"Point","coordinates":[-79.91769,40.38775]},"properties":{"p":"0091M00298000000","a":"4504 HOMERIDGE DR","m":"Munhall","u":"L","o":"individual","sf":13994,"v":4300}},{"type":"Feature","geometry":{"type":"Point","coordinates":[-79.90794,40.38892]},"properties":{"p":"0132K00058000000","a":"3324 WEST RUN RD","m":"Munhall","u":"L","o":"individual","sf":3000,"v":1000}},{"type":"Feature","geometry":{"type":"Point","coordinates":[-79.90784,40.38853]},"properties":{"p":"0132K00079000002","a":"WEST RUN RD","m":"Munhall","u":"L","o":"individual","sf":6768,"v":18200}},{"type":"Feature","geometry":{"type":"Point","coordinates":[-79.90461,40.38847]},"properties":{"p":"0132L00062000000","a":"MARION ST","m":"Munhall","u":"L","o":"individual","sf":4349,"v":1400}},{"type":"Feature","geometry":{"type":"Point","coordinates":[-79.90566,40.38926]},"properties":{"p":"0132L00168000000","a":"MARION ST","m":"Munhall","u":"L","o":"individual","sf":6914,"v":18200}},{"type":"Feature","geometry":{"type":"Point","coordinates":[-79.90659,40.38906]},"properties":{"p":"0132L00185000000","a":"MARION ST","m":"Munhall","u":"L","o":"individual","sf":25633,"v":19900}},{"type":"Feature","geometry":{"type":"Point","coordinates":[-79.90616,40.38858]},"properties":{"p":"0132L00202000000","a":"410 W MILLER AVE","m":"Munhall","u":"L","o":"individual","sf":3560,"v":1200}},{"type":"Feature","geometry":{"type":"Point","coordinates":[-79.90674,40.38861]},"properties":{"p":"0132L00208000000","a":"MILLER AVE","m":"Munhall","u":"L","o":"individual","sf":21306,"v":14600}},{"type":"Feature","geometry":{"type":"Point","coordinates":[-79.91055,40.38846]},"properties":{"p":"0132K00225000000","a":"WEST RUN RD","m":"Munhall","u":"L","o":"individual","sf":108900,"v":21000}},{"type":"Feature","geometry":{"type":"Point","coordinates":[-79.90198,40.37938]},"properties":{"p":"0133M00219000000","a":"ELLSWORTH AVE","m":"Munhall","u":"L","o":"individual","sf":5500,"v":18100}},{"type":"Feature","geometry":{"type":"Point","coordinates":[-79.90654,40.3878]},"properties":{"p":"0132L00254000000","a":"TRAUTMAN ST","m":"Munhall","u":"L","o":"individual","sf":2500,"v":900}},{"type":"Feature","geometry":{"type":"Point","coordinates":[-79.90615,40.38097]},"properties":{"p":"0133G00166000100","a":"CENTER AVE","m":"Munhall","u":"L","o":"individual","sf":2307,"v":800}},{"type":"Feature","geometry":{"type":"Point","coordinates":[-79.90652,40.38025]},"properties":{"p":"0133G00172000000","a":"MAIN ST","m":"Munhall","u":"L","o":"individual","sf":6600,"v":18100}},{"type":"Feature","geometry":{"type":"Point","coordinates":[-79.91683,40.38416]},"properties":{"p":"0134D00008000000","a":"MAPLEDALE DR","m":"Munhall","u":"L","o":"individual","sf":7710,"v":2400}},{"type":"Feature","geometry":{"type":"Point","coordinates":[-79.90814,40.38625]},"properties":{"p":"0132P00027000000","a":"FOREST AVE","m":"Munhall","u":"L","o":"individual","sf":4800,"v":1500}},{"type":"Feature","geometry":{"type":"Point","coordinates":[-79.9081,40.38605]},"properties":{"p":"0132P00029000000","a":"FOREST AVE","m":"Munhall","u":"L","o":"corp","sf":10800,"v":1000}},{"type":"Feature","geometry":{"type":"Point","coordinates":[-79.908,40.38581]},"properties":{"p":"0132P00033000000","a":"WAYNE RD","m":"Munhall","u":"L","o":"individual","sf":12623,"v":18700}},{"type":"Feature","geometry":{"type":"Point","coordinates":[-79.90068,40.38503]},"properties":{"p":"0132S00195000000","a":"E VIRGINIA AVE","m":"Munhall","u":"L","o":"individual","sf":2500,"v":900}},{"type":"Feature","geometry":{"type":"Point","coordinates":[-79.90629,40.37881]},"properties":{"p":"0133L00108000000","a":"DAVIS AVE","m":"Munhall","u":"L","o":"individual","sf":1250,"v":500}},{"type":"Feature","geometry":{"type":"Point","coordinates":[-79.90274,40.37962]},"properties":{"p":"0133M00293000000","a":"SHADY AVE","m":"Munhall","u":"L","o":"individual","sf":2500,"v":900}},{"type":"Feature","geometry":{"type":"Point","coordinates":[-79.90145,40.38726]},"properties":{"p":"0132M00130000000","a":"AGNES ST","m":"Munhall","u":"L","o":"corp","sf":1980,"v":700}},{"type":"Feature","geometry":{"type":"Point","coordinates":[-79.90954,40.38497]},"properties":{"p":"0132P00109000000","a":"VENANGO AVE","m":"Munhall","u":"L","o":"individual","sf":4200,"v":1400}},{"type":"Feature","geometry":{"type":"Point","coordinates":[-79.90488,40.38665]},"properties":{"p":"0132R00040000000","a":"VIRGINIA AVE","m":"Munhall","u":"L","o":"individual","sf":2500,"v":900}},{"type":"Feature","geometry":{"type":"Point","coordinates":[-79.90222,40.38681]},"properties":{"p":"0132S00110000000","a":"MAIN ST","m":"Munhall","u":"L","o":"corp","sf":6400,"v":2000}},{"type":"Feature","geometry":{"type":"Point","coordinates":[-79.90137,40.38641]},"properties":{"p":"0132S00123000000","a":"E EUGENE AVE","m":"Munhall","u":"L","o":"individual","sf":300,"v":200}},{"type":"Feature","geometry":{"type":"Point","coordinates":[-79.91553,40.38648]},"properties":{"p":"0132N00298000000","a":"MORGANS LN","m":"Munhall","u":"L","o":"corp","sf":52708,"v":600}},{"type":"Feature","geometry":{"type":"Point","coordinates":[-79.90781,40.38666]},"properties":{"p":"0132P00006000000","a":"CAMBRIA ST","m":"Munhall","u":"L","o":"individual","sf":6250,"v":7000}},{"type":"Feature","geometry":{"type":"Point","coordinates":[-79.90902,40.38307]},"properties":{"p":"0133B00090000000","a":"VENANGO AVE","m":"Munhall","u":"L","o":"individual","sf":8244,"v":2600}},{"type":"Feature","geometry":{"type":"Point","coordinates":[-79.90741,40.38389]},"properties":{"p":"0133C00230000000","a":"CAMBRIA ST","m":"Munhall","u":"L","o":"individual","sf":3420,"v":1100}},{"type":"Feature","geometry":{"type":"Point","coordinates":[-79.90297,40.38361]},"properties":{"p":"0133D00092000000","a":"BOTSFORD ST","m":"Munhall","u":"L","o":"individual","sf":7500,"v":18200}},{"type":"Feature","geometry":{"type":"Point","coordinates":[-79.91601,40.38052]},"properties":{"p":"0133E00125000000","a":"4830 HAMILTON RD","m":"Munhall","u":"L","o":"individual","sf":10000,"v":18500}},{"type":"Feature","geometry":{"type":"Point","coordinates":[-79.90004,40.38163]},"properties":{"p":"0133H00372000000","a":"TIMBERWOOD DR","m":"Munhall","u":"L","o":"individual","sf":7606,"v":18200}},{"type":"Feature","geometry":{"type":"Point","coordinates":[-79.90024,40.38209]},"properties":{"p":"0133H00378000000","a":"3622 TIMBERWOOD DR","m":"Munhall","u":"L","o":"individual","sf":5528,"v":1800}},{"type":"Feature","geometry":{"type":"Point","coordinates":[-79.90394,40.3758]},"properties":{"p":"0133R00012000000","a":"SHADY AVE","m":"Munhall","u":"L","o":"corp","sf":8005,"v":18300}},{"type":"Feature","geometry":{"type":"Point","coordinates":[-79.90071,40.37879]},"properties":{"p":"0133M00167000000","a":"SUPERIOR ST","m":"Munhall","u":"L","o":"corp","sf":43560,"v":21500}},{"type":"Feature","geometry":{"type":"Point","coordinates":[-79.90252,40.3779]},"properties":{"p":"0133M00189000000","a":"ELLSWORTH AVE","m":"Munhall","u":"L","o":"individual","sf":6300,"v":2000}},{"type":"Feature","geometry":{"type":"Point","coordinates":[-79.91477,40.38553]},"properties":{"p":"0132N00204000000","a":"GATES DR","m":"Munhall","u":"L","o":"individual","sf":15000,"v":18900}},{"type":"Feature","geometry":{"type":"Point","coordinates":[-79.90047,40.38264]},"properties":{"p":"0133D00305000100","a":"RED OAK LN","m":"Munhall","u":"L","o":"individual","sf":3899,"v":1300}},{"type":"Feature","geometry":{"type":"Point","coordinates":[-79.90368,40.38584]},"properties":{"p":"0132R00073000000","a":"W VIRGINIA AVE","m":"Munhall","u":"L","o":"corp","sf":2500,"v":900}},{"type":"Feature","geometry":{"type":"Point","coordinates":[-79.90699,40.38746]},"properties":{"p":"0132L00269000000","a":"TRAUTMAN ST","m":"Munhall","u":"L","o":"individual","sf":5000,"v":18000}},{"type":"Feature","geometry":{"type":"Point","coordinates":[-79.90691,40.38716]},"properties":{"p":"0132L00275000000","a":"TRAUTMAN ST","m":"Munhall","u":"L","o":"individual","sf":7500,"v":2400}},{"type":"Feature","geometry":{"type":"Point","coordinates":[-79.90742,40.38745]},"properties":{"p":"0132L00282000000","a":"CAMBRIA ST","m":"Munhall","u":"L","o":"individual","sf":2500,"v":900}},{"type":"Feature","geometry":{"type":"Point","coordinates":[-79.90724,40.38875]},"properties":{"p":"0132L00295000000","a":"WEST RUN RD","m":"Munhall","u":"L","o":"corp","sf":5000,"v":1600}},{"type":"Feature","geometry":{"type":"Point","coordinates":[-79.90054,40.38281]},"properties":{"p":"0133D00307000100","a":"RED OAK LN","m":"Munhall","u":"L","o":"individual","sf":1949,"v":700}},{"type":"Feature","geometry":{"type":"Point","coordinates":[-79.90056,40.38344]},"properties":{"p":"0133D00313000000","a":"RED OAK LN","m":"Munhall","u":"L","o":"individual","sf":7540,"v":2400}},{"type":"Feature","geometry":{"type":"Point","coordinates":[-79.90223,40.38581]},"properties":{"p":"0132S00165000000","a":"115 E VIRGINIA AVE","m":"Munhall","u":"L","o":"individual","sf":2252,"v":800}},{"type":"Feature","geometry":{"type":"Point","coordinates":[-79.90064,40.38186]},"properties":{"p":"0133H00295000000","a":"SUPERIOR ST","m":"Munhall","u":"L","o":"individual","sf":4400,"v":16900}},{"type":"Feature","geometry":{"type":"Point","coordinates":[-79.90082,40.38227]},"properties":{"p":"0133H00311000000","a":"SUPERIOR ST","m":"Munhall","u":"L","o":"individual","sf":21048,"v":19400}},{"type":"Feature","geometry":{"type":"Point","coordinates":[-79.90025,40.37778]},"properties":{"p":"0133M00084000000","a":"SUPERIOR ST","m":"Munhall","u":"L","o":"individual","sf":14593,"v":18900}},{"type":"Feature","geometry":{"type":"Point","coordinates":[-79.90131,40.37812]},"properties":{"p":"0133M00103000000","a":"LINDEN AVE","m":"Munhall","u":"L","o":"individual","sf":12563,"v":18700}},{"type":"Feature","geometry":{"type":"Point","coordinates":[-79.91367,40.38628]},"properties":{"p":"0132N00125000000","a":"8 MORGANS LN","m":"Munhall","u":"L","o":"individual","sf":76230,"v":7000}},{"type":"Feature","geometry":{"type":"Point","coordinates":[-79.91494,40.38621]},"properties":{"p":"0132N00160000000","a":"MORGANS LN","m":"Munhall","u":"L","o":"individual","sf":40002,"v":12100}},{"type":"Feature","geometry":{"type":"Point","coordinates":[-79.91158,40.3899]},"properties":{"p":"0132F00174000000","a":"3473 PINEWOOD DR","m":"West Homestead","u":"L","o":"individual","sf":3972,"v":1400}},{"type":"Feature","geometry":{"type":"Point","coordinates":[-79.90758,40.38983]},"properties":{"p":"0132G00018000000","a":"LAUREL HILL DR","m":"West Homestead","u":"L","o":"corp","sf":11749,"v":26600}},{"type":"Feature","geometry":{"type":"Point","coordinates":[-79.90967,40.38906]},"properties":{"p":"0132K00044000000","a":"WEST RUN RD","m":"West Homestead","u":"L","o":"individual","sf":87198,"v":21000}},{"type":"Feature","geometry":{"type":"Point","coordinates":[-79.90866,40.38833]},"properties":{"p":"0132K00080000000","a":"WEST RUN RD","m":"West Homestead","u":"L","o":"corp","sf":4743,"v":1600}},{"type":"Feature","geometry":{"type":"Point","coordinates":[-79.91171,40.38992]},"properties":{"p":"0132F00175000000","a":"PINEWOOD DR","m":"West Homestead","u":"L","o":"corp","sf":6260,"v":2100}},{"type":"Feature","geometry":{"type":"Point","coordinates":[-79.90785,40.38934]},"properties":{"p":"0132K00038000000","a":"LAUREL HILL DR","m":"West Homestead","u":"L","o":"individual","sf":11400,"v":13600}},{"type":"Feature","geometry":{"type":"Point","coordinates":[-79.90111,40.37312]},"properties":{"p":"0184D00375000000","a":"4816 CLOVER LN","m":"West Mifflin","u":"L","o":"corp","sf":59677,"v":5500}},{"type":"Feature","geometry":{"type":"Point","coordinates":[-79.91092,40.37327]},"properties":{"p":"0184F00300000000","a":"POPLAR ST","m":"West Mifflin","u":"L","o":"individual","sf":14540,"v":15200}},{"type":"Feature","geometry":{"type":"Point","coordinates":[-79.91103,40.37339]},"properties":{"p":"0184F00376000000","a":"POPLAR ST","m":"West Mifflin","u":"L","o":"individual","sf":13491,"v":15100}},{"type":"Feature","geometry":{"type":"Point","coordinates":[-79.90866,40.37637]},"properties":{"p":"0133P00300000001","a":"4708 POPLAR ST","m":"West Mifflin","u":"L","o":"individual","sf":8458,"v":800}},{"type":"Feature","geometry":{"type":"Point","coordinates":[-79.90045,40.38555]},"properties":{"p":"0132S00083000000","a":"HILL ST","m":"Munhall","u":"L","o":"individual","sf":3400,"v":1100}},{"type":"Feature","geometry":{"type":"Point","coordinates":[-79.90321,40.37948]},"properties":{"p":"0133M00288000000","a":"SHADY AVE","m":"Munhall","u":"L","o":"individual","sf":1434,"v":500}},{"type":"Feature","geometry":{"type":"Point","coordinates":[-79.91963,40.38269]},"properties":{"p":"0134D00136000000","a":"MAPLEDALE ST","m":"31st Ward - PITTSBURGH","u":"L","o":"individual","sf":10000,"v":12500}},{"type":"Feature","geometry":{"type":"Point","coordinates":[-79.91525,40.3845]},"properties":{"p":"0133A00176000000","a":"VIVIAN DR","m":"Munhall","u":"L","o":"individual","sf":2000,"v":700}},{"type":"Feature","geometry":{"type":"Point","coordinates":[-79.91592,40.37973]},"properties":{"p":"0133J00106000100","a":"MOONEY RD","m":"31st Ward - PITTSBURGH","u":"L","o":"individual","sf":1000,"v":400}},{"type":"Feature","geometry":{"type":"Point","coordinates":[-79.90814,40.3892]},"properties":{"p":"0132K00056000000","a":"W RUN RD","m":"Munhall","u":"L","o":"individual","sf":4314,"v":5000}},{"type":"Feature","geometry":{"type":"Point","coordinates":[-79.90402,40.37792]},"properties":{"p":"0133L00015000000","a":"SHADY AVE","m":"Munhall","u":"L","o":"individual","sf":3403,"v":15100}},{"type":"Feature","geometry":{"type":"Point","coordinates":[-79.90919,40.3866]},"properties":{"p":"0132P00196000000","a":"WAYNE RD","m":"Munhall","u":"L","o":"individual","sf":11264,"v":18600}},{"type":"Feature","geometry":{"type":"Point","coordinates":[-79.90705,40.38876]},"properties":{"p":"0132L00297000000","a":"WEST RUN RD","m":"Munhall","u":"L","o":"corp","sf":7533,"v":2400}},{"type":"Feature","geometry":{"type":"Point","coordinates":[-79.90909,40.37064]},"properties":{"p":"0184F00200000000","a":"LEASIDE DR","m":"31st Ward - PITTSBURGH","u":"L","o":"individual","sf":105633,"v":21200}},{"type":"Feature","geometry":{"type":"Point","coordinates":[-79.91936,40.38123]},"properties":{"p":"0134H00083000000","a":"801 BEECHLAND ST","m":"31st Ward - PITTSBURGH","u":"L","o":"individual","sf":5027,"v":6000}},{"type":"Feature","geometry":{"type":"Point","coordinates":[-79.91704,40.38198]},"properties":{"p":"0134H00248000000","a":"OAKVILLE ST","m":"31st Ward - PITTSBURGH","u":"L","o":"individual","sf":93175,"v":8600}},{"type":"Feature","geometry":{"type":"Point","coordinates":[-79.90033,40.3806]},"properties":{"p":"0133H00209000000","a":"SUPERIOR ST","m":"Munhall","u":"L","o":"individual","sf":11344,"v":18600}},{"type":"Feature","geometry":{"type":"Point","coordinates":[-79.90204,40.378]},"properties":{"p":"0133M00138000000","a":"ELIZABETH ST","m":"Munhall","u":"L","o":"individual","sf":18824,"v":19200}},{"type":"Feature","geometry":{"type":"Point","coordinates":[-79.91722,40.38862]},"properties":{"p":"0091M00035000000","a":"OVERDALE DR","m":"West Homestead","u":"L","o":"individual","sf":41961,"v":29300}},{"type":"Feature","geometry":{"type":"Point","coordinates":[-79.9125,40.38497]},"properties":{"p":"0132N00008000000","a":"YORK ST","m":"Munhall","u":"L","o":"individual","sf":1107,"v":400}},{"type":"Feature","geometry":{"type":"Point","coordinates":[-79.90857,40.38191]},"properties":{"p":"0133F00141000000","a":"3835 CHESTER ST","m":"Munhall","u":"L","o":"individual","sf":6500,"v":18100}},{"type":"Feature","geometry":{"type":"Point","coordinates":[-79.90549,40.38026]},"properties":{"p":"0133G00137000000","a":"DAVIS AVE","m":"Munhall","u":"L","o":"individual","sf":4000,"v":16200}},{"type":"Feature","geometry":{"type":"Point","coordinates":[-79.91035,40.38602]},"properties":{"p":"0132P00182000000","a":"WAYNE RD","m":"Munhall","u":"L","o":"individual","sf":5663,"v":1800}},{"type":"Feature","geometry":{"type":"Point","coordinates":[-79.90161,40.38748]},"properties":{"p":"0132M00141000000","a":"AGNES ST","m":"Munhall","u":"L","o":"corp","sf":3163,"v":1100}},{"type":"Feature","geometry":{"type":"Point","coordinates":[-79.9185,40.38023]},"properties":{"p":"0134H00116000000","a":"839 BEECHLAND ST","m":"31st Ward - PITTSBURGH","u":"L","o":"individual","sf":10054,"v":6500}},{"type":"Feature","geometry":{"type":"Point","coordinates":[-79.91977,40.38385]},"properties":{"p":"0134D00044000000","a":"4470 CASSABILL DR","m":"31st Ward - PITTSBURGH","u":"B","o":"corp","sf":14685,"v":4800}},{"type":"Feature","geometry":{"type":"Point","coordinates":[-79.91801,40.38417]},"properties":{"p":"0134D00018000000","a":"4493 CASSABILL DR","m":"31st Ward - PITTSBURGH","u":"B","o":"corp","sf":15224,"v":4800}},{"type":"Feature","geometry":{"type":"Point","coordinates":[-79.9198,40.37916]},"properties":{"p":"0134M00056000000","a":"4313 CASSABILL DR","m":"31st Ward - PITTSBURGH","u":"B","o":"corp","sf":18782,"v":5100}}]}