{"type":"FeatureCollection","features":[{"type":"Feature","geometry":{"type":"Point","coordinates":[-79.91444,40.20026]},"properties":{"p":"2275N00235000000","a":"DELBERTS DR","m":"Forward","u":"I","o":"corp","sf":23958,"v":33100}},{"type":"Feature","geometry":{"type":"Point","coordinates":[-79.91829,40.20303]},"properties":{"p":"2276M00321000000","a":"BUNOLA RIVER RD","m":"Forward","u":"C","o":"individual","sf":3049,"v":400}},{"type":"Feature","geometry":{"type":"Point","coordinates":[-79.91855,40.20323]},"properties":{"p":"2276M00327000000","a":"BUNOLA RIVER RD","m":"Forward","u":"C","o":"individual","sf":1840,"v":300}},{"type":"Feature","geometry":{"type":"Point","coordinates":[-79.91878,40.2034]},"properties":{"p":"2276M00334000000","a":"BUNOLA RIVER RD","m":"Forward","u":"C","o":"individual","sf":4848,"v":700}},{"type":"Feature","geometry":{"type":"Point","coordinates":[-79.91966,40.20394]},"properties":{"p":"2276M00357000000","a":"RIVER  RD","m":"Forward","u":"C","o":"individual","sf":2180,"v":300}},{"type":"Feature","geometry":{"type":"Point","coordinates":[-79.91815,40.20378]},"properties":{"p":"2276M00216000000","a":"150 BUNOLA RIVER RD","m":"Forward","u":"C","o":"corp","sf":186001,"v":4300}},{"type":"Feature","geometry":{"type":"Point","coordinates":[-79.90102,40.19645]},"properties":{"p":"2470H00180000000","a":"RAILROAD","m":"Forward","u":"C","o":"individual","sf":231617,"v":77200}},{"type":"Feature","geometry":{"type":"Point","coordinates":[-79.9019,40.19649]},"properties":{"p":"2470H00220000000","a":"R OF W","m":"Forward","u":"C","o":"corp","sf":4530,"v":600}},{"type":"Feature","geometry":{"type":"Point","coordinates":[-79.90497,40.20167]},"properties":{"p":"2275R00210000000","a":"1861 MALERIE LN","m":"Forward","u":"L","o":"individual","sf":2500,"v":2800}},{"type":"Feature","geometry":{"type":"Point","coordinates":[-79.90346,40.20134]},"properties":{"p":"2275S00349000000","a":"1871 MALERIE LN","m":"Forward","u":"L","o":"individual","sf":7444,"v":8400}},{"type":"Feature","geometry":{"type":"Point","coordinates":[-79.91395,40.20544]},"properties":{"p":"2275E00159000000","a":"RIDGE RD","m":"Forward","u":"L","o":"individual","sf":53143,"v":15000}},{"type":"Feature","geometry":{"type":"Point","coordinates":[-79.91736,40.20192]},"properties":{"p":"2276M00311000000","a":"BUNOLA RIVER RD","m":"Forward","u":"L","o":"individual","sf":15156,"v":17100}},{"type":"Feature","geometry":{"type":"Point","coordinates":[-79.91787,40.20278]},"properties":{"p":"2276M00318000000","a":"BUNOLA RIVER RD","m":"Forward","u":"L","o":"individual","sf":1742,"v":2000}},{"type":"Feature","geometry":{"type":"Point","coordinates":[-79.91834,40.20309]},"properties":{"p":"2276M00324000000","a":"BUNOLA RIVER RD","m":"Forward","u":"L","o":"individual","sf":11327,"v":1100}},{"type":"Feature","geometry":{"type":"Point","coordinates":[-79.91878,40.20333]},"properties":{"p":"2276M00330000000","a":"BUNOLA RIVER RD","m":"Forward","u":"L","o":"individual","sf":3039,"v":300}},{"type":"Feature","geometry":{"type":"Point","coordinates":[-79.91918,40.20361]},"properties":{"p":"2276M00342000000","a":"BUNOLA RIVER RD","m":"Forward","u":"L","o":"individual","sf":1960,"v":2200}},{"type":"Feature","geometry":{"type":"Point","coordinates":[-79.91909,40.20368]},"properties":{"p":"2276M00346000000","a":"BUNOLA RIVER RD","m":"Forward","u":"L","o":"individual","sf":9200,"v":900}},{"type":"Feature","geometry":{"type":"Point","coordinates":[-79.90643,40.20572]},"properties":{"p":"2275G00153000000","a":"RIVER HILL RD","m":"Forward","u":"L","o":"individual","sf":15168,"v":1500}},{"type":"Feature","geometry":{"type":"Point","coordinates":[-79.91421,40.20436]},"properties":{"p":"2275J00319000000","a":"123 RIDGE RD","m":"Forward","u":"L","o":"individual","sf":6235,"v":7100}},{"type":"Feature","geometry":{"type":"Point","coordinates":[-79.909,40.20389]},"properties":{"p":"2275K00216000000","a":"MUNGER LN","m":"Forward","u":"L","o":"individual","sf":10000,"v":33700}},{"type":"Feature","geometry":{"type":"Point","coordinates":[-79.91132,40.20402]},"properties":{"p":"2275K00232000000","a":"145 RIDGE RD","m":"Forward","u":"L","o":"individual","sf":5535,"v":600}},{"type":"Feature","geometry":{"type":"Point","coordinates":[-79.91213,40.20461]},"properties":{"p":"2275K00261000000","a":"RIVER HILL RD","m":"Forward","u":"L","o":"individual","sf":5478,"v":6200}},{"type":"Feature","geometry":{"type":"Point","coordinates":[-79.9154,40.20099]},"properties":{"p":"2275N00237000000","a":"LIGGETT AVE","m":"Forward","u":"L","o":"corp","sf":4103,"v":600}},{"type":"Feature","geometry":{"type":"Point","coordinates":[-79.91514,40.20105]},"properties":{"p":"2275N00239000000","a":"LIGGETT AVE","m":"Forward","u":"L","o":"corp","sf":169,"v":100}},{"type":"Feature","geometry":{"type":"Point","coordinates":[-79.91496,40.20186]},"properties":{"p":"2275N00297000000","a":"BUNOLA RIVER RD","m":"Forward","u":"L","o":"individual","sf":2200,"v":200}},{"type":"Feature","geometry":{"type":"Point","coordinates":[-79.91503,40.20189]},"properties":{"p":"2275N00299000000","a":"BUNOLA RIVER RD","m":"Forward","u":"L","o":"individual","sf":1995,"v":24700}},{"type":"Feature","geometry":{"type":"Point","coordinates":[-79.91563,40.20211]},"properties":{"p":"2275N00319000000","a":"BUNOLA RIVER RD","m":"Forward","u":"L","o":"individual","sf":2236,"v":2500}},{"type":"Feature","geometry":{"type":"Point","coordinates":[-79.91599,40.20217]},"properties":{"p":"2275N00332000000","a":"BUNOLA RIVER RD","m":"Forward","u":"L","o":"individual","sf":5841,"v":600}},{"type":"Feature","geometry":{"type":"Point","coordinates":[-79.91608,40.20237]},"properties":{"p":"2275N00342000000","a":"FORWARD ST","m":"Forward","u":"L","o":"individual","sf":7500,"v":800}},{"type":"Feature","geometry":{"type":"Point","coordinates":[-79.901,40.20906]},"properties":{"p":"2275D00320000000","a":"MANOWN RD","m":"Forward","u":"L","o":"individual","sf":20000,"v":22600}},{"type":"Feature","geometry":{"type":"Point","coordinates":[-79.90064,40.20902]},"properties":{"p":"2275D00327000000","a":"MANOWN RD","m":"Forward","u":"L","o":"individual","sf":23560,"v":45400}},{"type":"Feature","geometry":{"type":"Point","coordinates":[-79.91795,40.20317]},"properties":{"p":"2276M00277000000","a":"BUNOLA RIVER RD","m":"Forward","u":"L","o":"individual","sf":1875,"v":2100}},{"type":"Feature","geometry":{"type":"Point","coordinates":[-79.91777,40.20307]},"properties":{"p":"2276M00279000000","a":"TRETTER DR","m":"Forward","u":"L","o":"individual","sf":7652,"v":800}},{"type":"Feature","geometry":{"type":"Point","coordinates":[-79.91758,40.20298]},"properties":{"p":"2276M00288000000","a":"BUNOLA RIVER RD","m":"Forward","u":"L","o":"individual","sf":1750,"v":200}},{"type":"Feature","geometry":{"type":"Point","coordinates":[-79.91742,40.20291]},"properties":{"p":"2276M00290000000","a":"BUNOLA RIVER RD","m":"Forward","u":"L","o":"individual","sf":5625,"v":600}},{"type":"Feature","geometry":{"type":"Point","coordinates":[-79.91723,40.20282]},"properties":{"p":"2276M00296000000","a":"BUNOLA RIVER RD","m":"Forward","u":"L","o":"individual","sf":4000,"v":400}},{"type":"Feature","geometry":{"type":"Point","coordinates":[-79.91708,40.20275]},"properties":{"p":"2276M00301000000","a":"BUNOLA RIVER RD","m":"Forward","u":"L","o":"individual","sf":5000,"v":500}},{"type":"Feature","geometry":{"type":"Point","coordinates":[-79.91697,40.20269]},"properties":{"p":"2276M00305000000","a":"BUNOLA RIVER RD","m":"Forward","u":"L","o":"individual","sf":2500,"v":300}},{"type":"Feature","geometry":{"type":"Point","coordinates":[-79.90585,40.19844]},"properties":{"p":"2470C00116000000","a":"PIKE ST","m":"Forward","u":"L","o":"individual","sf":5700,"v":600}},{"type":"Feature","geometry":{"type":"Point","coordinates":[-79.91134,40.20567]},"properties":{"p":"2275F00312000000","a":"673 IRMA ST","m":"Forward","u":"L","o":"individual","sf":23724,"v":2400}},{"type":"Feature","geometry":{"type":"Point","coordinates":[-79.91189,40.20666]},"properties":{"p":"2275F00344000000","a":"IRMA ST","m":"Forward","u":"L","o":"individual","sf":6839,"v":685}},{"type":"Feature","geometry":{"type":"Point","coordinates":[-79.91162,40.20717]},"properties":{"p":"2275F00387000000","a":"RIVER HILL RD","m":"Forward","u":"L","o":"individual","sf":10598,"v":1100}},{"type":"Feature","geometry":{"type":"Point","coordinates":[-79.90274,40.19741]},"properties":{"p":"2470D00026000000","a":"RAINBOW RUN RD","m":"Forward","u":"L","o":"individual","sf":1814,"v":200}},{"type":"Feature","geometry":{"type":"Point","coordinates":[-79.90409,40.20532]},"properties":{"p":"2275G00098000000","a":"STAFFEN LN","m":"Forward","u":"L","o":"individual","sf":181210,"v":2100}},{"type":"Feature","geometry":{"type":"Point","coordinates":[-79.91633,40.2025]},"properties":{"p":"2275J00061000000","a":"FORWARD ST","m":"Forward","u":"L","o":"corp","sf":2500,"v":300}},{"type":"Feature","geometry":{"type":"Point","coordinates":[-79.91656,40.20269]},"properties":{"p":"2275J00064000000","a":"FORWARD ST","m":"Forward","u":"L","o":"individual","sf":2500,"v":300}},{"type":"Feature","geometry":{"type":"Point","coordinates":[-79.91347,40.20328]},"properties":{"p":"2275J00194000000","a":"RIDGE RD","m":"Forward","u":"L","o":"individual","sf":109292,"v":16900}},{"type":"Feature","geometry":{"type":"Point","coordinates":[-79.91269,40.20362]},"properties":{"p":"2275J00224000000","a":"RIVER HILL RD","m":"Forward","u":"L","o":"individual","sf":4202,"v":400}},{"type":"Feature","geometry":{"type":"Point","coordinates":[-79.91318,40.20349]},"properties":{"p":"2275J00282000000","a":"RIVER HILL RD","m":"Forward","u":"L","o":"individual","sf":5948,"v":600}},{"type":"Feature","geometry":{"type":"Point","coordinates":[-79.91426,40.20414]},"properties":{"p":"2275J00310000000","a":"RIDGE RD","m":"Forward","u":"L","o":"individual","sf":31368,"v":3100}},{"type":"Feature","geometry":{"type":"Point","coordinates":[-79.90377,40.20147]},"properties":{"p":"2275S00366000000","a":"MALERIE LN","m":"Forward","u":"L","o":"individual","sf":4283,"v":400}},{"type":"Feature","geometry":{"type":"Point","coordinates":[-79.91643,40.20564]},"properties":{"p":"2276H00092000100","a":"RIVER HILL RD","m":"Forward","u":"L","o":"individual","sf":124277,"v":26500}},{"type":"Feature","geometry":{"type":"Point","coordinates":[-79.91815,40.20532]},"properties":{"p":"2276H00168000000","a":"RIVER HILL RD","m":"Forward","u":"L","o":"individual","sf":12763,"v":1300}},{"type":"Feature","geometry":{"type":"Point","coordinates":[-79.90541,40.19777]},"properties":{"p":"2470C00018000000","a":"MORGAN RUN RD","m":"Forward","u":"L","o":"individual","sf":2949,"v":300}},{"type":"Feature","geometry":{"type":"Point","coordinates":[-79.90894,40.20548]},"properties":{"p":"2275F00064000000","a":"JULIAN DR","m":"Forward","u":"L","o":"individual","sf":6208,"v":600}},{"type":"Feature","geometry":{"type":"Point","coordinates":[-79.91089,40.20517]},"properties":{"p":"2275F00239000000","a":"KENNETH ST","m":"Forward","u":"L","o":"individual","sf":21803,"v":2200}},{"type":"Feature","geometry":{"type":"Point","coordinates":[-79.90776,40.20667]},"properties":{"p":"2275G00361000000","a":"MANOWN RD","m":"Forward","u":"L","o":"individual","sf":43560,"v":24900}},{"type":"Feature","geometry":{"type":"Point","coordinates":[-79.9141,40.20874]},"properties":{"p":"2275A00157000000","a":"RIVER HILL RD","m":"Forward","u":"L","o":"individual","sf":1500,"v":200}},{"type":"Feature","geometry":{"type":"Point","coordinates":[-79.91618,40.20249]},"properties":{"p":"2275N00344000000","a":"FORWARD ST","m":"Forward","u":"L","o":"individual","sf":2500,"v":300}},{"type":"Feature","geometry":{"type":"Point","coordinates":[-79.91551,40.20234]},"properties":{"p":"2275N00349000000","a":"RIVER HILL RD","m":"Forward","u":"L","o":"individual","sf":2393,"v":200}},{"type":"Feature","geometry":{"type":"Point","coordinates":[-79.9029,40.19756]},"properties":{"p":"2470H00374000000","a":"MONONGAHELA RD","m":"Forward","u":"L","o":"individual","sf":378,"v":100}},{"type":"Feature","geometry":{"type":"Point","coordinates":[-79.91653,40.20201]},"properties":{"p":"2275N00171000000","a":"LIGGETT AVE","m":"Forward","u":"L","o":"individual","sf":2510,"v":300}},{"type":"Feature","geometry":{"type":"Point","coordinates":[-79.90637,40.20433]},"properties":{"p":"2275L00322000000","a":"RIVER HILL RD","m":"Forward","u":"L","o":"individual","sf":87120,"v":1000}},{"type":"Feature","geometry":{"type":"Point","coordinates":[-79.907,40.20375]},"properties":{"p":"2275L00334000000","a":"RIVER HILL RD","m":"Forward","u":"L","o":"individual","sf":21780,"v":2200}},{"type":"Feature","geometry":{"type":"Point","coordinates":[-79.90386,40.20288]},"properties":{"p":"2275L00160000000","a":"RIVER HILL RD","m":"Forward","u":"L","o":"individual","sf":27748,"v":500}},{"type":"Feature","geometry":{"type":"Point","coordinates":[-79.90516,40.2042]},"properties":{"p":"2275L00173000000","a":"RIVER HILL RD","m":"Forward","u":"L","o":"individual","sf":324958,"v":7500}},{"type":"Feature","geometry":{"type":"Point","coordinates":[-79.91146,40.20433]},"properties":{"p":"2275K00270000000","a":"PUBLIC RD","m":"Forward","u":"L","o":"individual","sf":3745,"v":500}},{"type":"Feature","geometry":{"type":"Point","coordinates":[-79.91119,40.20424]},"properties":{"p":"2275K00272000000","a":"RIVER HILL RD","m":"Forward","u":"L","o":"individual","sf":7449,"v":1000}},{"type":"Feature","geometry":{"type":"Point","coordinates":[-79.90698,40.2078]},"properties":{"p":"2275C00198000000","a":"RIVER HILL RD","m":"Forward","u":"L","o":"individual","sf":270508,"v":66600}},{"type":"Feature","geometry":{"type":"Point","coordinates":[-79.91585,40.2064]},"properties":{"p":"2275E00349000000","a":"PUBLIC RD","m":"Forward","u":"L","o":"individual","sf":31407,"v":3100}},{"type":"Feature","geometry":{"type":"Point","coordinates":[-79.91615,40.20282]},"properties":{"p":"2275J00070000000","a":"FORWARD ST","m":"Forward","u":"L","o":"individual","sf":1350,"v":100}},{"type":"Feature","geometry":{"type":"Point","coordinates":[-79.91256,40.20622]},"properties":{"p":"2275E00019000000","a":"2090 RIVER HILL RD","m":"Forward","u":"L","o":"individual","sf":71003,"v":7300}},{"type":"Feature","geometry":{"type":"Point","coordinates":[-79.90252,40.19741]},"properties":{"p":"2470D00024000000","a":"RAINBOW RUN RD","m":"Forward","u":"L","o":"individual","sf":15636,"v":1400}},{"type":"Feature","geometry":{"type":"Point","coordinates":[-79.908,40.20572]},"properties":{"p":"2275G00331000000","a":"MANOWN RD","m":"Forward","u":"L","o":"corp","sf":7052,"v":1500}},{"type":"Feature","geometry":{"type":"Point","coordinates":[-79.91647,40.20208]},"properties":{"p":"2275N00174000000","a":"BUNOLA RIVER RD","m":"Forward","u":"L","o":"individual","sf":6510,"v":700}},{"type":"Feature","geometry":{"type":"Point","coordinates":[-79.90519,40.20749]},"properties":{"p":"2275C00172000000","a":"JOSEPH LN","m":"Forward","u":"L","o":"individual","sf":43560,"v":4500}}]}