{"type":"FeatureCollection","features":[{"type":"Feature","geometry":{"type":"Point","coordinates":[-79.91152,40.67228]},"properties":{"p":"2383K00350000000","a":"GLASGOW RD","m":"West Deer","u":"L","o":"individual","sf":514792,"v":800}},{"type":"Feature","geometry":{"type":"Point","coordinates":[-79.91562,40.67119]},"properties":{"p":"2383J00265000000","a":"GLASGOW RD","m":"West Deer","u":"L","o":"corp","sf":122752,"v":14100}},{"type":"Feature","geometry":{"type":"Point","coordinates":[-79.91633,40.67233]},"properties":{"p":"2383E00284000000","a":"SANDY HILL RD","m":"West Deer","u":"L","o":"corp","sf":296121,"v":76200}}]}