{"type":"FeatureCollection","features":[{"type":"Feature","geometry":{"type":"Point","coordinates":[-79.91726,40.55373]},"properties":{"p":"0618M00061000000","a":"3405 HARTS RUN RD","m":"Indiana","u":"C","o":"corp","sf":2000,"v":500}},{"type":"Feature","geometry":{"type":"Point","coordinates":[-79.91819,40.55444]},"properties":{"p":"0618M00063000000","a":"HARTS RUN RD","m":"Indiana","u":"C","o":"corp","sf":2166,"v":500}},{"type":"Feature","geometry":{"type":"Point","coordinates":[-79.91289,40.55086]},"properties":{"p":"0619N00037000000","a":"SAXONBURG BLVD","m":"Indiana","u":"C","o":"corp","sf":75102,"v":34300}},{"type":"Feature","geometry":{"type":"Point","coordinates":[-79.91251,40.55674]},"properties":{"p":"0619F00027000000","a":"601 MANOR LN","m":"Indiana","u":"L","o":"individual","sf":91476,"v":87300}},{"type":"Feature","geometry":{"type":"Point","coordinates":[-79.91244,40.55515]},"properties":{"p":"0619E00050000000","a":"536 OLD ORCHARD TRL","m":"Indiana","u":"L","o":"corp","sf":275791,"v":1000}},{"type":"Feature","geometry":{"type":"Point","coordinates":[-79.90953,40.55047]},"properties":{"p":"0619P00213000100","a":"MERGANSER DR","m":"Indiana","u":"L","o":"individual","sf":4528,"v":800}},{"type":"Feature","geometry":{"type":"Point","coordinates":[-79.91167,40.55169]},"properties":{"p":"0619P00275000000","a":"SAXONBURG BLVD","m":"Indiana","u":"L","o":"corp","sf":616191,"v":67300}},{"type":"Feature","geometry":{"type":"Point","coordinates":[-79.91735,40.55274]},"properties":{"p":"0618J00320000000","a":"HARTS RUN RD","m":"Indiana","u":"L","o":"individual","sf":30448,"v":2700}},{"type":"Feature","geometry":{"type":"Point","coordinates":[-79.91168,40.55314]},"properties":{"p":"0619K00370000000","a":"SAXONBURG BLVD","m":"Indiana","u":"L","o":"individual","sf":122012,"v":49400}},{"type":"Feature","geometry":{"type":"Point","coordinates":[-79.91177,40.55822]},"properties":{"p":"0619B00002000000","a":"FOX HUNT RD","m":"Indiana","u":"L","o":"individual","sf":120487,"v":80800}},{"type":"Feature","geometry":{"type":"Point","coordinates":[-79.9038,40.5602]},"properties":{"p":"0722S00050000000","a":"3106 WESTCHESTER DR","m":"Indiana","u":"L","o":"individual","sf":85639,"v":26000}},{"type":"Feature","geometry":{"type":"Point","coordinates":[-79.90463,40.56158]},"properties":{"p":"0722S00100000000","a":"SAXONBURG BLVD","m":"Indiana","u":"L","o":"individual","sf":42298,"v":42000}},{"type":"Feature","geometry":{"type":"Point","coordinates":[-79.9066,40.55483]},"properties":{"p":"0619L00037000000","a":"MALLARD DR","m":"Indiana","u":"L","o":"individual","sf":47480,"v":35000}},{"type":"Feature","geometry":{"type":"Point","coordinates":[-79.90837,40.5547]},"properties":{"p":"0619L00100000000","a":"HARTS RUN RD","m":"Indiana","u":"L","o":"corp","sf":9316,"v":1600}},{"type":"Feature","geometry":{"type":"Point","coordinates":[-79.90553,40.56161]},"properties":{"p":"0722R00138000000","a":"3491 SAXONBURG BLVD","m":"Indiana","u":"L","o":"individual","sf":8200,"v":700}},{"type":"Feature","geometry":{"type":"Point","coordinates":[-79.90506,40.55127]},"properties":{"p":"0619R00197000000","a":"MALLARD DR","m":"Indiana","u":"L","o":"individual","sf":89777,"v":8200}},{"type":"Feature","geometry":{"type":"Point","coordinates":[-79.91043,40.55571]},"properties":{"p":"0619F00017000000","a":"534 OLD ORCHARD TRL","m":"Indiana","u":"B","o":"corp","sf":38548,"v":100}},{"type":"Feature","geometry":{"type":"Point","coordinates":[-79.9023,40.55693]},"properties":{"p":"0619H00004000000","a":"3332 LENOX DR","m":"Indiana","u":"B","o":"individual","sf":10684,"v":1600}},{"type":"Feature","geometry":{"type":"Point","coordinates":[-79.90223,40.55666]},"properties":{"p":"0619H00008000000","a":"3330 LENOX DR","m":"Indiana","u":"B","o":"corp","sf":13102,"v":1900}},{"type":"Feature","geometry":{"type":"Point","coordinates":[-79.9029,40.55862]},"properties":{"p":"0619D00084000000","a":"3349 LENOX DR","m":"Indiana","u":"B","o":"corp","sf":11200,"v":1600}}]}