{"type":"FeatureCollection","features":[{"type":"Feature","geometry":{"type":"Point","coordinates":[-79.90866,40.26322]},"properties":{"p":"1273K00125000000","a":"STATE ROUTE 837","m":"Jefferson Hills","u":"I","o":"corp","sf":197327,"v":416000}},{"type":"Feature","geometry":{"type":"Point","coordinates":[-79.91294,40.25808]},"properties":{"p":"1420A00110000000","a":"RIVERVIEW DR","m":"Jefferson Hills","u":"I","o":"corp","sf":6534,"v":9800}},{"type":"Feature","geometry":{"type":"Point","coordinates":[-79.91298,40.25795]},"properties":{"p":"1420A00125000000","a":"GLASS HOUSE RD","m":"Jefferson Hills","u":"I","o":"corp","sf":15402,"v":23100}},{"type":"Feature","geometry":{"type":"Point","coordinates":[-79.91264,40.25814]},"properties":{"p":"1420A00130000000","a":"GLASS HOUSE RD","m":"Jefferson Hills","u":"I","o":"corp","sf":31537,"v":47300}},{"type":"Feature","geometry":{"type":"Point","coordinates":[-79.915,40.2557]},"properties":{"p":"1420E00040000001","a":"1000 GLASS HOUSE RD","m":"Jefferson Hills","u":"I","o":"corp","sf":614675,"v":846700}},{"type":"Feature","geometry":{"type":"Point","coordinates":[-79.90129,40.26785]},"properties":{"p":"1273D00260000000","a":"1000 MADISON AVE","m":"Jefferson Hills","u":"I","o":"corp","sf":876,"v":300}},{"type":"Feature","geometry":{"type":"Point","coordinates":[-79.91029,40.25397]},"properties":{"p":"1420F00258000000","a":"BUNOLA RIVER RD","m":"Forward","u":"I","o":"corp","sf":5000,"v":700}},{"type":"Feature","geometry":{"type":"Point","coordinates":[-79.91107,40.25479]},"properties":{"p":"1420F00303000000","a":"626 RIVERVIEW RD","m":"Forward","u":"I","o":"corp","sf":1500,"v":200}},{"type":"Feature","geometry":{"type":"Point","coordinates":[-79.9056,40.25896]},"properties":{"p":"1273M00249000000","a":"ELIZABETH RD","m":"Forward","u":"I","o":"corp","sf":1655280,"v":228400}},{"type":"Feature","geometry":{"type":"Point","coordinates":[-79.9104,40.2544]},"properties":{"p":"1420F00252000000","a":"BUNOLA RIVER RD","m":"Forward","u":"I","o":"corp","sf":10000,"v":1400}},{"type":"Feature","geometry":{"type":"Point","coordinates":[-79.91163,40.26262]},"properties":{"p":"1273J00065000000","a":"STATE ROUTE 837","m":"Jefferson Hills","u":"C","o":"corp","sf":584972,"v":227300}},{"type":"Feature","geometry":{"type":"Point","coordinates":[-79.91004,40.25338]},"properties":{"p":"1420F00119000000","a":"BUNOLA RIVER RD","m":"Forward","u":"C","o":"individual","sf":13054,"v":1800}},{"type":"Feature","geometry":{"type":"Point","coordinates":[-79.91017,40.25409]},"properties":{"p":"1420F00254000000","a":"BUNOLA RIVER RD","m":"Forward","u":"C","o":"individual","sf":5000,"v":700}},{"type":"Feature","geometry":{"type":"Point","coordinates":[-79.90968,40.26915]},"properties":{"p":"1134P00150000000","a":"STILLEY RD","m":"Jefferson Hills","u":"C","o":"corp","sf":196943,"v":59100}},{"type":"Feature","geometry":{"type":"Point","coordinates":[-79.9133,40.26116]},"properties":{"p":"1273J00030000000","a":"STATE ROUTE 837","m":"Jefferson Hills","u":"C","o":"corp","sf":5450,"v":1600}},{"type":"Feature","geometry":{"type":"Point","coordinates":[-79.9026,40.26905]},"properties":{"p":"1134S00177000000","a":"7TH ST","m":"West Elizabeth","u":"L","o":"corp","sf":390,"v":800}},{"type":"Feature","geometry":{"type":"Point","coordinates":[-79.90689,40.26922]},"properties":{"p":"1134R00210000000","a":"STATE ST","m":"Jefferson Hills","u":"L","o":"corp","sf":3600,"v":300}},{"type":"Feature","geometry":{"type":"Point","coordinates":[-79.90661,40.26948]},"properties":{"p":"1134R00218000000","a":"RIVERVIEW DR","m":"Jefferson Hills","u":"L","o":"individual","sf":3638,"v":300}},{"type":"Feature","geometry":{"type":"Point","coordinates":[-79.90776,40.26971]},"properties":{"p":"1134R00250000000","a":"STATE ST","m":"Jefferson Hills","u":"L","o":"individual","sf":3600,"v":300}},{"type":"Feature","geometry":{"type":"Point","coordinates":[-79.91422,40.26213]},"properties":{"p":"1273J00133000000","a":"STATE ST","m":"Jefferson Hills","u":"L","o":"corp","sf":50094,"v":5000}},{"type":"Feature","geometry":{"type":"Point","coordinates":[-79.91521,40.26125]},"properties":{"p":"1273J00151000000","a":"STATE ST","m":"Jefferson Hills","u":"L","o":"individual","sf":8438,"v":800}},{"type":"Feature","geometry":{"type":"Point","coordinates":[-79.91901,40.2647]},"properties":{"p":"1274H00134000000","a":"WALTON RD","m":"Jefferson Hills","u":"L","o":"individual","sf":24675,"v":15400}},{"type":"Feature","geometry":{"type":"Point","coordinates":[-79.91848,40.26392]},"properties":{"p":"1274H00148000000","a":"WALTON RD","m":"Jefferson Hills","u":"L","o":"individual","sf":9945,"v":900}},{"type":"Feature","geometry":{"type":"Point","coordinates":[-79.918,40.26415]},"properties":{"p":"1274H00194000000","a":"DIAZ AVE","m":"Jefferson Hills","u":"L","o":"individual","sf":22406,"v":15200}},{"type":"Feature","geometry":{"type":"Point","coordinates":[-79.90399,40.26805]},"properties":{"p":"1134R00002000000","a":"5TH ST","m":"Jefferson Hills","u":"L","o":"corp","sf":4988,"v":500}},{"type":"Feature","geometry":{"type":"Point","coordinates":[-79.90498,40.26847]},"properties":{"p":"1134R00043000000","a":"5TH ST","m":"Jefferson Hills","u":"L","o":"individual","sf":7200,"v":700}},{"type":"Feature","geometry":{"type":"Point","coordinates":[-79.90521,40.26829]},"properties":{"p":"1134R00050000000","a":"6TH ST","m":"Jefferson Hills","u":"L","o":"individual","sf":15780,"v":26800}},{"type":"Feature","geometry":{"type":"Point","coordinates":[-79.90502,40.2693]},"properties":{"p":"1134R00120000000","a":"2208 STATE ST","m":"Jefferson Hills","u":"L","o":"individual","sf":24386,"v":30400}},{"type":"Feature","geometry":{"type":"Point","coordinates":[-79.91358,40.26141]},"properties":{"p":"1273J00045000000","a":"STATE ST","m":"Jefferson Hills","u":"L","o":"corp","sf":81893,"v":35700}},{"type":"Feature","geometry":{"type":"Point","coordinates":[-79.91255,40.26311]},"properties":{"p":"1273J00090000000","a":"1845 STATE ST","m":"Jefferson Hills","u":"L","o":"individual","sf":16455,"v":27300}},{"type":"Feature","geometry":{"type":"Point","coordinates":[-79.91335,40.26309]},"properties":{"p":"1273J00110000000","a":"STATE ST","m":"Jefferson Hills","u":"L","o":"individual","sf":145926,"v":1700}},{"type":"Feature","geometry":{"type":"Point","coordinates":[-79.90486,40.26802]},"properties":{"p":"1273C00175000000","a":"5TH ST","m":"Jefferson Hills","u":"L","o":"individual","sf":10800,"v":1000}},{"type":"Feature","geometry":{"type":"Point","coordinates":[-79.90506,40.26788]},"properties":{"p":"1273C00178000000","a":"5TH ST","m":"Jefferson Hills","u":"L","o":"corp","sf":7200,"v":700}},{"type":"Feature","geometry":{"type":"Point","coordinates":[-79.90478,40.26747]},"properties":{"p":"1273C00260000000","a":"5TH ST","m":"Jefferson Hills","u":"L","o":"individual","sf":8715,"v":800}},{"type":"Feature","geometry":{"type":"Point","coordinates":[-79.91752,40.26147]},"properties":{"p":"1274M00177000000","a":"WALTON RD","m":"Jefferson Hills","u":"L","o":"individual","sf":5544,"v":500}},{"type":"Feature","geometry":{"type":"Point","coordinates":[-79.9184,40.26371]},"properties":{"p":"1274M00300000000","a":"DIAZ AVE","m":"Jefferson Hills","u":"L","o":"individual","sf":242546,"v":48700}},{"type":"Feature","geometry":{"type":"Point","coordinates":[-79.91686,40.26383]},"properties":{"p":"1274M00400000000","a":"STATE ST","m":"Jefferson Hills","u":"L","o":"individual","sf":178378,"v":44500}},{"type":"Feature","geometry":{"type":"Point","coordinates":[-79.90429,40.26783]},"properties":{"p":"1273C00268000000","a":"5TH ST","m":"Jefferson Hills","u":"L","o":"individual","sf":7200,"v":700}},{"type":"Feature","geometry":{"type":"Point","coordinates":[-79.90426,40.2674]},"properties":{"p":"1273C00293000000","a":"STATE ROUTE 837","m":"Jefferson Hills","u":"L","o":"individual","sf":4500,"v":400}},{"type":"Feature","geometry":{"type":"Point","coordinates":[-79.91691,40.26042]},"properties":{"p":"1274S00070000000","a":"STATE ST","m":"Jefferson Hills","u":"L","o":"individual","sf":66181,"v":34200}},{"type":"Feature","geometry":{"type":"Point","coordinates":[-79.91357,40.26963]},"properties":{"p":"1134N00260000000","a":"1001 RIVERVIEW DR","m":"Jefferson Hills","u":"L","o":"corp","sf":15929,"v":2100}},{"type":"Feature","geometry":{"type":"Point","coordinates":[-79.91117,40.26869]},"properties":{"p":"1134P00025000000","a":"CIRCLE GLEN DR","m":"Jefferson Hills","u":"L","o":"individual","sf":2800,"v":300}},{"type":"Feature","geometry":{"type":"Point","coordinates":[-79.90334,40.26851]},"properties":{"p":"1134S00296000000","a":"HAWK ALY","m":"Jefferson Hills","u":"L","o":"individual","sf":11520,"v":23600}},{"type":"Feature","geometry":{"type":"Point","coordinates":[-79.91021,40.26591]},"properties":{"p":"1273F00025000000","a":"STATE ST","m":"Jefferson Hills","u":"L","o":"corp","sf":103063,"v":32800}},{"type":"Feature","geometry":{"type":"Point","coordinates":[-79.91069,40.26497]},"properties":{"p":"1273F00060000000","a":"STATE ST","m":"Jefferson Hills","u":"L","o":"individual","sf":285649,"v":54400}},{"type":"Feature","geometry":{"type":"Point","coordinates":[-79.91117,40.26417]},"properties":{"p":"1273F00080000000","a":"STATE ST","m":"Jefferson Hills","u":"L","o":"individual","sf":22651,"v":30200}},{"type":"Feature","geometry":{"type":"Point","coordinates":[-79.9121,40.26339]},"properties":{"p":"1273F00106000000","a":"STATE ST","m":"Jefferson Hills","u":"L","o":"individual","sf":7392,"v":700}},{"type":"Feature","geometry":{"type":"Point","coordinates":[-79.90935,40.26688]},"properties":{"p":"1273B00189000000","a":"ALEXANDER DR","m":"Jefferson Hills","u":"L","o":"individual","sf":39780,"v":31800}},{"type":"Feature","geometry":{"type":"Point","coordinates":[-79.91472,40.25883]},"properties":{"p":"1273N00100000000","a":"STATE ROUTE 837","m":"Jefferson Hills","u":"L","o":"individual","sf":15250,"v":26400}},{"type":"Feature","geometry":{"type":"Point","coordinates":[-79.91875,40.2625]},"properties":{"p":"1274M00128000000","a":"WALTON RD","m":"Jefferson Hills","u":"L","o":"individual","sf":33782,"v":31200}},{"type":"Feature","geometry":{"type":"Point","coordinates":[-79.91316,40.26851]},"properties":{"p":"1134N00050000000","a":"CIRCLE GLEN DR","m":"Jefferson Hills","u":"L","o":"individual","sf":214707,"v":2500}},{"type":"Feature","geometry":{"type":"Point","coordinates":[-79.91285,40.26916]},"properties":{"p":"1134N00075000000","a":"CIRCLE GLEN DR","m":"Jefferson Hills","u":"L","o":"individual","sf":91912,"v":1100}},{"type":"Feature","geometry":{"type":"Point","coordinates":[-79.90559,40.26865]},"properties":{"p":"1134R00128000000","a":"STATE ST","m":"Jefferson Hills","u":"L","o":"individual","sf":7653,"v":20700}},{"type":"Feature","geometry":{"type":"Point","coordinates":[-79.90573,40.26852]},"properties":{"p":"1134R00130000000","a":"STATE ST","m":"Jefferson Hills","u":"L","o":"individual","sf":6988,"v":600}},{"type":"Feature","geometry":{"type":"Point","coordinates":[-79.90585,40.2684]},"properties":{"p":"1134R00132000000","a":"STATE ST","m":"Jefferson Hills","u":"L","o":"individual","sf":6322,"v":600}},{"type":"Feature","geometry":{"type":"Point","coordinates":[-79.90723,40.26891]},"properties":{"p":"1134R00200000000","a":"RIVERVIEW DR","m":"Jefferson Hills","u":"L","o":"individual","sf":3638,"v":300}},{"type":"Feature","geometry":{"type":"Point","coordinates":[-79.90409,40.26752]},"properties":{"p":"1273D00183000000","a":"2155 STATE ROUTE 837","m":"Jefferson Hills","u":"L","o":"individual","sf":4500,"v":18400}},{"type":"Feature","geometry":{"type":"Point","coordinates":[-79.90377,40.26775]},"properties":{"p":"1273D00193000000","a":"STATE ROUTE 837","m":"Jefferson Hills","u":"L","o":"individual","sf":4500,"v":400}},{"type":"Feature","geometry":{"type":"Point","coordinates":[-79.90365,40.26785]},"properties":{"p":"1273D00200000000","a":"ROUTE 837","m":"Jefferson Hills","u":"L","o":"corp","sf":2914,"v":400}},{"type":"Feature","geometry":{"type":"Point","coordinates":[-79.90341,40.26801]},"properties":{"p":"1273D00208000000","a":"STATE ROUTE 837","m":"Jefferson Hills","u":"L","o":"individual","sf":3492,"v":300}},{"type":"Feature","geometry":{"type":"Point","coordinates":[-79.91878,40.25911]},"properties":{"p":"1274S00125000000","a":"STATE ST","m":"Jefferson Hills","u":"L","o":"individual","sf":113983,"v":38600}},{"type":"Feature","geometry":{"type":"Point","coordinates":[-79.91906,40.26052]},"properties":{"p":"1274S00201000000","a":"PERSHING AVE","m":"Jefferson Hills","u":"L","o":"individual","sf":6180,"v":600}},{"type":"Feature","geometry":{"type":"Point","coordinates":[-79.91914,40.2603]},"properties":{"p":"1274S00204000000","a":"PERSHING AVE","m":"Jefferson Hills","u":"L","o":"individual","sf":7200,"v":700}},{"type":"Feature","geometry":{"type":"Point","coordinates":[-79.91903,40.25944]},"properties":{"p":"1274S00225000000","a":"PERSHING AVE","m":"Jefferson Hills","u":"L","o":"individual","sf":3600,"v":300}},{"type":"Feature","geometry":{"type":"Point","coordinates":[-79.91626,40.26963]},"properties":{"p":"1134N00201000000","a":"1027 RIVERVIEW DR","m":"Jefferson Hills","u":"L","o":"individual","sf":27053,"v":30600}},{"type":"Feature","geometry":{"type":"Point","coordinates":[-79.90523,40.26774]},"properties":{"p":"1273C00181000000","a":"5TH ST","m":"Jefferson Hills","u":"L","o":"individual","sf":8716,"v":21500}},{"type":"Feature","geometry":{"type":"Point","coordinates":[-79.91261,40.26624]},"properties":{"p":"1273B00060000000","a":"BOUNDARY ST","m":"Jefferson Hills","u":"L","o":"individual","sf":285650,"v":44600}},{"type":"Feature","geometry":{"type":"Point","coordinates":[-79.91911,40.26009]},"properties":{"p":"1274S00210000000","a":"WALTON RD","m":"Jefferson Hills","u":"L","o":"corp","sf":3600,"v":300}}]}