{"type":"FeatureCollection","features":[{"type":"Feature","geometry":{"type":"Point","coordinates":[-79.91936,40.32856]},"properties":{"p":"0469M00190000000","a":"NEW ENGLAND RD","m":"West Mifflin","u":"C","o":"corp","sf":61420,"v":35300}},{"type":"Feature","geometry":{"type":"Point","coordinates":[-79.91318,40.31071]},"properties":{"p":"0658J00095000000","a":"STATE ROUTE 885","m":"Jefferson Hills","u":"C","o":"corp","sf":786633,"v":18100}},{"type":"Feature","geometry":{"type":"Point","coordinates":[-79.90669,40.3153]},"properties":{"p":"0658C00200000000","a":"MILLER RD","m":"Jefferson Hills","u":"C","o":"corp","sf":236461,"v":5400}},{"type":"Feature","geometry":{"type":"Point","coordinates":[-79.90839,40.31799]},"properties":{"p":"0559P00100000000","a":"COAL VALLEY RD","m":"Jefferson Hills","u":"C","o":"corp","sf":11352,"v":3400}},{"type":"Feature","geometry":{"type":"Point","coordinates":[-79.90042,40.31247]},"properties":{"p":"0658H00050000000","a":"WALL RD","m":"Jefferson Hills","u":"C","o":"corp","sf":24816,"v":7400}},{"type":"Feature","geometry":{"type":"Point","coordinates":[-79.90066,40.31287]},"properties":{"p":"0658H00051000000","a":"WALL RD","m":"Jefferson Hills","u":"C","o":"individual","sf":22978,"v":6900}},{"type":"Feature","geometry":{"type":"Point","coordinates":[-79.90083,40.31262]},"properties":{"p":"0658H00053000000","a":"WALL RD","m":"Jefferson Hills","u":"C","o":"corp","sf":4027,"v":1200}},{"type":"Feature","geometry":{"type":"Point","coordinates":[-79.90925,40.31083]},"properties":{"p":"0658P00001000000","a":"940 STATE ROUTE 885","m":"Jefferson Hills","u":"C","o":"corp","sf":4649773,"v":106700}},{"type":"Feature","geometry":{"type":"Point","coordinates":[-79.91124,40.32589]},"properties":{"p":"0559B00080000000","a":"NEW ENGLAND RD","m":"West Mifflin","u":"C","o":"corp","sf":159865,"v":3000}},{"type":"Feature","geometry":{"type":"Point","coordinates":[-79.90012,40.31791]},"properties":{"p":"0559S00080000000","a":"109 COAL VALLEY RD","m":"1st Ward - CLAIRTON","u":"L","o":"individual","sf":39236,"v":13100}},{"type":"Feature","geometry":{"type":"Point","coordinates":[-79.90046,40.31802]},"properties":{"p":"0559S00084000000","a":"COAL VALLEY RD","m":"1st Ward - CLAIRTON","u":"L","o":"individual","sf":10316,"v":10500}},{"type":"Feature","geometry":{"type":"Point","coordinates":[-79.90039,40.31869]},"properties":{"p":"0559S00264000100","a":"COAL VALLEY RD","m":"1st Ward - CLAIRTON","u":"L","o":"individual","sf":10611,"v":10500}},{"type":"Feature","geometry":{"type":"Point","coordinates":[-79.90003,40.31728]},"properties":{"p":"0559S00032000000","a":"MILLER RD","m":"1st Ward - CLAIRTON","u":"L","o":"individual","sf":13019,"v":10700}},{"type":"Feature","geometry":{"type":"Point","coordinates":[-79.90597,40.32406]},"properties":{"p":"0559C00045000000","a":"NEW ENGLAND RD","m":"West Mifflin","u":"L","o":"corp","sf":28188,"v":4200}},{"type":"Feature","geometry":{"type":"Point","coordinates":[-79.9071,40.32374]},"properties":{"p":"0559G00010000000","a":"NEW ENGLAND RD","m":"West Mifflin","u":"L","o":"corp","sf":44431,"v":22200}},{"type":"Feature","geometry":{"type":"Point","coordinates":[-79.90638,40.32363]},"properties":{"p":"0559G00050000000","a":"NEW ENGLAND RD","m":"West Mifflin","u":"L","o":"individual","sf":44388,"v":22200}},{"type":"Feature","geometry":{"type":"Point","coordinates":[-79.90306,40.3238]},"properties":{"p":"0559H00050000000","a":"NEW ENGLAND RD","m":"West Mifflin","u":"L","o":"individual","sf":12500,"v":1100}},{"type":"Feature","geometry":{"type":"Point","coordinates":[-79.90205,40.32046]},"properties":{"p":"0559H00068000000","a":"NEW ENGLAND RD","m":"West Mifflin","u":"L","o":"corp","sf":681139,"v":47100}},{"type":"Feature","geometry":{"type":"Point","coordinates":[-79.9023,40.3231]},"properties":{"p":"0559H00069000000","a":"NEW ENGLAND RD","m":"West Mifflin","u":"L","o":"individual","sf":439,"v":200}},{"type":"Feature","geometry":{"type":"Point","coordinates":[-79.9017,40.32184]},"properties":{"p":"0559H00090000000","a":"NEW ENGLAND RD","m":"West Mifflin","u":"L","o":"corp","sf":11369,"v":1000}},{"type":"Feature","geometry":{"type":"Point","coordinates":[-79.91731,40.31359]},"properties":{"p":"0659H00073000000","a":"STATE ROUTE 885","m":"Jefferson Hills","u":"L","o":"individual","sf":18648,"v":43500}},{"type":"Feature","geometry":{"type":"Point","coordinates":[-79.90464,40.31719]},"properties":{"p":"0559R00152000000","a":"COAL VALLEY RD","m":"Jefferson Hills","u":"L","o":"corp","sf":126324,"v":56000}},{"type":"Feature","geometry":{"type":"Point","coordinates":[-79.90804,40.31734]},"properties":{"p":"0559R00172000000","a":"COAL VALLEY RD","m":"Jefferson Hills","u":"L","o":"corp","sf":263233,"v":41700}},{"type":"Feature","geometry":{"type":"Point","coordinates":[-79.90188,40.31431]},"properties":{"p":"0658D00256000000","a":"1009 2ND ST","m":"Jefferson Hills","u":"L","o":"individual","sf":5250,"v":500}},{"type":"Feature","geometry":{"type":"Point","coordinates":[-79.9018,40.31303]},"properties":{"p":"0658H00190000000","a":"BELL ST","m":"Jefferson Hills","u":"L","o":"individual","sf":72745,"v":28000}},{"type":"Feature","geometry":{"type":"Point","coordinates":[-79.90066,40.31438]},"properties":{"p":"0658H00375000000","a":"WALL AVE","m":"Jefferson Hills","u":"L","o":"individual","sf":2750,"v":300}},{"type":"Feature","geometry":{"type":"Point","coordinates":[-79.90398,40.31512]},"properties":{"p":"0658C00048000000","a":"SHARP ST","m":"Jefferson Hills","u":"L","o":"individual","sf":7560,"v":800}},{"type":"Feature","geometry":{"type":"Point","coordinates":[-79.90421,40.31572]},"properties":{"p":"0658C00098000000","a":"SHARP ST","m":"Jefferson Hills","u":"L","o":"individual","sf":754,"v":100}},{"type":"Feature","geometry":{"type":"Point","coordinates":[-79.90266,40.31653]},"properties":{"p":"0658D00070000000","a":"MILLER RD","m":"Jefferson Hills","u":"L","o":"corp","sf":43354,"v":47300}},{"type":"Feature","geometry":{"type":"Point","coordinates":[-79.91281,40.31728]},"properties":{"p":"0559N00155000000","a":"227 COAL VALLEY RD","m":"Jefferson Hills","u":"L","o":"individual","sf":43532,"v":16000}},{"type":"Feature","geometry":{"type":"Point","coordinates":[-79.91211,40.31712]},"properties":{"p":"0559N00163000000","a":"COAL VALLEY RD","m":"Jefferson Hills","u":"L","o":"individual","sf":76099,"v":50800}},{"type":"Feature","geometry":{"type":"Point","coordinates":[-79.91348,40.31733]},"properties":{"p":"0559N00200000000","a":"COAL VALLEY RD","m":"Jefferson Hills","u":"L","o":"individual","sf":89734,"v":1000}},{"type":"Feature","geometry":{"type":"Point","coordinates":[-79.91105,40.31691]},"properties":{"p":"0559P00025000000","a":"COAL VALLEY RD","m":"Jefferson Hills","u":"L","o":"individual","sf":193842,"v":63000}},{"type":"Feature","geometry":{"type":"Point","coordinates":[-79.91026,40.31743]},"properties":{"p":"0559P00130000000","a":"COAL VALLEY RD","m":"Jefferson Hills","u":"L","o":"individual","sf":49658,"v":48100}},{"type":"Feature","geometry":{"type":"Point","coordinates":[-79.91918,40.3227]},"properties":{"p":"0560H00067000000","a":"COAL VALLEY RD","m":"Jefferson Hills","u":"L","o":"individual","sf":10100,"v":1000}},{"type":"Feature","geometry":{"type":"Point","coordinates":[-79.90525,40.31845]},"properties":{"p":"0559R00096000000","a":"COAL VALLEY RD","m":"Jefferson Hills","u":"L","o":"corp","sf":28677,"v":2900}},{"type":"Feature","geometry":{"type":"Point","coordinates":[-79.901,40.31479]},"properties":{"p":"0658D00209000000","a":"WALL AVE","m":"Jefferson Hills","u":"L","o":"individual","sf":2750,"v":300}},{"type":"Feature","geometry":{"type":"Point","coordinates":[-79.9011,40.31491]},"properties":{"p":"0658D00212000000","a":"WALL AVE","m":"Jefferson Hills","u":"L","o":"individual","sf":8250,"v":0}},{"type":"Feature","geometry":{"type":"Point","coordinates":[-79.90117,40.31534]},"properties":{"p":"0658D00222000000","a":"WALL AVE","m":"Jefferson Hills","u":"L","o":"individual","sf":690,"v":100}},{"type":"Feature","geometry":{"type":"Point","coordinates":[-79.90159,40.31537]},"properties":{"p":"0658D00227000000","a":"WALL AVE","m":"Jefferson Hills","u":"L","o":"individual","sf":2779,"v":300}},{"type":"Feature","geometry":{"type":"Point","coordinates":[-79.9193,40.31809]},"properties":{"p":"0560S00090000000","a":"STATE ROUTE 885","m":"Jefferson Hills","u":"L","o":"individual","sf":443528,"v":17900}},{"type":"Feature","geometry":{"type":"Point","coordinates":[-79.90061,40.31353]},"properties":{"p":"0658H00333000000","a":"WALL AVE","m":"Jefferson Hills","u":"L","o":"individual","sf":1375,"v":100}},{"type":"Feature","geometry":{"type":"Point","coordinates":[-79.90046,40.31335]},"properties":{"p":"0658H00337000000","a":"WALL AVE","m":"Jefferson Hills","u":"L","o":"individual","sf":4921,"v":500}},{"type":"Feature","geometry":{"type":"Point","coordinates":[-79.90016,40.31362]},"properties":{"p":"0658H00358000000","a":"WALL AVE","m":"Jefferson Hills","u":"L","o":"individual","sf":7270,"v":700}},{"type":"Feature","geometry":{"type":"Point","coordinates":[-79.90021,40.31383]},"properties":{"p":"0658H00362000000","a":"WALL AVE","m":"Jefferson Hills","u":"L","o":"individual","sf":8250,"v":800}},{"type":"Feature","geometry":{"type":"Point","coordinates":[-79.90335,40.31867]},"properties":{"p":"0559S00174000000","a":"COAL VALLEY RD","m":"Jefferson Hills","u":"L","o":"individual","sf":13863,"v":38100}},{"type":"Feature","geometry":{"type":"Point","coordinates":[-79.90225,40.31876]},"properties":{"p":"0559S00210000000","a":"COAL VALLEY RD","m":"Jefferson Hills","u":"L","o":"individual","sf":22415,"v":2200}},{"type":"Feature","geometry":{"type":"Point","coordinates":[-79.90382,40.31478]},"properties":{"p":"0658C00029000000","a":"3RD ST","m":"Jefferson Hills","u":"L","o":"individual","sf":2255,"v":200}},{"type":"Feature","geometry":{"type":"Point","coordinates":[-79.90375,40.31489]},"properties":{"p":"0658C00030000000","a":"3RD ST","m":"Jefferson Hills","u":"L","o":"individual","sf":8550,"v":900}},{"type":"Feature","geometry":{"type":"Point","coordinates":[-79.9003,40.31478]},"properties":{"p":"0658D00157000000","a":"SUNNYCREST LN","m":"Jefferson Hills","u":"L","o":"individual","sf":13068,"v":37200}},{"type":"Feature","geometry":{"type":"Point","coordinates":[-79.90189,40.31878]},"properties":{"p":"0559S00222000000","a":"124 COAL VALLEY RD","m":"Jefferson Hills","u":"L","o":"individual","sf":22670,"v":2300}},{"type":"Feature","geometry":{"type":"Point","coordinates":[-79.914,40.31859]},"properties":{"p":"0559N00083000000","a":"240 COAL VALLEY RD","m":"Jefferson Hills","u":"L","o":"individual","sf":18700,"v":1900}},{"type":"Feature","geometry":{"type":"Point","coordinates":[-79.91419,40.3188]},"properties":{"p":"0559N00089000000","a":"COAL VALLEY RD","m":"Jefferson Hills","u":"L","o":"individual","sf":8861,"v":900}},{"type":"Feature","geometry":{"type":"Point","coordinates":[-79.90809,40.31826]},"properties":{"p":"0559P00235000000","a":"COAL VALLEY RD","m":"Jefferson Hills","u":"L","o":"individual","sf":1255,"v":100}},{"type":"Feature","geometry":{"type":"Point","coordinates":[-79.91607,40.31839]},"properties":{"p":"0559N00100000000","a":"COAL VALLEY RD","m":"Jefferson Hills","u":"L","o":"individual","sf":76230,"v":7500}},{"type":"Feature","geometry":{"type":"Point","coordinates":[-79.91433,40.31809]},"properties":{"p":"0559N00112000000","a":"COAL VALLEY RD","m":"Jefferson Hills","u":"L","o":"individual","sf":44431,"v":8800}},{"type":"Feature","geometry":{"type":"Point","coordinates":[-79.91336,40.31796]},"properties":{"p":"0559N00142000100","a":"COAL VALLEY RD","m":"Jefferson Hills","u":"L","o":"individual","sf":406,"v":500}},{"type":"Feature","geometry":{"type":"Point","coordinates":[-79.91309,40.31731]},"properties":{"p":"0559N00152000000","a":"COAL VALLEY RD","m":"Jefferson Hills","u":"L","o":"individual","sf":1688,"v":200}},{"type":"Feature","geometry":{"type":"Point","coordinates":[-79.90648,40.31757]},"properties":{"p":"0559R00005000000","a":"COAL VALLEY RD","m":"Jefferson Hills","u":"L","o":"corp","sf":44170,"v":24700}},{"type":"Feature","geometry":{"type":"Point","coordinates":[-79.91813,40.31709]},"properties":{"p":"0560S00035000000","a":"STATE ROUTE 885","m":"Jefferson Hills","u":"L","o":"individual","sf":63772,"v":49500}},{"type":"Feature","geometry":{"type":"Point","coordinates":[-79.90341,40.315]},"properties":{"p":"0658D00294000000","a":"SHARP ST","m":"Jefferson Hills","u":"L","o":"individual","sf":7500,"v":800}},{"type":"Feature","geometry":{"type":"Point","coordinates":[-79.90275,40.3151]},"properties":{"p":"0658D00305000000","a":"SHARP ST","m":"Jefferson Hills","u":"L","o":"individual","sf":5000,"v":500}},{"type":"Feature","geometry":{"type":"Point","coordinates":[-79.91434,40.31671]},"properties":{"p":"0659D00060000000","a":"STATE ROUTE 885","m":"Jefferson Hills","u":"L","o":"individual","sf":190662,"v":13000}},{"type":"Feature","geometry":{"type":"Point","coordinates":[-79.91694,40.31664]},"properties":{"p":"0659D00072000000","a":"STATE ROUTE 885","m":"Jefferson Hills","u":"L","o":"individual","sf":261360,"v":30000}},{"type":"Feature","geometry":{"type":"Point","coordinates":[-79.90292,40.31427]},"properties":{"p":"0658H00300000000","a":"2ND ST","m":"Jefferson Hills","u":"L","o":"individual","sf":5250,"v":500}},{"type":"Feature","geometry":{"type":"Point","coordinates":[-79.90029,40.31705]},"properties":{"p":"0559S00024000000","a":"MILLER RD","m":"Jefferson Hills","u":"L","o":"corp","sf":12359,"v":36400}},{"type":"Feature","geometry":{"type":"Point","coordinates":[-79.90102,40.31762]},"properties":{"p":"0559S00098000000","a":"111 COAL VALLEY RD","m":"Jefferson Hills","u":"L","o":"individual","sf":25455,"v":2600}},{"type":"Feature","geometry":{"type":"Point","coordinates":[-79.90215,40.31585]},"properties":{"p":"0658D00080000000","a":"MILLER RD","m":"Jefferson Hills","u":"L","o":"corp","sf":101930,"v":53500}},{"type":"Feature","geometry":{"type":"Point","coordinates":[-79.90104,40.31603]},"properties":{"p":"0658D00090000000","a":"MILLER RD","m":"Jefferson Hills","u":"L","o":"corp","sf":191664,"v":3500}},{"type":"Feature","geometry":{"type":"Point","coordinates":[-79.90019,40.31628]},"properties":{"p":"0658D00110000000","a":"MILLER RD","m":"Jefferson Hills","u":"L","o":"corp","sf":45520,"v":47600}},{"type":"Feature","geometry":{"type":"Point","coordinates":[-79.90175,40.31752]},"properties":{"p":"0559S00122000000","a":"COAL VALLEY RD","m":"Jefferson Hills","u":"L","o":"individual","sf":47916,"v":5000}},{"type":"Feature","geometry":{"type":"Point","coordinates":[-79.90206,40.31747]},"properties":{"p":"0559S00128000000","a":"COAL VALLEY RD","m":"Jefferson Hills","u":"L","o":"individual","sf":25170,"v":45500}},{"type":"Feature","geometry":{"type":"Point","coordinates":[-79.90228,40.31744]},"properties":{"p":"0559S00134000000","a":"COAL VALLEY RD","m":"Jefferson Hills","u":"L","o":"individual","sf":25912,"v":45600}},{"type":"Feature","geometry":{"type":"Point","coordinates":[-79.90249,40.31742]},"properties":{"p":"0559S00136000000","a":"COAL VALLEY RD","m":"Jefferson Hills","u":"L","o":"individual","sf":26425,"v":2600}},{"type":"Feature","geometry":{"type":"Point","coordinates":[-79.90312,40.31734]},"properties":{"p":"0559S00160000000","a":"COAL VALLEY RD","m":"Jefferson Hills","u":"L","o":"individual","sf":28636,"v":45900}},{"type":"Feature","geometry":{"type":"Point","coordinates":[-79.91647,40.31503]},"properties":{"p":"0659D00029000000","a":"1166 STATE ROUTE 885","m":"Jefferson Hills","u":"L","o":"individual","sf":13068,"v":1300}},{"type":"Feature","geometry":{"type":"Point","coordinates":[-79.91818,40.32135]},"properties":{"p":"0560M00061000000","a":"325 COAL VALLEY RD","m":"Jefferson Hills","u":"L","o":"individual","sf":5697,"v":600}},{"type":"Feature","geometry":{"type":"Point","coordinates":[-79.91801,40.32118]},"properties":{"p":"0560M00063000000","a":"COAL VALLEY RD","m":"Jefferson Hills","u":"L","o":"individual","sf":27641,"v":2800}},{"type":"Feature","geometry":{"type":"Point","coordinates":[-79.9178,40.32099]},"properties":{"p":"0560M00070000000","a":"COAL VALLEY RD","m":"Jefferson Hills","u":"L","o":"individual","sf":12238,"v":1200}},{"type":"Feature","geometry":{"type":"Point","coordinates":[-79.90851,40.32006]},"properties":{"p":"0559K00050000000","a":"COAL VALLEY RD","m":"Jefferson Hills","u":"L","o":"corp","sf":261360,"v":6600}},{"type":"Feature","geometry":{"type":"Point","coordinates":[-79.9054,40.3205]},"properties":{"p":"0559L00001000000","a":"WALTERS LN","m":"Jefferson Hills","u":"L","o":"corp","sf":474630,"v":67300}},{"type":"Feature","geometry":{"type":"Point","coordinates":[-79.91165,40.31759]},"properties":{"p":"0559P00145000000","a":"COAL VALLEY RD","m":"Jefferson Hills","u":"L","o":"individual","sf":17369,"v":42000}},{"type":"Feature","geometry":{"type":"Point","coordinates":[-79.90981,40.31802]},"properties":{"p":"0559P00195000000","a":"COAL VALLEY RD","m":"Jefferson Hills","u":"L","o":"individual","sf":7425,"v":700}},{"type":"Feature","geometry":{"type":"Point","coordinates":[-79.9096,40.31804]},"properties":{"p":"0559P00199000000","a":"COAL VALLEY RD","m":"Jefferson Hills","u":"L","o":"individual","sf":3486,"v":26300}},{"type":"Feature","geometry":{"type":"Point","coordinates":[-79.90141,40.31447]},"properties":{"p":"0658D00246000000","a":"1239 WALL AVE","m":"Jefferson Hills","u":"L","o":"individual","sf":5514,"v":600}},{"type":"Feature","geometry":{"type":"Point","coordinates":[-79.90399,40.31571]},"properties":{"p":"0658C00093000000","a":"SHARP ST","m":"Jefferson Hills","u":"L","o":"individual","sf":250,"v":300}},{"type":"Feature","geometry":{"type":"Point","coordinates":[-79.90511,40.31589]},"properties":{"p":"0658C00260000000","a":"MILLER RD","m":"Jefferson Hills","u":"L","o":"corp","sf":52533,"v":48400}},{"type":"Feature","geometry":{"type":"Point","coordinates":[-79.90954,40.31819]},"properties":{"p":"0559P00203000000","a":"COAL VALLEY RD","m":"Jefferson Hills","u":"L","o":"individual","sf":20020,"v":2000}},{"type":"Feature","geometry":{"type":"Point","coordinates":[-79.90451,40.31917]},"properties":{"p":"0559R00001000000","a":"NEW ENGLAND RD","m":"West Mifflin","u":"L","o":"corp","sf":2701,"v":200}},{"type":"Feature","geometry":{"type":"Point","coordinates":[-79.90055,40.31346]},"properties":{"p":"0658H00334000000","a":"WALL AVE","m":"Jefferson Hills","u":"L","o":"individual","sf":5514,"v":600}},{"type":"Feature","geometry":{"type":"Point","coordinates":[-79.91726,40.32047]},"properties":{"p":"0560M00082000000","a":"COAL VALLEY RD","m":"Jefferson Hills","u":"L","o":"individual","sf":15750,"v":1600}},{"type":"Feature","geometry":{"type":"Point","coordinates":[-79.90025,40.31719]},"properties":{"p":"0559S00028000100","a":"COULSON AVE","m":"1st Ward - CLAIRTON","u":"L","o":"corp","sf":11204,"v":3200}},{"type":"Feature","geometry":{"type":"Point","coordinates":[-79.90314,40.32391]},"properties":{"p":"0559H00048000000","a":"NEW ENGLAND RD","m":"West Mifflin","u":"L","o":"individual","sf":10120,"v":900}}]}