{"type":"FeatureCollection","features":[{"type":"Feature","geometry":{"type":"Point","coordinates":[-79.88218,40.35332]},"properties":{"p":"0308A00008000000","a":"WASHINGTON AVE","m":"Dravosburg","u":"I","o":"corp","sf":4240,"v":900}},{"type":"Feature","geometry":{"type":"Point","coordinates":[-79.88209,40.35341]},"properties":{"p":"0308A00010000000","a":"WASHINGTON AVE","m":"Dravosburg","u":"I","o":"corp","sf":4770,"v":1000}},{"type":"Feature","geometry":{"type":"Point","coordinates":[-79.882,40.35347]},"properties":{"p":"0308A00012000000","a":"WASHINGTON AVE","m":"Dravosburg","u":"I","o":"corp","sf":2976,"v":600}},{"type":"Feature","geometry":{"type":"Point","coordinates":[-79.88373,40.35164]},"properties":{"p":"0309H00304000000","a":"508 WASHINGTON AVE","m":"Dravosburg","u":"I","o":"individual","sf":10560,"v":28800}},{"type":"Feature","geometry":{"type":"Point","coordinates":[-79.88387,40.35148]},"properties":{"p":"0309H00306000000","a":"508 WASHINGTON AVE","m":"Dravosburg","u":"I","o":"individual","sf":5280,"v":19000}},{"type":"Feature","geometry":{"type":"Point","coordinates":[-79.88397,40.35137]},"properties":{"p":"0309H00308000000","a":"508 WASHINGTON AVE","m":"Dravosburg","u":"I","o":"individual","sf":5280,"v":8000}},{"type":"Feature","geometry":{"type":"Point","coordinates":[-79.8829,40.35249]},"properties":{"p":"0309H00290000000","a":"WASHINGTON AVE","m":"Dravosburg","u":"I","o":"corp","sf":32000,"v":68700}},{"type":"Feature","geometry":{"type":"Point","coordinates":[-79.88341,40.35202]},"properties":{"p":"0309H00298000000","a":"WASHINGTON AVE","m":"Dravosburg","u":"I","o":"corp","sf":15840,"v":38600}},{"type":"Feature","geometry":{"type":"Point","coordinates":[-79.8836,40.35181]},"properties":{"p":"0309H00300000000","a":"WASHINGTON AVE","m":"Dravosburg","u":"I","o":"corp","sf":5280,"v":19000}},{"type":"Feature","geometry":{"type":"Point","coordinates":[-79.89236,40.36735]},"properties":{"p":"0183P00020000000","a":"HOMESTEAD DUQUESNE RD","m":"West Mifflin","u":"I","o":"corp","sf":1307,"v":400}},{"type":"Feature","geometry":{"type":"Point","coordinates":[-79.88423,40.35083]},"properties":{"p":"0309H00318000000","a":"508 WASHINGTON AVE","m":"Dravosburg","u":"I","o":"individual","sf":21120,"v":7900}},{"type":"Feature","geometry":{"type":"Point","coordinates":[-79.88346,40.35137]},"properties":{"p":"0309H00328000000","a":"508 WASHINGTON AVE","m":"Dravosburg","u":"I","o":"individual","sf":8640,"v":8900}},{"type":"Feature","geometry":{"type":"Point","coordinates":[-79.89937,40.35524]},"properties":{"p":"0242N00105000000","a":"CIRCLE AVE","m":"Dravosburg","u":"C","o":"corp","sf":9100,"v":2700}},{"type":"Feature","geometry":{"type":"Point","coordinates":[-79.88188,40.35337]},"properties":{"p":"0308A00014000000","a":"WASHINGTON AVE","m":"Dravosburg","u":"C","o":"corp","sf":310,"v":100}},{"type":"Feature","geometry":{"type":"Point","coordinates":[-79.8821,40.35302]},"properties":{"p":"0308E00010000000","a":"WASHINGTON AVE","m":"Dravosburg","u":"C","o":"corp","sf":110642,"v":228600}},{"type":"Feature","geometry":{"type":"Point","coordinates":[-79.88236,40.35224]},"properties":{"p":"0308E00020000000","a":"DRAVO ST","m":"Dravosburg","u":"C","o":"corp","sf":40101,"v":108200}},{"type":"Feature","geometry":{"type":"Point","coordinates":[-79.8869,40.35079]},"properties":{"p":"0309H00058000000","a":"GROVER ST","m":"Dravosburg","u":"C","o":"individual","sf":3600,"v":12200}},{"type":"Feature","geometry":{"type":"Point","coordinates":[-79.88672,40.35083]},"properties":{"p":"0309H00060000000","a":"GROVER ST","m":"Dravosburg","u":"C","o":"individual","sf":11700,"v":19500}},{"type":"Feature","geometry":{"type":"Point","coordinates":[-79.8853,40.35211]},"properties":{"p":"0309H00090000000","a":"MONONGAHELA AVE","m":"Dravosburg","u":"C","o":"corp","sf":33560,"v":39200}},{"type":"Feature","geometry":{"type":"Point","coordinates":[-79.88411,40.35121]},"properties":{"p":"0309H00312000000","a":"508 WASHINGTON AVE","m":"Dravosburg","u":"C","o":"individual","sf":7560,"v":6000}},{"type":"Feature","geometry":{"type":"Point","coordinates":[-79.89342,40.35249]},"properties":{"p":"0309E00030000000","a":"PITTSBURGH MCKEESPORT BLVD","m":"Dravosburg","u":"C","o":"corp","sf":10059,"v":2300}},{"type":"Feature","geometry":{"type":"Point","coordinates":[-79.89444,40.35257]},"properties":{"p":"0309E00060000001","a":"PITTSBURGH MCKEESPORT BLVD","m":"Dravosburg","u":"C","o":"corp","sf":378014,"v":4743}},{"type":"Feature","geometry":{"type":"Point","coordinates":[-79.89476,40.35315]},"properties":{"p":"0309E00090000000","a":"PITTSBURGH MCKEESPORT BLVD","m":"Dravosburg","u":"C","o":"corp","sf":304920,"v":12800}},{"type":"Feature","geometry":{"type":"Point","coordinates":[-79.89003,40.35074]},"properties":{"p":"0309G00302000000","a":"RAVINE ST","m":"Dravosburg","u":"C","o":"corp","sf":2142,"v":600}},{"type":"Feature","geometry":{"type":"Point","coordinates":[-79.88979,40.35071]},"properties":{"p":"0309G00306000000","a":"RAVINE ST","m":"Dravosburg","u":"C","o":"individual","sf":2603,"v":700}},{"type":"Feature","geometry":{"type":"Point","coordinates":[-79.88355,40.35259]},"properties":{"p":"0309H00278000000","a":"WASHINGTON AVE","m":"Dravosburg","u":"C","o":"individual","sf":2828,"v":14400}},{"type":"Feature","geometry":{"type":"Point","coordinates":[-79.89771,40.35452]},"properties":{"p":"0309A00150000000","a":"PITTSBURGH MCKEESPORT BLVD","m":"Dravosburg","u":"C","o":"individual","sf":78931,"v":18100}},{"type":"Feature","geometry":{"type":"Point","coordinates":[-79.89681,40.35178]},"properties":{"p":"0309E00115000000","a":"PITTSBURGH MCKEESPORT BLVD","m":"Dravosburg","u":"C","o":"corp","sf":3263,"v":800}},{"type":"Feature","geometry":{"type":"Point","coordinates":[-79.89764,40.35179]},"properties":{"p":"0309E00161000000","a":"MCKEESPORT BLVD","m":"Dravosburg","u":"C","o":"corp","sf":11935,"v":900}},{"type":"Feature","geometry":{"type":"Point","coordinates":[-79.89751,40.35027]},"properties":{"p":"0309E00350000000","a":"LEBANON CHURCH RD","m":"Dravosburg","u":"C","o":"corp","sf":6499,"v":1400}},{"type":"Feature","geometry":{"type":"Point","coordinates":[-79.88597,40.35005]},"properties":{"p":"0309M00026000000","a":"MCCLURE ST","m":"Dravosburg","u":"C","o":"corp","sf":4928,"v":6500}},{"type":"Feature","geometry":{"type":"Point","coordinates":[-79.88576,40.35073]},"properties":{"p":"0309M00398000004","a":"110 MCCLURE ST","m":"Dravosburg","u":"C","o":"corp","sf":48352,"v":43100}},{"type":"Feature","geometry":{"type":"Point","coordinates":[-79.88475,40.35023]},"properties":{"p":"0309M00060000000","a":"410 WASHINGTON AVE","m":"Dravosburg","u":"C","o":"individual","sf":31680,"v":32600}},{"type":"Feature","geometry":{"type":"Point","coordinates":[-79.88364,40.35049]},"properties":{"p":"0309M00130000000","a":"RIVER RD","m":"Dravosburg","u":"C","o":"corp","sf":158253,"v":417800}},{"type":"Feature","geometry":{"type":"Point","coordinates":[-79.89663,40.36218]},"properties":{"p":"0242E00030000000","a":"THOMPSON RUN RD","m":"West Mifflin","u":"C","o":"corp","sf":25700,"v":3600}},{"type":"Feature","geometry":{"type":"Point","coordinates":[-79.8809,40.35956]},"properties":{"p":"0241J00187000000","a":"BETTIS RD","m":"West Mifflin","u":"C","o":"corp","sf":2701,"v":500}},{"type":"Feature","geometry":{"type":"Point","coordinates":[-79.88812,40.36627]},"properties":{"p":"0183R00250000000","a":"HOMESTEAD DUQUESNE RD","m":"West Mifflin","u":"C","o":"individual","sf":43560,"v":13100}},{"type":"Feature","geometry":{"type":"Point","coordinates":[-79.88647,40.36622]},"properties":{"p":"0183S00200000000","a":"3711 HOMESTEAD DUQUESNE RD","m":"West Mifflin","u":"C","o":"corp","sf":247046,"v":28900}},{"type":"Feature","geometry":{"type":"Point","coordinates":[-79.88303,40.36565]},"properties":{"p":"0183S00125000000","a":"HOMESTEAD DUQUESNE RD","m":"West Mifflin","u":"C","o":"corp","sf":29946,"v":9000}},{"type":"Feature","geometry":{"type":"Point","coordinates":[-79.88229,40.36598]},"properties":{"p":"0240N00150000000","a":"HOMESTEAD DUQUESNE RD","m":"West Mifflin","u":"C","o":"corp","sf":6754,"v":2000}},{"type":"Feature","geometry":{"type":"Point","coordinates":[-79.88249,40.36564]},"properties":{"p":"0240N00152000000","a":"HOMESTEAD DUQUESNE RD","m":"West Mifflin","u":"C","o":"corp","sf":35699,"v":10700}},{"type":"Feature","geometry":{"type":"Point","coordinates":[-79.88324,40.35287]},"properties":{"p":"0309H00280000000","a":"WASHINGTON AVE","m":"Dravosburg","u":"C","o":"corp","sf":23324,"v":52500}},{"type":"Feature","geometry":{"type":"Point","coordinates":[-79.89444,40.35257]},"properties":{"p":"0309E00060000002","a":"BETTIS RD","m":"Dravosburg","u":"C","o":"corp","sf":378014,"v":4743}},{"type":"Feature","geometry":{"type":"Point","coordinates":[-79.88644,40.35069]},"properties":{"p":"0309M00002000000","a":"202 MCCLURE ST","m":"Dravosburg","u":"C","o":"individual","sf":35065,"v":16000}},{"type":"Feature","geometry":{"type":"Point","coordinates":[-79.88171,40.35358]},"properties":{"p":"0308A00016000000","a":"WASHINGTON AVE","m":"Dravosburg","u":"C","o":"corp","sf":12265,"v":2600}},{"type":"Feature","geometry":{"type":"Point","coordinates":[-79.88027,40.35992]},"properties":{"p":"0241J00115000000","a":"BETTIS RD","m":"West Mifflin","u":"C","o":"corp","sf":54232,"v":1318}},{"type":"Feature","geometry":{"type":"Point","coordinates":[-79.88662,40.35125]},"properties":{"p":"0309H00066000000","a":"GROVER ST","m":"Dravosburg","u":"C","o":"individual","sf":11450,"v":19300}},{"type":"Feature","geometry":{"type":"Point","coordinates":[-79.88693,40.35754]},"properties":{"p":"0242S00006000000","a":"RIVERVIEW DR","m":"Dravosburg","u":"L","o":"corp","sf":7786,"v":12300}},{"type":"Feature","geometry":{"type":"Point","coordinates":[-79.88682,40.35781]},"properties":{"p":"0242S00010000000","a":"RIVERVIEW DR","m":"Dravosburg","u":"L","o":"corp","sf":1072,"v":400}},{"type":"Feature","geometry":{"type":"Point","coordinates":[-79.88595,40.35423]},"properties":{"p":"0309D00100000000","a":"DUQUESNE AVE","m":"Dravosburg","u":"L","o":"individual","sf":8036,"v":12300}},{"type":"Feature","geometry":{"type":"Point","coordinates":[-79.88977,40.35218]},"properties":{"p":"0309G00083000000","a":"GOLDSTROM AVE","m":"Dravosburg","u":"L","o":"individual","sf":3300,"v":1000}},{"type":"Feature","geometry":{"type":"Point","coordinates":[-79.8895,40.35249]},"properties":{"p":"0309G00091000000","a":"GOLDSTROM AVE","m":"Dravosburg","u":"L","o":"individual","sf":6600,"v":2000}},{"type":"Feature","geometry":{"type":"Point","coordinates":[-79.88692,40.35829]},"properties":{"p":"0242M00399000000","a":"RIVERVIEW DR","m":"Dravosburg","u":"L","o":"corp","sf":16272,"v":13000}},{"type":"Feature","geometry":{"type":"Point","coordinates":[-79.89804,40.35529]},"properties":{"p":"0242N00090000000","a":"PITTSBURGH MCKEESPORT BLVD","m":"Dravosburg","u":"L","o":"individual","sf":121968,"v":22700}},{"type":"Feature","geometry":{"type":"Point","coordinates":[-79.88997,40.35575]},"properties":{"p":"0242R00182000000","a":"RIVERVIEW DR","m":"Dravosburg","u":"L","o":"corp","sf":10370,"v":12500}},{"type":"Feature","geometry":{"type":"Point","coordinates":[-79.89017,40.35551]},"properties":{"p":"0242R00185000000","a":"RIVERVIEW DR","m":"Dravosburg","u":"L","o":"corp","sf":13965,"v":12800}},{"type":"Feature","geometry":{"type":"Point","coordinates":[-79.88499,40.35534]},"properties":{"p":"0309D00052000000","a":"169 DUQUESNE AVE","m":"Dravosburg","u":"L","o":"individual","sf":8706,"v":6300}},{"type":"Feature","geometry":{"type":"Point","coordinates":[-79.8857,40.35507]},"properties":{"p":"0309D00060000000","a":"DUQUESNE AVE","m":"Dravosburg","u":"L","o":"individual","sf":4325,"v":5200}},{"type":"Feature","geometry":{"type":"Point","coordinates":[-79.88578,40.35503]},"properties":{"p":"0309D00061000000","a":"DUQUESNE AVE","m":"Dravosburg","u":"L","o":"individual","sf":4262,"v":1300}},{"type":"Feature","geometry":{"type":"Point","coordinates":[-79.88589,40.35497]},"properties":{"p":"0309D00063000000","a":"DUQUESNE AVE","m":"Dravosburg","u":"L","o":"corp","sf":8396,"v":2500}},{"type":"Feature","geometry":{"type":"Point","coordinates":[-79.88957,40.35298]},"properties":{"p":"0309G00053000000","a":"GOLDSTROM AVE","m":"Dravosburg","u":"L","o":"individual","sf":3294,"v":1000}},{"type":"Feature","geometry":{"type":"Point","coordinates":[-79.88983,40.35282]},"properties":{"p":"0309G00055000000","a":"GOLDSTROM AVE","m":"Dravosburg","u":"L","o":"individual","sf":2960,"v":900}},{"type":"Feature","geometry":{"type":"Point","coordinates":[-79.89024,40.35235]},"properties":{"p":"0309G00069000000","a":"GOLDSTROM AVE","m":"Dravosburg","u":"L","o":"individual","sf":6000,"v":12100}},{"type":"Feature","geometry":{"type":"Point","coordinates":[-79.89007,40.35191]},"properties":{"p":"0309G00076000000","a":"GOLDSTROM AVE","m":"Dravosburg","u":"L","o":"individual","sf":4393,"v":1300}},{"type":"Feature","geometry":{"type":"Point","coordinates":[-79.89586,40.35393]},"properties":{"p":"0309A00057000000","a":"LUSCOMBE LN","m":"Dravosburg","u":"L","o":"individual","sf":10289,"v":3000}},{"type":"Feature","geometry":{"type":"Point","coordinates":[-79.89589,40.35379]},"properties":{"p":"0309A00062000000","a":"LUSCOMBE LN","m":"Dravosburg","u":"L","o":"corp","sf":11452,"v":12600}},{"type":"Feature","geometry":{"type":"Point","coordinates":[-79.89157,40.35009]},"properties":{"p":"0309K00056000000","a":"EUCLID AVE","m":"Dravosburg","u":"L","o":"individual","sf":3600,"v":1100}},{"type":"Feature","geometry":{"type":"Point","coordinates":[-79.89151,40.35074]},"properties":{"p":"0309K00076000000","a":"4TH ST","m":"Dravosburg","u":"L","o":"individual","sf":3600,"v":10300}},{"type":"Feature","geometry":{"type":"Point","coordinates":[-79.89586,40.3532]},"properties":{"p":"0309A00070000000","a":"LUSCOMBE LN","m":"Dravosburg","u":"L","o":"corp","sf":13115,"v":12700}},{"type":"Feature","geometry":{"type":"Point","coordinates":[-79.88402,40.35364]},"properties":{"p":"0309D00191000000","a":"222 CORINNE ST","m":"Dravosburg","u":"L","o":"individual","sf":1400,"v":500}},{"type":"Feature","geometry":{"type":"Point","coordinates":[-79.88406,40.35332]},"properties":{"p":"0309D00192000000","a":"CORINNE ST","m":"Dravosburg","u":"L","o":"individual","sf":2400,"v":800}},{"type":"Feature","geometry":{"type":"Point","coordinates":[-79.88409,40.35338]},"properties":{"p":"0309D00193000000","a":"CORINNE ST","m":"Dravosburg","u":"L","o":"individual","sf":2400,"v":800}},{"type":"Feature","geometry":{"type":"Point","coordinates":[-79.88451,40.3537]},"properties":{"p":"0309D00196000000","a":"N CLAY ST","m":"Dravosburg","u":"L","o":"individual","sf":1920,"v":2300}},{"type":"Feature","geometry":{"type":"Point","coordinates":[-79.88929,40.35204]},"properties":{"p":"0309G00141000000","a":"CHARLES ST","m":"Dravosburg","u":"L","o":"corp","sf":3600,"v":4300}},{"type":"Feature","geometry":{"type":"Point","coordinates":[-79.88961,40.35168]},"properties":{"p":"0309G00150000000","a":"CHARLES ST","m":"Dravosburg","u":"L","o":"individual","sf":4123,"v":1300}},{"type":"Feature","geometry":{"type":"Point","coordinates":[-79.89069,40.35515]},"properties":{"p":"0309C00354000000","a":"RIVERVIEW DR","m":"Dravosburg","u":"L","o":"corp","sf":7624,"v":12200}},{"type":"Feature","geometry":{"type":"Point","coordinates":[-79.8909,40.35482]},"properties":{"p":"0309C00358000000","a":"RIVERVIEW DR","m":"Dravosburg","u":"L","o":"corp","sf":10429,"v":12500}},{"type":"Feature","geometry":{"type":"Point","coordinates":[-79.89114,40.35471]},"properties":{"p":"0309C00360000000","a":"RIVERVIEW DR","m":"Dravosburg","u":"L","o":"corp","sf":9904,"v":12400}},{"type":"Feature","geometry":{"type":"Point","coordinates":[-79.88632,40.35493]},"properties":{"p":"0309D00026000000","a":"GOLDSTROM AVE","m":"Dravosburg","u":"L","o":"individual","sf":5637,"v":1700}},{"type":"Feature","geometry":{"type":"Point","coordinates":[-79.8904,40.35259]},"properties":{"p":"0309G00032000000","a":"MCCLELLAND AVE","m":"Dravosburg","u":"L","o":"individual","sf":2707,"v":3300}},{"type":"Feature","geometry":{"type":"Point","coordinates":[-79.89095,40.35231]},"properties":{"p":"0309G00043000000","a":"MCCLELLAND AVE","m":"Dravosburg","u":"L","o":"individual","sf":10215,"v":6500}},{"type":"Feature","geometry":{"type":"Point","coordinates":[-79.8906,40.35211]},"properties":{"p":"0309G00044000000","a":"MCCLELLAND AVE","m":"Dravosburg","u":"L","o":"individual","sf":1073,"v":400}},{"type":"Feature","geometry":{"type":"Point","coordinates":[-79.8905,40.35213]},"properties":{"p":"0309G00044000A00","a":"MCCLELLAND AVE","m":"Dravosburg","u":"L","o":"individual","sf":1294,"v":500}},{"type":"Feature","geometry":{"type":"Point","coordinates":[-79.88561,40.35454]},"properties":{"p":"0309D00108000000","a":"DUQUESNE AVE","m":"Dravosburg","u":"L","o":"individual","sf":3749,"v":4500}},{"type":"Feature","geometry":{"type":"Point","coordinates":[-79.88539,40.35435]},"properties":{"p":"0309D00114000000","a":"N CLAY ST","m":"Dravosburg","u":"L","o":"individual","sf":5619,"v":1700}},{"type":"Feature","geometry":{"type":"Point","coordinates":[-79.88527,40.35354]},"properties":{"p":"0309D00166000000","a":"LAURA AVE","m":"Dravosburg","u":"L","o":"individual","sf":2626,"v":3200}},{"type":"Feature","geometry":{"type":"Point","coordinates":[-79.88559,40.35238]},"properties":{"p":"0309H00098000000","a":"DEWEY ST","m":"Dravosburg","u":"L","o":"corp","sf":10020,"v":12500}},{"type":"Feature","geometry":{"type":"Point","coordinates":[-79.88577,40.35257]},"properties":{"p":"0309H00104000000","a":"DEWEY ST","m":"Dravosburg","u":"L","o":"individual","sf":12967,"v":12700}},{"type":"Feature","geometry":{"type":"Point","coordinates":[-79.88888,40.35322]},"properties":{"p":"0309C00126000000","a":"GOLDSTROM AVE","m":"Dravosburg","u":"L","o":"individual","sf":4400,"v":1300}},{"type":"Feature","geometry":{"type":"Point","coordinates":[-79.88951,40.35329]},"properties":{"p":"0309C00134000000","a":"GOLDSTROM AVE","m":"Dravosburg","u":"L","o":"individual","sf":5189,"v":1600}},{"type":"Feature","geometry":{"type":"Point","coordinates":[-79.89491,40.35108]},"properties":{"p":"0309F00174000000","a":"6TH ST","m":"Dravosburg","u":"L","o":"individual","sf":8520,"v":6300}},{"type":"Feature","geometry":{"type":"Point","coordinates":[-79.89553,40.3509]},"properties":{"p":"0309F00175000000","a":"PITTSBURGH MCKEESPORT BLVD","m":"Dravosburg","u":"L","o":"corp","sf":29552,"v":8200}},{"type":"Feature","geometry":{"type":"Point","coordinates":[-79.89419,40.35133]},"properties":{"p":"0309F00178000000","a":"6TH ST","m":"Dravosburg","u":"L","o":"individual","sf":14275,"v":6800}},{"type":"Feature","geometry":{"type":"Point","coordinates":[-79.88452,40.35437]},"properties":{"p":"0309D00215000000","a":"LAURA AVE","m":"Dravosburg","u":"L","o":"individual","sf":1201,"v":400}},{"type":"Feature","geometry":{"type":"Point","coordinates":[-79.88455,40.35436]},"properties":{"p":"0309D00217000000","a":"184 LAURA AVE","m":"Dravosburg","u":"L","o":"individual","sf":1201,"v":400}},{"type":"Feature","geometry":{"type":"Point","coordinates":[-79.88472,40.35458]},"properties":{"p":"0309D00225000000","a":"181 N CLAY ST","m":"Dravosburg","u":"L","o":"individual","sf":250,"v":200}},{"type":"Feature","geometry":{"type":"Point","coordinates":[-79.88919,40.35045]},"properties":{"p":"0309L00152000000","a":"8 2ND ST","m":"Dravosburg","u":"L","o":"individual","sf":5600,"v":1700}},{"type":"Feature","geometry":{"type":"Point","coordinates":[-79.88956,40.35024]},"properties":{"p":"0309L00161000000","a":"2ND ST","m":"Dravosburg","u":"L","o":"individual","sf":2800,"v":900}},{"type":"Feature","geometry":{"type":"Point","coordinates":[-79.89046,40.35289]},"properties":{"p":"0309G00016000000","a":"6TH ST","m":"Dravosburg","u":"L","o":"individual","sf":6404,"v":1900}},{"type":"Feature","geometry":{"type":"Point","coordinates":[-79.89535,40.35072]},"properties":{"p":"0309J00004000000","a":"RICHLAND AVE","m":"Dravosburg","u":"L","o":"corp","sf":7764,"v":12300}},{"type":"Feature","geometry":{"type":"Point","coordinates":[-79.88478,40.35466]},"properties":{"p":"0309D00227000000","a":"179 N CLAY ST","m":"Dravosburg","u":"L","o":"individual","sf":500,"v":200}},{"type":"Feature","geometry":{"type":"Point","coordinates":[-79.89139,40.35463]},"properties":{"p":"0309B00036000000","a":"RIVERVIEW DR","m":"Dravosburg","u":"L","o":"corp","sf":10450,"v":12500}},{"type":"Feature","geometry":{"type":"Point","coordinates":[-79.89357,40.35058]},"properties":{"p":"0309K00188000000","a":"212 5TH ST","m":"Dravosburg","u":"L","o":"individual","sf":1728,"v":600}},{"type":"Feature","geometry":{"type":"Point","coordinates":[-79.89398,40.35046]},"properties":{"p":"0309K00196000000","a":"5TH ST","m":"Dravosburg","u":"L","o":"individual","sf":3600,"v":1100}},{"type":"Feature","geometry":{"type":"Point","coordinates":[-79.88146,40.35735]},"properties":{"p":"0241N00055000000","a":"2916 SKYLINE DR","m":"Dravosburg","u":"L","o":"individual","sf":16496,"v":13000}},{"type":"Feature","geometry":{"type":"Point","coordinates":[-79.88181,40.35728]},"properties":{"p":"0241N00058000000","a":"GOLDSTROM AVE","m":"Dravosburg","u":"L","o":"individual","sf":12858,"v":2000}},{"type":"Feature","geometry":{"type":"Point","coordinates":[-79.88999,40.35041]},"properties":{"p":"0309L00188000000","a":"CHESTNUT ST","m":"Dravosburg","u":"L","o":"individual","sf":1500,"v":500}},{"type":"Feature","geometry":{"type":"Point","coordinates":[-79.88732,40.35827]},"properties":{"p":"0242L00010000000","a":"RIVERVIEW DR","m":"Dravosburg","u":"L","o":"corp","sf":32200,"v":14500}},{"type":"Feature","geometry":{"type":"Point","coordinates":[-79.88812,40.35398]},"properties":{"p":"0309C00077000000","a":"GOLDSTROM AVE","m":"Dravosburg","u":"L","o":"individual","sf":9191,"v":12400}},{"type":"Feature","geometry":{"type":"Point","coordinates":[-79.88734,40.35413]},"properties":{"p":"0309C00088000000","a":"118 ALVIN AVE","m":"Dravosburg","u":"L","o":"individual","sf":5923,"v":1800}},{"type":"Feature","geometry":{"type":"Point","coordinates":[-79.89671,40.35504]},"properties":{"p":"0309A00116000000","a":"PITTSBURGH MCKEESPORT BLVD","m":"Dravosburg","u":"L","o":"individual","sf":6681,"v":2000}},{"type":"Feature","geometry":{"type":"Point","coordinates":[-79.8836,40.35438]},"properties":{"p":"0309D00289000000","a":"ELIZABETH ST","m":"Dravosburg","u":"L","o":"individual","sf":5393,"v":1600}},{"type":"Feature","geometry":{"type":"Point","coordinates":[-79.88366,40.35448]},"properties":{"p":"0309D00290000000","a":"ELIZABETH ST","m":"Dravosburg","u":"L","o":"individual","sf":5632,"v":1700}},{"type":"Feature","geometry":{"type":"Point","coordinates":[-79.88372,40.35458]},"properties":{"p":"0309D00292000000","a":"ELIZABETH ST","m":"Dravosburg","u":"L","o":"individual","sf":5876,"v":1700}},{"type":"Feature","geometry":{"type":"Point","coordinates":[-79.88378,40.35468]},"properties":{"p":"0309D00294000000","a":"ELIZABETH ST","m":"Dravosburg","u":"L","o":"individual","sf":6116,"v":1800}},{"type":"Feature","geometry":{"type":"Point","coordinates":[-79.88385,40.3548]},"properties":{"p":"0309D00299000000","a":"ELIZABETH ST","m":"Dravosburg","u":"L","o":"individual","sf":7326,"v":2200}},{"type":"Feature","geometry":{"type":"Point","coordinates":[-79.88444,40.35548]},"properties":{"p":"0309D00313000000","a":"DUQUESNE AVE","m":"Dravosburg","u":"L","o":"individual","sf":10097,"v":12500}},{"type":"Feature","geometry":{"type":"Point","coordinates":[-79.88454,40.35566]},"properties":{"p":"0309D00315000000","a":"ELIZABETH ST","m":"Dravosburg","u":"L","o":"individual","sf":5407,"v":1600}},{"type":"Feature","geometry":{"type":"Point","coordinates":[-79.89129,40.35196]},"properties":{"p":"0309F00035000000","a":"5TH ST","m":"Dravosburg","u":"L","o":"corp","sf":3600,"v":2000}},{"type":"Feature","geometry":{"type":"Point","coordinates":[-79.89131,40.35129]},"properties":{"p":"0309F00047000000","a":"RAVINE ST","m":"Dravosburg","u":"L","o":"individual","sf":1800,"v":600}},{"type":"Feature","geometry":{"type":"Point","coordinates":[-79.88731,40.35313]},"properties":{"p":"0309C00012000000","a":"DUQUESNE AVE","m":"Dravosburg","u":"L","o":"individual","sf":3300,"v":10000}},{"type":"Feature","geometry":{"type":"Point","coordinates":[-79.88692,40.35234]},"properties":{"p":"0309H00016000000","a":"MOUND AVE","m":"Dravosburg","u":"L","o":"individual","sf":3600,"v":10300}},{"type":"Feature","geometry":{"type":"Point","coordinates":[-79.88684,40.35238]},"properties":{"p":"0309H00018000000","a":"MOUND AVE","m":"Dravosburg","u":"L","o":"individual","sf":3600,"v":1100}},{"type":"Feature","geometry":{"type":"Point","coordinates":[-79.88647,40.35309]},"properties":{"p":"0309H00128000000","a":"DEWEY ST","m":"Dravosburg","u":"L","o":"individual","sf":1689,"v":2000}},{"type":"Feature","geometry":{"type":"Point","coordinates":[-79.88629,40.35319]},"properties":{"p":"0309H00130000000","a":"DEWEY ST","m":"Dravosburg","u":"L","o":"individual","sf":1744,"v":2100}},{"type":"Feature","geometry":{"type":"Point","coordinates":[-79.88643,40.35322]},"properties":{"p":"0309H00132000000","a":"26 DEWEY ST","m":"Dravosburg","u":"L","o":"individual","sf":4052,"v":4900}},{"type":"Feature","geometry":{"type":"Point","coordinates":[-79.88426,40.35278]},"properties":{"p":"0309H00160000000","a":"FRONT ALY","m":"Dravosburg","u":"L","o":"individual","sf":512,"v":200}},{"type":"Feature","geometry":{"type":"Point","coordinates":[-79.88406,40.35315]},"properties":{"p":"0309H00198000000","a":"CORINNE ST","m":"Dravosburg","u":"L","o":"individual","sf":32870,"v":14500}},{"type":"Feature","geometry":{"type":"Point","coordinates":[-79.89647,40.35343]},"properties":{"p":"0309A00083000000","a":"PITTSBURGH MCKEESPORT BLVD","m":"Dravosburg","u":"L","o":"individual","sf":13125,"v":12700}},{"type":"Feature","geometry":{"type":"Point","coordinates":[-79.89167,40.3546]},"properties":{"p":"0309B00038000000","a":"RIVERVIEW DR","m":"Dravosburg","u":"L","o":"corp","sf":10235,"v":12500}},{"type":"Feature","geometry":{"type":"Point","coordinates":[-79.88883,40.3501]},"properties":{"p":"0309L00070000000","a":"105 RIDGE AVE","m":"Dravosburg","u":"L","o":"individual","sf":4500,"v":1400}},{"type":"Feature","geometry":{"type":"Point","coordinates":[-79.88452,40.35474]},"properties":{"p":"0309D00244000000","a":"ELIZABETH ST","m":"Dravosburg","u":"L","o":"individual","sf":8974,"v":12400}},{"type":"Feature","geometry":{"type":"Point","coordinates":[-79.88474,40.35467]},"properties":{"p":"0309D00245000000","a":"ELIZABETH ST","m":"Dravosburg","u":"L","o":"individual","sf":750,"v":300}},{"type":"Feature","geometry":{"type":"Point","coordinates":[-79.88398,40.35365]},"properties":{"p":"0309D00251000000","a":"ELIZABETH ST","m":"Dravosburg","u":"L","o":"individual","sf":2400,"v":800}},{"type":"Feature","geometry":{"type":"Point","coordinates":[-79.88914,40.35138]},"properties":{"p":"0309G00217000000","a":"MCCLURE ST","m":"Dravosburg","u":"L","o":"individual","sf":8625,"v":2500}},{"type":"Feature","geometry":{"type":"Point","coordinates":[-79.89078,40.35169]},"properties":{"p":"0309G00244000000","a":"5TH ST","m":"Dravosburg","u":"L","o":"individual","sf":3600,"v":10300}},{"type":"Feature","geometry":{"type":"Point","coordinates":[-79.89191,40.35462]},"properties":{"p":"0309B00040000000","a":"RIVERVIEW DR","m":"Dravosburg","u":"L","o":"corp","sf":7500,"v":12200}},{"type":"Feature","geometry":{"type":"Point","coordinates":[-79.89104,40.35155]},"properties":{"p":"0309G00250000000","a":"13 5TH ST","m":"Dravosburg","u":"L","o":"individual","sf":3600,"v":1100}},{"type":"Feature","geometry":{"type":"Point","coordinates":[-79.88753,40.35018]},"properties":{"p":"0309L00030000000","a":"MCCLURE ST","m":"Dravosburg","u":"L","o":"individual","sf":11256,"v":12600}},{"type":"Feature","geometry":{"type":"Point","coordinates":[-79.88736,40.35015]},"properties":{"p":"0309L00036000000","a":"PARK AVE","m":"Dravosburg","u":"L","o":"individual","sf":4350,"v":1300}},{"type":"Feature","geometry":{"type":"Point","coordinates":[-79.8877,40.35155]},"properties":{"p":"0309G00345000000","a":"MCCLAIN ST","m":"Dravosburg","u":"L","o":"individual","sf":11679,"v":3400}},{"type":"Feature","geometry":{"type":"Point","coordinates":[-79.88762,40.35235]},"properties":{"p":"0309G00374000000","a":"RAYMOND ST","m":"Dravosburg","u":"L","o":"corp","sf":8041,"v":12300}},{"type":"Feature","geometry":{"type":"Point","coordinates":[-79.88738,40.35308]},"properties":{"p":"0309G00390000000","a":"DUQUESNE AVE","m":"Dravosburg","u":"L","o":"individual","sf":3300,"v":1000}},{"type":"Feature","geometry":{"type":"Point","coordinates":[-79.89034,40.35038]},"properties":{"p":"0309L00198000000","a":"302 SHERMAN AVE","m":"Dravosburg","u":"L","o":"individual","sf":4260,"v":5100}},{"type":"Feature","geometry":{"type":"Point","coordinates":[-79.89504,40.3539]},"properties":{"p":"0309B00134000000","a":"LUSCOMBE LN","m":"Dravosburg","u":"L","o":"corp","sf":19930,"v":13300}},{"type":"Feature","geometry":{"type":"Point","coordinates":[-79.89523,40.35364]},"properties":{"p":"0309B00136000000","a":"LUSCOMBE LN","m":"Dravosburg","u":"L","o":"corp","sf":6402,"v":12100}},{"type":"Feature","geometry":{"type":"Point","coordinates":[-79.89513,40.35347]},"properties":{"p":"0309B00138000000","a":"LUSCOMBE LN","m":"Dravosburg","u":"L","o":"corp","sf":11729,"v":12600}},{"type":"Feature","geometry":{"type":"Point","coordinates":[-79.89226,40.35082]},"properties":{"p":"0309F00125000000","a":"EUCLID AVE","m":"Dravosburg","u":"L","o":"individual","sf":3600,"v":4300}},{"type":"Feature","geometry":{"type":"Point","coordinates":[-79.88722,40.35749]},"properties":{"p":"0242R00129000000","a":"RIVERVIEW DR","m":"Dravosburg","u":"L","o":"corp","sf":12519,"v":12700}},{"type":"Feature","geometry":{"type":"Point","coordinates":[-79.88749,40.3575]},"properties":{"p":"0242R00131000000","a":"RIVERVIEW DR","m":"Dravosburg","u":"L","o":"corp","sf":7867,"v":12300}},{"type":"Feature","geometry":{"type":"Point","coordinates":[-79.88766,40.35746]},"properties":{"p":"0242R00134000000","a":"RIVERVIEW DR","m":"Dravosburg","u":"L","o":"corp","sf":7835,"v":12300}},{"type":"Feature","geometry":{"type":"Point","coordinates":[-79.88785,40.35741]},"properties":{"p":"0242R00137000000","a":"RIVERVIEW DR","m":"Dravosburg","u":"L","o":"individual","sf":8700,"v":12300}},{"type":"Feature","geometry":{"type":"Point","coordinates":[-79.88804,40.35734]},"properties":{"p":"0242R00140000000","a":"RIVERVIEW DR","m":"Dravosburg","u":"L","o":"corp","sf":9000,"v":12400}},{"type":"Feature","geometry":{"type":"Point","coordinates":[-79.88446,40.36399]},"properties":{"p":"0242D00075000000","a":"HENRYS LN","m":"West Mifflin","u":"L","o":"corp","sf":483516,"v":44300}},{"type":"Feature","geometry":{"type":"Point","coordinates":[-79.88228,40.36912]},"properties":{"p":"0240J00001000000","a":"HOMESTEAD DUQUESNE RD","m":"West Mifflin","u":"L","o":"corp","sf":26964,"v":15600}},{"type":"Feature","geometry":{"type":"Point","coordinates":[-79.88064,40.36999]},"properties":{"p":"0240J00250000000","a":"SAINT AGNES LN","m":"West Mifflin","u":"L","o":"individual","sf":80150,"v":7400}},{"type":"Feature","geometry":{"type":"Point","coordinates":[-79.88553,40.35894]},"properties":{"p":"0242M00151000000","a":"BETTIS RD","m":"West Mifflin","u":"L","o":"corp","sf":22280,"v":20200}},{"type":"Feature","geometry":{"type":"Point","coordinates":[-79.88523,40.35905]},"properties":{"p":"0242M00158000000","a":"BETTIS RD","m":"West Mifflin","u":"L","o":"corp","sf":19370,"v":19700}},{"type":"Feature","geometry":{"type":"Point","coordinates":[-79.88373,40.35893]},"properties":{"p":"0242M00178000000","a":"BETTIS RD","m":"West Mifflin","u":"L","o":"corp","sf":20925,"v":20100}},{"type":"Feature","geometry":{"type":"Point","coordinates":[-79.88381,40.35921]},"properties":{"p":"0242M00179000000","a":"BETTIS RD","m":"West Mifflin","u":"L","o":"corp","sf":1624,"v":10800}},{"type":"Feature","geometry":{"type":"Point","coordinates":[-79.88304,40.35955]},"properties":{"p":"0242M00230000000","a":"BETTIS RD","m":"West Mifflin","u":"L","o":"corp","sf":12415,"v":16200}},{"type":"Feature","geometry":{"type":"Point","coordinates":[-79.88124,40.36214]},"properties":{"p":"0241E00175000000","a":"BETTIS RD","m":"West Mifflin","u":"L","o":"corp","sf":390298,"v":42100}},{"type":"Feature","geometry":{"type":"Point","coordinates":[-79.88268,40.36038]},"properties":{"p":"0241E00200000000","a":"BETTIS RD","m":"West Mifflin","u":"L","o":"corp","sf":174240,"v":34200}},{"type":"Feature","geometry":{"type":"Point","coordinates":[-79.88001,40.35841]},"properties":{"p":"0241N00025000000","a":"SKYLINE DR","m":"West Mifflin","u":"L","o":"individual","sf":123275,"v":29500}},{"type":"Feature","geometry":{"type":"Point","coordinates":[-79.88016,40.35913]},"properties":{"p":"0241J00150000000","a":"BETTIS RD","m":"West Mifflin","u":"L","o":"individual","sf":19428,"v":19700}},{"type":"Feature","geometry":{"type":"Point","coordinates":[-79.88068,40.35939]},"properties":{"p":"0241J00185000000","a":"BETTIS RD","m":"West Mifflin","u":"L","o":"individual","sf":39596,"v":21800}},{"type":"Feature","geometry":{"type":"Point","coordinates":[-79.88264,40.35942]},"properties":{"p":"0241J00340000000","a":"BETTIS RD","m":"West Mifflin","u":"L","o":"corp","sf":32931,"v":21200}},{"type":"Feature","geometry":{"type":"Point","coordinates":[-79.88116,40.36054]},"properties":{"p":"0241J00360000000","a":"BETTIS RD","m":"West Mifflin","u":"L","o":"corp","sf":47350,"v":22500}},{"type":"Feature","geometry":{"type":"Point","coordinates":[-79.88735,40.35999]},"properties":{"p":"0242L00096000000","a":"BETTIS RD","m":"West Mifflin","u":"L","o":"individual","sf":38528,"v":21700}},{"type":"Feature","geometry":{"type":"Point","coordinates":[-79.88367,40.36022]},"properties":{"p":"0242M00070000000","a":"BETTIS RD","m":"West Mifflin","u":"L","o":"corp","sf":55321,"v":23200}},{"type":"Feature","geometry":{"type":"Point","coordinates":[-79.88483,40.35973]},"properties":{"p":"0242M00100000000","a":"BETTIS RD","m":"West Mifflin","u":"L","o":"corp","sf":5639,"v":500}},{"type":"Feature","geometry":{"type":"Point","coordinates":[-79.88701,40.35974]},"properties":{"p":"0242M00130000000","a":"BETTIS RD","m":"West Mifflin","u":"L","o":"individual","sf":49223,"v":1600}},{"type":"Feature","geometry":{"type":"Point","coordinates":[-79.8938,40.36926]},"properties":{"p":"0183K00275000000","a":"SKYLARK AVE","m":"West Mifflin","u":"L","o":"individual","sf":20000,"v":30700}},{"type":"Feature","geometry":{"type":"Point","coordinates":[-79.89388,40.36985]},"properties":{"p":"0183K00283000000","a":"SKYLARK AVE","m":"West Mifflin","u":"L","o":"individual","sf":18000,"v":3300}},{"type":"Feature","geometry":{"type":"Point","coordinates":[-79.89483,40.36937]},"properties":{"p":"0183K00295000000","a":"MIFFLIN ST","m":"West Mifflin","u":"L","o":"individual","sf":192100,"v":7000}},{"type":"Feature","geometry":{"type":"Point","coordinates":[-79.88469,40.36688]},"properties":{"p":"0183S00100000000","a":"HOMESTEAD DUQUESNE RD","m":"West Mifflin","u":"L","o":"corp","sf":16730,"v":18400}},{"type":"Feature","geometry":{"type":"Point","coordinates":[-79.88422,40.36683]},"properties":{"p":"0183S00103000000","a":"HOMESTEAD DUQUESNE RD","m":"West Mifflin","u":"L","o":"corp","sf":21677,"v":20200}},{"type":"Feature","geometry":{"type":"Point","coordinates":[-79.89148,40.36785]},"properties":{"p":"0183K00130000000","a":"HOMESTEAD DUQUESNE RD","m":"West Mifflin","u":"L","o":"individual","sf":15939,"v":1400}},{"type":"Feature","geometry":{"type":"Point","coordinates":[-79.89199,40.36796]},"properties":{"p":"0183K00134000000","a":"DUQUESNE AVE","m":"West Mifflin","u":"L","o":"individual","sf":6320,"v":600}},{"type":"Feature","geometry":{"type":"Point","coordinates":[-79.89324,40.36997]},"properties":{"p":"0183K00186000000","a":"5218 CLEVELAND AVE","m":"West Mifflin","u":"L","o":"individual","sf":18000,"v":1600}},{"type":"Feature","geometry":{"type":"Point","coordinates":[-79.893,40.36949]},"properties":{"p":"0183K00196000000","a":"DUQUESNE AVE","m":"West Mifflin","u":"L","o":"individual","sf":20000,"v":30700}},{"type":"Feature","geometry":{"type":"Point","coordinates":[-79.88886,40.36774]},"properties":{"p":"0183R00065000000","a":"3902 -3904 HOMESTEAD DUQUESNE RD","m":"West Mifflin","u":"L","o":"individual","sf":47219,"v":22500}},{"type":"Feature","geometry":{"type":"Point","coordinates":[-79.88916,40.3676]},"properties":{"p":"0183R00068000000","a":"HOMESTEAD DUQUESNE RD","m":"West Mifflin","u":"L","o":"corp","sf":16518,"v":18300}},{"type":"Feature","geometry":{"type":"Point","coordinates":[-79.89075,40.36654]},"properties":{"p":"0183R00126000000","a":"THOMPSON RUN RD","m":"West Mifflin","u":"L","o":"corp","sf":9148,"v":14600}},{"type":"Feature","geometry":{"type":"Point","coordinates":[-79.88986,40.36632]},"properties":{"p":"0183R00150000000","a":"THOMPSON RUN RD","m":"West Mifflin","u":"L","o":"individual","sf":61855,"v":8000}},{"type":"Feature","geometry":{"type":"Point","coordinates":[-79.89164,40.36926]},"properties":{"p":"0183K00073000000","a":"HOMESTEAD DUQUESNE RD","m":"West Mifflin","u":"L","o":"individual","sf":3658,"v":300}},{"type":"Feature","geometry":{"type":"Point","coordinates":[-79.88274,40.36772]},"properties":{"p":"0183S00121000000","a":"HOMESTEAD DUQUESNE RD","m":"West Mifflin","u":"L","o":"corp","sf":261360,"v":41200}},{"type":"Feature","geometry":{"type":"Point","coordinates":[-79.88337,40.36584]},"properties":{"p":"0183S00136000000","a":"HOMESTEAD DUQUESNE RD","m":"West Mifflin","u":"L","o":"corp","sf":20005,"v":20000}},{"type":"Feature","geometry":{"type":"Point","coordinates":[-79.88361,40.36604]},"properties":{"p":"0183S00138000000","a":"HOMESTEAD DUQUESNE RD","m":"West Mifflin","u":"L","o":"corp","sf":15913,"v":18000}},{"type":"Feature","geometry":{"type":"Point","coordinates":[-79.88381,40.36607]},"properties":{"p":"0183S00141000000","a":"HOMESTEAD DUQUESNE RD","m":"West Mifflin","u":"L","o":"corp","sf":19072,"v":19500}},{"type":"Feature","geometry":{"type":"Point","coordinates":[-79.88061,40.36579]},"properties":{"p":"0240N00180000000","a":"HOMESTEAD DUQUESNE RD","m":"West Mifflin","u":"L","o":"individual","sf":24611,"v":500}},{"type":"Feature","geometry":{"type":"Point","coordinates":[-79.88269,40.3663]},"properties":{"p":"0240N00155000000","a":"3325 HOMESTEAD DUQUESNE RD","m":"West Mifflin","u":"L","o":"individual","sf":5000,"v":500}},{"type":"Feature","geometry":{"type":"Point","coordinates":[-79.88233,40.36627]},"properties":{"p":"0240N00160000000","a":"3325 HOMESTEAD DUQUESNE RD","m":"West Mifflin","u":"L","o":"individual","sf":5000,"v":500}},{"type":"Feature","geometry":{"type":"Point","coordinates":[-79.88245,40.36607]},"properties":{"p":"0240N00162000000","a":"HOMESTEAD DUQUESNE RD","m":"West Mifflin","u":"L","o":"individual","sf":12300,"v":1100}},{"type":"Feature","geometry":{"type":"Point","coordinates":[-79.88184,40.36671]},"properties":{"p":"0240N00140000000","a":"3316 HOMESTEAD DUQUESNE RD","m":"West Mifflin","u":"L","o":"individual","sf":871,"v":100}},{"type":"Feature","geometry":{"type":"Point","coordinates":[-79.89042,40.35541]},"properties":{"p":"0309C00350000000","a":"RIVERVIEW DR","m":"Dravosburg","u":"L","o":"corp","sf":11755,"v":12600}},{"type":"Feature","geometry":{"type":"Point","coordinates":[-79.88636,40.35911]},"properties":{"p":"0242M00136000000","a":"274 BETTIS RD","m":"Dravosburg","u":"L","o":"corp","sf":20212,"v":26300}},{"type":"Feature","geometry":{"type":"Point","coordinates":[-79.88588,40.35429]},"properties":{"p":"0309D00102000000","a":"DUQUESNE AVE","m":"Dravosburg","u":"L","o":"individual","sf":2188,"v":700}},{"type":"Feature","geometry":{"type":"Point","coordinates":[-79.89503,40.35084]},"properties":{"p":"0309F00171000000","a":"6TH ST","m":"Dravosburg","u":"L","o":"corp","sf":4750,"v":1400}},{"type":"Feature","geometry":{"type":"Point","coordinates":[-79.89521,40.35065]},"properties":{"p":"0309J00006000000","a":"RICHLAND AVE","m":"Dravosburg","u":"L","o":"corp","sf":2850,"v":900}},{"type":"Feature","geometry":{"type":"Point","coordinates":[-79.89014,40.35053]},"properties":{"p":"0309L00198000100","a":"306 SHERMAN AVE","m":"Dravosburg","u":"L","o":"corp","sf":86,"v":100}},{"type":"Feature","geometry":{"type":"Point","coordinates":[-79.89031,40.36656]},"properties":{"p":"0183R00120000000","a":"THOMPSON RUN RD","m":"West Mifflin","u":"L","o":"corp","sf":42384,"v":3800}},{"type":"Feature","geometry":{"type":"Point","coordinates":[-79.88853,40.35068]},"properties":{"p":"0309L00058000000","a":"RIDGE AVE","m":"Dravosburg","u":"L","o":"individual","sf":4260,"v":1300}},{"type":"Feature","geometry":{"type":"Point","coordinates":[-79.88573,40.3502]},"properties":{"p":"0309M00036000000","a":"WASHINGTON AVE","m":"Dravosburg","u":"L","o":"individual","sf":5760,"v":1700}},{"type":"Feature","geometry":{"type":"Point","coordinates":[-79.89976,40.35423]},"properties":{"p":"0310D00075000000","a":"CIRCLE AVE","m":"Dravosburg","u":"L","o":"individual","sf":139828,"v":24400}},{"type":"Feature","geometry":{"type":"Point","coordinates":[-79.89068,40.35489]},"properties":{"p":"0309C00356000000","a":"RIVERVIEW DR","m":"Dravosburg","u":"L","o":"corp","sf":10443,"v":12500}},{"type":"Feature","geometry":{"type":"Point","coordinates":[-79.88354,40.35428]},"properties":{"p":"0309D00287000000","a":"ELIZABETH ST","m":"Dravosburg","u":"L","o":"individual","sf":5171,"v":1600}},{"type":"Feature","geometry":{"type":"Point","coordinates":[-79.88177,40.36819]},"properties":{"p":"0240N00145000000","a":"HOMESTEAD DUQUESNE RD","m":"West Mifflin","u":"L","o":"individual","sf":215666,"v":3200}},{"type":"Feature","geometry":{"type":"Point","coordinates":[-79.89589,40.35358]},"properties":{"p":"0309A00064000000","a":"LUSCOMBE LN","m":"Dravosburg","u":"L","o":"corp","sf":10203,"v":12500}},{"type":"Feature","geometry":{"type":"Point","coordinates":[-79.88329,40.35923]},"properties":{"p":"0242M00236000000","a":"BETTIS RD","m":"West Mifflin","u":"L","o":"corp","sf":21475,"v":20100}},{"type":"Feature","geometry":{"type":"Point","coordinates":[-79.89206,40.36923]},"properties":{"p":"0183K00101000000","a":"CLEVELAND AVE","m":"West Mifflin","u":"L","o":"individual","sf":33535,"v":31900}},{"type":"Feature","geometry":{"type":"Point","coordinates":[-79.88385,40.35342]},"properties":{"p":"0309D00190000000","a":"CORINNE ST","m":"Dravosburg","u":"L","o":"individual","sf":200,"v":200}},{"type":"Feature","geometry":{"type":"Point","coordinates":[-79.88426,40.35397]},"properties":{"p":"0309D00205000000","a":"189 LAURA AVE","m":"Dravosburg","u":"L","o":"individual","sf":1200,"v":400}}]}