{"type":"FeatureCollection","features":[{"type":"Feature","geometry":{"type":"Point","coordinates":[-79.89465,40.59832]},"properties":{"p":"1080B00024000000","a":"3819 CEDAR RIDGE RD","m":"West Deer","u":"C","o":"individual","sf":10001,"v":17500}},{"type":"Feature","geometry":{"type":"Point","coordinates":[-79.89597,40.60894]},"properties":{"p":"1358J00150000000","a":"ROUTE 910","m":"West Deer","u":"C","o":"corp","sf":16623,"v":800}},{"type":"Feature","geometry":{"type":"Point","coordinates":[-79.88739,40.59375]},"properties":{"p":"1080L00070000000","a":"ROUTE 910","m":"Indiana","u":"L","o":"individual","sf":43560,"v":27700}},{"type":"Feature","geometry":{"type":"Point","coordinates":[-79.8882,40.59245]},"properties":{"p":"1080L00128000000","a":"MYERS LN","m":"Indiana","u":"L","o":"individual","sf":23958,"v":2600}},{"type":"Feature","geometry":{"type":"Point","coordinates":[-79.88898,40.59154]},"properties":{"p":"1080L00163000000","a":"ROUTE 910","m":"Indiana","u":"L","o":"corp","sf":212573,"v":72100}},{"type":"Feature","geometry":{"type":"Point","coordinates":[-79.88948,40.59219]},"properties":{"p":"1080L00165000000","a":"STATE ROUTE 910","m":"Indiana","u":"L","o":"corp","sf":2293,"v":900}},{"type":"Feature","geometry":{"type":"Point","coordinates":[-79.89297,40.59551]},"properties":{"p":"1080F00075000000","a":"10 TREE FARM LN","m":"Indiana","u":"L","o":"individual","sf":63162,"v":55000}},{"type":"Feature","geometry":{"type":"Point","coordinates":[-79.8901,40.59411]},"properties":{"p":"1080G00035000000","a":"ROUTE 910","m":"Indiana","u":"L","o":"individual","sf":15330,"v":1700}},{"type":"Feature","geometry":{"type":"Point","coordinates":[-79.89535,40.59349]},"properties":{"p":"1079L00001000000","a":"CEDAR RUN RD","m":"Indiana","u":"L","o":"corp","sf":710028,"v":72000}},{"type":"Feature","geometry":{"type":"Point","coordinates":[-79.89533,40.59779]},"properties":{"p":"1080B00100000000","a":"CEDAR RIDGE RD","m":"West Deer","u":"L","o":"individual","sf":570601,"v":65400}},{"type":"Feature","geometry":{"type":"Point","coordinates":[-79.89045,40.60686]},"properties":{"p":"1215C00327000000","a":"GIBSONIA RD","m":"West Deer","u":"L","o":"individual","sf":23477,"v":52000}},{"type":"Feature","geometry":{"type":"Point","coordinates":[-79.89012,40.59988]},"properties":{"p":"1215R00166000000","a":"GIBSONIA RD","m":"West Deer","u":"L","o":"individual","sf":261360,"v":77400}},{"type":"Feature","geometry":{"type":"Point","coordinates":[-79.89948,40.60139]},"properties":{"p":"1214M00097000000","a":"CEDAR RIDGE RD","m":"West Deer","u":"L","o":"individual","sf":309712,"v":76500}},{"type":"Feature","geometry":{"type":"Point","coordinates":[-79.88391,40.60963]},"properties":{"p":"1358S00027000000","a":"15 GREENTREE LN","m":"West Deer","u":"L","o":"individual","sf":8713,"v":3300}},{"type":"Feature","geometry":{"type":"Point","coordinates":[-79.89594,40.60585]},"properties":{"p":"1215A00175000000","a":"58 QSI LN","m":"West Deer","u":"L","o":"corp","sf":54494,"v":55700}},{"type":"Feature","geometry":{"type":"Point","coordinates":[-79.89033,40.60808]},"properties":{"p":"1215B00018000000","a":"4667 GIBSONIA RD","m":"West Deer","u":"L","o":"individual","sf":183388,"v":70500}},{"type":"Feature","geometry":{"type":"Point","coordinates":[-79.89231,40.60845]},"properties":{"p":"1215B00026000000","a":"GIBSONIA RD","m":"West Deer","u":"L","o":"individual","sf":26963,"v":3000}},{"type":"Feature","geometry":{"type":"Point","coordinates":[-79.89515,40.60827]},"properties":{"p":"1215B00260000000","a":"CAITLIN DR","m":"West Deer","u":"L","o":"individual","sf":61855,"v":700}},{"type":"Feature","geometry":{"type":"Point","coordinates":[-79.89504,40.59956]},"properties":{"p":"1215N00001000000","a":"CEDAR RIDGE RD","m":"West Deer","u":"L","o":"corp","sf":887539,"v":103800}},{"type":"Feature","geometry":{"type":"Point","coordinates":[-79.8835,40.6078]},"properties":{"p":"1215D00100000000","a":"GREENTREE LN","m":"West Deer","u":"L","o":"individual","sf":94656,"v":60300}},{"type":"Feature","geometry":{"type":"Point","coordinates":[-79.88825,40.60507]},"properties":{"p":"1215G00097000000","a":"145 CAMPBELL RD","m":"West Deer","u":"L","o":"individual","sf":101930,"v":1200}},{"type":"Feature","geometry":{"type":"Point","coordinates":[-79.88966,40.60603]},"properties":{"p":"1215G00243000000","a":"GIBSONIA RD","m":"West Deer","u":"L","o":"individual","sf":20358,"v":7600}},{"type":"Feature","geometry":{"type":"Point","coordinates":[-79.88799,40.60289]},"properties":{"p":"1215L00092000000","a":"GIBSONIA RD","m":"West Deer","u":"L","o":"corp","sf":16988,"v":6400}},{"type":"Feature","geometry":{"type":"Point","coordinates":[-79.88913,40.60439]},"properties":{"p":"1215G00265000000","a":"CEDAR RIDGE RD","m":"West Deer","u":"L","o":"corp","sf":379408,"v":78100}},{"type":"Feature","geometry":{"type":"Point","coordinates":[-79.88492,40.60676]},"properties":{"p":"1215D00080000000","a":"8 GREENTREE LN","m":"West Deer","u":"L","o":"individual","sf":40599,"v":15100}},{"type":"Feature","geometry":{"type":"Point","coordinates":[-79.89231,40.60737]},"properties":{"p":"1215B00057000000","a":"GIBSONIA RD","m":"West Deer","u":"L","o":"individual","sf":131987,"v":24200}},{"type":"Feature","geometry":{"type":"Point","coordinates":[-79.88431,40.60066]},"properties":{"p":"1215S00200000000","a":"FREEDOM LN","m":"West Deer","u":"B","o":"corp","sf":276109,"v":33600}},{"type":"Feature","geometry":{"type":"Point","coordinates":[-79.88596,40.59997]},"properties":{"p":"1215S00100000000","a":"101 FREEDOM LN","m":"West Deer","u":"B","o":"corp","sf":603859,"v":51000}},{"type":"Feature","geometry":{"type":"Point","coordinates":[-79.88149,40.60159]},"properties":{"p":"1216E00281000000","a":"202 FREEDOM LN","m":"West Deer","u":"B","o":"corp","sf":5765362,"v":1133300}},{"type":"Feature","geometry":{"type":"Point","coordinates":[-79.88588,40.60158]},"properties":{"p":"1215M00100000000","a":"FREEDOM LN","m":"West Deer","u":"B","o":"corp","sf":187365,"v":34500}},{"type":"Feature","geometry":{"type":"Point","coordinates":[-79.88522,40.60246]},"properties":{"p":"1215M00200000000","a":"FREEDOM LN","m":"West Deer","u":"B","o":"corp","sf":448868,"v":82000}}]}