{"type":"FeatureCollection","features":[{"type":"Feature","geometry":{"type":"Point","coordinates":[-79.88566,40.63138]},"properties":{"p":"1668M00125000000","a":"OAK RD","m":"West Deer","u":"C","o":"individual","sf":131987,"v":15900}},{"type":"Feature","geometry":{"type":"Point","coordinates":[-79.8839,40.63559]},"properties":{"p":"1668H00386000000","a":"BAIRDFORD RD","m":"West Deer","u":"C","o":"corp","sf":470883,"v":79200}},{"type":"Feature","geometry":{"type":"Point","coordinates":[-79.88568,40.63002]},"properties":{"p":"1668S00270000000","a":"1008 MUELLER ST","m":"West Deer","u":"C","o":"corp","sf":69352,"v":5700}},{"type":"Feature","geometry":{"type":"Point","coordinates":[-79.88384,40.63602]},"properties":{"p":"1668D00077000000","a":"KAUFMAN RD","m":"West Deer","u":"C","o":"corp","sf":27878,"v":3900}},{"type":"Feature","geometry":{"type":"Point","coordinates":[-79.88521,40.63023]},"properties":{"p":"1668S00269000000","a":"MUELLER ST","m":"West Deer","u":"L","o":"individual","sf":9759,"v":3700}},{"type":"Feature","geometry":{"type":"Point","coordinates":[-79.88254,40.63057]},"properties":{"p":"1669J00324000000","a":"MUELLER ST","m":"West Deer","u":"L","o":"individual","sf":5000,"v":2000}},{"type":"Feature","geometry":{"type":"Point","coordinates":[-79.88006,40.63226]},"properties":{"p":"1669J00249000000","a":"BAIRDFORD RD","m":"West Deer","u":"L","o":"individual","sf":14400,"v":5400}},{"type":"Feature","geometry":{"type":"Point","coordinates":[-79.88186,40.63052]},"properties":{"p":"1669J00308000000","a":"BRYSON RD","m":"West Deer","u":"L","o":"corp","sf":7500,"v":2900}},{"type":"Feature","geometry":{"type":"Point","coordinates":[-79.88309,40.63301]},"properties":{"p":"1668H00352000000","a":"HEMLOCK ST","m":"West Deer","u":"L","o":"individual","sf":5640,"v":2200}},{"type":"Feature","geometry":{"type":"Point","coordinates":[-79.88843,40.63]},"properties":{"p":"1668R00089000000","a":"OAK RD","m":"West Deer","u":"L","o":"individual","sf":4686,"v":1800}},{"type":"Feature","geometry":{"type":"Point","coordinates":[-79.88036,40.63172]},"properties":{"p":"1669J00191000000","a":"BAIRDFORD RD","m":"West Deer","u":"L","o":"corp","sf":8368,"v":3200}},{"type":"Feature","geometry":{"type":"Point","coordinates":[-79.88009,40.63183]},"properties":{"p":"1669J00197000000","a":"BAIRDFORD RD","m":"West Deer","u":"L","o":"corp","sf":7333,"v":2800}},{"type":"Feature","geometry":{"type":"Point","coordinates":[-79.88408,40.63025]},"properties":{"p":"1668S00240000000","a":"1024 MUELLER ST","m":"West Deer","u":"L","o":"individual","sf":2500,"v":1000}},{"type":"Feature","geometry":{"type":"Point","coordinates":[-79.88496,40.63298]},"properties":{"p":"1668H00326000000","a":"HEMLOCK ST","m":"West Deer","u":"L","o":"individual","sf":1716,"v":700}},{"type":"Feature","geometry":{"type":"Point","coordinates":[-79.8948,40.63374]},"properties":{"p":"1668E00172000000","a":"MIDDLE RD EXT","m":"West Deer","u":"L","o":"individual","sf":1008000,"v":138700}},{"type":"Feature","geometry":{"type":"Point","coordinates":[-79.8812,40.63312]},"properties":{"p":"1669E00076000000","a":"CYPRESS ST","m":"West Deer","u":"L","o":"individual","sf":4138,"v":2000}},{"type":"Feature","geometry":{"type":"Point","coordinates":[-79.88179,40.63026]},"properties":{"p":"1669N00244000000","a":"BRYSON RD","m":"West Deer","u":"L","o":"corp","sf":7865,"v":3000}},{"type":"Feature","geometry":{"type":"Point","coordinates":[-79.88189,40.63366]},"properties":{"p":"1669E00039000000","a":"BAIRDFORD RD","m":"West Deer","u":"L","o":"individual","sf":30797,"v":15000}},{"type":"Feature","geometry":{"type":"Point","coordinates":[-79.88269,40.63028]},"properties":{"p":"1669N00100000000","a":"MUELLER ST","m":"West Deer","u":"L","o":"individual","sf":62726,"v":31600}},{"type":"Feature","geometry":{"type":"Point","coordinates":[-79.89755,40.64601]},"properties":{"p":"1835A00133000000","a":"GIRDWOOD LN","m":"West Deer","u":"L","o":"individual","sf":35719,"v":3000}},{"type":"Feature","geometry":{"type":"Point","coordinates":[-79.89911,40.64902]},"properties":{"p":"2010N00301000000","a":"LEYWOOD DR","m":"West Deer","u":"L","o":"individual","sf":98446,"v":11300}},{"type":"Feature","geometry":{"type":"Point","coordinates":[-79.89852,40.64973]},"properties":{"p":"2010N00303000000","a":"LEYWOOD DR","m":"West Deer","u":"L","o":"individual","sf":284142,"v":23400}},{"type":"Feature","geometry":{"type":"Point","coordinates":[-79.89744,40.64909]},"properties":{"p":"2010N00305000000","a":"LEYWOOD DR","m":"West Deer","u":"L","o":"individual","sf":56497,"v":30900}},{"type":"Feature","geometry":{"type":"Point","coordinates":[-79.89839,40.64817]},"properties":{"p":"2010N00132000000","a":"LEYWOOD DR","m":"West Deer","u":"L","o":"individual","sf":70132,"v":8100}},{"type":"Feature","geometry":{"type":"Point","coordinates":[-79.89813,40.64714]},"properties":{"p":"2010N00170000000","a":"MIDDLE RD EXT","m":"West Deer","u":"L","o":"individual","sf":39788,"v":28800}},{"type":"Feature","geometry":{"type":"Point","coordinates":[-79.89967,40.64797]},"properties":{"p":"2010N00210000000","a":"LEYWOOD DR","m":"West Deer","u":"L","o":"individual","sf":74052,"v":900}},{"type":"Feature","geometry":{"type":"Point","coordinates":[-79.89155,40.64367]},"properties":{"p":"1835C00069000000","a":"BAIRDFORD RD","m":"West Deer","u":"L","o":"corp","sf":571072,"v":98800}},{"type":"Feature","geometry":{"type":"Point","coordinates":[-79.89209,40.6456]},"properties":{"p":"1835C00071000000","a":"BAIRDFORD RD","m":"West Deer","u":"L","o":"individual","sf":119790,"v":38200}},{"type":"Feature","geometry":{"type":"Point","coordinates":[-79.89464,40.6361]},"properties":{"p":"1835N00138000000","a":"SHEPARD RD","m":"West Deer","u":"L","o":"individual","sf":3821083,"v":280000}},{"type":"Feature","geometry":{"type":"Point","coordinates":[-79.88972,40.63851]},"properties":{"p":"1835R00132000000","a":"BAIRDFORD RD","m":"West Deer","u":"L","o":"corp","sf":43560,"v":54400}},{"type":"Feature","geometry":{"type":"Point","coordinates":[-79.89882,40.64561]},"properties":{"p":"1835A00232000000","a":"GIRDWOOD LN","m":"West Deer","u":"L","o":"individual","sf":35505,"v":28400}},{"type":"Feature","geometry":{"type":"Point","coordinates":[-79.89942,40.64701]},"properties":{"p":"1835A00391000000","a":"TREE HAVEN LN","m":"West Deer","u":"L","o":"individual","sf":22869,"v":8600}},{"type":"Feature","geometry":{"type":"Point","coordinates":[-79.89324,40.64724]},"properties":{"p":"1835B00032000000","a":"BAIRDFORD RD","m":"West Deer","u":"L","o":"individual","sf":43996,"v":13000}},{"type":"Feature","geometry":{"type":"Point","coordinates":[-79.88193,40.63139]},"properties":{"p":"1669J00361000000","a":"BAIRDFORD RD","m":"West Deer","u":"L","o":"corp","sf":39988,"v":53900}},{"type":"Feature","geometry":{"type":"Point","coordinates":[-79.89725,40.64872]},"properties":{"p":"2010N00284000000","a":"1120 MIDDLE RD EXT","m":"West Deer","u":"L","o":"individual","sf":43124,"v":54200}},{"type":"Feature","geometry":{"type":"Point","coordinates":[-79.89699,40.64677]},"properties":{"p":"1835A00114000000","a":"TREE HAVEN LN","m":"West Deer","u":"L","o":"individual","sf":43560,"v":5000}}]}