{"type":"FeatureCollection","features":[{"type":"Feature","geometry":{"type":"Point","coordinates":[-79.88444,40.26868]},"properties":{"p":"1133S00170000000","a":"620 HAYDEN BLVD","m":"Elizabeth Boro","u":"I","o":"individual","sf":3072,"v":3200}},{"type":"Feature","geometry":{"type":"Point","coordinates":[-79.88513,40.26927]},"properties":{"p":"1133S00233000000","a":"WILLIAMSPORT RD","m":"Elizabeth Boro","u":"C","o":"corp","sf":74052,"v":5100}},{"type":"Feature","geometry":{"type":"Point","coordinates":[-79.8848,40.26971]},"properties":{"p":"1133S00124000100","a":"HAYDEN BLVD","m":"Elizabeth Boro","u":"C","o":"corp","sf":600,"v":100}},{"type":"Feature","geometry":{"type":"Point","coordinates":[-79.88479,40.26907]},"properties":{"p":"1133S00190000000","a":"COAL","m":"Elizabeth Boro","u":"C","o":"corp","sf":24829,"v":5200}},{"type":"Feature","geometry":{"type":"Point","coordinates":[-79.88477,40.2695]},"properties":{"p":"1133S00191000000","a":"HAYDEN BLVD","m":"Elizabeth Boro","u":"C","o":"corp","sf":11500,"v":11900}},{"type":"Feature","geometry":{"type":"Point","coordinates":[-79.88994,40.26847]},"properties":{"p":"1133R00260000000","a":"CENTER AVE","m":"Elizabeth Boro","u":"C","o":"individual","sf":4175,"v":17700}},{"type":"Feature","geometry":{"type":"Point","coordinates":[-79.88402,40.26896]},"properties":{"p":"1133S00083000000","a":"ROBERTS HOLLOW RD","m":"Elizabeth Twp","u":"C","o":"individual","sf":13939,"v":1700}},{"type":"Feature","geometry":{"type":"Point","coordinates":[-79.88369,40.26987]},"properties":{"p":"1133S00092000000","a":"HAYDEN BLVD","m":"Elizabeth Twp","u":"C","o":"individual","sf":7840,"v":19400}},{"type":"Feature","geometry":{"type":"Point","coordinates":[-79.88338,40.25386]},"properties":{"p":"1418E00100000000","a":"4813 WILLIAMSPORT RD","m":"Forward","u":"C","o":"corp","sf":2343963,"v":226657}},{"type":"Feature","geometry":{"type":"Point","coordinates":[-79.88551,40.25898]},"properties":{"p":"1272S00245000000","a":"DORRIS DR","m":"Forward","u":"C","o":"corp","sf":42515,"v":38900}},{"type":"Feature","geometry":{"type":"Point","coordinates":[-79.88408,40.26822]},"properties":{"p":"1133S00155000000","a":"HAYDEN BLVD","m":"Forward","u":"C","o":"individual","sf":6517,"v":1500}},{"type":"Feature","geometry":{"type":"Point","coordinates":[-79.88426,40.26837]},"properties":{"p":"1133S00159000000","a":"624 HAYDEN BLVD","m":"Forward","u":"C","o":"individual","sf":3420,"v":800}},{"type":"Feature","geometry":{"type":"Point","coordinates":[-79.88273,40.26705]},"properties":{"p":"1271A00124000000","a":"HAYDEN BLVD","m":"Forward","u":"C","o":"corp","sf":18000,"v":56200}},{"type":"Feature","geometry":{"type":"Point","coordinates":[-79.88395,40.26811]},"properties":{"p":"1133S00152000000","a":"HAYDEN BLVD","m":"Forward","u":"C","o":"individual","sf":12960,"v":47600}},{"type":"Feature","geometry":{"type":"Point","coordinates":[-79.88432,40.26966]},"properties":{"p":"1133S00126000000","a":"HAYDEN BLVD","m":"Elizabeth Boro","u":"C","o":"individual","sf":5548,"v":17400}},{"type":"Feature","geometry":{"type":"Point","coordinates":[-79.89921,40.26988]},"properties":{"p":"1133N00090000000","a":"4TH ST","m":"West Elizabeth","u":"C","o":"corp","sf":46801,"v":48400}},{"type":"Feature","geometry":{"type":"Point","coordinates":[-79.88943,40.26856]},"properties":{"p":"1133R00188000000","a":"FERRY ST","m":"Elizabeth Boro","u":"C","o":"individual","sf":7200,"v":21600}},{"type":"Feature","geometry":{"type":"Point","coordinates":[-79.88433,40.2683]},"properties":{"p":"1133S00158000000","a":"624 HAYDEN BLVD","m":"Forward","u":"C","o":"individual","sf":1485,"v":300}},{"type":"Feature","geometry":{"type":"Point","coordinates":[-79.88463,40.26929]},"properties":{"p":"1133S00189000000","a":"HAYDEN BLVD","m":"Elizabeth Boro","u":"C","o":"corp","sf":1438,"v":1500}},{"type":"Feature","geometry":{"type":"Point","coordinates":[-79.88516,40.26805]},"properties":{"p":"1133S00217000000","a":"MULBERRY ST","m":"Elizabeth Boro","u":"L","o":"individual","sf":6000,"v":2000}},{"type":"Feature","geometry":{"type":"Point","coordinates":[-79.88533,40.26986]},"properties":{"p":"1133S00230000000","a":"WILLIAMSPORT RD","m":"Elizabeth Boro","u":"L","o":"individual","sf":6250,"v":2100}},{"type":"Feature","geometry":{"type":"Point","coordinates":[-79.88517,40.26839]},"properties":{"p":"1133S00238000000","a":"WILLIAMSPORT RD","m":"Elizabeth Boro","u":"L","o":"individual","sf":16000,"v":5200}},{"type":"Feature","geometry":{"type":"Point","coordinates":[-79.89157,40.26939]},"properties":{"p":"1133P00134000000","a":"714 S 2ND AVE","m":"Elizabeth Boro","u":"L","o":"individual","sf":495,"v":500}},{"type":"Feature","geometry":{"type":"Point","coordinates":[-79.88677,40.26885]},"properties":{"p":"1133S00373000000","a":"BAYARD ST","m":"Elizabeth Boro","u":"L","o":"individual","sf":3600,"v":19800}},{"type":"Feature","geometry":{"type":"Point","coordinates":[-79.89042,40.2667]},"properties":{"p":"1272C00350000000","a":"GRANT ST","m":"Elizabeth Boro","u":"L","o":"individual","sf":3600,"v":1300}},{"type":"Feature","geometry":{"type":"Point","coordinates":[-79.89065,40.26687]},"properties":{"p":"1272C00368000000","a":"CENTER AVE","m":"Elizabeth Boro","u":"L","o":"individual","sf":3215,"v":1100}},{"type":"Feature","geometry":{"type":"Point","coordinates":[-79.89046,40.26728]},"properties":{"p":"1272C00375000000","a":"CENTER AVE","m":"Elizabeth Boro","u":"L","o":"individual","sf":1620,"v":3700}},{"type":"Feature","geometry":{"type":"Point","coordinates":[-79.88437,40.26982]},"properties":{"p":"1133S00124000000","a":"HAYDEN BLVD","m":"Elizabeth Boro","u":"L","o":"individual","sf":5542,"v":1900}},{"type":"Feature","geometry":{"type":"Point","coordinates":[-79.88454,40.26803]},"properties":{"p":"1133S00207000000","a":"WILLIAMSPORT RD","m":"Elizabeth Boro","u":"L","o":"individual","sf":83200,"v":7600}},{"type":"Feature","geometry":{"type":"Point","coordinates":[-79.88864,40.26871]},"properties":{"p":"1133R00145000000","a":"5TH AVE","m":"Elizabeth Boro","u":"L","o":"individual","sf":10080,"v":23500}},{"type":"Feature","geometry":{"type":"Point","coordinates":[-79.88622,40.26747]},"properties":{"p":"1272D00377000000","a":"11TH ST","m":"Elizabeth Boro","u":"L","o":"individual","sf":6720,"v":2300}},{"type":"Feature","geometry":{"type":"Point","coordinates":[-79.89438,40.26539]},"properties":{"p":"1272F00156000000","a":"4TH AVE","m":"Elizabeth Boro","u":"L","o":"individual","sf":1493,"v":600}},{"type":"Feature","geometry":{"type":"Point","coordinates":[-79.88961,40.26789]},"properties":{"p":"1133R00167000000","a":"6TH AVE","m":"Elizabeth Boro","u":"L","o":"individual","sf":7200,"v":23200}},{"type":"Feature","geometry":{"type":"Point","coordinates":[-79.89445,40.26566]},"properties":{"p":"1272B00174000000","a":"TANNER AVE","m":"Elizabeth Boro","u":"L","o":"individual","sf":1207,"v":500}},{"type":"Feature","geometry":{"type":"Point","coordinates":[-79.89125,40.266]},"properties":{"p":"1272B00027000000","a":"CENTER AVE","m":"Elizabeth Boro","u":"L","o":"individual","sf":3938,"v":1400}},{"type":"Feature","geometry":{"type":"Point","coordinates":[-79.89111,40.26612]},"properties":{"p":"1272B00029000000","a":"CENTER AVE","m":"Elizabeth Boro","u":"L","o":"individual","sf":5671,"v":1900}},{"type":"Feature","geometry":{"type":"Point","coordinates":[-79.89015,40.26742]},"properties":{"p":"1272C00381000000","a":"6TH AVE","m":"Elizabeth Boro","u":"L","o":"individual","sf":4800,"v":11000}},{"type":"Feature","geometry":{"type":"Point","coordinates":[-79.88936,40.26914]},"properties":{"p":"1133R00248000000","a":"4TH AVE","m":"Elizabeth Boro","u":"L","o":"individual","sf":14400,"v":12400}},{"type":"Feature","geometry":{"type":"Point","coordinates":[-79.88847,40.26702]},"properties":{"p":"1272C00183000000","a":"9TH AVE","m":"Elizabeth Boro","u":"L","o":"individual","sf":6447,"v":2200}},{"type":"Feature","geometry":{"type":"Point","coordinates":[-79.89067,40.26819]},"properties":{"p":"1133R00275000000","a":"TANNER AVE","m":"Elizabeth Boro","u":"L","o":"individual","sf":2400,"v":900}},{"type":"Feature","geometry":{"type":"Point","coordinates":[-79.88906,40.26995]},"properties":{"p":"1133R00307000000","a":"3RD AVE","m":"Elizabeth Boro","u":"L","o":"corp","sf":3600,"v":1300}},{"type":"Feature","geometry":{"type":"Point","coordinates":[-79.89438,40.26715]},"properties":{"p":"1272B00328000000","a":"3RD AVE","m":"Elizabeth Boro","u":"L","o":"individual","sf":20374,"v":6600}},{"type":"Feature","geometry":{"type":"Point","coordinates":[-79.88766,40.26741]},"properties":{"p":"1272C00165000000","a":"701 8TH AVE","m":"Elizabeth Boro","u":"L","o":"individual","sf":4000,"v":1400}},{"type":"Feature","geometry":{"type":"Point","coordinates":[-79.88395,40.2699]},"properties":{"p":"1133S00106000000","a":"POLK ST","m":"Elizabeth Boro","u":"L","o":"individual","sf":9600,"v":11900}},{"type":"Feature","geometry":{"type":"Point","coordinates":[-79.88986,40.26654]},"properties":{"p":"1272C00273000000","a":"7TH AVE","m":"Elizabeth Boro","u":"L","o":"individual","sf":1920,"v":700}},{"type":"Feature","geometry":{"type":"Point","coordinates":[-79.88973,40.26991]},"properties":{"p":"1133R00375000000","a":"3RD AVE","m":"Elizabeth Boro","u":"L","o":"individual","sf":2500,"v":900}},{"type":"Feature","geometry":{"type":"Point","coordinates":[-79.89003,40.2658]},"properties":{"p":"1272C00223000000","a":"1007 8TH AVE","m":"Elizabeth Boro","u":"L","o":"individual","sf":120,"v":100}},{"type":"Feature","geometry":{"type":"Point","coordinates":[-79.89968,40.26952]},"properties":{"p":"1133N00091000000","a":"4TH ST EXT","m":"West Elizabeth","u":"L","o":"individual","sf":1714,"v":700}},{"type":"Feature","geometry":{"type":"Point","coordinates":[-79.89989,40.26938]},"properties":{"p":"1133N00095000000","a":"4TH ST","m":"West Elizabeth","u":"L","o":"individual","sf":4404,"v":18800}},{"type":"Feature","geometry":{"type":"Point","coordinates":[-79.88063,40.26992]},"properties":{"p":"1132N00289000000","a":"GLENWOOD DR","m":"Elizabeth Twp","u":"L","o":"corp","sf":1365,"v":500}},{"type":"Feature","geometry":{"type":"Point","coordinates":[-79.88235,40.26892]},"properties":{"p":"1132N00090000000","a":"OAK AVE","m":"Elizabeth Twp","u":"L","o":"individual","sf":18000,"v":24200}},{"type":"Feature","geometry":{"type":"Point","coordinates":[-79.88234,40.26994]},"properties":{"p":"1132N00245000000","a":"OAK AVE","m":"Elizabeth Twp","u":"L","o":"individual","sf":13593,"v":4500}},{"type":"Feature","geometry":{"type":"Point","coordinates":[-79.88313,40.26972]},"properties":{"p":"1133S00024000000","a":"OAK AVE","m":"Elizabeth Twp","u":"L","o":"individual","sf":19304,"v":12800}},{"type":"Feature","geometry":{"type":"Point","coordinates":[-79.88332,40.26939]},"properties":{"p":"1133S00026000000","a":"OAK AVE","m":"Elizabeth Twp","u":"L","o":"individual","sf":16754,"v":5500}},{"type":"Feature","geometry":{"type":"Point","coordinates":[-79.88305,40.26933]},"properties":{"p":"1133S00028000000","a":"OAK AVE","m":"Elizabeth Twp","u":"L","o":"individual","sf":16245,"v":200}},{"type":"Feature","geometry":{"type":"Point","coordinates":[-79.88164,40.26784]},"properties":{"p":"1133S00069000000","a":"HAYDEN BLVD","m":"Elizabeth Twp","u":"L","o":"individual","sf":411206,"v":24000}},{"type":"Feature","geometry":{"type":"Point","coordinates":[-79.8818,40.26714]},"properties":{"p":"1271A00159000000","a":"HAYDEN BLVD","m":"Elizabeth Twp","u":"L","o":"individual","sf":7200,"v":2400}},{"type":"Feature","geometry":{"type":"Point","coordinates":[-79.89764,40.26219]},"properties":{"p":"1272J00256000000","a":"702 DUKE DR","m":"Forward","u":"L","o":"individual","sf":487,"v":900}},{"type":"Feature","geometry":{"type":"Point","coordinates":[-79.88721,40.26227]},"properties":{"p":"1272L00086000000","a":"4926 WILLIAMSPORT RD","m":"Forward","u":"L","o":"individual","sf":2526,"v":200}},{"type":"Feature","geometry":{"type":"Point","coordinates":[-79.89002,40.26093]},"properties":{"p":"1272L00186000000","a":"WALKER RD","m":"Forward","u":"L","o":"individual","sf":55757,"v":5000}},{"type":"Feature","geometry":{"type":"Point","coordinates":[-79.88935,40.26131]},"properties":{"p":"1272L00198000000","a":"WILDERNESS LN","m":"Forward","u":"L","o":"individual","sf":35501,"v":3200}},{"type":"Feature","geometry":{"type":"Point","coordinates":[-79.89495,40.26399]},"properties":{"p":"1272F00332000000","a":"CENTER ST","m":"Forward","u":"L","o":"individual","sf":924,"v":1000}},{"type":"Feature","geometry":{"type":"Point","coordinates":[-79.8964,40.25977]},"properties":{"p":"1272N00079000000","a":"OLIVER DR","m":"Forward","u":"L","o":"corp","sf":55147,"v":1400}},{"type":"Feature","geometry":{"type":"Point","coordinates":[-79.89209,40.25862]},"properties":{"p":"1272P00126000000","a":"WILLIAMSPORT RD","m":"Forward","u":"L","o":"individual","sf":44867,"v":3100}},{"type":"Feature","geometry":{"type":"Point","coordinates":[-79.89415,40.25996]},"properties":{"p":"1272P00354000000","a":"OLIVER DR","m":"Forward","u":"L","o":"individual","sf":17424,"v":13500}},{"type":"Feature","geometry":{"type":"Point","coordinates":[-79.89473,40.26029]},"properties":{"p":"1272P00377000000","a":"OLIVER DR","m":"Forward","u":"L","o":"individual","sf":10760,"v":24700}},{"type":"Feature","geometry":{"type":"Point","coordinates":[-79.88693,40.2658]},"properties":{"p":"1272D00251000000","a":"BRAUFT ST","m":"Forward","u":"L","o":"individual","sf":19600,"v":13600}},{"type":"Feature","geometry":{"type":"Point","coordinates":[-79.89671,40.26081]},"properties":{"p":"1272J00175000000","a":"STOKES DR","m":"Forward","u":"L","o":"individual","sf":10800,"v":1200}},{"type":"Feature","geometry":{"type":"Point","coordinates":[-79.89686,40.26067]},"properties":{"p":"1272J00179000000","a":"STOKES DR","m":"Forward","u":"L","o":"individual","sf":10800,"v":4700}},{"type":"Feature","geometry":{"type":"Point","coordinates":[-79.89687,40.2642]},"properties":{"p":"1272E00100000000","a":"742 BUNOLA RIVER RD","m":"Forward","u":"L","o":"individual","sf":45738,"v":10000}},{"type":"Feature","geometry":{"type":"Point","coordinates":[-79.89703,40.26426]},"properties":{"p":"1272E00287000000","a":"742 BUNOLA RIVER RD","m":"Forward","u":"L","o":"individual","sf":5425,"v":500}},{"type":"Feature","geometry":{"type":"Point","coordinates":[-79.89735,40.26496]},"properties":{"p":"1272E00395000000","a":"SUTTON ST","m":"Forward","u":"L","o":"corp","sf":37767,"v":300}},{"type":"Feature","geometry":{"type":"Point","coordinates":[-79.89563,40.25944]},"properties":{"p":"1272N00065000000","a":"OLIVER DR","m":"Forward","u":"L","o":"individual","sf":10585,"v":11400}},{"type":"Feature","geometry":{"type":"Point","coordinates":[-79.89572,40.25903]},"properties":{"p":"1272N00074000000","a":"OLIVER DR","m":"Forward","u":"L","o":"individual","sf":1655,"v":200}},{"type":"Feature","geometry":{"type":"Point","coordinates":[-79.89611,40.25907]},"properties":{"p":"1272N00077000000","a":"OLIVER DR","m":"Forward","u":"L","o":"individual","sf":997,"v":100}},{"type":"Feature","geometry":{"type":"Point","coordinates":[-79.88409,40.2666]},"properties":{"p":"1272D00025000000","a":"WILLIAMSPORT RD","m":"Forward","u":"L","o":"individual","sf":314116,"v":35000}},{"type":"Feature","geometry":{"type":"Point","coordinates":[-79.89573,40.26118]},"properties":{"p":"1272J00125000000","a":"301 OLIVER DR","m":"Forward","u":"L","o":"individual","sf":9000,"v":9700}},{"type":"Feature","geometry":{"type":"Point","coordinates":[-79.89525,40.2609]},"properties":{"p":"1272J00134000000","a":"OLIVER DR","m":"Forward","u":"L","o":"individual","sf":12110,"v":13000}},{"type":"Feature","geometry":{"type":"Point","coordinates":[-79.8857,40.26711]},"properties":{"p":"1272D00345000000","a":"12TH ST","m":"Forward","u":"L","o":"individual","sf":2475,"v":200}},{"type":"Feature","geometry":{"type":"Point","coordinates":[-79.8855,40.26747]},"properties":{"p":"1272D00355000000","a":"1101 MULBERRY ST","m":"Forward","u":"L","o":"individual","sf":17097,"v":26500}},{"type":"Feature","geometry":{"type":"Point","coordinates":[-79.89602,40.26464]},"properties":{"p":"1272E00239000000","a":"NEVINS LN","m":"Forward","u":"L","o":"individual","sf":3300,"v":300}},{"type":"Feature","geometry":{"type":"Point","coordinates":[-79.89484,40.26667]},"properties":{"p":"1272B00358000000","a":"S 2ND AVE","m":"Forward","u":"L","o":"individual","sf":16370,"v":13400}},{"type":"Feature","geometry":{"type":"Point","coordinates":[-79.89513,40.26667]},"properties":{"p":"1272B00359000000","a":"S 2ND AVE","m":"Forward","u":"L","o":"individual","sf":30531,"v":14600}},{"type":"Feature","geometry":{"type":"Point","coordinates":[-79.88891,40.26222]},"properties":{"p":"1272L00214000000","a":"WALKER RD","m":"Forward","u":"L","o":"individual","sf":92783,"v":1100}},{"type":"Feature","geometry":{"type":"Point","coordinates":[-79.89096,40.26082]},"properties":{"p":"1272L00305000000","a":"WALKER RD","m":"Forward","u":"L","o":"individual","sf":16472,"v":1700}},{"type":"Feature","geometry":{"type":"Point","coordinates":[-79.89053,40.26167]},"properties":{"p":"1272L00315000000","a":"WALKER RD","m":"Forward","u":"L","o":"individual","sf":21780,"v":2000}},{"type":"Feature","geometry":{"type":"Point","coordinates":[-79.88994,40.26193]},"properties":{"p":"1272L00331000000","a":"WALKER RD","m":"Forward","u":"L","o":"individual","sf":50094,"v":4600}},{"type":"Feature","geometry":{"type":"Point","coordinates":[-79.88972,40.26239]},"properties":{"p":"1272L00334000000","a":"WALKER RD","m":"Forward","u":"L","o":"individual","sf":12894,"v":1200}},{"type":"Feature","geometry":{"type":"Point","coordinates":[-79.88831,40.26459]},"properties":{"p":"1272G00038000000","a":"13TH ST","m":"Forward","u":"L","o":"individual","sf":9844,"v":900}},{"type":"Feature","geometry":{"type":"Point","coordinates":[-79.88761,40.25883]},"properties":{"p":"1272R00041000000","a":"5942 HOMEPLACE DR","m":"Forward","u":"L","o":"individual","sf":26127,"v":18800}},{"type":"Feature","geometry":{"type":"Point","coordinates":[-79.88808,40.25842]},"properties":{"p":"1272R00133000000","a":"WILLIAMSPORT RD","m":"Forward","u":"L","o":"individual","sf":19166,"v":18200}},{"type":"Feature","geometry":{"type":"Point","coordinates":[-79.88842,40.2592]},"properties":{"p":"1272R00152000000","a":"WILLIAMSPORT RD","m":"Forward","u":"L","o":"individual","sf":94961,"v":52700}},{"type":"Feature","geometry":{"type":"Point","coordinates":[-79.88821,40.26379]},"properties":{"p":"1272G00171000000","a":"16TH ST","m":"Forward","u":"L","o":"individual","sf":6044,"v":500}},{"type":"Feature","geometry":{"type":"Point","coordinates":[-79.88699,40.26343]},"properties":{"p":"1272G00194000000","a":"4944 WILLIAMSPORT RD","m":"Forward","u":"L","o":"individual","sf":7693,"v":700}},{"type":"Feature","geometry":{"type":"Point","coordinates":[-79.886,40.25901]},"properties":{"p":"1272S00232000000","a":"DORRIS DR","m":"Forward","u":"L","o":"individual","sf":48831,"v":600}},{"type":"Feature","geometry":{"type":"Point","coordinates":[-79.88918,40.25744]},"properties":{"p":"1419C00266000000","a":"WILLIAMSPORT RD","m":"Forward","u":"L","o":"individual","sf":43560,"v":37900}},{"type":"Feature","geometry":{"type":"Point","coordinates":[-79.88711,40.26482]},"properties":{"p":"1272G00053000000","a":"13TH ST","m":"Forward","u":"L","o":"individual","sf":4400,"v":400}},{"type":"Feature","geometry":{"type":"Point","coordinates":[-79.88705,40.26441]},"properties":{"p":"1272G00109000000","a":"15TH ST","m":"Forward","u":"L","o":"individual","sf":7260,"v":700}},{"type":"Feature","geometry":{"type":"Point","coordinates":[-79.88771,40.26387]},"properties":{"p":"1272G00165000000","a":"916 16TH ST","m":"Forward","u":"L","o":"individual","sf":4400,"v":4800}},{"type":"Feature","geometry":{"type":"Point","coordinates":[-79.8896,40.26011]},"properties":{"p":"1272R00296000000","a":"WALKER RD","m":"Forward","u":"L","o":"individual","sf":185130,"v":12800}},{"type":"Feature","geometry":{"type":"Point","coordinates":[-79.88654,40.26534]},"properties":{"p":"1272H00388000000","a":"WILLIAMSPORT RD","m":"Forward","u":"L","o":"individual","sf":4800,"v":1000}},{"type":"Feature","geometry":{"type":"Point","coordinates":[-79.89195,40.25653]},"properties":{"p":"1419B00075000000","a":"WILLIAMSPORT RD","m":"Forward","u":"L","o":"individual","sf":22346,"v":2000}},{"type":"Feature","geometry":{"type":"Point","coordinates":[-79.89301,40.25627]},"properties":{"p":"1419B00225000000","a":"WILLIAMSPORT RD","m":"Forward","u":"L","o":"individual","sf":174,"v":100}},{"type":"Feature","geometry":{"type":"Point","coordinates":[-79.88305,40.2652]},"properties":{"p":"1272H00291000000","a":"WILLIAMSPORT RD","m":"Forward","u":"L","o":"individual","sf":1599519,"v":45000}},{"type":"Feature","geometry":{"type":"Point","coordinates":[-79.88023,40.25604]},"properties":{"p":"1418A00095000000","a":"HAYDEN BLVD","m":"Forward","u":"L","o":"individual","sf":39945,"v":4000}},{"type":"Feature","geometry":{"type":"Point","coordinates":[-79.89061,40.26434]},"properties":{"p":"1272G00370000000","a":"WALKER RD","m":"Forward","u":"L","o":"individual","sf":76143,"v":31900}},{"type":"Feature","geometry":{"type":"Point","coordinates":[-79.88747,40.26773]},"properties":{"p":"1133R00002000000","a":"8TH AVE","m":"Elizabeth Boro","u":"L","o":"individual","sf":7200,"v":23200}},{"type":"Feature","geometry":{"type":"Point","coordinates":[-79.89135,40.26179]},"properties":{"p":"1272L00356000000","a":"WALKER RD","m":"Forward","u":"L","o":"individual","sf":202990,"v":30500}},{"type":"Feature","geometry":{"type":"Point","coordinates":[-79.88725,40.26479]},"properties":{"p":"1272G00051000000","a":"13TH ST","m":"Forward","u":"L","o":"individual","sf":4400,"v":4800}},{"type":"Feature","geometry":{"type":"Point","coordinates":[-79.88788,40.25947]},"properties":{"p":"1272R00121000000","a":"WILLIAMSPORT RD","m":"Forward","u":"L","o":"individual","sf":23531,"v":2100}},{"type":"Feature","geometry":{"type":"Point","coordinates":[-79.89059,40.26695]},"properties":{"p":"1272C00369000000","a":"CENTER AVE","m":"Elizabeth Boro","u":"L","o":"individual","sf":1160,"v":500}},{"type":"Feature","geometry":{"type":"Point","coordinates":[-79.89441,40.26533]},"properties":{"p":"1272F00316000000","a":"4TH AVE","m":"Elizabeth Boro","u":"L","o":"individual","sf":2376,"v":900}},{"type":"Feature","geometry":{"type":"Point","coordinates":[-79.88343,40.25822]},"properties":{"p":"1272S00119000000","a":"DORRIS DR","m":"Forward","u":"L","o":"individual","sf":35653,"v":3200}},{"type":"Feature","geometry":{"type":"Point","coordinates":[-79.89238,40.26674]},"properties":{"p":"1272B00120000000","a":"4TH AVE","m":"Elizabeth Boro","u":"L","o":"individual","sf":7000,"v":11700}},{"type":"Feature","geometry":{"type":"Point","coordinates":[-79.89093,40.26979]},"properties":{"p":"1133R00397000000","a":"S 2ND AVE","m":"Elizabeth Boro","u":"L","o":"individual","sf":12150,"v":23600}},{"type":"Feature","geometry":{"type":"Point","coordinates":[-79.88594,40.26766]},"properties":{"p":"1272D00370000000","a":"MULBERRY ST","m":"Elizabeth Boro","u":"L","o":"individual","sf":1092,"v":2500}},{"type":"Feature","geometry":{"type":"Point","coordinates":[-79.89776,40.26232]},"properties":{"p":"1272J00275000000","a":"WALKER RD","m":"Forward","u":"L","o":"individual","sf":1488,"v":100}}]}