{"type":"FeatureCollection","features":[{"type":"Feature","geometry":{"type":"Point","coordinates":[-79.89676,40.31579]},"properties":{"p":"0657A00210000000","a":"N STATE ST","m":"1st Ward - CLAIRTON","u":"I","o":"corp","sf":4356,"v":400}},{"type":"Feature","geometry":{"type":"Point","coordinates":[-79.89632,40.31517]},"properties":{"p":"0558N00130000000","a":"RAILROAD R OF W","m":"1st Ward - CLAIRTON","u":"I","o":"corp","sf":137214,"v":22000}},{"type":"Feature","geometry":{"type":"Point","coordinates":[-79.8989,40.31846]},"properties":{"p":"0558N00042000001","a":"N STATE ST","m":"1st Ward - CLAIRTON","u":"I","o":"corp","sf":6011,"v":13900}},{"type":"Feature","geometry":{"type":"Point","coordinates":[-79.88452,40.31027]},"properties":{"p":"0657S00100000000","a":"STATE ST","m":"2nd Ward - CLAIRTON","u":"I","o":"corp","sf":73529,"v":2500}},{"type":"Feature","geometry":{"type":"Point","coordinates":[-79.89301,40.3206]},"properties":{"p":"0558K00061000000","a":"9TH ST","m":"Glassport","u":"I","o":"corp","sf":51270,"v":24000}},{"type":"Feature","geometry":{"type":"Point","coordinates":[-79.8992,40.31946]},"properties":{"p":"0558J00003000000","a":"OLD NEW ENGLAND RD","m":"Jefferson Hills","u":"I","o":"corp","sf":21170,"v":11067}},{"type":"Feature","geometry":{"type":"Point","coordinates":[-79.89709,40.31542]},"properties":{"p":"0657A00130000000","a":"NEW JERSEY AVE","m":"1st Ward - CLAIRTON","u":"C","o":"individual","sf":1560,"v":300}},{"type":"Feature","geometry":{"type":"Point","coordinates":[-79.89782,40.3168]},"properties":{"p":"0657A00169000000","a":"N STATE ST","m":"1st Ward - CLAIRTON","u":"C","o":"corp","sf":4389,"v":17300}},{"type":"Feature","geometry":{"type":"Point","coordinates":[-79.89528,40.31327]},"properties":{"p":"0657E00030000000","a":"N STATE ST","m":"1st Ward - CLAIRTON","u":"C","o":"individual","sf":44136,"v":91400}},{"type":"Feature","geometry":{"type":"Point","coordinates":[-79.89612,40.31419]},"properties":{"p":"0657E00038000000","a":"N STATE ST","m":"1st Ward - CLAIRTON","u":"C","o":"individual","sf":17985,"v":42600}},{"type":"Feature","geometry":{"type":"Point","coordinates":[-79.89634,40.31447]},"properties":{"p":"0657E00043000000","a":"N STATE ST","m":"1st Ward - CLAIRTON","u":"C","o":"individual","sf":3025,"v":600}},{"type":"Feature","geometry":{"type":"Point","coordinates":[-79.89792,40.31707]},"properties":{"p":"0558N00072000000","a":"N STATE ST","m":"1st Ward - CLAIRTON","u":"C","o":"individual","sf":7989,"v":24000}},{"type":"Feature","geometry":{"type":"Point","coordinates":[-79.89827,40.31767]},"properties":{"p":"0558N00062000000","a":"N STATE ST","m":"1st Ward - CLAIRTON","u":"C","o":"individual","sf":13939,"v":35100}},{"type":"Feature","geometry":{"type":"Point","coordinates":[-79.89639,40.31461]},"properties":{"p":"0657A00110000000","a":"N STATE ST","m":"1st Ward - CLAIRTON","u":"C","o":"individual","sf":1828,"v":12600}},{"type":"Feature","geometry":{"type":"Point","coordinates":[-79.89704,40.31535]},"properties":{"p":"0657A00128000000","a":"N STATE ST","m":"1st Ward - CLAIRTON","u":"C","o":"corp","sf":23227,"v":18000}},{"type":"Feature","geometry":{"type":"Point","coordinates":[-79.89465,40.31247]},"properties":{"p":"0657E00230000000","a":"MASSACHUSETTS AVE","m":"1st Ward - CLAIRTON","u":"C","o":"individual","sf":15691,"v":25400}},{"type":"Feature","geometry":{"type":"Point","coordinates":[-79.89275,40.32391]},"properties":{"p":"0558F00149000000","a":"MONONGAHELA AVE","m":"Glassport","u":"C","o":"individual","sf":2750,"v":12400}},{"type":"Feature","geometry":{"type":"Point","coordinates":[-79.89217,40.32576]},"properties":{"p":"0558B00084000000","a":"MONONGAHELA AVE","m":"Glassport","u":"C","o":"individual","sf":2750,"v":12400}},{"type":"Feature","geometry":{"type":"Point","coordinates":[-79.89218,40.32635]},"properties":{"p":"0558B00093000000","a":"MONONGAHELA AVE","m":"Glassport","u":"C","o":"individual","sf":5500,"v":17300}},{"type":"Feature","geometry":{"type":"Point","coordinates":[-79.89279,40.32638]},"properties":{"p":"0558B00096000000","a":"532 MONONGAHELA AVE","m":"Glassport","u":"C","o":"corp","sf":2750,"v":500}},{"type":"Feature","geometry":{"type":"Point","coordinates":[-79.89278,40.32631]},"properties":{"p":"0558B00097000000","a":"MONONGAHELA AVE","m":"Glassport","u":"C","o":"individual","sf":2750,"v":425}},{"type":"Feature","geometry":{"type":"Point","coordinates":[-79.89388,40.32249]},"properties":{"p":"0558F00275000100","a":"ALLEGHENY AVE","m":"Glassport","u":"C","o":"corp","sf":902,"v":200}},{"type":"Feature","geometry":{"type":"Point","coordinates":[-79.89216,40.32487]},"properties":{"p":"0558B00066000000","a":"MONONGAHELA AVE","m":"Glassport","u":"C","o":"corp","sf":2750,"v":700}},{"type":"Feature","geometry":{"type":"Point","coordinates":[-79.89217,40.32521]},"properties":{"p":"0558B00073000000","a":"MONONGAHELA AVE","m":"Glassport","u":"C","o":"individual","sf":2750,"v":12400}},{"type":"Feature","geometry":{"type":"Point","coordinates":[-79.89218,40.32644]},"properties":{"p":"0467P00051000000","a":"MONONGAHELA AVE","m":"Glassport","u":"C","o":"corp","sf":2750,"v":12400}},{"type":"Feature","geometry":{"type":"Point","coordinates":[-79.8928,40.32734]},"properties":{"p":"0467P00119000000","a":"MONONGAHELA AVE","m":"Glassport","u":"C","o":"individual","sf":2750,"v":2700}},{"type":"Feature","geometry":{"type":"Point","coordinates":[-79.8928,40.32723]},"properties":{"p":"0467P00122000000","a":"MONONGAHELA AVE","m":"Glassport","u":"C","o":"individual","sf":5500,"v":3600}},{"type":"Feature","geometry":{"type":"Point","coordinates":[-79.8928,40.32714]},"properties":{"p":"0467P00123000000","a":"MONONGAHELA AVE","m":"Glassport","u":"C","o":"individual","sf":2750,"v":12400}},{"type":"Feature","geometry":{"type":"Point","coordinates":[-79.89279,40.3268]},"properties":{"p":"0467P00131000000","a":"MONONGAHELA AVE","m":"Glassport","u":"C","o":"corp","sf":8232,"v":9300}},{"type":"Feature","geometry":{"type":"Point","coordinates":[-79.89276,40.32527]},"properties":{"p":"0558B00115000000","a":"MONONGAHELA AVE","m":"Glassport","u":"C","o":"individual","sf":2750,"v":12400}},{"type":"Feature","geometry":{"type":"Point","coordinates":[-79.89354,40.32449]},"properties":{"p":"0558B00500000100","a":"7TH ST","m":"Glassport","u":"C","o":"corp","sf":353,"v":100}},{"type":"Feature","geometry":{"type":"Point","coordinates":[-79.89163,40.32119]},"properties":{"p":"0558K00012000000","a":"OHIO AVE","m":"Glassport","u":"C","o":"individual","sf":5500,"v":1350}},{"type":"Feature","geometry":{"type":"Point","coordinates":[-79.8922,40.32754]},"properties":{"p":"0467P00070000000","a":"MONONGAHELA AVE","m":"Glassport","u":"C","o":"individual","sf":2750,"v":12400}},{"type":"Feature","geometry":{"type":"Point","coordinates":[-79.89219,40.32774]},"properties":{"p":"0467P00072000000","a":"MONONGAHELA AVE","m":"Glassport","u":"C","o":"individual","sf":2750,"v":12400}},{"type":"Feature","geometry":{"type":"Point","coordinates":[-79.89342,40.32974]},"properties":{"p":"0467K00060000000","a":"3RD ST","m":"Glassport","u":"C","o":"corp","sf":92922,"v":92600}},{"type":"Feature","geometry":{"type":"Point","coordinates":[-79.89166,40.32333]},"properties":{"p":"0558F00035000000","a":"OHIO AVE","m":"Glassport","u":"C","o":"individual","sf":5500,"v":14000}},{"type":"Feature","geometry":{"type":"Point","coordinates":[-79.89108,40.32233]},"properties":{"p":"0558G00167000000","a":"OHIO AVE","m":"Glassport","u":"C","o":"corp","sf":24750,"v":31300}},{"type":"Feature","geometry":{"type":"Point","coordinates":[-79.89109,40.32285]},"properties":{"p":"0558G00178000000","a":"OHIO AVE","m":"Glassport","u":"C","o":"corp","sf":5500,"v":14000}},{"type":"Feature","geometry":{"type":"Point","coordinates":[-79.88992,40.31715]},"properties":{"p":"0558R00059000000","a":"OHIO AVE","m":"Glassport","u":"C","o":"corp","sf":12463,"v":20200}},{"type":"Feature","geometry":{"type":"Point","coordinates":[-79.88495,40.32034]},"properties":{"p":"0558M00208000000","a":"ATLANTIC AVE","m":"Glassport","u":"C","o":"corp","sf":23625,"v":6700}},{"type":"Feature","geometry":{"type":"Point","coordinates":[-79.88757,40.31468]},"properties":{"p":"0657D00059000000","a":"1060 OHIO AVE","m":"Glassport","u":"C","o":"corp","sf":752629,"v":257500}},{"type":"Feature","geometry":{"type":"Point","coordinates":[-79.89312,40.31851]},"properties":{"p":"0558P00020000000","a":"1050 OHIO AVE","m":"Glassport","u":"C","o":"corp","sf":66690,"v":30700}},{"type":"Feature","geometry":{"type":"Point","coordinates":[-79.89282,40.31817]},"properties":{"p":"0558P00065000000","a":"1050 OHIO AVE","m":"Glassport","u":"C","o":"corp","sf":25051,"v":28800}},{"type":"Feature","geometry":{"type":"Point","coordinates":[-79.89852,40.32565]},"properties":{"p":"0558A00075000000","a":"DRAVOSBURG RD","m":"West Mifflin","u":"C","o":"individual","sf":81022,"v":12600}},{"type":"Feature","geometry":{"type":"Point","coordinates":[-79.89894,40.32208]},"properties":{"p":"0558J00050000000","a":"1014 CLAIRTON DRAVOSBURG RD","m":"West Mifflin","u":"C","o":"individual","sf":10019,"v":3000}},{"type":"Feature","geometry":{"type":"Point","coordinates":[-79.89943,40.31921]},"properties":{"p":"0559S00305000000","a":"NEW ENGLAND RD","m":"Jefferson Hills","u":"C","o":"corp","sf":8820,"v":28200}},{"type":"Feature","geometry":{"type":"Point","coordinates":[-79.89854,40.31383]},"properties":{"p":"0658H00040000000","a":"WALL ST","m":"Jefferson Hills","u":"C","o":"individual","sf":384469,"v":39000}},{"type":"Feature","geometry":{"type":"Point","coordinates":[-79.89275,40.32398]},"properties":{"p":"0558B00142000000","a":"706 MONONGAHELA AVE","m":"Glassport","u":"C","o":"individual","sf":2750,"v":12400}},{"type":"Feature","geometry":{"type":"Point","coordinates":[-79.88549,40.32024]},"properties":{"p":"0558M00377000000","a":"ATLANTIC AVE","m":"Glassport","u":"C","o":"corp","sf":25802,"v":7300}},{"type":"Feature","geometry":{"type":"Point","coordinates":[-79.8985,40.3179]},"properties":{"p":"0558N00058000000","a":"N STATE ST","m":"1st Ward - CLAIRTON","u":"C","o":"individual","sf":6799,"v":21800}},{"type":"Feature","geometry":{"type":"Point","coordinates":[-79.89341,40.3286]},"properties":{"p":"0467P00175000000","a":"430 OAK WAY","m":"Glassport","u":"C","o":"corp","sf":54189,"v":13500}},{"type":"Feature","geometry":{"type":"Point","coordinates":[-79.89721,40.31562]},"properties":{"p":"0657A00136000000","a":"N STATE ST","m":"1st Ward - CLAIRTON","u":"C","o":"individual","sf":6359,"v":21000}},{"type":"Feature","geometry":{"type":"Point","coordinates":[-79.89806,40.31738]},"properties":{"p":"0558N00068000000","a":"N STATE ST","m":"1st Ward - CLAIRTON","u":"C","o":"individual","sf":5800,"v":19900}},{"type":"Feature","geometry":{"type":"Point","coordinates":[-79.89276,40.32506]},"properties":{"p":"0558B00119000000","a":"MONONGAHELA AVE","m":"Glassport","u":"C","o":"individual","sf":2750,"v":12400}},{"type":"Feature","geometry":{"type":"Point","coordinates":[-79.89286,40.3299]},"properties":{"p":"0467K00154000000","a":"326 MONONGAHELA AVE","m":"Glassport","u":"C","o":"corp","sf":5500,"v":8800}},{"type":"Feature","geometry":{"type":"Point","coordinates":[-79.89754,40.3156]},"properties":{"p":"0657A00088000000","a":"N STATE ST","m":"1st Ward - CLAIRTON","u":"C","o":"individual","sf":65175,"v":13700}},{"type":"Feature","geometry":{"type":"Point","coordinates":[-79.89888,40.31701]},"properties":{"p":"0658D00006000000","a":"CLIFF ST","m":"1st Ward - CLAIRTON","u":"L","o":"individual","sf":53579,"v":4900}},{"type":"Feature","geometry":{"type":"Point","coordinates":[-79.89923,40.31242]},"properties":{"p":"0658H00004000000","a":"298 MASSACHUSETTS AVE","m":"1st Ward - CLAIRTON","u":"L","o":"individual","sf":828,"v":300}},{"type":"Feature","geometry":{"type":"Point","coordinates":[-79.89956,40.31186]},"properties":{"p":"0658M00006000000","a":"N 6TH ST","m":"1st Ward - CLAIRTON","u":"L","o":"corp","sf":8000,"v":10300}},{"type":"Feature","geometry":{"type":"Point","coordinates":[-79.89671,40.31216]},"properties":{"p":"0657E00325000000","a":"OHIO AVE","m":"1st Ward - CLAIRTON","u":"L","o":"corp","sf":7034,"v":10200}},{"type":"Feature","geometry":{"type":"Point","coordinates":[-79.89828,40.31621]},"properties":{"p":"0558N00012000000","a":"N STATE ST","m":"1st Ward - CLAIRTON","u":"L","o":"individual","sf":27543,"v":600}},{"type":"Feature","geometry":{"type":"Point","coordinates":[-79.89739,40.31596]},"properties":{"p":"0657A00146000000","a":"N STATE ST","m":"1st Ward - CLAIRTON","u":"L","o":"individual","sf":2218,"v":700}},{"type":"Feature","geometry":{"type":"Point","coordinates":[-79.89302,40.3104]},"properties":{"p":"0657K00236000000","a":"NEW JERSEY AVE","m":"1st Ward - CLAIRTON","u":"L","o":"individual","sf":272,"v":200}},{"type":"Feature","geometry":{"type":"Point","coordinates":[-79.89951,40.31816]},"properties":{"p":"0559S00058000000","a":"COAL VALLEY RD","m":"1st Ward - CLAIRTON","u":"L","o":"corp","sf":4718,"v":1400}},{"type":"Feature","geometry":{"type":"Point","coordinates":[-79.89627,40.31433]},"properties":{"p":"0657E00040000000","a":"N STATE ST","m":"1st Ward - CLAIRTON","u":"L","o":"individual","sf":1527,"v":500}},{"type":"Feature","geometry":{"type":"Point","coordinates":[-79.89683,40.31427]},"properties":{"p":"0657E00046000000","a":"N STATE ST","m":"1st Ward - CLAIRTON","u":"L","o":"individual","sf":43577,"v":4000}},{"type":"Feature","geometry":{"type":"Point","coordinates":[-79.89833,40.31243]},"properties":{"p":"0657E00303000000","a":"OHIO AVE","m":"1st Ward - CLAIRTON","u":"L","o":"corp","sf":9517,"v":10400}},{"type":"Feature","geometry":{"type":"Point","coordinates":[-79.89741,40.31232]},"properties":{"p":"0657E00317000000","a":"OHIO AVE","m":"1st Ward - CLAIRTON","u":"L","o":"individual","sf":3510,"v":1100}},{"type":"Feature","geometry":{"type":"Point","coordinates":[-79.8986,40.31271]},"properties":{"p":"0657E00292000000","a":"MASSACHUSETTS AVE","m":"1st Ward - CLAIRTON","u":"L","o":"individual","sf":11562,"v":500}},{"type":"Feature","geometry":{"type":"Point","coordinates":[-79.89869,40.31245]},"properties":{"p":"0657E00298000000","a":"293 OHIO AVE","m":"1st Ward - CLAIRTON","u":"L","o":"individual","sf":4485,"v":9500}},{"type":"Feature","geometry":{"type":"Point","coordinates":[-79.89382,40.31086]},"properties":{"p":"0657K00185000000","a":"PANSY WAY","m":"1st Ward - CLAIRTON","u":"L","o":"corp","sf":681,"v":700}},{"type":"Feature","geometry":{"type":"Point","coordinates":[-79.89389,40.31082]},"properties":{"p":"0657K00186000000","a":"PANSY WAY","m":"1st Ward - CLAIRTON","u":"L","o":"individual","sf":735,"v":300}},{"type":"Feature","geometry":{"type":"Point","coordinates":[-79.89395,40.31078]},"properties":{"p":"0657K00187000000","a":"PANSY WAY","m":"1st Ward - CLAIRTON","u":"L","o":"individual","sf":842,"v":300}},{"type":"Feature","geometry":{"type":"Point","coordinates":[-79.89408,40.31068]},"properties":{"p":"0657K00191000000","a":"PANSY WAY","m":"1st Ward - CLAIRTON","u":"L","o":"individual","sf":3265,"v":3300}},{"type":"Feature","geometry":{"type":"Point","coordinates":[-79.89712,40.3119]},"properties":{"p":"0657J00286000000","a":"OHIO AVE","m":"1st Ward - CLAIRTON","u":"L","o":"corp","sf":6422,"v":10100}},{"type":"Feature","geometry":{"type":"Point","coordinates":[-79.89442,40.31078]},"properties":{"p":"0657K00097000000","a":"NEW YORK AVE","m":"1st Ward - CLAIRTON","u":"L","o":"individual","sf":10581,"v":5500}},{"type":"Feature","geometry":{"type":"Point","coordinates":[-79.89649,40.31464]},"properties":{"p":"0657A00112000000","a":"N STATE ST","m":"1st Ward - CLAIRTON","u":"L","o":"individual","sf":1705,"v":600}},{"type":"Feature","geometry":{"type":"Point","coordinates":[-79.89654,40.31471]},"properties":{"p":"0657A00114000000","a":"N STATE ST","m":"1st Ward - CLAIRTON","u":"L","o":"individual","sf":1753,"v":600}},{"type":"Feature","geometry":{"type":"Point","coordinates":[-79.89659,40.31478]},"properties":{"p":"0657A00116000000","a":"N STATE ST","m":"1st Ward - CLAIRTON","u":"L","o":"individual","sf":1859,"v":600}},{"type":"Feature","geometry":{"type":"Point","coordinates":[-79.89684,40.31509]},"properties":{"p":"0657A00125000000","a":"N STATE ST","m":"1st Ward - CLAIRTON","u":"L","o":"individual","sf":14560,"v":10900}},{"type":"Feature","geometry":{"type":"Point","coordinates":[-79.8968,40.3136]},"properties":{"p":"0657E00101000000","a":"LINCOLN WAY","m":"1st Ward - CLAIRTON","u":"L","o":"corp","sf":218885,"v":29600}},{"type":"Feature","geometry":{"type":"Point","coordinates":[-79.88763,40.32532]},"properties":{"p":"0558C00094000000","a":"DELAWARE AVE","m":"Glassport","u":"L","o":"individual","sf":3000,"v":900}},{"type":"Feature","geometry":{"type":"Point","coordinates":[-79.88762,40.32489]},"properties":{"p":"0558C00105000000","a":"DELAWARE AVE","m":"Glassport","u":"L","o":"corp","sf":3000,"v":900}},{"type":"Feature","geometry":{"type":"Point","coordinates":[-79.88607,40.32582]},"properties":{"p":"0558D00019000000","a":"PACIFIC AVE","m":"Glassport","u":"L","o":"individual","sf":6745,"v":2000}},{"type":"Feature","geometry":{"type":"Point","coordinates":[-79.88499,40.32488]},"properties":{"p":"0558D00061000000","a":"JUNIATA AVE","m":"Glassport","u":"L","o":"individual","sf":157644,"v":1800}},{"type":"Feature","geometry":{"type":"Point","coordinates":[-79.88927,40.32674]},"properties":{"p":"0467R00096000000","a":"523 VERMONT AVE","m":"Glassport","u":"L","o":"individual","sf":3000,"v":900}},{"type":"Feature","geometry":{"type":"Point","coordinates":[-79.88432,40.32692]},"properties":{"p":"0467S00157000000","a":"WASHINGTON BLVD","m":"Glassport","u":"L","o":"individual","sf":5240,"v":1600}},{"type":"Feature","geometry":{"type":"Point","coordinates":[-79.88703,40.32519]},"properties":{"p":"0558D00363000000","a":"DELAWARE AVE","m":"Glassport","u":"L","o":"individual","sf":3000,"v":7200}},{"type":"Feature","geometry":{"type":"Point","coordinates":[-79.88582,40.32618]},"properties":{"p":"0558D00075000000","a":"JUNIATA AVE","m":"Glassport","u":"L","o":"individual","sf":10000,"v":5000}},{"type":"Feature","geometry":{"type":"Point","coordinates":[-79.88531,40.32631]},"properties":{"p":"0558D00081000000","a":"JUNIATA AVE","m":"Glassport","u":"L","o":"individual","sf":10316,"v":9500}},{"type":"Feature","geometry":{"type":"Point","coordinates":[-79.89184,40.32629]},"properties":{"p":"0558B00004000000","a":"OHIO AVE","m":"Glassport","u":"L","o":"individual","sf":1925,"v":6200}},{"type":"Feature","geometry":{"type":"Point","coordinates":[-79.89114,40.32666]},"properties":{"p":"0467R00171000000","a":"OHIO AVE","m":"Glassport","u":"L","o":"individual","sf":2750,"v":900}},{"type":"Feature","geometry":{"type":"Point","coordinates":[-79.89114,40.32727]},"properties":{"p":"0467R00183000000","a":"OHIO AVE","m":"Glassport","u":"L","o":"individual","sf":3000,"v":900}},{"type":"Feature","geometry":{"type":"Point","coordinates":[-79.88648,40.32326]},"properties":{"p":"0558H00049000000","a":"MARYLAND AVE","m":"Glassport","u":"L","o":"individual","sf":3000,"v":7200}},{"type":"Feature","geometry":{"type":"Point","coordinates":[-79.88868,40.32887]},"properties":{"p":"0467L00214000000","a":"IOWA AVE","m":"Glassport","u":"L","o":"individual","sf":2500,"v":800}},{"type":"Feature","geometry":{"type":"Point","coordinates":[-79.8882,40.32933]},"properties":{"p":"0467L00223000000","a":"IOWA AVE","m":"Glassport","u":"L","o":"individual","sf":5000,"v":1500}},{"type":"Feature","geometry":{"type":"Point","coordinates":[-79.88774,40.32916]},"properties":{"p":"0467L00290000000","a":"NEBRASKA AVE","m":"Glassport","u":"L","o":"individual","sf":3000,"v":900}},{"type":"Feature","geometry":{"type":"Point","coordinates":[-79.88779,40.32754]},"properties":{"p":"0467R00024000000","a":"SPRUCE ALY","m":"Glassport","u":"L","o":"individual","sf":2685,"v":900}},{"type":"Feature","geometry":{"type":"Point","coordinates":[-79.88815,40.32572]},"properties":{"p":"0558C00151000000","a":"INDIANA AVE","m":"Glassport","u":"L","o":"individual","sf":3000,"v":2700}},{"type":"Feature","geometry":{"type":"Point","coordinates":[-79.88349,40.32509]},"properties":{"p":"0558D00213000000","a":"WASHINGTON BLVD","m":"Glassport","u":"L","o":"individual","sf":3625,"v":1100}},{"type":"Feature","geometry":{"type":"Point","coordinates":[-79.88317,40.32453]},"properties":{"p":"0558D00222000000","a":"WASHINGTON BLVD","m":"Glassport","u":"L","o":"corp","sf":12693,"v":9700}},{"type":"Feature","geometry":{"type":"Point","coordinates":[-79.8804,40.32462]},"properties":{"p":"0557A00034000000","a":"WASHINGTON BLVD","m":"Glassport","u":"L","o":"individual","sf":17112,"v":4900}},{"type":"Feature","geometry":{"type":"Point","coordinates":[-79.8802,40.32462]},"properties":{"p":"0557A00036000000","a":"HILDA ST","m":"Glassport","u":"L","o":"individual","sf":10726,"v":3100}},{"type":"Feature","geometry":{"type":"Point","coordinates":[-79.88026,40.32502]},"properties":{"p":"0557A00041000000","a":"SCENIC ST","m":"Glassport","u":"L","o":"individual","sf":5472,"v":1600}},{"type":"Feature","geometry":{"type":"Point","coordinates":[-79.88035,40.3255]},"properties":{"p":"0557A00049000000","a":"SCENIC ST","m":"Glassport","u":"L","o":"individual","sf":3131,"v":1000}},{"type":"Feature","geometry":{"type":"Point","coordinates":[-79.88004,40.32527]},"properties":{"p":"0557A00055000000","a":"1003 CENTURY AVE","m":"Glassport","u":"L","o":"individual","sf":3000,"v":900}},{"type":"Feature","geometry":{"type":"Point","coordinates":[-79.8801,40.32532]},"properties":{"p":"0557A00056000000","a":"SCENIC ST","m":"Glassport","u":"L","o":"individual","sf":3000,"v":900}},{"type":"Feature","geometry":{"type":"Point","coordinates":[-79.89169,40.32463]},"properties":{"p":"0558B00037000000","a":"OHIO AVE","m":"Glassport","u":"L","o":"individual","sf":5500,"v":9100}},{"type":"Feature","geometry":{"type":"Point","coordinates":[-79.88816,40.32701]},"properties":{"p":"0467R00036000000","a":"INDIANA AVE","m":"Glassport","u":"L","o":"corp","sf":3000,"v":900}},{"type":"Feature","geometry":{"type":"Point","coordinates":[-79.88773,40.32879]},"properties":{"p":"0467R00349000000","a":"NEBRASKA AVE","m":"Glassport","u":"L","o":"individual","sf":5000,"v":1500}},{"type":"Feature","geometry":{"type":"Point","coordinates":[-79.88773,40.3287]},"properties":{"p":"0467R00351000000","a":"NEBRASKA AVE","m":"Glassport","u":"L","o":"individual","sf":3000,"v":900}},{"type":"Feature","geometry":{"type":"Point","coordinates":[-79.88316,40.32368]},"properties":{"p":"0558H00229000000","a":"WASHINGTON BLVD","m":"Glassport","u":"L","o":"individual","sf":13560,"v":5300}},{"type":"Feature","geometry":{"type":"Point","coordinates":[-79.8849,40.32182]},"properties":{"p":"0558H00236000000","a":"SUMMIT AVE","m":"Glassport","u":"L","o":"individual","sf":63998,"v":5900}},{"type":"Feature","geometry":{"type":"Point","coordinates":[-79.88539,40.32235]},"properties":{"p":"0558H00250000000","a":"WILSON AVE","m":"Glassport","u":"L","o":"individual","sf":42740,"v":12100}},{"type":"Feature","geometry":{"type":"Point","coordinates":[-79.8839,40.32462]},"properties":{"p":"0558D00236000000","a":"SUMMIT AVE","m":"Glassport","u":"L","o":"individual","sf":4815,"v":4300}},{"type":"Feature","geometry":{"type":"Point","coordinates":[-79.885,40.32426]},"properties":{"p":"0558D00251000000","a":"PACIFIC AVE","m":"Glassport","u":"L","o":"individual","sf":1800,"v":600}},{"type":"Feature","geometry":{"type":"Point","coordinates":[-79.8874,40.32259]},"properties":{"p":"0558G00023000000","a":"8TH ST","m":"Glassport","u":"L","o":"corp","sf":1608,"v":600}},{"type":"Feature","geometry":{"type":"Point","coordinates":[-79.88749,40.32258]},"properties":{"p":"0558G00024000001","a":"8TH ST","m":"Glassport","u":"L","o":"individual","sf":1608,"v":600}},{"type":"Feature","geometry":{"type":"Point","coordinates":[-79.88761,40.32815]},"properties":{"p":"0467R00368000000","a":"NEBRASKA AVE","m":"Glassport","u":"L","o":"individual","sf":8405,"v":2500}},{"type":"Feature","geometry":{"type":"Point","coordinates":[-79.88759,40.32305]},"properties":{"p":"0558G00368000000","a":"DELAWARE AVE","m":"Glassport","u":"L","o":"individual","sf":3000,"v":900}},{"type":"Feature","geometry":{"type":"Point","coordinates":[-79.88652,40.3254]},"properties":{"p":"0558D00335000000","a":"PEACH ALY","m":"Glassport","u":"L","o":"individual","sf":3000,"v":7200}},{"type":"Feature","geometry":{"type":"Point","coordinates":[-79.88652,40.32554]},"properties":{"p":"0558D00337000000","a":"PEACH ALY","m":"Glassport","u":"L","o":"individual","sf":3000,"v":900}},{"type":"Feature","geometry":{"type":"Point","coordinates":[-79.88652,40.3256]},"properties":{"p":"0558D00338000000","a":"PEACH ALY","m":"Glassport","u":"L","o":"individual","sf":3000,"v":900}},{"type":"Feature","geometry":{"type":"Point","coordinates":[-79.88652,40.32567]},"properties":{"p":"0558D00339000000","a":"MARYLAND AVE","m":"Glassport","u":"L","o":"individual","sf":3000,"v":900}},{"type":"Feature","geometry":{"type":"Point","coordinates":[-79.88652,40.32574]},"properties":{"p":"0558D00341000000","a":"MARYLAND AVE","m":"Glassport","u":"L","o":"individual","sf":3000,"v":900}},{"type":"Feature","geometry":{"type":"Point","coordinates":[-79.88652,40.32581]},"properties":{"p":"0558D00342000000","a":"PEACH ALY","m":"Glassport","u":"L","o":"individual","sf":3000,"v":900}},{"type":"Feature","geometry":{"type":"Point","coordinates":[-79.88654,40.32595]},"properties":{"p":"0558D00344000000","a":"MARYLAND AVE","m":"Glassport","u":"L","o":"individual","sf":3014,"v":900}},{"type":"Feature","geometry":{"type":"Point","coordinates":[-79.88668,40.32595]},"properties":{"p":"0558D00346000000","a":"6TH ST","m":"Glassport","u":"L","o":"individual","sf":2250,"v":700}},{"type":"Feature","geometry":{"type":"Point","coordinates":[-79.88684,40.32583]},"properties":{"p":"0558D00347000000","a":"6TH ST","m":"Glassport","u":"L","o":"individual","sf":2000,"v":700}},{"type":"Feature","geometry":{"type":"Point","coordinates":[-79.88692,40.32583]},"properties":{"p":"0558D00348000000","a":"6TH ST","m":"Glassport","u":"L","o":"individual","sf":2000,"v":700}},{"type":"Feature","geometry":{"type":"Point","coordinates":[-79.88764,40.3259]},"properties":{"p":"0558C00078000000","a":"602 DELAWARE AVE","m":"Glassport","u":"L","o":"corp","sf":6000,"v":1800}},{"type":"Feature","geometry":{"type":"Point","coordinates":[-79.88764,40.3258]},"properties":{"p":"0558C00080000000","a":"606 DELAWARE AVE","m":"Glassport","u":"L","o":"individual","sf":3000,"v":900}},{"type":"Feature","geometry":{"type":"Point","coordinates":[-79.88761,40.32411]},"properties":{"p":"0558C00396000000","a":"DELAWARE AVE","m":"Glassport","u":"L","o":"individual","sf":1500,"v":500}},{"type":"Feature","geometry":{"type":"Point","coordinates":[-79.88928,40.327]},"properties":{"p":"0467R00091000000","a":"VERMONT AVE","m":"Glassport","u":"L","o":"individual","sf":3000,"v":900}},{"type":"Feature","geometry":{"type":"Point","coordinates":[-79.88552,40.32837]},"properties":{"p":"0467S00106000000","a":"2034 WASHINGTON BLVD","m":"Glassport","u":"L","o":"individual","sf":3168,"v":1000}},{"type":"Feature","geometry":{"type":"Point","coordinates":[-79.88553,40.32671]},"properties":{"p":"0467S00126000000","a":"SUMMIT AVE","m":"Glassport","u":"L","o":"individual","sf":13184,"v":9700}},{"type":"Feature","geometry":{"type":"Point","coordinates":[-79.88347,40.32927]},"properties":{"p":"0467M00393000000","a":"NAOMI AVE","m":"Glassport","u":"L","o":"individual","sf":2260,"v":700}},{"type":"Feature","geometry":{"type":"Point","coordinates":[-79.88342,40.32933]},"properties":{"p":"0467M00394000000","a":"NAOMI AVE","m":"Glassport","u":"L","o":"individual","sf":10399,"v":14000}},{"type":"Feature","geometry":{"type":"Point","coordinates":[-79.88929,40.32241]},"properties":{"p":"0558G00085000000","a":"VERMONT AVE","m":"Glassport","u":"L","o":"individual","sf":1750,"v":600}},{"type":"Feature","geometry":{"type":"Point","coordinates":[-79.88907,40.32242]},"properties":{"p":"0558G00085000A00","a":"CHERRY ALY","m":"Glassport","u":"L","o":"individual","sf":1250,"v":500}},{"type":"Feature","geometry":{"type":"Point","coordinates":[-79.88645,40.32627]},"properties":{"p":"0558D00015000000","a":"PACIFIC AVE","m":"Glassport","u":"L","o":"individual","sf":2500,"v":800}},{"type":"Feature","geometry":{"type":"Point","coordinates":[-79.89285,40.32279]},"properties":{"p":"0558F00127000000","a":"OAK WAY","m":"Glassport","u":"L","o":"individual","sf":805,"v":300}},{"type":"Feature","geometry":{"type":"Point","coordinates":[-79.89285,40.32285]},"properties":{"p":"0558F00127000100","a":"OAK WAY","m":"Glassport","u":"L","o":"individual","sf":805,"v":300}},{"type":"Feature","geometry":{"type":"Point","coordinates":[-79.89285,40.32288]},"properties":{"p":"0558F00129000000","a":"OAK WAY","m":"Glassport","u":"L","o":"individual","sf":805,"v":300}},{"type":"Feature","geometry":{"type":"Point","coordinates":[-79.89049,40.32719]},"properties":{"p":"0467R00144000000","a":"530 MICHIGAN AVE","m":"Glassport","u":"L","o":"corp","sf":7200,"v":2100}},{"type":"Feature","geometry":{"type":"Point","coordinates":[-79.89049,40.32707]},"properties":{"p":"0467R00147000000","a":"530 MICHIGAN AVE","m":"Glassport","u":"L","o":"corp","sf":7200,"v":2100}},{"type":"Feature","geometry":{"type":"Point","coordinates":[-79.88418,40.32747]},"properties":{"p":"0467S00266000000","a":"2052 NAOMI AVE","m":"Glassport","u":"L","o":"individual","sf":11386,"v":14100}},{"type":"Feature","geometry":{"type":"Point","coordinates":[-79.88699,40.32299]},"properties":{"p":"0558H00031000000","a":"DELAWARE AVE","m":"Glassport","u":"L","o":"individual","sf":3000,"v":900}},{"type":"Feature","geometry":{"type":"Point","coordinates":[-79.89053,40.32886]},"properties":{"p":"0467L00072000000","a":"ERIE AVE","m":"Glassport","u":"L","o":"individual","sf":1500,"v":500}},{"type":"Feature","geometry":{"type":"Point","coordinates":[-79.89014,40.32912]},"properties":{"p":"0467L00079000000","a":"ERIE AVE","m":"Glassport","u":"L","o":"individual","sf":4043,"v":1200}},{"type":"Feature","geometry":{"type":"Point","coordinates":[-79.88995,40.32912]},"properties":{"p":"0467L00080000000","a":"ERIE AVE","m":"Glassport","u":"L","o":"individual","sf":2008,"v":700}},{"type":"Feature","geometry":{"type":"Point","coordinates":[-79.89329,40.32733]},"properties":{"p":"0467P00159000000","a":"503 ALLEGHENY AVE","m":"Glassport","u":"L","o":"individual","sf":7875,"v":2300}},{"type":"Feature","geometry":{"type":"Point","coordinates":[-79.89275,40.3235]},"properties":{"p":"0558F00140000000","a":"722 1/2 MONONGAHELA AVE","m":"Glassport","u":"L","o":"individual","sf":2750,"v":900}},{"type":"Feature","geometry":{"type":"Point","coordinates":[-79.88932,40.32283]},"properties":{"p":"0558G00296000000","a":"VERMONT AVE","m":"Glassport","u":"L","o":"individual","sf":1500,"v":500}},{"type":"Feature","geometry":{"type":"Point","coordinates":[-79.88636,40.32184]},"properties":{"p":"0558H00347000000","a":"825 PEACH ALY","m":"Glassport","u":"L","o":"individual","sf":4500,"v":2500}},{"type":"Feature","geometry":{"type":"Point","coordinates":[-79.88657,40.32184]},"properties":{"p":"0558H00348000000","a":"825 PEACH ALY","m":"Glassport","u":"L","o":"individual","sf":1500,"v":500}},{"type":"Feature","geometry":{"type":"Point","coordinates":[-79.88814,40.32524]},"properties":{"p":"0558C00140000000","a":"INDIANA AVE","m":"Glassport","u":"L","o":"individual","sf":3000,"v":900}},{"type":"Feature","geometry":{"type":"Point","coordinates":[-79.88417,40.32546]},"properties":{"p":"0558D00157000000","a":"SUMMIT AVE","m":"Glassport","u":"L","o":"individual","sf":10827,"v":9500}},{"type":"Feature","geometry":{"type":"Point","coordinates":[-79.88384,40.32593]},"properties":{"p":"0558D00193000000","a":"NAOMI AVE","m":"Glassport","u":"L","o":"individual","sf":14221,"v":14300}},{"type":"Feature","geometry":{"type":"Point","coordinates":[-79.88766,40.32705]},"properties":{"p":"0467R00014000000","a":"SPRUCE ALY","m":"Glassport","u":"L","o":"individual","sf":5400,"v":9000}},{"type":"Feature","geometry":{"type":"Point","coordinates":[-79.88866,40.32808]},"properties":{"p":"0467R00319000000","a":"428 IOWA AVE","m":"Glassport","u":"L","o":"individual","sf":5000,"v":9000}},{"type":"Feature","geometry":{"type":"Point","coordinates":[-79.88647,40.32218]},"properties":{"p":"0558H00356000000","a":"PEACH ALY","m":"Glassport","u":"L","o":"individual","sf":3000,"v":7200}},{"type":"Feature","geometry":{"type":"Point","coordinates":[-79.88758,40.32228]},"properties":{"p":"0558G00017000000","a":"DELAWARE AVE","m":"Glassport","u":"L","o":"individual","sf":1500,"v":500}},{"type":"Feature","geometry":{"type":"Point","coordinates":[-79.89169,40.3248]},"properties":{"p":"0558B00033000000","a":"OHIO AVE","m":"Glassport","u":"L","o":"individual","sf":2750,"v":900}},{"type":"Feature","geometry":{"type":"Point","coordinates":[-79.89116,40.32879]},"properties":{"p":"0467R00213000000","a":"OHIO AVE","m":"Glassport","u":"L","o":"individual","sf":3000,"v":7200}},{"type":"Feature","geometry":{"type":"Point","coordinates":[-79.89064,40.32851]},"properties":{"p":"0467R00223000000","a":"ERIE AVE","m":"Glassport","u":"L","o":"individual","sf":3000,"v":900}},{"type":"Feature","geometry":{"type":"Point","coordinates":[-79.88876,40.32701]},"properties":{"p":"0467R00062000000","a":"518 INDIANA AVE","m":"Glassport","u":"L","o":"individual","sf":3180,"v":7400}},{"type":"Feature","geometry":{"type":"Point","coordinates":[-79.88877,40.32726]},"properties":{"p":"0467R00067000000","a":"506 INDIANA AVE","m":"Glassport","u":"L","o":"individual","sf":6000,"v":4600}},{"type":"Feature","geometry":{"type":"Point","coordinates":[-79.88811,40.32318]},"properties":{"p":"0558G00349000000","a":"INDIANA AVE","m":"Glassport","u":"L","o":"corp","sf":3060,"v":7300}},{"type":"Feature","geometry":{"type":"Point","coordinates":[-79.88651,40.32526]},"properties":{"p":"0558D00332000000","a":"PEACH ALY","m":"Glassport","u":"L","o":"corp","sf":3000,"v":900}},{"type":"Feature","geometry":{"type":"Point","coordinates":[-79.88812,40.32423]},"properties":{"p":"0558C00390000100","a":"INDIANA AVE","m":"Glassport","u":"L","o":"individual","sf":3000,"v":900}},{"type":"Feature","geometry":{"type":"Point","coordinates":[-79.88602,40.32652]},"properties":{"p":"0467S00039000000","a":"OREGON AVE","m":"Glassport","u":"L","o":"corp","sf":12590,"v":9700}},{"type":"Feature","geometry":{"type":"Point","coordinates":[-79.88615,40.32745]},"properties":{"p":"0467S00051000000","a":"OREGON AVE","m":"Glassport","u":"L","o":"individual","sf":31958,"v":11400}},{"type":"Feature","geometry":{"type":"Point","coordinates":[-79.88629,40.32774]},"properties":{"p":"0467S00055000000","a":"OREGON AVE","m":"Glassport","u":"L","o":"individual","sf":33052,"v":11500}},{"type":"Feature","geometry":{"type":"Point","coordinates":[-79.88003,40.32264]},"properties":{"p":"0557E00088000000","a":"EDMUNDSON DR","m":"Glassport","u":"L","o":"individual","sf":47393,"v":4400}},{"type":"Feature","geometry":{"type":"Point","coordinates":[-79.88259,40.32275]},"properties":{"p":"0557E00246000000","a":"DETROIT AVE","m":"Glassport","u":"L","o":"individual","sf":385070,"v":11400}},{"type":"Feature","geometry":{"type":"Point","coordinates":[-79.89118,40.32982]},"properties":{"p":"0467L00018000000","a":"OHIO AVE","m":"Glassport","u":"L","o":"corp","sf":3000,"v":900}},{"type":"Feature","geometry":{"type":"Point","coordinates":[-79.88851,40.32256]},"properties":{"p":"0558G00075000000","a":"8TH ST","m":"Glassport","u":"L","o":"individual","sf":1608,"v":600}},{"type":"Feature","geometry":{"type":"Point","coordinates":[-79.887,40.32373]},"properties":{"p":"0558H00009000000","a":"DELAWARE AVE","m":"Glassport","u":"L","o":"individual","sf":3000,"v":900}},{"type":"Feature","geometry":{"type":"Point","coordinates":[-79.88703,40.325]},"properties":{"p":"0558D00367000000","a":"DELAWARE AVE","m":"Glassport","u":"L","o":"individual","sf":6000,"v":9100}},{"type":"Feature","geometry":{"type":"Point","coordinates":[-79.88999,40.32653]},"properties":{"p":"0467R00106000000","a":"VERMONT AVE","m":"Glassport","u":"L","o":"corp","sf":1250,"v":500}},{"type":"Feature","geometry":{"type":"Point","coordinates":[-79.88999,40.32728]},"properties":{"p":"0467R00123000000","a":"CYPRESS ALY","m":"Glassport","u":"L","o":"individual","sf":1500,"v":5900}},{"type":"Feature","geometry":{"type":"Point","coordinates":[-79.88702,40.32466]},"properties":{"p":"0558D00374000000","a":"641 DELAWARE AVE","m":"Glassport","u":"L","o":"individual","sf":6000,"v":1800}},{"type":"Feature","geometry":{"type":"Point","coordinates":[-79.88493,40.32561]},"properties":{"p":"0558D00132000000","a":"SUMMIT AVE","m":"Glassport","u":"L","o":"individual","sf":7676,"v":2300}},{"type":"Feature","geometry":{"type":"Point","coordinates":[-79.88388,40.32865]},"properties":{"p":"0467S00239000000","a":"2036 NAOMI AVE","m":"Glassport","u":"L","o":"individual","sf":13659,"v":14300}},{"type":"Feature","geometry":{"type":"Point","coordinates":[-79.88399,40.32819]},"properties":{"p":"0467S00249000000","a":"NAOMI AVE","m":"Glassport","u":"L","o":"individual","sf":5380,"v":6800}},{"type":"Feature","geometry":{"type":"Point","coordinates":[-79.88404,40.32799]},"properties":{"p":"0467S00256000000","a":"NAOMI AVE","m":"Glassport","u":"L","o":"individual","sf":15370,"v":14400}},{"type":"Feature","geometry":{"type":"Point","coordinates":[-79.8917,40.32563]},"properties":{"p":"0558B00017000000","a":"OHIO AVE","m":"Glassport","u":"L","o":"individual","sf":2750,"v":7000}},{"type":"Feature","geometry":{"type":"Point","coordinates":[-79.88754,40.31932]},"properties":{"p":"0558L00006000000","a":"DELAWARE AVE","m":"Glassport","u":"L","o":"individual","sf":3000,"v":2700}},{"type":"Feature","geometry":{"type":"Point","coordinates":[-79.88754,40.31937]},"properties":{"p":"0558L00007000000","a":"DELAWARE AVE","m":"Glassport","u":"L","o":"individual","sf":1200,"v":400}},{"type":"Feature","geometry":{"type":"Point","coordinates":[-79.88871,40.32387]},"properties":{"p":"0558G00323000000","a":"INDIANA AVE","m":"Glassport","u":"L","o":"individual","sf":3000,"v":600}},{"type":"Feature","geometry":{"type":"Point","coordinates":[-79.88873,40.32537]},"properties":{"p":"0558C00175000000","a":"INDIANA AVE","m":"Glassport","u":"L","o":"individual","sf":3000,"v":7200}},{"type":"Feature","geometry":{"type":"Point","coordinates":[-79.88873,40.32527]},"properties":{"p":"0558C00178000000","a":"INDIANA AVE","m":"Glassport","u":"L","o":"individual","sf":6000,"v":9100}},{"type":"Feature","geometry":{"type":"Point","coordinates":[-79.88873,40.3251]},"properties":{"p":"0558C00182000000","a":"INDIANA AVE","m":"Glassport","u":"L","o":"individual","sf":3000,"v":900}},{"type":"Feature","geometry":{"type":"Point","coordinates":[-79.88072,40.326]},"properties":{"p":"0557A00140000000","a":"HIGH ST","m":"Glassport","u":"L","o":"individual","sf":19740,"v":10300}},{"type":"Feature","geometry":{"type":"Point","coordinates":[-79.88712,40.32774]},"properties":{"p":"0467R00386000000","a":"PINE ALY","m":"Glassport","u":"L","o":"individual","sf":500,"v":200}},{"type":"Feature","geometry":{"type":"Point","coordinates":[-79.88728,40.32757]},"properties":{"p":"0467R00388000000","a":"PACIFIC AVE","m":"Glassport","u":"L","o":"individual","sf":3450,"v":1100}},{"type":"Feature","geometry":{"type":"Point","coordinates":[-79.88811,40.32392]},"properties":{"p":"0558G00329000000","a":"INDIANA AVE","m":"Glassport","u":"L","o":"individual","sf":6000,"v":4600}},{"type":"Feature","geometry":{"type":"Point","coordinates":[-79.88756,40.31943]},"properties":{"p":"0558L00008000000","a":"DELAWARE AVE","m":"Glassport","u":"L","o":"individual","sf":4200,"v":1300}},{"type":"Feature","geometry":{"type":"Point","coordinates":[-79.88902,40.31925]},"properties":{"p":"0558L00020000000","a":"BROADWAY AVE","m":"Glassport","u":"L","o":"individual","sf":688,"v":300}},{"type":"Feature","geometry":{"type":"Point","coordinates":[-79.88526,40.32452]},"properties":{"p":"0558D00255000000","a":"PACIFIC AVE","m":"Glassport","u":"L","o":"individual","sf":2280,"v":700}},{"type":"Feature","geometry":{"type":"Point","coordinates":[-79.88602,40.32546]},"properties":{"p":"0558D00269000000","a":"PACIFIC AVE","m":"Glassport","u":"L","o":"individual","sf":37557,"v":7400}},{"type":"Feature","geometry":{"type":"Point","coordinates":[-79.88579,40.32421]},"properties":{"p":"0558D00297000000","a":"7TH ST","m":"Glassport","u":"L","o":"individual","sf":4000,"v":1200}},{"type":"Feature","geometry":{"type":"Point","coordinates":[-79.88601,40.32424]},"properties":{"p":"0558D00307000000","a":"MARYLAND AVE","m":"Glassport","u":"L","o":"individual","sf":5340,"v":1600}},{"type":"Feature","geometry":{"type":"Point","coordinates":[-79.8865,40.32409]},"properties":{"p":"0558D00312000000","a":"PEACH ALY","m":"Glassport","u":"L","o":"individual","sf":3000,"v":7200}},{"type":"Feature","geometry":{"type":"Point","coordinates":[-79.88006,40.32628]},"properties":{"p":"0557A00145000000","a":"HIGH ST","m":"Glassport","u":"L","o":"individual","sf":16335,"v":4700}},{"type":"Feature","geometry":{"type":"Point","coordinates":[-79.88721,40.32697]},"properties":{"p":"0467S00008000000","a":"DELAWARE AVE","m":"Glassport","u":"L","o":"individual","sf":13678,"v":9800}},{"type":"Feature","geometry":{"type":"Point","coordinates":[-79.88692,40.32709]},"properties":{"p":"0467S00021000000","a":"PACIFIC AVE","m":"Glassport","u":"L","o":"individual","sf":16160,"v":10000}},{"type":"Feature","geometry":{"type":"Point","coordinates":[-79.88572,40.32901]},"properties":{"p":"0467M00284000000","a":"PRIVATE RD","m":"Glassport","u":"L","o":"individual","sf":10000,"v":9500}},{"type":"Feature","geometry":{"type":"Point","coordinates":[-79.88491,40.32999]},"properties":{"p":"0467M00305000000","a":"WASHINGTON BLVD","m":"Glassport","u":"L","o":"individual","sf":10624,"v":9500}},{"type":"Feature","geometry":{"type":"Point","coordinates":[-79.88703,40.32553]},"properties":{"p":"0558D00357000000","a":"615 DELAWARE AVE","m":"Glassport","u":"L","o":"individual","sf":3000,"v":7200}},{"type":"Feature","geometry":{"type":"Point","coordinates":[-79.89218,40.32658]},"properties":{"p":"0467P00053000000","a":"MONONGAHELA AVE","m":"Glassport","u":"L","o":"corp","sf":2369,"v":800}},{"type":"Feature","geometry":{"type":"Point","coordinates":[-79.89218,40.32665]},"properties":{"p":"0467P00054000000","a":"MONONGAHELA AVE","m":"Glassport","u":"L","o":"corp","sf":3071,"v":1000}},{"type":"Feature","geometry":{"type":"Point","coordinates":[-79.89219,40.32685]},"properties":{"p":"0467P00058000000","a":"519 MONONGAHELA AVE","m":"Glassport","u":"L","o":"corp","sf":2750,"v":2500}},{"type":"Feature","geometry":{"type":"Point","coordinates":[-79.89012,40.32792]},"properties":{"p":"0467R00241000000","a":"ERIE AVE","m":"Glassport","u":"L","o":"individual","sf":1502,"v":500}},{"type":"Feature","geometry":{"type":"Point","coordinates":[-79.88489,40.32332]},"properties":{"p":"0558H00286000000","a":"EDNA ST","m":"Glassport","u":"L","o":"individual","sf":16505,"v":4700}},{"type":"Feature","geometry":{"type":"Point","coordinates":[-79.88591,40.3222]},"properties":{"p":"0558H00335000000","a":"MARYLAND AVE","m":"Glassport","u":"L","o":"individual","sf":23040,"v":10600}},{"type":"Feature","geometry":{"type":"Point","coordinates":[-79.88603,40.32143]},"properties":{"p":"0558H00342000000","a":"MARYLAND AVE","m":"Glassport","u":"L","o":"individual","sf":6939,"v":2000}},{"type":"Feature","geometry":{"type":"Point","coordinates":[-79.88912,40.32948]},"properties":{"p":"0467L00160000000","a":"335 EUCLID AVE","m":"Glassport","u":"L","o":"individual","sf":2500,"v":800}},{"type":"Feature","geometry":{"type":"Point","coordinates":[-79.89007,40.32833]},"properties":{"p":"0467R00248000000","a":"ERIE AVE","m":"Glassport","u":"L","o":"individual","sf":2750,"v":900}},{"type":"Feature","geometry":{"type":"Point","coordinates":[-79.88195,40.32527]},"properties":{"p":"0557A00232000000","a":"SCENIC ST","m":"Glassport","u":"L","o":"individual","sf":13000,"v":5200}},{"type":"Feature","geometry":{"type":"Point","coordinates":[-79.88263,40.32534]},"properties":{"p":"0557A00240000000","a":"SCENIC ST","m":"Glassport","u":"L","o":"individual","sf":13000,"v":9700}},{"type":"Feature","geometry":{"type":"Point","coordinates":[-79.89107,40.3213]},"properties":{"p":"0558L00073000000","a":"MICHIGAN AVE","m":"Glassport","u":"L","o":"individual","sf":2750,"v":900}},{"type":"Feature","geometry":{"type":"Point","coordinates":[-79.89107,40.32135]},"properties":{"p":"0558L00074000000","a":"OHIO AVE","m":"Glassport","u":"L","o":"individual","sf":1430,"v":500}},{"type":"Feature","geometry":{"type":"Point","coordinates":[-79.89175,40.32254]},"properties":{"p":"0558F00022000000","a":"HEMLOCK ALY","m":"Glassport","u":"L","o":"individual","sf":1375,"v":500}},{"type":"Feature","geometry":{"type":"Point","coordinates":[-79.89166,40.32303]},"properties":{"p":"0558F00030000000","a":"OHIO AVE","m":"Glassport","u":"L","o":"individual","sf":2750,"v":7000}},{"type":"Feature","geometry":{"type":"Point","coordinates":[-79.89113,40.32618]},"properties":{"p":"0558C00007000000","a":"543 OHIO AVE","m":"Glassport","u":"L","o":"individual","sf":5500,"v":1600}},{"type":"Feature","geometry":{"type":"Point","coordinates":[-79.88582,40.32387]},"properties":{"p":"0558H00098000000","a":"WILSON AVE","m":"Glassport","u":"L","o":"individual","sf":3600,"v":7700}},{"type":"Feature","geometry":{"type":"Point","coordinates":[-79.8839,40.32191]},"properties":{"p":"0558H00150000003","a":"WILSON AVE","m":"Glassport","u":"L","o":"individual","sf":127195,"v":8800}},{"type":"Feature","geometry":{"type":"Point","coordinates":[-79.89225,40.3295]},"properties":{"p":"0467K00175000000","a":"MONONGAHELA AVE","m":"Glassport","u":"L","o":"individual","sf":550,"v":300}},{"type":"Feature","geometry":{"type":"Point","coordinates":[-79.88445,40.32363]},"properties":{"p":"0558H00202000000","a":"SUMMIT ST","m":"Glassport","u":"L","o":"individual","sf":2125,"v":700}},{"type":"Feature","geometry":{"type":"Point","coordinates":[-79.88963,40.32928]},"properties":{"p":"0467L00140000000","a":"EUCLID AVE","m":"Glassport","u":"L","o":"individual","sf":2500,"v":6800}},{"type":"Feature","geometry":{"type":"Point","coordinates":[-79.89219,40.32823]},"properties":{"p":"0467P00081000000","a":"423 MONONGAHELA AVE","m":"Glassport","u":"L","o":"corp","sf":2750,"v":900}},{"type":"Feature","geometry":{"type":"Point","coordinates":[-79.88962,40.32819]},"properties":{"p":"0467R00272000000","a":"EUCLID AVE","m":"Glassport","u":"L","o":"individual","sf":2500,"v":800}},{"type":"Feature","geometry":{"type":"Point","coordinates":[-79.88952,40.32784]},"properties":{"p":"0467R00281000000","a":"5TH ST","m":"Glassport","u":"L","o":"individual","sf":3750,"v":7900}},{"type":"Feature","geometry":{"type":"Point","coordinates":[-79.88242,40.32441]},"properties":{"p":"0557A00309000000","a":"WASHINGTON BLVD","m":"Glassport","u":"L","o":"individual","sf":5800,"v":1700}},{"type":"Feature","geometry":{"type":"Point","coordinates":[-79.8826,40.32445]},"properties":{"p":"0557A00311000000","a":"WASHINGTON BLVD","m":"Glassport","u":"L","o":"individual","sf":5000,"v":1500}},{"type":"Feature","geometry":{"type":"Point","coordinates":[-79.88276,40.32448]},"properties":{"p":"0557A00313000000","a":"WASHINGTON BLVD","m":"Glassport","u":"L","o":"individual","sf":4050,"v":1200}},{"type":"Feature","geometry":{"type":"Point","coordinates":[-79.88252,40.3241]},"properties":{"p":"0557A00329000000","a":"NAOMI AVE","m":"Glassport","u":"L","o":"individual","sf":54345,"v":18000}},{"type":"Feature","geometry":{"type":"Point","coordinates":[-79.89321,40.3252]},"properties":{"p":"0558B00168000000","a":"ALLEGHENY AVE","m":"Glassport","u":"L","o":"individual","sf":4500,"v":1400}},{"type":"Feature","geometry":{"type":"Point","coordinates":[-79.88649,40.3234]},"properties":{"p":"0558H00055000000","a":"PEACH ALY","m":"Glassport","u":"L","o":"individual","sf":3000,"v":7200}},{"type":"Feature","geometry":{"type":"Point","coordinates":[-79.88649,40.32348]},"properties":{"p":"0558H00057000000","a":"MARYLAND AVE","m":"Glassport","u":"L","o":"individual","sf":3000,"v":900}},{"type":"Feature","geometry":{"type":"Point","coordinates":[-79.88649,40.32357]},"properties":{"p":"0558H00059000000","a":"MARYLAND AVE","m":"Glassport","u":"L","o":"individual","sf":5400,"v":1600}},{"type":"Feature","geometry":{"type":"Point","coordinates":[-79.88649,40.32371]},"properties":{"p":"0558H00063000000","a":"PEACH ALY","m":"Glassport","u":"L","o":"corp","sf":6600,"v":2000}},{"type":"Feature","geometry":{"type":"Point","coordinates":[-79.8865,40.32382]},"properties":{"p":"0558H00067000000","a":"PEACH ALY","m":"Glassport","u":"L","o":"individual","sf":3000,"v":900}},{"type":"Feature","geometry":{"type":"Point","coordinates":[-79.8865,40.32388]},"properties":{"p":"0558H00069000000","a":"12TH ST","m":"Glassport","u":"L","o":"individual","sf":3000,"v":900}},{"type":"Feature","geometry":{"type":"Point","coordinates":[-79.8865,40.32395]},"properties":{"p":"0558H00071000000","a":"MARYLAND AVE","m":"Glassport","u":"L","o":"individual","sf":6000,"v":9100}},{"type":"Feature","geometry":{"type":"Point","coordinates":[-79.88604,40.32386]},"properties":{"p":"0558H00075000000","a":"MARYLAND AVE","m":"Glassport","u":"L","o":"individual","sf":6600,"v":2000}},{"type":"Feature","geometry":{"type":"Point","coordinates":[-79.8911,40.32371]},"properties":{"p":"0558G00201000000","a":"OHIO AVE","m":"Glassport","u":"L","o":"individual","sf":2750,"v":900}},{"type":"Feature","geometry":{"type":"Point","coordinates":[-79.88962,40.32846]},"properties":{"p":"0467R00267000000","a":"EUCLID AVE","m":"Glassport","u":"L","o":"individual","sf":2500,"v":800}},{"type":"Feature","geometry":{"type":"Point","coordinates":[-79.8831,40.32538]},"properties":{"p":"0557A00244000000","a":"SCENIC ST","m":"Glassport","u":"L","o":"individual","sf":6500,"v":1900}},{"type":"Feature","geometry":{"type":"Point","coordinates":[-79.88313,40.32496]},"properties":{"p":"0557A00246000000","a":"WASHINGTON BLVD","m":"Glassport","u":"L","o":"individual","sf":7000,"v":2100}},{"type":"Feature","geometry":{"type":"Point","coordinates":[-79.8815,40.32485]},"properties":{"p":"0557A00261000000","a":"WASHINGTON BLVD","m":"Glassport","u":"L","o":"individual","sf":15592,"v":4500}},{"type":"Feature","geometry":{"type":"Point","coordinates":[-79.88068,40.32379]},"properties":{"p":"0557A00293000000","a":"WASHINGTON BLVD","m":"Glassport","u":"L","o":"individual","sf":76230,"v":500}},{"type":"Feature","geometry":{"type":"Point","coordinates":[-79.89322,40.32685]},"properties":{"p":"0467P00151000000","a":"525 ALLEGHENY AVE","m":"Glassport","u":"L","o":"individual","sf":2250,"v":700}},{"type":"Feature","geometry":{"type":"Point","coordinates":[-79.8932,40.32447]},"properties":{"p":"0558B00154000000","a":"639 ALLEGHENY AVE","m":"Glassport","u":"L","o":"individual","sf":4500,"v":8600}},{"type":"Feature","geometry":{"type":"Point","coordinates":[-79.8932,40.32471]},"properties":{"p":"0558B00159000000","a":"ALLEGHENY AVE","m":"Glassport","u":"L","o":"corp","sf":2250,"v":25500}},{"type":"Feature","geometry":{"type":"Point","coordinates":[-79.88912,40.32875]},"properties":{"p":"0467R00301000000","a":"411 EUCLID AVE","m":"Glassport","u":"L","o":"individual","sf":1250,"v":500}},{"type":"Feature","geometry":{"type":"Point","coordinates":[-79.88867,40.32853]},"properties":{"p":"0467R00311000000","a":"IOWA AVE","m":"Glassport","u":"L","o":"corp","sf":2500,"v":800}},{"type":"Feature","geometry":{"type":"Point","coordinates":[-79.89026,40.32591]},"properties":{"p":"0558C00319000000","a":"6TH ST","m":"Glassport","u":"L","o":"corp","sf":3120,"v":1000}},{"type":"Feature","geometry":{"type":"Point","coordinates":[-79.89167,40.32361]},"properties":{"p":"0558F00040000000","a":"OHIO AVE","m":"Glassport","u":"L","o":"individual","sf":5500,"v":1600}},{"type":"Feature","geometry":{"type":"Point","coordinates":[-79.88997,40.32639]},"properties":{"p":"0558C00019000000","a":"CYPRESS ALY","m":"Glassport","u":"L","o":"individual","sf":1500,"v":500}},{"type":"Feature","geometry":{"type":"Point","coordinates":[-79.89173,40.32651]},"properties":{"p":"0467P00043000000","a":"OHIO AVE","m":"Glassport","u":"L","o":"individual","sf":2750,"v":900}},{"type":"Feature","geometry":{"type":"Point","coordinates":[-79.89107,40.32159]},"properties":{"p":"0558G00157000000","a":"OHIO AVE","m":"Glassport","u":"L","o":"corp","sf":2750,"v":900}},{"type":"Feature","geometry":{"type":"Point","coordinates":[-79.88424,40.32238]},"properties":{"p":"0558H00252000000","a":"SUMMIT AVE","m":"Glassport","u":"L","o":"individual","sf":45176,"v":4200}},{"type":"Feature","geometry":{"type":"Point","coordinates":[-79.88488,40.32277]},"properties":{"p":"0558H00280000000","a":"EDNA ST","m":"Glassport","u":"L","o":"individual","sf":27068,"v":7700}},{"type":"Feature","geometry":{"type":"Point","coordinates":[-79.88923,40.3242]},"properties":{"p":"0558C00378000000","a":"VERMONT AVE","m":"Glassport","u":"L","o":"individual","sf":3000,"v":7200}},{"type":"Feature","geometry":{"type":"Point","coordinates":[-79.88923,40.32413]},"properties":{"p":"0558C00379000000","a":"707 VERMONT AVE","m":"Glassport","u":"L","o":"individual","sf":3000,"v":7200}},{"type":"Feature","geometry":{"type":"Point","coordinates":[-79.88695,40.32017]},"properties":{"p":"0558M00091000000","a":"DELAWARE AVE","m":"Glassport","u":"L","o":"individual","sf":3000,"v":7200}},{"type":"Feature","geometry":{"type":"Point","coordinates":[-79.8848,40.31979]},"properties":{"p":"0558M00100000000","a":"DELAWARE AVE","m":"Glassport","u":"L","o":"individual","sf":142877,"v":21700}},{"type":"Feature","geometry":{"type":"Point","coordinates":[-79.88729,40.31831]},"properties":{"p":"0558S00007000000","a":"DELAWARE AVE","m":"Glassport","u":"L","o":"individual","sf":3000,"v":900}},{"type":"Feature","geometry":{"type":"Point","coordinates":[-79.8856,40.31803]},"properties":{"p":"0558S00101000000","a":"MINNESOTA AVE","m":"Glassport","u":"L","o":"individual","sf":5500,"v":1600}},{"type":"Feature","geometry":{"type":"Point","coordinates":[-79.88866,40.32085]},"properties":{"p":"0558L00299000000","a":"INDIANA AVE","m":"Glassport","u":"L","o":"individual","sf":3000,"v":900}},{"type":"Feature","geometry":{"type":"Point","coordinates":[-79.88562,40.31812]},"properties":{"p":"0558S00103000000","a":"MINNESOTA AVE","m":"Glassport","u":"L","o":"individual","sf":2750,"v":900}},{"type":"Feature","geometry":{"type":"Point","coordinates":[-79.88565,40.31826]},"properties":{"p":"0558S00108000000","a":"MINNESOTA AVE","m":"Glassport","u":"L","o":"individual","sf":8250,"v":2400}},{"type":"Feature","geometry":{"type":"Point","coordinates":[-79.88568,40.31839]},"properties":{"p":"0558S00110000000","a":"MINNESOTA AVE","m":"Glassport","u":"L","o":"individual","sf":2750,"v":900}},{"type":"Feature","geometry":{"type":"Point","coordinates":[-79.88919,40.32122]},"properties":{"p":"0558L00224000000","a":"839 VERMONT AVE","m":"Glassport","u":"L","o":"individual","sf":6000,"v":9100}},{"type":"Feature","geometry":{"type":"Point","coordinates":[-79.88866,40.32095]},"properties":{"p":"0558L00301000000","a":"INDIANA AVE","m":"Glassport","u":"L","o":"individual","sf":6000,"v":9100}},{"type":"Feature","geometry":{"type":"Point","coordinates":[-79.88534,40.3167]},"properties":{"p":"0657D00320000000","a":"MINNESOTA AVE","m":"Glassport","u":"L","o":"individual","sf":7161,"v":2100}},{"type":"Feature","geometry":{"type":"Point","coordinates":[-79.88643,40.31605]},"properties":{"p":"0657D00340000000","a":"BRIDGE ST","m":"Glassport","u":"L","o":"individual","sf":6250,"v":1900}},{"type":"Feature","geometry":{"type":"Point","coordinates":[-79.88805,40.31986]},"properties":{"p":"0558L00351000000","a":"933 INDIANA AVE","m":"Glassport","u":"L","o":"corp","sf":3000,"v":900}},{"type":"Feature","geometry":{"type":"Point","coordinates":[-79.88755,40.3201]},"properties":{"p":"0558L00366000000","a":"DELAWARE AVE","m":"Glassport","u":"L","o":"individual","sf":6600,"v":2000}},{"type":"Feature","geometry":{"type":"Point","coordinates":[-79.88275,40.3157]},"properties":{"p":"0656A00026000000","a":"DELAWARE AVE","m":"Glassport","u":"L","o":"individual","sf":66690,"v":14700}},{"type":"Feature","geometry":{"type":"Point","coordinates":[-79.88278,40.31474]},"properties":{"p":"0656A00060000000","a":"DELAWARE AVE","m":"Glassport","u":"L","o":"individual","sf":120051,"v":19600}},{"type":"Feature","geometry":{"type":"Point","coordinates":[-79.88646,40.32163]},"properties":{"p":"0558M00023000000","a":"825 PEACH AVE","m":"Glassport","u":"L","o":"individual","sf":2400,"v":800}},{"type":"Feature","geometry":{"type":"Point","coordinates":[-79.88557,40.3212]},"properties":{"p":"0558M00056000000","a":"SUMMIT ST","m":"Glassport","u":"L","o":"individual","sf":61420,"v":14200}},{"type":"Feature","geometry":{"type":"Point","coordinates":[-79.8863,40.32089]},"properties":{"p":"0558M00057000000","a":"9TH ST","m":"Glassport","u":"L","o":"individual","sf":3125,"v":7300}},{"type":"Feature","geometry":{"type":"Point","coordinates":[-79.88643,40.32089]},"properties":{"p":"0558M00059000000","a":"PEACH ALY","m":"Glassport","u":"L","o":"individual","sf":6250,"v":1900}},{"type":"Feature","geometry":{"type":"Point","coordinates":[-79.88487,40.31931]},"properties":{"p":"0558M00358000000","a":"ATLANTIC AVE","m":"Glassport","u":"L","o":"individual","sf":16500,"v":10000}},{"type":"Feature","geometry":{"type":"Point","coordinates":[-79.88979,40.32152]},"properties":{"p":"0558L00213000000","a":"VERMONT AVE","m":"Glassport","u":"L","o":"individual","sf":3000,"v":900}},{"type":"Feature","geometry":{"type":"Point","coordinates":[-79.88403,40.31811]},"properties":{"p":"0558S00223000000","a":"VIRGINIA AVE","m":"Glassport","u":"L","o":"individual","sf":22445,"v":10600}},{"type":"Feature","geometry":{"type":"Point","coordinates":[-79.88501,40.31762]},"properties":{"p":"0558S00351000000","a":"ATLANTIC AVE","m":"Glassport","u":"L","o":"individual","sf":5375,"v":1600}},{"type":"Feature","geometry":{"type":"Point","coordinates":[-79.88536,40.31707]},"properties":{"p":"0558S00360000000","a":"MINNESOTA AVE","m":"Glassport","u":"L","o":"individual","sf":5722,"v":1700}},{"type":"Feature","geometry":{"type":"Point","coordinates":[-79.88806,40.32024]},"properties":{"p":"0558L00342000000","a":"INDIANA AVE","m":"Glassport","u":"L","o":"individual","sf":3000,"v":900}},{"type":"Feature","geometry":{"type":"Point","coordinates":[-79.88832,40.31787]},"properties":{"p":"0558R00277000000","a":"INDIANA AVE","m":"Glassport","u":"L","o":"individual","sf":1500,"v":500}},{"type":"Feature","geometry":{"type":"Point","coordinates":[-79.88928,40.31648]},"properties":{"p":"0657C00113000000","a":"1113 OHIO AVE","m":"Glassport","u":"L","o":"corp","sf":4388,"v":1300}},{"type":"Feature","geometry":{"type":"Point","coordinates":[-79.8894,40.31657]},"properties":{"p":"0657C00115000000","a":"1113 OHIO AVE","m":"Glassport","u":"L","o":"corp","sf":2569,"v":800}},{"type":"Feature","geometry":{"type":"Point","coordinates":[-79.88948,40.31663]},"properties":{"p":"0657C00117000000","a":"1113 OHIO AVE","m":"Glassport","u":"L","o":"corp","sf":2811,"v":900}},{"type":"Feature","geometry":{"type":"Point","coordinates":[-79.8833,40.31583]},"properties":{"p":"0657D00027000000","a":"DELAWARE AVE","m":"Glassport","u":"L","o":"corp","sf":74052,"v":15300}},{"type":"Feature","geometry":{"type":"Point","coordinates":[-79.88447,40.31536]},"properties":{"p":"0657D00164000000","a":"ELIZABETH RD","m":"Glassport","u":"L","o":"corp","sf":226948,"v":28800}},{"type":"Feature","geometry":{"type":"Point","coordinates":[-79.88696,40.32141]},"properties":{"p":"0558M00005000000","a":"DELAWARE AVE","m":"Glassport","u":"L","o":"individual","sf":3000,"v":7200}},{"type":"Feature","geometry":{"type":"Point","coordinates":[-79.88769,40.31774]},"properties":{"p":"0558R00330000000","a":"INDIANA AVE","m":"Glassport","u":"L","o":"individual","sf":6000,"v":9100}},{"type":"Feature","geometry":{"type":"Point","coordinates":[-79.88975,40.32036]},"properties":{"p":"0558L00188000000","a":"916 VERMONT AVE","m":"Glassport","u":"L","o":"individual","sf":2750,"v":900}},{"type":"Feature","geometry":{"type":"Point","coordinates":[-79.88662,40.31999]},"properties":{"p":"0558M00105000000","a":"DETROIT AVE","m":"Glassport","u":"L","o":"individual","sf":3971,"v":1200}},{"type":"Feature","geometry":{"type":"Point","coordinates":[-79.88643,40.32]},"properties":{"p":"0558M00109000000","a":"DETROIT AVE","m":"Glassport","u":"L","o":"individual","sf":3771,"v":7900}},{"type":"Feature","geometry":{"type":"Point","coordinates":[-79.88634,40.32001]},"properties":{"p":"0558M00111000000","a":"DETROIT AVE","m":"Glassport","u":"L","o":"individual","sf":3668,"v":7800}},{"type":"Feature","geometry":{"type":"Point","coordinates":[-79.88616,40.32011]},"properties":{"p":"0558M00113000000","a":"DETROIT AVE","m":"Glassport","u":"L","o":"individual","sf":11940,"v":9600}},{"type":"Feature","geometry":{"type":"Point","coordinates":[-79.88563,40.32056]},"properties":{"p":"0558M00127000000","a":"DETROIT AVE","m":"Glassport","u":"L","o":"individual","sf":33772,"v":11600}},{"type":"Feature","geometry":{"type":"Point","coordinates":[-79.88352,40.3213]},"properties":{"p":"0558M00174000000","a":"DETROIT AVE","m":"Glassport","u":"L","o":"individual","sf":10189,"v":9500}},{"type":"Feature","geometry":{"type":"Point","coordinates":[-79.88689,40.31921]},"properties":{"p":"0558M00401000000","a":"DELAWARE AVE","m":"Glassport","u":"L","o":"individual","sf":3000,"v":900}},{"type":"Feature","geometry":{"type":"Point","coordinates":[-79.88586,40.31708]},"properties":{"p":"0558S00050000000","a":"DELAWARE AVE","m":"Glassport","u":"L","o":"individual","sf":14296,"v":5300}},{"type":"Feature","geometry":{"type":"Point","coordinates":[-79.88527,40.31873]},"properties":{"p":"0558S00140000000","a":"1012 ELM ST","m":"Glassport","u":"L","o":"individual","sf":2750,"v":900}},{"type":"Feature","geometry":{"type":"Point","coordinates":[-79.88525,40.31866]},"properties":{"p":"0558S00143000000","a":"ELM ST","m":"Glassport","u":"L","o":"individual","sf":2750,"v":900}},{"type":"Feature","geometry":{"type":"Point","coordinates":[-79.88514,40.31819]},"properties":{"p":"0558S00153000000","a":"ELM ST","m":"Glassport","u":"L","o":"individual","sf":3850,"v":1200}},{"type":"Feature","geometry":{"type":"Point","coordinates":[-79.88513,40.31812]},"properties":{"p":"0558S00154000000","a":"ELM ST","m":"Glassport","u":"L","o":"individual","sf":2750,"v":900}},{"type":"Feature","geometry":{"type":"Point","coordinates":[-79.88456,40.31791]},"properties":{"p":"0558S00163000000","a":"ATLANTIC AVE","m":"Glassport","u":"L","o":"individual","sf":2750,"v":900}},{"type":"Feature","geometry":{"type":"Point","coordinates":[-79.88478,40.31893]},"properties":{"p":"0558S00192000000","a":"ATLANTIC AVE","m":"Glassport","u":"L","o":"individual","sf":8250,"v":2400}},{"type":"Feature","geometry":{"type":"Point","coordinates":[-79.8888,40.3177]},"properties":{"p":"0558R00259000000","a":"1037 VERMONT AVE","m":"Glassport","u":"L","o":"individual","sf":3600,"v":1100}},{"type":"Feature","geometry":{"type":"Point","coordinates":[-79.88878,40.31761]},"properties":{"p":"0558R00261000000","a":"VERMONT AVE","m":"Glassport","u":"L","o":"individual","sf":3600,"v":1100}},{"type":"Feature","geometry":{"type":"Point","coordinates":[-79.88916,40.3198]},"properties":{"p":"0558L00256000000","a":"937 VERMONT AVE","m":"Glassport","u":"L","o":"individual","sf":1498,"v":500}},{"type":"Feature","geometry":{"type":"Point","coordinates":[-79.89929,40.31561]},"properties":{"p":"0658D00176000000","a":"FOSTER RD","m":"Jefferson Hills","u":"L","o":"individual","sf":13147,"v":14900}},{"type":"Feature","geometry":{"type":"Point","coordinates":[-79.89987,40.31052]},"properties":{"p":"0658M00285000000","a":"ROUTE 02081","m":"Jefferson Hills","u":"L","o":"individual","sf":58806,"v":49000}},{"type":"Feature","geometry":{"type":"Point","coordinates":[-79.89971,40.31651]},"properties":{"p":"0658D00120000000","a":"MILLER RD","m":"Jefferson Hills","u":"L","o":"corp","sf":48787,"v":2500}},{"type":"Feature","geometry":{"type":"Point","coordinates":[-79.8999,40.31589]},"properties":{"p":"0658D00140000000","a":"SUNNYSIDE PL","m":"Jefferson Hills","u":"L","o":"corp","sf":7667,"v":800}},{"type":"Feature","geometry":{"type":"Point","coordinates":[-79.88758,40.32243]},"properties":{"p":"0558G00022000000","a":"DELAWARE AVE","m":"Glassport","u":"L","o":"individual","sf":3000,"v":900}},{"type":"Feature","geometry":{"type":"Point","coordinates":[-79.8843,40.32915]},"properties":{"p":"0467M00375000000","a":"LIMEKLIN ST","m":"Glassport","u":"L","o":"individual","sf":11000,"v":9500}},{"type":"Feature","geometry":{"type":"Point","coordinates":[-79.89211,40.3215]},"properties":{"p":"0558K00020000000","a":"MONONGAHELA AVE","m":"Glassport","u":"L","o":"individual","sf":2750,"v":900}},{"type":"Feature","geometry":{"type":"Point","coordinates":[-79.88702,40.32457]},"properties":{"p":"0558D00376000000","a":"DELAWARE AVE","m":"Glassport","u":"L","o":"individual","sf":3000,"v":7200}},{"type":"Feature","geometry":{"type":"Point","coordinates":[-79.88253,40.327]},"properties":{"p":"0467S00299000000","a":"NAOMI AVE","m":"Glassport","u":"L","o":"individual","sf":69435,"v":19400}},{"type":"Feature","geometry":{"type":"Point","coordinates":[-79.8863,40.31873]},"properties":{"p":"0558S00069000000","a":"MINNESOTA AVE","m":"Glassport","u":"L","o":"individual","sf":2750,"v":900}},{"type":"Feature","geometry":{"type":"Point","coordinates":[-79.88992,40.32781]},"properties":{"p":"0467R00239000000","a":"5TH ST","m":"Glassport","u":"L","o":"corp","sf":2475,"v":800}},{"type":"Feature","geometry":{"type":"Point","coordinates":[-79.88998,40.32646]},"properties":{"p":"0467R00104000000","a":"CYPRESS ALY","m":"Glassport","u":"L","o":"individual","sf":1375,"v":500}},{"type":"Feature","geometry":{"type":"Point","coordinates":[-79.89514,40.31236]},"properties":{"p":"0657F00020000000","a":"MASSACHUSETTS AVE","m":"1st Ward - CLAIRTON","u":"L","o":"corp","sf":10104,"v":5500}},{"type":"Feature","geometry":{"type":"Point","coordinates":[-79.88986,40.32557]},"properties":{"p":"0558C00247000000","a":"VERMONT AVE","m":"Glassport","u":"L","o":"individual","sf":3000,"v":900}},{"type":"Feature","geometry":{"type":"Point","coordinates":[-79.88599,40.32931]},"properties":{"p":"0467S00109000000","a":"OLA AVE","m":"Glassport","u":"L","o":"individual","sf":32670,"v":11500}},{"type":"Feature","geometry":{"type":"Point","coordinates":[-79.88977,40.32728]},"properties":{"p":"0467R00124000000","a":"VERMONT AVE","m":"Glassport","u":"L","o":"individual","sf":1500,"v":500}},{"type":"Feature","geometry":{"type":"Point","coordinates":[-79.88491,40.32017]},"properties":{"p":"0558M00223000000","a":"VIRGINIA AVE","m":"Glassport","u":"L","o":"individual","sf":4850,"v":1500}},{"type":"Feature","geometry":{"type":"Point","coordinates":[-79.8936,40.31096]},"properties":{"p":"0657K00182000000","a":"PANSY WAY","m":"1st Ward - CLAIRTON","u":"L","o":"corp","sf":1171,"v":400}},{"type":"Feature","geometry":{"type":"Point","coordinates":[-79.88825,40.32558]},"properties":{"p":"0558C00148000000","a":"611 INDIANA AVE","m":"Glassport","u":"L","o":"individual","sf":3625,"v":1100}},{"type":"Feature","geometry":{"type":"Point","coordinates":[-79.8865,40.32416]},"properties":{"p":"0558D00313000000","a":"MARYLAND AVE","m":"Glassport","u":"L","o":"corp","sf":3000,"v":900}},{"type":"Feature","geometry":{"type":"Point","coordinates":[-79.88695,40.32012]},"properties":{"p":"0558M00092000000","a":"DELAWARE AVE","m":"Glassport","u":"L","o":"individual","sf":1500,"v":500}},{"type":"Feature","geometry":{"type":"Point","coordinates":[-79.88921,40.31734]},"properties":{"p":"0558R00207000000","a":"VERMONT AVE","m":"Glassport","u":"L","o":"individual","sf":3600,"v":3200}},{"type":"Feature","geometry":{"type":"Point","coordinates":[-79.88101,40.32285]},"properties":{"p":"0557E00140000000","a":"WASHINGTON BLVD","m":"Glassport","u":"L","o":"individual","sf":260924,"v":13000}},{"type":"Feature","geometry":{"type":"Point","coordinates":[-79.89321,40.3254]},"properties":{"p":"0558B00172000000","a":"ALLEGHENY AVE","m":"Glassport","u":"L","o":"individual","sf":2250,"v":700}},{"type":"Feature","geometry":{"type":"Point","coordinates":[-79.89044,40.32349]},"properties":{"p":"0558G00227000000","a":"MICHIGAN AVE","m":"Glassport","u":"L","o":"individual","sf":7200,"v":9200}},{"type":"Feature","geometry":{"type":"Point","coordinates":[-79.88592,40.32375]},"properties":{"p":"0558H00076000000","a":"MARYLAND AVE","m":"Glassport","u":"L","o":"individual","sf":3302,"v":7500}},{"type":"Feature","geometry":{"type":"Point","coordinates":[-79.88648,40.32238]},"properties":{"p":"0558H00362000000","a":"808 MARYLAND AVE","m":"Glassport","u":"L","o":"individual","sf":3000,"v":900}},{"type":"Feature","geometry":{"type":"Point","coordinates":[-79.89957,40.31224]},"properties":{"p":"0658H00025000000","a":"6TH ST","m":"Jefferson Hills","u":"L","o":"individual","sf":6082,"v":600}},{"type":"Feature","geometry":{"type":"Point","coordinates":[-79.88551,40.31987]},"properties":{"p":"0558M00370000000","a":"ATLANTIC AVE","m":"Glassport","u":"L","o":"individual","sf":11000,"v":9500}},{"type":"Feature","geometry":{"type":"Point","coordinates":[-79.8865,40.32422]},"properties":{"p":"0558D00314000000","a":"MARYLAND AVE","m":"Glassport","u":"L","o":"corp","sf":3000,"v":900}},{"type":"Feature","geometry":{"type":"Point","coordinates":[-79.89173,40.32644]},"properties":{"p":"0467P00045000000","a":"OHIO AVE","m":"Glassport","u":"L","o":"individual","sf":2750,"v":900}},{"type":"Feature","geometry":{"type":"Point","coordinates":[-79.88119,40.32565]},"properties":{"p":"0557A00207000000","a":"SCENIC ST","m":"Glassport","u":"L","o":"individual","sf":18000,"v":5700}},{"type":"Feature","geometry":{"type":"Point","coordinates":[-79.88819,40.32855]},"properties":{"p":"0467R00339000000","a":"IOWA AVE","m":"Glassport","u":"L","o":"individual","sf":2500,"v":800}},{"type":"Feature","geometry":{"type":"Point","coordinates":[-79.8898,40.3222]},"properties":{"p":"0558G00116000000","a":"VERMONT AVE","m":"Glassport","u":"L","o":"individual","sf":3000,"v":900}},{"type":"Feature","geometry":{"type":"Point","coordinates":[-79.8843,40.32112]},"properties":{"p":"0558M00188000000","a":"DETROIT AVE","m":"Glassport","u":"L","o":"individual","sf":7723,"v":9300}},{"type":"Feature","geometry":{"type":"Point","coordinates":[-79.88601,40.32014]},"properties":{"p":"0558M00119000000","a":"DETROIT AVE","m":"Glassport","u":"L","o":"individual","sf":1612,"v":600}},{"type":"Feature","geometry":{"type":"Point","coordinates":[-79.89729,40.3145]},"properties":{"p":"0657A00098000000","a":"N STATE ST","m":"1st Ward - CLAIRTON","u":"L","o":"individual","sf":39418,"v":8100}},{"type":"Feature","geometry":{"type":"Point","coordinates":[-79.88837,40.31631]},"properties":{"p":"0657C00051000000","a":"OHIO AVE","m":"Glassport","u":"L","o":"individual","sf":73660,"v":15300}},{"type":"Feature","geometry":{"type":"Point","coordinates":[-79.8854,40.32357]},"properties":{"p":"0558H00200000000","a":"WILSON AVE","m":"Glassport","u":"L","o":"individual","sf":56628,"v":700}},{"type":"Feature","geometry":{"type":"Point","coordinates":[-79.88633,40.32608]},"properties":{"p":"0558D00017000000","a":"PACIFIC AVE","m":"Glassport","u":"L","o":"individual","sf":4641,"v":1400}},{"type":"Feature","geometry":{"type":"Point","coordinates":[-79.88499,40.32374]},"properties":{"p":"0558H00288000000","a":"EDNA ST","m":"Glassport","u":"L","o":"individual","sf":8580,"v":2500}},{"type":"Feature","geometry":{"type":"Point","coordinates":[-79.88448,40.32275]},"properties":{"p":"0558H00182000000","a":"MURPHY ST","m":"Glassport","u":"L","o":"individual","sf":16184,"v":4600}},{"type":"Feature","geometry":{"type":"Point","coordinates":[-79.8911,40.32348]},"properties":{"p":"0558G00194000000","a":"OHIO AVE","m":"Glassport","u":"L","o":"individual","sf":4125,"v":8200}},{"type":"Feature","geometry":{"type":"Point","coordinates":[-79.885,40.3223]},"properties":{"p":"0558H00270000000","a":"EDNA ST","m":"Glassport","u":"L","o":"individual","sf":9441,"v":2700}},{"type":"Feature","geometry":{"type":"Point","coordinates":[-79.88538,40.31921]},"properties":{"p":"0558M00361000000","a":"ATLANTIC AVE","m":"Glassport","u":"L","o":"individual","sf":2750,"v":900}},{"type":"Feature","geometry":{"type":"Point","coordinates":[-79.89839,40.31694]},"properties":{"p":"0558N00014000000","a":"N STATE ST","m":"1st Ward - CLAIRTON","u":"L","o":"individual","sf":56802,"v":1300}},{"type":"Feature","geometry":{"type":"Point","coordinates":[-79.89661,40.3149]},"properties":{"p":"0657A00118000000","a":"N STATE ST","m":"1st Ward - CLAIRTON","u":"L","o":"individual","sf":2761,"v":7800}},{"type":"Feature","geometry":{"type":"Point","coordinates":[-79.8818,40.32997]},"properties":{"p":"0466J00163000000","a":"NAOMI AVE","m":"Glassport","u":"B","o":"individual","sf":45825,"v":5800}}]}