{"type":"FeatureCollection","features":[{"type":"Feature","geometry":{"type":"Point","coordinates":[-79.89418,40.33855]},"properties":{"p":"0384K00120000001","a":"WASHINGTON ST","m":"West Mifflin","u":"I","o":"corp","sf":404542,"v":173383}},{"type":"Feature","geometry":{"type":"Point","coordinates":[-79.89209,40.33408]},"properties":{"p":"0467B00035000000","a":"200 OAK WAY","m":"Glassport","u":"I","o":"individual","sf":70916,"v":63800}},{"type":"Feature","geometry":{"type":"Point","coordinates":[-79.88048,40.3471]},"properties":{"p":"0308N00164000000","a":"636 W 5TH AVE","m":"10th Ward -  McKEESPORT","u":"C","o":"corp","sf":3000,"v":3600}},{"type":"Feature","geometry":{"type":"Point","coordinates":[-79.8839,40.3453]},"properties":{"p":"0384D00025000000","a":"JOHN ST","m":"10th Ward -  McKEESPORT","u":"C","o":"individual","sf":9212,"v":1500}},{"type":"Feature","geometry":{"type":"Point","coordinates":[-79.88312,40.34653]},"properties":{"p":"0384D00072000000","a":"JOHN ST","m":"10th Ward -  McKEESPORT","u":"C","o":"individual","sf":28140,"v":4500}},{"type":"Feature","geometry":{"type":"Point","coordinates":[-79.89293,40.34994]},"properties":{"p":"0309K00154000000","a":"4TH ST","m":"Dravosburg","u":"C","o":"individual","sf":4290,"v":12000}},{"type":"Feature","geometry":{"type":"Point","coordinates":[-79.89216,40.34999]},"properties":{"p":"0309K00112000000","a":"EUCLID AVE","m":"Dravosburg","u":"C","o":"corp","sf":6650,"v":15200}},{"type":"Feature","geometry":{"type":"Point","coordinates":[-79.89288,40.34842]},"properties":{"p":"0309K00350000000","a":"RICHLAND AVE","m":"Dravosburg","u":"C","o":"corp","sf":143922,"v":37400}},{"type":"Feature","geometry":{"type":"Point","coordinates":[-79.89273,40.33114]},"properties":{"p":"0384D00395000001","a":"MONONGAHELA AVE","m":"Glassport","u":"C","o":"corp","sf":2675,"v":12300}},{"type":"Feature","geometry":{"type":"Point","coordinates":[-79.89107,40.336]},"properties":{"p":"0467C00007000000","a":"12 MONONGAHELA AVE","m":"Glassport","u":"C","o":"corp","sf":960,"v":400}},{"type":"Feature","geometry":{"type":"Point","coordinates":[-79.89146,40.3343]},"properties":{"p":"0467C00039000000","a":"MONONGAHELA AVE","m":"Glassport","u":"C","o":"corp","sf":8400,"v":24700}},{"type":"Feature","geometry":{"type":"Point","coordinates":[-79.89268,40.33294]},"properties":{"p":"0467F00125000000","a":"200 OAK WAY","m":"Glassport","u":"C","o":"individual","sf":17250,"v":15500}},{"type":"Feature","geometry":{"type":"Point","coordinates":[-79.88493,40.34992]},"properties":{"p":"0309M00064000000","a":"WASHINGTON AVE","m":"Dravosburg","u":"C","o":"corp","sf":16240,"v":15500}},{"type":"Feature","geometry":{"type":"Point","coordinates":[-79.88431,40.34902]},"properties":{"p":"0309M00175000000","a":"MCCLURE ST","m":"Dravosburg","u":"C","o":"corp","sf":1772,"v":500}},{"type":"Feature","geometry":{"type":"Point","coordinates":[-79.88334,40.33538]},"properties":{"p":"0466A00285000000","a":"WASHINGTON BLVD","m":"Port Vue","u":"C","o":"individual","sf":130523,"v":22900}},{"type":"Feature","geometry":{"type":"Point","coordinates":[-79.88197,40.33445]},"properties":{"p":"0466A00183000000","a":"1620 WASHINGTON BLVD","m":"Port Vue","u":"C","o":"corp","sf":76230,"v":8000}},{"type":"Feature","geometry":{"type":"Point","coordinates":[-79.89636,40.33479]},"properties":{"p":"0467A00005000000","a":"RIVER FRONT","m":"West Mifflin","u":"C","o":"corp","sf":61942,"v":18600}},{"type":"Feature","geometry":{"type":"Point","coordinates":[-79.89748,40.33136]},"properties":{"p":"0467E00010000000","a":"RIVER FRONT","m":"West Mifflin","u":"C","o":"corp","sf":10803,"v":3200}},{"type":"Feature","geometry":{"type":"Point","coordinates":[-79.89954,40.33986]},"properties":{"p":"0385M00079000000","a":"LEBANON SCHOOL RD","m":"West Mifflin","u":"C","o":"corp","sf":130680,"v":180000}},{"type":"Feature","geometry":{"type":"Point","coordinates":[-79.89357,40.33328]},"properties":{"p":"0467K00042000000","a":"3RD ST","m":"Glassport","u":"C","o":"corp","sf":465530,"v":125000}},{"type":"Feature","geometry":{"type":"Point","coordinates":[-79.88193,40.34785]},"properties":{"p":"0308N00262000000","a":"ATLANTIC AVE","m":"10th Ward -  McKEESPORT","u":"C","o":"individual","sf":3540,"v":600}},{"type":"Feature","geometry":{"type":"Point","coordinates":[-79.88283,40.34442]},"properties":{"p":"0383A00030000000","a":"W 5TH AVE","m":"10th Ward -  McKEESPORT","u":"C","o":"corp","sf":101059,"v":7000}},{"type":"Feature","geometry":{"type":"Point","coordinates":[-79.8907,40.34534]},"properties":{"p":"0384C00030000000","a":"ELIZABETH ST","m":"Dravosburg","u":"C","o":"individual","sf":56820,"v":13600}},{"type":"Feature","geometry":{"type":"Point","coordinates":[-79.88082,40.34845]},"properties":{"p":"0308N00291000000","a":"ATLANTIC AVE","m":"10th Ward -  McKEESPORT","u":"L","o":"individual","sf":1500,"v":600}},{"type":"Feature","geometry":{"type":"Point","coordinates":[-79.8807,40.34933]},"properties":{"p":"0308J00123000000","a":"ATLANTIC AVE","m":"10th Ward -  McKEESPORT","u":"L","o":"individual","sf":4966,"v":1000}},{"type":"Feature","geometry":{"type":"Point","coordinates":[-79.8801,40.34618]},"properties":{"p":"0383A00172000000","a":"MONTEREY ST","m":"10th Ward -  McKEESPORT","u":"L","o":"individual","sf":2845,"v":600}},{"type":"Feature","geometry":{"type":"Point","coordinates":[-79.88016,40.34614]},"properties":{"p":"0383A00173000000","a":"MONTEREY ST","m":"10th Ward -  McKEESPORT","u":"L","o":"corp","sf":2875,"v":600}},{"type":"Feature","geometry":{"type":"Point","coordinates":[-79.88068,40.34833]},"properties":{"p":"0308N00329000000","a":"623 ATLANTIC AVE","m":"10th Ward -  McKEESPORT","u":"L","o":"individual","sf":1500,"v":600}},{"type":"Feature","geometry":{"type":"Point","coordinates":[-79.88039,40.34852]},"properties":{"p":"0308N00334000000","a":"611 ATLANTIC AVE","m":"10th Ward -  McKEESPORT","u":"L","o":"individual","sf":2700,"v":600}},{"type":"Feature","geometry":{"type":"Point","coordinates":[-79.88006,40.34624]},"properties":{"p":"0308N00049000000","a":"MONTEREY ST","m":"10th Ward -  McKEESPORT","u":"L","o":"corp","sf":2486,"v":600}},{"type":"Feature","geometry":{"type":"Point","coordinates":[-79.88097,40.34615]},"properties":{"p":"0308N00053000000","a":"W 5TH AVE","m":"10th Ward -  McKEESPORT","u":"L","o":"individual","sf":8201,"v":1700}},{"type":"Feature","geometry":{"type":"Point","coordinates":[-79.88075,40.34631]},"properties":{"p":"0308N00055000000","a":"W 5TH AVE","m":"10th Ward -  McKEESPORT","u":"L","o":"individual","sf":11900,"v":2600}},{"type":"Feature","geometry":{"type":"Point","coordinates":[-79.88055,40.34644]},"properties":{"p":"0308N00061000000","a":"W 5TH AVE","m":"10th Ward -  McKEESPORT","u":"L","o":"individual","sf":5954,"v":2100}},{"type":"Feature","geometry":{"type":"Point","coordinates":[-79.88042,40.34653]},"properties":{"p":"0308N00064000000","a":"W 5TH AVE","m":"10th Ward -  McKEESPORT","u":"L","o":"individual","sf":5916,"v":1200}},{"type":"Feature","geometry":{"type":"Point","coordinates":[-79.88025,40.34666]},"properties":{"p":"0308N00067000000","a":"W 5TH AVE","m":"10th Ward -  McKEESPORT","u":"L","o":"individual","sf":9484,"v":2400}},{"type":"Feature","geometry":{"type":"Point","coordinates":[-79.88009,40.34882]},"properties":{"p":"0308J00080000000","a":"ATLANTIC AVE","m":"10th Ward -  McKEESPORT","u":"L","o":"individual","sf":4800,"v":1000}},{"type":"Feature","geometry":{"type":"Point","coordinates":[-79.88019,40.34876]},"properties":{"p":"0308J00083000000","a":"ATLANTIC AVE","m":"10th Ward -  McKEESPORT","u":"L","o":"individual","sf":3840,"v":800}},{"type":"Feature","geometry":{"type":"Point","coordinates":[-79.8804,40.34869]},"properties":{"p":"0308J00088000000","a":"611 ATLANTIC AVE","m":"10th Ward -  McKEESPORT","u":"L","o":"individual","sf":3600,"v":800}},{"type":"Feature","geometry":{"type":"Point","coordinates":[-79.88095,40.34891]},"properties":{"p":"0308J00099000000","a":"ATLANTIC AVE","m":"10th Ward -  McKEESPORT","u":"L","o":"individual","sf":15266,"v":4900}},{"type":"Feature","geometry":{"type":"Point","coordinates":[-79.88069,40.34897]},"properties":{"p":"0308J00108000000","a":"ATLANTIC AVE","m":"10th Ward -  McKEESPORT","u":"L","o":"individual","sf":2700,"v":600}},{"type":"Feature","geometry":{"type":"Point","coordinates":[-79.88062,40.34901]},"properties":{"p":"0308J00112000000","a":"604 ATLANTIC AVE","m":"10th Ward -  McKEESPORT","u":"L","o":"individual","sf":1890,"v":500}},{"type":"Feature","geometry":{"type":"Point","coordinates":[-79.88022,40.34609]},"properties":{"p":"0383A00175000000","a":"MONTEREY ST","m":"10th Ward -  McKEESPORT","u":"L","o":"individual","sf":2920,"v":700}},{"type":"Feature","geometry":{"type":"Point","coordinates":[-79.88029,40.34605]},"properties":{"p":"0383A00177000000","a":"MONTEREY ST","m":"10th Ward -  McKEESPORT","u":"L","o":"individual","sf":2950,"v":700}},{"type":"Feature","geometry":{"type":"Point","coordinates":[-79.88042,40.34595]},"properties":{"p":"0383A00181000000","a":"MONTEREY ST","m":"10th Ward -  McKEESPORT","u":"L","o":"individual","sf":2996,"v":700}},{"type":"Feature","geometry":{"type":"Point","coordinates":[-79.88055,40.34586]},"properties":{"p":"0383A00186000000","a":"MONTEREY ST","m":"10th Ward -  McKEESPORT","u":"L","o":"individual","sf":9367,"v":2400}},{"type":"Feature","geometry":{"type":"Point","coordinates":[-79.88949,40.34946]},"properties":{"p":"0309L00116000000","a":"SHERMAN AVE","m":"Dravosburg","u":"L","o":"individual","sf":3200,"v":1000}},{"type":"Feature","geometry":{"type":"Point","coordinates":[-79.88957,40.34954]},"properties":{"p":"0309L00118000000","a":"SHERMAN AVE","m":"Dravosburg","u":"L","o":"individual","sf":2400,"v":800}},{"type":"Feature","geometry":{"type":"Point","coordinates":[-79.88808,40.34944]},"properties":{"p":"0309L00084000000","a":"PARK AVE","m":"Dravosburg","u":"L","o":"individual","sf":18150,"v":13200}},{"type":"Feature","geometry":{"type":"Point","coordinates":[-79.88537,40.33456]},"properties":{"p":"0467D00380000000","a":"TENNESSEE AVE","m":"Glassport","u":"L","o":"corp","sf":304920,"v":7000}},{"type":"Feature","geometry":{"type":"Point","coordinates":[-79.88764,40.33637]},"properties":{"p":"0384R00091000000","a":"ARCH ST","m":"Glassport","u":"L","o":"individual","sf":3876,"v":1200}},{"type":"Feature","geometry":{"type":"Point","coordinates":[-79.88742,40.33626]},"properties":{"p":"0384R00093000000","a":"410 ARCH ST","m":"Glassport","u":"L","o":"individual","sf":5555,"v":1700}},{"type":"Feature","geometry":{"type":"Point","coordinates":[-79.89208,40.33282]},"properties":{"p":"0467F00081000000","a":"MONONGAHELA AVE","m":"Glassport","u":"L","o":"individual","sf":2400,"v":800}},{"type":"Feature","geometry":{"type":"Point","coordinates":[-79.88498,40.3309]},"properties":{"p":"0467M00123000000","a":"OLA AVE","m":"Glassport","u":"L","o":"individual","sf":12129,"v":9600}},{"type":"Feature","geometry":{"type":"Point","coordinates":[-79.88452,40.33064]},"properties":{"p":"0467M00151000100","a":"6 OLA AVE","m":"Glassport","u":"L","o":"individual","sf":608,"v":600}},{"type":"Feature","geometry":{"type":"Point","coordinates":[-79.88358,40.34249]},"properties":{"p":"0384H00125000000","a":"OHIO AVE","m":"Glassport","u":"L","o":"individual","sf":20505,"v":10400}},{"type":"Feature","geometry":{"type":"Point","coordinates":[-79.89007,40.33091]},"properties":{"p":"0467L00354000000","a":"ERIE AVE","m":"Glassport","u":"L","o":"individual","sf":4770,"v":1400}},{"type":"Feature","geometry":{"type":"Point","coordinates":[-79.89169,40.3348]},"properties":{"p":"0467B00025000000","a":"1ST ST","m":"Glassport","u":"L","o":"individual","sf":8930,"v":9400}},{"type":"Feature","geometry":{"type":"Point","coordinates":[-79.89185,40.3348]},"properties":{"p":"0467B00028000000","a":"OAK WAY","m":"Glassport","u":"L","o":"individual","sf":17598,"v":10100}},{"type":"Feature","geometry":{"type":"Point","coordinates":[-79.89011,40.33604]},"properties":{"p":"0467C00090000000","a":"MONONGAHELA AVE","m":"Glassport","u":"L","o":"individual","sf":2200,"v":700}},{"type":"Feature","geometry":{"type":"Point","coordinates":[-79.8901,40.33609]},"properties":{"p":"0467C00091000000","a":"MONONGAHELA AVE","m":"Glassport","u":"L","o":"individual","sf":2200,"v":700}},{"type":"Feature","geometry":{"type":"Point","coordinates":[-79.88906,40.33463]},"properties":{"p":"0467C00100000001","a":"ERIE AVE","m":"Glassport","u":"L","o":"individual","sf":50199,"v":13200}},{"type":"Feature","geometry":{"type":"Point","coordinates":[-79.88779,40.33816]},"properties":{"p":"0384R00138000000","a":"MARIE ST","m":"Glassport","u":"L","o":"individual","sf":3304,"v":1000}},{"type":"Feature","geometry":{"type":"Point","coordinates":[-79.88707,40.33428]},"properties":{"p":"0467G00002000000","a":"1ST ST","m":"Glassport","u":"L","o":"individual","sf":125017,"v":2900}},{"type":"Feature","geometry":{"type":"Point","coordinates":[-79.88835,40.33285]},"properties":{"p":"0467G00103000000","a":"GREEN ST","m":"Glassport","u":"L","o":"individual","sf":12047,"v":5100}},{"type":"Feature","geometry":{"type":"Point","coordinates":[-79.88399,40.33015]},"properties":{"p":"0467M00207000000","a":"WASHINGTON BLVD","m":"Glassport","u":"L","o":"individual","sf":13401,"v":1000}},{"type":"Feature","geometry":{"type":"Point","coordinates":[-79.88429,40.33013]},"properties":{"p":"0467M00209000000","a":"WASHINGTON BLVD","m":"Glassport","u":"L","o":"individual","sf":10371,"v":3000}},{"type":"Feature","geometry":{"type":"Point","coordinates":[-79.88985,40.33262]},"properties":{"p":"0467G00195000000","a":"PLUM WAY","m":"Glassport","u":"L","o":"individual","sf":6600,"v":2000}},{"type":"Feature","geometry":{"type":"Point","coordinates":[-79.8898,40.33276]},"properties":{"p":"0467G00199000000","a":"ERIE AVE","m":"Glassport","u":"L","o":"individual","sf":4950,"v":1500}},{"type":"Feature","geometry":{"type":"Point","coordinates":[-79.88975,40.33288]},"properties":{"p":"0467G00202000000","a":"ERIE AVE","m":"Glassport","u":"L","o":"individual","sf":4950,"v":1500}},{"type":"Feature","geometry":{"type":"Point","coordinates":[-79.88968,40.33305]},"properties":{"p":"0467G00205000000","a":"ERIE AVE","m":"Glassport","u":"L","o":"individual","sf":9900,"v":2900}},{"type":"Feature","geometry":{"type":"Point","coordinates":[-79.88951,40.33345]},"properties":{"p":"0467G00210000000","a":"ERIE AVE","m":"Glassport","u":"L","o":"individual","sf":30800,"v":11300}},{"type":"Feature","geometry":{"type":"Point","coordinates":[-79.88596,40.33345]},"properties":{"p":"0467H00145000000","a":"HARRISON ST","m":"Glassport","u":"L","o":"individual","sf":17298,"v":10100}},{"type":"Feature","geometry":{"type":"Point","coordinates":[-79.88644,40.33425]},"properties":{"p":"0467H00160000000","a":"1ST ST","m":"Glassport","u":"L","o":"individual","sf":63598,"v":700}},{"type":"Feature","geometry":{"type":"Point","coordinates":[-79.88762,40.34011]},"properties":{"p":"0384L00031000000","a":"N MONONGAHELA AVE","m":"Glassport","u":"L","o":"individual","sf":5157,"v":13500}},{"type":"Feature","geometry":{"type":"Point","coordinates":[-79.88801,40.33606]},"properties":{"p":"0467C00355000000","a":"HARRISON ST","m":"Glassport","u":"L","o":"individual","sf":3025,"v":7200}},{"type":"Feature","geometry":{"type":"Point","coordinates":[-79.88937,40.33149]},"properties":{"p":"0467G00358000000","a":"EUCLID AVE","m":"Glassport","u":"L","o":"individual","sf":5000,"v":1500}},{"type":"Feature","geometry":{"type":"Point","coordinates":[-79.88932,40.33161]},"properties":{"p":"0467G00360000000","a":"EUCLID AVE","m":"Glassport","u":"L","o":"individual","sf":3750,"v":1200}},{"type":"Feature","geometry":{"type":"Point","coordinates":[-79.88695,40.33493]},"properties":{"p":"0467D00307000000","a":"HARRISON ST","m":"Glassport","u":"L","o":"individual","sf":31514,"v":11400}},{"type":"Feature","geometry":{"type":"Point","coordinates":[-79.88626,40.33394]},"properties":{"p":"0467D00338000000","a":"TENNESSEE AVE","m":"Glassport","u":"L","o":"individual","sf":41687,"v":12300}},{"type":"Feature","geometry":{"type":"Point","coordinates":[-79.88589,40.33403]},"properties":{"p":"0467D00354000000","a":"TENNESSEE AVE","m":"Glassport","u":"L","o":"individual","sf":50660,"v":13200}},{"type":"Feature","geometry":{"type":"Point","coordinates":[-79.88782,40.33149]},"properties":{"p":"0467G00393000000","a":"NEBRASKA AVE","m":"Glassport","u":"L","o":"individual","sf":1214,"v":400}},{"type":"Feature","geometry":{"type":"Point","coordinates":[-79.88367,40.33298]},"properties":{"p":"0467H00071000000","a":"HARRISON ST","m":"Glassport","u":"L","o":"individual","sf":14444,"v":4100}},{"type":"Feature","geometry":{"type":"Point","coordinates":[-79.88495,40.33197]},"properties":{"p":"0467H00107000000","a":"HARRISON ST","m":"Glassport","u":"L","o":"individual","sf":164962,"v":3800}},{"type":"Feature","geometry":{"type":"Point","coordinates":[-79.88778,40.33109]},"properties":{"p":"0467L00150000000","a":"NEBRASKA AVE","m":"Glassport","u":"L","o":"individual","sf":25000,"v":10800}},{"type":"Feature","geometry":{"type":"Point","coordinates":[-79.88409,40.34029]},"properties":{"p":"0384M00053000000","a":"REYNOLDS ST","m":"Glassport","u":"L","o":"individual","sf":253955,"v":7600}},{"type":"Feature","geometry":{"type":"Point","coordinates":[-79.8856,40.34227]},"properties":{"p":"0384H00266000000","a":"N MONONGAHELA AVE","m":"Glassport","u":"L","o":"individual","sf":5836,"v":1700}},{"type":"Feature","geometry":{"type":"Point","coordinates":[-79.88528,40.34259]},"properties":{"p":"0384H00274000000","a":"N MONONGAHELA AVE","m":"Glassport","u":"L","o":"individual","sf":8840,"v":700}},{"type":"Feature","geometry":{"type":"Point","coordinates":[-79.88727,40.33617]},"properties":{"p":"0384S00386000000","a":"ARCH ST","m":"Glassport","u":"L","o":"individual","sf":4304,"v":800}},{"type":"Feature","geometry":{"type":"Point","coordinates":[-79.88207,40.33103]},"properties":{"p":"0466J00023000000","a":"OLA AVE","m":"Glassport","u":"L","o":"individual","sf":17215,"v":5600}},{"type":"Feature","geometry":{"type":"Point","coordinates":[-79.88777,40.33528]},"properties":{"p":"0467C00265000000","a":"HARRISON ST","m":"Glassport","u":"L","o":"individual","sf":29090,"v":11200}},{"type":"Feature","geometry":{"type":"Point","coordinates":[-79.88741,40.33516]},"properties":{"p":"0467C00281000000","a":"HARRISON ST","m":"Glassport","u":"L","o":"individual","sf":21130,"v":10500}},{"type":"Feature","geometry":{"type":"Point","coordinates":[-79.88812,40.33391]},"properties":{"p":"0467C00339000000","a":"FERN WAY","m":"Glassport","u":"L","o":"individual","sf":29312,"v":11200}},{"type":"Feature","geometry":{"type":"Point","coordinates":[-79.88914,40.33045]},"properties":{"p":"0467L00177000000","a":"EUCLID AVE","m":"Glassport","u":"L","o":"corp","sf":2500,"v":800}},{"type":"Feature","geometry":{"type":"Point","coordinates":[-79.88871,40.33009]},"properties":{"p":"0467L00195000000","a":"326 IOWA AVE","m":"Glassport","u":"L","o":"individual","sf":6800,"v":2000}},{"type":"Feature","geometry":{"type":"Point","coordinates":[-79.88856,40.33869]},"properties":{"p":"0384L00078000000","a":"N MONONGAHELA AVE","m":"Glassport","u":"L","o":"individual","sf":3850,"v":1200}},{"type":"Feature","geometry":{"type":"Point","coordinates":[-79.88093,40.33096]},"properties":{"p":"0466J00198000000","a":"WASHINGTON BLVD","m":"Glassport","u":"L","o":"individual","sf":16374,"v":10000}},{"type":"Feature","geometry":{"type":"Point","coordinates":[-79.88824,40.33113]},"properties":{"p":"0467L00100000000","a":"IOWA AVE","m":"Glassport","u":"L","o":"individual","sf":2000,"v":700}},{"type":"Feature","geometry":{"type":"Point","coordinates":[-79.8886,40.33444]},"properties":{"p":"0467C00238000000","a":"ERIE AVE","m":"Glassport","u":"L","o":"individual","sf":2500,"v":800}},{"type":"Feature","geometry":{"type":"Point","coordinates":[-79.88546,40.33299]},"properties":{"p":"0467H00127000000","a":"HARRISON ST","m":"Glassport","u":"L","o":"individual","sf":38420,"v":900}},{"type":"Feature","geometry":{"type":"Point","coordinates":[-79.8865,40.33244]},"properties":{"p":"0467H00137000000","a":"HARRISON ST EXT","m":"Glassport","u":"L","o":"individual","sf":220849,"v":5100}},{"type":"Feature","geometry":{"type":"Point","coordinates":[-79.89139,40.34783]},"properties":{"p":"0309P00025000000","a":"MAPLE AVE","m":"Dravosburg","u":"L","o":"individual","sf":5400,"v":1600}},{"type":"Feature","geometry":{"type":"Point","coordinates":[-79.89137,40.34686]},"properties":{"p":"0309P00042000000","a":"RICHLAND AVE","m":"Dravosburg","u":"L","o":"individual","sf":9614,"v":12400}},{"type":"Feature","geometry":{"type":"Point","coordinates":[-79.89165,40.34703]},"properties":{"p":"0309P00046000000","a":"RICHLAND AVE","m":"Dravosburg","u":"L","o":"individual","sf":3602,"v":1100}},{"type":"Feature","geometry":{"type":"Point","coordinates":[-79.89205,40.34809]},"properties":{"p":"0309P00008000000","a":"RICHLAND AVE","m":"Dravosburg","u":"L","o":"individual","sf":2992,"v":900}},{"type":"Feature","geometry":{"type":"Point","coordinates":[-79.89234,40.34244]},"properties":{"p":"0384F00010000000","a":"WASHINGTON AVE","m":"Dravosburg","u":"L","o":"corp","sf":36155,"v":14800}},{"type":"Feature","geometry":{"type":"Point","coordinates":[-79.89527,40.34468]},"properties":{"p":"0384A00025000000","a":"CURRY HOLLOW RD","m":"Dravosburg","u":"L","o":"corp","sf":33264,"v":9400}},{"type":"Feature","geometry":{"type":"Point","coordinates":[-79.89439,40.34233]},"properties":{"p":"0384B00050000000","a":"CURRY HOLLOW RD","m":"Dravosburg","u":"L","o":"corp","sf":817185,"v":53300}},{"type":"Feature","geometry":{"type":"Point","coordinates":[-79.89508,40.34548]},"properties":{"p":"0384B00075000000","a":"CURRY HOLLOW RD","m":"Dravosburg","u":"L","o":"corp","sf":286625,"v":33100}},{"type":"Feature","geometry":{"type":"Point","coordinates":[-79.89095,40.34639]},"properties":{"p":"0309R00010000000","a":"RICHLAND AVE","m":"Dravosburg","u":"L","o":"individual","sf":2638,"v":800}},{"type":"Feature","geometry":{"type":"Point","coordinates":[-79.89085,40.34628]},"properties":{"p":"0309R00016000000","a":"RICHLAND AVE","m":"Dravosburg","u":"L","o":"individual","sf":2699,"v":900}},{"type":"Feature","geometry":{"type":"Point","coordinates":[-79.89437,40.34423]},"properties":{"p":"0384B00350000000","a":"CURRY HOLLOW RD","m":"Dravosburg","u":"L","o":"corp","sf":173081,"v":15900}},{"type":"Feature","geometry":{"type":"Point","coordinates":[-79.8908,40.34622]},"properties":{"p":"0309R00018000000","a":"RICHLAND AVE","m":"Dravosburg","u":"L","o":"individual","sf":2253,"v":700}},{"type":"Feature","geometry":{"type":"Point","coordinates":[-79.89066,40.3462]},"properties":{"p":"0309R00020000000","a":"RICHLAND AVE","m":"Dravosburg","u":"L","o":"individual","sf":4808,"v":1400}},{"type":"Feature","geometry":{"type":"Point","coordinates":[-79.88999,40.34645]},"properties":{"p":"0309R00024000000","a":"RICHLAND AVE","m":"Dravosburg","u":"L","o":"individual","sf":38733,"v":15000}},{"type":"Feature","geometry":{"type":"Point","coordinates":[-79.88432,40.33686]},"properties":{"p":"0384S00080000000","a":"MILLER RIDGE RD","m":"Port Vue","u":"L","o":"individual","sf":15085,"v":14900}},{"type":"Feature","geometry":{"type":"Point","coordinates":[-79.88155,40.34024]},"properties":{"p":"0383J00200000000","a":"WASHINGTON BLVD","m":"Port Vue","u":"L","o":"individual","sf":274594,"v":34800}},{"type":"Feature","geometry":{"type":"Point","coordinates":[-79.8801,40.34065]},"properties":{"p":"0383J00225000000","a":"NORWOOD AVE","m":"Port Vue","u":"L","o":"individual","sf":5500,"v":14100}},{"type":"Feature","geometry":{"type":"Point","coordinates":[-79.88015,40.33993]},"properties":{"p":"0383J00230000000","a":"WASHINGTON BLVD","m":"Port Vue","u":"L","o":"individual","sf":82111,"v":21100}},{"type":"Feature","geometry":{"type":"Point","coordinates":[-79.88102,40.34067]},"properties":{"p":"0383J00113000000","a":"UPSTON ST","m":"Port Vue","u":"L","o":"individual","sf":24458,"v":3000}},{"type":"Feature","geometry":{"type":"Point","coordinates":[-79.88292,40.33602]},"properties":{"p":"0466A00325000000","a":"WOODLAND AVE","m":"Port Vue","u":"L","o":"individual","sf":9008,"v":14400}},{"type":"Feature","geometry":{"type":"Point","coordinates":[-79.8988,40.34042]},"properties":{"p":"0384J00375000000","a":"WHIGHAM ST","m":"West Mifflin","u":"L","o":"individual","sf":7589,"v":10200}},{"type":"Feature","geometry":{"type":"Point","coordinates":[-79.89914,40.34053]},"properties":{"p":"0384J00379000000","a":"WHIGHAM ST","m":"West Mifflin","u":"L","o":"individual","sf":2640,"v":800}},{"type":"Feature","geometry":{"type":"Point","coordinates":[-79.89925,40.34108]},"properties":{"p":"0384J00390000000","a":"KENNETH AVE","m":"West Mifflin","u":"L","o":"individual","sf":4800,"v":1400}},{"type":"Feature","geometry":{"type":"Point","coordinates":[-79.89931,40.34098]},"properties":{"p":"0384J00392000000","a":"KENNETH AVE","m":"West Mifflin","u":"L","o":"individual","sf":4800,"v":1400}},{"type":"Feature","geometry":{"type":"Point","coordinates":[-79.89976,40.34114]},"properties":{"p":"0385H00020000000","a":"MCGOWAN AVE","m":"West Mifflin","u":"L","o":"corp","sf":4800,"v":1400}},{"type":"Feature","geometry":{"type":"Point","coordinates":[-79.89857,40.34113]},"properties":{"p":"0384E00091000000","a":"KENNETH AVE","m":"West Mifflin","u":"L","o":"individual","sf":37460,"v":12900}},{"type":"Feature","geometry":{"type":"Point","coordinates":[-79.89599,40.341]},"properties":{"p":"0384E00200000000","a":"BRICK HOLLOW RD","m":"West Mifflin","u":"L","o":"individual","sf":217800,"v":38200}},{"type":"Feature","geometry":{"type":"Point","coordinates":[-79.89874,40.34211]},"properties":{"p":"0384E00069000000","a":"RAVINE ST","m":"West Mifflin","u":"L","o":"individual","sf":4464,"v":1400}},{"type":"Feature","geometry":{"type":"Point","coordinates":[-79.8989,40.34163]},"properties":{"p":"0384E00079000000","a":"KENNETH AVE","m":"West Mifflin","u":"L","o":"individual","sf":9600,"v":10400}},{"type":"Feature","geometry":{"type":"Point","coordinates":[-79.899,40.34147]},"properties":{"p":"0384E00081000000","a":"KENNETH AVE","m":"West Mifflin","u":"L","o":"individual","sf":4800,"v":1400}},{"type":"Feature","geometry":{"type":"Point","coordinates":[-79.89646,40.3392]},"properties":{"p":"0384J00072000000","a":"SANIEL DR","m":"West Mifflin","u":"L","o":"individual","sf":7675,"v":2400}},{"type":"Feature","geometry":{"type":"Point","coordinates":[-79.89447,40.34009]},"properties":{"p":"0384K00085000000","a":"CLAIRTON RD","m":"West Mifflin","u":"L","o":"individual","sf":9888,"v":900}},{"type":"Feature","geometry":{"type":"Point","coordinates":[-79.89485,40.33943]},"properties":{"p":"0384K00105000000","a":"CLAIRTON RD","m":"West Mifflin","u":"L","o":"individual","sf":87991,"v":8100}},{"type":"Feature","geometry":{"type":"Point","coordinates":[-79.89624,40.33976]},"properties":{"p":"0384J00064000000","a":"SANIEL DR","m":"West Mifflin","u":"L","o":"individual","sf":7230,"v":2300}},{"type":"Feature","geometry":{"type":"Point","coordinates":[-79.88895,40.33265]},"properties":{"p":"0467G00089000000","a":"FERN WAY","m":"Glassport","u":"L","o":"individual","sf":7500,"v":2200}},{"type":"Feature","geometry":{"type":"Point","coordinates":[-79.89725,40.33851]},"properties":{"p":"0384J00080000000","a":"LEBANON SCHOOL RD","m":"West Mifflin","u":"L","o":"corp","sf":15020,"v":17500}},{"type":"Feature","geometry":{"type":"Point","coordinates":[-79.88091,40.34365]},"properties":{"p":"0383E00230000000","a":"MANNING AVE","m":"10th Ward -  McKEESPORT","u":"L","o":"corp","sf":522720,"v":30500}},{"type":"Feature","geometry":{"type":"Point","coordinates":[-79.88674,40.34197]},"properties":{"p":"0384H00398000000","a":"OHIO AVE","m":"Glassport","u":"L","o":"individual","sf":21344,"v":6100}},{"type":"Feature","geometry":{"type":"Point","coordinates":[-79.88035,40.346]},"properties":{"p":"0383A00179000000","a":"MONTEREY ST","m":"10th Ward -  McKEESPORT","u":"L","o":"individual","sf":2966,"v":700}},{"type":"Feature","geometry":{"type":"Point","coordinates":[-79.8854,40.34246]},"properties":{"p":"0384H00272000000","a":"N MONONGAHELA AVE","m":"Glassport","u":"L","o":"individual","sf":2587,"v":400}},{"type":"Feature","geometry":{"type":"Point","coordinates":[-79.89259,40.34386]},"properties":{"p":"0384B00150000000","a":"1701 CURRY HOLLOW RD","m":"Dravosburg","u":"L","o":"corp","sf":4431,"v":1300}},{"type":"Feature","geometry":{"type":"Point","coordinates":[-79.89069,40.34822]},"properties":{"p":"0309R00082000000","a":"MAPLE AVE","m":"Dravosburg","u":"L","o":"individual","sf":5400,"v":12000}},{"type":"Feature","geometry":{"type":"Point","coordinates":[-79.88538,40.33058]},"properties":{"p":"0467M00230000000","a":"22 EMIL DR","m":"Glassport","u":"L","o":"individual","sf":7183,"v":2100}},{"type":"Feature","geometry":{"type":"Point","coordinates":[-79.89929,40.34189]},"properties":{"p":"0384E00036000000","a":"MCGOWAN AVE","m":"West Mifflin","u":"L","o":"individual","sf":12960,"v":10700}},{"type":"Feature","geometry":{"type":"Point","coordinates":[-79.88021,40.3455]},"properties":{"p":"0383A00356000000","a":"MONTEREY ST","m":"10th Ward -  McKEESPORT","u":"L","o":"individual","sf":6442,"v":1300}},{"type":"Feature","geometry":{"type":"Point","coordinates":[-79.88788,40.33447]},"properties":{"p":"0467C00322000000","a":"FERN WAY","m":"Glassport","u":"L","o":"individual","sf":77058,"v":11100}},{"type":"Feature","geometry":{"type":"Point","coordinates":[-79.8997,40.34123]},"properties":{"p":"0385H00018000000","a":"608 MCGOWAN AVE","m":"West Mifflin","u":"L","o":"individual","sf":4800,"v":1400}},{"type":"Feature","geometry":{"type":"Point","coordinates":[-79.8909,40.34634]},"properties":{"p":"0309R00012000000","a":"RICHLAND AVE","m":"Dravosburg","u":"L","o":"individual","sf":2650,"v":800}},{"type":"Feature","geometry":{"type":"Point","coordinates":[-79.894,40.33996]},"properties":{"p":"0384K00091000000","a":"DRAVOSBURG RD","m":"West Mifflin","u":"L","o":"individual","sf":6962,"v":600}},{"type":"Feature","geometry":{"type":"Point","coordinates":[-79.88579,40.34207]},"properties":{"p":"0384H00261000000","a":"N MONONGAHELA AVE","m":"Glassport","u":"L","o":"individual","sf":4813,"v":1400}},{"type":"Feature","geometry":{"type":"Point","coordinates":[-79.88083,40.3394]},"properties":{"p":"0383J00100000000","a":"BURBANK RD","m":"Port Vue","u":"B","o":"corp","sf":114563,"v":4400}}]}