{"type":"FeatureCollection","features":[{"type":"Feature","geometry":{"type":"Point","coordinates":[-79.86986,40.46083]},"properties":{"p":"0231D00002000000","a":"FRANKSTOWN AVE","m":"13th Ward - PITTSBURGH","u":"C","o":"corp","sf":21486,"v":37100}},{"type":"Feature","geometry":{"type":"Point","coordinates":[-79.87909,40.4555]},"properties":{"p":"0231J00368000000","a":"FRANKSTOWN AVE","m":"13th Ward - PITTSBURGH","u":"C","o":"corp","sf":2800,"v":10900}},{"type":"Feature","geometry":{"type":"Point","coordinates":[-79.86628,40.45481]},"properties":{"p":"0231M00010000000","a":"BRACEY DR","m":"13th Ward - PITTSBURGH","u":"C","o":"corp","sf":198481,"v":150000}},{"type":"Feature","geometry":{"type":"Point","coordinates":[-79.87854,40.45674]},"properties":{"p":"0231K00025000000","a":"FRANKSTOWN AVE","m":"13th Ward - PITTSBURGH","u":"C","o":"corp","sf":7387,"v":3500}},{"type":"Feature","geometry":{"type":"Point","coordinates":[-79.87853,40.45595]},"properties":{"p":"0231K00088000000","a":"8350 FRANKSTOWN AVE","m":"13th Ward - PITTSBURGH","u":"C","o":"corp","sf":3450,"v":1500}},{"type":"Feature","geometry":{"type":"Point","coordinates":[-79.87642,40.45733]},"properties":{"p":"0231K00057000000","a":"FRANKSTOWN AVE","m":"13th Ward - PITTSBURGH","u":"C","o":"corp","sf":9419,"v":8700}},{"type":"Feature","geometry":{"type":"Point","coordinates":[-79.87616,40.45762]},"properties":{"p":"0231F00298000000","a":"FRANKSTOWN AVE","m":"13th Ward - PITTSBURGH","u":"C","o":"corp","sf":3150,"v":4400}},{"type":"Feature","geometry":{"type":"Point","coordinates":[-79.87842,40.45615]},"properties":{"p":"0231K00085000000","a":"8350 FRANKSTOWN AVE","m":"13th Ward - PITTSBURGH","u":"C","o":"individual","sf":1280,"v":300}},{"type":"Feature","geometry":{"type":"Point","coordinates":[-79.86705,40.45493]},"properties":{"p":"0231S00135000000","a":"BRACEY DR","m":"13th Ward - PITTSBURGH","u":"C","o":"corp","sf":35939,"v":30000}},{"type":"Feature","geometry":{"type":"Point","coordinates":[-79.87309,40.45424]},"properties":{"p":"0231R00017000000","a":"EAST HILLS DR","m":"13th Ward - PITTSBURGH","u":"C","o":"corp","sf":20909,"v":1900}},{"type":"Feature","geometry":{"type":"Point","coordinates":[-79.8664,40.45728]},"properties":{"p":"0296E00001000000","a":"ROBINSON BLVD","m":"Wilkinsburg","u":"C","o":"corp","sf":508232,"v":308000}},{"type":"Feature","geometry":{"type":"Point","coordinates":[-79.86536,40.45522]},"properties":{"p":"0296J00001000000","a":"MONTIER ST","m":"Wilkinsburg","u":"C","o":"corp","sf":583704,"v":178000}},{"type":"Feature","geometry":{"type":"Point","coordinates":[-79.86475,40.45733]},"properties":{"p":"0296J00010000000","a":"ROBINSON BLVD","m":"Wilkinsburg","u":"C","o":"corp","sf":16340,"v":61100}},{"type":"Feature","geometry":{"type":"Point","coordinates":[-79.86391,40.46678]},"properties":{"p":"0295J00245000000","a":"VERONA RD","m":"Penn Hills","u":"C","o":"corp","sf":7500,"v":2000}},{"type":"Feature","geometry":{"type":"Point","coordinates":[-79.86352,40.46686]},"properties":{"p":"0295J00249000000","a":"VERONA RD","m":"Penn Hills","u":"C","o":"corp","sf":21586,"v":38800}},{"type":"Feature","geometry":{"type":"Point","coordinates":[-79.87131,40.45901]},"properties":{"p":"0231D00006000000","a":"EAST HILLS DR","m":"Penn Hills","u":"C","o":"corp","sf":181449,"v":4200}},{"type":"Feature","geometry":{"type":"Point","coordinates":[-79.86103,40.46767]},"properties":{"p":"0295F00260000000","a":"VERONA RD","m":"Penn Hills","u":"C","o":"corp","sf":38468,"v":50800}},{"type":"Feature","geometry":{"type":"Point","coordinates":[-79.86496,40.46428]},"properties":{"p":"0295N00115000000","a":"VERONA RD","m":"Penn Hills","u":"C","o":"individual","sf":28108,"v":40000}},{"type":"Feature","geometry":{"type":"Point","coordinates":[-79.86214,40.46744]},"properties":{"p":"0295K00260000000","a":"VERONA RD","m":"Penn Hills","u":"C","o":"corp","sf":7500,"v":2000}},{"type":"Feature","geometry":{"type":"Point","coordinates":[-79.86233,40.46115]},"properties":{"p":"0296A00024000000","a":"FRANKSTOWN RD","m":"Penn Hills","u":"C","o":"corp","sf":900,"v":400}},{"type":"Feature","geometry":{"type":"Point","coordinates":[-79.87615,40.4583]},"properties":{"p":"0231F00273000000","a":"FRANKSTOWN AVE","m":"13th Ward - PITTSBURGH","u":"C","o":"corp","sf":3840,"v":1800}},{"type":"Feature","geometry":{"type":"Point","coordinates":[-79.86246,40.45654]},"properties":{"p":"0296J00389000000","a":"DOUGLAS DR","m":"Wilkinsburg","u":"C","o":"individual","sf":24045,"v":27700}},{"type":"Feature","geometry":{"type":"Point","coordinates":[-79.87848,40.456]},"properties":{"p":"0231K00087000000","a":"8350 FRANKSTOWN AVE","m":"13th Ward - PITTSBURGH","u":"C","o":"corp","sf":3528,"v":1500}},{"type":"Feature","geometry":{"type":"Point","coordinates":[-79.87489,40.45907]},"properties":{"p":"0231F00251000000","a":"FRANKSTOWN AVE","m":"13th Ward - PITTSBURGH","u":"L","o":"individual","sf":178,"v":100}},{"type":"Feature","geometry":{"type":"Point","coordinates":[-79.8774,40.45959]},"properties":{"p":"0231F00048000000","a":"PARK WAY","m":"13th Ward - PITTSBURGH","u":"L","o":"corp","sf":3750,"v":3500}},{"type":"Feature","geometry":{"type":"Point","coordinates":[-79.87643,40.4595]},"properties":{"p":"0231F00058000000","a":"PARK WAY","m":"13th Ward - PITTSBURGH","u":"L","o":"individual","sf":10506,"v":4500}},{"type":"Feature","geometry":{"type":"Point","coordinates":[-79.87207,40.46067]},"properties":{"p":"0231C00043000000","a":"8876 FRANKSTOWN AVE","m":"13th Ward - PITTSBURGH","u":"L","o":"individual","sf":5104,"v":2500}},{"type":"Feature","geometry":{"type":"Point","coordinates":[-79.87518,40.45907]},"properties":{"p":"0231F00254000000","a":"FRANKSTOWN AVE","m":"13th Ward - PITTSBURGH","u":"L","o":"individual","sf":7684,"v":4200}},{"type":"Feature","geometry":{"type":"Point","coordinates":[-79.87565,40.45891]},"properties":{"p":"0231F00258000000","a":"FRANKSTOWN AVE","m":"13th Ward - PITTSBURGH","u":"L","o":"individual","sf":10246,"v":4500}},{"type":"Feature","geometry":{"type":"Point","coordinates":[-79.8758,40.4587]},"properties":{"p":"0231F00262000000","a":"FRANKSTOWN AVE","m":"13th Ward - PITTSBURGH","u":"L","o":"individual","sf":9810,"v":4400}},{"type":"Feature","geometry":{"type":"Point","coordinates":[-79.87606,40.45836]},"properties":{"p":"0231F00267000000","a":"FRANKSTOWN AVE","m":"13th Ward - PITTSBURGH","u":"L","o":"individual","sf":3795,"v":3500}},{"type":"Feature","geometry":{"type":"Point","coordinates":[-79.87699,40.45831]},"properties":{"p":"0231F00208000000","a":"DERSAM ST","m":"13th Ward - PITTSBURGH","u":"L","o":"individual","sf":3750,"v":3500}},{"type":"Feature","geometry":{"type":"Point","coordinates":[-79.8769,40.45837]},"properties":{"p":"0231F00209000000","a":"DERSAM ST","m":"13th Ward - PITTSBURGH","u":"L","o":"individual","sf":3750,"v":3500}},{"type":"Feature","geometry":{"type":"Point","coordinates":[-79.87676,40.45837]},"properties":{"p":"0231F00210000000","a":"DERSAM ST","m":"13th Ward - PITTSBURGH","u":"L","o":"individual","sf":3750,"v":3500}},{"type":"Feature","geometry":{"type":"Point","coordinates":[-79.87717,40.45911]},"properties":{"p":"0231F00107000000","a":"HANSELL AVE","m":"13th Ward - PITTSBURGH","u":"L","o":"individual","sf":11250,"v":4600}},{"type":"Feature","geometry":{"type":"Point","coordinates":[-79.87866,40.45883]},"properties":{"p":"0231F00122000000","a":"CAIN WAY","m":"13th Ward - PITTSBURGH","u":"L","o":"individual","sf":3750,"v":1500}},{"type":"Feature","geometry":{"type":"Point","coordinates":[-79.87813,40.45881]},"properties":{"p":"0231F00128000000","a":"HANSELL AVE","m":"13th Ward - PITTSBURGH","u":"L","o":"individual","sf":3750,"v":3500}},{"type":"Feature","geometry":{"type":"Point","coordinates":[-79.87802,40.4588]},"properties":{"p":"0231F00129000000","a":"CAIN WAY","m":"13th Ward - PITTSBURGH","u":"L","o":"individual","sf":3750,"v":3500}},{"type":"Feature","geometry":{"type":"Point","coordinates":[-79.87781,40.45877]},"properties":{"p":"0231F00131000000","a":"CAIN WAY","m":"13th Ward - PITTSBURGH","u":"L","o":"individual","sf":3750,"v":3500}},{"type":"Feature","geometry":{"type":"Point","coordinates":[-79.87769,40.45876]},"properties":{"p":"0231F00132000000","a":"CAIN WAY","m":"13th Ward - PITTSBURGH","u":"L","o":"individual","sf":3750,"v":3500}},{"type":"Feature","geometry":{"type":"Point","coordinates":[-79.87759,40.45875]},"properties":{"p":"0231F00133000000","a":"CAIN WAY","m":"13th Ward - PITTSBURGH","u":"L","o":"individual","sf":3750,"v":3500}},{"type":"Feature","geometry":{"type":"Point","coordinates":[-79.87658,40.46132]},"properties":{"p":"0231B00115000000","a":"BAIR AVE","m":"13th Ward - PITTSBURGH","u":"L","o":"individual","sf":20530,"v":4000}},{"type":"Feature","geometry":{"type":"Point","coordinates":[-79.87651,40.46088]},"properties":{"p":"0231B00169000000","a":"THOMPSON DR","m":"13th Ward - PITTSBURGH","u":"L","o":"individual","sf":12340,"v":4700}},{"type":"Feature","geometry":{"type":"Point","coordinates":[-79.87828,40.45813]},"properties":{"p":"0231F00181000000","a":"DERSAM ST","m":"13th Ward - PITTSBURGH","u":"L","o":"individual","sf":10532,"v":4500}},{"type":"Feature","geometry":{"type":"Point","coordinates":[-79.87766,40.4579]},"properties":{"p":"0231F00197000000","a":"DERSAM ST","m":"13th Ward - PITTSBURGH","u":"L","o":"corp","sf":3750,"v":3500}},{"type":"Feature","geometry":{"type":"Point","coordinates":[-79.87757,40.45795]},"properties":{"p":"0231F00198000000","a":"DERSAM ST","m":"13th Ward - PITTSBURGH","u":"L","o":"individual","sf":3750,"v":800}},{"type":"Feature","geometry":{"type":"Point","coordinates":[-79.87872,40.45474]},"properties":{"p":"0231N00081000000","a":"BRICELYN ST","m":"13th Ward - PITTSBURGH","u":"L","o":"individual","sf":2500,"v":1000}},{"type":"Feature","geometry":{"type":"Point","coordinates":[-79.87879,40.45468]},"properties":{"p":"0231N00082000000","a":"BRICELYN ST","m":"13th Ward - PITTSBURGH","u":"L","o":"individual","sf":2500,"v":1000}},{"type":"Feature","geometry":{"type":"Point","coordinates":[-79.87894,40.45411]},"properties":{"p":"0231N00092000000","a":"DORNBUSH ST","m":"13th Ward - PITTSBURGH","u":"L","o":"individual","sf":5000,"v":4000}},{"type":"Feature","geometry":{"type":"Point","coordinates":[-79.879,40.45415]},"properties":{"p":"0231N00093000000","a":"DORNBUSH ST","m":"13th Ward - PITTSBURGH","u":"L","o":"individual","sf":2188,"v":500}},{"type":"Feature","geometry":{"type":"Point","coordinates":[-79.87904,40.45419]},"properties":{"p":"0231N00094000000","a":"DORNBUSH ST","m":"13th Ward - PITTSBURGH","u":"L","o":"corp","sf":3500,"v":3400}},{"type":"Feature","geometry":{"type":"Point","coordinates":[-79.87829,40.45504]},"properties":{"p":"0231P00055000000","a":"BRICELYN ST","m":"13th Ward - PITTSBURGH","u":"L","o":"individual","sf":5000,"v":4000}},{"type":"Feature","geometry":{"type":"Point","coordinates":[-79.87819,40.45512]},"properties":{"p":"0231P00057000000","a":"BRICELYN ST","m":"13th Ward - PITTSBURGH","u":"L","o":"corp","sf":2500,"v":600}},{"type":"Feature","geometry":{"type":"Point","coordinates":[-79.87753,40.45514]},"properties":{"p":"0231P00062000001","a":"VIDETTE ST","m":"13th Ward - PITTSBURGH","u":"L","o":"individual","sf":2750,"v":1100}},{"type":"Feature","geometry":{"type":"Point","coordinates":[-79.8795,40.45904]},"properties":{"p":"0231E00305000000","a":"STONEVILLE ST","m":"13th Ward - PITTSBURGH","u":"L","o":"individual","sf":3540,"v":800}},{"type":"Feature","geometry":{"type":"Point","coordinates":[-79.87951,40.45852]},"properties":{"p":"0231E00313000000","a":"STONEVILLE ST","m":"13th Ward - PITTSBURGH","u":"L","o":"corp","sf":3050,"v":3200}},{"type":"Feature","geometry":{"type":"Point","coordinates":[-79.87252,40.457]},"properties":{"p":"0231L00126000000","a":"PARK HILL DR","m":"13th Ward - PITTSBURGH","u":"L","o":"corp","sf":867,"v":1700}},{"type":"Feature","geometry":{"type":"Point","coordinates":[-79.87558,40.45652]},"properties":{"p":"0231K00287000000","a":"WILKINSBURG AVE","m":"13th Ward - PITTSBURGH","u":"L","o":"individual","sf":2600,"v":600}},{"type":"Feature","geometry":{"type":"Point","coordinates":[-79.87558,40.45659]},"properties":{"p":"0231K00288000000","a":"WILKINSBURG AVE","m":"13th Ward - PITTSBURGH","u":"L","o":"individual","sf":2600,"v":600}},{"type":"Feature","geometry":{"type":"Point","coordinates":[-79.87843,40.45448]},"properties":{"p":"0231P00076000000","a":"VIDETTE ST","m":"13th Ward - PITTSBURGH","u":"L","o":"individual","sf":2750,"v":1100}},{"type":"Feature","geometry":{"type":"Point","coordinates":[-79.8778,40.4554]},"properties":{"p":"0231K00181000000","a":"8344 BRICELYN ST","m":"13th Ward - PITTSBURGH","u":"L","o":"individual","sf":2500,"v":3000}},{"type":"Feature","geometry":{"type":"Point","coordinates":[-79.87767,40.4555]},"properties":{"p":"0231K00183000000","a":"BRICELYN ST","m":"13th Ward - PITTSBURGH","u":"L","o":"individual","sf":2500,"v":600}},{"type":"Feature","geometry":{"type":"Point","coordinates":[-79.8799,40.45556]},"properties":{"p":"0231J00336000000","a":"FRANKSTOWN AVE","m":"13th Ward - PITTSBURGH","u":"L","o":"corp","sf":8605,"v":4300}},{"type":"Feature","geometry":{"type":"Point","coordinates":[-79.87966,40.45571]},"properties":{"p":"0231J00341000000","a":"FRANKSTOWN AVE","m":"13th Ward - PITTSBURGH","u":"L","o":"individual","sf":3420,"v":3400}},{"type":"Feature","geometry":{"type":"Point","coordinates":[-79.87914,40.45546]},"properties":{"p":"0231J00369000000","a":"FRANKSTOWN AVE","m":"13th Ward - PITTSBURGH","u":"L","o":"corp","sf":2750,"v":1100}},{"type":"Feature","geometry":{"type":"Point","coordinates":[-79.87914,40.45428]},"properties":{"p":"0231N00097000000","a":"DORNBUSH ST","m":"13th Ward - PITTSBURGH","u":"L","o":"individual","sf":6875,"v":4200}},{"type":"Feature","geometry":{"type":"Point","coordinates":[-79.87917,40.45451]},"properties":{"p":"0231N00098000000","a":"8220 BRICELYN ST","m":"13th Ward - PITTSBURGH","u":"L","o":"corp","sf":1343,"v":2500}},{"type":"Feature","geometry":{"type":"Point","coordinates":[-79.87921,40.45448]},"properties":{"p":"0231N00099000000","a":"8220 BRICELYN ST","m":"13th Ward - PITTSBURGH","u":"L","o":"corp","sf":1296,"v":300}},{"type":"Feature","geometry":{"type":"Point","coordinates":[-79.87926,40.45445]},"properties":{"p":"0231N00100000000","a":"BRICELYN ST","m":"13th Ward - PITTSBURGH","u":"L","o":"individual","sf":1210,"v":300}},{"type":"Feature","geometry":{"type":"Point","coordinates":[-79.87716,40.45586]},"properties":{"p":"0231K00193000000","a":"BRICELYN ST","m":"13th Ward - PITTSBURGH","u":"L","o":"corp","sf":2500,"v":600}},{"type":"Feature","geometry":{"type":"Point","coordinates":[-79.87558,40.4536]},"properties":{"p":"0231P00240000000","a":"WILKINSBURG AVE","m":"13th Ward - PITTSBURGH","u":"L","o":"individual","sf":7600,"v":5200}},{"type":"Feature","geometry":{"type":"Point","coordinates":[-79.87558,40.45376]},"properties":{"p":"0231P00242000000","a":"WILKINSBURG AVE","m":"13th Ward - PITTSBURGH","u":"L","o":"individual","sf":7500,"v":5200}},{"type":"Feature","geometry":{"type":"Point","coordinates":[-79.87558,40.45391]},"properties":{"p":"0231P00243000000","a":"WILKINSBURG AVE","m":"13th Ward - PITTSBURGH","u":"L","o":"individual","sf":11025,"v":5500}},{"type":"Feature","geometry":{"type":"Point","coordinates":[-79.87558,40.45433]},"properties":{"p":"0231P00254000000","a":"WILKINSBURG AVE","m":"13th Ward - PITTSBURGH","u":"L","o":"individual","sf":3500,"v":4300}},{"type":"Feature","geometry":{"type":"Point","coordinates":[-79.87558,40.45442]},"properties":{"p":"0231P00255000000","a":"WILKINSBURG AVE","m":"13th Ward - PITTSBURGH","u":"L","o":"individual","sf":6900,"v":5200}},{"type":"Feature","geometry":{"type":"Point","coordinates":[-79.87947,40.45432]},"properties":{"p":"0231N00104000000","a":"BRICELYN ST","m":"13th Ward - PITTSBURGH","u":"L","o":"corp","sf":1275,"v":2500}},{"type":"Feature","geometry":{"type":"Point","coordinates":[-79.87737,40.45421]},"properties":{"p":"0231P00128000000","a":"ROLFE ST","m":"13th Ward - PITTSBURGH","u":"L","o":"individual","sf":5500,"v":4100}},{"type":"Feature","geometry":{"type":"Point","coordinates":[-79.87748,40.45413]},"properties":{"p":"0231P00129000000","a":"ROLFE ST","m":"13th Ward - PITTSBURGH","u":"L","o":"individual","sf":2750,"v":1100}},{"type":"Feature","geometry":{"type":"Point","coordinates":[-79.87754,40.45408]},"properties":{"p":"0231P00130000000","a":"ROLFE ST","m":"13th Ward - PITTSBURGH","u":"L","o":"individual","sf":2750,"v":1100}},{"type":"Feature","geometry":{"type":"Point","coordinates":[-79.87762,40.45402]},"properties":{"p":"0231P00132000000","a":"ROLFE ST","m":"13th Ward - PITTSBURGH","u":"L","o":"individual","sf":5500,"v":4100}},{"type":"Feature","geometry":{"type":"Point","coordinates":[-79.87904,40.45804]},"properties":{"p":"0231E00343000000","a":"PERCHMENT ST","m":"13th Ward - PITTSBURGH","u":"L","o":"individual","sf":3450,"v":3400}},{"type":"Feature","geometry":{"type":"Point","coordinates":[-79.87904,40.45829]},"properties":{"p":"0231E00347000000","a":"PERCHMENT ST","m":"13th Ward - PITTSBURGH","u":"L","o":"individual","sf":6741,"v":4200}},{"type":"Feature","geometry":{"type":"Point","coordinates":[-79.87927,40.45537]},"properties":{"p":"0231J00371000000","a":"FRANKSTOWN AVE","m":"13th Ward - PITTSBURGH","u":"L","o":"individual","sf":2575,"v":3000}},{"type":"Feature","geometry":{"type":"Point","coordinates":[-79.87936,40.45534]},"properties":{"p":"0231J00372000000","a":"FRANKSTOWN AVE","m":"13th Ward - PITTSBURGH","u":"L","o":"individual","sf":1300,"v":400}},{"type":"Feature","geometry":{"type":"Point","coordinates":[-79.87702,40.45596]},"properties":{"p":"0231K00195000000","a":"BRICELYN ST","m":"13th Ward - PITTSBURGH","u":"L","o":"individual","sf":2500,"v":3000}},{"type":"Feature","geometry":{"type":"Point","coordinates":[-79.87324,40.45504]},"properties":{"p":"0231L00380000000","a":"EAST HILLS DR","m":"13th Ward - PITTSBURGH","u":"L","o":"corp","sf":815290,"v":60100}},{"type":"Feature","geometry":{"type":"Point","coordinates":[-79.87472,40.45405]},"properties":{"p":"0231L00390000000","a":"PARK HILL DR","m":"13th Ward - PITTSBURGH","u":"L","o":"corp","sf":66207,"v":10500}},{"type":"Feature","geometry":{"type":"Point","coordinates":[-79.87922,40.45525]},"properties":{"p":"0231J00377000000","a":"FRANKSTOWN AVE","m":"13th Ward - PITTSBURGH","u":"L","o":"individual","sf":1200,"v":2500}},{"type":"Feature","geometry":{"type":"Point","coordinates":[-79.87203,40.45818]},"properties":{"p":"0231G00245000000","a":"EYMARD ST","m":"13th Ward - PITTSBURGH","u":"L","o":"individual","sf":11058,"v":5600}},{"type":"Feature","geometry":{"type":"Point","coordinates":[-79.87941,40.454]},"properties":{"p":"0231N00132000000","a":"TOKAY ST","m":"13th Ward - PITTSBURGH","u":"L","o":"corp","sf":2500,"v":400}},{"type":"Feature","geometry":{"type":"Point","coordinates":[-79.87859,40.45591]},"properties":{"p":"0231K00089000000","a":"FRANKSTOWN AVE","m":"13th Ward - PITTSBURGH","u":"L","o":"individual","sf":3375,"v":3400}},{"type":"Feature","geometry":{"type":"Point","coordinates":[-79.87611,40.45721]},"properties":{"p":"0231K00136000000","a":"BRICELYN ST","m":"13th Ward - PITTSBURGH","u":"L","o":"corp","sf":6450,"v":4100}},{"type":"Feature","geometry":{"type":"Point","coordinates":[-79.87632,40.45704]},"properties":{"p":"0231K00138000000","a":"BRICELYN ST","m":"13th Ward - PITTSBURGH","u":"L","o":"individual","sf":5000,"v":4000}},{"type":"Feature","geometry":{"type":"Point","coordinates":[-79.87661,40.45682]},"properties":{"p":"0231K00142000000","a":"BRICELYN ST","m":"13th Ward - PITTSBURGH","u":"L","o":"individual","sf":2500,"v":600}},{"type":"Feature","geometry":{"type":"Point","coordinates":[-79.87674,40.45673]},"properties":{"p":"0231K00145000000","a":"BRICELYN ST","m":"13th Ward - PITTSBURGH","u":"L","o":"individual","sf":2500,"v":600}},{"type":"Feature","geometry":{"type":"Point","coordinates":[-79.87222,40.45631]},"properties":{"p":"0231L00176000000","a":"PARK HILL DR","m":"13th Ward - PITTSBURGH","u":"L","o":"corp","sf":1008,"v":1800}},{"type":"Feature","geometry":{"type":"Point","coordinates":[-79.87299,40.45747]},"properties":{"p":"0231L00021000000","a":"144 KILMER ST","m":"13th Ward - PITTSBURGH","u":"L","o":"individual","sf":5400,"v":5000}},{"type":"Feature","geometry":{"type":"Point","coordinates":[-79.87756,40.45844]},"properties":{"p":"0231F00166000000","a":"DERSAM ST","m":"13th Ward - PITTSBURGH","u":"L","o":"individual","sf":2340,"v":2900}},{"type":"Feature","geometry":{"type":"Point","coordinates":[-79.87776,40.4584]},"properties":{"p":"0231F00168000000","a":"8421 DERSAM ST","m":"13th Ward - PITTSBURGH","u":"L","o":"corp","sf":3887,"v":3600}},{"type":"Feature","geometry":{"type":"Point","coordinates":[-79.87786,40.45836]},"properties":{"p":"0231F00172000000","a":"DERSAM ST","m":"13th Ward - PITTSBURGH","u":"L","o":"corp","sf":3125,"v":3300}},{"type":"Feature","geometry":{"type":"Point","coordinates":[-79.87608,40.4567]},"properties":{"p":"0231K00211000000","a":"BRICELYN ST","m":"13th Ward - PITTSBURGH","u":"L","o":"corp","sf":2225,"v":900}},{"type":"Feature","geometry":{"type":"Point","coordinates":[-79.87622,40.45607]},"properties":{"p":"0231K00224000000","a":"VIDETTE ST","m":"13th Ward - PITTSBURGH","u":"L","o":"individual","sf":5500,"v":4100}},{"type":"Feature","geometry":{"type":"Point","coordinates":[-79.87667,40.45576]},"properties":{"p":"0231K00232000000","a":"VIDETTE ST","m":"13th Ward - PITTSBURGH","u":"L","o":"corp","sf":2750,"v":600}},{"type":"Feature","geometry":{"type":"Point","coordinates":[-79.87816,40.45301]},"properties":{"p":"0231P00012000000","a":"TOKAY ST","m":"13th Ward - PITTSBURGH","u":"L","o":"individual","sf":7000,"v":4200}},{"type":"Feature","geometry":{"type":"Point","coordinates":[-79.87778,40.45278]},"properties":{"p":"0231P00017000000","a":"TOKAY ST","m":"13th Ward - PITTSBURGH","u":"L","o":"individual","sf":5000,"v":4000}},{"type":"Feature","geometry":{"type":"Point","coordinates":[-79.8774,40.45755]},"properties":{"p":"0231K00044000000","a":"FRANKSTOWN AVE","m":"13th Ward - PITTSBURGH","u":"L","o":"individual","sf":3528,"v":3400}},{"type":"Feature","geometry":{"type":"Point","coordinates":[-79.87684,40.45728]},"properties":{"p":"0231K00058000000","a":"FRANKSTOWN AVE","m":"13th Ward - PITTSBURGH","u":"L","o":"individual","sf":3100,"v":3200}},{"type":"Feature","geometry":{"type":"Point","coordinates":[-79.8769,40.45715]},"properties":{"p":"0231K00060000000","a":"FRANKSTOWN AVE","m":"13th Ward - PITTSBURGH","u":"L","o":"individual","sf":3200,"v":3300}},{"type":"Feature","geometry":{"type":"Point","coordinates":[-79.87894,40.45342]},"properties":{"p":"0231N00143000000","a":"FAHNESTOCK ST","m":"13th Ward - PITTSBURGH","u":"L","o":"individual","sf":1840,"v":500}},{"type":"Feature","geometry":{"type":"Point","coordinates":[-79.87886,40.4535]},"properties":{"p":"0231N00144000000","a":"FAHNESTOCK ST","m":"13th Ward - PITTSBURGH","u":"L","o":"individual","sf":3520,"v":3400}},{"type":"Feature","geometry":{"type":"Point","coordinates":[-79.87707,40.45775]},"properties":{"p":"0231F00288000000","a":"FRANKSTOWN AVE","m":"13th Ward - PITTSBURGH","u":"L","o":"individual","sf":2906,"v":1200}},{"type":"Feature","geometry":{"type":"Point","coordinates":[-79.87457,40.45827]},"properties":{"p":"0231F00316000000","a":"MADONNA ST","m":"13th Ward - PITTSBURGH","u":"L","o":"corp","sf":33715,"v":7600}},{"type":"Feature","geometry":{"type":"Point","coordinates":[-79.87764,40.45303]},"properties":{"p":"0231P00027000000","a":"TOKAY ST","m":"13th Ward - PITTSBURGH","u":"L","o":"individual","sf":3500,"v":3400}},{"type":"Feature","geometry":{"type":"Point","coordinates":[-79.87782,40.453]},"properties":{"p":"0231P00028000000","a":"TOKAY ST","m":"13th Ward - PITTSBURGH","u":"L","o":"individual","sf":3250,"v":3300}},{"type":"Feature","geometry":{"type":"Point","coordinates":[-79.87803,40.45297]},"properties":{"p":"0231P00029000000","a":"TOKAY ST","m":"13th Ward - PITTSBURGH","u":"L","o":"individual","sf":3250,"v":3300}},{"type":"Feature","geometry":{"type":"Point","coordinates":[-79.87911,40.45314]},"properties":{"p":"0231N00161000000","a":"FAHNESTOCK ST","m":"13th Ward - PITTSBURGH","u":"L","o":"individual","sf":2026,"v":500}},{"type":"Feature","geometry":{"type":"Point","coordinates":[-79.8768,40.45668]},"properties":{"p":"0231K00146000000","a":"BRICELYN ST","m":"13th Ward - PITTSBURGH","u":"L","o":"corp","sf":2500,"v":1000}},{"type":"Feature","geometry":{"type":"Point","coordinates":[-79.8769,40.45661]},"properties":{"p":"0231K00148000000","a":"BRICELYN ST","m":"13th Ward - PITTSBURGH","u":"L","o":"corp","sf":5000,"v":4000}},{"type":"Feature","geometry":{"type":"Point","coordinates":[-79.87704,40.45652]},"properties":{"p":"0231K00150000000","a":"BRICELYN ST","m":"13th Ward - PITTSBURGH","u":"L","o":"corp","sf":5000,"v":4000}},{"type":"Feature","geometry":{"type":"Point","coordinates":[-79.87716,40.45642]},"properties":{"p":"0231K00152000000","a":"BRICELYN ST","m":"13th Ward - PITTSBURGH","u":"L","o":"corp","sf":5000,"v":4000}},{"type":"Feature","geometry":{"type":"Point","coordinates":[-79.87726,40.45635]},"properties":{"p":"0231K00153000000","a":"BRICELYN ST","m":"13th Ward - PITTSBURGH","u":"L","o":"individual","sf":2500,"v":3000}},{"type":"Feature","geometry":{"type":"Point","coordinates":[-79.87756,40.4561]},"properties":{"p":"0231K00158000000","a":"BRICELYN ST","m":"13th Ward - PITTSBURGH","u":"L","o":"individual","sf":2500,"v":600}},{"type":"Feature","geometry":{"type":"Point","coordinates":[-79.87769,40.45601]},"properties":{"p":"0231K00160000000","a":"BRICELYN ST","m":"13th Ward - PITTSBURGH","u":"L","o":"individual","sf":2500,"v":600}},{"type":"Feature","geometry":{"type":"Point","coordinates":[-79.87897,40.45895]},"properties":{"p":"0231E00363000000","a":"HANSELL AVE","m":"13th Ward - PITTSBURGH","u":"L","o":"corp","sf":3750,"v":3500}},{"type":"Feature","geometry":{"type":"Point","coordinates":[-79.87859,40.45437]},"properties":{"p":"0231P00080000000","a":"VIDETTE ST","m":"13th Ward - PITTSBURGH","u":"L","o":"individual","sf":5500,"v":4100}},{"type":"Feature","geometry":{"type":"Point","coordinates":[-79.87823,40.45405]},"properties":{"p":"0231P00082000000","a":"VIDETTE ST","m":"13th Ward - PITTSBURGH","u":"L","o":"individual","sf":2750,"v":600}},{"type":"Feature","geometry":{"type":"Point","coordinates":[-79.87963,40.45688]},"properties":{"p":"0231J00209000000","a":"PERCHMENT ST","m":"13th Ward - PITTSBURGH","u":"L","o":"individual","sf":9576,"v":4400}},{"type":"Feature","geometry":{"type":"Point","coordinates":[-79.87947,40.45706]},"properties":{"p":"0231J00212000000","a":"PERCHMENT ST","m":"13th Ward - PITTSBURGH","u":"L","o":"individual","sf":4305,"v":3700}},{"type":"Feature","geometry":{"type":"Point","coordinates":[-79.8795,40.45752]},"properties":{"p":"0231J00219000000","a":"STONEVILLE ST","m":"13th Ward - PITTSBURGH","u":"L","o":"corp","sf":3150,"v":3300}},{"type":"Feature","geometry":{"type":"Point","coordinates":[-79.87912,40.4574]},"properties":{"p":"0231J00222000000","a":"PERCHMENT ST","m":"13th Ward - PITTSBURGH","u":"L","o":"individual","sf":19845,"v":5300}},{"type":"Feature","geometry":{"type":"Point","coordinates":[-79.87724,40.45535]},"properties":{"p":"0231K00242000000","a":"VIDETTE ST","m":"13th Ward - PITTSBURGH","u":"L","o":"individual","sf":2750,"v":600}},{"type":"Feature","geometry":{"type":"Point","coordinates":[-79.87731,40.4553]},"properties":{"p":"0231K00243000000","a":"VIDETTE ST","m":"13th Ward - PITTSBURGH","u":"L","o":"individual","sf":2750,"v":1100}},{"type":"Feature","geometry":{"type":"Point","coordinates":[-79.87621,40.45502]},"properties":{"p":"0231P00110000000","a":"ROLFE ST","m":"13th Ward - PITTSBURGH","u":"L","o":"corp","sf":2750,"v":600}},{"type":"Feature","geometry":{"type":"Point","coordinates":[-79.87631,40.45495]},"properties":{"p":"0231P00112000000","a":"ROLFE ST","m":"13th Ward - PITTSBURGH","u":"L","o":"corp","sf":5500,"v":4100}},{"type":"Feature","geometry":{"type":"Point","coordinates":[-79.87608,40.45527]},"properties":{"p":"0231P00112022700","a":"ROLFE ST","m":"13th Ward - PITTSBURGH","u":"L","o":"corp","sf":10654,"v":4500}},{"type":"Feature","geometry":{"type":"Point","coordinates":[-79.87646,40.45487]},"properties":{"p":"0231P00114000000","a":"ROLFE ST","m":"13th Ward - PITTSBURGH","u":"L","o":"corp","sf":5000,"v":4000}},{"type":"Feature","geometry":{"type":"Point","coordinates":[-79.87698,40.45449]},"properties":{"p":"0231P00122000000","a":"ROLFE ST","m":"13th Ward - PITTSBURGH","u":"L","o":"corp","sf":5500,"v":4100}},{"type":"Feature","geometry":{"type":"Point","coordinates":[-79.87439,40.45555]},"properties":{"p":"0231L00054000000","a":"PARK HILL DR","m":"13th Ward - PITTSBURGH","u":"L","o":"individual","sf":782,"v":300}},{"type":"Feature","geometry":{"type":"Point","coordinates":[-79.87668,40.45411]},"properties":{"p":"0231P00153000000","a":"ROLFE ST","m":"13th Ward - PITTSBURGH","u":"L","o":"corp","sf":2750,"v":600}},{"type":"Feature","geometry":{"type":"Point","coordinates":[-79.87608,40.45454]},"properties":{"p":"0231P00163000000","a":"ROLFE ST","m":"13th Ward - PITTSBURGH","u":"L","o":"individual","sf":13761,"v":4800}},{"type":"Feature","geometry":{"type":"Point","coordinates":[-79.87925,40.4567]},"properties":{"p":"0231J00247000000","a":"PERCHMENT ST","m":"13th Ward - PITTSBURGH","u":"L","o":"individual","sf":3720,"v":3500}},{"type":"Feature","geometry":{"type":"Point","coordinates":[-79.8793,40.45664]},"properties":{"p":"0231J00249000000","a":"PERCHMENT ST","m":"13th Ward - PITTSBURGH","u":"L","o":"individual","sf":3720,"v":3500}},{"type":"Feature","geometry":{"type":"Point","coordinates":[-79.87937,40.45658]},"properties":{"p":"0231J00250000000","a":"PERCHMENT ST","m":"13th Ward - PITTSBURGH","u":"L","o":"individual","sf":3720,"v":3500}},{"type":"Feature","geometry":{"type":"Point","coordinates":[-79.87944,40.45651]},"properties":{"p":"0231J00251000000","a":"PERCHMENT ST","m":"13th Ward - PITTSBURGH","u":"L","o":"individual","sf":3720,"v":3500}},{"type":"Feature","geometry":{"type":"Point","coordinates":[-79.87968,40.45629]},"properties":{"p":"0231J00260000000","a":"PERCHMENT ST","m":"13th Ward - PITTSBURGH","u":"L","o":"individual","sf":7440,"v":4200}},{"type":"Feature","geometry":{"type":"Point","coordinates":[-79.87978,40.4562]},"properties":{"p":"0231J00261000000","a":"PERCHMENT ST","m":"13th Ward - PITTSBURGH","u":"L","o":"individual","sf":3720,"v":3500}},{"type":"Feature","geometry":{"type":"Point","coordinates":[-79.87985,40.45613]},"properties":{"p":"0231J00262000000","a":"PERCHMENT ST","m":"13th Ward - PITTSBURGH","u":"L","o":"individual","sf":3720,"v":3500}},{"type":"Feature","geometry":{"type":"Point","coordinates":[-79.87999,40.456]},"properties":{"p":"0231J00263000000","a":"PERCHMENT ST","m":"13th Ward - PITTSBURGH","u":"L","o":"individual","sf":3720,"v":3500}},{"type":"Feature","geometry":{"type":"Point","coordinates":[-79.87992,40.45607]},"properties":{"p":"0231J00264000000","a":"PERCHMENT ST","m":"13th Ward - PITTSBURGH","u":"L","o":"individual","sf":3720,"v":3500}},{"type":"Feature","geometry":{"type":"Point","coordinates":[-79.87696,40.45711]},"properties":{"p":"0231K00061000000","a":"FRANKSTOWN AVE","m":"13th Ward - PITTSBURGH","u":"L","o":"corp","sf":3240,"v":3300}},{"type":"Feature","geometry":{"type":"Point","coordinates":[-79.87702,40.45707]},"properties":{"p":"0231K00062000000","a":"FRANKSTOWN AVE","m":"13th Ward - PITTSBURGH","u":"L","o":"individual","sf":4125,"v":3700}},{"type":"Feature","geometry":{"type":"Point","coordinates":[-79.87759,40.45677]},"properties":{"p":"0231K00071000001","a":"8384 FRANKSTOWN AVE","m":"13th Ward - PITTSBURGH","u":"L","o":"corp","sf":4632,"v":1000}},{"type":"Feature","geometry":{"type":"Point","coordinates":[-79.87835,40.4562]},"properties":{"p":"0231K00084000000","a":"FRANKSTOWN AVE","m":"13th Ward - PITTSBURGH","u":"L","o":"corp","sf":2108,"v":500}},{"type":"Feature","geometry":{"type":"Point","coordinates":[-79.87558,40.45521]},"properties":{"p":"0231K00267000000","a":"WILKINSBURG AVE","m":"13th Ward - PITTSBURGH","u":"L","o":"individual","sf":8625,"v":1900}},{"type":"Feature","geometry":{"type":"Point","coordinates":[-79.87558,40.45589]},"properties":{"p":"0231K00276000000","a":"737 WILKINSBURG AVE","m":"13th Ward - PITTSBURGH","u":"L","o":"individual","sf":8625,"v":5300}},{"type":"Feature","geometry":{"type":"Point","coordinates":[-79.87558,40.45603]},"properties":{"p":"0231K00279000000","a":"WILKINSBURG AVE","m":"13th Ward - PITTSBURGH","u":"L","o":"individual","sf":2800,"v":700}},{"type":"Feature","geometry":{"type":"Point","coordinates":[-79.87927,40.45488]},"properties":{"p":"0231N00070000000","a":"DORNBUSH ST","m":"13th Ward - PITTSBURGH","u":"L","o":"individual","sf":2500,"v":1000}},{"type":"Feature","geometry":{"type":"Point","coordinates":[-79.8792,40.45493]},"properties":{"p":"0231N00071000000","a":"BRICELYN ST","m":"13th Ward - PITTSBURGH","u":"L","o":"individual","sf":2500,"v":1000}},{"type":"Feature","geometry":{"type":"Point","coordinates":[-79.87908,40.45503]},"properties":{"p":"0231N00073000000","a":"8311 BRICELYN ST","m":"13th Ward - PITTSBURGH","u":"L","o":"individual","sf":2500,"v":1000}},{"type":"Feature","geometry":{"type":"Point","coordinates":[-79.8794,40.45318]},"properties":{"p":"0231N00174000000","a":"SEAGIRT ST","m":"13th Ward - PITTSBURGH","u":"L","o":"individual","sf":1524,"v":800}},{"type":"Feature","geometry":{"type":"Point","coordinates":[-79.87937,40.45311]},"properties":{"p":"0231N00175000000","a":"SEAGIRT ST","m":"13th Ward - PITTSBURGH","u":"L","o":"individual","sf":2003,"v":500}},{"type":"Feature","geometry":{"type":"Point","coordinates":[-79.87792,40.45585]},"properties":{"p":"0231K00164000000","a":"BRICELYN ST","m":"13th Ward - PITTSBURGH","u":"L","o":"individual","sf":5000,"v":4000}},{"type":"Feature","geometry":{"type":"Point","coordinates":[-79.87802,40.45577]},"properties":{"p":"0231K00165000000","a":"BRICELYN ST","m":"13th Ward - PITTSBURGH","u":"L","o":"individual","sf":2500,"v":600}},{"type":"Feature","geometry":{"type":"Point","coordinates":[-79.87815,40.45568]},"properties":{"p":"0231K00167000000","a":"BRICELYN ST","m":"13th Ward - PITTSBURGH","u":"L","o":"individual","sf":2500,"v":1000}},{"type":"Feature","geometry":{"type":"Point","coordinates":[-79.87577,40.45303]},"properties":{"p":"0231P00230000000","a":"612 WILKINSBURG AVE","m":"13th Ward - PITTSBURGH","u":"L","o":"individual","sf":13910,"v":3300}},{"type":"Feature","geometry":{"type":"Point","coordinates":[-79.87828,40.45558]},"properties":{"p":"0231K00169000000","a":"BRICELYN ST","m":"13th Ward - PITTSBURGH","u":"L","o":"individual","sf":2500,"v":600}},{"type":"Feature","geometry":{"type":"Point","coordinates":[-79.87838,40.45551]},"properties":{"p":"0231K00171000000","a":"BRICELYN ST","m":"13th Ward - PITTSBURGH","u":"L","o":"individual","sf":5000,"v":4000}},{"type":"Feature","geometry":{"type":"Point","coordinates":[-79.87848,40.45544]},"properties":{"p":"0231K00172000000","a":"BRICELYN ST","m":"13th Ward - PITTSBURGH","u":"L","o":"individual","sf":2500,"v":600}},{"type":"Feature","geometry":{"type":"Point","coordinates":[-79.87856,40.45278]},"properties":{"p":"0231P00003000000","a":"FAHNESTOCK ST","m":"13th Ward - PITTSBURGH","u":"L","o":"individual","sf":6050,"v":5100}},{"type":"Feature","geometry":{"type":"Point","coordinates":[-79.87834,40.45314]},"properties":{"p":"0231P00009000000","a":"TOKAY ST","m":"13th Ward - PITTSBURGH","u":"L","o":"corp","sf":5000,"v":1100}},{"type":"Feature","geometry":{"type":"Point","coordinates":[-79.87862,40.45481]},"properties":{"p":"0231N00080000000","a":"BRICELYN ST","m":"13th Ward - PITTSBURGH","u":"L","o":"individual","sf":5000,"v":4000}},{"type":"Feature","geometry":{"type":"Point","coordinates":[-79.87936,40.45047]},"properties":{"p":"0232A00254000000","a":"WARSAW ST","m":"13th Ward - PITTSBURGH","u":"L","o":"individual","sf":1590,"v":400}},{"type":"Feature","geometry":{"type":"Point","coordinates":[-79.87986,40.45006]},"properties":{"p":"0232E00129000000","a":"WARSAW ST","m":"13th Ward - PITTSBURGH","u":"L","o":"individual","sf":3150,"v":1600}},{"type":"Feature","geometry":{"type":"Point","coordinates":[-79.87989,40.45014]},"properties":{"p":"0232E00130000000","a":"WARSAW ST","m":"13th Ward - PITTSBURGH","u":"L","o":"corp","sf":3450,"v":1700}},{"type":"Feature","geometry":{"type":"Point","coordinates":[-79.8794,40.4503]},"properties":{"p":"0232E00135000000","a":"WARSAW ST","m":"13th Ward - PITTSBURGH","u":"L","o":"individual","sf":3150,"v":800}},{"type":"Feature","geometry":{"type":"Point","coordinates":[-79.87933,40.45006]},"properties":{"p":"0232E00138000000","a":"WARSAW ST","m":"13th Ward - PITTSBURGH","u":"L","o":"individual","sf":3150,"v":800}},{"type":"Feature","geometry":{"type":"Point","coordinates":[-79.87748,40.45196]},"properties":{"p":"0232B00109000000","a":"MAPLEWOOD AVE","m":"13th Ward - PITTSBURGH","u":"L","o":"individual","sf":3200,"v":1600}},{"type":"Feature","geometry":{"type":"Point","coordinates":[-79.87687,40.45108]},"properties":{"p":"0232B00151000000","a":"1753 CRESTLINE ST","m":"13th Ward - PITTSBURGH","u":"L","o":"individual","sf":2880,"v":1400}},{"type":"Feature","geometry":{"type":"Point","coordinates":[-79.87359,40.45084]},"properties":{"p":"0232C00198000000","a":"SWISSVALE AVE","m":"13th Ward - PITTSBURGH","u":"L","o":"individual","sf":6426,"v":5100}},{"type":"Feature","geometry":{"type":"Point","coordinates":[-79.87395,40.45232]},"properties":{"p":"0232C00203000000","a":"SWISSVALE AVE","m":"13th Ward - PITTSBURGH","u":"L","o":"individual","sf":8475,"v":5300}},{"type":"Feature","geometry":{"type":"Point","coordinates":[-79.87398,40.45215]},"properties":{"p":"0232C00205000000","a":"2087 SWISSVALE AVE","m":"13th Ward - PITTSBURGH","u":"L","o":"individual","sf":6653,"v":2700}},{"type":"Feature","geometry":{"type":"Point","coordinates":[-79.87686,40.45082]},"properties":{"p":"0232B00155000000","a":"CRESTLINE ST","m":"13th Ward - PITTSBURGH","u":"L","o":"individual","sf":2400,"v":1200}},{"type":"Feature","geometry":{"type":"Point","coordinates":[-79.87686,40.45072]},"properties":{"p":"0232B00156000000","a":"CRESTLINE ST","m":"13th Ward - PITTSBURGH","u":"L","o":"individual","sf":5760,"v":5100}},{"type":"Feature","geometry":{"type":"Point","coordinates":[-79.87392,40.4517]},"properties":{"p":"0232C00209000000","a":"SWISSVALE AVE","m":"13th Ward - PITTSBURGH","u":"L","o":"individual","sf":5227,"v":2500}},{"type":"Feature","geometry":{"type":"Point","coordinates":[-79.86708,40.45003]},"properties":{"p":"0232H00005000000","a":"DICKIE ST","m":"13th Ward - PITTSBURGH","u":"L","o":"corp","sf":7865,"v":5300}},{"type":"Feature","geometry":{"type":"Point","coordinates":[-79.87671,40.45153]},"properties":{"p":"0232B00251000000","a":"NIMICK PL","m":"13th Ward - PITTSBURGH","u":"L","o":"individual","sf":3325,"v":1700}},{"type":"Feature","geometry":{"type":"Point","coordinates":[-79.87792,40.45109]},"properties":{"p":"0232B00029000000","a":"NIMICK PL","m":"13th Ward - PITTSBURGH","u":"L","o":"individual","sf":2530,"v":600}},{"type":"Feature","geometry":{"type":"Point","coordinates":[-79.87834,40.45156]},"properties":{"p":"0232B00039000000","a":"FAHNESTOCK ST","m":"13th Ward - PITTSBURGH","u":"L","o":"individual","sf":2400,"v":1200}},{"type":"Feature","geometry":{"type":"Point","coordinates":[-79.87694,40.45152]},"properties":{"p":"0232B00254000000","a":"NIMICK PL","m":"13th Ward - PITTSBURGH","u":"L","o":"individual","sf":9525,"v":2900}},{"type":"Feature","geometry":{"type":"Point","coordinates":[-79.87633,40.45217]},"properties":{"p":"0232B00267000000","a":"CALISTOGA ST","m":"13th Ward - PITTSBURGH","u":"L","o":"individual","sf":3113,"v":4100}},{"type":"Feature","geometry":{"type":"Point","coordinates":[-79.87964,40.45247]},"properties":{"p":"0232A00286000000","a":"SEAGIRT ST","m":"13th Ward - PITTSBURGH","u":"L","o":"individual","sf":2070,"v":500}},{"type":"Feature","geometry":{"type":"Point","coordinates":[-79.87398,40.4514]},"properties":{"p":"0232C00211000000","a":"SWISSVALE AVE","m":"13th Ward - PITTSBURGH","u":"L","o":"individual","sf":4952,"v":2500}},{"type":"Feature","geometry":{"type":"Point","coordinates":[-79.87431,40.45216]},"properties":{"p":"0232C00249000000","a":"CRESTLINE PL","m":"13th Ward - PITTSBURGH","u":"L","o":"individual","sf":14375,"v":5800}},{"type":"Feature","geometry":{"type":"Point","coordinates":[-79.87962,40.45238]},"properties":{"p":"0232A00288000000","a":"617 SEAGIRT ST","m":"13th Ward - PITTSBURGH","u":"L","o":"individual","sf":1575,"v":400}},{"type":"Feature","geometry":{"type":"Point","coordinates":[-79.87961,40.45233]},"properties":{"p":"0232A00289000000","a":"SEAGIRT ST","m":"13th Ward - PITTSBURGH","u":"L","o":"individual","sf":1890,"v":500}},{"type":"Feature","geometry":{"type":"Point","coordinates":[-79.87593,40.45243]},"properties":{"p":"0232B00274000000","a":"1856 CALISTOGA ST","m":"13th Ward - PITTSBURGH","u":"L","o":"individual","sf":3439,"v":4200}},{"type":"Feature","geometry":{"type":"Point","coordinates":[-79.87572,40.45257]},"properties":{"p":"0232B00277000000","a":"1856 CALISTOGA ST","m":"13th Ward - PITTSBURGH","u":"L","o":"individual","sf":3600,"v":4300}},{"type":"Feature","geometry":{"type":"Point","coordinates":[-79.87841,40.45194]},"properties":{"p":"0232B00045000000","a":"FAHNESTOCK ST","m":"13th Ward - PITTSBURGH","u":"L","o":"individual","sf":2400,"v":1200}},{"type":"Feature","geometry":{"type":"Point","coordinates":[-79.87858,40.45261]},"properties":{"p":"0232B00056000000","a":"FAHNESTOCK ST","m":"13th Ward - PITTSBURGH","u":"L","o":"individual","sf":1540,"v":400}},{"type":"Feature","geometry":{"type":"Point","coordinates":[-79.87885,40.45004]},"properties":{"p":"0232E00147000000","a":"SEAGIRT ST","m":"13th Ward - PITTSBURGH","u":"L","o":"individual","sf":5250,"v":5000}},{"type":"Feature","geometry":{"type":"Point","coordinates":[-79.87889,40.45014]},"properties":{"p":"0232E00148000000","a":"SEAGIRT ST","m":"13th Ward - PITTSBURGH","u":"L","o":"individual","sf":3150,"v":1600}},{"type":"Feature","geometry":{"type":"Point","coordinates":[-79.87696,40.45257]},"properties":{"p":"0232B00292000000","a":"DORNBUSH ST","m":"13th Ward - PITTSBURGH","u":"L","o":"individual","sf":5000,"v":4000}},{"type":"Feature","geometry":{"type":"Point","coordinates":[-79.87665,40.45248]},"properties":{"p":"0232B00299000000","a":"CALISTOGA PL","m":"13th Ward - PITTSBURGH","u":"L","o":"individual","sf":4000,"v":3600}},{"type":"Feature","geometry":{"type":"Point","coordinates":[-79.87224,40.45121]},"properties":{"p":"0232C00120000000","a":"SONNY ST","m":"13th Ward - PITTSBURGH","u":"L","o":"individual","sf":11748,"v":5600}},{"type":"Feature","geometry":{"type":"Point","coordinates":[-79.87953,40.45207]},"properties":{"p":"0232A00295000000","a":"SEAGIRT ST","m":"13th Ward - PITTSBURGH","u":"L","o":"individual","sf":1840,"v":3400}},{"type":"Feature","geometry":{"type":"Point","coordinates":[-79.87944,40.45188]},"properties":{"p":"0232A00298000000","a":"SEAGIRT ST","m":"13th Ward - PITTSBURGH","u":"L","o":"corp","sf":3150,"v":2600}},{"type":"Feature","geometry":{"type":"Point","coordinates":[-79.87941,40.45181]},"properties":{"p":"0232A00299000000","a":"SEAGIRT ST","m":"13th Ward - PITTSBURGH","u":"L","o":"corp","sf":3150,"v":2600}},{"type":"Feature","geometry":{"type":"Point","coordinates":[-79.87814,40.45026]},"properties":{"p":"0232F00055000000","a":"FAHNESTOCK ST","m":"13th Ward - PITTSBURGH","u":"L","o":"individual","sf":1424,"v":3200}},{"type":"Feature","geometry":{"type":"Point","coordinates":[-79.87789,40.45027]},"properties":{"p":"0232F00073000000","a":"MAPLEWOOD AVE","m":"13th Ward - PITTSBURGH","u":"L","o":"individual","sf":1440,"v":400}},{"type":"Feature","geometry":{"type":"Point","coordinates":[-79.878,40.45008]},"properties":{"p":"0232F00076000000","a":"MAPLEWOOD AVE","m":"13th Ward - PITTSBURGH","u":"L","o":"individual","sf":5320,"v":5000}},{"type":"Feature","geometry":{"type":"Point","coordinates":[-79.87939,40.45172]},"properties":{"p":"0232A00300000000","a":"SEAGIRT ST","m":"13th Ward - PITTSBURGH","u":"L","o":"corp","sf":3150,"v":2600}},{"type":"Feature","geometry":{"type":"Point","coordinates":[-79.87925,40.45128]},"properties":{"p":"0232A00304000000","a":"SEAGIRT ST","m":"13th Ward - PITTSBURGH","u":"L","o":"corp","sf":13650,"v":5800}},{"type":"Feature","geometry":{"type":"Point","coordinates":[-79.86647,40.45318]},"properties":{"p":"0231S00125000000","a":"MONTIER ST","m":"13th Ward - PITTSBURGH","u":"L","o":"individual","sf":27181,"v":7000}},{"type":"Feature","geometry":{"type":"Point","coordinates":[-79.87716,40.45211]},"properties":{"p":"0232B00310000000","a":"TOKAY ST","m":"13th Ward - PITTSBURGH","u":"L","o":"individual","sf":4628,"v":3900}},{"type":"Feature","geometry":{"type":"Point","coordinates":[-79.87725,40.45231]},"properties":{"p":"0232B00312000000","a":"TOKAY ST","m":"13th Ward - PITTSBURGH","u":"L","o":"individual","sf":2500,"v":600}},{"type":"Feature","geometry":{"type":"Point","coordinates":[-79.87743,40.45245]},"properties":{"p":"0232B00316000000","a":"TOKAY ST","m":"13th Ward - PITTSBURGH","u":"L","o":"individual","sf":5000,"v":4000}},{"type":"Feature","geometry":{"type":"Point","coordinates":[-79.87357,40.45017]},"properties":{"p":"0232G00270000000","a":"SWISSVALE AVE","m":"13th Ward - PITTSBURGH","u":"L","o":"individual","sf":10157,"v":5500}},{"type":"Feature","geometry":{"type":"Point","coordinates":[-79.87739,40.45005]},"properties":{"p":"0232F00153000000","a":"MAPLEWOOD AVE","m":"13th Ward - PITTSBURGH","u":"L","o":"individual","sf":3360,"v":4200}},{"type":"Feature","geometry":{"type":"Point","coordinates":[-79.87739,40.45012]},"properties":{"p":"0232F00154000000","a":"MAPLEWOOD AVE","m":"13th Ward - PITTSBURGH","u":"L","o":"individual","sf":2400,"v":600}},{"type":"Feature","geometry":{"type":"Point","coordinates":[-79.87755,40.45254]},"properties":{"p":"0232B00319000000","a":"TOKAY ST","m":"13th Ward - PITTSBURGH","u":"L","o":"corp","sf":7500,"v":4200}},{"type":"Feature","geometry":{"type":"Point","coordinates":[-79.87765,40.45261]},"properties":{"p":"0232B00320000000","a":"TOKAY ST","m":"13th Ward - PITTSBURGH","u":"L","o":"corp","sf":2500,"v":1000}},{"type":"Feature","geometry":{"type":"Point","coordinates":[-79.87085,40.45223]},"properties":{"p":"0232C00003000000","a":"SUNRISE AVE","m":"13th Ward - PITTSBURGH","u":"L","o":"corp","sf":2376,"v":1200}},{"type":"Feature","geometry":{"type":"Point","coordinates":[-79.87903,40.4506]},"properties":{"p":"0232A00315000000","a":"SEAGIRT ST","m":"13th Ward - PITTSBURGH","u":"L","o":"individual","sf":4410,"v":4700}},{"type":"Feature","geometry":{"type":"Point","coordinates":[-79.87861,40.45072]},"properties":{"p":"0232A00325000000","a":"SEAGIRT ST","m":"13th Ward - PITTSBURGH","u":"L","o":"individual","sf":2700,"v":1400}},{"type":"Feature","geometry":{"type":"Point","coordinates":[-79.87864,40.45085]},"properties":{"p":"0232A00327000000","a":"SEAGIRT ST","m":"13th Ward - PITTSBURGH","u":"L","o":"corp","sf":2560,"v":600}},{"type":"Feature","geometry":{"type":"Point","coordinates":[-79.8754,40.45033]},"properties":{"p":"0232B00213000000","a":"CRESTLINE CT","m":"13th Ward - PITTSBURGH","u":"L","o":"individual","sf":6163,"v":2600}},{"type":"Feature","geometry":{"type":"Point","coordinates":[-79.87632,40.45068]},"properties":{"p":"0232B00218000000","a":"CRESTLINE ST","m":"13th Ward - PITTSBURGH","u":"L","o":"individual","sf":6000,"v":5100}},{"type":"Feature","geometry":{"type":"Point","coordinates":[-79.87632,40.45085]},"properties":{"p":"0232B00220000000","a":"CRESTLINE ST","m":"13th Ward - PITTSBURGH","u":"L","o":"individual","sf":6000,"v":5100}},{"type":"Feature","geometry":{"type":"Point","coordinates":[-79.87797,40.45156]},"properties":{"p":"0232B00079000000","a":"MAPLEWOOD AVE","m":"13th Ward - PITTSBURGH","u":"L","o":"individual","sf":2461,"v":600}},{"type":"Feature","geometry":{"type":"Point","coordinates":[-79.87796,40.45146]},"properties":{"p":"0232B00080000000","a":"MAPLEWOOD AVE","m":"13th Ward - PITTSBURGH","u":"L","o":"individual","sf":4700,"v":4900}},{"type":"Feature","geometry":{"type":"Point","coordinates":[-79.87795,40.45138]},"properties":{"p":"0232B00082000000","a":"MAPLEWOOD AVE","m":"13th Ward - PITTSBURGH","u":"L","o":"individual","sf":2239,"v":3600}},{"type":"Feature","geometry":{"type":"Point","coordinates":[-79.87739,40.45034]},"properties":{"p":"0232B00084000000","a":"MAPLEWOOD AVE","m":"13th Ward - PITTSBURGH","u":"L","o":"individual","sf":2880,"v":700}},{"type":"Feature","geometry":{"type":"Point","coordinates":[-79.87739,40.45041]},"properties":{"p":"0232B00085000000","a":"MAPLEWOOD AVE","m":"13th Ward - PITTSBURGH","u":"L","o":"individual","sf":2880,"v":1400}},{"type":"Feature","geometry":{"type":"Point","coordinates":[-79.87345,40.45217]},"properties":{"p":"0232C00166000000","a":"CALISTOGA PL","m":"13th Ward - PITTSBURGH","u":"L","o":"corp","sf":18682,"v":6200}},{"type":"Feature","geometry":{"type":"Point","coordinates":[-79.87893,40.45198]},"properties":{"p":"0232A00343000000","a":"SEAGIRT ST","m":"13th Ward - PITTSBURGH","u":"L","o":"individual","sf":3016,"v":700}},{"type":"Feature","geometry":{"type":"Point","coordinates":[-79.86805,40.45282]},"properties":{"p":"0232B00225000000","a":"MONTIER ST","m":"13th Ward - PITTSBURGH","u":"L","o":"corp","sf":209524,"v":23400}},{"type":"Feature","geometry":{"type":"Point","coordinates":[-79.8688,40.45187]},"properties":{"p":"0232D00091000000","a":"REMINGTON DR","m":"13th Ward - PITTSBURGH","u":"L","o":"individual","sf":10543,"v":2500}},{"type":"Feature","geometry":{"type":"Point","coordinates":[-79.87915,40.45241]},"properties":{"p":"0232A00352000000","a":"SEAGIRT ST","m":"13th Ward - PITTSBURGH","u":"L","o":"corp","sf":2400,"v":3700}},{"type":"Feature","geometry":{"type":"Point","coordinates":[-79.87311,40.45052]},"properties":{"p":"0232C00186000000","a":"2039 CALISTOGA PL","m":"13th Ward - PITTSBURGH","u":"L","o":"individual","sf":6000,"v":5100}},{"type":"Feature","geometry":{"type":"Point","coordinates":[-79.8774,40.45067]},"properties":{"p":"0232B00089000000","a":"MAPLEWOOD AVE","m":"13th Ward - PITTSBURGH","u":"L","o":"individual","sf":2880,"v":1400}},{"type":"Feature","geometry":{"type":"Point","coordinates":[-79.8774,40.451]},"properties":{"p":"0232B00095000000","a":"MAPLEWOOD AVE","m":"13th Ward - PITTSBURGH","u":"L","o":"individual","sf":5760,"v":5100}},{"type":"Feature","geometry":{"type":"Point","coordinates":[-79.87729,40.45166]},"properties":{"p":"0232B00102000000","a":"CALISTOGA ST","m":"13th Ward - PITTSBURGH","u":"L","o":"individual","sf":1450,"v":400}},{"type":"Feature","geometry":{"type":"Point","coordinates":[-79.87454,40.45219]},"properties":{"p":"0232B00236000100","a":"CRESTLINE PL","m":"13th Ward - PITTSBURGH","u":"L","o":"individual","sf":13068,"v":5700}},{"type":"Feature","geometry":{"type":"Point","coordinates":[-79.87943,40.45038]},"properties":{"p":"0232A00252000000","a":"WARSAW ST","m":"13th Ward - PITTSBURGH","u":"L","o":"individual","sf":3150,"v":1600}},{"type":"Feature","geometry":{"type":"Point","coordinates":[-79.87954,40.45044]},"properties":{"p":"0232A00253000000","a":"WARSAW ST","m":"13th Ward - PITTSBURGH","u":"L","o":"individual","sf":1590,"v":800}},{"type":"Feature","geometry":{"type":"Point","coordinates":[-79.86965,40.45203]},"properties":{"p":"0232D00094000000","a":"REMINGTON DR","m":"13th Ward - PITTSBURGH","u":"L","o":"individual","sf":28096,"v":4100}},{"type":"Feature","geometry":{"type":"Point","coordinates":[-79.87894,40.45243]},"properties":{"p":"0232A00353000000","a":"FAHNESTOCK ST","m":"13th Ward - PITTSBURGH","u":"L","o":"individual","sf":2360,"v":1200}},{"type":"Feature","geometry":{"type":"Point","coordinates":[-79.87815,40.45033]},"properties":{"p":"0232B00010000000","a":"FAHNESTOCK ST","m":"13th Ward - PITTSBURGH","u":"L","o":"individual","sf":1478,"v":400}},{"type":"Feature","geometry":{"type":"Point","coordinates":[-79.87805,40.45064]},"properties":{"p":"0232B00023000000","a":"MAPLEWOOD AVE","m":"13th Ward - PITTSBURGH","u":"L","o":"individual","sf":18240,"v":6200}},{"type":"Feature","geometry":{"type":"Point","coordinates":[-79.87495,40.45221]},"properties":{"p":"0232B00238000100","a":"CRESTLINE PL","m":"13th Ward - PITTSBURGH","u":"L","o":"individual","sf":14375,"v":2100}},{"type":"Feature","geometry":{"type":"Point","coordinates":[-79.87516,40.45222]},"properties":{"p":"0232B00239000100","a":"CRESTLINE PL","m":"13th Ward - PITTSBURGH","u":"L","o":"individual","sf":14810,"v":2100}},{"type":"Feature","geometry":{"type":"Point","coordinates":[-79.87537,40.45217]},"properties":{"p":"0232B00240000100","a":"CRESTLINE PL","m":"13th Ward - PITTSBURGH","u":"L","o":"individual","sf":14375,"v":3300}},{"type":"Feature","geometry":{"type":"Point","coordinates":[-79.87569,40.45221]},"properties":{"p":"0232B00243000100","a":"CRESTLINE ST","m":"13th Ward - PITTSBURGH","u":"L","o":"individual","sf":33106,"v":7500}},{"type":"Feature","geometry":{"type":"Point","coordinates":[-79.86897,40.45144]},"properties":{"p":"0232D00096000000","a":"REMINGTON DR","m":"13th Ward - PITTSBURGH","u":"L","o":"individual","sf":6800,"v":1500}},{"type":"Feature","geometry":{"type":"Point","coordinates":[-79.86922,40.45215]},"properties":{"p":"0232D00097000000","a":"REMINGTON DR","m":"13th Ward - PITTSBURGH","u":"L","o":"individual","sf":2962,"v":1500}},{"type":"Feature","geometry":{"type":"Point","coordinates":[-79.86927,40.45203]},"properties":{"p":"0232D00099000000","a":"2017 REMINGTON DR","m":"13th Ward - PITTSBURGH","u":"L","o":"individual","sf":4748,"v":2400}},{"type":"Feature","geometry":{"type":"Point","coordinates":[-79.86033,40.45306]},"properties":{"p":"0296P00078000000","a":"TURNER AVE","m":"Wilkinsburg","u":"L","o":"individual","sf":1400,"v":500}},{"type":"Feature","geometry":{"type":"Point","coordinates":[-79.86134,40.45274]},"properties":{"p":"0297B00004000000","a":"VILLAGE DR","m":"Wilkinsburg","u":"L","o":"individual","sf":2400,"v":800}},{"type":"Feature","geometry":{"type":"Point","coordinates":[-79.86139,40.45271]},"properties":{"p":"0297B00005000000","a":"VILLAGE DR","m":"Wilkinsburg","u":"L","o":"individual","sf":2400,"v":800}},{"type":"Feature","geometry":{"type":"Point","coordinates":[-79.86146,40.45127]},"properties":{"p":"0297B00073000000","a":"LAKETON RD","m":"Wilkinsburg","u":"L","o":"individual","sf":5106,"v":10000}},{"type":"Feature","geometry":{"type":"Point","coordinates":[-79.86203,40.45281]},"properties":{"p":"0296N00200000000","a":"VILLAGE DR","m":"Wilkinsburg","u":"L","o":"individual","sf":4000,"v":1200}},{"type":"Feature","geometry":{"type":"Point","coordinates":[-79.86359,40.4549]},"properties":{"p":"0296N00285000000","a":"ANDREW DR","m":"Wilkinsburg","u":"L","o":"corp","sf":88296,"v":8100}},{"type":"Feature","geometry":{"type":"Point","coordinates":[-79.86561,40.45038]},"properties":{"p":"0297A00050000000","a":"VANTINE ST","m":"Wilkinsburg","u":"L","o":"corp","sf":7625,"v":1700}},{"type":"Feature","geometry":{"type":"Point","coordinates":[-79.86468,40.45145]},"properties":{"p":"0297A00055000000","a":"VANTINE ST","m":"Wilkinsburg","u":"L","o":"corp","sf":27878,"v":7900}},{"type":"Feature","geometry":{"type":"Point","coordinates":[-79.86219,40.45036]},"properties":{"p":"0297A00280000000","a":"LAKETON RD","m":"Wilkinsburg","u":"L","o":"individual","sf":3000,"v":900}},{"type":"Feature","geometry":{"type":"Point","coordinates":[-79.86215,40.45042]},"properties":{"p":"0297A00281000000","a":"LAKETON RD","m":"Wilkinsburg","u":"L","o":"individual","sf":3000,"v":900}},{"type":"Feature","geometry":{"type":"Point","coordinates":[-79.86042,40.45425]},"properties":{"p":"0296P00141000000","a":"TURNER AVE","m":"Wilkinsburg","u":"L","o":"individual","sf":774,"v":300}},{"type":"Feature","geometry":{"type":"Point","coordinates":[-79.86026,40.45327]},"properties":{"p":"0296P00158000000","a":"LAKETON RD","m":"Wilkinsburg","u":"L","o":"corp","sf":3323,"v":1000}},{"type":"Feature","geometry":{"type":"Point","coordinates":[-79.8621,40.45799]},"properties":{"p":"0296E00034000000","a":"KENDON DR W","m":"Wilkinsburg","u":"L","o":"individual","sf":6631,"v":5200}},{"type":"Feature","geometry":{"type":"Point","coordinates":[-79.86099,40.45521]},"properties":{"p":"0296K00090000000","a":"DOUGLAS DR","m":"Wilkinsburg","u":"L","o":"corp","sf":74052,"v":16300}},{"type":"Feature","geometry":{"type":"Point","coordinates":[-79.86053,40.45887]},"properties":{"p":"0296F00083000000","a":"SAMPSON ST","m":"Wilkinsburg","u":"L","o":"individual","sf":339,"v":300}},{"type":"Feature","geometry":{"type":"Point","coordinates":[-79.86155,40.45394]},"properties":{"p":"0296P00239000000","a":"VANTINE ST","m":"Wilkinsburg","u":"L","o":"individual","sf":2825,"v":900}},{"type":"Feature","geometry":{"type":"Point","coordinates":[-79.86608,40.45003]},"properties":{"p":"0297E00001000000","a":"DICKEY ST","m":"Wilkinsburg","u":"L","o":"corp","sf":35400,"v":5200}},{"type":"Feature","geometry":{"type":"Point","coordinates":[-79.8634,40.45179]},"properties":{"p":"0297A00093000000","a":"VANTINE ST","m":"Wilkinsburg","u":"L","o":"individual","sf":4000,"v":1200}},{"type":"Feature","geometry":{"type":"Point","coordinates":[-79.86688,40.45004]},"properties":{"p":"0232H00001000000","a":"DICKEY ST","m":"Wilkinsburg","u":"L","o":"individual","sf":8100,"v":5300}},{"type":"Feature","geometry":{"type":"Point","coordinates":[-79.86681,40.45035]},"properties":{"p":"0232D00201000000","a":"VANTINE ST","m":"Wilkinsburg","u":"L","o":"individual","sf":3971,"v":900}},{"type":"Feature","geometry":{"type":"Point","coordinates":[-79.86664,40.45035]},"properties":{"p":"0232D00203000000","a":"VANTINE ST","m":"Wilkinsburg","u":"L","o":"individual","sf":4000,"v":900}},{"type":"Feature","geometry":{"type":"Point","coordinates":[-79.8665,40.45035]},"properties":{"p":"0232D00205000000","a":"VANTINE ST","m":"Wilkinsburg","u":"L","o":"individual","sf":4000,"v":900}},{"type":"Feature","geometry":{"type":"Point","coordinates":[-79.87291,40.46186]},"properties":{"p":"0231C00310000000","a":"WESTWOOD RD","m":"Penn Hills","u":"L","o":"individual","sf":4800,"v":1200}},{"type":"Feature","geometry":{"type":"Point","coordinates":[-79.87409,40.46146]},"properties":{"p":"0231C00340000000","a":"WESTWOOD RD","m":"Penn Hills","u":"L","o":"individual","sf":8970,"v":6400}},{"type":"Feature","geometry":{"type":"Point","coordinates":[-79.87943,40.4637]},"properties":{"p":"0230N00369000000","a":"BEECHFORD RD","m":"Penn Hills","u":"L","o":"individual","sf":45912,"v":13800}},{"type":"Feature","geometry":{"type":"Point","coordinates":[-79.86301,40.46712]},"properties":{"p":"0295J00257000000","a":"VERONA RD","m":"Penn Hills","u":"L","o":"individual","sf":12250,"v":6700}},{"type":"Feature","geometry":{"type":"Point","coordinates":[-79.86235,40.46723]},"properties":{"p":"0295J00261000000","a":"VERONA RD","m":"Penn Hills","u":"L","o":"corp","sf":59242,"v":11000}},{"type":"Feature","geometry":{"type":"Point","coordinates":[-79.86616,40.46366]},"properties":{"p":"0295N00026000000","a":"VERONA RD","m":"Penn Hills","u":"L","o":"individual","sf":5390,"v":1300}},{"type":"Feature","geometry":{"type":"Point","coordinates":[-79.86603,40.46455]},"properties":{"p":"0295N00053000000","a":"VERONA RD","m":"Penn Hills","u":"L","o":"corp","sf":5009,"v":1300}},{"type":"Feature","geometry":{"type":"Point","coordinates":[-79.86921,40.46034]},"properties":{"p":"0231D00009000000","a":"FRANKSTOWN RD","m":"Penn Hills","u":"L","o":"individual","sf":21750,"v":7500}},{"type":"Feature","geometry":{"type":"Point","coordinates":[-79.86884,40.46028]},"properties":{"p":"0231D00031000000","a":"FRANKSTOWN RD","m":"Penn Hills","u":"L","o":"individual","sf":7000,"v":1700}},{"type":"Feature","geometry":{"type":"Point","coordinates":[-79.86812,40.46034]},"properties":{"p":"0231D00062000000","a":"FRANKSTOWN RD","m":"Penn Hills","u":"L","o":"corp","sf":8396,"v":6300}},{"type":"Feature","geometry":{"type":"Point","coordinates":[-79.86765,40.46018]},"properties":{"p":"0231D00068000000","a":"FRANKSTOWN RD","m":"Penn Hills","u":"L","o":"individual","sf":34255,"v":8600}},{"type":"Feature","geometry":{"type":"Point","coordinates":[-79.87571,40.46379]},"properties":{"p":"0230P00180000000","a":"7761 PERSHING ST","m":"Penn Hills","u":"L","o":"individual","sf":129,"v":100}},{"type":"Feature","geometry":{"type":"Point","coordinates":[-79.87641,40.464]},"properties":{"p":"0230P00207000000","a":"MASON RD","m":"Penn Hills","u":"L","o":"individual","sf":16972,"v":11100}},{"type":"Feature","geometry":{"type":"Point","coordinates":[-79.87506,40.46109]},"properties":{"p":"0231B00376000000","a":"WESTWOOD RD","m":"Penn Hills","u":"L","o":"individual","sf":7000,"v":6200}},{"type":"Feature","geometry":{"type":"Point","coordinates":[-79.87955,40.45938]},"properties":{"p":"0231E00296000000","a":"STONEVILLE ST","m":"Penn Hills","u":"L","o":"individual","sf":3760,"v":1200}},{"type":"Feature","geometry":{"type":"Point","coordinates":[-79.87864,40.45935]},"properties":{"p":"0231E00366000000","a":"HANSELL AVE","m":"Penn Hills","u":"L","o":"individual","sf":3750,"v":1200}},{"type":"Feature","geometry":{"type":"Point","coordinates":[-79.87881,40.45937]},"properties":{"p":"0231E00368000000","a":"HANSELL AVE","m":"Penn Hills","u":"L","o":"individual","sf":3750,"v":1200}},{"type":"Feature","geometry":{"type":"Point","coordinates":[-79.87911,40.45931]},"properties":{"p":"0231E00370000000","a":"STANDARD AVE","m":"Penn Hills","u":"L","o":"individual","sf":2627,"v":800}},{"type":"Feature","geometry":{"type":"Point","coordinates":[-79.86195,40.46662]},"properties":{"p":"0295J00134000000","a":"HOCHBERG RD","m":"Penn Hills","u":"L","o":"individual","sf":20017,"v":13400}},{"type":"Feature","geometry":{"type":"Point","coordinates":[-79.8645,40.46546]},"properties":{"p":"0295J00177000000","a":"HOCHBERG RD","m":"Penn Hills","u":"L","o":"individual","sf":8083,"v":12300}},{"type":"Feature","geometry":{"type":"Point","coordinates":[-79.86466,40.4654]},"properties":{"p":"0295J00181000000","a":"HOCHBERG RD","m":"Penn Hills","u":"L","o":"individual","sf":7716,"v":12200}},{"type":"Feature","geometry":{"type":"Point","coordinates":[-79.86602,40.46331]},"properties":{"p":"0295N00016000000","a":"39 VERONA RD","m":"Penn Hills","u":"L","o":"individual","sf":7173,"v":6200}},{"type":"Feature","geometry":{"type":"Point","coordinates":[-79.87069,40.46831]},"properties":{"p":"0230G00235000000","a":"THON DR","m":"Penn Hills","u":"L","o":"individual","sf":5175,"v":6000}},{"type":"Feature","geometry":{"type":"Point","coordinates":[-79.86979,40.46042]},"properties":{"p":"0231D00004000000","a":"FRANKSTOWN RD","m":"Penn Hills","u":"L","o":"corp","sf":11326,"v":12600}},{"type":"Feature","geometry":{"type":"Point","coordinates":[-79.87577,40.46535]},"properties":{"p":"0230K00019000000","a":"MICHIGAN RD","m":"Penn Hills","u":"L","o":"individual","sf":31616,"v":8400}},{"type":"Feature","geometry":{"type":"Point","coordinates":[-79.86428,40.46785]},"properties":{"p":"0295E00059000000","a":"ABER RD","m":"Penn Hills","u":"L","o":"individual","sf":11284,"v":6600}},{"type":"Feature","geometry":{"type":"Point","coordinates":[-79.86411,40.46792]},"properties":{"p":"0295E00063000000","a":"ABER RD","m":"Penn Hills","u":"L","o":"individual","sf":10110,"v":6500}},{"type":"Feature","geometry":{"type":"Point","coordinates":[-79.86265,40.46852]},"properties":{"p":"0295E00101000000","a":"ABER RD","m":"Penn Hills","u":"L","o":"individual","sf":10161,"v":6500}},{"type":"Feature","geometry":{"type":"Point","coordinates":[-79.87695,40.46226]},"properties":{"p":"0231B00318000000","a":"BAIR AVE","m":"Penn Hills","u":"L","o":"corp","sf":407287,"v":15000}},{"type":"Feature","geometry":{"type":"Point","coordinates":[-79.87504,40.46871]},"properties":{"p":"0230F00156000000","a":"FAYBERN DR","m":"Penn Hills","u":"L","o":"individual","sf":6500,"v":1600}},{"type":"Feature","geometry":{"type":"Point","coordinates":[-79.86638,40.46791]},"properties":{"p":"0295E00220000000","a":"GROVE RD","m":"Penn Hills","u":"L","o":"individual","sf":749,"v":300}},{"type":"Feature","geometry":{"type":"Point","coordinates":[-79.86871,40.46812]},"properties":{"p":"0230H00307000000","a":"THON DR","m":"Penn Hills","u":"L","o":"individual","sf":17382,"v":7100}},{"type":"Feature","geometry":{"type":"Point","coordinates":[-79.87176,40.46821]},"properties":{"p":"0230G00217000000","a":"THON DR","m":"Penn Hills","u":"L","o":"individual","sf":7500,"v":6200}},{"type":"Feature","geometry":{"type":"Point","coordinates":[-79.86141,40.46752]},"properties":{"p":"0295F00263000000","a":"4340 VERONA RD","m":"Penn Hills","u":"L","o":"individual","sf":10411,"v":6500}},{"type":"Feature","geometry":{"type":"Point","coordinates":[-79.86773,40.46645]},"properties":{"p":"0230M00365000000","a":"MOUNT CARMEL RD","m":"Penn Hills","u":"L","o":"individual","sf":7679,"v":1900}},{"type":"Feature","geometry":{"type":"Point","coordinates":[-79.87948,40.46548]},"properties":{"p":"0230J00168000000","a":"MOUNT CARMEL RD","m":"Penn Hills","u":"L","o":"individual","sf":19297,"v":11300}},{"type":"Feature","geometry":{"type":"Point","coordinates":[-79.86424,40.46367]},"properties":{"p":"0295N00188000000","a":"HOCHBERG RD","m":"Penn Hills","u":"L","o":"individual","sf":3650,"v":1100}},{"type":"Feature","geometry":{"type":"Point","coordinates":[-79.87199,40.46245]},"properties":{"p":"0231C00380000000","a":"PRIDE RD","m":"Penn Hills","u":"L","o":"individual","sf":8662,"v":2100}},{"type":"Feature","geometry":{"type":"Point","coordinates":[-79.87863,40.46237]},"properties":{"p":"0231A00091000000","a":"BANFIELD ST","m":"Penn Hills","u":"L","o":"individual","sf":95614,"v":18300}},{"type":"Feature","geometry":{"type":"Point","coordinates":[-79.87928,40.46239]},"properties":{"p":"0231A00113000000","a":"MASON RD","m":"Penn Hills","u":"L","o":"individual","sf":106722,"v":19300}},{"type":"Feature","geometry":{"type":"Point","coordinates":[-79.86929,40.46941]},"properties":{"p":"0230H00083000000","a":"ORLAN PL","m":"Penn Hills","u":"L","o":"individual","sf":7588,"v":6200}},{"type":"Feature","geometry":{"type":"Point","coordinates":[-79.869,40.4689]},"properties":{"p":"0230H00118000000","a":"ORLAN PL","m":"Penn Hills","u":"L","o":"individual","sf":7500,"v":6200}},{"type":"Feature","geometry":{"type":"Point","coordinates":[-79.87245,40.46758]},"properties":{"p":"0230G00051000000","a":"THON DR","m":"Penn Hills","u":"L","o":"individual","sf":7466,"v":1800}},{"type":"Feature","geometry":{"type":"Point","coordinates":[-79.86825,40.46853]},"properties":{"p":"0230H00218000000","a":"THON DR","m":"Penn Hills","u":"L","o":"individual","sf":5870,"v":6100}},{"type":"Feature","geometry":{"type":"Point","coordinates":[-79.86848,40.46762]},"properties":{"p":"0230M00255000000","a":"ABER RD","m":"Penn Hills","u":"L","o":"individual","sf":6250,"v":3100}},{"type":"Feature","geometry":{"type":"Point","coordinates":[-79.86267,40.4654]},"properties":{"p":"0295J00022000000","a":"FLORIDA AVE","m":"Penn Hills","u":"L","o":"individual","sf":12000,"v":12600}},{"type":"Feature","geometry":{"type":"Point","coordinates":[-79.8636,40.46545]},"properties":{"p":"0295J00055000000","a":"HOCHBERG RD","m":"Penn Hills","u":"L","o":"individual","sf":7152,"v":12200}},{"type":"Feature","geometry":{"type":"Point","coordinates":[-79.87314,40.46134]},"properties":{"p":"0231C00191000000","a":"WESTWOOD RD","m":"Penn Hills","u":"L","o":"individual","sf":4002,"v":1000}},{"type":"Feature","geometry":{"type":"Point","coordinates":[-79.87301,40.46139]},"properties":{"p":"0231C00195000000","a":"WESTWOOD RD","m":"Penn Hills","u":"L","o":"individual","sf":4400,"v":5600}},{"type":"Feature","geometry":{"type":"Point","coordinates":[-79.86032,40.46689]},"properties":{"p":"0295K00231000000","a":"GLENDALE RD","m":"Penn Hills","u":"L","o":"corp","sf":195149,"v":17900}},{"type":"Feature","geometry":{"type":"Point","coordinates":[-79.86276,40.46371]},"properties":{"p":"0295N00338000000","a":"CONESTOGA RD","m":"Penn Hills","u":"L","o":"individual","sf":19186,"v":13300}},{"type":"Feature","geometry":{"type":"Point","coordinates":[-79.87441,40.46602]},"properties":{"p":"0230L00192000000","a":"MOUNT CARMEL RD","m":"Penn Hills","u":"L","o":"individual","sf":7612,"v":6200}},{"type":"Feature","geometry":{"type":"Point","coordinates":[-79.87217,40.46203]},"properties":{"p":"0231C00297000000","a":"WESTWOOD RD","m":"Penn Hills","u":"L","o":"individual","sf":3995,"v":1000}},{"type":"Feature","geometry":{"type":"Point","coordinates":[-79.87854,40.45934]},"properties":{"p":"0231F00121000000","a":"HANSELL AVE","m":"Penn Hills","u":"L","o":"individual","sf":3750,"v":1200}},{"type":"Feature","geometry":{"type":"Point","coordinates":[-79.86706,40.46951]},"properties":{"p":"0230H00059000000","a":"ORLAN PL","m":"Penn Hills","u":"L","o":"individual","sf":6000,"v":6100}},{"type":"Feature","geometry":{"type":"Point","coordinates":[-79.86852,40.46939]},"properties":{"p":"0230H00075000000","a":"ORLAN PL","m":"Penn Hills","u":"L","o":"individual","sf":4248,"v":1100}},{"type":"Feature","geometry":{"type":"Point","coordinates":[-79.86731,40.46541]},"properties":{"p":"0230M00029000000","a":"MOUNT CARMEL RD","m":"Penn Hills","u":"L","o":"corp","sf":5390,"v":6000}},{"type":"Feature","geometry":{"type":"Point","coordinates":[-79.87219,40.46296]},"properties":{"p":"0230R00196000000","a":"FRANKWOOD RD","m":"Penn Hills","u":"L","o":"individual","sf":5000,"v":6000}},{"type":"Feature","geometry":{"type":"Point","coordinates":[-79.872,40.46292]},"properties":{"p":"0230R00199000000","a":"78 FRANKWOOD RD","m":"Penn Hills","u":"L","o":"corp","sf":3842,"v":5300}},{"type":"Feature","geometry":{"type":"Point","coordinates":[-79.8644,40.46413]},"properties":{"p":"0295N00201000000","a":"474 HOCHBERG RD","m":"Penn Hills","u":"L","o":"individual","sf":6000,"v":6100}},{"type":"Feature","geometry":{"type":"Point","coordinates":[-79.87162,40.46994]},"properties":{"p":"0230C00039000000","a":"E FITZSIMMONS ST","m":"Penn Hills","u":"L","o":"individual","sf":26208,"v":7900}},{"type":"Feature","geometry":{"type":"Point","coordinates":[-79.87194,40.46981]},"properties":{"p":"0230C00043000000","a":"E FITZSIMMONS ST","m":"Penn Hills","u":"L","o":"individual","sf":18465,"v":4300}},{"type":"Feature","geometry":{"type":"Point","coordinates":[-79.86405,40.46492]},"properties":{"p":"0295N00216000000","a":"HOCHBERG RD","m":"Penn Hills","u":"L","o":"individual","sf":6000,"v":8250}},{"type":"Feature","geometry":{"type":"Point","coordinates":[-79.8638,40.46459]},"properties":{"p":"0295N00224000001","a":"FLORIDA AVE","m":"Penn Hills","u":"L","o":"individual","sf":15747,"v":4500}},{"type":"Feature","geometry":{"type":"Point","coordinates":[-79.86346,40.46502]},"properties":{"p":"0295N00231000000","a":"FLORIDA AVE","m":"Penn Hills","u":"L","o":"individual","sf":8584,"v":12300}},{"type":"Feature","geometry":{"type":"Point","coordinates":[-79.86336,40.46431]},"properties":{"p":"0295N00261000000","a":"FLORIDA AVE","m":"Penn Hills","u":"L","o":"corp","sf":121968,"v":22700}},{"type":"Feature","geometry":{"type":"Point","coordinates":[-79.87639,40.46496]},"properties":{"p":"0230K00369000000","a":"PERSHING ST","m":"Penn Hills","u":"L","o":"individual","sf":8700,"v":10300}},{"type":"Feature","geometry":{"type":"Point","coordinates":[-79.87397,40.46532]},"properties":{"p":"0230L00083000000","a":"MICHIGAN RD","m":"Penn Hills","u":"L","o":"corp","sf":82764,"v":13100}},{"type":"Feature","geometry":{"type":"Point","coordinates":[-79.86659,40.46992]},"properties":{"p":"0230H00050000000","a":"GROVE RD","m":"Penn Hills","u":"L","o":"individual","sf":7623,"v":6200}},{"type":"Feature","geometry":{"type":"Point","coordinates":[-79.87794,40.45967]},"properties":{"p":"0231F00042000000","a":"FERNDALE ST","m":"Penn Hills","u":"L","o":"corp","sf":3750,"v":1200}},{"type":"Feature","geometry":{"type":"Point","coordinates":[-79.87738,40.45911]},"properties":{"p":"0231F00108000000","a":"HANSELL AVE","m":"Penn Hills","u":"L","o":"individual","sf":1875,"v":600}},{"type":"Feature","geometry":{"type":"Point","coordinates":[-79.87746,40.45929]},"properties":{"p":"0231F00110000000","a":"HANSELL AVE","m":"Penn Hills","u":"L","o":"individual","sf":3750,"v":1200}},{"type":"Feature","geometry":{"type":"Point","coordinates":[-79.87812,40.45929]},"properties":{"p":"0231F00116000000","a":"HANSELL AVE","m":"Penn Hills","u":"L","o":"individual","sf":3750,"v":1200}},{"type":"Feature","geometry":{"type":"Point","coordinates":[-79.87841,40.45933]},"properties":{"p":"0231F00120000000","a":"HANSELL AVE","m":"Penn Hills","u":"L","o":"individual","sf":5625,"v":10100}},{"type":"Feature","geometry":{"type":"Point","coordinates":[-79.87254,40.46296]},"properties":{"p":"0230R00188000000","a":"FRANKWOOD RD","m":"Penn Hills","u":"L","o":"individual","sf":7248,"v":3200}},{"type":"Feature","geometry":{"type":"Point","coordinates":[-79.87205,40.46162]},"properties":{"p":"0231C00223000000","a":"WESTWOOD RD","m":"Penn Hills","u":"L","o":"individual","sf":4400,"v":5600}},{"type":"Feature","geometry":{"type":"Point","coordinates":[-79.87195,40.46166]},"properties":{"p":"0231C00227000000","a":"WESTWOOD RD","m":"Penn Hills","u":"L","o":"individual","sf":2585,"v":3000}},{"type":"Feature","geometry":{"type":"Point","coordinates":[-79.87188,40.46167]},"properties":{"p":"0231C00228000000","a":"WESTWOOD RD","m":"Penn Hills","u":"L","o":"individual","sf":2072,"v":2700}},{"type":"Feature","geometry":{"type":"Point","coordinates":[-79.87616,40.46352]},"properties":{"p":"0230P00223000000","a":"PERSHING ST","m":"Penn Hills","u":"L","o":"individual","sf":25929,"v":7400}},{"type":"Feature","geometry":{"type":"Point","coordinates":[-79.86038,40.46599]},"properties":{"p":"0295K00308000000","a":"GLENDALE RD","m":"Penn Hills","u":"L","o":"individual","sf":12920,"v":12700}},{"type":"Feature","geometry":{"type":"Point","coordinates":[-79.87676,40.46429]},"properties":{"p":"0230P00268000000","a":"MASON ST","m":"Penn Hills","u":"L","o":"individual","sf":11198,"v":3200}},{"type":"Feature","geometry":{"type":"Point","coordinates":[-79.8779,40.46369]},"properties":{"p":"0230P00312000000","a":"MASON RD","m":"Penn Hills","u":"L","o":"individual","sf":23408,"v":11700}},{"type":"Feature","geometry":{"type":"Point","coordinates":[-79.87512,40.46078]},"properties":{"p":"0231B00383000000","a":"WESTWOOD RD","m":"Penn Hills","u":"L","o":"individual","sf":4243,"v":1100}},{"type":"Feature","geometry":{"type":"Point","coordinates":[-79.87062,40.46741]},"properties":{"p":"0230L00309000000","a":"7853 MOUNT CARMEL RD","m":"Penn Hills","u":"L","o":"individual","sf":13160,"v":6700}},{"type":"Feature","geometry":{"type":"Point","coordinates":[-79.87869,40.45977]},"properties":{"p":"0231E00372000000","a":"STANDARD AVE","m":"Penn Hills","u":"L","o":"individual","sf":3750,"v":1200}},{"type":"Feature","geometry":{"type":"Point","coordinates":[-79.87896,40.45979]},"properties":{"p":"0231E00375000000","a":"HANSELL AVE","m":"Penn Hills","u":"L","o":"individual","sf":13033,"v":10700}},{"type":"Feature","geometry":{"type":"Point","coordinates":[-79.87941,40.45978]},"properties":{"p":"0231E00377000000","a":"STANDARD AVE","m":"Penn Hills","u":"L","o":"individual","sf":13228,"v":10700}},{"type":"Feature","geometry":{"type":"Point","coordinates":[-79.87957,40.45956]},"properties":{"p":"0231E00379000000","a":"SAMPSON ST","m":"Penn Hills","u":"L","o":"individual","sf":4511,"v":1400}},{"type":"Feature","geometry":{"type":"Point","coordinates":[-79.87998,40.45938]},"properties":{"p":"0231E00382000000","a":"STONEVILLE ST","m":"Penn Hills","u":"L","o":"individual","sf":6463,"v":1900}},{"type":"Feature","geometry":{"type":"Point","coordinates":[-79.87857,40.45975]},"properties":{"p":"0231F00035000000","a":"SEDDON AVE","m":"Penn Hills","u":"L","o":"individual","sf":3750,"v":1200}},{"type":"Feature","geometry":{"type":"Point","coordinates":[-79.87842,40.45973]},"properties":{"p":"0231F00038000000","a":"SEDDON AVE","m":"Penn Hills","u":"L","o":"individual","sf":15000,"v":10900}},{"type":"Feature","geometry":{"type":"Point","coordinates":[-79.86493,40.45838]},"properties":{"p":"0296E00151000000","a":"ROBINSON BLVD","m":"Penn Hills","u":"L","o":"individual","sf":13068,"v":12700}},{"type":"Feature","geometry":{"type":"Point","coordinates":[-79.86046,40.4598]},"properties":{"p":"0296F00275000000","a":"SAMPSON ST","m":"Penn Hills","u":"L","o":"individual","sf":4111,"v":10900}},{"type":"Feature","geometry":{"type":"Point","coordinates":[-79.86292,40.46241]},"properties":{"p":"0296A00372000000","a":"CONESTOGA RD","m":"Penn Hills","u":"L","o":"individual","sf":720,"v":300}},{"type":"Feature","geometry":{"type":"Point","coordinates":[-79.86343,40.4606]},"properties":{"p":"0296A00068000000","a":"GRAHAM BLVD","m":"Penn Hills","u":"L","o":"individual","sf":7977,"v":2300}},{"type":"Feature","geometry":{"type":"Point","coordinates":[-79.86625,40.4624]},"properties":{"p":"0296A00211000000","a":"VERONA RD","m":"Penn Hills","u":"L","o":"individual","sf":7252,"v":6200}},{"type":"Feature","geometry":{"type":"Point","coordinates":[-79.87303,40.46021]},"properties":{"p":"0231C00031000000","a":"FRANKSTOWN RD","m":"13th Ward - PITTSBURGH","u":"L","o":"individual","sf":3090,"v":1600}},{"type":"Feature","geometry":{"type":"Point","coordinates":[-79.8774,40.45122]},"properties":{"p":"0232B00098000000","a":"MAPLEWOOD AVE","m":"13th Ward - PITTSBURGH","u":"L","o":"individual","sf":2880,"v":1400}},{"type":"Feature","geometry":{"type":"Point","coordinates":[-79.87082,40.45212]},"properties":{"p":"0232C00004000000","a":"2053 FRANKELLA AVE","m":"13th Ward - PITTSBURGH","u":"L","o":"corp","sf":4080,"v":4500}},{"type":"Feature","geometry":{"type":"Point","coordinates":[-79.87899,40.45931]},"properties":{"p":"0231E00369000000","a":"HANSELL AVE","m":"Penn Hills","u":"L","o":"individual","sf":3750,"v":1200}},{"type":"Feature","geometry":{"type":"Point","coordinates":[-79.876,40.45673]},"properties":{"p":"0231K00212000000","a":"BRICELYN ST","m":"13th Ward - PITTSBURGH","u":"L","o":"corp","sf":7161,"v":900}},{"type":"Feature","geometry":{"type":"Point","coordinates":[-79.87558,40.45609]},"properties":{"p":"0231K00280000000","a":"WILKINSBURG AVE","m":"13th Ward - PITTSBURGH","u":"L","o":"individual","sf":2775,"v":1400}},{"type":"Feature","geometry":{"type":"Point","coordinates":[-79.87247,40.4697]},"properties":{"p":"0230C00051000000","a":"E FITZSIMMONS ST","m":"Penn Hills","u":"L","o":"individual","sf":71787,"v":12100}},{"type":"Feature","geometry":{"type":"Point","coordinates":[-79.87232,40.46155]},"properties":{"p":"0231C00215000000","a":"WESTWOOD RD","m":"Penn Hills","u":"L","o":"individual","sf":4400,"v":1100}},{"type":"Feature","geometry":{"type":"Point","coordinates":[-79.87952,40.4592]},"properties":{"p":"0231E00381000000","a":"STANDARD AVE","m":"Penn Hills","u":"L","o":"individual","sf":2980,"v":900}},{"type":"Feature","geometry":{"type":"Point","coordinates":[-79.86609,40.45037]},"properties":{"p":"0297A00044000000","a":"VANTINE ST","m":"Wilkinsburg","u":"L","o":"corp","sf":20000,"v":4300}},{"type":"Feature","geometry":{"type":"Point","coordinates":[-79.87219,40.46159]},"properties":{"p":"0231C00219000000","a":"WESTWOOD RD","m":"Penn Hills","u":"L","o":"individual","sf":4400,"v":1100}},{"type":"Feature","geometry":{"type":"Point","coordinates":[-79.87787,40.45535]},"properties":{"p":"0231K00180000000","a":"BRICELYN ST","m":"13th Ward - PITTSBURGH","u":"L","o":"individual","sf":2500,"v":600}},{"type":"Feature","geometry":{"type":"Point","coordinates":[-79.87906,40.4589]},"properties":{"p":"0231E00361000000","a":"HANSELL AVE","m":"13th Ward - PITTSBURGH","u":"L","o":"corp","sf":4968,"v":4000}},{"type":"Feature","geometry":{"type":"Point","coordinates":[-79.87871,40.45735]},"properties":{"p":"0231J00234000000","a":"PERCHMENT ST","m":"13th Ward - PITTSBURGH","u":"L","o":"individual","sf":12152,"v":4600}},{"type":"Feature","geometry":{"type":"Point","coordinates":[-79.87687,40.45121]},"properties":{"p":"0232B00149000000","a":"1757 CRESTLINE ST","m":"13th Ward - PITTSBURGH","u":"L","o":"individual","sf":2880,"v":1400}},{"type":"Feature","geometry":{"type":"Point","coordinates":[-79.87964,40.45108]},"properties":{"p":"0232A00266000000","a":"WARSAW ST","m":"13th Ward - PITTSBURGH","u":"L","o":"corp","sf":3450,"v":4200}},{"type":"Feature","geometry":{"type":"Point","coordinates":[-79.86046,40.45973]},"properties":{"p":"0296F00277000000","a":"SAMPSON ST","m":"Penn Hills","u":"L","o":"individual","sf":4111,"v":1300}},{"type":"Feature","geometry":{"type":"Point","coordinates":[-79.86617,40.46268]},"properties":{"p":"0295N00002000000","a":"VERONA RD","m":"Penn Hills","u":"L","o":"individual","sf":6920,"v":1700}},{"type":"Feature","geometry":{"type":"Point","coordinates":[-79.8792,40.45542]},"properties":{"p":"0231J00370000000","a":"FRANKSTOWN AVE","m":"13th Ward - PITTSBURGH","u":"L","o":"corp","sf":2650,"v":600}},{"type":"Feature","geometry":{"type":"Point","coordinates":[-79.87475,40.4522]},"properties":{"p":"0232B00237000100","a":"CRESTLINE PL","m":"13th Ward - PITTSBURGH","u":"L","o":"individual","sf":13504,"v":5800}},{"type":"Feature","geometry":{"type":"Point","coordinates":[-79.87801,40.45018]},"properties":{"p":"0232F00074000000","a":"FAHNESTOCK ST","m":"13th Ward - PITTSBURGH","u":"L","o":"individual","sf":5640,"v":5100}},{"type":"Feature","geometry":{"type":"Point","coordinates":[-79.87779,40.45777]},"properties":{"p":"0231F00195000000","a":"DERSAM ST","m":"13th Ward - PITTSBURGH","u":"L","o":"individual","sf":3750,"v":3500}},{"type":"Feature","geometry":{"type":"Point","coordinates":[-79.87973,40.45564]},"properties":{"p":"0231J00340000000","a":"FRANKSTOWN AVE","m":"13th Ward - PITTSBURGH","u":"L","o":"individual","sf":3600,"v":3400}},{"type":"Feature","geometry":{"type":"Point","coordinates":[-79.8794,40.45434]},"properties":{"p":"0231N00103000000","a":"BRICELYN ST","m":"13th Ward - PITTSBURGH","u":"L","o":"individual","sf":1175,"v":300}},{"type":"Feature","geometry":{"type":"Point","coordinates":[-79.87635,40.45598]},"properties":{"p":"0231K00227000000","a":"VIDETTE ST","m":"13th Ward - PITTSBURGH","u":"L","o":"individual","sf":5500,"v":4100}},{"type":"Feature","geometry":{"type":"Point","coordinates":[-79.87543,40.4575]},"properties":{"p":"0231F00314000000","a":"BRICELYN ST","m":"13th Ward - PITTSBURGH","u":"L","o":"individual","sf":7405,"v":2700}},{"type":"Feature","geometry":{"type":"Point","coordinates":[-79.87855,40.45256]},"properties":{"p":"0232B00055000000","a":"FAHNESTOCK ST","m":"13th Ward - PITTSBURGH","u":"L","o":"individual","sf":1601,"v":400}},{"type":"Feature","geometry":{"type":"Point","coordinates":[-79.87854,40.45844]},"properties":{"p":"0231F00160000000","a":"STANDARD AVE","m":"13th Ward - PITTSBURGH","u":"L","o":"individual","sf":33482,"v":6600}},{"type":"Feature","geometry":{"type":"Point","coordinates":[-79.8762,40.4601]},"properties":{"p":"0231B00190000000","a":"PERSHING ST","m":"13th Ward - PITTSBURGH","u":"L","o":"individual","sf":6566,"v":1400}},{"type":"Feature","geometry":{"type":"Point","coordinates":[-79.87502,40.46169]},"properties":{"p":"0231B00344000000","a":"PERSHING ST","m":"Penn Hills","u":"L","o":"individual","sf":14579,"v":6900}},{"type":"Feature","geometry":{"type":"Point","coordinates":[-79.87912,40.45951]},"properties":{"p":"0231E00371000000","a":"STANDARD AVE","m":"Penn Hills","u":"L","o":"individual","sf":4474,"v":1400}},{"type":"Feature","geometry":{"type":"Point","coordinates":[-79.87806,40.45968]},"properties":{"p":"0231F00041000000","a":"SEDDON AVE","m":"Penn Hills","u":"L","o":"individual","sf":3750,"v":1200}},{"type":"Feature","geometry":{"type":"Point","coordinates":[-79.87115,40.46605]},"properties":{"p":"0230L00158000000","a":"7923 DOLLMAN RD","m":"Penn Hills","u":"L","o":"individual","sf":10500,"v":2500}},{"type":"Feature","geometry":{"type":"Point","coordinates":[-79.87992,40.45321]},"properties":{"p":"0231N00189000000","a":"SEAGIRT ST","m":"13th Ward - PITTSBURGH","u":"L","o":"individual","sf":3150,"v":4100}},{"type":"Feature","geometry":{"type":"Point","coordinates":[-79.8786,40.45266]},"properties":{"p":"0232B00057000000","a":"FAHNESTOCK ST","m":"13th Ward - PITTSBURGH","u":"L","o":"individual","sf":1429,"v":400}},{"type":"Feature","geometry":{"type":"Point","coordinates":[-79.87688,40.45231]},"properties":{"p":"0232B00303000000","a":"CALISTOGA ST","m":"13th Ward - PITTSBURGH","u":"L","o":"individual","sf":2000,"v":500}},{"type":"Feature","geometry":{"type":"Point","coordinates":[-79.87799,40.45175]},"properties":{"p":"0232B00076000000","a":"MAPLEWOOD AVE","m":"13th Ward - PITTSBURGH","u":"L","o":"individual","sf":2530,"v":1300}},{"type":"Feature","geometry":{"type":"Point","coordinates":[-79.86121,40.46755]},"properties":{"p":"0295F00262000000","a":"VERONA RD","m":"Penn Hills","u":"L","o":"corp","sf":16523,"v":7000}},{"type":"Feature","geometry":{"type":"Point","coordinates":[-79.87821,40.4597]},"properties":{"p":"0231F00039000000","a":"SEDDON AVE","m":"Penn Hills","u":"L","o":"individual","sf":7500,"v":10200}},{"type":"Feature","geometry":{"type":"Point","coordinates":[-79.87359,40.45054]},"properties":{"p":"0232C00194000000","a":"SWISSVALE AVE","m":"13th Ward - PITTSBURGH","u":"B","o":"corp","sf":8138,"v":1000}},{"type":"Feature","geometry":{"type":"Point","coordinates":[-79.8736,40.45113]},"properties":{"p":"0232C00201000000","a":"SWISSVALE AVE","m":"13th Ward - PITTSBURGH","u":"B","o":"individual","sf":5922,"v":800}},{"type":"Feature","geometry":{"type":"Point","coordinates":[-79.8736,40.45142]},"properties":{"p":"0232C00202000000","a":"SWISSVALE AVE","m":"13th Ward - PITTSBURGH","u":"B","o":"corp","sf":11951,"v":1400}},{"type":"Feature","geometry":{"type":"Point","coordinates":[-79.87417,40.4507]},"properties":{"p":"0232C00274000000","a":"SWISSVALE AVE","m":"13th Ward - PITTSBURGH","u":"B","o":"corp","sf":5722,"v":800}},{"type":"Feature","geometry":{"type":"Point","coordinates":[-79.87447,40.45035]},"properties":{"p":"0232C00290000000","a":"CRESTLINE ST","m":"13th Ward - PITTSBURGH","u":"B","o":"corp","sf":6844,"v":900}},{"type":"Feature","geometry":{"type":"Point","coordinates":[-79.87454,40.45054]},"properties":{"p":"0232C00292000000","a":"CRESTLINE ST","m":"13th Ward - PITTSBURGH","u":"B","o":"corp","sf":6333,"v":900}},{"type":"Feature","geometry":{"type":"Point","coordinates":[-79.87482,40.45114]},"properties":{"p":"0232B00191000000","a":"CRESTLINE ST","m":"13th Ward - PITTSBURGH","u":"B","o":"individual","sf":5922,"v":800}},{"type":"Feature","geometry":{"type":"Point","coordinates":[-79.87504,40.45114]},"properties":{"p":"0232B00193000000","a":"CRESTLINE ST","m":"13th Ward - PITTSBURGH","u":"B","o":"individual","sf":5605,"v":800}},{"type":"Feature","geometry":{"type":"Point","coordinates":[-79.87502,40.45038]},"properties":{"p":"0232B00203000000","a":"CRESTLINE ST","m":"13th Ward - PITTSBURGH","u":"B","o":"corp","sf":7000,"v":900}},{"type":"Feature","geometry":{"type":"Point","coordinates":[-79.87455,40.45071]},"properties":{"p":"0232C00294000000","a":"CRESTLINE ST","m":"13th Ward - PITTSBURGH","u":"B","o":"corp","sf":7272,"v":1000}},{"type":"Feature","geometry":{"type":"Point","coordinates":[-79.87455,40.45086]},"properties":{"p":"0232C00296000000","a":"CRESTLINE ST","m":"13th Ward - PITTSBURGH","u":"B","o":"individual","sf":6325,"v":900}},{"type":"Feature","geometry":{"type":"Point","coordinates":[-79.87509,40.45063]},"properties":{"p":"0232B00205000000","a":"CRESTLINE ST","m":"13th Ward - PITTSBURGH","u":"B","o":"corp","sf":9086,"v":1100}},{"type":"Feature","geometry":{"type":"Point","coordinates":[-79.87597,40.4506]},"properties":{"p":"0232B00206000000","a":"38 CRESTLINE ST","m":"13th Ward - PITTSBURGH","u":"B","o":"individual","sf":5000,"v":800}},{"type":"Feature","geometry":{"type":"Point","coordinates":[-79.87531,40.45068]},"properties":{"p":"0232B00207000000","a":"CRESTLINE ST","m":"13th Ward - PITTSBURGH","u":"B","o":"corp","sf":5003,"v":800}},{"type":"Feature","geometry":{"type":"Point","coordinates":[-79.87596,40.45045]},"properties":{"p":"0232B00208000000","a":"CRESTLINE ST","m":"13th Ward - PITTSBURGH","u":"B","o":"corp","sf":5000,"v":800}},{"type":"Feature","geometry":{"type":"Point","coordinates":[-79.87551,40.45067]},"properties":{"p":"0232B00209000000","a":"CRESTLINE ST","m":"13th Ward - PITTSBURGH","u":"B","o":"corp","sf":5979,"v":800}},{"type":"Feature","geometry":{"type":"Point","coordinates":[-79.87545,40.45049]},"properties":{"p":"0232B00211000000","a":"CRESTLINE ST","m":"13th Ward - PITTSBURGH","u":"B","o":"corp","sf":5093,"v":800}},{"type":"Feature","geometry":{"type":"Point","coordinates":[-79.87492,40.45003]},"properties":{"p":"0232F00250000000","a":"CRESTLINE ST","m":"13th Ward - PITTSBURGH","u":"B","o":"corp","sf":6065,"v":900}},{"type":"Feature","geometry":{"type":"Point","coordinates":[-79.87493,40.45024]},"properties":{"p":"0232F00252000000","a":"CRESTLINE ST","m":"13th Ward - PITTSBURGH","u":"B","o":"corp","sf":5751,"v":800}},{"type":"Feature","geometry":{"type":"Point","coordinates":[-79.87596,40.45031]},"properties":{"p":"0232F00268000000","a":"CRESTLINE ST","m":"13th Ward - PITTSBURGH","u":"B","o":"corp","sf":5000,"v":800}},{"type":"Feature","geometry":{"type":"Point","coordinates":[-79.87358,40.45031]},"properties":{"p":"0232C00190000000","a":"SWISSVALE AVE","m":"13th Ward - PITTSBURGH","u":"B","o":"corp","sf":9224,"v":1100}},{"type":"Feature","geometry":{"type":"Point","coordinates":[-79.87358,40.45043]},"properties":{"p":"0232C00192000000","a":"SWISSVALE AVE","m":"13th Ward - PITTSBURGH","u":"B","o":"corp","sf":6777,"v":900}},{"type":"Feature","geometry":{"type":"Point","coordinates":[-79.87631,40.4503]},"properties":{"p":"0232F00276000000","a":"CRESTLINE ST","m":"13th Ward - PITTSBURGH","u":"B","o":"corp","sf":6000,"v":800}},{"type":"Feature","geometry":{"type":"Point","coordinates":[-79.87631,40.45045]},"properties":{"p":"0232B00216000000","a":"CRESTLINE ST","m":"13th Ward - PITTSBURGH","u":"B","o":"corp","sf":6000,"v":800}},{"type":"Feature","geometry":{"type":"Point","coordinates":[-79.87631,40.45017]},"properties":{"p":"0232F00274000000","a":"CRESTLINE ST","m":"13th Ward - PITTSBURGH","u":"B","o":"corp","sf":6000,"v":800}}]}