{"type":"FeatureCollection","features":[{"type":"Feature","geometry":{"type":"Point","coordinates":[-79.86505,40.55505]},"properties":{"p":"0622E00058000000","a":"GUYS RUN RD","m":"Harmar","u":"C","o":"corp","sf":34935,"v":31400}},{"type":"Feature","geometry":{"type":"Point","coordinates":[-79.86504,40.55457]},"properties":{"p":"0622J00285000000","a":"GUYS RUN RD","m":"Harmar","u":"C","o":"corp","sf":26179,"v":10500}},{"type":"Feature","geometry":{"type":"Point","coordinates":[-79.87998,40.55118]},"properties":{"p":"0621N00147000000","a":"FOX CHAPEL RD","m":"Fox Chapel","u":"L","o":"individual","sf":64469,"v":183400}},{"type":"Feature","geometry":{"type":"Point","coordinates":[-79.87885,40.55129]},"properties":{"p":"0621P00003000000","a":"FOX CHAPEL RD","m":"Fox Chapel","u":"L","o":"individual","sf":59677,"v":181500}},{"type":"Feature","geometry":{"type":"Point","coordinates":[-79.87853,40.55025]},"properties":{"p":"0621P00007000000","a":"ORCHARD MANOR DR","m":"Fox Chapel","u":"L","o":"individual","sf":50965,"v":178000}},{"type":"Feature","geometry":{"type":"Point","coordinates":[-79.86162,40.56021]},"properties":{"p":"0622E00191000000","a":"LOCUST HILL RD","m":"Harmar","u":"L","o":"corp","sf":175303,"v":90400}},{"type":"Feature","geometry":{"type":"Point","coordinates":[-79.86243,40.55567]},"properties":{"p":"0622E00005000000","a":"FOX CHASE DR","m":"Harmar","u":"L","o":"corp","sf":18574,"v":7300}},{"type":"Feature","geometry":{"type":"Point","coordinates":[-79.86408,40.55469]},"properties":{"p":"0622E00045000000","a":"GUYS RUN RD","m":"Harmar","u":"L","o":"individual","sf":83200,"v":44200}},{"type":"Feature","geometry":{"type":"Point","coordinates":[-79.8607,40.55243]},"properties":{"p":"0622P00130000000","a":"DREMMEL RD","m":"Harmar","u":"L","o":"individual","sf":84001,"v":76800}},{"type":"Feature","geometry":{"type":"Point","coordinates":[-79.86143,40.55505]},"properties":{"p":"0622F00024000000","a":"LOCUST HILL RD","m":"Harmar","u":"L","o":"corp","sf":19685,"v":15000}},{"type":"Feature","geometry":{"type":"Point","coordinates":[-79.86191,40.55526]},"properties":{"p":"0622F00028000000","a":"GUYS RUN RD","m":"Harmar","u":"L","o":"corp","sf":30958,"v":68900}},{"type":"Feature","geometry":{"type":"Point","coordinates":[-79.86233,40.5567]},"properties":{"p":"0622F00060000000","a":"FOX CHASE DR","m":"Harmar","u":"L","o":"corp","sf":75485,"v":11300}},{"type":"Feature","geometry":{"type":"Point","coordinates":[-79.86036,40.55496]},"properties":{"p":"0622F00190000000","a":"LOCUST HILL RD","m":"Harmar","u":"L","o":"individual","sf":11349,"v":4500}},{"type":"Feature","geometry":{"type":"Point","coordinates":[-79.86578,40.56991]},"properties":{"p":"0836N00024000000","a":"DUNCAN WAY","m":"Indiana","u":"L","o":"corp","sf":28697,"v":8000}},{"type":"Feature","geometry":{"type":"Point","coordinates":[-79.87886,40.56653]},"properties":{"p":"0835P00126000000","a":"178 INDIANOLA RD","m":"Indiana","u":"L","o":"individual","sf":106722,"v":9800}},{"type":"Feature","geometry":{"type":"Point","coordinates":[-79.86119,40.55312]},"properties":{"p":"0622K00010000000","a":"GUYS RUN RD","m":"Harmar","u":"L","o":"individual","sf":81893,"v":76500}},{"type":"Feature","geometry":{"type":"Point","coordinates":[-79.86444,40.55144]},"properties":{"p":"0622N00059000000","a":"HIGHBURY RD","m":"Harmar","u":"L","o":"corp","sf":1690,"v":800}},{"type":"Feature","geometry":{"type":"Point","coordinates":[-79.86096,40.55338]},"properties":{"p":"0622K00096000000","a":"DREMMEL RD","m":"Harmar","u":"L","o":"individual","sf":87120,"v":77300}},{"type":"Feature","geometry":{"type":"Point","coordinates":[-79.86017,40.55489]},"properties":{"p":"0622K00220000000","a":"LOCUST HILL RD","m":"Harmar","u":"L","o":"individual","sf":17798,"v":17400}},{"type":"Feature","geometry":{"type":"Point","coordinates":[-79.86575,40.56611]},"properties":{"p":"0725E00275000000","a":"OLD MILL RD","m":"Indiana","u":"L","o":"corp","sf":67082,"v":44300}},{"type":"Feature","geometry":{"type":"Point","coordinates":[-79.86916,40.56888]},"properties":{"p":"0724D00216000000","a":"INDIANOLA RD","m":"Indiana","u":"L","o":"individual","sf":43734,"v":42200}},{"type":"Feature","geometry":{"type":"Point","coordinates":[-79.87507,40.55266]},"properties":{"p":"0621L00333000000","a":"GUYS RUN RD","m":"Indiana","u":"L","o":"corp","sf":55321,"v":43200}},{"type":"Feature","geometry":{"type":"Point","coordinates":[-79.86029,40.5624]},"properties":{"p":"0725K00216000000","a":"GRANDVIEW DR","m":"Indiana","u":"L","o":"individual","sf":9732,"v":29700}},{"type":"Feature","geometry":{"type":"Point","coordinates":[-79.86008,40.56211]},"properties":{"p":"0725K00221000000","a":"GRANDVIEW DR","m":"Indiana","u":"L","o":"individual","sf":5388,"v":500}},{"type":"Feature","geometry":{"type":"Point","coordinates":[-79.87554,40.55256]},"properties":{"p":"0621K00020000000","a":"312 GUYS RUN RD","m":"Indiana","u":"L","o":"individual","sf":15507,"v":1400}},{"type":"Feature","geometry":{"type":"Point","coordinates":[-79.87194,40.55402]},"properties":{"p":"0621L00083000000","a":"GUYS RUN RD","m":"Indiana","u":"L","o":"individual","sf":2657,"v":200}},{"type":"Feature","geometry":{"type":"Point","coordinates":[-79.86055,40.56579]},"properties":{"p":"0725F00192000000","a":"897 ROUTE 910","m":"Indiana","u":"L","o":"corp","sf":105415,"v":47800}},{"type":"Feature","geometry":{"type":"Point","coordinates":[-79.86308,40.56737]},"properties":{"p":"0725A00232000000","a":"INDIANOLA RD","m":"Indiana","u":"L","o":"individual","sf":1800,"v":200}},{"type":"Feature","geometry":{"type":"Point","coordinates":[-79.86337,40.56734]},"properties":{"p":"0725A00235000000","a":"INDIANOLA RD","m":"Indiana","u":"L","o":"individual","sf":17315,"v":5000}},{"type":"Feature","geometry":{"type":"Point","coordinates":[-79.86376,40.56786]},"properties":{"p":"0725A00237000000","a":"VICTORY WAY","m":"Indiana","u":"L","o":"individual","sf":15960,"v":1400}},{"type":"Feature","geometry":{"type":"Point","coordinates":[-79.86436,40.56785]},"properties":{"p":"0725A00255000000","a":"INDIANOLA RD","m":"Indiana","u":"L","o":"individual","sf":55321,"v":5100}},{"type":"Feature","geometry":{"type":"Point","coordinates":[-79.86296,40.56757]},"properties":{"p":"0725A00022000000","a":"CREST DR","m":"Indiana","u":"L","o":"individual","sf":4953,"v":500}},{"type":"Feature","geometry":{"type":"Point","coordinates":[-79.86334,40.56777]},"properties":{"p":"0725A00049000000","a":"INDIANOLA RD","m":"Indiana","u":"L","o":"individual","sf":32234,"v":2900}},{"type":"Feature","geometry":{"type":"Point","coordinates":[-79.86169,40.56718]},"properties":{"p":"0725B00210000000","a":"INDIANOLA RD","m":"Indiana","u":"L","o":"individual","sf":4269,"v":400}},{"type":"Feature","geometry":{"type":"Point","coordinates":[-79.86265,40.56759]},"properties":{"p":"0725B00233000000","a":"CREST DR","m":"Indiana","u":"L","o":"corp","sf":1800,"v":200}},{"type":"Feature","geometry":{"type":"Point","coordinates":[-79.86608,40.56728]},"properties":{"p":"0724H00250000000","a":"INDIANOLA RD","m":"Indiana","u":"L","o":"individual","sf":121227,"v":11100}},{"type":"Feature","geometry":{"type":"Point","coordinates":[-79.87506,40.56733]},"properties":{"p":"0724C00342000000","a":"212 INDIANOLA RD","m":"Indiana","u":"L","o":"corp","sf":131281,"v":40400}},{"type":"Feature","geometry":{"type":"Point","coordinates":[-79.86183,40.55424]},"properties":{"p":"0622K00100000000","a":"DREMMEL RD","m":"Harmar","u":"L","o":"individual","sf":6810,"v":2800}},{"type":"Feature","geometry":{"type":"Point","coordinates":[-79.87763,40.55224]},"properties":{"p":"0621P00351000000","a":"1504 FOX CHAPEL RD","m":"Indiana","u":"L","o":"individual","sf":4704,"v":400}},{"type":"Feature","geometry":{"type":"Point","coordinates":[-79.86092,40.55461]},"properties":{"p":"0622K00200000000","a":"GUYS RUN RD","m":"Harmar","u":"L","o":"corp","sf":12000,"v":9000}},{"type":"Feature","geometry":{"type":"Point","coordinates":[-79.87502,40.55026]},"properties":{"p":"0621P00015000000","a":"OLD INDIAN TRL","m":"Fox Chapel","u":"B","o":"individual","sf":96921,"v":47700}},{"type":"Feature","geometry":{"type":"Point","coordinates":[-79.87683,40.55034]},"properties":{"p":"0621P00010000000","a":"105 OLD INDIAN TRL","m":"Fox Chapel","u":"B","o":"individual","sf":53500,"v":30200}},{"type":"Feature","geometry":{"type":"Point","coordinates":[-79.87703,40.5514]},"properties":{"p":"0621P00011000000","a":"102 OLD INDIAN TRL","m":"Fox Chapel","u":"B","o":"individual","sf":44431,"v":26600}},{"type":"Feature","geometry":{"type":"Point","coordinates":[-79.87557,40.55167]},"properties":{"p":"0621P00013000000","a":"24 OLD INDIAN TRAIL CT","m":"Fox Chapel","u":"B","o":"individual","sf":43560,"v":26300}}]}