{"type":"FeatureCollection","features":[{"type":"Feature","geometry":{"type":"Point","coordinates":[-79.87709,40.58973]},"properties":{"p":"0954B00020000000","a":"3811 SAXONBURG BLVD","m":"Indiana","u":"I","o":"corp","sf":245400,"v":8000}},{"type":"Feature","geometry":{"type":"Point","coordinates":[-79.86138,40.57523]},"properties":{"p":"0836E00207000000","a":"ROUTE 910","m":"Indiana","u":"C","o":"corp","sf":2608133,"v":179600}},{"type":"Feature","geometry":{"type":"Point","coordinates":[-79.87826,40.5876]},"properties":{"p":"0954A00026000000","a":"SAXONBURG BLVD","m":"Indiana","u":"C","o":"corp","sf":13242,"v":48000}},{"type":"Feature","geometry":{"type":"Point","coordinates":[-79.8698,40.58595]},"properties":{"p":"0954H00150000000","a":"ROUTE 910","m":"Indiana","u":"L","o":"individual","sf":12980,"v":1400}},{"type":"Feature","geometry":{"type":"Point","coordinates":[-79.87607,40.572]},"properties":{"p":"0835P00290000000","a":"INDIANOLA RD","m":"Indiana","u":"L","o":"individual","sf":85173,"v":34500}},{"type":"Feature","geometry":{"type":"Point","coordinates":[-79.86634,40.58632]},"properties":{"p":"0955E00386000000","a":"101 FERNWOOD LN","m":"Indiana","u":"L","o":"individual","sf":16622,"v":0}},{"type":"Feature","geometry":{"type":"Point","coordinates":[-79.86036,40.58548]},"properties":{"p":"0955F00200000000","a":"MILL DAM RD","m":"Indiana","u":"L","o":"individual","sf":160736,"v":66200}},{"type":"Feature","geometry":{"type":"Point","coordinates":[-79.86235,40.58704]},"properties":{"p":"0955F00225000000","a":"MILL DAM RD","m":"Indiana","u":"L","o":"individual","sf":452588,"v":33800}},{"type":"Feature","geometry":{"type":"Point","coordinates":[-79.87398,40.58629]},"properties":{"p":"0954G00343000000","a":"SAXONBURG BLVD","m":"Indiana","u":"L","o":"corp","sf":97008,"v":1100}},{"type":"Feature","geometry":{"type":"Point","coordinates":[-79.86776,40.58521]},"properties":{"p":"0954H00003000000","a":"102 BLACK OAK DR","m":"Indiana","u":"L","o":"individual","sf":2243,"v":300}},{"type":"Feature","geometry":{"type":"Point","coordinates":[-79.87617,40.57433]},"properties":{"p":"0835E00058000000","a":"BLUE RUN RD","m":"Indiana","u":"L","o":"individual","sf":20246,"v":5000}},{"type":"Feature","geometry":{"type":"Point","coordinates":[-79.87478,40.58342]},"properties":{"p":"0954L00256000000","a":"ROUTE 910","m":"Indiana","u":"L","o":"individual","sf":50486,"v":6500}},{"type":"Feature","geometry":{"type":"Point","coordinates":[-79.86651,40.571]},"properties":{"p":"0836N00080000000","a":"DUNCAN WAY","m":"Indiana","u":"L","o":"individual","sf":11365,"v":5000}},{"type":"Feature","geometry":{"type":"Point","coordinates":[-79.87127,40.57455]},"properties":{"p":"0835G00120000000","a":"509 SANDRA LN","m":"Indiana","u":"L","o":"individual","sf":18817,"v":72800}},{"type":"Feature","geometry":{"type":"Point","coordinates":[-79.86496,40.57097]},"properties":{"p":"0836N00218000000","a":"REPUBLIC AVE","m":"Indiana","u":"L","o":"individual","sf":8573,"v":800}},{"type":"Feature","geometry":{"type":"Point","coordinates":[-79.86747,40.58648]},"properties":{"p":"0954D00094000000","a":"FERNWOOD LN","m":"Indiana","u":"L","o":"individual","sf":5266,"v":0}},{"type":"Feature","geometry":{"type":"Point","coordinates":[-79.86737,40.58702]},"properties":{"p":"0954D00095000000","a":"FERNWOOD LN","m":"Indiana","u":"L","o":"individual","sf":41937,"v":27400}},{"type":"Feature","geometry":{"type":"Point","coordinates":[-79.86904,40.58749]},"properties":{"p":"0954D00097000000","a":"FERNWOOD LN","m":"Indiana","u":"L","o":"corp","sf":302476,"v":38000}},{"type":"Feature","geometry":{"type":"Point","coordinates":[-79.86338,40.57617]},"properties":{"p":"0836E00218000000","a":"ROUTE 910","m":"Indiana","u":"L","o":"individual","sf":64904,"v":7500}},{"type":"Feature","geometry":{"type":"Point","coordinates":[-79.86392,40.57727]},"properties":{"p":"0836E00275000000","a":"ROUTE 910","m":"Indiana","u":"L","o":"individual","sf":449016,"v":30900}},{"type":"Feature","geometry":{"type":"Point","coordinates":[-79.86775,40.57313]},"properties":{"p":"0835M00179000000","a":"118 BRUNO DR","m":"Indiana","u":"L","o":"individual","sf":12500,"v":1100}},{"type":"Feature","geometry":{"type":"Point","coordinates":[-79.86915,40.57261]},"properties":{"p":"0835M00211000100","a":"10 TIMBER TRAIL LN","m":"Indiana","u":"L","o":"individual","sf":32096,"v":2900}},{"type":"Feature","geometry":{"type":"Point","coordinates":[-79.86924,40.57281]},"properties":{"p":"0835M00220000100","a":"10 TIMBER TRAIL LN","m":"Indiana","u":"L","o":"individual","sf":4886,"v":400}},{"type":"Feature","geometry":{"type":"Point","coordinates":[-79.87567,40.58301]},"properties":{"p":"0954K00120000000","a":"ROUTE 910","m":"Indiana","u":"L","o":"individual","sf":47872,"v":22600}},{"type":"Feature","geometry":{"type":"Point","coordinates":[-79.87566,40.58502]},"properties":{"p":"0954F00101000000","a":"OLDE SAXONY TRL","m":"Indiana","u":"L","o":"corp","sf":47916,"v":42600}},{"type":"Feature","geometry":{"type":"Point","coordinates":[-79.87003,40.5863]},"properties":{"p":"0954H00150000100","a":"ROUTE 910","m":"Indiana","u":"L","o":"individual","sf":10498,"v":1200}},{"type":"Feature","geometry":{"type":"Point","coordinates":[-79.87944,40.58199]},"properties":{"p":"0954J00046000000","a":"ROUTE 910","m":"Indiana","u":"L","o":"individual","sf":143312,"v":51300}},{"type":"Feature","geometry":{"type":"Point","coordinates":[-79.87929,40.5829]},"properties":{"p":"0954J00061000000","a":"HILLTOP DR","m":"Indiana","u":"L","o":"individual","sf":7596,"v":700}},{"type":"Feature","geometry":{"type":"Point","coordinates":[-79.87945,40.58345]},"properties":{"p":"0954J00074000000","a":"HILLTOP DR","m":"Indiana","u":"L","o":"individual","sf":18337,"v":1700}},{"type":"Feature","geometry":{"type":"Point","coordinates":[-79.87598,40.58976]},"properties":{"p":"1081P00040000000","a":"FOSSIL RIDGE RD","m":"Indiana","u":"L","o":"corp","sf":69696,"v":18500}},{"type":"Feature","geometry":{"type":"Point","coordinates":[-79.86551,40.58822]},"properties":{"p":"0955A00346000000","a":"EISELE RD","m":"Indiana","u":"L","o":"individual","sf":71874,"v":31000}},{"type":"Feature","geometry":{"type":"Point","coordinates":[-79.87734,40.57854]},"properties":{"p":"0835B00400000000","a":"ROUTE 910","m":"Indiana","u":"L","o":"individual","sf":171191,"v":2000}},{"type":"Feature","geometry":{"type":"Point","coordinates":[-79.87467,40.57052]},"properties":{"p":"0835R00351000000","a":"INDIANOLA RD","m":"Indiana","u":"L","o":"individual","sf":38333,"v":3500}},{"type":"Feature","geometry":{"type":"Point","coordinates":[-79.86489,40.57613]},"properties":{"p":"0836E00127000000","a":"ROUTE 910","m":"Indiana","u":"L","o":"individual","sf":70262,"v":8100}},{"type":"Feature","geometry":{"type":"Point","coordinates":[-79.8649,40.5841]},"properties":{"p":"0955J00200000000","a":"EISELE RD","m":"Indiana","u":"L","o":"individual","sf":224334,"v":48200}},{"type":"Feature","geometry":{"type":"Point","coordinates":[-79.86028,40.58355]},"properties":{"p":"0955K00250000000","a":"COVE RUN RD","m":"Indiana","u":"L","o":"individual","sf":170232,"v":42200}},{"type":"Feature","geometry":{"type":"Point","coordinates":[-79.86089,40.58288]},"properties":{"p":"0955K00260000000","a":"COVE RUN RD","m":"Indiana","u":"L","o":"individual","sf":8712,"v":1000}},{"type":"Feature","geometry":{"type":"Point","coordinates":[-79.86094,40.58454]},"properties":{"p":"0955K00300000000","a":"MILL DAM RD","m":"Indiana","u":"L","o":"individual","sf":458817,"v":82900}},{"type":"Feature","geometry":{"type":"Point","coordinates":[-79.86629,40.57022]},"properties":{"p":"0836N00106000000","a":"REPUBLIC AVE","m":"Indiana","u":"L","o":"individual","sf":20507,"v":40100}},{"type":"Feature","geometry":{"type":"Point","coordinates":[-79.86347,40.58186]},"properties":{"p":"0955N00112000000","a":"COVE RUN RD","m":"Indiana","u":"L","o":"individual","sf":3688,"v":400}},{"type":"Feature","geometry":{"type":"Point","coordinates":[-79.86326,40.57662]},"properties":{"p":"0836E00225000000","a":"ROUTE 910","m":"Indiana","u":"L","o":"individual","sf":36765,"v":4000}},{"type":"Feature","geometry":{"type":"Point","coordinates":[-79.86549,40.57713]},"properties":{"p":"0836A00020000000","a":"ROUTE 910","m":"Indiana","u":"L","o":"corp","sf":387,"v":19100}},{"type":"Feature","geometry":{"type":"Point","coordinates":[-79.87079,40.57709]},"properties":{"p":"0835C00004000000","a":"CREIGMORE CT","m":"Indiana","u":"L","o":"individual","sf":19994,"v":3400}},{"type":"Feature","geometry":{"type":"Point","coordinates":[-79.87583,40.58908]},"properties":{"p":"0954B00062000000","a":"FOSSIL RIDGE RD","m":"Indiana","u":"L","o":"corp","sf":104322,"v":31700}},{"type":"Feature","geometry":{"type":"Point","coordinates":[-79.8659,40.5772]},"properties":{"p":"0836A00150000000","a":"ROUTE 910","m":"Indiana","u":"L","o":"corp","sf":24013,"v":50400}},{"type":"Feature","geometry":{"type":"Point","coordinates":[-79.86635,40.58536]},"properties":{"p":"0955E00350000000","a":"BLACK OAK DR","m":"Indiana","u":"L","o":"corp","sf":24630,"v":50500}},{"type":"Feature","geometry":{"type":"Point","coordinates":[-79.87811,40.58474]},"properties":{"p":"0954F00011000000","a":"HILLTOP DR","m":"Indiana","u":"B","o":"corp","sf":55365,"v":9300}}]}