{"type":"FeatureCollection","features":[{"type":"Feature","geometry":{"type":"Point","coordinates":[-79.8764,40.24754]},"properties":{"p":"1573B00001000000","a":"1740 HAYDEN BLVD","m":"Forward","u":"C","o":"corp","sf":111008,"v":15500}},{"type":"Feature","geometry":{"type":"Point","coordinates":[-79.8765,40.24641]},"properties":{"p":"1573B00005000000","a":"HAYDEN BLVD","m":"Forward","u":"C","o":"corp","sf":668454,"v":7000}},{"type":"Feature","geometry":{"type":"Point","coordinates":[-79.87734,40.24785]},"properties":{"p":"1573B00298000000","a":"HAYDEN BLVD","m":"Forward","u":"C","o":"corp","sf":41992,"v":3000}},{"type":"Feature","geometry":{"type":"Point","coordinates":[-79.86025,40.23224]},"properties":{"p":"1735L00376000000","a":"PAYDAYS DR","m":"Forward","u":"C","o":"corp","sf":1027288,"v":135800}},{"type":"Feature","geometry":{"type":"Point","coordinates":[-79.87816,40.24886]},"properties":{"p":"1418P00355000000","a":"ROBERTS HOLLOW RD","m":"Forward","u":"C","o":"individual","sf":33510,"v":5000}},{"type":"Feature","geometry":{"type":"Point","coordinates":[-79.87824,40.24915]},"properties":{"p":"1418P00363000000","a":"ROBERTS HOLLOW RD","m":"Forward","u":"C","o":"individual","sf":16170,"v":5000}},{"type":"Feature","geometry":{"type":"Point","coordinates":[-79.86327,40.23892]},"properties":{"p":"1572N00323000000","a":"HAYDEN BLVD","m":"Forward","u":"C","o":"corp","sf":744875,"v":60000}},{"type":"Feature","geometry":{"type":"Point","coordinates":[-79.87778,40.24774]},"properties":{"p":"1573B00353000000","a":"ROBERTS HOLLOW RD","m":"Forward","u":"L","o":"individual","sf":17555,"v":4200}},{"type":"Feature","geometry":{"type":"Point","coordinates":[-79.87974,40.24543]},"properties":{"p":"1573E00143000000","a":"ROBERTS HOLLOW RD","m":"Forward","u":"L","o":"individual","sf":30232,"v":23600}},{"type":"Feature","geometry":{"type":"Point","coordinates":[-79.87999,40.24575]},"properties":{"p":"1573E00145000000","a":"ROBERTS HOLLOW RD","m":"Forward","u":"L","o":"individual","sf":103673,"v":53600}},{"type":"Feature","geometry":{"type":"Point","coordinates":[-79.87691,40.23604]},"properties":{"p":"1736G00311000000","a":"MENTOR RD","m":"Forward","u":"L","o":"individual","sf":699408,"v":98600}},{"type":"Feature","geometry":{"type":"Point","coordinates":[-79.87408,40.23606]},"properties":{"p":"1736G00361000000","a":"MENTOR RD","m":"Forward","u":"L","o":"individual","sf":17307,"v":1700}},{"type":"Feature","geometry":{"type":"Point","coordinates":[-79.87422,40.23664]},"properties":{"p":"1736G00362000000","a":"EVERGREEN LN","m":"Forward","u":"L","o":"individual","sf":112385,"v":11600}},{"type":"Feature","geometry":{"type":"Point","coordinates":[-79.86851,40.2391]},"properties":{"p":"1573S00106000000","a":"7322 HUTCHINSON RD","m":"Forward","u":"L","o":"individual","sf":10454,"v":34200}},{"type":"Feature","geometry":{"type":"Point","coordinates":[-79.87955,40.24664]},"properties":{"p":"1573A00015000000","a":"ROBERTS HOLLOW RD","m":"Forward","u":"L","o":"individual","sf":71438,"v":50300}},{"type":"Feature","geometry":{"type":"Point","coordinates":[-79.87105,40.24042]},"properties":{"p":"1573R00061000000","a":"GINGER LN","m":"Forward","u":"L","o":"individual","sf":43560,"v":24900}},{"type":"Feature","geometry":{"type":"Point","coordinates":[-79.87272,40.23276]},"properties":{"p":"1736L00261000000","a":"MENTOR RD","m":"Forward","u":"L","o":"individual","sf":78844,"v":51100}},{"type":"Feature","geometry":{"type":"Point","coordinates":[-79.8736,40.23321]},"properties":{"p":"1736L00373000000","a":"8214 MENTOR RD","m":"Forward","u":"L","o":"individual","sf":38189,"v":3800}},{"type":"Feature","geometry":{"type":"Point","coordinates":[-79.87969,40.24269]},"properties":{"p":"1573J00216000000","a":"ROBERTS HOLLOW RD","m":"Forward","u":"L","o":"individual","sf":246114,"v":9200}},{"type":"Feature","geometry":{"type":"Point","coordinates":[-79.86141,40.23606]},"properties":{"p":"1735F00190000000","a":"VICTOR DR","m":"Forward","u":"L","o":"individual","sf":45085,"v":38000}},{"type":"Feature","geometry":{"type":"Point","coordinates":[-79.86224,40.23434]},"properties":{"p":"1735F00360000000","a":"PAYDAYS DR","m":"Forward","u":"L","o":"individual","sf":345361,"v":27800}},{"type":"Feature","geometry":{"type":"Point","coordinates":[-79.86514,40.23367]},"properties":{"p":"1735E00094000000","a":"HAYDEN BLVD","m":"Forward","u":"L","o":"individual","sf":392040,"v":13500}},{"type":"Feature","geometry":{"type":"Point","coordinates":[-79.8667,40.23326]},"properties":{"p":"1736M00046000000","a":"HAYDEN BLVD","m":"Forward","u":"L","o":"individual","sf":44867,"v":1200}},{"type":"Feature","geometry":{"type":"Point","coordinates":[-79.86097,40.23525]},"properties":{"p":"1735F00228000000","a":"PAYDAYS DR","m":"Forward","u":"L","o":"individual","sf":80586,"v":31500}}]}