{"type":"FeatureCollection","features":[{"type":"Feature","geometry":{"type":"Point","coordinates":[-79.87905,40.25362]},"properties":{"p":"1418E00070000000","a":"PUBLIC RD","m":"Forward","u":"I","o":"corp","sf":10890,"v":1049}},{"type":"Feature","geometry":{"type":"Point","coordinates":[-79.879,40.25338]},"properties":{"p":"1418E00072000000","a":"WILLIAMSPORT RD","m":"Forward","u":"I","o":"corp","sf":30361,"v":2938}},{"type":"Feature","geometry":{"type":"Point","coordinates":[-79.87867,40.25224]},"properties":{"p":"1418K00349000000","a":"HAYDEN BLVD","m":"Forward","u":"I","o":"corp","sf":103847,"v":8395}},{"type":"Feature","geometry":{"type":"Point","coordinates":[-79.87926,40.25485]},"properties":{"p":"1418E00036000000","a":"HAYDEN BLVD","m":"Forward","u":"I","o":"individual","sf":21856,"v":17500}},{"type":"Feature","geometry":{"type":"Point","coordinates":[-79.87756,40.2516]},"properties":{"p":"1418K00101000000","a":"HAYDEN BLVD","m":"Elizabeth Twp","u":"C","o":"individual","sf":10560,"v":21700}},{"type":"Feature","geometry":{"type":"Point","coordinates":[-79.87879,40.26538]},"properties":{"p":"1271E00008000000","a":"HAYDEN BLVD","m":"Elizabeth Twp","u":"C","o":"individual","sf":10500,"v":21700}},{"type":"Feature","geometry":{"type":"Point","coordinates":[-79.87939,40.25432]},"properties":{"p":"1418E00054000000","a":"HAYDEN","m":"Forward","u":"C","o":"individual","sf":68171,"v":9000}},{"type":"Feature","geometry":{"type":"Point","coordinates":[-79.87874,40.26503]},"properties":{"p":"1271E00002000000","a":"HAYDEN BLVD","m":"Elizabeth Twp","u":"C","o":"individual","sf":740,"v":100}},{"type":"Feature","geometry":{"type":"Point","coordinates":[-79.87832,40.25709]},"properties":{"p":"1418B00112000000","a":"PENN VISTA ST","m":"Elizabeth Twp","u":"L","o":"individual","sf":9500,"v":3100}},{"type":"Feature","geometry":{"type":"Point","coordinates":[-79.87827,40.25759]},"properties":{"p":"1418B00133000000","a":"PENN VISTA ST","m":"Elizabeth Twp","u":"L","o":"individual","sf":13680,"v":12300}},{"type":"Feature","geometry":{"type":"Point","coordinates":[-79.87478,40.25695]},"properties":{"p":"1418B00181000000","a":"PENN OAK ST","m":"Elizabeth Twp","u":"L","o":"individual","sf":205603,"v":18900}},{"type":"Feature","geometry":{"type":"Point","coordinates":[-79.87588,40.25725]},"properties":{"p":"1418B00183000000","a":"PENN OAK ST","m":"Elizabeth Twp","u":"L","o":"individual","sf":261361,"v":13200}},{"type":"Feature","geometry":{"type":"Point","coordinates":[-79.87335,40.25172]},"properties":{"p":"1418L00279000000","a":"FIRDEN LN","m":"Elizabeth Twp","u":"L","o":"individual","sf":162043,"v":48000}},{"type":"Feature","geometry":{"type":"Point","coordinates":[-79.87858,40.25657]},"properties":{"p":"1418B00090000000","a":"PENN VISTA ST","m":"Elizabeth Twp","u":"L","o":"individual","sf":4750,"v":1600}},{"type":"Feature","geometry":{"type":"Point","coordinates":[-79.87765,40.25132]},"properties":{"p":"1418K00098000000","a":"HAYDEN BLVD","m":"Elizabeth Twp","u":"L","o":"individual","sf":26607,"v":2400}},{"type":"Feature","geometry":{"type":"Point","coordinates":[-79.87754,40.25172]},"properties":{"p":"1418K00103000000","a":"RTE 330","m":"Elizabeth Twp","u":"L","o":"individual","sf":14280,"v":1300}},{"type":"Feature","geometry":{"type":"Point","coordinates":[-79.87735,40.2647]},"properties":{"p":"1271F00358000000","a":"WEIGLES HILL RD","m":"Elizabeth Twp","u":"L","o":"individual","sf":7444,"v":2500}},{"type":"Feature","geometry":{"type":"Point","coordinates":[-79.87757,40.26501]},"properties":{"p":"1271F00376000000","a":"WEIGLES HILL RD","m":"Elizabeth Twp","u":"L","o":"individual","sf":54450,"v":27500}},{"type":"Feature","geometry":{"type":"Point","coordinates":[-79.87436,40.26431]},"properties":{"p":"1271G00316000000","a":"WEIGELS HILL RD","m":"Elizabeth Twp","u":"L","o":"individual","sf":5619,"v":1900}},{"type":"Feature","geometry":{"type":"Point","coordinates":[-79.87166,40.26221]},"properties":{"p":"1271L00079000000","a":"WEIGLES HILL RD","m":"Elizabeth Twp","u":"L","o":"individual","sf":163350,"v":37500}},{"type":"Feature","geometry":{"type":"Point","coordinates":[-79.87133,40.2613]},"properties":{"p":"1271L00115000000","a":"WEIGLES HILL RD","m":"Elizabeth Twp","u":"L","o":"individual","sf":47045,"v":26900}},{"type":"Feature","geometry":{"type":"Point","coordinates":[-79.87647,40.26437]},"properties":{"p":"1271F00260000000","a":"WEIGLES HILL RD","m":"Elizabeth Twp","u":"L","o":"individual","sf":16736,"v":5500}},{"type":"Feature","geometry":{"type":"Point","coordinates":[-79.87443,40.26394]},"properties":{"p":"1271F00286000000","a":"WEIGLES HILL RD","m":"Elizabeth Twp","u":"L","o":"individual","sf":96703,"v":31400}},{"type":"Feature","geometry":{"type":"Point","coordinates":[-79.87598,40.26488]},"properties":{"p":"1271F00326000000","a":"WEIGLES HILL RD","m":"Elizabeth Twp","u":"L","o":"individual","sf":8580,"v":2800}},{"type":"Feature","geometry":{"type":"Point","coordinates":[-79.8761,40.26485]},"properties":{"p":"1271F00328000000","a":"WEIGLES HILL RD","m":"Elizabeth Twp","u":"L","o":"individual","sf":5362,"v":1800}},{"type":"Feature","geometry":{"type":"Point","coordinates":[-79.87649,40.26487]},"properties":{"p":"1271F00344000000","a":"WEIGLES HILL RD","m":"Elizabeth Twp","u":"L","o":"corp","sf":37044,"v":8600}},{"type":"Feature","geometry":{"type":"Point","coordinates":[-79.8616,40.2684]},"properties":{"p":"1270B00278000000","a":"HENRY BATCH RD","m":"Elizabeth Twp","u":"L","o":"individual","sf":389209,"v":57800}},{"type":"Feature","geometry":{"type":"Point","coordinates":[-79.86206,40.26078]},"properties":{"p":"1270J00004000000","a":"WEIGLES HILL RD","m":"Elizabeth Twp","u":"L","o":"individual","sf":43560,"v":16200}},{"type":"Feature","geometry":{"type":"Point","coordinates":[-79.87299,40.26192]},"properties":{"p":"1271L00200000000","a":"WEIGLES HILL RD","m":"Elizabeth Twp","u":"L","o":"individual","sf":111514,"v":32800}},{"type":"Feature","geometry":{"type":"Point","coordinates":[-79.8782,40.25821]},"properties":{"p":"1271P00332000000","a":"PENN VISTA ST","m":"Elizabeth Twp","u":"L","o":"individual","sf":18992,"v":12800}},{"type":"Feature","geometry":{"type":"Point","coordinates":[-79.87813,40.25895]},"properties":{"p":"1271P00348000000","a":"1185 PENN VISTA ST","m":"Elizabeth Twp","u":"L","o":"individual","sf":38000,"v":14500}},{"type":"Feature","geometry":{"type":"Point","coordinates":[-79.87798,40.26408]},"properties":{"p":"1271P00389000000","a":"HAYDEN BLVD","m":"Elizabeth Twp","u":"L","o":"individual","sf":37026,"v":25900}},{"type":"Feature","geometry":{"type":"Point","coordinates":[-79.8757,40.26987]},"properties":{"p":"1132P00240000000","a":"UNDERWOOD AVE","m":"Elizabeth Twp","u":"L","o":"individual","sf":3451,"v":7900}},{"type":"Feature","geometry":{"type":"Point","coordinates":[-79.87461,40.2675]},"properties":{"p":"1132P00291000000","a":"ROTHEY DR","m":"Elizabeth Twp","u":"L","o":"individual","sf":206300,"v":21000}},{"type":"Feature","geometry":{"type":"Point","coordinates":[-79.86422,40.25983]},"properties":{"p":"1270N00045000000","a":"WEIGLES HILL RD","m":"Elizabeth Twp","u":"L","o":"individual","sf":55060,"v":38200}},{"type":"Feature","geometry":{"type":"Point","coordinates":[-79.87981,40.25611]},"properties":{"p":"1418A00097000000","a":"HAYDEN","m":"Forward","u":"L","o":"individual","sf":6090,"v":600}},{"type":"Feature","geometry":{"type":"Point","coordinates":[-79.87991,40.25475]},"properties":{"p":"1418E00038000000","a":"HAYDEN BLVD","m":"Forward","u":"L","o":"individual","sf":62639,"v":21700}},{"type":"Feature","geometry":{"type":"Point","coordinates":[-79.87725,40.25731]},"properties":{"p":"1418B00206000000","a":"PENNOAK ST","m":"Elizabeth Twp","u":"L","o":"individual","sf":43560,"v":500}},{"type":"Feature","geometry":{"type":"Point","coordinates":[-79.87726,40.25662]},"properties":{"p":"1418B00230000000","a":"1289 PENN OAK ST","m":"Elizabeth Twp","u":"L","o":"individual","sf":17947,"v":24200}},{"type":"Feature","geometry":{"type":"Point","coordinates":[-79.8723,40.2659]},"properties":{"p":"1271G00100000000","a":"WEIGELS HILL RD","m":"Elizabeth Twp","u":"L","o":"individual","sf":1942341,"v":97900}},{"type":"Feature","geometry":{"type":"Point","coordinates":[-79.87136,40.25184]},"properties":{"p":"1418L00232000000","a":"FIRDEN LN","m":"Elizabeth Twp","u":"L","o":"individual","sf":309276,"v":26200}},{"type":"Feature","geometry":{"type":"Point","coordinates":[-79.87789,40.26116]},"properties":{"p":"1271P00379000000","a":"HAYDEN BLVD","m":"Elizabeth Twp","u":"L","o":"individual","sf":195149,"v":17900}},{"type":"Feature","geometry":{"type":"Point","coordinates":[-79.86031,40.26146]},"properties":{"p":"1270K00022000000","a":"WILLOW DR","m":"Elizabeth Twp","u":"B","o":"corp","sf":24699,"v":1800}}]}