{"type":"FeatureCollection","features":[{"type":"Feature","geometry":{"type":"Point","coordinates":[-79.87618,40.31042]},"properties":{"p":"0656K00283000000","a":"LINCOLN RD","m":"Lincoln","u":"I","o":"corp","sf":174284,"v":240100}},{"type":"Feature","geometry":{"type":"Point","coordinates":[-79.87987,40.3232]},"properties":{"p":"0557E00060000000","a":"1ST ST","m":"Glassport","u":"L","o":"individual","sf":7900,"v":2300}},{"type":"Feature","geometry":{"type":"Point","coordinates":[-79.87625,40.3237]},"properties":{"p":"0557F00351000000","a":"WASHINGTON BLVD","m":"Glassport","u":"L","o":"individual","sf":9180,"v":2700}},{"type":"Feature","geometry":{"type":"Point","coordinates":[-79.87648,40.32373]},"properties":{"p":"0557F00355000000","a":"WASHINGTON BLVD","m":"Glassport","u":"L","o":"corp","sf":10220,"v":9500}},{"type":"Feature","geometry":{"type":"Point","coordinates":[-79.87395,40.32669]},"properties":{"p":"0466R00015000000","a":"EDMUNDSON DR EXT","m":"Glassport","u":"L","o":"individual","sf":12870,"v":14200}},{"type":"Feature","geometry":{"type":"Point","coordinates":[-79.87967,40.32447]},"properties":{"p":"0557A00020000000","a":"SCENIC ST","m":"Glassport","u":"L","o":"individual","sf":5500,"v":1600}},{"type":"Feature","geometry":{"type":"Point","coordinates":[-79.87998,40.32523]},"properties":{"p":"0557A00057000000","a":"1003 CENTURY AVE","m":"Glassport","u":"L","o":"individual","sf":3000,"v":900}},{"type":"Feature","geometry":{"type":"Point","coordinates":[-79.8785,40.32608]},"properties":{"p":"0557B00358000000","a":"CENTURY AVE","m":"Glassport","u":"L","o":"individual","sf":3000,"v":900}},{"type":"Feature","geometry":{"type":"Point","coordinates":[-79.87843,40.32615]},"properties":{"p":"0557B00359000000","a":"CENTURY AVE","m":"Glassport","u":"L","o":"individual","sf":2500,"v":800}},{"type":"Feature","geometry":{"type":"Point","coordinates":[-79.87834,40.32619]},"properties":{"p":"0557B00360000000","a":"CENTURY AVE","m":"Glassport","u":"L","o":"individual","sf":2500,"v":150}},{"type":"Feature","geometry":{"type":"Point","coordinates":[-79.87828,40.32624]},"properties":{"p":"0557B00361000000","a":"CENTURY AVE","m":"Glassport","u":"L","o":"individual","sf":2500,"v":150}},{"type":"Feature","geometry":{"type":"Point","coordinates":[-79.87543,40.32347]},"properties":{"p":"0557F00338000000","a":"WASHINGTON BLVD","m":"Glassport","u":"L","o":"individual","sf":15946,"v":10000}},{"type":"Feature","geometry":{"type":"Point","coordinates":[-79.87904,40.32409]},"properties":{"p":"0557A00002000000","a":"2504 WASHINGTON BLVD","m":"Glassport","u":"L","o":"individual","sf":10566,"v":9500}},{"type":"Feature","geometry":{"type":"Point","coordinates":[-79.87881,40.32587]},"properties":{"p":"0557A00150000000","a":"1ST ST","m":"Glassport","u":"L","o":"corp","sf":68598,"v":14800}},{"type":"Feature","geometry":{"type":"Point","coordinates":[-79.87566,40.32547]},"properties":{"p":"0557B00235000000","a":"EDMUNDSON DR","m":"Glassport","u":"L","o":"individual","sf":24525,"v":7000}},{"type":"Feature","geometry":{"type":"Point","coordinates":[-79.87509,40.32583]},"properties":{"p":"0557B00268000000","a":"EDMUNDSON DR","m":"Glassport","u":"L","o":"individual","sf":25806,"v":4100}},{"type":"Feature","geometry":{"type":"Point","coordinates":[-79.87489,40.32602]},"properties":{"p":"0557B00275000000","a":"EDMUNDSON DR","m":"Glassport","u":"L","o":"individual","sf":17528,"v":5000}},{"type":"Feature","geometry":{"type":"Point","coordinates":[-79.87747,40.32589]},"properties":{"p":"0557B00317000000","a":"1046 PENNSYLVANIA AVE","m":"Glassport","u":"L","o":"individual","sf":2500,"v":800}},{"type":"Feature","geometry":{"type":"Point","coordinates":[-79.87741,40.32594]},"properties":{"p":"0557B00318000000","a":"1046 PENNSYLVANIA AVE","m":"Glassport","u":"L","o":"individual","sf":2500,"v":800}},{"type":"Feature","geometry":{"type":"Point","coordinates":[-79.87734,40.32599]},"properties":{"p":"0557B00320000000","a":"1046 PENNSYLVANIA AVE","m":"Glassport","u":"L","o":"individual","sf":2500,"v":800}},{"type":"Feature","geometry":{"type":"Point","coordinates":[-79.87757,40.32728]},"properties":{"p":"0466P00206000000","a":"CENTURY AVE","m":"Glassport","u":"L","o":"individual","sf":12035,"v":9600}},{"type":"Feature","geometry":{"type":"Point","coordinates":[-79.87725,40.32752]},"properties":{"p":"0466P00213000000","a":"CENTURY AVE","m":"Glassport","u":"L","o":"individual","sf":11910,"v":9600}},{"type":"Feature","geometry":{"type":"Point","coordinates":[-79.87702,40.32768]},"properties":{"p":"0466P00219000000","a":"CENTURY AVE","m":"Glassport","u":"L","o":"corp","sf":4764,"v":4300}},{"type":"Feature","geometry":{"type":"Point","coordinates":[-79.87686,40.3278]},"properties":{"p":"0466P00221000000","a":"CENTURY AVE","m":"Glassport","u":"L","o":"individual","sf":7146,"v":2100}},{"type":"Feature","geometry":{"type":"Point","coordinates":[-79.87621,40.32827]},"properties":{"p":"0466P00233000000","a":"167 CENTURY AVE","m":"Glassport","u":"L","o":"corp","sf":7144,"v":2100}},{"type":"Feature","geometry":{"type":"Point","coordinates":[-79.87573,40.32857]},"properties":{"p":"0466P00235000000","a":"PENNSYLVANIA AVE","m":"Glassport","u":"L","o":"individual","sf":37100,"v":600}},{"type":"Feature","geometry":{"type":"Point","coordinates":[-79.87655,40.32839]},"properties":{"p":"0466P00289000000","a":"PENNSYLVANIA AVE","m":"Glassport","u":"L","o":"individual","sf":71874,"v":800}},{"type":"Feature","geometry":{"type":"Point","coordinates":[-79.87785,40.32291]},"properties":{"p":"0557F00225000000","a":"WASHINGTON BLVD","m":"Glassport","u":"L","o":"corp","sf":205603,"v":27400}},{"type":"Feature","geometry":{"type":"Point","coordinates":[-79.87345,40.32694]},"properties":{"p":"0466R00048000000","a":"EDMUNDSON DR EXT","m":"Glassport","u":"L","o":"individual","sf":19880,"v":10300}},{"type":"Feature","geometry":{"type":"Point","coordinates":[-79.87983,40.32509]},"properties":{"p":"0557A00061000000","a":"SCENIC ST","m":"Glassport","u":"L","o":"individual","sf":7900,"v":2300}},{"type":"Feature","geometry":{"type":"Point","coordinates":[-79.87904,40.32466]},"properties":{"p":"0557A00065000000","a":"WASHINGTON BLVD","m":"Glassport","u":"L","o":"corp","sf":21780,"v":10500}},{"type":"Feature","geometry":{"type":"Point","coordinates":[-79.87988,40.32614]},"properties":{"p":"0557A00083000000","a":"3RD ST","m":"Glassport","u":"L","o":"individual","sf":1750,"v":600}},{"type":"Feature","geometry":{"type":"Point","coordinates":[-79.8795,40.32589]},"properties":{"p":"0557A00090000000","a":"CENTURY AVE","m":"Glassport","u":"L","o":"individual","sf":8800,"v":2600}},{"type":"Feature","geometry":{"type":"Point","coordinates":[-79.87933,40.3262]},"properties":{"p":"0557A00115000000","a":"CENTURY AVE","m":"Glassport","u":"L","o":"individual","sf":21592,"v":6100}},{"type":"Feature","geometry":{"type":"Point","coordinates":[-79.87815,40.32633]},"properties":{"p":"0557B00363000000","a":"CENTURY AVE","m":"Glassport","u":"L","o":"individual","sf":2500,"v":150}},{"type":"Feature","geometry":{"type":"Point","coordinates":[-79.87808,40.32638]},"properties":{"p":"0557B00364000000","a":"CENTURY AVE","m":"Glassport","u":"L","o":"individual","sf":2500,"v":150}},{"type":"Feature","geometry":{"type":"Point","coordinates":[-79.87868,40.32647]},"properties":{"p":"0557B00366000000","a":"CENTURY AVE","m":"Glassport","u":"L","o":"individual","sf":2382,"v":800}},{"type":"Feature","geometry":{"type":"Point","coordinates":[-79.8747,40.32618]},"properties":{"p":"0557C00010000000","a":"EDMUNDSON DR","m":"Glassport","u":"L","o":"individual","sf":16598,"v":4700}},{"type":"Feature","geometry":{"type":"Point","coordinates":[-79.87451,40.32636]},"properties":{"p":"0557C00012000000","a":"EDMUNDSON DR","m":"Glassport","u":"L","o":"individual","sf":8961,"v":2600}},{"type":"Feature","geometry":{"type":"Point","coordinates":[-79.87942,40.32376]},"properties":{"p":"0557E00012000000","a":"WASHINGTON BLVD","m":"Glassport","u":"L","o":"individual","sf":22600,"v":10600}},{"type":"Feature","geometry":{"type":"Point","coordinates":[-79.87986,40.3229]},"properties":{"p":"0557E00052000000","a":"2400 WASHINGTON BLVD","m":"Glassport","u":"L","o":"individual","sf":23108,"v":10600}},{"type":"Feature","geometry":{"type":"Point","coordinates":[-79.87808,40.32543]},"properties":{"p":"0557B00051000000","a":"PENNSYLVANIA AVE","m":"Glassport","u":"L","o":"individual","sf":3660,"v":3300}},{"type":"Feature","geometry":{"type":"Point","coordinates":[-79.87767,40.32607]},"properties":{"p":"0557B00064000000","a":"1046 PENNSYLVANIA AVE","m":"Glassport","u":"L","o":"individual","sf":5230,"v":4500}},{"type":"Feature","geometry":{"type":"Point","coordinates":[-79.87743,40.32637]},"properties":{"p":"0557B00068000000","a":"1046 PENNSYLVANIA AVE","m":"Glassport","u":"L","o":"individual","sf":2257,"v":700}},{"type":"Feature","geometry":{"type":"Point","coordinates":[-79.87617,40.32777]},"properties":{"p":"0466P00161000000","a":"CENTURY AVE","m":"Glassport","u":"L","o":"individual","sf":24925,"v":10800}},{"type":"Feature","geometry":{"type":"Point","coordinates":[-79.87709,40.32668]},"properties":{"p":"0466P00089000000","a":"PENNSYLVANIA AVE","m":"Glassport","u":"L","o":"individual","sf":7500,"v":500}},{"type":"Feature","geometry":{"type":"Point","coordinates":[-79.87666,40.32698]},"properties":{"p":"0466P00097000000","a":"PENNSYLVANIA AVE","m":"Glassport","u":"L","o":"individual","sf":10000,"v":9500}},{"type":"Feature","geometry":{"type":"Point","coordinates":[-79.87641,40.32717]},"properties":{"p":"0466P00103000000","a":"PENNSYLVANIA AVE","m":"Glassport","u":"L","o":"individual","sf":5000,"v":1500}},{"type":"Feature","geometry":{"type":"Point","coordinates":[-79.87863,40.32422]},"properties":{"p":"0557B00010000000","a":"2504 WASHINGTON BLVD","m":"Glassport","u":"L","o":"individual","sf":1599,"v":500}},{"type":"Feature","geometry":{"type":"Point","coordinates":[-79.87789,40.32463]},"properties":{"p":"0557B00033000000","a":"WASHINGTON BLVD","m":"Glassport","u":"L","o":"individual","sf":41877,"v":7800}},{"type":"Feature","geometry":{"type":"Point","coordinates":[-79.87543,40.32734]},"properties":{"p":"0466P00050000000","a":"PENNSYLVANIA AVE","m":"Glassport","u":"L","o":"individual","sf":5000,"v":9000}},{"type":"Feature","geometry":{"type":"Point","coordinates":[-79.87599,40.32693]},"properties":{"p":"0466P00067000000","a":"PENNSYLVANIA AVE","m":"Glassport","u":"L","o":"individual","sf":2500,"v":500}},{"type":"Feature","geometry":{"type":"Point","coordinates":[-79.87593,40.32698]},"properties":{"p":"0466P00069000000","a":"EDMUNDSON DR","m":"Glassport","u":"L","o":"individual","sf":2500,"v":800}},{"type":"Feature","geometry":{"type":"Point","coordinates":[-79.87586,40.32703]},"properties":{"p":"0466P00070000000","a":"EDMUNDSON DR","m":"Glassport","u":"L","o":"individual","sf":2500,"v":800}},{"type":"Feature","geometry":{"type":"Point","coordinates":[-79.87579,40.32708]},"properties":{"p":"0466P00071000000","a":"EDMUNDSON DR","m":"Glassport","u":"L","o":"individual","sf":2500,"v":3400}},{"type":"Feature","geometry":{"type":"Point","coordinates":[-79.87566,40.32717]},"properties":{"p":"0466P00073000000","a":"1077 EDMUNDSON DR","m":"Glassport","u":"L","o":"individual","sf":2500,"v":3400}},{"type":"Feature","geometry":{"type":"Point","coordinates":[-79.87559,40.32722]},"properties":{"p":"0466P00074000000","a":"1077 EDMUNDSON DR","m":"Glassport","u":"L","o":"individual","sf":2500,"v":800}},{"type":"Feature","geometry":{"type":"Point","coordinates":[-79.87553,40.32727]},"properties":{"p":"0466P00075000000","a":"1077 EDMUNDSON DR","m":"Glassport","u":"L","o":"individual","sf":2500,"v":800}},{"type":"Feature","geometry":{"type":"Point","coordinates":[-79.87739,40.32643]},"properties":{"p":"0557B00070000000","a":"1046 PENNSYLVANIA AVE","m":"Glassport","u":"L","o":"individual","sf":2483,"v":800}},{"type":"Feature","geometry":{"type":"Point","coordinates":[-79.87733,40.32649]},"properties":{"p":"0557B00072000000","a":"1046 PENNSYLVANIA AVE","m":"Glassport","u":"L","o":"individual","sf":2500,"v":800}},{"type":"Feature","geometry":{"type":"Point","coordinates":[-79.87727,40.32654]},"properties":{"p":"0557B00074000000","a":"PENNSYLVANIA AVE","m":"Glassport","u":"L","o":"individual","sf":2500,"v":800}},{"type":"Feature","geometry":{"type":"Point","coordinates":[-79.87947,40.32474]},"properties":{"p":"0557B00100000000","a":"1ST ST","m":"Glassport","u":"L","o":"individual","sf":36976,"v":7400}},{"type":"Feature","geometry":{"type":"Point","coordinates":[-79.87642,40.32529]},"properties":{"p":"0557B00213000000","a":"EDMUNDSON DR","m":"Glassport","u":"L","o":"individual","sf":12900,"v":3700}},{"type":"Feature","geometry":{"type":"Point","coordinates":[-79.87608,40.32535]},"properties":{"p":"0557B00217000000","a":"EDMUNDSON DR","m":"Glassport","u":"L","o":"individual","sf":29435,"v":8300}},{"type":"Feature","geometry":{"type":"Point","coordinates":[-79.86282,40.31989]},"properties":{"p":"0556J00245000000","a":"2841 WASHINGTON BLVD","m":"Liberty","u":"L","o":"individual","sf":13504,"v":3900}},{"type":"Feature","geometry":{"type":"Point","coordinates":[-79.86269,40.3213]},"properties":{"p":"0556J00307000000","a":"185 WUNDERLY DR","m":"Liberty","u":"L","o":"individual","sf":15065,"v":6900}},{"type":"Feature","geometry":{"type":"Point","coordinates":[-79.86982,40.32482]},"properties":{"p":"0557D00104000000","a":"GLENN AVE","m":"Liberty","u":"L","o":"individual","sf":42175,"v":15400}},{"type":"Feature","geometry":{"type":"Point","coordinates":[-79.86913,40.32484]},"properties":{"p":"0557D00132000000","a":"GLENN AVE","m":"Liberty","u":"L","o":"individual","sf":31796,"v":14400}},{"type":"Feature","geometry":{"type":"Point","coordinates":[-79.86611,40.32619]},"properties":{"p":"0557D00231000000","a":"GLENN AVE","m":"Liberty","u":"L","o":"corp","sf":466092,"v":48800}},{"type":"Feature","geometry":{"type":"Point","coordinates":[-79.86636,40.32684]},"properties":{"p":"0557D00258000000","a":"GLENN AVE","m":"Liberty","u":"L","o":"individual","sf":152460,"v":25500}},{"type":"Feature","geometry":{"type":"Point","coordinates":[-79.86711,40.3267]},"properties":{"p":"0557D00274000000","a":"GLENN AVE","m":"Liberty","u":"L","o":"individual","sf":21780,"v":13500}},{"type":"Feature","geometry":{"type":"Point","coordinates":[-79.86904,40.32597]},"properties":{"p":"0557D00325000000","a":"GLENN AVE","m":"Liberty","u":"L","o":"individual","sf":80150,"v":900}},{"type":"Feature","geometry":{"type":"Point","coordinates":[-79.86251,40.32622]},"properties":{"p":"0556A00304000000","a":"210 SOUTH ALLEGHENY DR","m":"Liberty","u":"L","o":"corp","sf":31763,"v":20400}},{"type":"Feature","geometry":{"type":"Point","coordinates":[-79.86297,40.32612]},"properties":{"p":"0556A00316000001","a":"210 SOUTH ALLEGHENY DR","m":"Liberty","u":"L","o":"corp","sf":43560,"v":15500}},{"type":"Feature","geometry":{"type":"Point","coordinates":[-79.8635,40.32619]},"properties":{"p":"0556A00332000000","a":"210 SOUTH ALLEGHENY DR","m":"Liberty","u":"L","o":"corp","sf":43342,"v":21500}},{"type":"Feature","geometry":{"type":"Point","coordinates":[-79.86423,40.32518]},"properties":{"p":"0556A00364000000","a":"ELIZABETH ST","m":"Liberty","u":"L","o":"corp","sf":10403,"v":9500}},{"type":"Feature","geometry":{"type":"Point","coordinates":[-79.86526,40.32609]},"properties":{"p":"0556A00384000000","a":"ELIZABETH ST","m":"Liberty","u":"L","o":"corp","sf":59590,"v":23000}},{"type":"Feature","geometry":{"type":"Point","coordinates":[-79.86099,40.32605]},"properties":{"p":"0556B00016000000","a":"ELIZABETH ST","m":"Liberty","u":"L","o":"corp","sf":51436,"v":22300}},{"type":"Feature","geometry":{"type":"Point","coordinates":[-79.87496,40.32091]},"properties":{"p":"0557L00148000000","a":"WASHINGTON BLVD","m":"Liberty","u":"L","o":"individual","sf":189704,"v":29000}},{"type":"Feature","geometry":{"type":"Point","coordinates":[-79.86533,40.31935]},"properties":{"p":"0556J00099000000","a":"WASHINGTON BLVD","m":"Liberty","u":"L","o":"individual","sf":46200,"v":500}},{"type":"Feature","geometry":{"type":"Point","coordinates":[-79.86609,40.31969]},"properties":{"p":"0556J00109000000","a":"WASHINGTON BLVD","m":"Liberty","u":"L","o":"individual","sf":7963,"v":12300}},{"type":"Feature","geometry":{"type":"Point","coordinates":[-79.86634,40.31981]},"properties":{"p":"0556J00118000000","a":"WASHINGTON BLVD","m":"Liberty","u":"L","o":"individual","sf":41445,"v":15300}},{"type":"Feature","geometry":{"type":"Point","coordinates":[-79.86477,40.32127]},"properties":{"p":"0556J00152000000","a":"2825 WASHINGTON BLVD","m":"Liberty","u":"L","o":"corp","sf":203582,"v":30200}},{"type":"Feature","geometry":{"type":"Point","coordinates":[-79.86113,40.31719]},"properties":{"p":"0556P00101000000","a":"WASHINGTON BLVD","m":"Liberty","u":"L","o":"corp","sf":4288,"v":1300}},{"type":"Feature","geometry":{"type":"Point","coordinates":[-79.86052,40.31813]},"properties":{"p":"0556P00134000000","a":"LIBERTY WAY","m":"Liberty","u":"L","o":"individual","sf":16400,"v":4700}},{"type":"Feature","geometry":{"type":"Point","coordinates":[-79.86462,40.32251]},"properties":{"p":"0556E00188000000","a":"WUNDERLY DR","m":"Liberty","u":"L","o":"individual","sf":319517,"v":46400}},{"type":"Feature","geometry":{"type":"Point","coordinates":[-79.86249,40.32466]},"properties":{"p":"0556A00037000000","a":"936 ELIZABETH ST","m":"Liberty","u":"L","o":"individual","sf":15000,"v":18900}},{"type":"Feature","geometry":{"type":"Point","coordinates":[-79.86315,40.32476]},"properties":{"p":"0556A00095000000","a":"GLENN AVE","m":"Liberty","u":"L","o":"individual","sf":25290,"v":1000}},{"type":"Feature","geometry":{"type":"Point","coordinates":[-79.8648,40.32447]},"properties":{"p":"0556A00192000000","a":"SOUTH ALLEGHENY DR","m":"Liberty","u":"L","o":"corp","sf":61681,"v":17200}},{"type":"Feature","geometry":{"type":"Point","coordinates":[-79.86223,40.32314]},"properties":{"p":"0556E00023000000","a":"MEMORY LN","m":"Liberty","u":"L","o":"individual","sf":1790,"v":600}},{"type":"Feature","geometry":{"type":"Point","coordinates":[-79.86228,40.32323]},"properties":{"p":"0556E00028000000","a":"MEMORY LN","m":"Liberty","u":"L","o":"individual","sf":2600,"v":800}},{"type":"Feature","geometry":{"type":"Point","coordinates":[-79.87401,40.32198]},"properties":{"p":"0557G00049000000","a":"KOLLAR DR","m":"Liberty","u":"L","o":"individual","sf":10343,"v":12500}},{"type":"Feature","geometry":{"type":"Point","coordinates":[-79.86235,40.32336]},"properties":{"p":"0556E00030000000","a":"MEMORY LN","m":"Liberty","u":"L","o":"individual","sf":2600,"v":800}},{"type":"Feature","geometry":{"type":"Point","coordinates":[-79.86243,40.32349]},"properties":{"p":"0556E00032000000","a":"3006 MEMORY LN","m":"Liberty","u":"L","o":"individual","sf":2600,"v":800}},{"type":"Feature","geometry":{"type":"Point","coordinates":[-79.8625,40.32362]},"properties":{"p":"0556E00034000000","a":"3004 MEMORY LN","m":"Liberty","u":"L","o":"individual","sf":2600,"v":800}},{"type":"Feature","geometry":{"type":"Point","coordinates":[-79.86255,40.32376]},"properties":{"p":"0556E00036000000","a":"3000 MEMORY LN","m":"Liberty","u":"L","o":"individual","sf":1869,"v":600}},{"type":"Feature","geometry":{"type":"Point","coordinates":[-79.8627,40.32371]},"properties":{"p":"0556E00038000000","a":"947 ELIZABETH ST","m":"Liberty","u":"L","o":"individual","sf":2756,"v":900}},{"type":"Feature","geometry":{"type":"Point","coordinates":[-79.86288,40.32365]},"properties":{"p":"0556E00040000000","a":"949 ELIZABETH ST","m":"Liberty","u":"L","o":"individual","sf":2756,"v":900}},{"type":"Feature","geometry":{"type":"Point","coordinates":[-79.86305,40.32359]},"properties":{"p":"0556E00042000000","a":"951 ELIZABETH ST","m":"Liberty","u":"L","o":"individual","sf":2756,"v":900}},{"type":"Feature","geometry":{"type":"Point","coordinates":[-79.86353,40.31645]},"properties":{"p":"0556N00294000000","a":"WASHINGTON BLVD","m":"Liberty","u":"L","o":"individual","sf":250470,"v":21900}},{"type":"Feature","geometry":{"type":"Point","coordinates":[-79.86185,40.31755]},"properties":{"p":"0556P00065000000","a":"WASHINGTON BLVD","m":"Liberty","u":"L","o":"individual","sf":13000,"v":12700}},{"type":"Feature","geometry":{"type":"Point","coordinates":[-79.8617,40.31742]},"properties":{"p":"0556P00072000000","a":"WASHINGTON BLVD","m":"Liberty","u":"L","o":"individual","sf":10000,"v":12500}},{"type":"Feature","geometry":{"type":"Point","coordinates":[-79.86933,40.32237]},"properties":{"p":"0557H00064000000","a":"WASHINGTON BLVD","m":"Liberty","u":"L","o":"individual","sf":6003,"v":12100}},{"type":"Feature","geometry":{"type":"Point","coordinates":[-79.8602,40.32025]},"properties":{"p":"0556K00108000000","a":"DELROSE DR","m":"Liberty","u":"L","o":"individual","sf":8118,"v":12300}},{"type":"Feature","geometry":{"type":"Point","coordinates":[-79.87549,40.32162]},"properties":{"p":"0557F00195000000","a":"KOLLAR DR","m":"Liberty","u":"L","o":"individual","sf":13214,"v":4000}},{"type":"Feature","geometry":{"type":"Point","coordinates":[-79.87533,40.32184]},"properties":{"p":"0557F00198000000","a":"116 KOLLAR DR","m":"Liberty","u":"L","o":"individual","sf":12988,"v":3700}},{"type":"Feature","geometry":{"type":"Point","coordinates":[-79.87501,40.32229]},"properties":{"p":"0557F00202000000","a":"KOLLAR DR","m":"Liberty","u":"L","o":"individual","sf":31944,"v":8400}},{"type":"Feature","geometry":{"type":"Point","coordinates":[-79.86271,40.32169]},"properties":{"p":"0556E00010000000","a":"WUNDERLY DR","m":"Liberty","u":"L","o":"individual","sf":8451,"v":12300}},{"type":"Feature","geometry":{"type":"Point","coordinates":[-79.86242,40.32228]},"properties":{"p":"0556E00014000000","a":"3030 MEMORY LN","m":"Liberty","u":"L","o":"individual","sf":2600,"v":800}},{"type":"Feature","geometry":{"type":"Point","coordinates":[-79.86226,40.32269]},"properties":{"p":"0556E00019000000","a":"3026 MEMORY LN","m":"Liberty","u":"L","o":"individual","sf":2600,"v":800}},{"type":"Feature","geometry":{"type":"Point","coordinates":[-79.8622,40.32294]},"properties":{"p":"0556E00021000000","a":"3022 MEMORY LN","m":"Liberty","u":"L","o":"individual","sf":1862,"v":600}},{"type":"Feature","geometry":{"type":"Point","coordinates":[-79.86254,40.31748]},"properties":{"p":"0556N00007000000","a":"WASHINGTON BLVD","m":"Liberty","u":"L","o":"corp","sf":17456,"v":13100}},{"type":"Feature","geometry":{"type":"Point","coordinates":[-79.86211,40.3255]},"properties":{"p":"0556B00042000000","a":"ELIZABETH ST","m":"Liberty","u":"L","o":"individual","sf":42522,"v":21400}},{"type":"Feature","geometry":{"type":"Point","coordinates":[-79.87439,40.32335]},"properties":{"p":"0557G00307000000","a":"WASHINGTON BLVD","m":"Liberty","u":"L","o":"individual","sf":12677,"v":12700}},{"type":"Feature","geometry":{"type":"Point","coordinates":[-79.86696,40.32018]},"properties":{"p":"0557M00076000000","a":"WASHINGTON BLVD","m":"Liberty","u":"L","o":"individual","sf":42944,"v":15400}},{"type":"Feature","geometry":{"type":"Point","coordinates":[-79.86767,40.32037]},"properties":{"p":"0557M00112000000","a":"WASHINGTON BLVD","m":"Liberty","u":"L","o":"individual","sf":92347,"v":20000}},{"type":"Feature","geometry":{"type":"Point","coordinates":[-79.86948,40.32049]},"properties":{"p":"0557M00129000000","a":"WASHINGTON BLVD","m":"Liberty","u":"L","o":"individual","sf":54886,"v":16600}},{"type":"Feature","geometry":{"type":"Point","coordinates":[-79.86425,40.32784]},"properties":{"p":"0465N00147000000","a":"1013 GLENN AVE","m":"Liberty","u":"L","o":"individual","sf":133511,"v":23800}},{"type":"Feature","geometry":{"type":"Point","coordinates":[-79.86144,40.32653]},"properties":{"p":"0465P00015000000","a":"SOUTH ALLEGHENY DR","m":"Liberty","u":"L","o":"individual","sf":47916,"v":4400}},{"type":"Feature","geometry":{"type":"Point","coordinates":[-79.87386,40.329]},"properties":{"p":"0466R00100000000","a":"PENNSYLVANIA AVE","m":"Liberty","u":"L","o":"individual","sf":15311,"v":12900}},{"type":"Feature","geometry":{"type":"Point","coordinates":[-79.87187,40.32956]},"properties":{"p":"0466R00200000000","a":"PENNSYLVANIA AVE","m":"Liberty","u":"L","o":"corp","sf":69783,"v":18000}},{"type":"Feature","geometry":{"type":"Point","coordinates":[-79.86028,40.32873]},"properties":{"p":"0465K00270000000","a":"LIBERTY WAY","m":"Liberty","u":"L","o":"corp","sf":457380,"v":41000}},{"type":"Feature","geometry":{"type":"Point","coordinates":[-79.86256,40.3292]},"properties":{"p":"0465K00381000000","a":"GLENN AVE","m":"Liberty","u":"L","o":"individual","sf":4105,"v":10900}},{"type":"Feature","geometry":{"type":"Point","coordinates":[-79.86292,40.32991]},"properties":{"p":"0465J00169000000","a":"GLENN AVE","m":"Port Vue","u":"L","o":"individual","sf":15820,"v":13000}},{"type":"Feature","geometry":{"type":"Point","coordinates":[-79.86579,40.32953]},"properties":{"p":"0465J00215000000","a":"GLENN AVE","m":"Port Vue","u":"L","o":"individual","sf":524462,"v":38600}},{"type":"Feature","geometry":{"type":"Point","coordinates":[-79.86446,40.32909]},"properties":{"p":"0465J00265000000","a":"GLENN AVE","m":"Port Vue","u":"L","o":"individual","sf":55452,"v":16600}},{"type":"Feature","geometry":{"type":"Point","coordinates":[-79.86282,40.33]},"properties":{"p":"0465K00251000000","a":"GLENN AVE","m":"Port Vue","u":"L","o":"individual","sf":14400,"v":12900}},{"type":"Feature","geometry":{"type":"Point","coordinates":[-79.87469,40.32922]},"properties":{"p":"0466L00275000000","a":"CENTURY AVE","m":"Port Vue","u":"L","o":"individual","sf":55583,"v":18700}},{"type":"Feature","geometry":{"type":"Point","coordinates":[-79.86188,40.31041]},"properties":{"p":"0655K00223000000","a":"BELLBRIDGE RD","m":"Lincoln","u":"L","o":"individual","sf":222121,"v":7500}},{"type":"Feature","geometry":{"type":"Point","coordinates":[-79.87658,40.31324]},"properties":{"p":"0656F00126000000","a":"COURSIN RD","m":"Lincoln","u":"L","o":"individual","sf":51836,"v":2500}},{"type":"Feature","geometry":{"type":"Point","coordinates":[-79.87682,40.31194]},"properties":{"p":"0656F00142000000","a":"LINCOLN BLVD","m":"Lincoln","u":"L","o":"corp","sf":87120,"v":2000}},{"type":"Feature","geometry":{"type":"Point","coordinates":[-79.86044,40.31786]},"properties":{"p":"0556P00131000000","a":"LIBERTY WAY","m":"Lincoln","u":"L","o":"corp","sf":21257,"v":23100}},{"type":"Feature","geometry":{"type":"Point","coordinates":[-79.87503,40.31561]},"properties":{"p":"0656C00084000000","a":"COURSIN RD","m":"Lincoln","u":"L","o":"individual","sf":291547,"v":11000}},{"type":"Feature","geometry":{"type":"Point","coordinates":[-79.86249,40.31242]},"properties":{"p":"0655E00030000000","a":"COURSIN RD","m":"Lincoln","u":"L","o":"individual","sf":52838,"v":2000}},{"type":"Feature","geometry":{"type":"Point","coordinates":[-79.86766,40.31397]},"properties":{"p":"0656H00207000000","a":"COURSIN RD","m":"Lincoln","u":"L","o":"individual","sf":301000,"v":6900}},{"type":"Feature","geometry":{"type":"Point","coordinates":[-79.86846,40.31322]},"properties":{"p":"0656H00272000000","a":"COURSIN RD","m":"Lincoln","u":"L","o":"individual","sf":3960,"v":400}},{"type":"Feature","geometry":{"type":"Point","coordinates":[-79.87569,40.32365]},"properties":{"p":"0557F00340000000","a":"2625 WASHINGTON BLVD","m":"Glassport","u":"L","o":"individual","sf":6850,"v":2000}},{"type":"Feature","geometry":{"type":"Point","coordinates":[-79.87693,40.32679]},"properties":{"p":"0466P00092000000","a":"PENNSYLVANIA AVE","m":"Glassport","u":"L","o":"individual","sf":5000,"v":4500}},{"type":"Feature","geometry":{"type":"Point","coordinates":[-79.87417,40.32615]},"properties":{"p":"0466R00012000000","a":"EDMUNDSON DR EXT","m":"Glassport","u":"L","o":"individual","sf":25221,"v":15300}},{"type":"Feature","geometry":{"type":"Point","coordinates":[-79.86074,40.31604]},"properties":{"p":"0655B00251000000","a":"LIBERTY WAY","m":"Liberty","u":"L","o":"individual","sf":27153,"v":14000}},{"type":"Feature","geometry":{"type":"Point","coordinates":[-79.87884,40.32636]},"properties":{"p":"0557B00367000000","a":"CENTURY AVE","m":"Glassport","u":"L","o":"individual","sf":3989,"v":1200}},{"type":"Feature","geometry":{"type":"Point","coordinates":[-79.86442,40.31154]},"properties":{"p":"0655J00100000000","a":"BELLBRIDGE RD","m":"Lincoln","u":"L","o":"individual","sf":249163,"v":65000}},{"type":"Feature","geometry":{"type":"Point","coordinates":[-79.87677,40.32734]},"properties":{"p":"0466P00109000000","a":"PENNSYLVANIA AVE","m":"Glassport","u":"L","o":"individual","sf":2500,"v":500}},{"type":"Feature","geometry":{"type":"Point","coordinates":[-79.86853,40.32205]},"properties":{"p":"0557H00072000000","a":"WASHINGTON BLVD","m":"Liberty","u":"L","o":"individual","sf":44780,"v":15700}},{"type":"Feature","geometry":{"type":"Point","coordinates":[-79.87718,40.32611]},"properties":{"p":"0557B00321000000","a":"1046 PENNSYLVANIA AVE","m":"Glassport","u":"L","o":"individual","sf":10000,"v":9500}},{"type":"Feature","geometry":{"type":"Point","coordinates":[-79.87273,40.32107]},"properties":{"p":"0557L00135000000","a":"WASHINGTON BLVD","m":"Liberty","u":"L","o":"individual","sf":90169,"v":19800}},{"type":"Feature","geometry":{"type":"Point","coordinates":[-79.87364,40.32331]},"properties":{"p":"0557G00284000000","a":"WASHINGTON BLVD","m":"Liberty","u":"L","o":"individual","sf":18283,"v":5200}},{"type":"Feature","geometry":{"type":"Point","coordinates":[-79.86322,40.32353]},"properties":{"p":"0556E00044000000","a":"953 ELIZABETH ST","m":"Liberty","u":"L","o":"individual","sf":2756,"v":900}},{"type":"Feature","geometry":{"type":"Point","coordinates":[-79.86221,40.32281]},"properties":{"p":"0556E00020000000","a":"3024 MEMORY LN","m":"Liberty","u":"L","o":"individual","sf":2600,"v":800}},{"type":"Feature","geometry":{"type":"Point","coordinates":[-79.87976,40.32608]},"properties":{"p":"0557A00085000000","a":"3RD ST","m":"Glassport","u":"L","o":"individual","sf":6500,"v":1900}},{"type":"Feature","geometry":{"type":"Point","coordinates":[-79.878,40.32549]},"properties":{"p":"0557B00053000000","a":"PENNSYLVANIA AVE","m":"Glassport","u":"L","o":"individual","sf":3660,"v":3300}},{"type":"Feature","geometry":{"type":"Point","coordinates":[-79.86138,40.3208]},"properties":{"p":"0556F00400000000","a":"MEMORY LN","m":"Liberty","u":"L","o":"individual","sf":6500,"v":24100}},{"type":"Feature","geometry":{"type":"Point","coordinates":[-79.87821,40.32628]},"properties":{"p":"0557B00362000000","a":"CENTURY AVE","m":"Glassport","u":"L","o":"individual","sf":2500,"v":150}},{"type":"Feature","geometry":{"type":"Point","coordinates":[-79.87875,40.32643]},"properties":{"p":"0557B00365000000","a":"CENTURY AVE","m":"Glassport","u":"L","o":"individual","sf":2375,"v":150}},{"type":"Feature","geometry":{"type":"Point","coordinates":[-79.86221,40.32304]},"properties":{"p":"0556E00022000000","a":"3020 MEMORY LN","m":"Liberty","u":"L","o":"individual","sf":1307,"v":500}},{"type":"Feature","geometry":{"type":"Point","coordinates":[-79.87855,40.32657]},"properties":{"p":"0466P00172000000","a":"CENTURY AVE","m":"Glassport","u":"B","o":"individual","sf":2375,"v":205}},{"type":"Feature","geometry":{"type":"Point","coordinates":[-79.87849,40.32661]},"properties":{"p":"0466P00173000000","a":"CENTURY AVE","m":"Glassport","u":"B","o":"individual","sf":2375,"v":205}},{"type":"Feature","geometry":{"type":"Point","coordinates":[-79.87842,40.32666]},"properties":{"p":"0466P00174000000","a":"CENTURY AVE","m":"Glassport","u":"B","o":"individual","sf":2375,"v":205}},{"type":"Feature","geometry":{"type":"Point","coordinates":[-79.87836,40.32671]},"properties":{"p":"0466P00175000000","a":"CENTURY AVE","m":"Glassport","u":"B","o":"individual","sf":2375,"v":205}},{"type":"Feature","geometry":{"type":"Point","coordinates":[-79.87829,40.32676]},"properties":{"p":"0466P00176000000","a":"CENTURY AVE","m":"Glassport","u":"B","o":"individual","sf":2375,"v":205}},{"type":"Feature","geometry":{"type":"Point","coordinates":[-79.87822,40.32681]},"properties":{"p":"0466P00177000000","a":"CENTURY AVE","m":"Glassport","u":"B","o":"individual","sf":2375,"v":205}},{"type":"Feature","geometry":{"type":"Point","coordinates":[-79.87816,40.32685]},"properties":{"p":"0466P00178000000","a":"CENTURY AVE","m":"Glassport","u":"B","o":"individual","sf":2375,"v":205}},{"type":"Feature","geometry":{"type":"Point","coordinates":[-79.87803,40.32695]},"properties":{"p":"0466P00180000000","a":"CENTURY AVE","m":"Glassport","u":"B","o":"individual","sf":2375,"v":205}},{"type":"Feature","geometry":{"type":"Point","coordinates":[-79.87797,40.32699]},"properties":{"p":"0466P00181000000","a":"CENTURY AVE","m":"Glassport","u":"B","o":"individual","sf":2375,"v":205}},{"type":"Feature","geometry":{"type":"Point","coordinates":[-79.8779,40.32704]},"properties":{"p":"0466P00182000000","a":"CENTURY AVE","m":"Glassport","u":"B","o":"individual","sf":2375,"v":100}},{"type":"Feature","geometry":{"type":"Point","coordinates":[-79.87785,40.32711]},"properties":{"p":"0466P00183000000","a":"CENTURY AVE","m":"Glassport","u":"B","o":"individual","sf":2375,"v":205}},{"type":"Feature","geometry":{"type":"Point","coordinates":[-79.87527,40.32746]},"properties":{"p":"0466P00381000000","a":"PENNSYLVANIA AVE","m":"Glassport","u":"B","o":"individual","sf":2500,"v":1000}},{"type":"Feature","geometry":{"type":"Point","coordinates":[-79.87514,40.32756]},"properties":{"p":"0466P00383000000","a":"PENNSYLVANIA AVE","m":"Glassport","u":"B","o":"individual","sf":2500,"v":1000}},{"type":"Feature","geometry":{"type":"Point","coordinates":[-79.87565,40.32821]},"properties":{"p":"0466P00385000000","a":"RUSTIC AVE","m":"Glassport","u":"B","o":"individual","sf":8793,"v":255}},{"type":"Feature","geometry":{"type":"Point","coordinates":[-79.87535,40.32824]},"properties":{"p":"0466P00388000000","a":"RUSTIC AVE","m":"Glassport","u":"B","o":"individual","sf":9200,"v":150}},{"type":"Feature","geometry":{"type":"Point","coordinates":[-79.87515,40.32831]},"properties":{"p":"0466P00390000000","a":"RUSTIC AVE","m":"Glassport","u":"B","o":"individual","sf":7125,"v":150}},{"type":"Feature","geometry":{"type":"Point","coordinates":[-79.87498,40.32837]},"properties":{"p":"0466P00392000000","a":"RUSTIC AVE","m":"Glassport","u":"B","o":"individual","sf":9762,"v":200}},{"type":"Feature","geometry":{"type":"Point","coordinates":[-79.87485,40.32845]},"properties":{"p":"0466P00394000000","a":"PENNSYLVANIA AVE","m":"Glassport","u":"B","o":"individual","sf":8906,"v":200}},{"type":"Feature","geometry":{"type":"Point","coordinates":[-79.87535,40.32794]},"properties":{"p":"0466P00351000000","a":"PENNSYLVANIA AVE","m":"Glassport","u":"B","o":"individual","sf":3739,"v":150}},{"type":"Feature","geometry":{"type":"Point","coordinates":[-79.87553,40.32781]},"properties":{"p":"0466P00353000000","a":"PENNSYLVANIA AVE","m":"Glassport","u":"B","o":"individual","sf":2500,"v":150}},{"type":"Feature","geometry":{"type":"Point","coordinates":[-79.87559,40.32776]},"properties":{"p":"0466P00354000000","a":"PENNSYLVANIA AVE","m":"Glassport","u":"B","o":"individual","sf":2500,"v":150}},{"type":"Feature","geometry":{"type":"Point","coordinates":[-79.87566,40.32772]},"properties":{"p":"0466P00355000000","a":"PENNSYLVANIA AVE","m":"Glassport","u":"B","o":"individual","sf":2500,"v":150}},{"type":"Feature","geometry":{"type":"Point","coordinates":[-79.87572,40.32767]},"properties":{"p":"0466P00356000000","a":"PENNSYLVANIA AVE","m":"Glassport","u":"B","o":"individual","sf":2500,"v":150}},{"type":"Feature","geometry":{"type":"Point","coordinates":[-79.87579,40.32762]},"properties":{"p":"0466P00357000000","a":"PENNSYLVANIA AVE","m":"Glassport","u":"B","o":"individual","sf":2500,"v":150}},{"type":"Feature","geometry":{"type":"Point","coordinates":[-79.87585,40.32758]},"properties":{"p":"0466P00358000000","a":"PENNSYLVANIA AVE","m":"Glassport","u":"B","o":"individual","sf":2500,"v":150}},{"type":"Feature","geometry":{"type":"Point","coordinates":[-79.87592,40.32753]},"properties":{"p":"0466P00359000000","a":"PENNSYLVANIA AVE","m":"Glassport","u":"B","o":"individual","sf":2500,"v":150}},{"type":"Feature","geometry":{"type":"Point","coordinates":[-79.87598,40.32748]},"properties":{"p":"0466P00360000000","a":"PENNSYLVANIA AVE","m":"Glassport","u":"B","o":"individual","sf":2500,"v":150}},{"type":"Feature","geometry":{"type":"Point","coordinates":[-79.8765,40.3271]},"properties":{"p":"0466P00365000000","a":"PENNSYLVANIA AVE","m":"Glassport","u":"B","o":"individual","sf":2500,"v":205}},{"type":"Feature","geometry":{"type":"Point","coordinates":[-79.87683,40.32686]},"properties":{"p":"0466P00375000000","a":"PENNSYLVANIA AVE","m":"Glassport","u":"B","o":"individual","sf":2500,"v":205}},{"type":"Feature","geometry":{"type":"Point","coordinates":[-79.87533,40.32741]},"properties":{"p":"0466P00380000000","a":"PENNSYLVANIA AVE","m":"Glassport","u":"B","o":"individual","sf":2500,"v":1000}},{"type":"Feature","geometry":{"type":"Point","coordinates":[-79.8773,40.32681]},"properties":{"p":"0466P00185000000","a":"RURAL AVE","m":"Glassport","u":"B","o":"individual","sf":8087,"v":150}},{"type":"Feature","geometry":{"type":"Point","coordinates":[-79.87476,40.32783]},"properties":{"p":"0466R00055000000","a":"PENNSYLVANIA AVE","m":"Glassport","u":"B","o":"individual","sf":2500,"v":200}},{"type":"Feature","geometry":{"type":"Point","coordinates":[-79.87463,40.32793]},"properties":{"p":"0466R00057000000","a":"PENNSYLVANIA AVE","m":"Glassport","u":"B","o":"individual","sf":2500,"v":200}},{"type":"Feature","geometry":{"type":"Point","coordinates":[-79.87456,40.32798]},"properties":{"p":"0466R00058000000","a":"PENNSYLVANIA AVE","m":"Glassport","u":"B","o":"individual","sf":2500,"v":200}},{"type":"Feature","geometry":{"type":"Point","coordinates":[-79.8745,40.32802]},"properties":{"p":"0466R00059000000","a":"PENNSYLVANIA AVE","m":"Glassport","u":"B","o":"individual","sf":2500,"v":200}},{"type":"Feature","geometry":{"type":"Point","coordinates":[-79.87862,40.32652]},"properties":{"p":"0466P00171000000","a":"CENTURY AVE","m":"Glassport","u":"B","o":"individual","sf":2374,"v":205}},{"type":"Feature","geometry":{"type":"Point","coordinates":[-79.87795,40.32647]},"properties":{"p":"0466P00166000000","a":"CENTURY AVE","m":"Glassport","u":"B","o":"individual","sf":2500,"v":150}},{"type":"Feature","geometry":{"type":"Point","coordinates":[-79.87788,40.32652]},"properties":{"p":"0466P00167000000","a":"CENTURY AVE","m":"Glassport","u":"B","o":"individual","sf":2500,"v":200}},{"type":"Feature","geometry":{"type":"Point","coordinates":[-79.87783,40.32658]},"properties":{"p":"0466P00168000000","a":"CENTURY AVE","m":"Glassport","u":"B","o":"individual","sf":2612,"v":150}},{"type":"Feature","geometry":{"type":"Point","coordinates":[-79.87778,40.32664]},"properties":{"p":"0466P00169000000","a":"CENTURY AVE","m":"Glassport","u":"B","o":"individual","sf":2268,"v":150}},{"type":"Feature","geometry":{"type":"Point","coordinates":[-79.87759,40.32688]},"properties":{"p":"0466P00170000000","a":"CENTURY AVE","m":"Glassport","u":"B","o":"individual","sf":6693,"v":150}},{"type":"Feature","geometry":{"type":"Point","coordinates":[-79.87721,40.32658]},"properties":{"p":"0466P00087000000","a":"PENNSYLVANIA AVE","m":"Glassport","u":"B","o":"individual","sf":2500,"v":6800}},{"type":"Feature","geometry":{"type":"Point","coordinates":[-79.87809,40.3269]},"properties":{"p":"0466P00179000000","a":"CENTURY AVE","m":"Glassport","u":"B","o":"individual","sf":2375,"v":205}},{"type":"Feature","geometry":{"type":"Point","coordinates":[-79.87774,40.32711]},"properties":{"p":"0466P00184000000","a":"CENTURY AVE","m":"Glassport","u":"B","o":"individual","sf":2375,"v":205}},{"type":"Feature","geometry":{"type":"Point","coordinates":[-79.8752,40.32751]},"properties":{"p":"0466P00382000000","a":"PENNSYLVANIA AVE","m":"Glassport","u":"B","o":"individual","sf":2500,"v":1000}},{"type":"Feature","geometry":{"type":"Point","coordinates":[-79.87517,40.32795]},"properties":{"p":"0466P00350000000","a":"PENNSYLVANIA AVE","m":"Glassport","u":"B","o":"individual","sf":4568,"v":150}},{"type":"Feature","geometry":{"type":"Point","coordinates":[-79.87545,40.32787]},"properties":{"p":"0466P00352000000","a":"PENNSYLVANIA AVE","m":"Glassport","u":"B","o":"individual","sf":3500,"v":150}},{"type":"Feature","geometry":{"type":"Point","coordinates":[-79.8747,40.32788]},"properties":{"p":"0466R00056000000","a":"PENNSYLVANIA AVE","m":"Glassport","u":"B","o":"individual","sf":2500,"v":200}},{"type":"Feature","geometry":{"type":"Point","coordinates":[-79.87801,40.32642]},"properties":{"p":"0466P00165000000","a":"CENTURY AVE","m":"Glassport","u":"B","o":"individual","sf":2500,"v":150}}]}