{"type":"FeatureCollection","features":[{"type":"Feature","geometry":{"type":"Point","coordinates":[-79.84153,40.44506]},"properties":{"p":"0370P00025000000","a":"BEULAH RD","m":"Churchill","u":"C","o":"corp","sf":68825,"v":4575}},{"type":"Feature","geometry":{"type":"Point","coordinates":[-79.85755,40.44323]},"properties":{"p":"0297R00220000000","a":"GRAHAM BLVD","m":"Churchill","u":"L","o":"individual","sf":13125,"v":40100}},{"type":"Feature","geometry":{"type":"Point","coordinates":[-79.8591,40.44247]},"properties":{"p":"0298B00202000000","a":"BARTON DR","m":"Churchill","u":"L","o":"individual","sf":1521,"v":2500}},{"type":"Feature","geometry":{"type":"Point","coordinates":[-79.85671,40.44087]},"properties":{"p":"0298C00124000000","a":"GREENSBURG PIKE","m":"Churchill","u":"L","o":"individual","sf":7313,"v":700}},{"type":"Feature","geometry":{"type":"Point","coordinates":[-79.84686,40.43259]},"properties":{"p":"0372A00106000000","a":"MARGATE RD","m":"Churchill","u":"L","o":"individual","sf":9694,"v":12100}},{"type":"Feature","geometry":{"type":"Point","coordinates":[-79.84664,40.43238]},"properties":{"p":"0372A00112000000","a":"THOM RD","m":"Churchill","u":"L","o":"corp","sf":8111,"v":10100}},{"type":"Feature","geometry":{"type":"Point","coordinates":[-79.85873,40.4405]},"properties":{"p":"0298F00206000000","a":"MARBURY RD","m":"Churchill","u":"L","o":"individual","sf":1155,"v":100}},{"type":"Feature","geometry":{"type":"Point","coordinates":[-79.84563,40.43363]},"properties":{"p":"0372A00257000000","a":"HENLEY DR","m":"Churchill","u":"L","o":"individual","sf":138543,"v":41600}},{"type":"Feature","geometry":{"type":"Point","coordinates":[-79.84949,40.43489]},"properties":{"p":"0298S00025000000","a":"GREENSBURG PIKE","m":"Churchill","u":"L","o":"individual","sf":11561,"v":1000}},{"type":"Feature","geometry":{"type":"Point","coordinates":[-79.84798,40.43409]},"properties":{"p":"0371N00040000000","a":"THORNBERRY DR","m":"Churchill","u":"L","o":"individual","sf":14174,"v":15200}},{"type":"Feature","geometry":{"type":"Point","coordinates":[-79.84261,40.43844]},"properties":{"p":"0371F00096000000","a":"BEULAH RD","m":"Churchill","u":"L","o":"individual","sf":8129,"v":9500}},{"type":"Feature","geometry":{"type":"Point","coordinates":[-79.84451,40.44782]},"properties":{"p":"0370K00066000000","a":"SAYBROOK DR","m":"Churchill","u":"L","o":"corp","sf":39640,"v":3600}},{"type":"Feature","geometry":{"type":"Point","coordinates":[-79.84874,40.44905]},"properties":{"p":"0370E00044000000","a":"CREEKEDGE DR","m":"Churchill","u":"L","o":"corp","sf":8320,"v":13900}},{"type":"Feature","geometry":{"type":"Point","coordinates":[-79.84765,40.43209]},"properties":{"p":"0372A00122000000","a":"MARGATE RD","m":"Churchill","u":"L","o":"individual","sf":7550,"v":4800}},{"type":"Feature","geometry":{"type":"Point","coordinates":[-79.84105,40.44244]},"properties":{"p":"0371C00010000000","a":"12 CHURCHILL RD","m":"Churchill","u":"L","o":"individual","sf":28659,"v":26000}},{"type":"Feature","geometry":{"type":"Point","coordinates":[-79.84036,40.43496]},"properties":{"p":"0371R00010000000","a":"BEULAH RD","m":"Churchill","u":"L","o":"individual","sf":11333,"v":1100}},{"type":"Feature","geometry":{"type":"Point","coordinates":[-79.84024,40.43481]},"properties":{"p":"0371R00012000000","a":"BEULAH RD","m":"Churchill","u":"L","o":"individual","sf":8427,"v":800}},{"type":"Feature","geometry":{"type":"Point","coordinates":[-79.84248,40.43102]},"properties":{"p":"0372B00012000000","a":"THORNBERRY DR","m":"Churchill","u":"L","o":"individual","sf":19554,"v":30700}},{"type":"Feature","geometry":{"type":"Point","coordinates":[-79.85969,40.43701]},"properties":{"p":"0298K00100000000","a":"CHERRY VALLEY RD","m":"Forest Hills","u":"L","o":"individual","sf":286,"v":100}},{"type":"Feature","geometry":{"type":"Point","coordinates":[-79.85027,40.43338]},"properties":{"p":"0298S00001000000","a":"ANGELO LN","m":"Forest Hills","u":"L","o":"individual","sf":3587,"v":300}},{"type":"Feature","geometry":{"type":"Point","coordinates":[-79.85049,40.43359]},"properties":{"p":"0298S00004000000","a":"8 PATRICE CT","m":"Forest Hills","u":"L","o":"individual","sf":7178,"v":12000}},{"type":"Feature","geometry":{"type":"Point","coordinates":[-79.85142,40.43045]},"properties":{"p":"0299H00204000000","a":"602 FILMORE RD","m":"Forest Hills","u":"L","o":"individual","sf":7056,"v":15200}},{"type":"Feature","geometry":{"type":"Point","coordinates":[-79.8514,40.43052]},"properties":{"p":"0299H00206000000","a":"606 FILMORE RD","m":"Forest Hills","u":"L","o":"individual","sf":5660,"v":2100}},{"type":"Feature","geometry":{"type":"Point","coordinates":[-79.85281,40.43087]},"properties":{"p":"0299H00218000000","a":"FILMORE RD","m":"Forest Hills","u":"L","o":"individual","sf":14167,"v":12100}},{"type":"Feature","geometry":{"type":"Point","coordinates":[-79.8528,40.43072]},"properties":{"p":"0299H00220000000","a":"FILMORE RD","m":"Forest Hills","u":"L","o":"individual","sf":17076,"v":8000}},{"type":"Feature","geometry":{"type":"Point","coordinates":[-79.85013,40.43363]},"properties":{"p":"0298S00016000000","a":"ANGELO LN","m":"Forest Hills","u":"L","o":"individual","sf":17270,"v":40400}},{"type":"Feature","geometry":{"type":"Point","coordinates":[-79.85327,40.4304]},"properties":{"p":"0299H00228000000","a":"FILMORE RD","m":"Forest Hills","u":"L","o":"individual","sf":43297,"v":33500}},{"type":"Feature","geometry":{"type":"Point","coordinates":[-79.85536,40.43315]},"properties":{"p":"0299C00148000000","a":"GLASGOW RD","m":"Forest Hills","u":"L","o":"individual","sf":21792,"v":28100}},{"type":"Feature","geometry":{"type":"Point","coordinates":[-79.85464,40.43179]},"properties":{"p":"0299C00058000A00","a":"200 FIELDCREST DR","m":"Forest Hills","u":"L","o":"individual","sf":9668,"v":16200}},{"type":"Feature","geometry":{"type":"Point","coordinates":[-79.85133,40.43331]},"properties":{"p":"0299D00075000000","a":"PATRICE CT","m":"Forest Hills","u":"L","o":"individual","sf":9430,"v":35700}},{"type":"Feature","geometry":{"type":"Point","coordinates":[-79.85607,40.43159]},"properties":{"p":"0299C00110000000","a":"FIELDCREST DR","m":"Forest Hills","u":"L","o":"individual","sf":1868,"v":3100}},{"type":"Feature","geometry":{"type":"Point","coordinates":[-79.85144,40.431]},"properties":{"p":"0299D00020000000","a":"624 FILMORE RD","m":"Forest Hills","u":"L","o":"individual","sf":639,"v":300}},{"type":"Feature","geometry":{"type":"Point","coordinates":[-79.84983,40.43212]},"properties":{"p":"0299D00045000000","a":"FILMORE RD","m":"Forest Hills","u":"L","o":"individual","sf":10786,"v":18000}},{"type":"Feature","geometry":{"type":"Point","coordinates":[-79.85316,40.43156]},"properties":{"p":"0299D00158000000","a":"WATT LN","m":"Forest Hills","u":"L","o":"individual","sf":30696,"v":2800}},{"type":"Feature","geometry":{"type":"Point","coordinates":[-79.85233,40.4324]},"properties":{"p":"0299D00164000000","a":"WATT LN","m":"Forest Hills","u":"L","o":"individual","sf":61,"v":100}},{"type":"Feature","geometry":{"type":"Point","coordinates":[-79.85352,40.43211]},"properties":{"p":"0299D00170000000","a":"BRADDOCK RD","m":"Forest Hills","u":"L","o":"individual","sf":10000,"v":36600}},{"type":"Feature","geometry":{"type":"Point","coordinates":[-79.85409,40.43318]},"properties":{"p":"0299C00024000000","a":"BRADDOCK RD","m":"Forest Hills","u":"L","o":"individual","sf":22411,"v":21000}},{"type":"Feature","geometry":{"type":"Point","coordinates":[-79.85387,40.43283]},"properties":{"p":"0299C00032000000","a":"939 BRADDOCK RD","m":"Forest Hills","u":"L","o":"individual","sf":10511,"v":14000}},{"type":"Feature","geometry":{"type":"Point","coordinates":[-79.85281,40.43366]},"properties":{"p":"0298S00188000000","a":"BRADDOCK RD","m":"Forest Hills","u":"L","o":"corp","sf":16683,"v":1500}},{"type":"Feature","geometry":{"type":"Point","coordinates":[-79.84917,40.43101]},"properties":{"p":"0299D00006000000","a":"3782 GREENSBURG PIKE","m":"Forest Hills","u":"L","o":"individual","sf":6391,"v":15100}},{"type":"Feature","geometry":{"type":"Point","coordinates":[-79.8567,40.43125]},"properties":{"p":"0299C00089000000","a":"KORHNAK LN","m":"Forest Hills","u":"L","o":"individual","sf":4288,"v":7200}},{"type":"Feature","geometry":{"type":"Point","coordinates":[-79.85765,40.43397]},"properties":{"p":"0298R00052000000","a":"HILLCREST RD","m":"Forest Hills","u":"L","o":"individual","sf":8494,"v":34100}},{"type":"Feature","geometry":{"type":"Point","coordinates":[-79.85561,40.43401]},"properties":{"p":"0298R00084000000","a":"GLASGOW RD","m":"Forest Hills","u":"L","o":"individual","sf":16713,"v":12000}},{"type":"Feature","geometry":{"type":"Point","coordinates":[-79.85072,40.43061]},"properties":{"p":"0299H00020000000","a":"BARCLAY AVE","m":"Forest Hills","u":"L","o":"individual","sf":16903,"v":6000}},{"type":"Feature","geometry":{"type":"Point","coordinates":[-79.85922,40.44761]},"properties":{"p":"0297K00070000000","a":"LINDSAY RD","m":"Wilkinsburg","u":"L","o":"individual","sf":5600,"v":10100}},{"type":"Feature","geometry":{"type":"Point","coordinates":[-79.85978,40.44638]},"properties":{"p":"0297K00130000000","a":"BEECH ST","m":"Wilkinsburg","u":"L","o":"individual","sf":13008,"v":10700}},{"type":"Feature","geometry":{"type":"Point","coordinates":[-79.8552,40.44776]},"properties":{"p":"0297L00272000000","a":"OSAGE DR","m":"Wilkinsburg","u":"L","o":"individual","sf":11383,"v":9500}},{"type":"Feature","geometry":{"type":"Point","coordinates":[-79.85957,40.44601]},"properties":{"p":"0297K00150000000","a":"BEECH ST","m":"Wilkinsburg","u":"L","o":"individual","sf":13563,"v":3900}},{"type":"Feature","geometry":{"type":"Point","coordinates":[-79.85903,40.44574]},"properties":{"p":"0297K00170000000","a":"GRAHAM BLVD","m":"Wilkinsburg","u":"L","o":"individual","sf":24183,"v":11100}},{"type":"Feature","geometry":{"type":"Point","coordinates":[-79.85892,40.44716]},"properties":{"p":"0297K00188000000","a":"GRAHAM BLVD","m":"Wilkinsburg","u":"L","o":"individual","sf":18000,"v":5100}},{"type":"Feature","geometry":{"type":"Point","coordinates":[-79.85926,40.44258]},"properties":{"p":"0298B00092000000","a":"15 SCENERY RD","m":"Wilkinsburg","u":"L","o":"individual","sf":7500,"v":6200}},{"type":"Feature","geometry":{"type":"Point","coordinates":[-79.85035,40.43346]},"properties":{"p":"0298S00002000000","a":"PATRICE CT","m":"Forest Hills","u":"L","o":"individual","sf":3052,"v":300}},{"type":"Feature","geometry":{"type":"Point","coordinates":[-79.85836,40.43244]},"properties":{"p":"0299B00034000000","a":"GREENWOOD RD","m":"Forest Hills","u":"L","o":"individual","sf":8789,"v":16100}},{"type":"Feature","geometry":{"type":"Point","coordinates":[-79.85503,40.44853]},"properties":{"p":"0297G00207000000","a":"MEADOW DR","m":"Wilkinsburg","u":"L","o":"individual","sf":7231,"v":6000}},{"type":"Feature","geometry":{"type":"Point","coordinates":[-79.85906,40.44599]},"properties":{"p":"0297K00170000100","a":"GRAHAM BLVD","m":"Wilkinsburg","u":"L","o":"individual","sf":2868,"v":2400}},{"type":"Feature","geometry":{"type":"Point","coordinates":[-79.85627,40.4419]},"properties":{"p":"0298C00025000000","a":"GREENSBURG PIKE","m":"Churchill","u":"L","o":"individual","sf":10860,"v":2900}},{"type":"Feature","geometry":{"type":"Point","coordinates":[-79.85908,40.44038]},"properties":{"p":"0298F00168000000","a":"PENN LINCOLN HWY","m":"Churchill","u":"L","o":"individual","sf":86249,"v":32600}},{"type":"Feature","geometry":{"type":"Point","coordinates":[-79.84285,40.43223]},"properties":{"p":"0372C00020000000","a":"THORNBERRY DR","m":"Churchill","u":"L","o":"individual","sf":25926,"v":2300}},{"type":"Feature","geometry":{"type":"Point","coordinates":[-79.85808,40.44717]},"properties":{"p":"0297K00204000000","a":"1210 GRAHAM BLVD","m":"Wilkinsburg","u":"L","o":"individual","sf":16649,"v":10400}},{"type":"Feature","geometry":{"type":"Point","coordinates":[-79.85219,40.43367]},"properties":{"p":"0298S00087000000","a":"CARA LIN DR","m":"Forest Hills","u":"B","o":"individual","sf":68389,"v":11100}},{"type":"Feature","geometry":{"type":"Point","coordinates":[-79.8526,40.4343]},"properties":{"p":"0298S00089000000","a":"CARA LIN DR","m":"Forest Hills","u":"B","o":"individual","sf":31058,"v":7700}}]}