{"type":"FeatureCollection","features":[{"type":"Feature","geometry":{"type":"Point","coordinates":[-79.85037,40.4192]},"properties":{"p":"0300H00011000000","a":"BERKLEY AVE","m":"Forest Hills","u":"C","o":"corp","sf":12847,"v":118000}},{"type":"Feature","geometry":{"type":"Point","coordinates":[-79.85325,40.41986]},"properties":{"p":"0300H00400000000","a":"ARDMORE BLVD","m":"Forest Hills","u":"C","o":"individual","sf":673263,"v":35500}},{"type":"Feature","geometry":{"type":"Point","coordinates":[-79.84961,40.41353]},"properties":{"p":"0301D00011000000","a":"20 MARWOOD AVE","m":"Forest Hills","u":"C","o":"corp","sf":5472,"v":2200}},{"type":"Feature","geometry":{"type":"Point","coordinates":[-79.84304,40.41286]},"properties":{"p":"0374B00130000000","a":"AVENUE E","m":"Forest Hills","u":"C","o":"corp","sf":10520,"v":1000}},{"type":"Feature","geometry":{"type":"Point","coordinates":[-79.84034,40.41743]},"properties":{"p":"0373L00070000000","a":"4400 GREENSBURG PIKE","m":"Forest Hills","u":"C","o":"corp","sf":71438,"v":32900}},{"type":"Feature","geometry":{"type":"Point","coordinates":[-79.85246,40.41214]},"properties":{"p":"0301D00225000000","a":"BRINTON RD","m":"Braddock Hills","u":"C","o":"corp","sf":161608,"v":88500}},{"type":"Feature","geometry":{"type":"Point","coordinates":[-79.8573,40.41752]},"properties":{"p":"0300K00050000000","a":"1555 BRINTON RD","m":"Braddock Hills","u":"C","o":"corp","sf":109727,"v":20000}},{"type":"Feature","geometry":{"type":"Point","coordinates":[-79.85807,40.41314]},"properties":{"p":"0301B00030000000","a":"BRINTON RD","m":"Braddock Hills","u":"C","o":"corp","sf":57961,"v":17400}},{"type":"Feature","geometry":{"type":"Point","coordinates":[-79.84228,40.41011]},"properties":{"p":"0374F00075000000","a":"NORTH AVE","m":"Chalfant","u":"C","o":"corp","sf":5846,"v":1000}},{"type":"Feature","geometry":{"type":"Point","coordinates":[-79.84189,40.41048]},"properties":{"p":"0374F00033000000","a":"107 -109 WEST ST","m":"Chalfant","u":"L","o":"individual","sf":5500,"v":12100}},{"type":"Feature","geometry":{"type":"Point","coordinates":[-79.84174,40.41068]},"properties":{"p":"0374F00037000000","a":"SHADELAND AVE","m":"Chalfant","u":"L","o":"individual","sf":2750,"v":3300}},{"type":"Feature","geometry":{"type":"Point","coordinates":[-79.84099,40.41092]},"properties":{"p":"0374F00005000000","a":"SHADELAND ST","m":"Chalfant","u":"L","o":"individual","sf":13940,"v":6800}},{"type":"Feature","geometry":{"type":"Point","coordinates":[-79.84107,40.41022]},"properties":{"p":"0374F00013000000","a":"LYNNWOOD AVE","m":"Chalfant","u":"L","o":"individual","sf":2750,"v":900}},{"type":"Feature","geometry":{"type":"Point","coordinates":[-79.84101,40.41017]},"properties":{"p":"0374F00014000000","a":"LYNNWOOD AVE","m":"Chalfant","u":"L","o":"individual","sf":2750,"v":900}},{"type":"Feature","geometry":{"type":"Point","coordinates":[-79.84011,40.41175]},"properties":{"p":"0374C00335000000","a":"405 HIGHLAND AVE","m":"Chalfant","u":"L","o":"individual","sf":2750,"v":3300}},{"type":"Feature","geometry":{"type":"Point","coordinates":[-79.84008,40.41116]},"properties":{"p":"0374G00216000000","a":"GREENFIELD AVE","m":"Chalfant","u":"L","o":"individual","sf":2750,"v":3300}},{"type":"Feature","geometry":{"type":"Point","coordinates":[-79.84067,40.41107]},"properties":{"p":"0374G00224000000","a":"GREENFIELD ST","m":"Chalfant","u":"L","o":"corp","sf":5358,"v":12000}},{"type":"Feature","geometry":{"type":"Point","coordinates":[-79.84064,40.41048]},"properties":{"p":"0374G00296000000","a":"LYNNWOOD AVE","m":"Chalfant","u":"L","o":"individual","sf":5500,"v":12100}},{"type":"Feature","geometry":{"type":"Point","coordinates":[-79.85703,40.42957]},"properties":{"p":"0299G00094000000","a":"BEAVER DR","m":"Forest Hills","u":"L","o":"individual","sf":21910,"v":14200}},{"type":"Feature","geometry":{"type":"Point","coordinates":[-79.84588,40.42084]},"properties":{"p":"0373E00044000000","a":"OGDEN AVE","m":"Forest Hills","u":"L","o":"individual","sf":3300,"v":8600}},{"type":"Feature","geometry":{"type":"Point","coordinates":[-79.84384,40.4211]},"properties":{"p":"0373F00118000000","a":"WINDSOR AVE","m":"Forest Hills","u":"L","o":"corp","sf":3300,"v":8600}},{"type":"Feature","geometry":{"type":"Point","coordinates":[-79.8438,40.42102]},"properties":{"p":"0373F00119000000","a":"WINDSOR AVE","m":"Forest Hills","u":"L","o":"corp","sf":3300,"v":8600}},{"type":"Feature","geometry":{"type":"Point","coordinates":[-79.84376,40.42094]},"properties":{"p":"0373F00120000000","a":"WINDSOR AVE","m":"Forest Hills","u":"L","o":"corp","sf":3300,"v":8600}},{"type":"Feature","geometry":{"type":"Point","coordinates":[-79.84269,40.41946]},"properties":{"p":"0373F00140000100","a":"WINDSOR AVE","m":"Forest Hills","u":"L","o":"corp","sf":10370,"v":13500}},{"type":"Feature","geometry":{"type":"Point","coordinates":[-79.85261,40.42842]},"properties":{"p":"0299M00121000000","a":"PARISE RD","m":"Forest Hills","u":"L","o":"individual","sf":29011,"v":10300}},{"type":"Feature","geometry":{"type":"Point","coordinates":[-79.85746,40.4298]},"properties":{"p":"0299G00182000000","a":"48 GLASGOW RD","m":"Forest Hills","u":"L","o":"individual","sf":7805,"v":20000}},{"type":"Feature","geometry":{"type":"Point","coordinates":[-79.85832,40.42702]},"properties":{"p":"0299K00056000100","a":"BRADDOCK RD","m":"Forest Hills","u":"L","o":"individual","sf":1581,"v":100}},{"type":"Feature","geometry":{"type":"Point","coordinates":[-79.84986,40.41804]},"properties":{"p":"0300M00038000000","a":"BERKLEY AVE","m":"Forest Hills","u":"L","o":"corp","sf":8400,"v":1500}},{"type":"Feature","geometry":{"type":"Point","coordinates":[-79.84981,40.41793]},"properties":{"p":"0300M00040000000","a":"BERKLEY AVE","m":"Forest Hills","u":"L","o":"corp","sf":4200,"v":400}},{"type":"Feature","geometry":{"type":"Point","coordinates":[-79.84721,40.41755]},"properties":{"p":"0373J00153000000","a":"SUMNER AVE","m":"Forest Hills","u":"L","o":"individual","sf":2881,"v":7500}},{"type":"Feature","geometry":{"type":"Point","coordinates":[-79.84827,40.42027]},"properties":{"p":"0373E00188000000","a":"501 ATLANTIC AVE","m":"Forest Hills","u":"L","o":"corp","sf":1650,"v":600}},{"type":"Feature","geometry":{"type":"Point","coordinates":[-79.8483,40.4203]},"properties":{"p":"0373E00188000A00","a":"501 ATLANTIC AVE","m":"Forest Hills","u":"L","o":"corp","sf":1650,"v":4300}},{"type":"Feature","geometry":{"type":"Point","coordinates":[-79.84791,40.41965]},"properties":{"p":"0373E00195000000","a":"ATLANTIC AVE","m":"Forest Hills","u":"L","o":"corp","sf":6600,"v":26100}},{"type":"Feature","geometry":{"type":"Point","coordinates":[-79.84248,40.41962]},"properties":{"p":"0373F00167000000","a":"BARCLAY AVE","m":"Forest Hills","u":"L","o":"individual","sf":3300,"v":1200}},{"type":"Feature","geometry":{"type":"Point","coordinates":[-79.84252,40.41969]},"properties":{"p":"0373F00168000000","a":"BARCLAY AVE","m":"Forest Hills","u":"L","o":"individual","sf":3300,"v":1200}},{"type":"Feature","geometry":{"type":"Point","coordinates":[-79.84968,40.41771]},"properties":{"p":"0300M00042000000","a":"BERKLEY AVE","m":"Forest Hills","u":"L","o":"corp","sf":14548,"v":1500}},{"type":"Feature","geometry":{"type":"Point","coordinates":[-79.84938,40.41728]},"properties":{"p":"0300M00046000000","a":"KENMORE AVE","m":"Forest Hills","u":"L","o":"individual","sf":11911,"v":44800}},{"type":"Feature","geometry":{"type":"Point","coordinates":[-79.84984,40.41718]},"properties":{"p":"0300M00049000000","a":"BERKLEY AVE","m":"Forest Hills","u":"L","o":"individual","sf":3600,"v":400}},{"type":"Feature","geometry":{"type":"Point","coordinates":[-79.85195,40.41724]},"properties":{"p":"0300M00166000000","a":"TRENTON AVE","m":"Forest Hills","u":"L","o":"individual","sf":7500,"v":14100}},{"type":"Feature","geometry":{"type":"Point","coordinates":[-79.852,40.41669]},"properties":{"p":"0300M00178000000","a":"TRENTON AVE","m":"Forest Hills","u":"L","o":"individual","sf":99012,"v":37600}},{"type":"Feature","geometry":{"type":"Point","coordinates":[-79.84998,40.414]},"properties":{"p":"0300S00008000000","a":"KENMORE AVE","m":"Forest Hills","u":"L","o":"individual","sf":5033,"v":1700}},{"type":"Feature","geometry":{"type":"Point","coordinates":[-79.84938,40.41406]},"properties":{"p":"0300S00010000000","a":"MARWOOD AVE","m":"Forest Hills","u":"L","o":"individual","sf":8303,"v":26300}},{"type":"Feature","geometry":{"type":"Point","coordinates":[-79.84651,40.42009]},"properties":{"p":"0373E00086000000","a":"PACIFIC AVE","m":"Forest Hills","u":"L","o":"individual","sf":3300,"v":8600}},{"type":"Feature","geometry":{"type":"Point","coordinates":[-79.84383,40.41924]},"properties":{"p":"0373F00060000000","a":"610 DECATUR AVE","m":"Forest Hills","u":"L","o":"individual","sf":3300,"v":8600}},{"type":"Feature","geometry":{"type":"Point","coordinates":[-79.85079,40.41742]},"properties":{"p":"0300M00095000000","a":"19 LEE AVE","m":"Forest Hills","u":"L","o":"corp","sf":3613,"v":400}},{"type":"Feature","geometry":{"type":"Point","coordinates":[-79.85084,40.41735]},"properties":{"p":"0300M00096000000","a":"19 LEE AVE","m":"Forest Hills","u":"L","o":"corp","sf":3768,"v":7100}},{"type":"Feature","geometry":{"type":"Point","coordinates":[-79.85109,40.41698]},"properties":{"p":"0300M00101000000","a":"LEE AVE","m":"Forest Hills","u":"L","o":"individual","sf":4005,"v":400}},{"type":"Feature","geometry":{"type":"Point","coordinates":[-79.85113,40.41691]},"properties":{"p":"0300M00102000000","a":"125 CEDAR AVE","m":"Forest Hills","u":"L","o":"individual","sf":4071,"v":7700}},{"type":"Feature","geometry":{"type":"Point","coordinates":[-79.85113,40.41634]},"properties":{"p":"0300M00108000000","a":"CEDAR AVE","m":"Forest Hills","u":"L","o":"individual","sf":6000,"v":33700}},{"type":"Feature","geometry":{"type":"Point","coordinates":[-79.84688,40.42598]},"properties":{"p":"0372J00226000100","a":"BARCLAY AVE","m":"Forest Hills","u":"L","o":"individual","sf":3521,"v":10600}},{"type":"Feature","geometry":{"type":"Point","coordinates":[-79.84679,40.42586]},"properties":{"p":"0372J00228000100","a":"BARCLAY AVE","m":"Forest Hills","u":"L","o":"individual","sf":3630,"v":10900}},{"type":"Feature","geometry":{"type":"Point","coordinates":[-79.84508,40.41907]},"properties":{"p":"0373E00024000000","a":"LENOX AVE","m":"Forest Hills","u":"L","o":"corp","sf":3300,"v":8600}},{"type":"Feature","geometry":{"type":"Point","coordinates":[-79.8578,40.42138]},"properties":{"p":"0300C00002000000","a":"FAIRFAX RD","m":"Forest Hills","u":"L","o":"individual","sf":11638,"v":1200}},{"type":"Feature","geometry":{"type":"Point","coordinates":[-79.85773,40.42115]},"properties":{"p":"0300C00004000000","a":"FAIRFAX RD","m":"Forest Hills","u":"L","o":"individual","sf":19077,"v":5000}},{"type":"Feature","geometry":{"type":"Point","coordinates":[-79.85083,40.41891]},"properties":{"p":"0300H00003000000","a":"BERKLEY AVE","m":"Forest Hills","u":"L","o":"corp","sf":6678,"v":12600}},{"type":"Feature","geometry":{"type":"Point","coordinates":[-79.84323,40.41875]},"properties":{"p":"0373F00074000600","a":"WINDSOR AVE","m":"Forest Hills","u":"L","o":"corp","sf":6534,"v":13100}},{"type":"Feature","geometry":{"type":"Point","coordinates":[-79.8467,40.41768]},"properties":{"p":"0373J00158000100","a":"SUMNER AVE","m":"Forest Hills","u":"L","o":"individual","sf":3000,"v":1100}},{"type":"Feature","geometry":{"type":"Point","coordinates":[-79.85891,40.42158]},"properties":{"p":"0300B00142000000","a":"21 ROXBURY RD","m":"Forest Hills","u":"L","o":"individual","sf":13772,"v":22700}},{"type":"Feature","geometry":{"type":"Point","coordinates":[-79.84692,40.41981]},"properties":{"p":"0373E00135000000","a":"PACIFIC AVE","m":"Forest Hills","u":"L","o":"individual","sf":1650,"v":4300}},{"type":"Feature","geometry":{"type":"Point","coordinates":[-79.84439,40.42101]},"properties":{"p":"0373F00114000000","a":"WINDSOR AVE","m":"Forest Hills","u":"L","o":"corp","sf":3300,"v":8600}},{"type":"Feature","geometry":{"type":"Point","coordinates":[-79.85378,40.42592]},"properties":{"p":"0299R00004000000","a":"RIDGE AVE","m":"Forest Hills","u":"L","o":"individual","sf":6000,"v":2200}},{"type":"Feature","geometry":{"type":"Point","coordinates":[-79.8569,40.42896]},"properties":{"p":"0299G00144000000","a":"BRADDOCK RD","m":"Forest Hills","u":"L","o":"individual","sf":10890,"v":13300}},{"type":"Feature","geometry":{"type":"Point","coordinates":[-79.85728,40.42907]},"properties":{"p":"0299G00160000000","a":"BRADDOCK RD","m":"Forest Hills","u":"L","o":"individual","sf":89298,"v":19000}},{"type":"Feature","geometry":{"type":"Point","coordinates":[-79.85836,40.42227]},"properties":{"p":"0300B00078000000","a":"135 FAIRFAX RD","m":"Forest Hills","u":"L","o":"individual","sf":6663,"v":12500}},{"type":"Feature","geometry":{"type":"Point","coordinates":[-79.85008,40.41452]},"properties":{"p":"0300S00028000000","a":"KENMORE AVE","m":"Forest Hills","u":"L","o":"individual","sf":12546,"v":13700}},{"type":"Feature","geometry":{"type":"Point","coordinates":[-79.84974,40.41459]},"properties":{"p":"0300S00032000000","a":"KENMORE AVE","m":"Forest Hills","u":"L","o":"individual","sf":4620,"v":12000}},{"type":"Feature","geometry":{"type":"Point","coordinates":[-79.84967,40.41472]},"properties":{"p":"0300S00034000000","a":"KENMORE AVE","m":"Forest Hills","u":"L","o":"individual","sf":3300,"v":8600}},{"type":"Feature","geometry":{"type":"Point","coordinates":[-79.84581,40.41978]},"properties":{"p":"0373E00062000000","a":"535 OGDEN AVE","m":"Forest Hills","u":"L","o":"individual","sf":3300,"v":8600}},{"type":"Feature","geometry":{"type":"Point","coordinates":[-79.84975,40.41645]},"properties":{"p":"0300M00005000000","a":"KENMORE AVE","m":"Forest Hills","u":"L","o":"individual","sf":3600,"v":400}},{"type":"Feature","geometry":{"type":"Point","coordinates":[-79.84234,40.41939]},"properties":{"p":"0373F00164000000","a":"BARCLAY AVE","m":"Forest Hills","u":"L","o":"individual","sf":3300,"v":1200}},{"type":"Feature","geometry":{"type":"Point","coordinates":[-79.84239,40.41946]},"properties":{"p":"0373F00165000000","a":"BARCLAY AVE","m":"Forest Hills","u":"L","o":"individual","sf":3300,"v":8600}},{"type":"Feature","geometry":{"type":"Point","coordinates":[-79.85897,40.42757]},"properties":{"p":"0299K00050000000","a":"BRADDOCK RD","m":"Forest Hills","u":"L","o":"individual","sf":37070,"v":42200}},{"type":"Feature","geometry":{"type":"Point","coordinates":[-79.85806,40.42713]},"properties":{"p":"0299K00052000100","a":"BRADDOCK RD","m":"Forest Hills","u":"L","o":"individual","sf":818,"v":100}},{"type":"Feature","geometry":{"type":"Point","coordinates":[-79.85831,40.42718]},"properties":{"p":"0299K00053000200","a":"BRADDOCK RD","m":"Forest Hills","u":"L","o":"individual","sf":810,"v":100}},{"type":"Feature","geometry":{"type":"Point","coordinates":[-79.84611,40.41941]},"properties":{"p":"0373E00075000000","a":"PACIFIC AVE","m":"Forest Hills","u":"L","o":"corp","sf":3300,"v":8600}},{"type":"Feature","geometry":{"type":"Point","coordinates":[-79.84457,40.42048]},"properties":{"p":"0373F00047000000","a":"DECATUR AVE","m":"Forest Hills","u":"L","o":"individual","sf":3300,"v":1200}},{"type":"Feature","geometry":{"type":"Point","coordinates":[-79.84948,40.41703]},"properties":{"p":"0300M00012000000","a":"KENMORE AVE","m":"Forest Hills","u":"L","o":"corp","sf":7200,"v":36000}},{"type":"Feature","geometry":{"type":"Point","coordinates":[-79.8501,40.41855]},"properties":{"p":"0300M00032000000","a":"BERKLEY AVE","m":"Forest Hills","u":"L","o":"individual","sf":3972,"v":400}},{"type":"Feature","geometry":{"type":"Point","coordinates":[-79.85091,40.42349]},"properties":{"p":"0300D00006000000","a":"GEISLER DR","m":"Forest Hills","u":"L","o":"individual","sf":1220,"v":500}},{"type":"Feature","geometry":{"type":"Point","coordinates":[-79.85046,40.42345]},"properties":{"p":"0300D00010000000","a":"GEISLER DR","m":"Forest Hills","u":"L","o":"individual","sf":10844,"v":3900}},{"type":"Feature","geometry":{"type":"Point","coordinates":[-79.85042,40.41726]},"properties":{"p":"0300M00072000000","a":"226 BERKLEY AVE","m":"Forest Hills","u":"L","o":"individual","sf":3339,"v":6300}},{"type":"Feature","geometry":{"type":"Point","coordinates":[-79.84448,40.42034]},"properties":{"p":"0373F00049000000","a":"DECATUR AVE","m":"Forest Hills","u":"L","o":"individual","sf":3300,"v":1200}},{"type":"Feature","geometry":{"type":"Point","coordinates":[-79.84444,40.42026]},"properties":{"p":"0373F00050000000","a":"DECATUR AVE","m":"Forest Hills","u":"L","o":"individual","sf":3300,"v":1200}},{"type":"Feature","geometry":{"type":"Point","coordinates":[-79.85708,40.42749]},"properties":{"p":"0299L00164000000","a":"BRADDOCK RD","m":"Forest Hills","u":"L","o":"corp","sf":7600,"v":700}},{"type":"Feature","geometry":{"type":"Point","coordinates":[-79.85031,40.41748]},"properties":{"p":"0300M00076000000","a":"226 BERKLEY AVE","m":"Forest Hills","u":"L","o":"individual","sf":1925,"v":3600}},{"type":"Feature","geometry":{"type":"Point","coordinates":[-79.85029,40.41753]},"properties":{"p":"0300M00077000000","a":"BERKLEY AVE","m":"Forest Hills","u":"L","o":"individual","sf":1904,"v":3600}},{"type":"Feature","geometry":{"type":"Point","coordinates":[-79.85031,40.41776]},"properties":{"p":"0300M00084000000","a":"BERKLEY AVE","m":"Forest Hills","u":"L","o":"individual","sf":1500,"v":2800}},{"type":"Feature","geometry":{"type":"Point","coordinates":[-79.85064,40.41765]},"properties":{"p":"0300M00092000000","a":"LEE AVE","m":"Forest Hills","u":"L","o":"individual","sf":3417,"v":300}},{"type":"Feature","geometry":{"type":"Point","coordinates":[-79.85653,40.42962]},"properties":{"p":"0299G00098000000","a":"217 BEAVER RD","m":"Forest Hills","u":"L","o":"individual","sf":11412,"v":1000}},{"type":"Feature","geometry":{"type":"Point","coordinates":[-79.85083,40.4182]},"properties":{"p":"0300M00134000000","a":"205 TRENTON AVE","m":"Forest Hills","u":"L","o":"individual","sf":9000,"v":8000}},{"type":"Feature","geometry":{"type":"Point","coordinates":[-79.8507,40.41847]},"properties":{"p":"0300M00139000000","a":"BERKLEY AVE","m":"Forest Hills","u":"L","o":"individual","sf":3000,"v":5600}},{"type":"Feature","geometry":{"type":"Point","coordinates":[-79.85074,40.41854]},"properties":{"p":"0300M00140000000","a":"BERKLEY AVE","m":"Forest Hills","u":"L","o":"individual","sf":3000,"v":5600}},{"type":"Feature","geometry":{"type":"Point","coordinates":[-79.85078,40.41862]},"properties":{"p":"0300M00141000000","a":"BERKLEY AVE","m":"Forest Hills","u":"L","o":"individual","sf":3000,"v":300}},{"type":"Feature","geometry":{"type":"Point","coordinates":[-79.85801,40.42795]},"properties":{"p":"0299K00034000000","a":"BRADDOCK RD","m":"Forest Hills","u":"L","o":"corp","sf":305,"v":100}},{"type":"Feature","geometry":{"type":"Point","coordinates":[-79.85083,40.42802]},"properties":{"p":"0299M00140000000","a":"FILMORE RD","m":"Forest Hills","u":"L","o":"individual","sf":20085,"v":31400}},{"type":"Feature","geometry":{"type":"Point","coordinates":[-79.84446,40.42112]},"properties":{"p":"0373B00076000000","a":"WINDSOR AVE","m":"Forest Hills","u":"L","o":"individual","sf":6600,"v":26100}},{"type":"Feature","geometry":{"type":"Point","coordinates":[-79.84394,40.42124]},"properties":{"p":"0373B00080000000","a":"WINDSOR AVE","m":"Forest Hills","u":"L","o":"individual","sf":3300,"v":1200}},{"type":"Feature","geometry":{"type":"Point","coordinates":[-79.85028,40.4163]},"properties":{"p":"0300S00079000000","a":"255 BERKLEY AVE","m":"Forest Hills","u":"L","o":"individual","sf":7200,"v":13500}},{"type":"Feature","geometry":{"type":"Point","coordinates":[-79.84933,40.41385]},"properties":{"p":"0301D00004000000","a":"MARWOOD AVE","m":"Forest Hills","u":"L","o":"individual","sf":9282,"v":26400}},{"type":"Feature","geometry":{"type":"Point","coordinates":[-79.84617,40.41649]},"properties":{"p":"0373J00106000000","a":"AVENUE L","m":"Forest Hills","u":"L","o":"individual","sf":1755,"v":4600}},{"type":"Feature","geometry":{"type":"Point","coordinates":[-79.85251,40.42908]},"properties":{"p":"0299H00272000000","a":"FILMORE RD","m":"Forest Hills","u":"L","o":"individual","sf":29497,"v":17200}},{"type":"Feature","geometry":{"type":"Point","coordinates":[-79.85294,40.42876]},"properties":{"p":"0299H00280000000","a":"PARISE RD","m":"Forest Hills","u":"L","o":"individual","sf":19515,"v":16300}},{"type":"Feature","geometry":{"type":"Point","coordinates":[-79.85341,40.4287]},"properties":{"p":"0299H00282000000","a":"PARISE RD","m":"Forest Hills","u":"L","o":"individual","sf":13155,"v":15700}},{"type":"Feature","geometry":{"type":"Point","coordinates":[-79.84979,40.41637]},"properties":{"p":"0300M00004000000","a":"KENMORE AVE","m":"Forest Hills","u":"L","o":"individual","sf":3600,"v":400}},{"type":"Feature","geometry":{"type":"Point","coordinates":[-79.85624,40.4227]},"properties":{"p":"0300C00128000000","a":"1942 ARDMORE BLVD","m":"Forest Hills","u":"L","o":"individual","sf":13100,"v":22700}},{"type":"Feature","geometry":{"type":"Point","coordinates":[-79.85008,40.41672]},"properties":{"p":"0300M00055000000","a":"BERKLEY AVE","m":"Forest Hills","u":"L","o":"individual","sf":3600,"v":400}},{"type":"Feature","geometry":{"type":"Point","coordinates":[-79.8494,40.41302]},"properties":{"p":"0301D00016000000","a":"RADNOR AVE","m":"Forest Hills","u":"L","o":"individual","sf":14747,"v":26900}},{"type":"Feature","geometry":{"type":"Point","coordinates":[-79.84929,40.413]},"properties":{"p":"0301D00017000000","a":"RADNOR AVE","m":"Forest Hills","u":"L","o":"individual","sf":2750,"v":1000}},{"type":"Feature","geometry":{"type":"Point","coordinates":[-79.84602,40.42553]},"properties":{"p":"0372N00036000000","a":"344 BARCLAY AVE","m":"Forest Hills","u":"L","o":"individual","sf":3000,"v":1200}},{"type":"Feature","geometry":{"type":"Point","coordinates":[-79.85714,40.42839]},"properties":{"p":"0299L00160000000","a":"BRADDOCK RD","m":"Forest Hills","u":"L","o":"individual","sf":37679,"v":19000}},{"type":"Feature","geometry":{"type":"Point","coordinates":[-79.85022,40.41641]},"properties":{"p":"0300M00059000000","a":"BERKLEY AVE","m":"Forest Hills","u":"L","o":"individual","sf":3600,"v":400}},{"type":"Feature","geometry":{"type":"Point","coordinates":[-79.85083,40.41653]},"properties":{"p":"0300M00063000000","a":"CEDAR AVE","m":"Forest Hills","u":"L","o":"individual","sf":6871,"v":35400}},{"type":"Feature","geometry":{"type":"Point","coordinates":[-79.84624,40.42144]},"properties":{"p":"0373A00023000000","a":"MARION AVE","m":"Forest Hills","u":"L","o":"corp","sf":1650,"v":600}},{"type":"Feature","geometry":{"type":"Point","coordinates":[-79.84644,40.42139]},"properties":{"p":"0373A00025000000","a":"OGDEN AVE","m":"Forest Hills","u":"L","o":"corp","sf":1511,"v":3900}},{"type":"Feature","geometry":{"type":"Point","coordinates":[-79.85168,40.41705]},"properties":{"p":"0300M00119000000","a":"32 LEE AVE","m":"Forest Hills","u":"L","o":"individual","sf":3000,"v":5600}},{"type":"Feature","geometry":{"type":"Point","coordinates":[-79.85149,40.4173]},"properties":{"p":"0300M00120000000","a":"LEE AVE","m":"Forest Hills","u":"L","o":"individual","sf":6000,"v":11300}},{"type":"Feature","geometry":{"type":"Point","coordinates":[-79.85136,40.41748]},"properties":{"p":"0300M00125000000","a":"28 LEE AVE","m":"Forest Hills","u":"L","o":"individual","sf":3000,"v":5600}},{"type":"Feature","geometry":{"type":"Point","coordinates":[-79.84597,40.41254]},"properties":{"p":"0374A00122000000","a":"DEMMER AVE","m":"Forest Hills","u":"L","o":"individual","sf":2771,"v":7200}},{"type":"Feature","geometry":{"type":"Point","coordinates":[-79.84649,40.41258]},"properties":{"p":"0374A00133000000","a":"MARWOOD AVE","m":"Forest Hills","u":"L","o":"individual","sf":2888,"v":1000}},{"type":"Feature","geometry":{"type":"Point","coordinates":[-79.84349,40.41303]},"properties":{"p":"0374B00193000000","a":"AVENUE A","m":"Forest Hills","u":"L","o":"corp","sf":5164,"v":26000}},{"type":"Feature","geometry":{"type":"Point","coordinates":[-79.84663,40.41506]},"properties":{"p":"0373N00138000000","a":"ARDMORE BLVD","m":"Forest Hills","u":"L","o":"individual","sf":2074,"v":5000}},{"type":"Feature","geometry":{"type":"Point","coordinates":[-79.84686,40.41527]},"properties":{"p":"0373N00142000000","a":"ARDMORE BLVD","m":"Forest Hills","u":"L","o":"corp","sf":1576,"v":600}},{"type":"Feature","geometry":{"type":"Point","coordinates":[-79.84696,40.41539]},"properties":{"p":"0373N00144000000","a":"ARDMORE BLVD","m":"Forest Hills","u":"L","o":"individual","sf":1677,"v":600}},{"type":"Feature","geometry":{"type":"Point","coordinates":[-79.84787,40.41275]},"properties":{"p":"0374A00186000A00","a":"MARWOOD AVE","m":"Forest Hills","u":"L","o":"individual","sf":1312,"v":3400}},{"type":"Feature","geometry":{"type":"Point","coordinates":[-79.84768,40.41264]},"properties":{"p":"0374A00189000000","a":"MARWOOD AVE","m":"Forest Hills","u":"L","o":"corp","sf":2750,"v":7200}},{"type":"Feature","geometry":{"type":"Point","coordinates":[-79.84826,40.41388]},"properties":{"p":"0373N00219000000","a":"ROCKWOOD AVE","m":"Forest Hills","u":"L","o":"corp","sf":10704,"v":26500}},{"type":"Feature","geometry":{"type":"Point","coordinates":[-79.84192,40.41492]},"properties":{"p":"0373P00028000000","a":"SERVICE RD","m":"Forest Hills","u":"L","o":"individual","sf":1703,"v":4400}},{"type":"Feature","geometry":{"type":"Point","coordinates":[-79.84175,40.41476]},"properties":{"p":"0373P00030000000","a":"AVENUE F","m":"Forest Hills","u":"L","o":"individual","sf":5000,"v":13000}},{"type":"Feature","geometry":{"type":"Point","coordinates":[-79.84171,40.41466]},"properties":{"p":"0373P00031000000","a":"SERVICE RD","m":"Forest Hills","u":"L","o":"individual","sf":2500,"v":6500}},{"type":"Feature","geometry":{"type":"Point","coordinates":[-79.84166,40.41455]},"properties":{"p":"0373P00032000000","a":"AVENUE F","m":"Forest Hills","u":"L","o":"individual","sf":5000,"v":6500}},{"type":"Feature","geometry":{"type":"Point","coordinates":[-79.84166,40.41443]},"properties":{"p":"0373P00033000000","a":"SERVICE RD","m":"Forest Hills","u":"L","o":"individual","sf":5000,"v":6500}},{"type":"Feature","geometry":{"type":"Point","coordinates":[-79.84142,40.41426]},"properties":{"p":"0373P00035000000","a":"AVENUE F","m":"Forest Hills","u":"L","o":"corp","sf":7318,"v":13200}},{"type":"Feature","geometry":{"type":"Point","coordinates":[-79.84147,40.41406]},"properties":{"p":"0373P00036000000","a":"SERVICE RD","m":"Forest Hills","u":"L","o":"individual","sf":7500,"v":13200}},{"type":"Feature","geometry":{"type":"Point","coordinates":[-79.84866,40.41364]},"properties":{"p":"0374A00160000000","a":"25 MARWOOD AVE","m":"Forest Hills","u":"L","o":"individual","sf":787,"v":2100}},{"type":"Feature","geometry":{"type":"Point","coordinates":[-79.84881,40.41315]},"properties":{"p":"0374A00174000000","a":"MARWOOD AVE","m":"Forest Hills","u":"L","o":"individual","sf":5500,"v":6600}},{"type":"Feature","geometry":{"type":"Point","coordinates":[-79.84093,40.41261]},"properties":{"p":"0374C00229000000","a":"WEST ST","m":"Forest Hills","u":"L","o":"individual","sf":14983,"v":26900}},{"type":"Feature","geometry":{"type":"Point","coordinates":[-79.84141,40.41541]},"properties":{"p":"0373P00020000000","a":"SERVICE RD","m":"Forest Hills","u":"L","o":"individual","sf":5000,"v":1900}},{"type":"Feature","geometry":{"type":"Point","coordinates":[-79.8415,40.41533]},"properties":{"p":"0373P00021000000","a":"SERVICE RD","m":"Forest Hills","u":"L","o":"individual","sf":5000,"v":1700}},{"type":"Feature","geometry":{"type":"Point","coordinates":[-79.84159,40.41524]},"properties":{"p":"0373P00022000000","a":"AVENUE F","m":"Forest Hills","u":"L","o":"corp","sf":5000,"v":1700}},{"type":"Feature","geometry":{"type":"Point","coordinates":[-79.84169,40.41516]},"properties":{"p":"0373P00023000000","a":"AVENUE F","m":"Forest Hills","u":"L","o":"individual","sf":5000,"v":1700}},{"type":"Feature","geometry":{"type":"Point","coordinates":[-79.84177,40.41503]},"properties":{"p":"0373P00025000000","a":"AVENUE F","m":"Forest Hills","u":"L","o":"individual","sf":1703,"v":4400}},{"type":"Feature","geometry":{"type":"Point","coordinates":[-79.84192,40.41502]},"properties":{"p":"0373P00026000000","a":"SERVICE RD","m":"Forest Hills","u":"L","o":"individual","sf":1688,"v":4400}},{"type":"Feature","geometry":{"type":"Point","coordinates":[-79.84593,40.41307]},"properties":{"p":"0374A00057000000","a":"15 DEMMER AVE","m":"Forest Hills","u":"L","o":"individual","sf":2500,"v":6500}},{"type":"Feature","geometry":{"type":"Point","coordinates":[-79.846,40.41311]},"properties":{"p":"0374A00058000000","a":"213 ROCKWOOD AVE","m":"Forest Hills","u":"L","o":"corp","sf":2500,"v":6500}},{"type":"Feature","geometry":{"type":"Point","coordinates":[-79.84794,40.41371]},"properties":{"p":"0374A00092000000","a":"ROCKWOOD AVE","m":"Forest Hills","u":"L","o":"individual","sf":3348,"v":1200}},{"type":"Feature","geometry":{"type":"Point","coordinates":[-79.84694,40.41275]},"properties":{"p":"0374A00138000000","a":"MARWOOD AVE","m":"Forest Hills","u":"L","o":"individual","sf":2706,"v":7000}},{"type":"Feature","geometry":{"type":"Point","coordinates":[-79.84702,40.41279]},"properties":{"p":"0374A00139000000","a":"MARWOOD AVE","m":"Forest Hills","u":"L","o":"individual","sf":2750,"v":7200}},{"type":"Feature","geometry":{"type":"Point","coordinates":[-79.84709,40.41283]},"properties":{"p":"0374A00140000000","a":"MARWOOD AVE","m":"Forest Hills","u":"L","o":"individual","sf":2750,"v":7200}},{"type":"Feature","geometry":{"type":"Point","coordinates":[-79.8472,40.41289]},"properties":{"p":"0374A00142000000","a":"MARWOOD AVE","m":"Forest Hills","u":"L","o":"corp","sf":5500,"v":4000}},{"type":"Feature","geometry":{"type":"Point","coordinates":[-79.84821,40.4134]},"properties":{"p":"0374A00154000000","a":"MARWOOD AVE","m":"Forest Hills","u":"L","o":"individual","sf":5132,"v":26000}},{"type":"Feature","geometry":{"type":"Point","coordinates":[-79.84474,40.41377]},"properties":{"p":"0374B00216000000","a":"AVENUE B","m":"Forest Hills","u":"L","o":"individual","sf":4447,"v":1500}},{"type":"Feature","geometry":{"type":"Point","coordinates":[-79.8446,40.4137]},"properties":{"p":"0374B00218000000","a":"AVENUE A","m":"Forest Hills","u":"L","o":"individual","sf":4350,"v":1500}},{"type":"Feature","geometry":{"type":"Point","coordinates":[-79.84137,40.41435]},"properties":{"p":"0373P00001000000","a":"LEBEAU PIKE","m":"Forest Hills","u":"L","o":"corp","sf":17,"v":100}},{"type":"Feature","geometry":{"type":"Point","coordinates":[-79.8414,40.41462]},"properties":{"p":"0373P00006000000","a":"LEBEAU PIKE","m":"Forest Hills","u":"L","o":"individual","sf":2073,"v":6200}},{"type":"Feature","geometry":{"type":"Point","coordinates":[-79.84902,40.41235]},"properties":{"p":"0374A00282000000","a":"RADNOR AVE","m":"Forest Hills","u":"L","o":"individual","sf":17389,"v":27100}},{"type":"Feature","geometry":{"type":"Point","coordinates":[-79.84874,40.41203]},"properties":{"p":"0374A00287000000","a":"RADNOR AVE","m":"Forest Hills","u":"L","o":"individual","sf":21863,"v":20000}},{"type":"Feature","geometry":{"type":"Point","coordinates":[-79.84821,40.41196]},"properties":{"p":"0374A00293000000","a":"RADNOR AVE","m":"Forest Hills","u":"L","o":"individual","sf":4042,"v":1400}},{"type":"Feature","geometry":{"type":"Point","coordinates":[-79.84807,40.41193]},"properties":{"p":"0374A00294000000","a":"RADNOR AVE","m":"Forest Hills","u":"L","o":"corp","sf":4000,"v":1400}},{"type":"Feature","geometry":{"type":"Point","coordinates":[-79.84782,40.41196]},"properties":{"p":"0374A00296000000","a":"RADNOR AVE","m":"Forest Hills","u":"L","o":"individual","sf":5631,"v":26100}},{"type":"Feature","geometry":{"type":"Point","coordinates":[-79.84113,40.41234]},"properties":{"p":"0374B00028000000","a":"AVENUE G","m":"Forest Hills","u":"L","o":"corp","sf":4965,"v":12900}},{"type":"Feature","geometry":{"type":"Point","coordinates":[-79.84346,40.4186]},"properties":{"p":"0373K00245000000","a":"DECATUR AVE","m":"Forest Hills","u":"L","o":"individual","sf":6600,"v":2200}},{"type":"Feature","geometry":{"type":"Point","coordinates":[-79.84117,40.41412]},"properties":{"p":"0373R00050000000","a":"LEBEAU PIKE","m":"Forest Hills","u":"L","o":"corp","sf":5891,"v":15100}},{"type":"Feature","geometry":{"type":"Point","coordinates":[-79.84176,40.41292]},"properties":{"p":"0374B00079000000","a":"204 AVENUE F","m":"Forest Hills","u":"L","o":"individual","sf":4600,"v":12000}},{"type":"Feature","geometry":{"type":"Point","coordinates":[-79.84715,40.41211]},"properties":{"p":"0374A00250000000","a":"RADNOR AVE","m":"Forest Hills","u":"L","o":"corp","sf":9400,"v":13400}},{"type":"Feature","geometry":{"type":"Point","coordinates":[-79.84748,40.41217]},"properties":{"p":"0374A00253000000","a":"RADNOR AVE","m":"Forest Hills","u":"L","o":"individual","sf":2750,"v":1000}},{"type":"Feature","geometry":{"type":"Point","coordinates":[-79.84759,40.41222]},"properties":{"p":"0374A00255000000","a":"RADNOR AVE","m":"Forest Hills","u":"L","o":"individual","sf":5500,"v":26100}},{"type":"Feature","geometry":{"type":"Point","coordinates":[-79.84831,40.41258]},"properties":{"p":"0374A00266000000","a":"RADNOR AVE","m":"Forest Hills","u":"L","o":"individual","sf":16156,"v":27000}},{"type":"Feature","geometry":{"type":"Point","coordinates":[-79.84881,40.41281]},"properties":{"p":"0374A00269000000","a":"17 RADNOR AVE","m":"Forest Hills","u":"L","o":"individual","sf":2500,"v":900}},{"type":"Feature","geometry":{"type":"Point","coordinates":[-79.84893,40.41286]},"properties":{"p":"0374A00271000000","a":"9 RADNOR AVE","m":"Forest Hills","u":"L","o":"individual","sf":5500,"v":13100}},{"type":"Feature","geometry":{"type":"Point","coordinates":[-79.84345,40.42126]},"properties":{"p":"0373B00096000000","a":"BARCLAY AVE","m":"Forest Hills","u":"L","o":"individual","sf":1650,"v":4300}},{"type":"Feature","geometry":{"type":"Point","coordinates":[-79.84343,40.42122]},"properties":{"p":"0373B00098000000","a":"BARCLAY AVE","m":"Forest Hills","u":"L","o":"individual","sf":1650,"v":4300}},{"type":"Feature","geometry":{"type":"Point","coordinates":[-79.84337,40.42113]},"properties":{"p":"0373B00099000000","a":"BARCLAY AVE","m":"Forest Hills","u":"L","o":"individual","sf":6600,"v":13100}},{"type":"Feature","geometry":{"type":"Point","coordinates":[-79.84124,40.41282]},"properties":{"p":"0374B00058000000","a":"SERVICE RD","m":"Forest Hills","u":"L","o":"individual","sf":5000,"v":13000}},{"type":"Feature","geometry":{"type":"Point","coordinates":[-79.84124,40.41293]},"properties":{"p":"0374B00059000000","a":"SERVICE RD","m":"Forest Hills","u":"L","o":"individual","sf":5000,"v":13000}},{"type":"Feature","geometry":{"type":"Point","coordinates":[-79.84124,40.41304]},"properties":{"p":"0374B00060000000","a":"SERVICE RD","m":"Forest Hills","u":"L","o":"individual","sf":5000,"v":13000}},{"type":"Feature","geometry":{"type":"Point","coordinates":[-79.84124,40.41314]},"properties":{"p":"0374B00061000000","a":"AVENUE F","m":"Forest Hills","u":"L","o":"individual","sf":5000,"v":13000}},{"type":"Feature","geometry":{"type":"Point","coordinates":[-79.84125,40.41357]},"properties":{"p":"0374B00065000000","a":"AVENUE F","m":"Forest Hills","u":"L","o":"individual","sf":6456,"v":13100}},{"type":"Feature","geometry":{"type":"Point","coordinates":[-79.8413,40.41367]},"properties":{"p":"0374B00066000000","a":"AVENUE F","m":"Forest Hills","u":"L","o":"individual","sf":6048,"v":4000}},{"type":"Feature","geometry":{"type":"Point","coordinates":[-79.84137,40.41382]},"properties":{"p":"0374B00068000000","a":"SERVICE RD","m":"Forest Hills","u":"L","o":"individual","sf":6375,"v":13100}},{"type":"Feature","geometry":{"type":"Point","coordinates":[-79.84274,40.42094]},"properties":{"p":"0373F00206000000","a":"BARCLAY AVE","m":"Forest Hills","u":"L","o":"individual","sf":2400,"v":6200}},{"type":"Feature","geometry":{"type":"Point","coordinates":[-79.84191,40.41962]},"properties":{"p":"0373F00222000000","a":"BARCLAY AVE","m":"Forest Hills","u":"L","o":"individual","sf":3300,"v":8600}},{"type":"Feature","geometry":{"type":"Point","coordinates":[-79.84412,40.41859]},"properties":{"p":"0373K00226000000","a":"SUMNER AVE","m":"Forest Hills","u":"L","o":"individual","sf":3300,"v":1200}},{"type":"Feature","geometry":{"type":"Point","coordinates":[-79.84441,40.41848]},"properties":{"p":"0373K00229000000","a":"SUMNER AVE","m":"Forest Hills","u":"L","o":"corp","sf":3300,"v":1200}},{"type":"Feature","geometry":{"type":"Point","coordinates":[-79.84653,40.41218]},"properties":{"p":"0374A00202000000","a":"MARWOOD AVE","m":"Forest Hills","u":"L","o":"individual","sf":4051,"v":1400}},{"type":"Feature","geometry":{"type":"Point","coordinates":[-79.8459,40.41213]},"properties":{"p":"0374A00209000000","a":"MARWOOD AVE","m":"Forest Hills","u":"L","o":"individual","sf":3154,"v":1100}},{"type":"Feature","geometry":{"type":"Point","coordinates":[-79.84581,40.4121]},"properties":{"p":"0374A00210000000","a":"MARWOOD AVE","m":"Forest Hills","u":"L","o":"individual","sf":3392,"v":1200}},{"type":"Feature","geometry":{"type":"Point","coordinates":[-79.84549,40.41498]},"properties":{"p":"0373N00055000000","a":"221 AVENUE A","m":"Forest Hills","u":"L","o":"individual","sf":4018,"v":10500}},{"type":"Feature","geometry":{"type":"Point","coordinates":[-79.85985,40.42269]},"properties":{"p":"0300B00092000000","a":"FAIRFAX RD","m":"Forest Hills","u":"L","o":"individual","sf":9225,"v":17300}},{"type":"Feature","geometry":{"type":"Point","coordinates":[-79.84505,40.41107]},"properties":{"p":"0374E00050000000","a":"ARDMORE BLVD","m":"North Braddock","u":"L","o":"individual","sf":152329,"v":18000}},{"type":"Feature","geometry":{"type":"Point","coordinates":[-79.85294,40.4185]},"properties":{"p":"0300M00201000000","a":"CENTER ST","m":"Braddock Hills","u":"L","o":"individual","sf":65863,"v":25000}},{"type":"Feature","geometry":{"type":"Point","coordinates":[-79.85226,40.41777]},"properties":{"p":"0300M00230000000","a":"TRENTON AVE","m":"Braddock Hills","u":"L","o":"individual","sf":30264,"v":21700}},{"type":"Feature","geometry":{"type":"Point","coordinates":[-79.85196,40.41819]},"properties":{"p":"0300M00240000000","a":"TRENTON AVE","m":"Braddock Hills","u":"L","o":"individual","sf":29857,"v":21700}},{"type":"Feature","geometry":{"type":"Point","coordinates":[-79.85234,40.41835]},"properties":{"p":"0300M00250000000","a":"CENTER ST","m":"Braddock Hills","u":"L","o":"individual","sf":19667,"v":20700}},{"type":"Feature","geometry":{"type":"Point","coordinates":[-79.85823,40.42083]},"properties":{"p":"0300F00003000000","a":"ROXBURY RD","m":"Braddock Hills","u":"L","o":"individual","sf":7767,"v":700}},{"type":"Feature","geometry":{"type":"Point","coordinates":[-79.85837,40.42059]},"properties":{"p":"0300F00018000000","a":"ROXBURY RD","m":"Braddock Hills","u":"L","o":"individual","sf":600,"v":100}},{"type":"Feature","geometry":{"type":"Point","coordinates":[-79.85368,40.4174]},"properties":{"p":"0300L00071000000","a":"CENTER ST","m":"Braddock Hills","u":"L","o":"individual","sf":6386,"v":600}},{"type":"Feature","geometry":{"type":"Point","coordinates":[-79.85384,40.41747]},"properties":{"p":"0300L00074000000","a":"CENTER ST","m":"Braddock Hills","u":"L","o":"individual","sf":12360,"v":20100}},{"type":"Feature","geometry":{"type":"Point","coordinates":[-79.85817,40.41944]},"properties":{"p":"0300F00103000000","a":"JONES ST","m":"Braddock Hills","u":"L","o":"individual","sf":1321,"v":100}},{"type":"Feature","geometry":{"type":"Point","coordinates":[-79.85817,40.41961]},"properties":{"p":"0300F00106000000","a":"JONES ST","m":"Braddock Hills","u":"L","o":"individual","sf":1876,"v":200}},{"type":"Feature","geometry":{"type":"Point","coordinates":[-79.85869,40.41943]},"properties":{"p":"0300F00118000000","a":"BRINTON RD","m":"Braddock Hills","u":"L","o":"individual","sf":3080,"v":300}},{"type":"Feature","geometry":{"type":"Point","coordinates":[-79.85524,40.4191]},"properties":{"p":"0300G00250000000","a":"83 RIDGE RD","m":"Braddock Hills","u":"L","o":"individual","sf":90910,"v":27300}},{"type":"Feature","geometry":{"type":"Point","coordinates":[-79.85645,40.41899]},"properties":{"p":"0300G00265000000","a":"ORCHARD ST","m":"Braddock Hills","u":"L","o":"individual","sf":32626,"v":21900}},{"type":"Feature","geometry":{"type":"Point","coordinates":[-79.85621,40.4194]},"properties":{"p":"0300G00280000000","a":"RIDGE RD","m":"Braddock Hills","u":"L","o":"individual","sf":33000,"v":21900}},{"type":"Feature","geometry":{"type":"Point","coordinates":[-79.8565,40.41196]},"properties":{"p":"0301C00066000000","a":"YOST BLVD","m":"Braddock Hills","u":"L","o":"individual","sf":3000,"v":300}},{"type":"Feature","geometry":{"type":"Point","coordinates":[-79.85788,40.41105]},"properties":{"p":"0301F00010000000","a":"BRINTON RD","m":"Braddock Hills","u":"L","o":"individual","sf":30000,"v":21700}},{"type":"Feature","geometry":{"type":"Point","coordinates":[-79.85792,40.41014]},"properties":{"p":"0301F00017000000","a":"BEECH AVE","m":"Braddock Hills","u":"L","o":"individual","sf":36850,"v":22300}},{"type":"Feature","geometry":{"type":"Point","coordinates":[-79.85287,40.41703]},"properties":{"p":"0300M00186000000","a":"CENTER ST","m":"Braddock Hills","u":"L","o":"individual","sf":24000,"v":21100}},{"type":"Feature","geometry":{"type":"Point","coordinates":[-79.85871,40.42]},"properties":{"p":"0300F00054000000","a":"BRINTON RD","m":"Braddock Hills","u":"L","o":"individual","sf":5341,"v":500}},{"type":"Feature","geometry":{"type":"Point","coordinates":[-79.8593,40.42009]},"properties":{"p":"0300F00155000000","a":"BRINTON RD","m":"Braddock Hills","u":"L","o":"individual","sf":4995,"v":500}},{"type":"Feature","geometry":{"type":"Point","coordinates":[-79.85786,40.41171]},"properties":{"p":"0301B00010000000","a":"BRINTON RD","m":"Braddock Hills","u":"L","o":"individual","sf":10000,"v":18400}},{"type":"Feature","geometry":{"type":"Point","coordinates":[-79.85711,40.4117]},"properties":{"p":"0301C00020000000","a":"YOST BLVD","m":"Braddock Hills","u":"L","o":"corp","sf":61603,"v":24600}},{"type":"Feature","geometry":{"type":"Point","coordinates":[-79.85644,40.41175]},"properties":{"p":"0301C00064000000","a":"YOST BLVD","m":"Braddock Hills","u":"L","o":"individual","sf":12000,"v":20000}},{"type":"Feature","geometry":{"type":"Point","coordinates":[-79.85076,40.41424]},"properties":{"p":"0300S00001000000","a":"BRINTON RD","m":"Braddock Hills","u":"L","o":"corp","sf":17729,"v":20600}},{"type":"Feature","geometry":{"type":"Point","coordinates":[-79.85081,40.41568]},"properties":{"p":"0300S00150000000","a":"CENTER ST","m":"Braddock Hills","u":"L","o":"individual","sf":115434,"v":26600}},{"type":"Feature","geometry":{"type":"Point","coordinates":[-79.85069,40.41446]},"properties":{"p":"0300S00200000000","a":"MANOR DR","m":"Braddock Hills","u":"L","o":"corp","sf":5665,"v":500}},{"type":"Feature","geometry":{"type":"Point","coordinates":[-79.85126,40.41763]},"properties":{"p":"0300M00127000000","a":"20 LEE AVE","m":"Forest Hills","u":"L","o":"individual","sf":3000,"v":5600}},{"type":"Feature","geometry":{"type":"Point","coordinates":[-79.85154,40.4178]},"properties":{"p":"0300M00159000000","a":"TRENTON AVE","m":"Forest Hills","u":"L","o":"individual","sf":12000,"v":22600}},{"type":"Feature","geometry":{"type":"Point","coordinates":[-79.84312,40.4118]},"properties":{"p":"0374B00164000000","a":"AVENUE D","m":"Forest Hills","u":"L","o":"individual","sf":7330,"v":26200}},{"type":"Feature","geometry":{"type":"Point","coordinates":[-79.84296,40.42421]},"properties":{"p":"0372P00096000000","a":"GREENSBURG PIKE","m":"Wilkins","u":"L","o":"individual","sf":10200,"v":14800}},{"type":"Feature","geometry":{"type":"Point","coordinates":[-79.84869,40.4131]},"properties":{"p":"0374A00176000000","a":"MARWOOD AVE","m":"Forest Hills","u":"L","o":"individual","sf":2750,"v":1000}},{"type":"Feature","geometry":{"type":"Point","coordinates":[-79.84445,40.42671]},"properties":{"p":"0372K00211000000","a":"GREENSBURG PIKE","m":"Wilkins","u":"L","o":"individual","sf":3000,"v":2000}},{"type":"Feature","geometry":{"type":"Point","coordinates":[-79.84121,40.42372]},"properties":{"p":"0372P00165000000","a":"ALPINE BLVD","m":"Wilkins","u":"L","o":"individual","sf":1401,"v":100}},{"type":"Feature","geometry":{"type":"Point","coordinates":[-79.84682,40.42866]},"properties":{"p":"0372E00293000000","a":"GREENSBURG PIKE","m":"Wilkins","u":"L","o":"individual","sf":2358,"v":200}},{"type":"Feature","geometry":{"type":"Point","coordinates":[-79.84167,40.42505]},"properties":{"p":"0372P00144000000","a":"4039 MILLER ST","m":"Wilkins","u":"L","o":"individual","sf":4844,"v":3300}},{"type":"Feature","geometry":{"type":"Point","coordinates":[-79.8421,40.42566]},"properties":{"p":"0372P00306000000","a":"ELIZABETH ST","m":"Wilkins","u":"L","o":"individual","sf":1003,"v":100}},{"type":"Feature","geometry":{"type":"Point","coordinates":[-79.84099,40.42673]},"properties":{"p":"0372K00010000000","a":"ELIZABETH ST","m":"Wilkins","u":"L","o":"individual","sf":16751,"v":16400}},{"type":"Feature","geometry":{"type":"Point","coordinates":[-79.84275,40.42292]},"properties":{"p":"0373B00159000000","a":"GREENSBURG PIKE","m":"Wilkins","u":"L","o":"corp","sf":2178,"v":1500}},{"type":"Feature","geometry":{"type":"Point","coordinates":[-79.84327,40.4242]},"properties":{"p":"0372P00090000000","a":"GREENSBURG PIKE","m":"Wilkins","u":"L","o":"individual","sf":16462,"v":16400}},{"type":"Feature","geometry":{"type":"Point","coordinates":[-79.84248,40.42385]},"properties":{"p":"0372P00111000000","a":"ALPINE BLVD","m":"Wilkins","u":"L","o":"corp","sf":3500,"v":300}},{"type":"Feature","geometry":{"type":"Point","coordinates":[-79.84258,40.42218]},"properties":{"p":"0373B00172000000","a":"GREENSBURG PIKE","m":"Wilkins","u":"L","o":"individual","sf":11668,"v":15700}},{"type":"Feature","geometry":{"type":"Point","coordinates":[-79.84375,40.42805]},"properties":{"p":"0372K00085000000","a":"STEVENDALE DR","m":"Wilkins","u":"L","o":"individual","sf":2480,"v":200}},{"type":"Feature","geometry":{"type":"Point","coordinates":[-79.84324,40.42527]},"properties":{"p":"0372P00274000000","a":"DOWLING AVE","m":"Wilkins","u":"L","o":"individual","sf":4800,"v":3200}},{"type":"Feature","geometry":{"type":"Point","coordinates":[-79.84277,40.4259]},"properties":{"p":"0372P00299000000","a":"EDITH ST","m":"Wilkins","u":"L","o":"individual","sf":8722,"v":13800}},{"type":"Feature","geometry":{"type":"Point","coordinates":[-79.84177,40.42339]},"properties":{"p":"0373B00290000000","a":"MILLER ST","m":"Wilkins","u":"L","o":"individual","sf":2901,"v":9900}},{"type":"Feature","geometry":{"type":"Point","coordinates":[-79.84558,40.42488]},"properties":{"p":"0372N00052000000","a":"BARCLAY AVE","m":"Forest Hills","u":"L","o":"corp","sf":657,"v":300}},{"type":"Feature","geometry":{"type":"Point","coordinates":[-79.84504,40.4121]},"properties":{"p":"0374B00268000000","a":"ARDMORE BLVD","m":"North Braddock","u":"L","o":"corp","sf":17871,"v":5700}},{"type":"Feature","geometry":{"type":"Point","coordinates":[-79.84491,40.41505]},"properties":{"p":"0373P00242000000","a":"AVENUE L","m":"Forest Hills","u":"L","o":"corp","sf":1264,"v":400}},{"type":"Feature","geometry":{"type":"Point","coordinates":[-79.84093,40.41009]},"properties":{"p":"0374F00015000000","a":"LYNNWOOD AVE","m":"Chalfant","u":"L","o":"individual","sf":5500,"v":1600}},{"type":"Feature","geometry":{"type":"Point","coordinates":[-79.84124,40.4134]},"properties":{"p":"0374B00064000000","a":"AVENUE F","m":"Forest Hills","u":"L","o":"individual","sf":6125,"v":13100}},{"type":"Feature","geometry":{"type":"Point","coordinates":[-79.84699,40.4261]},"properties":{"p":"0372J00224000100","a":"BARCLAY AVE","m":"Forest Hills","u":"L","o":"individual","sf":3375,"v":10100}},{"type":"Feature","geometry":{"type":"Point","coordinates":[-79.84586,40.41986]},"properties":{"p":"0373E00061000000","a":"OGDEN AVE","m":"Forest Hills","u":"L","o":"individual","sf":3300,"v":1200}},{"type":"Feature","geometry":{"type":"Point","coordinates":[-79.85932,40.42936]},"properties":{"p":"0299F00096000000","a":"1025 SHERWOOD RD","m":"Forest Hills","u":"L","o":"individual","sf":92413,"v":47400}},{"type":"Feature","geometry":{"type":"Point","coordinates":[-79.84173,40.41431]},"properties":{"p":"0373P00034000000","a":"SERVICE RD","m":"Forest Hills","u":"L","o":"individual","sf":663,"v":1700}},{"type":"Feature","geometry":{"type":"Point","coordinates":[-79.84127,40.41133]},"properties":{"p":"0374F00047000000","a":"SHADELAND ST","m":"Chalfant","u":"L","o":"individual","sf":5500,"v":6100}},{"type":"Feature","geometry":{"type":"Point","coordinates":[-79.84299,40.42023]},"properties":{"p":"0373F00186000000","a":"LENOX AVE","m":"Forest Hills","u":"L","o":"corp","sf":1650,"v":4300}},{"type":"Feature","geometry":{"type":"Point","coordinates":[-79.84585,40.42078]},"properties":{"p":"0373E00043000000","a":"OGDEN AVE","m":"Forest Hills","u":"L","o":"individual","sf":3300,"v":8600}},{"type":"Feature","geometry":{"type":"Point","coordinates":[-79.84399,40.42132]},"properties":{"p":"0373B00081000000","a":"WINDSOR AVE","m":"Forest Hills","u":"L","o":"individual","sf":3300,"v":8600}},{"type":"Feature","geometry":{"type":"Point","coordinates":[-79.84175,40.41508]},"properties":{"p":"0373P00024000000","a":"SERVICE RD","m":"Forest Hills","u":"L","o":"individual","sf":1896,"v":4900}},{"type":"Feature","geometry":{"type":"Point","coordinates":[-79.84831,40.41198]},"properties":{"p":"0374A00292000000","a":"RADNOR AVE","m":"Forest Hills","u":"L","o":"individual","sf":5492,"v":1900}},{"type":"Feature","geometry":{"type":"Point","coordinates":[-79.84987,40.41614]},"properties":{"p":"0300S00059000000","a":"KENMORE AVE","m":"Forest Hills","u":"L","o":"individual","sf":3600,"v":6800}},{"type":"Feature","geometry":{"type":"Point","coordinates":[-79.84761,40.41261]},"properties":{"p":"0374A00190000000","a":"MARWOOD AVE","m":"Forest Hills","u":"L","o":"individual","sf":2750,"v":1000}},{"type":"Feature","geometry":{"type":"Point","coordinates":[-79.84142,40.41395]},"properties":{"p":"0373P00038000000","a":"SERVICE RD","m":"Forest Hills","u":"L","o":"individual","sf":5000,"v":1700}},{"type":"Feature","geometry":{"type":"Point","coordinates":[-79.84075,40.41059]},"properties":{"p":"0374G00298000000","a":"LYNNWOOD AVE","m":"Chalfant","u":"L","o":"individual","sf":5500,"v":12100}},{"type":"Feature","geometry":{"type":"Point","coordinates":[-79.84124,40.41326]},"properties":{"p":"0374B00062000000","a":"AVENUE F","m":"Forest Hills","u":"L","o":"individual","sf":6375,"v":13100}},{"type":"Feature","geometry":{"type":"Point","coordinates":[-79.84964,40.41401]},"properties":{"p":"0300S00012000000","a":"MARWOOD AVE","m":"Forest Hills","u":"L","o":"individual","sf":7519,"v":26200}},{"type":"Feature","geometry":{"type":"Point","coordinates":[-79.84453,40.42041]},"properties":{"p":"0373F00048000000","a":"DECATUR AVE","m":"Forest Hills","u":"L","o":"individual","sf":3300,"v":8600}},{"type":"Feature","geometry":{"type":"Point","coordinates":[-79.8517,40.41758]},"properties":{"p":"0300M00161000000","a":"TRENTON AVE","m":"Forest Hills","u":"L","o":"individual","sf":6000,"v":5100}},{"type":"Feature","geometry":{"type":"Point","coordinates":[-79.85733,40.4282]},"properties":{"p":"0299L00162000100","a":"BRADDOCK RD","m":"Forest Hills","u":"L","o":"individual","sf":4269,"v":3500}},{"type":"Feature","geometry":{"type":"Point","coordinates":[-79.84254,40.41922]},"properties":{"p":"0373F00140000200","a":"WINDSOR AVE","m":"Forest Hills","u":"B","o":"corp","sf":8982,"v":4300}},{"type":"Feature","geometry":{"type":"Point","coordinates":[-79.8435,40.41923]},"properties":{"p":"0373F00074000400","a":"WINDSOR AVE","m":"Forest Hills","u":"B","o":"corp","sf":10445,"v":4400}},{"type":"Feature","geometry":{"type":"Point","coordinates":[-79.84334,40.41894]},"properties":{"p":"0373F00074000500","a":"WINDSOR AVE","m":"Forest Hills","u":"B","o":"corp","sf":7697,"v":4100}},{"type":"Feature","geometry":{"type":"Point","coordinates":[-79.84241,40.41898]},"properties":{"p":"0373F00140000300","a":"WINDSOR AVE","m":"Forest Hills","u":"B","o":"corp","sf":8982,"v":4300}}]}