{"type":"FeatureCollection","features":[{"type":"Feature","geometry":{"type":"Point","coordinates":[-79.85429,40.49658]},"properties":{"p":"0292L00005000000","a":"BOYD AVE","m":"O''Hara","u":"I","o":"corp","sf":1064,"v":2700}},{"type":"Feature","geometry":{"type":"Point","coordinates":[-79.85515,40.49805]},"properties":{"p":"0292G00099000000","a":"FREEPORT RD","m":"O''Hara","u":"I","o":"corp","sf":9000,"v":16600}},{"type":"Feature","geometry":{"type":"Point","coordinates":[-79.85331,40.49784]},"properties":{"p":"0292H00040000000","a":"BOYD AVE","m":"O''Hara","u":"I","o":"corp","sf":23604,"v":43400}},{"type":"Feature","geometry":{"type":"Point","coordinates":[-79.85719,40.49431]},"properties":{"p":"0292L00250000000","a":"FOUNTAIN ST","m":"Blawnox","u":"I","o":"corp","sf":4487,"v":5600}},{"type":"Feature","geometry":{"type":"Point","coordinates":[-79.85955,40.49531]},"properties":{"p":"0292K00173000000","a":"WALNUT ST","m":"Blawnox","u":"C","o":"corp","sf":7200,"v":45000}},{"type":"Feature","geometry":{"type":"Point","coordinates":[-79.85586,40.49687]},"properties":{"p":"0292G00236000000","a":"FREEPORT RD","m":"Blawnox","u":"C","o":"corp","sf":26950,"v":22000}},{"type":"Feature","geometry":{"type":"Point","coordinates":[-79.8433,40.50939]},"properties":{"p":"0364F00282000000","a":"ALLEGHENY RIVER BLVD","m":"Verona","u":"C","o":"corp","sf":107332,"v":38600}},{"type":"Feature","geometry":{"type":"Point","coordinates":[-79.84522,40.50643]},"properties":{"p":"0364K00500000000","a":"W RAILROAD AVE","m":"Verona","u":"C","o":"corp","sf":5739,"v":4000}},{"type":"Feature","geometry":{"type":"Point","coordinates":[-79.8411,40.50357]},"properties":{"p":"0364R00046000100","a":"450 WILDWOOD AVE","m":"Verona","u":"C","o":"individual","sf":491,"v":700}},{"type":"Feature","geometry":{"type":"Point","coordinates":[-79.84254,40.50766]},"properties":{"p":"0364F00167000000","a":"ALLEGHENY RIVER BLVD","m":"Verona","u":"C","o":"corp","sf":200,"v":100}},{"type":"Feature","geometry":{"type":"Point","coordinates":[-79.84401,40.50463]},"properties":{"p":"0364K00057000000","a":"E RAILROAD AVE","m":"Verona","u":"C","o":"corp","sf":10750,"v":30700}},{"type":"Feature","geometry":{"type":"Point","coordinates":[-79.8442,40.50898]},"properties":{"p":"0364B00045000000","a":"JAMES ST","m":"Verona","u":"C","o":"corp","sf":43560,"v":13900}},{"type":"Feature","geometry":{"type":"Point","coordinates":[-79.84395,40.50875]},"properties":{"p":"0364B00065000000","a":"ALLEGHENY RIVER BLVD","m":"Verona","u":"C","o":"corp","sf":104980,"v":37800}},{"type":"Feature","geometry":{"type":"Point","coordinates":[-79.8434,40.5052]},"properties":{"p":"0364K00149000000","a":"ALLEGHENY RIVER BLVD","m":"Verona","u":"C","o":"individual","sf":6305,"v":21800}},{"type":"Feature","geometry":{"type":"Point","coordinates":[-79.8518,40.50645]},"properties":{"p":"0291H00078000000","a":"FREEPORT RD","m":"O''Hara","u":"C","o":"corp","sf":6363,"v":3600}},{"type":"Feature","geometry":{"type":"Point","coordinates":[-79.851,40.50158]},"properties":{"p":"0291S00164000000","a":"RIVER RD","m":"O''Hara","u":"C","o":"corp","sf":5030,"v":2500}},{"type":"Feature","geometry":{"type":"Point","coordinates":[-79.85273,40.5001]},"properties":{"p":"0292D00086000000","a":"FREEPORT RD","m":"O''Hara","u":"C","o":"corp","sf":20691,"v":151700}},{"type":"Feature","geometry":{"type":"Point","coordinates":[-79.85121,40.50134]},"properties":{"p":"0292D00110000000","a":"RIVER RD","m":"O''Hara","u":"C","o":"corp","sf":36800,"v":50800}},{"type":"Feature","geometry":{"type":"Point","coordinates":[-79.85131,40.50077]},"properties":{"p":"0292D00120000000","a":"RIVER RD","m":"O''Hara","u":"C","o":"corp","sf":65192,"v":89800}},{"type":"Feature","geometry":{"type":"Point","coordinates":[-79.85192,40.50007]},"properties":{"p":"0292D00200000000","a":"FREEPORT RD","m":"O''Hara","u":"C","o":"corp","sf":18125,"v":21800}},{"type":"Feature","geometry":{"type":"Point","coordinates":[-79.84098,40.50337]},"properties":{"p":"0364R00043000000","a":"WILDWOOD AVE","m":"Penn Hills","u":"C","o":"individual","sf":4001,"v":1000}},{"type":"Feature","geometry":{"type":"Point","coordinates":[-79.84126,40.50337]},"properties":{"p":"0364R00045000000","a":"WILDWOOD AVE","m":"Penn Hills","u":"C","o":"individual","sf":7030,"v":1800}},{"type":"Feature","geometry":{"type":"Point","coordinates":[-79.84091,40.50361]},"properties":{"p":"0364R00048000000","a":"450 WILDWOOD AVE","m":"Penn Hills","u":"C","o":"individual","sf":2597,"v":700}},{"type":"Feature","geometry":{"type":"Point","coordinates":[-79.84345,40.49977]},"properties":{"p":"0365B00143000100","a":"ALLEGHENY RIVER BLVD","m":"Penn Hills","u":"C","o":"corp","sf":2430,"v":3900}},{"type":"Feature","geometry":{"type":"Point","coordinates":[-79.84425,40.49728]},"properties":{"p":"0365F00325000200","a":"ALLEGHENY RIVER BLVD","m":"Penn Hills","u":"C","o":"corp","sf":3729,"v":1000}},{"type":"Feature","geometry":{"type":"Point","coordinates":[-79.84068,40.49258]},"properties":{"p":"0365P00026000000","a":"5741 3RD ST","m":"Penn Hills","u":"C","o":"corp","sf":742262,"v":51100}},{"type":"Feature","geometry":{"type":"Point","coordinates":[-79.84104,40.50361]},"properties":{"p":"0364R00049000000","a":"450 WILDWOOD AVE","m":"Verona","u":"C","o":"individual","sf":2306,"v":3000}},{"type":"Feature","geometry":{"type":"Point","coordinates":[-79.85167,40.50041]},"properties":{"p":"0292D00124000000","a":"RIVER RD","m":"O''Hara","u":"C","o":"corp","sf":8750,"v":3500}},{"type":"Feature","geometry":{"type":"Point","coordinates":[-79.8565,40.49153]},"properties":{"p":"0292R00010000000","a":"SYCAMORE ISLAND","m":"Blawnox","u":"L","o":"corp","sf":263233,"v":20900}},{"type":"Feature","geometry":{"type":"Point","coordinates":[-79.85964,40.49397]},"properties":{"p":"0292P00134000000","a":"BIRCH ST","m":"Blawnox","u":"L","o":"individual","sf":2200,"v":4400}},{"type":"Feature","geometry":{"type":"Point","coordinates":[-79.85819,40.49441]},"properties":{"p":"0292K00091000000","a":"JACKSON ST","m":"Blawnox","u":"L","o":"corp","sf":1345,"v":500}},{"type":"Feature","geometry":{"type":"Point","coordinates":[-79.85716,40.4977]},"properties":{"p":"0292G00180000000","a":"WALNUT ST","m":"Blawnox","u":"L","o":"individual","sf":3125,"v":1200}},{"type":"Feature","geometry":{"type":"Point","coordinates":[-79.84553,40.50028]},"properties":{"p":"0365B00025000000","a":"W RAILROAD AVE","m":"Verona","u":"L","o":"individual","sf":2500,"v":9000}},{"type":"Feature","geometry":{"type":"Point","coordinates":[-79.84157,40.50792]},"properties":{"p":"0364F00079000000","a":"403 PARKER ST","m":"Verona","u":"L","o":"individual","sf":2500,"v":5000}},{"type":"Feature","geometry":{"type":"Point","coordinates":[-79.84168,40.50814]},"properties":{"p":"0364F00089000000","a":"HIGH ST","m":"Verona","u":"L","o":"individual","sf":1883,"v":700}},{"type":"Feature","geometry":{"type":"Point","coordinates":[-79.8435,40.50093]},"properties":{"p":"0365B00159000000","a":"403 JONES ST","m":"Verona","u":"L","o":"corp","sf":2925,"v":900}},{"type":"Feature","geometry":{"type":"Point","coordinates":[-79.84644,40.50225]},"properties":{"p":"0364N00075000000","a":"147 GRANT ST","m":"Verona","u":"L","o":"individual","sf":2760,"v":900}},{"type":"Feature","geometry":{"type":"Point","coordinates":[-79.84431,40.50242]},"properties":{"p":"0364P00312000000","a":"E RAILROAD AVE","m":"Verona","u":"L","o":"individual","sf":2800,"v":500}},{"type":"Feature","geometry":{"type":"Point","coordinates":[-79.8468,40.49788]},"properties":{"p":"0365E00078000000","a":"PENN ST","m":"Verona","u":"L","o":"corp","sf":2500,"v":3000}},{"type":"Feature","geometry":{"type":"Point","coordinates":[-79.84673,40.4985]},"properties":{"p":"0365E00086000000","a":"PENN ST","m":"Verona","u":"L","o":"individual","sf":2500,"v":3000}},{"type":"Feature","geometry":{"type":"Point","coordinates":[-79.84436,40.502]},"properties":{"p":"0364P00324000000","a":"E RAILROAD AVE","m":"Verona","u":"L","o":"corp","sf":2530,"v":3000}},{"type":"Feature","geometry":{"type":"Point","coordinates":[-79.84581,40.50088]},"properties":{"p":"0365A00047000000","a":"FAIRVIEW AVE","m":"Verona","u":"L","o":"individual","sf":5000,"v":1500}},{"type":"Feature","geometry":{"type":"Point","coordinates":[-79.84375,40.50314]},"properties":{"p":"0364P00234000000","a":"530 JONES ST","m":"Verona","u":"L","o":"corp","sf":3000,"v":3600}},{"type":"Feature","geometry":{"type":"Point","coordinates":[-79.84374,40.50321]},"properties":{"p":"0364P00236000000","a":"530 JONES ST","m":"Verona","u":"L","o":"corp","sf":2987,"v":3600}},{"type":"Feature","geometry":{"type":"Point","coordinates":[-79.84235,40.50679]},"properties":{"p":"0364F00025000000","a":"CENTER AVE","m":"Verona","u":"L","o":"corp","sf":2500,"v":900}},{"type":"Feature","geometry":{"type":"Point","coordinates":[-79.84569,40.49901]},"properties":{"p":"0365F00393000000","a":"W RAILROAD AVE","m":"Verona","u":"L","o":"corp","sf":5000,"v":1500}},{"type":"Feature","geometry":{"type":"Point","coordinates":[-79.84602,40.49648]},"properties":{"p":"0365J00015000000","a":"SYLVAN ST","m":"Verona","u":"L","o":"corp","sf":8956,"v":6400}},{"type":"Feature","geometry":{"type":"Point","coordinates":[-79.84537,40.5016]},"properties":{"p":"0365B00006000000","a":"428 W RAILROAD AVE","m":"Verona","u":"L","o":"corp","sf":5000,"v":1500}},{"type":"Feature","geometry":{"type":"Point","coordinates":[-79.84173,40.50591]},"properties":{"p":"0364K00280000000","a":"RIVERVIEW RD","m":"Verona","u":"L","o":"individual","sf":3840,"v":7700}},{"type":"Feature","geometry":{"type":"Point","coordinates":[-79.84183,40.50628]},"properties":{"p":"0364K00287000000","a":"BRUNOT ST","m":"Verona","u":"L","o":"individual","sf":250,"v":200}},{"type":"Feature","geometry":{"type":"Point","coordinates":[-79.84353,40.5007]},"properties":{"p":"0365B00156000000","a":"JONES ST","m":"Verona","u":"L","o":"corp","sf":4992,"v":6000}},{"type":"Feature","geometry":{"type":"Point","coordinates":[-79.84631,40.50317]},"properties":{"p":"0364N00052000000","a":"PENN ST","m":"Verona","u":"L","o":"individual","sf":2376,"v":13300}},{"type":"Feature","geometry":{"type":"Point","coordinates":[-79.84632,40.5031]},"properties":{"p":"0364N00053000000","a":"PENN ST","m":"Verona","u":"L","o":"individual","sf":4177,"v":16500}},{"type":"Feature","geometry":{"type":"Point","coordinates":[-79.84632,40.50304]},"properties":{"p":"0364N00054000000","a":"PENN ST","m":"Verona","u":"L","o":"individual","sf":2376,"v":800}},{"type":"Feature","geometry":{"type":"Point","coordinates":[-79.84426,40.50283]},"properties":{"p":"0364P00300000000","a":"E RAILROAD AVE","m":"Verona","u":"L","o":"individual","sf":2650,"v":9200}},{"type":"Feature","geometry":{"type":"Point","coordinates":[-79.84625,40.49785]},"properties":{"p":"0365E00059000000","a":"PENN ST","m":"Verona","u":"L","o":"individual","sf":7500,"v":2200}},{"type":"Feature","geometry":{"type":"Point","coordinates":[-79.84681,40.49781]},"properties":{"p":"0365E00077000000","a":"PENN ST","m":"Verona","u":"L","o":"corp","sf":2500,"v":3000}},{"type":"Feature","geometry":{"type":"Point","coordinates":[-79.8458,40.50164]},"properties":{"p":"0365A00033000000","a":"PENN ST","m":"Verona","u":"L","o":"individual","sf":5000,"v":6000}},{"type":"Feature","geometry":{"type":"Point","coordinates":[-79.84163,40.50888]},"properties":{"p":"0364F00118000000","a":"NORTH AVE","m":"Verona","u":"L","o":"individual","sf":5140,"v":1700}},{"type":"Feature","geometry":{"type":"Point","coordinates":[-79.84641,40.50116]},"properties":{"p":"0365A00088000000","a":"PENN ST","m":"Verona","u":"L","o":"individual","sf":2500,"v":800}},{"type":"Feature","geometry":{"type":"Point","coordinates":[-79.84565,40.50303]},"properties":{"p":"0364N00018000000","a":"PENN ST","m":"Verona","u":"L","o":"individual","sf":4800,"v":1400}},{"type":"Feature","geometry":{"type":"Point","coordinates":[-79.84371,40.50407]},"properties":{"p":"0364P00248000000","a":"JAMES ST","m":"Verona","u":"L","o":"corp","sf":3230,"v":1000}},{"type":"Feature","geometry":{"type":"Point","coordinates":[-79.84149,40.50396]},"properties":{"p":"0364P00143000000","a":"446 SCHOOL ST","m":"Verona","u":"L","o":"individual","sf":2850,"v":5700}},{"type":"Feature","geometry":{"type":"Point","coordinates":[-79.84093,40.50399]},"properties":{"p":"0364R00062000000","a":"WILDWOOD AVE","m":"Verona","u":"L","o":"corp","sf":4680,"v":1600}},{"type":"Feature","geometry":{"type":"Point","coordinates":[-79.84023,40.50398]},"properties":{"p":"0364R00082000000","a":"VOGELS LN","m":"Verona","u":"L","o":"individual","sf":3428,"v":1200}},{"type":"Feature","geometry":{"type":"Point","coordinates":[-79.84603,40.49975]},"properties":{"p":"0365A00058000000","a":"PENN ST","m":"Verona","u":"L","o":"individual","sf":2500,"v":9000}},{"type":"Feature","geometry":{"type":"Point","coordinates":[-79.85374,40.50352]},"properties":{"p":"0291S00008000000","a":"LAWRENCE AVE","m":"O''Hara","u":"L","o":"individual","sf":5850,"v":800}},{"type":"Feature","geometry":{"type":"Point","coordinates":[-79.85361,40.50343]},"properties":{"p":"0291S00010000000","a":"LAWRENCE AVE","m":"O''Hara","u":"L","o":"individual","sf":5850,"v":800}},{"type":"Feature","geometry":{"type":"Point","coordinates":[-79.8585,40.50437]},"properties":{"p":"0291K00027000000","a":"LIVINGSTON AVE","m":"O''Hara","u":"L","o":"individual","sf":3250,"v":400}},{"type":"Feature","geometry":{"type":"Point","coordinates":[-79.85391,40.50209]},"properties":{"p":"0291R00062000000","a":"OXFORD AVE","m":"O''Hara","u":"L","o":"individual","sf":6999,"v":900}},{"type":"Feature","geometry":{"type":"Point","coordinates":[-79.85418,40.50229]},"properties":{"p":"0291R00065000000","a":"NEILSON AVE","m":"O''Hara","u":"L","o":"individual","sf":5750,"v":800}},{"type":"Feature","geometry":{"type":"Point","coordinates":[-79.85428,40.50236]},"properties":{"p":"0291R00066000000","a":"NEILSON AVE","m":"O''Hara","u":"L","o":"individual","sf":2675,"v":400}},{"type":"Feature","geometry":{"type":"Point","coordinates":[-79.85441,40.50246]},"properties":{"p":"0291R00069000000","a":"NEILSON AVE","m":"O''Hara","u":"L","o":"individual","sf":8025,"v":1000}},{"type":"Feature","geometry":{"type":"Point","coordinates":[-79.85457,40.50258]},"properties":{"p":"0291R00071000000","a":"NEILSON AVE","m":"O''Hara","u":"L","o":"individual","sf":5350,"v":700}},{"type":"Feature","geometry":{"type":"Point","coordinates":[-79.8547,40.50267]},"properties":{"p":"0291R00073000000","a":"NEILSON AVE","m":"O''Hara","u":"L","o":"individual","sf":5350,"v":700}},{"type":"Feature","geometry":{"type":"Point","coordinates":[-79.85509,40.50399]},"properties":{"p":"0291L00247000000","a":"CENTRAL AVE","m":"O''Hara","u":"L","o":"corp","sf":12500,"v":27600}},{"type":"Feature","geometry":{"type":"Point","coordinates":[-79.85402,40.49953]},"properties":{"p":"0292C00158000000","a":"E 1ST ST","m":"O''Hara","u":"L","o":"individual","sf":3125,"v":400}},{"type":"Feature","geometry":{"type":"Point","coordinates":[-79.85564,40.5059]},"properties":{"p":"0291L00028000000","a":"LAWRENCE AVE","m":"O''Hara","u":"L","o":"individual","sf":3262,"v":400}},{"type":"Feature","geometry":{"type":"Point","coordinates":[-79.852,40.50247]},"properties":{"p":"0291S00114000000","a":"LINDEN AVE","m":"O''Hara","u":"L","o":"individual","sf":5088,"v":700}},{"type":"Feature","geometry":{"type":"Point","coordinates":[-79.85174,40.50293]},"properties":{"p":"0291S00116000000","a":"LINDEN AVE","m":"O''Hara","u":"L","o":"individual","sf":18287,"v":2400}},{"type":"Feature","geometry":{"type":"Point","coordinates":[-79.85264,40.50152]},"properties":{"p":"0292D00067000000","a":"CLIFTON AVE","m":"O''Hara","u":"L","o":"individual","sf":24412,"v":56600}},{"type":"Feature","geometry":{"type":"Point","coordinates":[-79.85149,40.49798]},"properties":{"p":"0292H00250000000","a":"1 RIVER RD","m":"O''Hara","u":"L","o":"corp","sf":70419,"v":101600}},{"type":"Feature","geometry":{"type":"Point","coordinates":[-79.85687,40.50856]},"properties":{"p":"0291G00016000000","a":"231 CAMBERWELL DR","m":"O''Hara","u":"L","o":"individual","sf":4501,"v":600}},{"type":"Feature","geometry":{"type":"Point","coordinates":[-79.85538,40.50832]},"properties":{"p":"0291G00076000000","a":"POWERS RUN RD","m":"O''Hara","u":"L","o":"individual","sf":29234,"v":57200}},{"type":"Feature","geometry":{"type":"Point","coordinates":[-79.85277,40.50736]},"properties":{"p":"0291H00055000000","a":"POWERS RUN RD","m":"O''Hara","u":"L","o":"corp","sf":9861,"v":1300}},{"type":"Feature","geometry":{"type":"Point","coordinates":[-79.85227,40.50723]},"properties":{"p":"0291H00060000000","a":"POWERS RUN RD","m":"O''Hara","u":"L","o":"corp","sf":6844,"v":900}},{"type":"Feature","geometry":{"type":"Point","coordinates":[-79.85656,40.50922]},"properties":{"p":"0291C00138000000","a":"308 ORCHARD DR","m":"O''Hara","u":"L","o":"individual","sf":5500,"v":700}},{"type":"Feature","geometry":{"type":"Point","coordinates":[-79.85562,40.50429]},"properties":{"p":"0291L00201000000","a":"CENTRAL AVE","m":"O''Hara","u":"L","o":"individual","sf":6250,"v":800}},{"type":"Feature","geometry":{"type":"Point","coordinates":[-79.85448,40.50299]},"properties":{"p":"0291R00045000000","a":"CLIFFORD AVE","m":"O''Hara","u":"L","o":"individual","sf":2675,"v":400}},{"type":"Feature","geometry":{"type":"Point","coordinates":[-79.854,40.50263]},"properties":{"p":"0291R00052000000","a":"CLIFFORD AVE","m":"O''Hara","u":"L","o":"individual","sf":5350,"v":3700}},{"type":"Feature","geometry":{"type":"Point","coordinates":[-79.8532,40.50222]},"properties":{"p":"0291S00038000000","a":"OXFORD AVE","m":"O''Hara","u":"L","o":"individual","sf":6936,"v":900}},{"type":"Feature","geometry":{"type":"Point","coordinates":[-79.8541,40.50184]},"properties":{"p":"0291R00114000000","a":"OXFORD AVE","m":"O''Hara","u":"L","o":"individual","sf":2750,"v":400}},{"type":"Feature","geometry":{"type":"Point","coordinates":[-79.85217,40.50317]},"properties":{"p":"0291S00083000000","a":"LINDEN AVE","m":"O''Hara","u":"L","o":"individual","sf":7700,"v":13200}},{"type":"Feature","geometry":{"type":"Point","coordinates":[-79.85501,40.49703]},"properties":{"p":"0292G00060000000","a":"LEWIS AVE","m":"O''Hara","u":"L","o":"individual","sf":11000,"v":1400}},{"type":"Feature","geometry":{"type":"Point","coordinates":[-79.8546,40.49734]},"properties":{"p":"0292G00064000000","a":"BOYD AVE","m":"O''Hara","u":"L","o":"individual","sf":24750,"v":56600}},{"type":"Feature","geometry":{"type":"Point","coordinates":[-79.85542,40.49719]},"properties":{"p":"0292G00087000000","a":"FREEPORT RD","m":"O''Hara","u":"L","o":"individual","sf":2625,"v":300}},{"type":"Feature","geometry":{"type":"Point","coordinates":[-79.85281,40.51]},"properties":{"p":"0291D00032000000","a":"FREEPORT RD","m":"O''Hara","u":"L","o":"individual","sf":17900,"v":2300}},{"type":"Feature","geometry":{"type":"Point","coordinates":[-79.85275,40.50979]},"properties":{"p":"0291D00036000000","a":"FREEPORT RD","m":"O''Hara","u":"L","o":"individual","sf":52490,"v":60100}},{"type":"Feature","geometry":{"type":"Point","coordinates":[-79.8527,40.50942]},"properties":{"p":"0291D00042000000","a":"FREEPORT RD","m":"O''Hara","u":"L","o":"individual","sf":32950,"v":57700}},{"type":"Feature","geometry":{"type":"Point","coordinates":[-79.85266,40.50916]},"properties":{"p":"0291D00048000000","a":"FREEPORT RD","m":"O''Hara","u":"L","o":"individual","sf":20522,"v":56100}},{"type":"Feature","geometry":{"type":"Point","coordinates":[-79.85248,40.50894]},"properties":{"p":"0291D00052000000","a":"FREEPORT RD","m":"O''Hara","u":"L","o":"individual","sf":22853,"v":56400}},{"type":"Feature","geometry":{"type":"Point","coordinates":[-79.85263,40.50226]},"properties":{"p":"0291S00168000000","a":"LINDEN AVE","m":"O''Hara","u":"L","o":"individual","sf":2790,"v":400}},{"type":"Feature","geometry":{"type":"Point","coordinates":[-79.85279,40.50211]},"properties":{"p":"0291S00171000000","a":"LINDEN AVE","m":"O''Hara","u":"L","o":"individual","sf":1809,"v":200}},{"type":"Feature","geometry":{"type":"Point","coordinates":[-79.85279,40.50197]},"properties":{"p":"0291S00172000000","a":"LINDEN AVE","m":"O''Hara","u":"L","o":"individual","sf":3148,"v":400}},{"type":"Feature","geometry":{"type":"Point","coordinates":[-79.85671,40.50523]},"properties":{"p":"0291L00114000000","a":"CLIFFORD AVE","m":"O''Hara","u":"L","o":"corp","sf":17550,"v":900}},{"type":"Feature","geometry":{"type":"Point","coordinates":[-79.85709,40.50551]},"properties":{"p":"0291L00120000000","a":"CLIFFORD AVE","m":"O''Hara","u":"L","o":"corp","sf":17550,"v":28200}},{"type":"Feature","geometry":{"type":"Point","coordinates":[-79.85914,40.50693]},"properties":{"p":"0291F00030000000","a":"HOLLAND DR","m":"O''Hara","u":"L","o":"corp","sf":135036,"v":70500}},{"type":"Feature","geometry":{"type":"Point","coordinates":[-79.85383,40.50359]},"properties":{"p":"0291R00012000000","a":"LAWRENCE AVE","m":"O''Hara","u":"L","o":"individual","sf":2925,"v":400}},{"type":"Feature","geometry":{"type":"Point","coordinates":[-79.85397,40.50319]},"properties":{"p":"0291R00019000000","a":"CLIFFORD AVE","m":"O''Hara","u":"L","o":"individual","sf":2925,"v":400}},{"type":"Feature","geometry":{"type":"Point","coordinates":[-79.85404,40.50324]},"properties":{"p":"0291R00020000000","a":"CLIFFORD AVE","m":"O''Hara","u":"L","o":"individual","sf":2925,"v":400}},{"type":"Feature","geometry":{"type":"Point","coordinates":[-79.85688,40.50371]},"properties":{"p":"0291R00275000000","a":"NEILSON AVE","m":"O''Hara","u":"L","o":"individual","sf":6000,"v":800}},{"type":"Feature","geometry":{"type":"Point","coordinates":[-79.85468,40.50372]},"properties":{"p":"0291R00030000000","a":"CLIFFORD AVE","m":"O''Hara","u":"L","o":"individual","sf":2925,"v":400}},{"type":"Feature","geometry":{"type":"Point","coordinates":[-79.85953,40.50611]},"properties":{"p":"0291K00085000000","a":"HAYS ST","m":"O''Hara","u":"L","o":"individual","sf":1093,"v":4500}},{"type":"Feature","geometry":{"type":"Point","coordinates":[-79.8595,40.50597]},"properties":{"p":"0291K00100000000","a":"HAYS ST","m":"O''Hara","u":"L","o":"individual","sf":11753,"v":10200}},{"type":"Feature","geometry":{"type":"Point","coordinates":[-79.85511,40.50239]},"properties":{"p":"0291R00097000000","a":"RIVERVIEW AVE","m":"O''Hara","u":"L","o":"individual","sf":3000,"v":400}},{"type":"Feature","geometry":{"type":"Point","coordinates":[-79.85505,40.50234]},"properties":{"p":"0291R00098000000","a":"RIVERVIEW AVE","m":"O''Hara","u":"L","o":"individual","sf":3000,"v":400}},{"type":"Feature","geometry":{"type":"Point","coordinates":[-79.85443,40.50406]},"properties":{"p":"0291L00248000000","a":"LAWRENCE AVE","m":"O''Hara","u":"L","o":"individual","sf":5850,"v":800}},{"type":"Feature","geometry":{"type":"Point","coordinates":[-79.85438,40.50395]},"properties":{"p":"0291L00250000000","a":"LAWRENCE AVE","m":"O''Hara","u":"L","o":"individual","sf":2925,"v":400}},{"type":"Feature","geometry":{"type":"Point","coordinates":[-79.85428,40.50393]},"properties":{"p":"0291L00251000000","a":"LAWRENCE AVE","m":"O''Hara","u":"L","o":"individual","sf":2925,"v":400}},{"type":"Feature","geometry":{"type":"Point","coordinates":[-79.85959,40.50999]},"properties":{"p":"0291B00049000000","a":"CAMBERWELL DR","m":"O''Hara","u":"L","o":"individual","sf":27520,"v":3600}},{"type":"Feature","geometry":{"type":"Point","coordinates":[-79.8532,40.50409]},"properties":{"p":"0291M00038000000","a":"LAWRENCE AVE","m":"O''Hara","u":"L","o":"individual","sf":20335,"v":15000}},{"type":"Feature","geometry":{"type":"Point","coordinates":[-79.85172,40.50504]},"properties":{"p":"0291M00060000000","a":"FREEPORT RD","m":"O''Hara","u":"L","o":"individual","sf":21033,"v":56100}},{"type":"Feature","geometry":{"type":"Point","coordinates":[-79.85223,40.50525]},"properties":{"p":"0291M00070000000","a":"FREEPORT RD","m":"O''Hara","u":"L","o":"individual","sf":69260,"v":62200}},{"type":"Feature","geometry":{"type":"Point","coordinates":[-79.85248,40.50264]},"properties":{"p":"0291S00166000000","a":"LINDEN AVE","m":"O''Hara","u":"L","o":"individual","sf":3769,"v":500}},{"type":"Feature","geometry":{"type":"Point","coordinates":[-79.85261,40.50232]},"properties":{"p":"0291S00167000000","a":"LINDEN AVE","m":"O''Hara","u":"L","o":"individual","sf":3117,"v":400}},{"type":"Feature","geometry":{"type":"Point","coordinates":[-79.85535,40.50379]},"properties":{"p":"0291R00228000000","a":"224 CENTRAL AVE","m":"O''Hara","u":"L","o":"individual","sf":3125,"v":500}},{"type":"Feature","geometry":{"type":"Point","coordinates":[-79.8561,40.50386]},"properties":{"p":"0291R00230000000","a":"CENTRAL AVE","m":"O''Hara","u":"L","o":"individual","sf":3125,"v":400}},{"type":"Feature","geometry":{"type":"Point","coordinates":[-79.85678,40.50335]},"properties":{"p":"0291R00239000000","a":"CENTRAL AVE","m":"O''Hara","u":"L","o":"individual","sf":2500,"v":300}},{"type":"Feature","geometry":{"type":"Point","coordinates":[-79.85712,40.50875]},"properties":{"p":"0291C00113000000","a":"ORCHARD DR","m":"O''Hara","u":"L","o":"individual","sf":2750,"v":400}},{"type":"Feature","geometry":{"type":"Point","coordinates":[-79.85722,40.49804]},"properties":{"p":"0292G00148000000","a":"W 2ND ST","m":"O''Hara","u":"L","o":"corp","sf":8548,"v":1100}},{"type":"Feature","geometry":{"type":"Point","coordinates":[-79.85232,40.49978]},"properties":{"p":"0292H00035000000","a":"RIVER RD","m":"O''Hara","u":"L","o":"individual","sf":18710,"v":2400}},{"type":"Feature","geometry":{"type":"Point","coordinates":[-79.85419,40.50386]},"properties":{"p":"0291R00004000000","a":"LAWRENCE AVE","m":"O''Hara","u":"L","o":"individual","sf":5850,"v":800}},{"type":"Feature","geometry":{"type":"Point","coordinates":[-79.85406,40.50376]},"properties":{"p":"0291R00006000000","a":"LAWRENCE AVE","m":"O''Hara","u":"L","o":"individual","sf":5850,"v":800}},{"type":"Feature","geometry":{"type":"Point","coordinates":[-79.85393,40.50367]},"properties":{"p":"0291R00008000000","a":"LAWRENCE AVE","m":"O''Hara","u":"L","o":"individual","sf":5850,"v":800}},{"type":"Feature","geometry":{"type":"Point","coordinates":[-79.85227,40.50112]},"properties":{"p":"0292D00082000000","a":"FREEPORT RD","m":"O''Hara","u":"L","o":"individual","sf":8888,"v":1200}},{"type":"Feature","geometry":{"type":"Point","coordinates":[-79.84402,40.49186]},"properties":{"p":"0366B00301000000","a":"ALLEGHENY RIVER BLVD","m":"Penn Hills","u":"L","o":"individual","sf":76230,"v":18500}},{"type":"Feature","geometry":{"type":"Point","coordinates":[-79.84251,40.50226]},"properties":{"p":"0364P00054000000","a":"6941 SISTO ST","m":"Penn Hills","u":"L","o":"corp","sf":4640,"v":1400}},{"type":"Feature","geometry":{"type":"Point","coordinates":[-79.84277,40.50227]},"properties":{"p":"0364P00056000000","a":"STATE ST","m":"Penn Hills","u":"L","o":"individual","sf":4954,"v":1500}},{"type":"Feature","geometry":{"type":"Point","coordinates":[-79.84037,40.50013]},"properties":{"p":"0365C00279000000","a":"MOUNT AVE","m":"Penn Hills","u":"L","o":"corp","sf":12256,"v":12700}},{"type":"Feature","geometry":{"type":"Point","coordinates":[-79.84277,40.50294]},"properties":{"p":"0364P00067000000","a":"STATE ST","m":"Penn Hills","u":"L","o":"individual","sf":18145,"v":13200}},{"type":"Feature","geometry":{"type":"Point","coordinates":[-79.84235,40.50305]},"properties":{"p":"0364P00076000000","a":"SISTO ST","m":"Penn Hills","u":"L","o":"individual","sf":17520,"v":4400}},{"type":"Feature","geometry":{"type":"Point","coordinates":[-79.8421,40.50315]},"properties":{"p":"0364P00081000000","a":"SISTO ST","m":"Penn Hills","u":"L","o":"individual","sf":7712,"v":2300}},{"type":"Feature","geometry":{"type":"Point","coordinates":[-79.84339,40.50026]},"properties":{"p":"0365B00147000100","a":"ALLEGHENY RIVER BLVD","m":"Penn Hills","u":"L","o":"corp","sf":1980,"v":2400}},{"type":"Feature","geometry":{"type":"Point","coordinates":[-79.84336,40.50055]},"properties":{"p":"0365B00154000100","a":"ALLEGHENY RIVER BLVD","m":"Penn Hills","u":"L","o":"individual","sf":1664,"v":2000}},{"type":"Feature","geometry":{"type":"Point","coordinates":[-79.84334,40.50072]},"properties":{"p":"0365B00156000100","a":"ALLEGHENY RIVER BLVD","m":"Penn Hills","u":"L","o":"corp","sf":2376,"v":2900}},{"type":"Feature","geometry":{"type":"Point","coordinates":[-79.84333,40.50114]},"properties":{"p":"0365B00164000100","a":"ALLEGHENY RIVER BLVD","m":"Penn Hills","u":"L","o":"individual","sf":723,"v":300}},{"type":"Feature","geometry":{"type":"Point","coordinates":[-79.84333,40.50121]},"properties":{"p":"0365B00167000000","a":"ALLEGHENY RIVER BLVD","m":"Penn Hills","u":"L","o":"individual","sf":250,"v":200}},{"type":"Feature","geometry":{"type":"Point","coordinates":[-79.84333,40.50132]},"properties":{"p":"0365B00167000100","a":"ALLEGHENY RIVER BLVD","m":"Penn Hills","u":"L","o":"individual","sf":522,"v":200}},{"type":"Feature","geometry":{"type":"Point","coordinates":[-79.84036,40.50152]},"properties":{"p":"0365C00230000000","a":"OAKMONT ST","m":"Penn Hills","u":"L","o":"individual","sf":3750,"v":4500}},{"type":"Feature","geometry":{"type":"Point","coordinates":[-79.84095,40.50067]},"properties":{"p":"0365C00363000000","a":"VERONA ST","m":"Penn Hills","u":"L","o":"individual","sf":3231,"v":3900}},{"type":"Feature","geometry":{"type":"Point","coordinates":[-79.8414,40.50071]},"properties":{"p":"0365B00308000000","a":"SHORE AVE","m":"Penn Hills","u":"L","o":"individual","sf":3110,"v":3700}},{"type":"Feature","geometry":{"type":"Point","coordinates":[-79.84141,40.50064]},"properties":{"p":"0365B00309000000","a":"SHORE AVE","m":"Penn Hills","u":"L","o":"individual","sf":3120,"v":1000}},{"type":"Feature","geometry":{"type":"Point","coordinates":[-79.84469,40.49661]},"properties":{"p":"0365K00375000100","a":"ALLEGHENY RIVER BLVD","m":"Penn Hills","u":"L","o":"corp","sf":915,"v":1100}},{"type":"Feature","geometry":{"type":"Point","coordinates":[-79.84056,40.50347]},"properties":{"p":"0364R00096000000","a":"452 WILDWOOD AVE","m":"Penn Hills","u":"L","o":"individual","sf":4411,"v":1300}},{"type":"Feature","geometry":{"type":"Point","coordinates":[-79.8402,40.50294]},"properties":{"p":"0364R00104000000","a":"VERONA ST","m":"Penn Hills","u":"L","o":"individual","sf":9087,"v":2600}},{"type":"Feature","geometry":{"type":"Point","coordinates":[-79.84317,40.49767]},"properties":{"p":"0365K00305000000","a":"ALLEGHENY RIVER BLVD","m":"Penn Hills","u":"L","o":"corp","sf":511394,"v":38300}},{"type":"Feature","geometry":{"type":"Point","coordinates":[-79.84119,40.50238]},"properties":{"p":"0364R00023000000","a":"VERONA ST","m":"Penn Hills","u":"L","o":"individual","sf":2250,"v":700}},{"type":"Feature","geometry":{"type":"Point","coordinates":[-79.84196,40.5018]},"properties":{"p":"0365B00193000000","a":"SISTO ST","m":"Penn Hills","u":"L","o":"individual","sf":6890,"v":6200}},{"type":"Feature","geometry":{"type":"Point","coordinates":[-79.84295,40.50034]},"properties":{"p":"0365B00278000000","a":"ALLEGHENY RIVER BLVD","m":"Penn Hills","u":"L","o":"corp","sf":3878,"v":1200}},{"type":"Feature","geometry":{"type":"Point","coordinates":[-79.84432,40.49063]},"properties":{"p":"0366B00245000000","a":"ALLEGHENY RIVER BLVD","m":"Penn Hills","u":"L","o":"individual","sf":10000,"v":2900}},{"type":"Feature","geometry":{"type":"Point","coordinates":[-79.84274,40.49141]},"properties":{"p":"0366B00261000000","a":"5741 3RD ST","m":"Penn Hills","u":"L","o":"corp","sf":3289,"v":4000}},{"type":"Feature","geometry":{"type":"Point","coordinates":[-79.84436,40.50207]},"properties":{"p":"0364P00322000000","a":"E RAILROAD AVE","m":"Verona","u":"L","o":"corp","sf":2650,"v":3200}},{"type":"Feature","geometry":{"type":"Point","coordinates":[-79.85266,40.5022]},"properties":{"p":"0291S00169000000","a":"LINDEN AVE","m":"O''Hara","u":"L","o":"individual","sf":2463,"v":300}},{"type":"Feature","geometry":{"type":"Point","coordinates":[-79.84092,40.50922]},"properties":{"p":"0364C00062000000","a":"RIDGE AVE","m":"Verona","u":"L","o":"individual","sf":3500,"v":1200}},{"type":"Feature","geometry":{"type":"Point","coordinates":[-79.85116,40.50227]},"properties":{"p":"0291S00150000000","a":"RIVER RD","m":"O''Hara","u":"L","o":"individual","sf":3603,"v":17900}},{"type":"Feature","geometry":{"type":"Point","coordinates":[-79.85217,40.49145]},"properties":{"p":"0293C00026000000","a":"9 MILE ISLAND","m":"Penn Hills","u":"L","o":"corp","sf":1339470,"v":24400}},{"type":"Feature","geometry":{"type":"Point","coordinates":[-79.84006,40.4998]},"properties":{"p":"0365C00309000000","a":"SYLVAN ST","m":"Penn Hills","u":"L","o":"individual","sf":65340,"v":5000}},{"type":"Feature","geometry":{"type":"Point","coordinates":[-79.84105,40.50153]},"properties":{"p":"0365C00385000000","a":"VERONA ST","m":"Penn Hills","u":"L","o":"corp","sf":2265,"v":700}},{"type":"Feature","geometry":{"type":"Point","coordinates":[-79.85623,40.50215]},"properties":{"p":"0291R00151000000","a":"RIVERVIEW AVE","m":"O''Hara","u":"L","o":"individual","sf":5500,"v":700}},{"type":"Feature","geometry":{"type":"Point","coordinates":[-79.84337,40.5004]},"properties":{"p":"0365B00150000000","a":"ALLEGHENY RIVER BLVD","m":"Penn Hills","u":"L","o":"individual","sf":1757,"v":600}},{"type":"Feature","geometry":{"type":"Point","coordinates":[-79.85326,40.50276]},"properties":{"p":"0291S00043000000","a":"OXFORD AVE","m":"O''Hara","u":"L","o":"individual","sf":10858,"v":1400}},{"type":"Feature","geometry":{"type":"Point","coordinates":[-79.85269,40.50213]},"properties":{"p":"0291S00170000000","a":"LINDEN AVE","m":"O''Hara","u":"L","o":"individual","sf":2136,"v":300}},{"type":"Feature","geometry":{"type":"Point","coordinates":[-79.85343,40.5033]},"properties":{"p":"0291S00014000000","a":"LAWRENCE AVE","m":"O''Hara","u":"B","o":"individual","sf":10699,"v":1400}},{"type":"Feature","geometry":{"type":"Point","coordinates":[-79.85642,40.50229]},"properties":{"p":"0291R00150000000","a":"RIVERVIEW AVE","m":"O''Hara","u":"B","o":"individual","sf":2750,"v":5100}},{"type":"Feature","geometry":{"type":"Point","coordinates":[-79.85662,40.50244]},"properties":{"p":"0291R00147000000","a":"RIVERVIEW AVE","m":"O''Hara","u":"B","o":"individual","sf":2750,"v":5100}},{"type":"Feature","geometry":{"type":"Point","coordinates":[-79.85655,40.50239]},"properties":{"p":"0291R00148000000","a":"RIVERVIEW AVE","m":"O''Hara","u":"B","o":"individual","sf":2750,"v":5100}},{"type":"Feature","geometry":{"type":"Point","coordinates":[-79.85424,40.5006]},"properties":{"p":"0292C00334000000","a":"KIRK AVE","m":"O''Hara","u":"B","o":"corp","sf":195632,"v":32200}},{"type":"Feature","geometry":{"type":"Point","coordinates":[-79.85946,40.50578]},"properties":{"p":"0291K00091000000","a":"HAYS ST","m":"O''Hara","u":"B","o":"individual","sf":5320,"v":6000}},{"type":"Feature","geometry":{"type":"Point","coordinates":[-79.85649,40.50234]},"properties":{"p":"0291R00149000000","a":"RIVERVIEW AVE","m":"O''Hara","u":"B","o":"individual","sf":2750,"v":5100}},{"type":"Feature","geometry":{"type":"Point","coordinates":[-79.85891,40.50618]},"properties":{"p":"0291K00090000000","a":"HAYS ST","m":"O''Hara","u":"B","o":"individual","sf":1913,"v":4900}}]}