{"type":"FeatureCollection","features":[{"type":"Feature","geometry":{"type":"Point","coordinates":[-79.85359,40.48308]},"properties":{"p":"0293S00024000000","a":"SANDY CREEK RD","m":"Penn Hills","u":"C","o":"corp","sf":64469,"v":30000}},{"type":"Feature","geometry":{"type":"Point","coordinates":[-79.85118,40.47434]},"properties":{"p":"0294S00102000000","a":"VERONA RD","m":"Penn Hills","u":"C","o":"corp","sf":6896,"v":1800}},{"type":"Feature","geometry":{"type":"Point","coordinates":[-79.85998,40.47053]},"properties":{"p":"0295F00324000000","a":"VERONA RD","m":"Penn Hills","u":"C","o":"individual","sf":237837,"v":9600}},{"type":"Feature","geometry":{"type":"Point","coordinates":[-79.85061,40.48484]},"properties":{"p":"0293S00350000000","a":"3RD ST","m":"Penn Hills","u":"C","o":"corp","sf":1129076,"v":45400}},{"type":"Feature","geometry":{"type":"Point","coordinates":[-79.84805,40.47656]},"properties":{"p":"0367J00212000000","a":"VERONA RD","m":"Penn Hills","u":"C","o":"individual","sf":15306,"v":59100}},{"type":"Feature","geometry":{"type":"Point","coordinates":[-79.84716,40.47736]},"properties":{"p":"0367J00256000000","a":"VERONA RD","m":"Penn Hills","u":"C","o":"individual","sf":35000,"v":98100}},{"type":"Feature","geometry":{"type":"Point","coordinates":[-79.84557,40.47672]},"properties":{"p":"0367J00048000000","a":"VERONA RD","m":"Penn Hills","u":"C","o":"individual","sf":265106,"v":8700}},{"type":"Feature","geometry":{"type":"Point","coordinates":[-79.84912,40.47737]},"properties":{"p":"0367J00316000000","a":"SANDY CREEK RD","m":"Penn Hills","u":"C","o":"corp","sf":367734,"v":68500}},{"type":"Feature","geometry":{"type":"Point","coordinates":[-79.85862,40.47151]},"properties":{"p":"0295B00099000000","a":"VERONA RD","m":"Penn Hills","u":"C","o":"individual","sf":334890,"v":48900}},{"type":"Feature","geometry":{"type":"Point","coordinates":[-79.85605,40.48498]},"properties":{"p":"0293L00050000000","a":"SANDY CREEK RD","m":"Penn Hills","u":"C","o":"individual","sf":1696,"v":32100}},{"type":"Feature","geometry":{"type":"Point","coordinates":[-79.84912,40.47921]},"properties":{"p":"0367E00320000000","a":"SANDY CREEK RD","m":"Penn Hills","u":"C","o":"individual","sf":10248,"v":49000}},{"type":"Feature","geometry":{"type":"Point","coordinates":[-79.84825,40.47805]},"properties":{"p":"0367E00325000000","a":"SANDY CREEK RD","m":"Penn Hills","u":"C","o":"individual","sf":62173,"v":164100}},{"type":"Feature","geometry":{"type":"Point","coordinates":[-79.84756,40.47714]},"properties":{"p":"0367J00245000000","a":"VERONA RD","m":"Penn Hills","u":"C","o":"individual","sf":2500,"v":25000}},{"type":"Feature","geometry":{"type":"Point","coordinates":[-79.84664,40.47574]},"properties":{"p":"0367J00128000000","a":"VERONA RD","m":"Penn Hills","u":"C","o":"individual","sf":67043,"v":3500}},{"type":"Feature","geometry":{"type":"Point","coordinates":[-79.84781,40.47727]},"properties":{"p":"0367J00240000000","a":"SANDY CREEK RD","m":"Penn Hills","u":"C","o":"individual","sf":6608,"v":25000}},{"type":"Feature","geometry":{"type":"Point","coordinates":[-79.84481,40.47808]},"properties":{"p":"0367F00254000000","a":"VERONA RD","m":"Penn Hills","u":"C","o":"individual","sf":14414,"v":57300}},{"type":"Feature","geometry":{"type":"Point","coordinates":[-79.85929,40.47259]},"properties":{"p":"0294P00240000000","a":"HARVEST DR","m":"Penn Hills","u":"L","o":"individual","sf":6425,"v":1600}},{"type":"Feature","geometry":{"type":"Point","coordinates":[-79.85016,40.47489]},"properties":{"p":"0294S00084000000","a":"VERONA RD","m":"Penn Hills","u":"L","o":"corp","sf":11137,"v":6600}},{"type":"Feature","geometry":{"type":"Point","coordinates":[-79.85067,40.47462]},"properties":{"p":"0294S00095000000","a":"VERONA RD","m":"Penn Hills","u":"L","o":"corp","sf":21863,"v":7500}},{"type":"Feature","geometry":{"type":"Point","coordinates":[-79.85146,40.47429]},"properties":{"p":"0294S00106000000","a":"VERONA RD","m":"Penn Hills","u":"L","o":"individual","sf":21123,"v":7500}},{"type":"Feature","geometry":{"type":"Point","coordinates":[-79.85172,40.47435]},"properties":{"p":"0294S00110000000","a":"VERONA RD","m":"Penn Hills","u":"L","o":"individual","sf":2470,"v":700}},{"type":"Feature","geometry":{"type":"Point","coordinates":[-79.85277,40.47419]},"properties":{"p":"0294S00131000000","a":"VERONA RD","m":"Penn Hills","u":"L","o":"individual","sf":43560,"v":9500}},{"type":"Feature","geometry":{"type":"Point","coordinates":[-79.85312,40.47006]},"properties":{"p":"0295H00355000000","a":"500 MCCUTCHEON LN","m":"Penn Hills","u":"L","o":"individual","sf":18000,"v":7200}},{"type":"Feature","geometry":{"type":"Point","coordinates":[-79.85064,40.4741]},"properties":{"p":"0294S00209000000","a":"VERONA RD","m":"Penn Hills","u":"L","o":"individual","sf":7750,"v":6300}},{"type":"Feature","geometry":{"type":"Point","coordinates":[-79.85049,40.47418]},"properties":{"p":"0294S00213000000","a":"VERONA RD","m":"Penn Hills","u":"L","o":"individual","sf":4750,"v":1200}},{"type":"Feature","geometry":{"type":"Point","coordinates":[-79.85034,40.47426]},"properties":{"p":"0294S00217000000","a":"VERONA RD","m":"Penn Hills","u":"L","o":"individual","sf":7479,"v":6200}},{"type":"Feature","geometry":{"type":"Point","coordinates":[-79.85255,40.4738]},"properties":{"p":"0294S00137000000","a":"VERONA RD","m":"Penn Hills","u":"L","o":"individual","sf":5250,"v":3000}},{"type":"Feature","geometry":{"type":"Point","coordinates":[-79.85275,40.47373]},"properties":{"p":"0294S00144000000","a":"VERONA RD","m":"Penn Hills","u":"L","o":"individual","sf":4500,"v":1100}},{"type":"Feature","geometry":{"type":"Point","coordinates":[-79.85331,40.47341]},"properties":{"p":"0294S00162000000","a":"VERONA RD","m":"Penn Hills","u":"L","o":"individual","sf":15768,"v":7000}},{"type":"Feature","geometry":{"type":"Point","coordinates":[-79.85277,40.47336]},"properties":{"p":"0294S00172000000","a":"VERONA RD","m":"Penn Hills","u":"L","o":"individual","sf":17400,"v":7100}},{"type":"Feature","geometry":{"type":"Point","coordinates":[-79.85106,40.47382]},"properties":{"p":"0294S00197000000","a":"VERONA RD","m":"Penn Hills","u":"L","o":"individual","sf":10837,"v":6500}},{"type":"Feature","geometry":{"type":"Point","coordinates":[-79.84359,40.4751]},"properties":{"p":"0367K00057000000","a":"SALTSBURG RD","m":"Penn Hills","u":"L","o":"individual","sf":51749,"v":10000}},{"type":"Feature","geometry":{"type":"Point","coordinates":[-79.84366,40.47151]},"properties":{"p":"0368B00244000000","a":"WILSON DR","m":"Penn Hills","u":"L","o":"individual","sf":32712,"v":14500}},{"type":"Feature","geometry":{"type":"Point","coordinates":[-79.84472,40.47043]},"properties":{"p":"0368B00344000000","a":"BETTY JANE CT","m":"Penn Hills","u":"L","o":"individual","sf":3956,"v":1200}},{"type":"Feature","geometry":{"type":"Point","coordinates":[-79.84494,40.47007]},"properties":{"p":"0368B00356000000","a":"WILSON DR","m":"Penn Hills","u":"L","o":"individual","sf":56933,"v":3900}},{"type":"Feature","geometry":{"type":"Point","coordinates":[-79.84014,40.47853]},"properties":{"p":"0367G00287000000","a":"SALTSBURG RD","m":"Penn Hills","u":"L","o":"corp","sf":870,"v":1000}},{"type":"Feature","geometry":{"type":"Point","coordinates":[-79.84443,40.47399]},"properties":{"p":"0367P00257000000","a":"LIME HOLLOW RD","m":"Penn Hills","u":"L","o":"individual","sf":3250,"v":1000}},{"type":"Feature","geometry":{"type":"Point","coordinates":[-79.84482,40.47393]},"properties":{"p":"0367P00262000000","a":"LIME HOLLOW RD","m":"Penn Hills","u":"L","o":"individual","sf":9000,"v":12400}},{"type":"Feature","geometry":{"type":"Point","coordinates":[-79.84527,40.47382]},"properties":{"p":"0367P00268000000","a":"LIME HOLLOW RD","m":"Penn Hills","u":"L","o":"individual","sf":4306,"v":5200}},{"type":"Feature","geometry":{"type":"Point","coordinates":[-79.8459,40.47008]},"properties":{"p":"0368A00022000000","a":"COAL HOLLOW RD","m":"Penn Hills","u":"L","o":"individual","sf":7196,"v":2100}},{"type":"Feature","geometry":{"type":"Point","coordinates":[-79.84711,40.47629]},"properties":{"p":"0367J00122000000","a":"VERONA RD","m":"Penn Hills","u":"L","o":"individual","sf":30523,"v":3000}},{"type":"Feature","geometry":{"type":"Point","coordinates":[-79.84681,40.47188]},"properties":{"p":"0368A00063000000","a":"BETTY JANE CT","m":"Penn Hills","u":"L","o":"corp","sf":59764,"v":4100}},{"type":"Feature","geometry":{"type":"Point","coordinates":[-79.84775,40.47468]},"properties":{"p":"0367J00172000000","a":"COAL HOLLOW RD","m":"Penn Hills","u":"L","o":"individual","sf":92347,"v":20000}},{"type":"Feature","geometry":{"type":"Point","coordinates":[-79.84921,40.47488]},"properties":{"p":"0367J00182000000","a":"VERONA RD","m":"Penn Hills","u":"L","o":"individual","sf":2703,"v":700}},{"type":"Feature","geometry":{"type":"Point","coordinates":[-79.84808,40.47617]},"properties":{"p":"0367J00206000000","a":"SANDY CREEK RD","m":"Penn Hills","u":"L","o":"individual","sf":8688,"v":2500}},{"type":"Feature","geometry":{"type":"Point","coordinates":[-79.8451,40.47758]},"properties":{"p":"0367F00238000000","a":"VERONA RD","m":"Penn Hills","u":"L","o":"individual","sf":4620,"v":5500}},{"type":"Feature","geometry":{"type":"Point","coordinates":[-79.84039,40.47697]},"properties":{"p":"0367G00201000000","a":"135 KIM LN","m":"Penn Hills","u":"L","o":"individual","sf":100754,"v":10000}},{"type":"Feature","geometry":{"type":"Point","coordinates":[-79.84853,40.47267]},"properties":{"p":"0367N00296000000","a":"COAL HOLLOW RD","m":"Penn Hills","u":"L","o":"individual","sf":7453,"v":2200}},{"type":"Feature","geometry":{"type":"Point","coordinates":[-79.84854,40.47278]},"properties":{"p":"0367N00302000000","a":"COAL HOLLOW RD","m":"Penn Hills","u":"L","o":"individual","sf":6144,"v":1800}},{"type":"Feature","geometry":{"type":"Point","coordinates":[-79.84912,40.47332]},"properties":{"p":"0367N00312000000","a":"COAL HOLLOW RD","m":"Penn Hills","u":"L","o":"individual","sf":2135,"v":700}},{"type":"Feature","geometry":{"type":"Point","coordinates":[-79.84883,40.47384]},"properties":{"p":"0367N00329000000","a":"270 COAL HOLLOW RD","m":"Penn Hills","u":"L","o":"corp","sf":15071,"v":6900}},{"type":"Feature","geometry":{"type":"Point","coordinates":[-79.84899,40.47465]},"properties":{"p":"0367N00350000000","a":"COAL HOLLOW RD","m":"Penn Hills","u":"L","o":"corp","sf":26615,"v":14000}},{"type":"Feature","geometry":{"type":"Point","coordinates":[-79.84292,40.47283]},"properties":{"p":"0367P00123000000","a":"LIME HOLLOW RD","m":"Penn Hills","u":"L","o":"corp","sf":1047043,"v":20100}},{"type":"Feature","geometry":{"type":"Point","coordinates":[-79.84212,40.47435]},"properties":{"p":"0367P00236000000","a":"LIME HOLLOW RD","m":"Penn Hills","u":"L","o":"individual","sf":8708,"v":2500}},{"type":"Feature","geometry":{"type":"Point","coordinates":[-79.84332,40.47392]},"properties":{"p":"0367P00246000000","a":"LIME HOLLOW RD","m":"Penn Hills","u":"L","o":"corp","sf":4300,"v":1300}},{"type":"Feature","geometry":{"type":"Point","coordinates":[-79.84105,40.47973]},"properties":{"p":"0367G00391000000","a":"WILLIAMS DR","m":"Penn Hills","u":"L","o":"individual","sf":4231,"v":1300}},{"type":"Feature","geometry":{"type":"Point","coordinates":[-79.84627,40.47732]},"properties":{"p":"0367J00100000000","a":"VERONA RD","m":"Penn Hills","u":"L","o":"individual","sf":36484,"v":1000}},{"type":"Feature","geometry":{"type":"Point","coordinates":[-79.84388,40.47774]},"properties":{"p":"0367F00203000000","a":"VERONA RD","m":"Penn Hills","u":"L","o":"individual","sf":5341,"v":6000}},{"type":"Feature","geometry":{"type":"Point","coordinates":[-79.8437,40.47774]},"properties":{"p":"0367F00205000000","a":"VERONA RD","m":"Penn Hills","u":"L","o":"individual","sf":4200,"v":1300}},{"type":"Feature","geometry":{"type":"Point","coordinates":[-79.84403,40.47712]},"properties":{"p":"0367F00221000000","a":"JOYCE LN","m":"Penn Hills","u":"L","o":"individual","sf":33150,"v":1500}},{"type":"Feature","geometry":{"type":"Point","coordinates":[-79.84444,40.47713]},"properties":{"p":"0367K00357000000","a":"VERONA RD","m":"Penn Hills","u":"L","o":"individual","sf":11048,"v":3200}},{"type":"Feature","geometry":{"type":"Point","coordinates":[-79.84094,40.47567]},"properties":{"p":"0367L00086000000","a":"KIM LN","m":"Penn Hills","u":"L","o":"individual","sf":43560,"v":9500}},{"type":"Feature","geometry":{"type":"Point","coordinates":[-79.84037,40.47936]},"properties":{"p":"0367G00340000000","a":"VERONA RD","m":"Penn Hills","u":"L","o":"individual","sf":4530,"v":1400}},{"type":"Feature","geometry":{"type":"Point","coordinates":[-79.84125,40.47956]},"properties":{"p":"0367G00384000000","a":"WILLIAMS DR","m":"Penn Hills","u":"L","o":"individual","sf":10952,"v":6500}},{"type":"Feature","geometry":{"type":"Point","coordinates":[-79.84065,40.47241]},"properties":{"p":"0367R00313000000","a":"HILLSIDE DR","m":"Penn Hills","u":"L","o":"corp","sf":19803,"v":13300}},{"type":"Feature","geometry":{"type":"Point","coordinates":[-79.84733,40.47187]},"properties":{"p":"0368A00202000000","a":"COAL HOLLOW RD","m":"Penn Hills","u":"L","o":"corp","sf":137214,"v":3200}},{"type":"Feature","geometry":{"type":"Point","coordinates":[-79.84852,40.47242]},"properties":{"p":"0368A00208000000","a":"COAL HOLLOW RD","m":"Penn Hills","u":"L","o":"individual","sf":65340,"v":6000}},{"type":"Feature","geometry":{"type":"Point","coordinates":[-79.84843,40.47172]},"properties":{"p":"0368A00232000000","a":"COAL HOLLOW RD","m":"Penn Hills","u":"L","o":"individual","sf":10633,"v":3100}},{"type":"Feature","geometry":{"type":"Point","coordinates":[-79.8483,40.47143]},"properties":{"p":"0368A00240000000","a":"COAL HOLLOW RD","m":"Penn Hills","u":"L","o":"individual","sf":13453,"v":12800}},{"type":"Feature","geometry":{"type":"Point","coordinates":[-79.84887,40.47022]},"properties":{"p":"0368A00311000000","a":"FLAMINGO AVE","m":"Penn Hills","u":"L","o":"individual","sf":1981,"v":700}},{"type":"Feature","geometry":{"type":"Point","coordinates":[-79.84275,40.47791]},"properties":{"p":"0367F00172000000","a":"HUDSON ST","m":"Penn Hills","u":"L","o":"individual","sf":9573,"v":12400}},{"type":"Feature","geometry":{"type":"Point","coordinates":[-79.84342,40.4771]},"properties":{"p":"0367F00395000000","a":"JOYCE LN","m":"Penn Hills","u":"L","o":"individual","sf":55757,"v":600}},{"type":"Feature","geometry":{"type":"Point","coordinates":[-79.84585,40.47387]},"properties":{"p":"0367N00067000000","a":"LIME HOLLOW RD","m":"Penn Hills","u":"L","o":"individual","sf":1200,"v":1400}},{"type":"Feature","geometry":{"type":"Point","coordinates":[-79.8408,40.4769]},"properties":{"p":"0367G00197000000","a":"SALTSBURG RD","m":"Penn Hills","u":"L","o":"individual","sf":100754,"v":14000}},{"type":"Feature","geometry":{"type":"Point","coordinates":[-79.84778,40.47361]},"properties":{"p":"0367N00174000000","a":"COAL HOLLOW RD","m":"Penn Hills","u":"L","o":"individual","sf":16630,"v":13100}},{"type":"Feature","geometry":{"type":"Point","coordinates":[-79.8467,40.47295]},"properties":{"p":"0367N00224000000","a":"LIME HOLLOW RD","m":"Penn Hills","u":"L","o":"individual","sf":11700,"v":3400}},{"type":"Feature","geometry":{"type":"Point","coordinates":[-79.84659,40.47295]},"properties":{"p":"0367N00230000000","a":"LIME HOLLOW RD","m":"Penn Hills","u":"L","o":"individual","sf":5445,"v":1600}},{"type":"Feature","geometry":{"type":"Point","coordinates":[-79.84648,40.47317]},"properties":{"p":"0367N00236000000","a":"LIME HOLLOW RD","m":"Penn Hills","u":"L","o":"individual","sf":6109,"v":1800}},{"type":"Feature","geometry":{"type":"Point","coordinates":[-79.84611,40.47291]},"properties":{"p":"0367N00240000000","a":"LIME HOLLOW RD","m":"Penn Hills","u":"L","o":"individual","sf":10170,"v":2900}},{"type":"Feature","geometry":{"type":"Point","coordinates":[-79.84618,40.47317]},"properties":{"p":"0367N00249000000","a":"LIME HOLLOW RD","m":"Penn Hills","u":"L","o":"individual","sf":4348,"v":1300}},{"type":"Feature","geometry":{"type":"Point","coordinates":[-79.84022,40.47139]},"properties":{"p":"0368C00284000000","a":"HILLSIDE DR","m":"Penn Hills","u":"L","o":"individual","sf":4628,"v":1400}},{"type":"Feature","geometry":{"type":"Point","coordinates":[-79.85259,40.48753]},"properties":{"p":"0293H00124000000","a":"ALLEGHENY RIVER BLVD","m":"Penn Hills","u":"L","o":"individual","sf":12454,"v":12700}},{"type":"Feature","geometry":{"type":"Point","coordinates":[-79.85959,40.4719]},"properties":{"p":"0295B00184000000","a":"ABER RD","m":"Penn Hills","u":"L","o":"individual","sf":10203,"v":6500}},{"type":"Feature","geometry":{"type":"Point","coordinates":[-79.85985,40.47188]},"properties":{"p":"0295B00191000000","a":"HARVEST DR","m":"Penn Hills","u":"L","o":"individual","sf":10392,"v":6500}},{"type":"Feature","geometry":{"type":"Point","coordinates":[-79.85168,40.48792]},"properties":{"p":"0293H00186000000","a":"ALLEGHENY RIVER BLVD","m":"Penn Hills","u":"L","o":"individual","sf":98881,"v":20600}},{"type":"Feature","geometry":{"type":"Point","coordinates":[-79.85332,40.48784]},"properties":{"p":"0293H00316000000","a":"ALLEGHENY RIVER BLVD","m":"Penn Hills","u":"L","o":"individual","sf":1245,"v":500}},{"type":"Feature","geometry":{"type":"Point","coordinates":[-79.85631,40.47006]},"properties":{"p":"0295G00231000000","a":"GRANDVIEW AVE","m":"Penn Hills","u":"L","o":"individual","sf":634582,"v":10000}},{"type":"Feature","geometry":{"type":"Point","coordinates":[-79.84859,40.48364]},"properties":{"p":"0366N00304000000","a":"HOMESTEAD RD","m":"Penn Hills","u":"L","o":"corp","sf":173804,"v":27500}},{"type":"Feature","geometry":{"type":"Point","coordinates":[-79.84255,40.4841]},"properties":{"p":"0366P00218000000","a":"HOMESTEAD RD","m":"Penn Hills","u":"L","o":"corp","sf":25130,"v":13800}},{"type":"Feature","geometry":{"type":"Point","coordinates":[-79.84248,40.48346]},"properties":{"p":"0366P00242000000","a":"HOMESTEAD RD","m":"Penn Hills","u":"L","o":"corp","sf":29301,"v":14200}},{"type":"Feature","geometry":{"type":"Point","coordinates":[-79.84228,40.48324]},"properties":{"p":"0366P00260000000","a":"HOMESTEAD RD","m":"Penn Hills","u":"L","o":"corp","sf":30143,"v":14300}},{"type":"Feature","geometry":{"type":"Point","coordinates":[-79.84125,40.47684]},"properties":{"p":"0367F00017000000","a":"SALTSBURG RD","m":"Penn Hills","u":"L","o":"individual","sf":100754,"v":20800}},{"type":"Feature","geometry":{"type":"Point","coordinates":[-79.84153,40.47811]},"properties":{"p":"0367F00020000000","a":"VERONA RD","m":"Penn Hills","u":"L","o":"individual","sf":4345,"v":11200}},{"type":"Feature","geometry":{"type":"Point","coordinates":[-79.84193,40.47798]},"properties":{"p":"0367F00026000000","a":"VERONA RD","m":"Penn Hills","u":"L","o":"individual","sf":1890,"v":600}},{"type":"Feature","geometry":{"type":"Point","coordinates":[-79.84187,40.47791]},"properties":{"p":"0367F00028000000","a":"VERONA RD","m":"Penn Hills","u":"L","o":"individual","sf":3825,"v":10600}},{"type":"Feature","geometry":{"type":"Point","coordinates":[-79.8423,40.47778]},"properties":{"p":"0367F00030000000","a":"VERONA RD","m":"Penn Hills","u":"L","o":"individual","sf":1568,"v":500}},{"type":"Feature","geometry":{"type":"Point","coordinates":[-79.84203,40.47832]},"properties":{"p":"0367F00035000000","a":"VERONA RD","m":"Penn Hills","u":"L","o":"individual","sf":5400,"v":3000}},{"type":"Feature","geometry":{"type":"Point","coordinates":[-79.84191,40.47839]},"properties":{"p":"0367F00037000000","a":"VERONA RD","m":"Penn Hills","u":"L","o":"individual","sf":4700,"v":1400}},{"type":"Feature","geometry":{"type":"Point","coordinates":[-79.84182,40.47848]},"properties":{"p":"0367F00039000000","a":"VERONA RD","m":"Penn Hills","u":"L","o":"individual","sf":4480,"v":1400}},{"type":"Feature","geometry":{"type":"Point","coordinates":[-79.84888,40.48078]},"properties":{"p":"0367A00331000000","a":"SANDY CREEK RD","m":"Penn Hills","u":"L","o":"individual","sf":196020,"v":2300}},{"type":"Feature","geometry":{"type":"Point","coordinates":[-79.84941,40.48302]},"properties":{"p":"0366N00233000000","a":"MAPLE AVE","m":"Penn Hills","u":"L","o":"individual","sf":6000,"v":1800}},{"type":"Feature","geometry":{"type":"Point","coordinates":[-79.84889,40.48328]},"properties":{"p":"0366N00238000000","a":"MAPLE AVE","m":"Penn Hills","u":"L","o":"individual","sf":6000,"v":1800}},{"type":"Feature","geometry":{"type":"Point","coordinates":[-79.84211,40.47928]},"properties":{"p":"0367F00075000000","a":"RANDOLPH LN","m":"Penn Hills","u":"L","o":"individual","sf":3856,"v":1200}},{"type":"Feature","geometry":{"type":"Point","coordinates":[-79.8483,40.48055]},"properties":{"p":"0367A00243000000","a":"WHITE OAK DR","m":"Penn Hills","u":"L","o":"individual","sf":5125,"v":12000}},{"type":"Feature","geometry":{"type":"Point","coordinates":[-79.8481,40.48044]},"properties":{"p":"0367A00247000000","a":"1214 WHITE OAK DR","m":"Penn Hills","u":"L","o":"individual","sf":8994,"v":12400}},{"type":"Feature","geometry":{"type":"Point","coordinates":[-79.84727,40.48018]},"properties":{"p":"0367A00259000000","a":"WHITE OAK DR","m":"Penn Hills","u":"L","o":"individual","sf":1350,"v":1600}},{"type":"Feature","geometry":{"type":"Point","coordinates":[-79.84172,40.48366]},"properties":{"p":"0366P00299000000","a":"HOMESTEAD RD","m":"Penn Hills","u":"L","o":"individual","sf":19778,"v":5600}},{"type":"Feature","geometry":{"type":"Point","coordinates":[-79.84844,40.48159]},"properties":{"p":"0367A00219000000","a":"WHITE OAK DR","m":"Penn Hills","u":"L","o":"individual","sf":6000,"v":4600}},{"type":"Feature","geometry":{"type":"Point","coordinates":[-79.84848,40.48144]},"properties":{"p":"0367A00223000000","a":"WHITE OAK DR","m":"Penn Hills","u":"L","o":"individual","sf":6000,"v":1800}},{"type":"Feature","geometry":{"type":"Point","coordinates":[-79.84852,40.48058]},"properties":{"p":"0367A00238000000","a":"WHITE OAK DR","m":"Penn Hills","u":"L","o":"individual","sf":5125,"v":12000}},{"type":"Feature","geometry":{"type":"Point","coordinates":[-79.84688,40.47927]},"properties":{"p":"0367E00151000000","a":"BARBARA DR","m":"Penn Hills","u":"L","o":"individual","sf":6000,"v":12100}},{"type":"Feature","geometry":{"type":"Point","coordinates":[-79.8471,40.47931]},"properties":{"p":"0367E00156000000","a":"BARBARA DR","m":"Penn Hills","u":"L","o":"corp","sf":10690,"v":3100}},{"type":"Feature","geometry":{"type":"Point","coordinates":[-79.84749,40.4797]},"properties":{"p":"0367E00160000000","a":"BARBARA DR","m":"Penn Hills","u":"L","o":"corp","sf":8920,"v":2600}},{"type":"Feature","geometry":{"type":"Point","coordinates":[-79.84729,40.47993]},"properties":{"p":"0367E00163000000","a":"BARBARA DR","m":"Penn Hills","u":"L","o":"corp","sf":4549,"v":1400}},{"type":"Feature","geometry":{"type":"Point","coordinates":[-79.847,40.47979]},"properties":{"p":"0367E00167000000","a":"BARBARA DR","m":"Penn Hills","u":"L","o":"corp","sf":6476,"v":12100}},{"type":"Feature","geometry":{"type":"Point","coordinates":[-79.84149,40.48018]},"properties":{"p":"0367B00292000000","a":"3RD ST","m":"Penn Hills","u":"L","o":"individual","sf":1686,"v":2000}},{"type":"Feature","geometry":{"type":"Point","coordinates":[-79.848,40.47378]},"properties":{"p":"0367N00161000000","a":"COAL HOLLOW RD","m":"Penn Hills","u":"L","o":"corp","sf":30443,"v":14300}},{"type":"Feature","geometry":{"type":"Point","coordinates":[-79.84111,40.47063]},"properties":{"p":"0368C00310000000","a":"HILLSIDE DR","m":"Penn Hills","u":"L","o":"individual","sf":8932,"v":6400}},{"type":"Feature","geometry":{"type":"Point","coordinates":[-79.84854,40.48085]},"properties":{"p":"0367A00235000000","a":"WHITE OAK DR","m":"Penn Hills","u":"L","o":"individual","sf":5125,"v":12000}},{"type":"Feature","geometry":{"type":"Point","coordinates":[-79.8502,40.47434]},"properties":{"p":"0294S00221000000","a":"VERONA RD","m":"Penn Hills","u":"L","o":"individual","sf":6475,"v":6100}},{"type":"Feature","geometry":{"type":"Point","coordinates":[-79.84673,40.47923]},"properties":{"p":"0367E00148000000","a":"BARBARA DR","m":"Penn Hills","u":"L","o":"individual","sf":6000,"v":12100}},{"type":"Feature","geometry":{"type":"Point","coordinates":[-79.84508,40.47389]},"properties":{"p":"0367P00265000000","a":"LIME HOLLOW RD","m":"Penn Hills","u":"L","o":"individual","sf":5500,"v":12100}},{"type":"Feature","geometry":{"type":"Point","coordinates":[-79.85921,40.47214]},"properties":{"p":"0295B00162000000","a":"VERONA RD","m":"Penn Hills","u":"L","o":"individual","sf":1935,"v":500}},{"type":"Feature","geometry":{"type":"Point","coordinates":[-79.85119,40.4738]},"properties":{"p":"0294S00194000000","a":"VERONA RD","m":"Penn Hills","u":"L","o":"individual","sf":3111,"v":800}},{"type":"Feature","geometry":{"type":"Point","coordinates":[-79.85958,40.4722]},"properties":{"p":"0294P00251000000","a":"HARVEST DR","m":"Penn Hills","u":"L","o":"individual","sf":4736,"v":1200}}]}