{"type":"FeatureCollection","features":[{"type":"Feature","geometry":{"type":"Point","coordinates":[-79.84344,40.60272]},"properties":{"p":"1218B00150000001","a":"DEER CREEK RD","m":"West Deer","u":"I","o":"corp","sf":7278776,"v":668400}},{"type":"Feature","geometry":{"type":"Point","coordinates":[-79.85902,40.60545]},"properties":{"p":"1217F00124000000","a":"JOSEPH ST","m":"West Deer","u":"L","o":"individual","sf":29995,"v":52800}},{"type":"Feature","geometry":{"type":"Point","coordinates":[-79.84898,40.607]},"properties":{"p":"1218A00143000000","a":"MICHAEL RD","m":"West Deer","u":"L","o":"individual","sf":24167,"v":7800}},{"type":"Feature","geometry":{"type":"Point","coordinates":[-79.84779,40.60648]},"properties":{"p":"1218A00180000000","a":"MICHAEL RD","m":"West Deer","u":"L","o":"individual","sf":40206,"v":13200}},{"type":"Feature","geometry":{"type":"Point","coordinates":[-79.84243,40.607]},"properties":{"p":"1218B00263000000","a":"MICHAEL RD","m":"West Deer","u":"L","o":"corp","sf":50046,"v":24100}},{"type":"Feature","geometry":{"type":"Point","coordinates":[-79.84194,40.60731]},"properties":{"p":"1218B00276000000","a":"RICH HILL RD","m":"West Deer","u":"L","o":"individual","sf":10890,"v":3600}},{"type":"Feature","geometry":{"type":"Point","coordinates":[-79.85537,40.60691]},"properties":{"p":"1217C00012000000","a":"RUSSELLTON DORSEYVILLE RD","m":"West Deer","u":"L","o":"individual","sf":83025,"v":26100}},{"type":"Feature","geometry":{"type":"Point","coordinates":[-79.84976,40.60696]},"properties":{"p":"1218A00121000000","a":"MICHAEL RD","m":"West Deer","u":"L","o":"individual","sf":3985,"v":1400}},{"type":"Feature","geometry":{"type":"Point","coordinates":[-79.85787,40.60474]},"properties":{"p":"1217G00330000000","a":"JOSEPH ST","m":"West Deer","u":"L","o":"individual","sf":5728,"v":2200}},{"type":"Feature","geometry":{"type":"Point","coordinates":[-79.84041,40.60884]},"properties":{"p":"1361R00125000000","a":"MICHAEL RD","m":"West Deer","u":"L","o":"individual","sf":13199,"v":10700}},{"type":"Feature","geometry":{"type":"Point","coordinates":[-79.85121,40.60996]},"properties":{"p":"1360S00090000000","a":"EAST UNION RD","m":"West Deer","u":"L","o":"individual","sf":87120,"v":59400}},{"type":"Feature","geometry":{"type":"Point","coordinates":[-79.84905,40.60972]},"properties":{"p":"1218A00351000000","a":"MICHAEL RD","m":"West Deer","u":"L","o":"individual","sf":347217,"v":31900}},{"type":"Feature","geometry":{"type":"Point","coordinates":[-79.84745,40.60647]},"properties":{"p":"1218A00199000000","a":"MICHAEL RD","m":"West Deer","u":"L","o":"individual","sf":19210,"v":11300}},{"type":"Feature","geometry":{"type":"Point","coordinates":[-79.84724,40.60647]},"properties":{"p":"1218A00217000000","a":"MICHAEL RD","m":"West Deer","u":"L","o":"individual","sf":20078,"v":11400}},{"type":"Feature","geometry":{"type":"Point","coordinates":[-79.84541,40.60461]},"properties":{"p":"1218B00150000004","a":"EAST UNION RD","m":"West Deer","u":"L","o":"corp","sf":3484438,"v":117300}},{"type":"Feature","geometry":{"type":"Point","coordinates":[-79.84594,40.6055]},"properties":{"p":"1218B00150000005","a":"EAST UNION RD","m":"West Deer","u":"L","o":"corp","sf":15115,"v":4900}},{"type":"Feature","geometry":{"type":"Point","coordinates":[-79.85112,40.60591]},"properties":{"p":"1217H00052000000","a":"788 RICH HILL RD","m":"West Deer","u":"L","o":"individual","sf":16193,"v":6100}},{"type":"Feature","geometry":{"type":"Point","coordinates":[-79.84905,40.60377]},"properties":{"p":"1218E00287000000","a":"RICH HILL RD","m":"West Deer","u":"L","o":"individual","sf":52228,"v":11200}},{"type":"Feature","geometry":{"type":"Point","coordinates":[-79.84392,40.6072]},"properties":{"p":"1218B00227000000","a":"MICHAEL RD","m":"West Deer","u":"L","o":"individual","sf":20234,"v":11400}},{"type":"Feature","geometry":{"type":"Point","coordinates":[-79.8476,40.60975]},"properties":{"p":"1218A00349000000","a":"MICHAEL RD","m":"West Deer","u":"L","o":"individual","sf":446185,"v":60500}},{"type":"Feature","geometry":{"type":"Point","coordinates":[-79.8551,40.60022]},"properties":{"p":"1218J00248000000","a":"RICH HILL RD","m":"West Deer","u":"L","o":"individual","sf":4732794,"v":271100}},{"type":"Feature","geometry":{"type":"Point","coordinates":[-79.85822,40.59561]},"properties":{"p":"1082G00240000000","a":"MILL DAM RD","m":"Indiana","u":"L","o":"individual","sf":1742888,"v":143000}},{"type":"Feature","geometry":{"type":"Point","coordinates":[-79.84476,40.60632]},"properties":{"p":"1218B00160000000","a":"MICHAEL RD","m":"West Deer","u":"L","o":"individual","sf":73181,"v":800}}]}