{"type":"FeatureCollection","features":[{"type":"Feature","geometry":{"type":"Point","coordinates":[-79.85536,40.57612]},"properties":{"p":"0836G00226000000","a":"FIELD VIEW LN","m":"Indiana","u":"C","o":"individual","sf":169448,"v":11700}},{"type":"Feature","geometry":{"type":"Point","coordinates":[-79.84594,40.57553]},"properties":{"p":"0837E00026000000","a":"COVE RUN RD","m":"Indiana","u":"L","o":"individual","sf":216572,"v":50300}},{"type":"Feature","geometry":{"type":"Point","coordinates":[-79.85941,40.58686]},"properties":{"p":"0955F00210000000","a":"MILL DAM RD","m":"Indiana","u":"L","o":"individual","sf":5088,"v":600}},{"type":"Feature","geometry":{"type":"Point","coordinates":[-79.84723,40.57354]},"properties":{"p":"0837J00248000000","a":"20 CANDY HOLLOW WAY","m":"Indiana","u":"L","o":"individual","sf":319417,"v":27300}},{"type":"Feature","geometry":{"type":"Point","coordinates":[-79.84171,40.57234]},"properties":{"p":"0837K00065000000","a":"RICH HILL RD","m":"Indiana","u":"L","o":"individual","sf":427019,"v":77500}},{"type":"Feature","geometry":{"type":"Point","coordinates":[-79.84318,40.57317]},"properties":{"p":"0837K00130000000","a":"DIANE LN","m":"Indiana","u":"L","o":"corp","sf":23819,"v":2600}},{"type":"Feature","geometry":{"type":"Point","coordinates":[-79.8428,40.57222]},"properties":{"p":"0837K00267000000","a":"385 RICH HILL RD","m":"Indiana","u":"L","o":"individual","sf":11731,"v":1300}},{"type":"Feature","geometry":{"type":"Point","coordinates":[-79.84374,40.57241]},"properties":{"p":"0837K02650000000","a":"389 RICH HILL RD","m":"Indiana","u":"L","o":"individual","sf":11710,"v":1300}},{"type":"Feature","geometry":{"type":"Point","coordinates":[-79.85053,40.57854]},"properties":{"p":"0836D00044000000","a":"COVE RUN RD","m":"Indiana","u":"L","o":"individual","sf":55408,"v":54100}},{"type":"Feature","geometry":{"type":"Point","coordinates":[-79.84563,40.57456]},"properties":{"p":"0837K00213000000","a":"1024 DIANE LN","m":"Indiana","u":"B","o":"individual","sf":44335,"v":10300}}]}