{"type":"FeatureCollection","features":[{"type":"Feature","geometry":{"type":"Point","coordinates":[-79.85611,40.23744]},"properties":{"p":"1735C00303000000","a":"SCENERY DR","m":"Elizabeth Twp","u":"C","o":"corp","sf":435600,"v":43700}},{"type":"Feature","geometry":{"type":"Point","coordinates":[-79.85633,40.23412]},"properties":{"p":"1735G00336000000","a":"HAYDEN BLVD","m":"Forward","u":"C","o":"individual","sf":26400,"v":6100}},{"type":"Feature","geometry":{"type":"Point","coordinates":[-79.8576,40.23592]},"properties":{"p":"1735L00270000000","a":"HAYDEN BLVD","m":"Forward","u":"C","o":"individual","sf":1062864,"v":66000}},{"type":"Feature","geometry":{"type":"Point","coordinates":[-79.85961,40.23452]},"properties":{"p":"1735B00055000000","a":"300 PAYDAYS DR","m":"Forward","u":"C","o":"individual","sf":484387,"v":31000}},{"type":"Feature","geometry":{"type":"Point","coordinates":[-79.85037,40.23354]},"properties":{"p":"1735M00284000000","a":"EDWARD DR","m":"Elizabeth Twp","u":"L","o":"corp","sf":95309,"v":41900}},{"type":"Feature","geometry":{"type":"Point","coordinates":[-79.8555,40.23619]},"properties":{"p":"1735G00082000000","a":"SCENERY DR","m":"Elizabeth Twp","u":"L","o":"corp","sf":62770,"v":39700}},{"type":"Feature","geometry":{"type":"Point","coordinates":[-79.85554,40.23264]},"properties":{"p":"1735L00186000000","a":"PINEVIEW DR","m":"Elizabeth Twp","u":"L","o":"corp","sf":12632,"v":11100}},{"type":"Feature","geometry":{"type":"Point","coordinates":[-79.85009,40.23322]},"properties":{"p":"1735M00190000000","a":"PVT RD","m":"Elizabeth Twp","u":"L","o":"individual","sf":50,"v":100}},{"type":"Feature","geometry":{"type":"Point","coordinates":[-79.84968,40.23187]},"properties":{"p":"1735M00206000000","a":"PINEVIEW DR","m":"Elizabeth Twp","u":"L","o":"individual","sf":21911,"v":2000}},{"type":"Feature","geometry":{"type":"Point","coordinates":[-79.84896,40.23254]},"properties":{"p":"1735M00220000000","a":"EDWARD DR","m":"Elizabeth Twp","u":"L","o":"corp","sf":234353,"v":54300}},{"type":"Feature","geometry":{"type":"Point","coordinates":[-79.84988,40.23312]},"properties":{"p":"1735M00220000100","a":"EDWARD DR","m":"Elizabeth Twp","u":"L","o":"corp","sf":6534,"v":600}},{"type":"Feature","geometry":{"type":"Point","coordinates":[-79.84633,40.23769]},"properties":{"p":"1734A00052000000","a":"ROUND HILL RD","m":"Elizabeth Twp","u":"L","o":"individual","sf":87120,"v":41900}},{"type":"Feature","geometry":{"type":"Point","coordinates":[-79.84602,40.23073]},"properties":{"p":"1734N00123000000","a":"PINEVIEW DR","m":"Elizabeth Twp","u":"L","o":"individual","sf":27404,"v":35700}},{"type":"Feature","geometry":{"type":"Point","coordinates":[-79.84641,40.23079]},"properties":{"p":"1734N00142000000","a":"PINEVIEW DR","m":"Elizabeth Twp","u":"L","o":"individual","sf":28018,"v":18300}},{"type":"Feature","geometry":{"type":"Point","coordinates":[-79.84228,40.2302]},"properties":{"p":"1734P00130000000","a":"PRIVATE RD","m":"Elizabeth Twp","u":"L","o":"individual","sf":24536,"v":2200}},{"type":"Feature","geometry":{"type":"Point","coordinates":[-79.85474,40.23252]},"properties":{"p":"1735L00194000000","a":"PINEVIEW DR","m":"Elizabeth Twp","u":"L","o":"corp","sf":12196,"v":10700}},{"type":"Feature","geometry":{"type":"Point","coordinates":[-79.85849,40.2307]},"properties":{"p":"1735P00030000000","a":"GOLDEN CIR","m":"Forward","u":"L","o":"corp","sf":476546,"v":37800}},{"type":"Feature","geometry":{"type":"Point","coordinates":[-79.8566,40.23501]},"properties":{"p":"1735G00305000000","a":"PUBLIC RD","m":"Forward","u":"L","o":"individual","sf":130680,"v":13500}},{"type":"Feature","geometry":{"type":"Point","coordinates":[-79.85511,40.23472]},"properties":{"p":"1735G00068000000","a":"SCENERY DR","m":"Elizabeth Twp","u":"B","o":"corp","sf":53492,"v":6100}},{"type":"Feature","geometry":{"type":"Point","coordinates":[-79.85517,40.23515]},"properties":{"p":"1735G00073000000","a":"SCENERY DR","m":"Elizabeth Twp","u":"B","o":"corp","sf":51880,"v":6000}},{"type":"Feature","geometry":{"type":"Point","coordinates":[-79.85526,40.23567]},"properties":{"p":"1735G00078000000","a":"SCENERY DR","m":"Elizabeth Twp","u":"B","o":"corp","sf":71308,"v":8200}},{"type":"Feature","geometry":{"type":"Point","coordinates":[-79.85499,40.23371]},"properties":{"p":"1735L00137000000","a":"SCENERY DR","m":"Elizabeth Twp","u":"B","o":"corp","sf":81762,"v":9400}},{"type":"Feature","geometry":{"type":"Point","coordinates":[-79.85506,40.23428]},"properties":{"p":"1735G00063000000","a":"SCENERY DR","m":"Elizabeth Twp","u":"B","o":"corp","sf":55452,"v":6400}}]}