{"type":"FeatureCollection","features":[{"type":"Feature","geometry":{"type":"Point","coordinates":[-79.85125,40.25921]},"properties":{"p":"1270S00085000000","a":"GROUSE DR","m":"Elizabeth Twp","u":"C","o":"corp","sf":16602,"v":29100}},{"type":"Feature","geometry":{"type":"Point","coordinates":[-79.8549,40.25665]},"properties":{"p":"1417C00130000000","a":"WEIGLES HILL RD","m":"Elizabeth Twp","u":"L","o":"individual","sf":18690,"v":35600}},{"type":"Feature","geometry":{"type":"Point","coordinates":[-79.85469,40.25665]},"properties":{"p":"1417C00140000000","a":"WEIGLES HILL RD","m":"Elizabeth Twp","u":"L","o":"individual","sf":19417,"v":35700}},{"type":"Feature","geometry":{"type":"Point","coordinates":[-79.85853,40.25789]},"properties":{"p":"1417B00040000000","a":"WEIGLES HILL RD","m":"Elizabeth Twp","u":"L","o":"individual","sf":47306,"v":4300}},{"type":"Feature","geometry":{"type":"Point","coordinates":[-79.85793,40.2579]},"properties":{"p":"1417B00061000000","a":"WEIGLES HILL RD","m":"Elizabeth Twp","u":"L","o":"individual","sf":217800,"v":53900}},{"type":"Feature","geometry":{"type":"Point","coordinates":[-79.85489,40.25074]},"properties":{"p":"1417R00180000000","a":"SCENERY DR","m":"Elizabeth Twp","u":"L","o":"individual","sf":31607,"v":36800}},{"type":"Feature","geometry":{"type":"Point","coordinates":[-79.85225,40.25713]},"properties":{"p":"1417H00342000000","a":"WEIGLES HILL RD","m":"Elizabeth Twp","u":"L","o":"individual","sf":77101,"v":900}},{"type":"Feature","geometry":{"type":"Point","coordinates":[-79.85424,40.25076]},"properties":{"p":"1417R00126000000","a":"SCENERY DR","m":"Elizabeth Twp","u":"L","o":"individual","sf":10675,"v":15600}},{"type":"Feature","geometry":{"type":"Point","coordinates":[-79.85082,40.26104]},"properties":{"p":"1270M00195000000","a":"SCENERY DR","m":"Elizabeth Twp","u":"L","o":"individual","sf":18592,"v":35600}},{"type":"Feature","geometry":{"type":"Point","coordinates":[-79.85249,40.26835]},"properties":{"p":"1131S00186000000","a":"ANDOVER DR","m":"Elizabeth Twp","u":"L","o":"individual","sf":18638,"v":21000}},{"type":"Feature","geometry":{"type":"Point","coordinates":[-79.8553,40.26496]},"properties":{"p":"1270G00299000000","a":"STONEYBROOK DR","m":"Elizabeth Twp","u":"L","o":"individual","sf":18462,"v":13500}},{"type":"Feature","geometry":{"type":"Point","coordinates":[-79.85557,40.26504]},"properties":{"p":"1270G00306000000","a":"STONEYBROOK DR","m":"Elizabeth Twp","u":"L","o":"individual","sf":19766,"v":13700}},{"type":"Feature","geometry":{"type":"Point","coordinates":[-79.85014,40.25933]},"properties":{"p":"1270S00071000000","a":"180 GROUSE DR","m":"Elizabeth Twp","u":"L","o":"individual","sf":28117,"v":19000}},{"type":"Feature","geometry":{"type":"Point","coordinates":[-79.85023,40.26041]},"properties":{"p":"1270S00264000000","a":"1400 SCENERY DR","m":"Elizabeth Twp","u":"L","o":"individual","sf":11290,"v":16500}},{"type":"Feature","geometry":{"type":"Point","coordinates":[-79.84421,40.26885]},"properties":{"p":"1130P00201000000","a":"CIRCLE DR","m":"Elizabeth Twp","u":"L","o":"individual","sf":39253,"v":15400}},{"type":"Feature","geometry":{"type":"Point","coordinates":[-79.84431,40.25312]},"properties":{"p":"1416K00027000000","a":"741 DILLON RD","m":"Elizabeth Twp","u":"L","o":"individual","sf":65340,"v":800}},{"type":"Feature","geometry":{"type":"Point","coordinates":[-79.85088,40.26723]},"properties":{"p":"1276D00102000000","a":"COWAN DR","m":"Elizabeth Twp","u":"L","o":"individual","sf":11836,"v":9600}},{"type":"Feature","geometry":{"type":"Point","coordinates":[-79.85145,40.26762]},"properties":{"p":"1276D00128000000","a":"COWAN DR","m":"Elizabeth Twp","u":"L","o":"individual","sf":10808,"v":8800}},{"type":"Feature","geometry":{"type":"Point","coordinates":[-79.85125,40.26866]},"properties":{"p":"1270D00255000000","a":"COWAN DR","m":"Elizabeth Twp","u":"L","o":"corp","sf":114519,"v":35400}},{"type":"Feature","geometry":{"type":"Point","coordinates":[-79.85377,40.26691]},"properties":{"p":"1270D00334000000","a":"ANDOVER DR","m":"Elizabeth Twp","u":"L","o":"individual","sf":23992,"v":27100}},{"type":"Feature","geometry":{"type":"Point","coordinates":[-79.84928,40.25969]},"properties":{"p":"1269N00299000000","a":"SCENERY DR","m":"Elizabeth Twp","u":"L","o":"corp","sf":522,"v":800}},{"type":"Feature","geometry":{"type":"Point","coordinates":[-79.847,40.25458]},"properties":{"p":"1416E00208000000","a":"SCENERY DR","m":"Elizabeth Twp","u":"L","o":"individual","sf":930,"v":100}},{"type":"Feature","geometry":{"type":"Point","coordinates":[-79.85463,40.26597]},"properties":{"p":"1270C00031000000","a":"ANDOVER DR","m":"Elizabeth Twp","u":"L","o":"individual","sf":65601,"v":14000}},{"type":"Feature","geometry":{"type":"Point","coordinates":[-79.85207,40.26449]},"properties":{"p":"1270H00282000000","a":"SCENERY DR","m":"Elizabeth Twp","u":"L","o":"individual","sf":48657,"v":16400}},{"type":"Feature","geometry":{"type":"Point","coordinates":[-79.85492,40.25823]},"properties":{"p":"1270R00150000000","a":"BILLICKS LN","m":"Elizabeth Twp","u":"L","o":"individual","sf":209088,"v":2400}},{"type":"Feature","geometry":{"type":"Point","coordinates":[-79.85582,40.26752]},"properties":{"p":"1270C00160000000","a":"MILFORD DR","m":"Elizabeth Twp","u":"L","o":"individual","sf":10409,"v":24300}},{"type":"Feature","geometry":{"type":"Point","coordinates":[-79.84364,40.2677]},"properties":{"p":"1269B00237000000","a":"JENKINS DR","m":"Elizabeth Twp","u":"L","o":"individual","sf":9002,"v":800}},{"type":"Feature","geometry":{"type":"Point","coordinates":[-79.84444,40.26642]},"properties":{"p":"1269B00312000000","a":"CIRCLE DR","m":"Elizabeth Twp","u":"L","o":"individual","sf":182952,"v":28700}},{"type":"Feature","geometry":{"type":"Point","coordinates":[-79.84623,40.26981]},"properties":{"p":"1130N00128000000","a":"CIRCLE DR","m":"Elizabeth Twp","u":"L","o":"corp","sf":33909,"v":28000}},{"type":"Feature","geometry":{"type":"Point","coordinates":[-79.84971,40.25444]},"properties":{"p":"1416E00154000000","a":"SCENERY DR","m":"Elizabeth Twp","u":"L","o":"individual","sf":12915,"v":1200}},{"type":"Feature","geometry":{"type":"Point","coordinates":[-79.84449,40.26181]},"properties":{"p":"1269K00050000000","a":"ROUTE 48","m":"Elizabeth Twp","u":"L","o":"corp","sf":31450,"v":2800}},{"type":"Feature","geometry":{"type":"Point","coordinates":[-79.85031,40.26593]},"properties":{"p":"1270D00016000000","a":"SCENERY DR","m":"Elizabeth Twp","u":"L","o":"individual","sf":4620,"v":400}},{"type":"Feature","geometry":{"type":"Point","coordinates":[-79.84739,40.25537]},"properties":{"p":"1416E00302000000","a":"SCENERY DR","m":"Elizabeth Twp","u":"L","o":"individual","sf":16117,"v":35400}},{"type":"Feature","geometry":{"type":"Point","coordinates":[-79.84931,40.25538]},"properties":{"p":"1416E00340000000","a":"SCENERY DR","m":"Elizabeth Twp","u":"L","o":"individual","sf":16813,"v":18000}},{"type":"Feature","geometry":{"type":"Point","coordinates":[-79.84787,40.26649]},"properties":{"p":"1269A00353000000","a":"SCENERY DR","m":"Elizabeth Twp","u":"L","o":"individual","sf":218031,"v":20000}},{"type":"Feature","geometry":{"type":"Point","coordinates":[-79.84206,40.26755]},"properties":{"p":"1269B00128000000","a":"CIRCLE DR","m":"Elizabeth Twp","u":"L","o":"individual","sf":32949,"v":27900}},{"type":"Feature","geometry":{"type":"Point","coordinates":[-79.84183,40.26725]},"properties":{"p":"1269B00138000000","a":"CIRCLE DR","m":"Elizabeth Twp","u":"L","o":"individual","sf":20588,"v":26800}},{"type":"Feature","geometry":{"type":"Point","coordinates":[-79.84665,40.26912]},"properties":{"p":"1130N00066000000","a":"CIRCLE DR","m":"Elizabeth Twp","u":"L","o":"individual","sf":16271,"v":1500}},{"type":"Feature","geometry":{"type":"Point","coordinates":[-79.84744,40.26939]},"properties":{"p":"1130N00080000000","a":"CIRCLE DR","m":"Elizabeth Twp","u":"L","o":"individual","sf":13878,"v":9900}},{"type":"Feature","geometry":{"type":"Point","coordinates":[-79.85113,40.25834]},"properties":{"p":"1417D00126000000","a":"214 GROUSE DR","m":"Elizabeth Twp","u":"L","o":"individual","sf":435,"v":18200}},{"type":"Feature","geometry":{"type":"Point","coordinates":[-79.85092,40.25838]},"properties":{"p":"1417D00127000000","a":"GROUSE DR","m":"Elizabeth Twp","u":"L","o":"individual","sf":138,"v":100}},{"type":"Feature","geometry":{"type":"Point","coordinates":[-79.85248,40.25482]},"properties":{"p":"1417H00172000000","a":"SCENERY DR","m":"Elizabeth Twp","u":"L","o":"individual","sf":480,"v":100}},{"type":"Feature","geometry":{"type":"Point","coordinates":[-79.85402,40.25636]},"properties":{"p":"1417C00169000000","a":"WEIGLES HILL RD","m":"Elizabeth Twp","u":"L","o":"individual","sf":757,"v":100}},{"type":"Feature","geometry":{"type":"Point","coordinates":[-79.85705,40.25816]},"properties":{"p":"1417C00371000000","a":"BILLICKS LN","m":"Elizabeth Twp","u":"L","o":"individual","sf":67518,"v":6200}},{"type":"Feature","geometry":{"type":"Point","coordinates":[-79.85195,40.26404]},"properties":{"p":"1270H00309000000","a":"SCENERY DR","m":"Elizabeth Twp","u":"L","o":"individual","sf":41240,"v":37700}},{"type":"Feature","geometry":{"type":"Point","coordinates":[-79.85127,40.26783]},"properties":{"p":"1270D00120000000","a":"MEADOWVALE DR","m":"Elizabeth Twp","u":"L","o":"individual","sf":17100,"v":26500}},{"type":"Feature","geometry":{"type":"Point","coordinates":[-79.84957,40.26813]},"properties":{"p":"1269A00391000000","a":"SCENERY DR","m":"Elizabeth Twp","u":"L","o":"individual","sf":9000,"v":9700}},{"type":"Feature","geometry":{"type":"Point","coordinates":[-79.85692,40.26261]},"properties":{"p":"1270L00041000000","a":"HICKORY CIR","m":"Elizabeth Twp","u":"B","o":"corp","sf":36678,"v":1800}},{"type":"Feature","geometry":{"type":"Point","coordinates":[-79.85649,40.26263]},"properties":{"p":"1270L00043000000","a":"HICKORY CIR","m":"Elizabeth Twp","u":"B","o":"corp","sf":16161,"v":1800}},{"type":"Feature","geometry":{"type":"Point","coordinates":[-79.85648,40.26303]},"properties":{"p":"1270L00045000000","a":"HICKORY CIR","m":"Elizabeth Twp","u":"B","o":"corp","sf":12763,"v":1800}},{"type":"Feature","geometry":{"type":"Point","coordinates":[-79.85639,40.26326]},"properties":{"p":"1270L00047000000","a":"HICKORY CIR","m":"Elizabeth Twp","u":"B","o":"individual","sf":15551,"v":1800}},{"type":"Feature","geometry":{"type":"Point","coordinates":[-79.85424,40.26346]},"properties":{"p":"1270L00097000000","a":"433 CEDAR DR","m":"Elizabeth Twp","u":"B","o":"corp","sf":21170,"v":1800}},{"type":"Feature","geometry":{"type":"Point","coordinates":[-79.85461,40.2635]},"properties":{"p":"1270L00099000000","a":"435 CEDAR DR","m":"Elizabeth Twp","u":"B","o":"corp","sf":25439,"v":1800}},{"type":"Feature","geometry":{"type":"Point","coordinates":[-79.85361,40.26317]},"properties":{"p":"1270M00002000000","a":"HAPPY HOLLOW RD","m":"Elizabeth Twp","u":"B","o":"corp","sf":28662,"v":1800}},{"type":"Feature","geometry":{"type":"Point","coordinates":[-79.85304,40.26218]},"properties":{"p":"1270M00010000000","a":"HAPPY HOLLOW RD","m":"Elizabeth Twp","u":"B","o":"corp","sf":76491,"v":1800}},{"type":"Feature","geometry":{"type":"Point","coordinates":[-79.85854,40.26364]},"properties":{"p":"1270F00101000000","a":"CEDAR DR","m":"Elizabeth Twp","u":"B","o":"corp","sf":18382,"v":1800}},{"type":"Feature","geometry":{"type":"Point","coordinates":[-79.85782,40.2632]},"properties":{"p":"1270G00001000000","a":"CEDAR DR","m":"Elizabeth Twp","u":"B","o":"corp","sf":13895,"v":1800}},{"type":"Feature","geometry":{"type":"Point","coordinates":[-79.85763,40.26337]},"properties":{"p":"1270G00003000000","a":"CEDAR DR","m":"Elizabeth Twp","u":"B","o":"corp","sf":12545,"v":1800}},{"type":"Feature","geometry":{"type":"Point","coordinates":[-79.85731,40.26344]},"properties":{"p":"1270G00005000000","a":"CEDAR DR","m":"Elizabeth Twp","u":"B","o":"corp","sf":11499,"v":1800}},{"type":"Feature","geometry":{"type":"Point","coordinates":[-79.85893,40.25894]},"properties":{"p":"1270P00035000000","a":"MAPLE CIR","m":"Elizabeth Twp","u":"B","o":"corp","sf":13547,"v":1500}},{"type":"Feature","geometry":{"type":"Point","coordinates":[-79.85959,40.25881]},"properties":{"p":"1270P00037000100","a":"BILLICKS LN","m":"Elizabeth Twp","u":"B","o":"corp","sf":18121,"v":1800}},{"type":"Feature","geometry":{"type":"Point","coordinates":[-79.85996,40.25935]},"properties":{"p":"1270P00041000100","a":"WEIGLES HILL RD","m":"Elizabeth Twp","u":"B","o":"corp","sf":12066,"v":1300}},{"type":"Feature","geometry":{"type":"Point","coordinates":[-79.85763,40.26469]},"properties":{"p":"1270G00080000000","a":"HAPPY HOLLOW RD","m":"Elizabeth Twp","u":"B","o":"corp","sf":12850,"v":1800}},{"type":"Feature","geometry":{"type":"Point","coordinates":[-79.85591,40.26372]},"properties":{"p":"1270G00017000000","a":"CEDAR DR","m":"Elizabeth Twp","u":"B","o":"corp","sf":15768,"v":1800}},{"type":"Feature","geometry":{"type":"Point","coordinates":[-79.85858,40.25905]},"properties":{"p":"1270P00009000000","a":"ASH DR","m":"Elizabeth Twp","u":"B","o":"corp","sf":1285,"v":100}},{"type":"Feature","geometry":{"type":"Point","coordinates":[-79.8586,40.25966]},"properties":{"p":"1270P00013000000","a":"ASH DR","m":"Elizabeth Twp","u":"B","o":"corp","sf":10934,"v":1800}},{"type":"Feature","geometry":{"type":"Point","coordinates":[-79.85843,40.2598]},"properties":{"p":"1270P00015000000","a":"ASH DR","m":"Elizabeth Twp","u":"B","o":"corp","sf":10629,"v":1200}},{"type":"Feature","geometry":{"type":"Point","coordinates":[-79.85772,40.26396]},"properties":{"p":"1270G00029000000","a":"CEDAR DR","m":"Elizabeth Twp","u":"B","o":"corp","sf":20168,"v":1800}},{"type":"Feature","geometry":{"type":"Point","coordinates":[-79.85803,40.26387]},"properties":{"p":"1270G00031000000","a":"CEDAR DR","m":"Elizabeth Twp","u":"B","o":"corp","sf":18774,"v":1800}},{"type":"Feature","geometry":{"type":"Point","coordinates":[-79.8583,40.26376]},"properties":{"p":"1270G00033000000","a":"CEDAR DR","m":"Elizabeth Twp","u":"B","o":"corp","sf":17511,"v":1800}},{"type":"Feature","geometry":{"type":"Point","coordinates":[-79.85453,40.26391]},"properties":{"p":"1270G00050000000","a":"HAPPY HOLLOW RD","m":"Elizabeth Twp","u":"B","o":"corp","sf":25264,"v":1800}},{"type":"Feature","geometry":{"type":"Point","coordinates":[-79.85897,40.26234]},"properties":{"p":"1270K00030000000","a":"WILLOW DR","m":"Elizabeth Twp","u":"B","o":"corp","sf":16553,"v":1800}},{"type":"Feature","geometry":{"type":"Point","coordinates":[-79.85833,40.26236]},"properties":{"p":"1270K00034000000","a":"WILLOW DR","m":"Elizabeth Twp","u":"B","o":"corp","sf":19820,"v":1800}},{"type":"Feature","geometry":{"type":"Point","coordinates":[-79.85828,40.26292]},"properties":{"p":"1270K00036000000","a":"CEDAR DR","m":"Elizabeth Twp","u":"B","o":"corp","sf":14244,"v":1800}},{"type":"Feature","geometry":{"type":"Point","coordinates":[-79.85856,40.26283]},"properties":{"p":"1270K00038000000","a":"CEDAR DR","m":"Elizabeth Twp","u":"B","o":"corp","sf":12502,"v":1800}},{"type":"Feature","geometry":{"type":"Point","coordinates":[-79.85905,40.26279]},"properties":{"p":"1270K00040000000","a":"CEDAR DR","m":"Elizabeth Twp","u":"B","o":"corp","sf":31407,"v":1800}},{"type":"Feature","geometry":{"type":"Point","coordinates":[-79.85949,40.26305]},"properties":{"p":"1270K00042000000","a":"CEDAR DR","m":"Elizabeth Twp","u":"B","o":"corp","sf":73529,"v":1800}},{"type":"Feature","geometry":{"type":"Point","coordinates":[-79.85966,40.2636]},"properties":{"p":"1270K00044000000","a":"CEDAR DR","m":"Elizabeth Twp","u":"B","o":"corp","sf":77145,"v":1800}},{"type":"Feature","geometry":{"type":"Point","coordinates":[-79.85877,40.26354]},"properties":{"p":"1270K00046000000","a":"CEDAR DR","m":"Elizabeth Twp","u":"B","o":"corp","sf":17206,"v":1800}},{"type":"Feature","geometry":{"type":"Point","coordinates":[-79.85808,40.26162]},"properties":{"p":"1270L00001000000","a":"WILLOW DR","m":"Elizabeth Twp","u":"B","o":"corp","sf":14941,"v":1800}},{"type":"Feature","geometry":{"type":"Point","coordinates":[-79.85783,40.26149]},"properties":{"p":"1270L00003000000","a":"WILLOW DR","m":"Elizabeth Twp","u":"B","o":"corp","sf":16161,"v":1800}},{"type":"Feature","geometry":{"type":"Point","coordinates":[-79.85542,40.26287]},"properties":{"p":"1270L00053000000","a":"CEDAR DR","m":"Elizabeth Twp","u":"B","o":"corp","sf":22433,"v":1800}},{"type":"Feature","geometry":{"type":"Point","coordinates":[-79.85462,40.26274]},"properties":{"p":"1270L00057000000","a":"426 CEDAR DR","m":"Elizabeth Twp","u":"B","o":"corp","sf":28139,"v":1800}},{"type":"Feature","geometry":{"type":"Point","coordinates":[-79.8546,40.26235]},"properties":{"p":"1270L00059000000","a":"CEDAR DR","m":"Elizabeth Twp","u":"B","o":"corp","sf":15507,"v":1800}},{"type":"Feature","geometry":{"type":"Point","coordinates":[-79.85463,40.26216]},"properties":{"p":"1270L00061000000","a":"CEDAR DR","m":"Elizabeth Twp","u":"B","o":"corp","sf":16814,"v":1800}},{"type":"Feature","geometry":{"type":"Point","coordinates":[-79.85391,40.26356]},"properties":{"p":"1270H00001000000","a":"HAPPY HOLLOW RD","m":"Elizabeth Twp","u":"B","o":"corp","sf":22303,"v":1800}},{"type":"Feature","geometry":{"type":"Point","coordinates":[-79.85774,40.2595]},"properties":{"p":"1270R00034000000","a":"ASH DR","m":"Elizabeth Twp","u":"B","o":"corp","sf":16562,"v":1800}},{"type":"Feature","geometry":{"type":"Point","coordinates":[-79.85813,40.26021]},"properties":{"p":"1270R00036000000","a":"ASH DR","m":"Elizabeth Twp","u":"B","o":"corp","sf":10498,"v":1200}},{"type":"Feature","geometry":{"type":"Point","coordinates":[-79.85839,40.26177]},"properties":{"p":"1270K00012000000","a":"WILLOW DR","m":"Elizabeth Twp","u":"B","o":"corp","sf":18861,"v":1800}},{"type":"Feature","geometry":{"type":"Point","coordinates":[-79.85884,40.26181]},"properties":{"p":"1270K00014000000","a":"WILLOW DR","m":"Elizabeth Twp","u":"B","o":"corp","sf":16117,"v":1800}},{"type":"Feature","geometry":{"type":"Point","coordinates":[-79.85918,40.26168]},"properties":{"p":"1270K00016000000","a":"WILLOW DR","m":"Elizabeth Twp","u":"B","o":"corp","sf":14026,"v":1800}},{"type":"Feature","geometry":{"type":"Point","coordinates":[-79.85945,40.26154]},"properties":{"p":"1270K00018000000","a":"WILLOW DR","m":"Elizabeth Twp","u":"B","o":"corp","sf":13547,"v":1800}},{"type":"Feature","geometry":{"type":"Point","coordinates":[-79.85997,40.26205]},"properties":{"p":"1270K00024000000","a":"WILLOW DR","m":"Elizabeth Twp","u":"B","o":"corp","sf":21388,"v":1800}},{"type":"Feature","geometry":{"type":"Point","coordinates":[-79.85964,40.26213]},"properties":{"p":"1270K00026000000","a":"WILLOW DR","m":"Elizabeth Twp","u":"B","o":"corp","sf":22433,"v":1800}},{"type":"Feature","geometry":{"type":"Point","coordinates":[-79.85933,40.26229]},"properties":{"p":"1270K00028000000","a":"WILLOW DR","m":"Elizabeth Twp","u":"B","o":"corp","sf":19689,"v":1800}},{"type":"Feature","geometry":{"type":"Point","coordinates":[-79.85746,40.26209]},"properties":{"p":"1270L00029000000","a":"WILLOW DR","m":"Elizabeth Twp","u":"B","o":"corp","sf":17119,"v":1800}},{"type":"Feature","geometry":{"type":"Point","coordinates":[-79.85772,40.26219]},"properties":{"p":"1270L00031000000","a":"WILLOW DR","m":"Elizabeth Twp","u":"B","o":"corp","sf":16509,"v":1800}},{"type":"Feature","geometry":{"type":"Point","coordinates":[-79.85801,40.26228]},"properties":{"p":"1270L00033000000","a":"WILLOW DR","m":"Elizabeth Twp","u":"B","o":"corp","sf":18949,"v":1800}},{"type":"Feature","geometry":{"type":"Point","coordinates":[-79.85806,40.26307]},"properties":{"p":"1270L00035000000","a":"CEDAR DR","m":"Elizabeth Twp","u":"B","o":"corp","sf":13547,"v":1800}},{"type":"Feature","geometry":{"type":"Point","coordinates":[-79.85721,40.26314]},"properties":{"p":"1270L00037000000","a":"HICKORY CIR","m":"Elizabeth Twp","u":"B","o":"individual","sf":10759,"v":1800}},{"type":"Feature","geometry":{"type":"Point","coordinates":[-79.85762,40.26275]},"properties":{"p":"1270L00039000000","a":"HICKORY CIR","m":"Elizabeth Twp","u":"B","o":"corp","sf":46348,"v":1800}},{"type":"Feature","geometry":{"type":"Point","coordinates":[-79.85728,40.2619]},"properties":{"p":"1270L00027000000","a":"WILLOW DR","m":"Elizabeth Twp","u":"B","o":"individual","sf":17729,"v":1800}},{"type":"Feature","geometry":{"type":"Point","coordinates":[-79.85978,40.25909]},"properties":{"p":"1270P00039000100","a":"WEIGLES HILL RD","m":"Elizabeth Twp","u":"B","o":"corp","sf":12763,"v":7600}},{"type":"Feature","geometry":{"type":"Point","coordinates":[-79.85973,40.26137]},"properties":{"p":"1270K00020000000","a":"WILLOW DR","m":"Elizabeth Twp","u":"B","o":"corp","sf":17729,"v":1800}},{"type":"Feature","geometry":{"type":"Point","coordinates":[-79.85866,40.26237]},"properties":{"p":"1270K00032000000","a":"WILLOW DR","m":"Elizabeth Twp","u":"B","o":"corp","sf":15943,"v":1800}}]}