{"type":"FeatureCollection","features":[{"type":"Feature","geometry":{"type":"Point","coordinates":[-79.84297,40.27839]},"properties":{"p":"0999R00035000000","a":"ENTERPRISE ST","m":"Elizabeth Twp","u":"I","o":"corp","sf":552254,"v":46000}},{"type":"Feature","geometry":{"type":"Point","coordinates":[-79.84048,40.28074]},"properties":{"p":"0999R00037000000","a":"ENTERPRISE ST","m":"Elizabeth Twp","u":"I","o":"corp","sf":228734,"v":31500}},{"type":"Feature","geometry":{"type":"Point","coordinates":[-79.85256,40.27965]},"properties":{"p":"1000S00347000000","a":"FUEHRER DR","m":"Lincoln","u":"C","o":"corp","sf":36765,"v":4400}},{"type":"Feature","geometry":{"type":"Point","coordinates":[-79.8408,40.27873]},"properties":{"p":"0999R00051000000","a":"ENTERPRISE ST","m":"Elizabeth Twp","u":"C","o":"individual","sf":175869,"v":11500}},{"type":"Feature","geometry":{"type":"Point","coordinates":[-79.84024,40.27276]},"properties":{"p":"1130L00286000000","a":"626 SCENERY DR","m":"Elizabeth Twp","u":"C","o":"individual","sf":10000,"v":500}},{"type":"Feature","geometry":{"type":"Point","coordinates":[-79.84892,40.27529]},"properties":{"p":"1131C00040000000","a":"MILL HILL RD","m":"Elizabeth Twp","u":"C","o":"corp","sf":2865378,"v":107100}},{"type":"Feature","geometry":{"type":"Point","coordinates":[-79.84013,40.28299]},"properties":{"p":"0999F00286000000","a":"LOVEDALE RD","m":"Elizabeth Twp","u":"C","o":"corp","sf":2238113,"v":75000}},{"type":"Feature","geometry":{"type":"Point","coordinates":[-79.84207,40.27749]},"properties":{"p":"0999R00041000000","a":"ENTERPRISE ST","m":"Elizabeth Twp","u":"C","o":"corp","sf":338740,"v":13300}},{"type":"Feature","geometry":{"type":"Point","coordinates":[-79.85368,40.28205]},"properties":{"p":"1000M00328000000","a":"FUEHRER DR","m":"Lincoln","u":"L","o":"individual","sf":12354,"v":1100}},{"type":"Feature","geometry":{"type":"Point","coordinates":[-79.85297,40.28539]},"properties":{"p":"1000D00123000000","a":"HARRISON RD","m":"Lincoln","u":"L","o":"individual","sf":87164,"v":8000}},{"type":"Feature","geometry":{"type":"Point","coordinates":[-79.8554,40.28259]},"properties":{"p":"1000G00149000000","a":"117 FUEHRER DR","m":"Lincoln","u":"L","o":"individual","sf":393782,"v":12000}},{"type":"Feature","geometry":{"type":"Point","coordinates":[-79.84036,40.28884]},"properties":{"p":"0876R00294000000","a":"187 PIERCE RD","m":"Lincoln","u":"L","o":"individual","sf":51183,"v":14400}},{"type":"Feature","geometry":{"type":"Point","coordinates":[-79.8408,40.28891]},"properties":{"p":"0876R00306000000","a":"185 PIERCE RD","m":"Lincoln","u":"L","o":"individual","sf":24675,"v":2200}},{"type":"Feature","geometry":{"type":"Point","coordinates":[-79.84119,40.28748]},"properties":{"p":"0999B00086000000","a":"PIERCE RD","m":"Lincoln","u":"L","o":"individual","sf":49266,"v":4500}},{"type":"Feature","geometry":{"type":"Point","coordinates":[-79.84242,40.28552]},"properties":{"p":"0999B00199000000","a":"PIERCE RD","m":"Lincoln","u":"L","o":"individual","sf":6312,"v":3700}},{"type":"Feature","geometry":{"type":"Point","coordinates":[-79.84642,40.28452]},"properties":{"p":"0999E00160000000","a":"LOVEDALE RD","m":"Lincoln","u":"L","o":"individual","sf":805860,"v":65400}},{"type":"Feature","geometry":{"type":"Point","coordinates":[-79.85765,40.27859]},"properties":{"p":"1000R00251000000","a":"LOVEDALE RD","m":"Lincoln","u":"L","o":"individual","sf":11822,"v":18300}},{"type":"Feature","geometry":{"type":"Point","coordinates":[-79.85208,40.2802]},"properties":{"p":"1000M00256000000","a":"BEVERLY LN","m":"Lincoln","u":"L","o":"individual","sf":14465,"v":1300}},{"type":"Feature","geometry":{"type":"Point","coordinates":[-79.85281,40.28192]},"properties":{"p":"1000M00291000000","a":"FUEHRER DR","m":"Lincoln","u":"L","o":"individual","sf":12500,"v":1100}},{"type":"Feature","geometry":{"type":"Point","coordinates":[-79.85773,40.27842]},"properties":{"p":"1000R00257000000","a":"LOVEDALE RD","m":"Lincoln","u":"L","o":"individual","sf":2727,"v":1600}},{"type":"Feature","geometry":{"type":"Point","coordinates":[-79.85123,40.28034]},"properties":{"p":"1000S00290000000","a":"LOVEDALE RD","m":"Lincoln","u":"L","o":"individual","sf":71961,"v":27800}},{"type":"Feature","geometry":{"type":"Point","coordinates":[-79.85338,40.27946]},"properties":{"p":"1000S00385000000","a":"LOVEDALE RD","m":"Lincoln","u":"L","o":"individual","sf":43865,"v":4000}},{"type":"Feature","geometry":{"type":"Point","coordinates":[-79.84693,40.28974]},"properties":{"p":"0876N00076000000","a":"LIBERTY WAY","m":"Lincoln","u":"L","o":"individual","sf":43560,"v":10800}},{"type":"Feature","geometry":{"type":"Point","coordinates":[-79.84696,40.28936]},"properties":{"p":"0876N00084000000","a":"LIBERTY WAY","m":"Lincoln","u":"L","o":"individual","sf":16494,"v":1500}},{"type":"Feature","geometry":{"type":"Point","coordinates":[-79.84698,40.28914]},"properties":{"p":"0876N00096000000","a":"LIBERTY WAY","m":"Lincoln","u":"L","o":"individual","sf":27216,"v":2500}},{"type":"Feature","geometry":{"type":"Point","coordinates":[-79.84206,40.28526]},"properties":{"p":"0999B00003000000","a":"PIERCE RD","m":"Lincoln","u":"L","o":"individual","sf":924,"v":100}},{"type":"Feature","geometry":{"type":"Point","coordinates":[-79.841,40.2871]},"properties":{"p":"0999B00070000000","a":"PIERCE RD","m":"Lincoln","u":"L","o":"individual","sf":43560,"v":13700}},{"type":"Feature","geometry":{"type":"Point","coordinates":[-79.85359,40.28469]},"properties":{"p":"1000H00034000000","a":"LOVEDALE RD","m":"Lincoln","u":"L","o":"individual","sf":435600,"v":5000}},{"type":"Feature","geometry":{"type":"Point","coordinates":[-79.85069,40.28193]},"properties":{"p":"1000M00039000000","a":"LOVEDALE RD","m":"Lincoln","u":"L","o":"individual","sf":511830,"v":47900}},{"type":"Feature","geometry":{"type":"Point","coordinates":[-79.85849,40.27841]},"properties":{"p":"1000P00030000000","a":"LOVEDALE RD","m":"Lincoln","u":"L","o":"individual","sf":34796,"v":3100}},{"type":"Feature","geometry":{"type":"Point","coordinates":[-79.85336,40.27786]},"properties":{"p":"1000S00175000000","a":"636 JACKTOWN RD","m":"Elizabeth Twp","u":"L","o":"individual","sf":51998,"v":20400}},{"type":"Feature","geometry":{"type":"Point","coordinates":[-79.85109,40.2798]},"properties":{"p":"1000S00266000000","a":"LOVEDALE RD","m":"Elizabeth Twp","u":"L","o":"corp","sf":10890,"v":27000}},{"type":"Feature","geometry":{"type":"Point","coordinates":[-79.8536,40.27896]},"properties":{"p":"1000S00385000100","a":"LOVEDALE RD","m":"Elizabeth Twp","u":"L","o":"individual","sf":53579,"v":38100}},{"type":"Feature","geometry":{"type":"Point","coordinates":[-79.85415,40.27858]},"properties":{"p":"1000R00032000000","a":"JACKTOWN RD","m":"Elizabeth Twp","u":"L","o":"individual","sf":21083,"v":13600}},{"type":"Feature","geometry":{"type":"Point","coordinates":[-79.85588,40.27676]},"properties":{"p":"1000R00068000000","a":"MILL HILL RD","m":"Elizabeth Twp","u":"L","o":"individual","sf":245591,"v":53800}},{"type":"Feature","geometry":{"type":"Point","coordinates":[-79.85763,40.27807]},"properties":{"p":"1000R00089000000","a":"LOVEDALE RD","m":"Elizabeth Twp","u":"L","o":"individual","sf":17826,"v":33100}},{"type":"Feature","geometry":{"type":"Point","coordinates":[-79.85709,40.2782]},"properties":{"p":"1000R00099000000","a":"LOVEDALE RD","m":"Elizabeth Twp","u":"L","o":"individual","sf":11161,"v":1000}},{"type":"Feature","geometry":{"type":"Point","coordinates":[-79.85467,40.27863]},"properties":{"p":"1000R00117000000","a":"LOVEDALE RD","m":"Elizabeth Twp","u":"L","o":"individual","sf":46982,"v":37400}},{"type":"Feature","geometry":{"type":"Point","coordinates":[-79.8555,40.27761]},"properties":{"p":"1000R00120000000","a":"MILL HILL RD","m":"Elizabeth Twp","u":"L","o":"individual","sf":68871,"v":39400}},{"type":"Feature","geometry":{"type":"Point","coordinates":[-79.8503,40.27953]},"properties":{"p":"1000S00079000000","a":"JACKTOWN RD","m":"Elizabeth Twp","u":"L","o":"individual","sf":1560,"v":100}},{"type":"Feature","geometry":{"type":"Point","coordinates":[-79.85809,40.27797]},"properties":{"p":"1000P00011000000","a":"LOVEDALE RD","m":"Elizabeth Twp","u":"L","o":"individual","sf":6265,"v":22900}},{"type":"Feature","geometry":{"type":"Point","coordinates":[-79.84343,40.27971]},"properties":{"p":"0999P00025000000","a":"JACKTOWN RD EXT","m":"Elizabeth Twp","u":"L","o":"individual","sf":217800,"v":15000}},{"type":"Feature","geometry":{"type":"Point","coordinates":[-79.85115,40.2784]},"properties":{"p":"1000S00112000000","a":"JACKTOWN RD","m":"Elizabeth Twp","u":"L","o":"individual","sf":148030,"v":46800}},{"type":"Feature","geometry":{"type":"Point","coordinates":[-79.85223,40.27823]},"properties":{"p":"1000S00159000000","a":"JACKTOWN RD","m":"Elizabeth Twp","u":"L","o":"individual","sf":174240,"v":8000}},{"type":"Feature","geometry":{"type":"Point","coordinates":[-79.8401,40.27701]},"properties":{"p":"1130C00233000000","a":"240 GIBSON RD","m":"Elizabeth Twp","u":"L","o":"individual","sf":21118,"v":1900}},{"type":"Feature","geometry":{"type":"Point","coordinates":[-79.84389,40.27176]},"properties":{"p":"1130K00243000000","a":"SCENERY DR","m":"Elizabeth Twp","u":"L","o":"individual","sf":30846,"v":2800}},{"type":"Feature","geometry":{"type":"Point","coordinates":[-79.85226,40.2746]},"properties":{"p":"1131H00200000000","a":"MILL HILL RD","m":"Elizabeth Twp","u":"L","o":"individual","sf":216493,"v":16000}},{"type":"Feature","geometry":{"type":"Point","coordinates":[-79.85798,40.27137]},"properties":{"p":"1131K00022000000","a":"MILL HILL RD","m":"Elizabeth Twp","u":"L","o":"individual","sf":132640,"v":12200}},{"type":"Feature","geometry":{"type":"Point","coordinates":[-79.85936,40.27065]},"properties":{"p":"1131P00090000000","a":"MILL HILL RD","m":"Elizabeth Twp","u":"L","o":"corp","sf":43560,"v":37200}},{"type":"Feature","geometry":{"type":"Point","coordinates":[-79.84785,40.27067]},"properties":{"p":"1130J00368000000","a":"MILL HILL RD","m":"Elizabeth Twp","u":"L","o":"individual","sf":18730,"v":1700}},{"type":"Feature","geometry":{"type":"Point","coordinates":[-79.84406,40.27202]},"properties":{"p":"1130K00236000000","a":"STATE ROUTE 48","m":"Elizabeth Twp","u":"L","o":"individual","sf":15402,"v":1400}},{"type":"Feature","geometry":{"type":"Point","coordinates":[-79.85315,40.27135]},"properties":{"p":"1130N00272000000","a":"900 SCENERY DR","m":"Elizabeth Twp","u":"L","o":"individual","sf":2515590,"v":211200}},{"type":"Feature","geometry":{"type":"Point","coordinates":[-79.85356,40.27678]},"properties":{"p":"1131C00046000000","a":"JACKTOWN RD","m":"Elizabeth Twp","u":"L","o":"individual","sf":135036,"v":45600}},{"type":"Feature","geometry":{"type":"Point","coordinates":[-79.85625,40.27559]},"properties":{"p":"1131C00250000000","a":"MILL HILL RD","m":"Elizabeth Twp","u":"L","o":"individual","sf":43560,"v":37200}},{"type":"Feature","geometry":{"type":"Point","coordinates":[-79.8573,40.27556]},"properties":{"p":"1131C00258000000","a":"MILL HILL RD","m":"Elizabeth Twp","u":"L","o":"corp","sf":261360,"v":56200}},{"type":"Feature","geometry":{"type":"Point","coordinates":[-79.85671,40.27428]},"properties":{"p":"1131G00364000000","a":"MILL HILL RD","m":"Elizabeth Twp","u":"L","o":"individual","sf":319295,"v":7300}},{"type":"Feature","geometry":{"type":"Point","coordinates":[-79.84538,40.27106]},"properties":{"p":"1130J00020000000","a":"SCENERY DR","m":"Elizabeth Twp","u":"L","o":"individual","sf":42936,"v":3900}},{"type":"Feature","geometry":{"type":"Point","coordinates":[-79.84528,40.272]},"properties":{"p":"1130J00031000000","a":"SCENERY DR","m":"Elizabeth Twp","u":"L","o":"individual","sf":24805,"v":18000}},{"type":"Feature","geometry":{"type":"Point","coordinates":[-79.85956,40.27767]},"properties":{"p":"1131B00370000000","a":"LOVEDALE RD","m":"Elizabeth Twp","u":"L","o":"individual","sf":96268,"v":42000}},{"type":"Feature","geometry":{"type":"Point","coordinates":[-79.85524,40.28381]},"properties":{"p":"1000G00140000000","a":"FUEHRER DR","m":"Lincoln","u":"L","o":"individual","sf":43560,"v":500}},{"type":"Feature","geometry":{"type":"Point","coordinates":[-79.84884,40.28102]},"properties":{"p":"0999J00075000000","a":"780 LOVEDALE RD","m":"Elizabeth Twp","u":"L","o":"individual","sf":9104,"v":8000}},{"type":"Feature","geometry":{"type":"Point","coordinates":[-79.85898,40.27835]},"properties":{"p":"1000P00038000000","a":"LOVEDALE RD","m":"Lincoln","u":"L","o":"individual","sf":20896,"v":5000}},{"type":"Feature","geometry":{"type":"Point","coordinates":[-79.84626,40.27079]},"properties":{"p":"1130J00008000000","a":"SCENERY DR","m":"Elizabeth Twp","u":"L","o":"individual","sf":4888,"v":400}},{"type":"Feature","geometry":{"type":"Point","coordinates":[-79.84141,40.28852]},"properties":{"p":"0876P00020000000","a":"PIERCE RD","m":"Lincoln","u":"L","o":"individual","sf":30056,"v":2700}},{"type":"Feature","geometry":{"type":"Point","coordinates":[-79.84691,40.2795]},"properties":{"p":"0999N00181000000","a":"LOVEDALE RD","m":"Elizabeth Twp","u":"L","o":"individual","sf":46348,"v":5400}},{"type":"Feature","geometry":{"type":"Point","coordinates":[-79.84107,40.27668]},"properties":{"p":"1130C00207000000","a":"240 GIBSON RD","m":"Elizabeth Twp","u":"L","o":"individual","sf":21118,"v":1900}},{"type":"Feature","geometry":{"type":"Point","coordinates":[-79.85469,40.27388]},"properties":{"p":"1131G00176000000","a":"MILL HILL RD","m":"Elizabeth Twp","u":"L","o":"individual","sf":403366,"v":25000}},{"type":"Feature","geometry":{"type":"Point","coordinates":[-79.851,40.27954]},"properties":{"p":"1000S00245000000","a":"JACKTOWN RD","m":"Elizabeth Twp","u":"L","o":"individual","sf":65340,"v":39200}},{"type":"Feature","geometry":{"type":"Point","coordinates":[-79.84673,40.28282]},"properties":{"p":"0999J00143000000","a":"LOVEDALE RD","m":"Elizabeth Twp","u":"L","o":"individual","sf":89342,"v":23900}}]}