{"type":"FeatureCollection","features":[{"type":"Feature","geometry":{"type":"Point","coordinates":[-79.85268,40.30263]},"properties":{"p":"0762H00221000000","a":"LOVEDALE RD","m":"Lincoln","u":"I","o":"corp","sf":9214,"v":6400}},{"type":"Feature","geometry":{"type":"Point","coordinates":[-79.85741,40.30133]},"properties":{"p":"0762R00215000000","a":"HARRISON RD","m":"Lincoln","u":"C","o":"corp","sf":1929272,"v":54800}},{"type":"Feature","geometry":{"type":"Point","coordinates":[-79.85966,40.30768]},"properties":{"p":"0655P00155000000","a":"BELLBRIDGE RD","m":"Lincoln","u":"C","o":"individual","sf":82132,"v":5700}},{"type":"Feature","geometry":{"type":"Point","coordinates":[-79.84561,40.30867]},"properties":{"p":"0654P00235000000","a":"CALHOUN RD","m":"Lincoln","u":"C","o":"corp","sf":374616,"v":9900}},{"type":"Feature","geometry":{"type":"Point","coordinates":[-79.85269,40.30236]},"properties":{"p":"0762H00201000000","a":"LIBERTY WAY","m":"Lincoln","u":"C","o":"corp","sf":58022,"v":34500}},{"type":"Feature","geometry":{"type":"Point","coordinates":[-79.85006,40.29833]},"properties":{"p":"0762S00008000000","a":"LIBERTY WAY","m":"Lincoln","u":"L","o":"individual","sf":38312,"v":3500}},{"type":"Feature","geometry":{"type":"Point","coordinates":[-79.85198,40.29932]},"properties":{"p":"0762S00061000000","a":"LIBERTY WAY","m":"Lincoln","u":"L","o":"individual","sf":25120,"v":2300}},{"type":"Feature","geometry":{"type":"Point","coordinates":[-79.85122,40.29897]},"properties":{"p":"0762S00088000000","a":"LIBERTY WAY","m":"Lincoln","u":"L","o":"individual","sf":11396,"v":6600}},{"type":"Feature","geometry":{"type":"Point","coordinates":[-79.85082,40.29861]},"properties":{"p":"0762S00112000000","a":"LIBERTY WAY","m":"Lincoln","u":"L","o":"individual","sf":6520,"v":600}},{"type":"Feature","geometry":{"type":"Point","coordinates":[-79.85657,40.30976]},"properties":{"p":"0655L00060000000","a":"LIBERTY WAY","m":"Lincoln","u":"L","o":"individual","sf":51806,"v":4800}},{"type":"Feature","geometry":{"type":"Point","coordinates":[-79.85226,40.29952]},"properties":{"p":"0762M00158000000","a":"LIBERTY WAY","m":"Lincoln","u":"L","o":"individual","sf":28184,"v":2500}},{"type":"Feature","geometry":{"type":"Point","coordinates":[-79.85795,40.29293]},"properties":{"p":"0877G00059000000","a":"HARRISON RD","m":"Lincoln","u":"L","o":"individual","sf":130680,"v":33200}},{"type":"Feature","geometry":{"type":"Point","coordinates":[-79.85649,40.29479]},"properties":{"p":"0877G00115000000","a":"97 HARRISON RD","m":"Lincoln","u":"L","o":"individual","sf":44039,"v":5000}},{"type":"Feature","geometry":{"type":"Point","coordinates":[-79.85628,40.29444]},"properties":{"p":"0877G00125000000","a":"HARRISON RD","m":"Lincoln","u":"L","o":"individual","sf":41375,"v":3700}},{"type":"Feature","geometry":{"type":"Point","coordinates":[-79.85616,40.29339]},"properties":{"p":"0877G00186000000","a":"HARRISON RD","m":"Lincoln","u":"L","o":"individual","sf":9583,"v":900}},{"type":"Feature","geometry":{"type":"Point","coordinates":[-79.85765,40.29485]},"properties":{"p":"0877C00019000000","a":"100 COYOTE RIDGE RD","m":"Lincoln","u":"L","o":"corp","sf":113692,"v":7800}},{"type":"Feature","geometry":{"type":"Point","coordinates":[-79.85843,40.29703]},"properties":{"p":"0877C00048000000","a":"HARRISON RD","m":"Lincoln","u":"L","o":"individual","sf":532338,"v":51900}},{"type":"Feature","geometry":{"type":"Point","coordinates":[-79.84483,40.29572]},"properties":{"p":"0876B00031000000","a":"FINNEY RD","m":"Lincoln","u":"L","o":"individual","sf":111078,"v":1300}},{"type":"Feature","geometry":{"type":"Point","coordinates":[-79.84415,40.29532]},"properties":{"p":"0876B00048000000","a":"FINNEY RD","m":"Lincoln","u":"L","o":"individual","sf":26412,"v":1000}},{"type":"Feature","geometry":{"type":"Point","coordinates":[-79.84729,40.30138]},"properties":{"p":"0761J00211000000","a":"WEST SMITHFIELD ST","m":"Lincoln","u":"L","o":"individual","sf":253127,"v":10000}},{"type":"Feature","geometry":{"type":"Point","coordinates":[-79.84586,40.30127]},"properties":{"p":"0761J00219000000","a":"WEST SMITHFIELD ST","m":"Lincoln","u":"L","o":"individual","sf":103760,"v":1200}},{"type":"Feature","geometry":{"type":"Point","coordinates":[-79.84246,40.30111]},"properties":{"p":"0761K00139000000","a":"WEST SMITHFIELD ST","m":"Lincoln","u":"L","o":"individual","sf":300825,"v":43100}},{"type":"Feature","geometry":{"type":"Point","coordinates":[-79.84381,40.29495]},"properties":{"p":"0876B00058000000","a":"FINNEY RD","m":"Lincoln","u":"L","o":"individual","sf":21780,"v":2500}},{"type":"Feature","geometry":{"type":"Point","coordinates":[-79.84246,40.29415]},"properties":{"p":"0876B00067000000","a":"FINNEY RD","m":"Lincoln","u":"L","o":"individual","sf":356146,"v":14000}},{"type":"Feature","geometry":{"type":"Point","coordinates":[-79.84837,40.29439]},"properties":{"p":"0876E00266000000","a":"LINCOLN WAY","m":"Lincoln","u":"L","o":"individual","sf":70733,"v":27600}},{"type":"Feature","geometry":{"type":"Point","coordinates":[-79.85431,40.30589]},"properties":{"p":"0762C00064000000","a":"4208 LIBERTY WAY","m":"Lincoln","u":"L","o":"individual","sf":21687,"v":2000}},{"type":"Feature","geometry":{"type":"Point","coordinates":[-79.85278,40.30214]},"properties":{"p":"0762H00212000000","a":"LOVEDALE RD","m":"Lincoln","u":"L","o":"corp","sf":4320,"v":400}},{"type":"Feature","geometry":{"type":"Point","coordinates":[-79.85238,40.30333]},"properties":{"p":"0762H00262000000","a":"4314 LIBERTY WAY","m":"Lincoln","u":"L","o":"corp","sf":6000,"v":500}},{"type":"Feature","geometry":{"type":"Point","coordinates":[-79.85389,40.30318]},"properties":{"p":"0762H00358000000","a":"LINDEN RD","m":"Lincoln","u":"L","o":"individual","sf":4950,"v":500}},{"type":"Feature","geometry":{"type":"Point","coordinates":[-79.84919,40.29208]},"properties":{"p":"0876A00032000000","a":"LIBERTY WAY","m":"Lincoln","u":"L","o":"individual","sf":1428768,"v":69000}},{"type":"Feature","geometry":{"type":"Point","coordinates":[-79.84993,40.29732]},"properties":{"p":"0876A00080000000","a":"LIBERTY WAY","m":"Lincoln","u":"L","o":"individual","sf":36985,"v":5000}},{"type":"Feature","geometry":{"type":"Point","coordinates":[-79.84784,40.30543]},"properties":{"p":"0761A00182000000","a":"W SMITHFIELD ST","m":"Lincoln","u":"L","o":"individual","sf":289369,"v":15900}},{"type":"Feature","geometry":{"type":"Point","coordinates":[-79.84742,40.30752]},"properties":{"p":"0761A00377000000","a":"CALHOUN RD","m":"Lincoln","u":"L","o":"individual","sf":668646,"v":51500}},{"type":"Feature","geometry":{"type":"Point","coordinates":[-79.84454,40.3065]},"properties":{"p":"0761B00381000000","a":"CALHOUN RD","m":"Lincoln","u":"L","o":"individual","sf":87120,"v":29200}},{"type":"Feature","geometry":{"type":"Point","coordinates":[-79.84897,40.29963]},"properties":{"p":"0761J00197000000","a":"WEST SMITHFIELD ST","m":"Lincoln","u":"L","o":"individual","sf":45302,"v":9000}},{"type":"Feature","geometry":{"type":"Point","coordinates":[-79.8408,40.29524]},"properties":{"p":"0876C00178000000","a":"FINNEY RD","m":"Lincoln","u":"L","o":"individual","sf":43560,"v":25200}},{"type":"Feature","geometry":{"type":"Point","coordinates":[-79.84503,40.29484]},"properties":{"p":"0876E00074000000","a":"FINNEY RD","m":"Lincoln","u":"L","o":"individual","sf":277477,"v":42500}},{"type":"Feature","geometry":{"type":"Point","coordinates":[-79.84627,40.29561]},"properties":{"p":"0876E00080000000","a":"LIBERTY WAY","m":"Lincoln","u":"L","o":"individual","sf":150369,"v":35000}},{"type":"Feature","geometry":{"type":"Point","coordinates":[-79.85156,40.30609]},"properties":{"p":"0762D00209000000","a":"LIBERTY WAY","m":"Lincoln","u":"L","o":"individual","sf":370260,"v":10500}},{"type":"Feature","geometry":{"type":"Point","coordinates":[-79.85024,40.30659]},"properties":{"p":"0762D00270000000","a":"CALHOUN RD","m":"Lincoln","u":"L","o":"individual","sf":21250,"v":23100}},{"type":"Feature","geometry":{"type":"Point","coordinates":[-79.84157,40.30714]},"properties":{"p":"0654P00140000000","a":"YOUGH RD","m":"Lincoln","u":"L","o":"individual","sf":257004,"v":21600}},{"type":"Feature","geometry":{"type":"Point","coordinates":[-79.84189,40.29914]},"properties":{"p":"0761P00148000000","a":"WEST SMITHFIELD ST","m":"Lincoln","u":"L","o":"individual","sf":47916,"v":600}},{"type":"Feature","geometry":{"type":"Point","coordinates":[-79.84022,40.29335]},"properties":{"p":"0876G00255000000","a":"FINNEY RD","m":"Lincoln","u":"L","o":"individual","sf":109989,"v":31300}},{"type":"Feature","geometry":{"type":"Point","coordinates":[-79.84071,40.294]},"properties":{"p":"0876G00277000000","a":"FINNEY RD","m":"Lincoln","u":"L","o":"individual","sf":38772,"v":3500}},{"type":"Feature","geometry":{"type":"Point","coordinates":[-79.85588,40.30702]},"properties":{"p":"0762C00077000000","a":"31 ABES WAY","m":"Lincoln","u":"L","o":"individual","sf":79510,"v":28500}},{"type":"Feature","geometry":{"type":"Point","coordinates":[-79.85529,40.30596]},"properties":{"p":"0762C00081000000","a":"LIBERTY WAY","m":"Lincoln","u":"L","o":"individual","sf":86684,"v":29100}},{"type":"Feature","geometry":{"type":"Point","coordinates":[-79.85475,40.30638]},"properties":{"p":"0762C00083000000","a":"LIBERTY WAY","m":"Lincoln","u":"L","o":"individual","sf":29098,"v":2600}},{"type":"Feature","geometry":{"type":"Point","coordinates":[-79.84967,40.30469]},"properties":{"p":"0762D00008000000","a":"CALHOUN RD","m":"Lincoln","u":"L","o":"individual","sf":157992,"v":35700}},{"type":"Feature","geometry":{"type":"Point","coordinates":[-79.85034,40.30549]},"properties":{"p":"0762D00049000000","a":"CALHOUN RD","m":"Lincoln","u":"L","o":"individual","sf":33342,"v":3000}},{"type":"Feature","geometry":{"type":"Point","coordinates":[-79.85063,40.3053]},"properties":{"p":"0762D00055000000","a":"CALHOUN RD","m":"Lincoln","u":"L","o":"individual","sf":34550,"v":3100}},{"type":"Feature","geometry":{"type":"Point","coordinates":[-79.85468,40.30485]},"properties":{"p":"0762D00121000000","a":"LIBERTY WAY","m":"Lincoln","u":"L","o":"corp","sf":420702,"v":34400}},{"type":"Feature","geometry":{"type":"Point","coordinates":[-79.84024,40.29092]},"properties":{"p":"0876R00370000000","a":"334 FINNEY RD","m":"Lincoln","u":"L","o":"individual","sf":339463,"v":23400}},{"type":"Feature","geometry":{"type":"Point","coordinates":[-79.84978,40.30852]},"properties":{"p":"0654N00018000000","a":"CALHOUN RD","m":"Lincoln","u":"L","o":"individual","sf":11191,"v":6500}},{"type":"Feature","geometry":{"type":"Point","coordinates":[-79.85323,40.3063]},"properties":{"p":"0762D00159000100","a":"LIBERTY WAY","m":"Lincoln","u":"L","o":"individual","sf":33106,"v":12800}},{"type":"Feature","geometry":{"type":"Point","coordinates":[-79.85061,40.29699]},"properties":{"p":"0877D00212000000","a":"LIBERTY WAY","m":"Lincoln","u":"L","o":"individual","sf":98010,"v":9000}},{"type":"Feature","geometry":{"type":"Point","coordinates":[-79.84672,40.29405]},"properties":{"p":"0876E00096000000","a":"LIBERTY WAY","m":"Lincoln","u":"L","o":"individual","sf":108900,"v":31200}},{"type":"Feature","geometry":{"type":"Point","coordinates":[-79.84151,40.3037]},"properties":{"p":"0761G00389000000","a":"WEST SMITHFIELD ST","m":"Lincoln","u":"L","o":"individual","sf":402930,"v":45400}},{"type":"Feature","geometry":{"type":"Point","coordinates":[-79.85156,40.29924]},"properties":{"p":"0762S00075000000","a":"LIBERTY WAY","m":"Lincoln","u":"L","o":"individual","sf":19968,"v":11600}},{"type":"Feature","geometry":{"type":"Point","coordinates":[-79.85101,40.30912]},"properties":{"p":"0654N00025000000","a":"CALHOUN RD","m":"Lincoln","u":"L","o":"individual","sf":359283,"v":45500}}]}