{"type":"FeatureCollection","features":[{"type":"Feature","geometry":{"type":"Point","coordinates":[-79.84156,40.32744]},"properties":{"p":"0464R00378000000","a":"WALNUT ST","m":"12th Ward  - McKEESPORT","u":"I","o":"corp","sf":14375,"v":2600}},{"type":"Feature","geometry":{"type":"Point","coordinates":[-79.84155,40.32669]},"properties":{"p":"0464R00368000000","a":"WALNUT ST","m":"12th Ward  - McKEESPORT","u":"C","o":"individual","sf":75912,"v":65900}},{"type":"Feature","geometry":{"type":"Point","coordinates":[-79.84196,40.32756]},"properties":{"p":"0464R00381000000","a":"WALNUT ST","m":"12th Ward  - McKEESPORT","u":"C","o":"corp","sf":135516,"v":41100}},{"type":"Feature","geometry":{"type":"Point","coordinates":[-79.84217,40.32868]},"properties":{"p":"0464R00395000000","a":"WALNUT ST","m":"12th Ward  - McKEESPORT","u":"C","o":"corp","sf":219542,"v":66700}},{"type":"Feature","geometry":{"type":"Point","coordinates":[-79.8401,40.32757]},"properties":{"p":"0464R00146000000","a":"WALNUT ST","m":"11th Ward  - McKEESPORT","u":"C","o":"individual","sf":2860,"v":500}},{"type":"Feature","geometry":{"type":"Point","coordinates":[-79.85902,40.32795]},"properties":{"p":"0465R00150000000","a":"H ST","m":"Liberty","u":"C","o":"corp","sf":144245,"v":16600}},{"type":"Feature","geometry":{"type":"Point","coordinates":[-79.85721,40.32573]},"properties":{"p":"0556C00070000000","a":"H ST","m":"Liberty","u":"C","o":"corp","sf":17220,"v":9800}},{"type":"Feature","geometry":{"type":"Point","coordinates":[-79.84086,40.32903]},"properties":{"p":"0464L00146000000","a":"3415 WALNUT ST","m":"11th Ward  - McKEESPORT","u":"L","o":"individual","sf":770,"v":400}},{"type":"Feature","geometry":{"type":"Point","coordinates":[-79.84049,40.32543]},"properties":{"p":"0555C00129000000","a":"WILL ST","m":"12th Ward  - McKEESPORT","u":"L","o":"corp","sf":17920,"v":7200}},{"type":"Feature","geometry":{"type":"Point","coordinates":[-79.84075,40.32546]},"properties":{"p":"0555C00132000000","a":"WILL ST","m":"12th Ward  - McKEESPORT","u":"L","o":"corp","sf":5075,"v":1500}},{"type":"Feature","geometry":{"type":"Point","coordinates":[-79.84099,40.32539]},"properties":{"p":"0555C00134000000","a":"WILL ST","m":"12th Ward  - McKEESPORT","u":"L","o":"corp","sf":6059,"v":6100}},{"type":"Feature","geometry":{"type":"Point","coordinates":[-79.84089,40.32503]},"properties":{"p":"0555C00140000000","a":"CECIL WAY","m":"12th Ward  - McKEESPORT","u":"L","o":"corp","sf":5000,"v":1500}},{"type":"Feature","geometry":{"type":"Point","coordinates":[-79.84084,40.32493]},"properties":{"p":"0555C00143000000","a":"CECIL WAY","m":"12th Ward  - McKEESPORT","u":"L","o":"corp","sf":2500,"v":800}},{"type":"Feature","geometry":{"type":"Point","coordinates":[-79.85982,40.32498]},"properties":{"p":"0556B00253000000","a":"ELIZABETH ST","m":"Liberty","u":"L","o":"individual","sf":6000,"v":1800}},{"type":"Feature","geometry":{"type":"Point","coordinates":[-79.85279,40.32441]},"properties":{"p":"0556D00325000000","a":"RIVER RIDGE DR","m":"Liberty","u":"L","o":"individual","sf":7601,"v":2400}},{"type":"Feature","geometry":{"type":"Point","coordinates":[-79.85648,40.3228]},"properties":{"p":"0556G00269000000","a":"SCENE RIDGE RD","m":"Liberty","u":"L","o":"corp","sf":5953,"v":1800}},{"type":"Feature","geometry":{"type":"Point","coordinates":[-79.84514,40.3222]},"properties":{"p":"0556D00032000000","a":"3321 OAKLAND DR","m":"Liberty","u":"L","o":"corp","sf":2229749,"v":89200}},{"type":"Feature","geometry":{"type":"Point","coordinates":[-79.85119,40.32611]},"properties":{"p":"0556D00170000000","a":"E ST","m":"Liberty","u":"L","o":"individual","sf":20910,"v":6400}},{"type":"Feature","geometry":{"type":"Point","coordinates":[-79.85643,40.32036]},"properties":{"p":"0556L00101000000","a":"527 SCENE RIDGE RD","m":"Liberty","u":"L","o":"corp","sf":286625,"v":33100}},{"type":"Feature","geometry":{"type":"Point","coordinates":[-79.8526,40.32442]},"properties":{"p":"0556D00320000000","a":"E ST","m":"Liberty","u":"L","o":"individual","sf":6098,"v":1900}},{"type":"Feature","geometry":{"type":"Point","coordinates":[-79.8571,40.32293]},"properties":{"p":"0556G00223000000","a":"3205 LIBERTY WAY","m":"Liberty","u":"L","o":"individual","sf":4425,"v":1300}},{"type":"Feature","geometry":{"type":"Point","coordinates":[-79.85685,40.32205]},"properties":{"p":"0556G00243000000","a":"DOUGLAS WAY","m":"Liberty","u":"L","o":"individual","sf":13161,"v":12700}},{"type":"Feature","geometry":{"type":"Point","coordinates":[-79.8567,40.32233]},"properties":{"p":"0556G00249000000","a":"DOUGLAS WAY","m":"Liberty","u":"L","o":"individual","sf":22891,"v":13600}},{"type":"Feature","geometry":{"type":"Point","coordinates":[-79.85594,40.32125]},"properties":{"p":"0556L00062000000","a":"527 SCENE RIDGE RD","m":"Liberty","u":"L","o":"corp","sf":39500,"v":15100}},{"type":"Feature","geometry":{"type":"Point","coordinates":[-79.85634,40.32175]},"properties":{"p":"0556L00063000000","a":"RIVER RIDGE DR EXT","m":"Liberty","u":"L","o":"corp","sf":2837,"v":900}},{"type":"Feature","geometry":{"type":"Point","coordinates":[-79.85555,40.32591]},"properties":{"p":"0556C00369000000","a":"SOUTHERN AVE","m":"Liberty","u":"L","o":"individual","sf":9550,"v":16400}},{"type":"Feature","geometry":{"type":"Point","coordinates":[-79.85526,40.32593]},"properties":{"p":"0556C00373000000","a":"SOUTHERN AVE","m":"Liberty","u":"L","o":"individual","sf":21820,"v":17500}},{"type":"Feature","geometry":{"type":"Point","coordinates":[-79.85893,40.32385]},"properties":{"p":"0556B00399000000","a":"SCENE RIDGE RD","m":"Liberty","u":"L","o":"individual","sf":6186,"v":6100}},{"type":"Feature","geometry":{"type":"Point","coordinates":[-79.85477,40.32607]},"properties":{"p":"0556C00384000000","a":"505 SOUTHERN AVE","m":"Liberty","u":"L","o":"individual","sf":4000,"v":1300}},{"type":"Feature","geometry":{"type":"Point","coordinates":[-79.85681,40.32167]},"properties":{"p":"0556G00202000000","a":"RIVER RIDGE DR EXT","m":"Liberty","u":"L","o":"corp","sf":3054,"v":1000}},{"type":"Feature","geometry":{"type":"Point","coordinates":[-79.85933,40.32385]},"properties":{"p":"0556B00396000000","a":"SCENE RIDGE RD","m":"Liberty","u":"L","o":"individual","sf":7500,"v":2200}},{"type":"Feature","geometry":{"type":"Point","coordinates":[-79.85912,40.32385]},"properties":{"p":"0556B00398000000","a":"SCENE RIDGE RD","m":"Liberty","u":"L","o":"individual","sf":4325,"v":5200}},{"type":"Feature","geometry":{"type":"Point","coordinates":[-79.85151,40.31961]},"properties":{"p":"0556M00319000000","a":"JEFFREY DR","m":"Liberty","u":"L","o":"individual","sf":3250,"v":1000}},{"type":"Feature","geometry":{"type":"Point","coordinates":[-79.85544,40.32475]},"properties":{"p":"0556C00203000000","a":"3005 VALLEY RIDGE RD","m":"Liberty","u":"L","o":"individual","sf":1500,"v":2400}},{"type":"Feature","geometry":{"type":"Point","coordinates":[-79.85533,40.32496]},"properties":{"p":"0556C00205000000","a":"611 OWENS AVE","m":"Liberty","u":"L","o":"individual","sf":278,"v":400}},{"type":"Feature","geometry":{"type":"Point","coordinates":[-79.8552,40.32481]},"properties":{"p":"0556C00211000000","a":"OWENS AVE","m":"Liberty","u":"L","o":"individual","sf":1152,"v":400}},{"type":"Feature","geometry":{"type":"Point","coordinates":[-79.85477,40.32587]},"properties":{"p":"0556C00293000000","a":"505 WOODROW ST","m":"Liberty","u":"L","o":"individual","sf":731,"v":300}},{"type":"Feature","geometry":{"type":"Point","coordinates":[-79.85955,40.3234]},"properties":{"p":"0556F00356000000","a":"SCENE RIDGE RD","m":"Liberty","u":"L","o":"individual","sf":14563,"v":4200}},{"type":"Feature","geometry":{"type":"Point","coordinates":[-79.84772,40.321]},"properties":{"p":"0555J00295000000","a":"ORCHARD DR","m":"Liberty","u":"L","o":"individual","sf":7800,"v":12300}},{"type":"Feature","geometry":{"type":"Point","coordinates":[-79.85482,40.32457]},"properties":{"p":"0556C00233000000","a":null,"m":"Liberty","u":"L","o":"individual","sf":252,"v":200}},{"type":"Feature","geometry":{"type":"Point","coordinates":[-79.8561,40.32967]},"properties":{"p":"0465L00302000000","a":"2510 C ST","m":"Liberty","u":"L","o":"individual","sf":6600,"v":16100}},{"type":"Feature","geometry":{"type":"Point","coordinates":[-79.85503,40.32883]},"properties":{"p":"0465L00070000000","a":"C ST","m":"Liberty","u":"L","o":"individual","sf":3300,"v":1100}},{"type":"Feature","geometry":{"type":"Point","coordinates":[-79.85637,40.32879]},"properties":{"p":"0465L00099000000","a":"LIBERTY WAY","m":"Liberty","u":"L","o":"individual","sf":6512,"v":16100}},{"type":"Feature","geometry":{"type":"Point","coordinates":[-79.85595,40.32781]},"properties":{"p":"0465R00201000000","a":"LIBERTY WAY","m":"Liberty","u":"L","o":"individual","sf":2829,"v":4500}},{"type":"Feature","geometry":{"type":"Point","coordinates":[-79.85573,40.32755]},"properties":{"p":"0465R00205000000","a":"ROBERTS ST","m":"Liberty","u":"L","o":"individual","sf":2750,"v":900}},{"type":"Feature","geometry":{"type":"Point","coordinates":[-79.84716,40.3213]},"properties":{"p":"0555E00284000000","a":"OAKLAND DR","m":"Liberty","u":"L","o":"individual","sf":6500,"v":1200}},{"type":"Feature","geometry":{"type":"Point","coordinates":[-79.85906,40.32717]},"properties":{"p":"0465P00294000000","a":"LAUCK AVE","m":"Liberty","u":"L","o":"corp","sf":6321,"v":8100}},{"type":"Feature","geometry":{"type":"Point","coordinates":[-79.8508,40.32847]},"properties":{"p":"0465S00186000000","a":"A ST","m":"Liberty","u":"L","o":"individual","sf":18700,"v":5700}},{"type":"Feature","geometry":{"type":"Point","coordinates":[-79.85141,40.3283]},"properties":{"p":"0465S00201000000","a":"2812 A ST","m":"Liberty","u":"L","o":"individual","sf":6600,"v":3200}},{"type":"Feature","geometry":{"type":"Point","coordinates":[-79.85268,40.3299]},"properties":{"p":"0465M00140000000","a":"A ST","m":"Liberty","u":"L","o":"individual","sf":6600,"v":16100}},{"type":"Feature","geometry":{"type":"Point","coordinates":[-79.85157,40.32906]},"properties":{"p":"0465M00169000000","a":"2805 A ST","m":"Liberty","u":"L","o":"individual","sf":4400,"v":1400}},{"type":"Feature","geometry":{"type":"Point","coordinates":[-79.85179,40.32696]},"properties":{"p":"0465S00127000000","a":"C ST","m":"Liberty","u":"L","o":"individual","sf":1409,"v":2300}},{"type":"Feature","geometry":{"type":"Point","coordinates":[-79.8577,40.32656]},"properties":{"p":"0465R00021000000","a":"805 LAUCK AVE","m":"Liberty","u":"L","o":"individual","sf":3300,"v":5300}},{"type":"Feature","geometry":{"type":"Point","coordinates":[-79.85427,40.32936]},"properties":{"p":"0465L00026000000","a":"B ST","m":"Liberty","u":"L","o":"individual","sf":13200,"v":16700}},{"type":"Feature","geometry":{"type":"Point","coordinates":[-79.8581,40.32815]},"properties":{"p":"0465R00094000000","a":"JERSEY ST","m":"Liberty","u":"L","o":"individual","sf":6940,"v":16200}},{"type":"Feature","geometry":{"type":"Point","coordinates":[-79.85701,40.32704]},"properties":{"p":"0465R00134000000","a":"H ST","m":"Liberty","u":"L","o":"individual","sf":2700,"v":4300}},{"type":"Feature","geometry":{"type":"Point","coordinates":[-79.85698,40.32684]},"properties":{"p":"0465R00138000000","a":"H ST","m":"Liberty","u":"L","o":"individual","sf":8480,"v":16300}},{"type":"Feature","geometry":{"type":"Point","coordinates":[-79.85735,40.32889]},"properties":{"p":"0465L00119000000","a":"LATROBE ST","m":"Liberty","u":"L","o":"individual","sf":3862,"v":1300}},{"type":"Feature","geometry":{"type":"Point","coordinates":[-79.85832,40.32816]},"properties":{"p":"0465P00331000000","a":"JERSEY ST","m":"Liberty","u":"L","o":"individual","sf":6600,"v":16100}},{"type":"Feature","geometry":{"type":"Point","coordinates":[-79.85839,40.32788]},"properties":{"p":"0465P00336000000","a":"JERSEY ST","m":"Liberty","u":"L","o":"corp","sf":3330,"v":5300}},{"type":"Feature","geometry":{"type":"Point","coordinates":[-79.85839,40.3278]},"properties":{"p":"0465P00338000000","a":"I ST","m":"Liberty","u":"L","o":"individual","sf":3328,"v":1100}},{"type":"Feature","geometry":{"type":"Point","coordinates":[-79.85714,40.32934]},"properties":{"p":"0465L00282000000","a":"ELM ST","m":"Liberty","u":"L","o":"individual","sf":6000,"v":1900}},{"type":"Feature","geometry":{"type":"Point","coordinates":[-79.85637,40.31042]},"properties":{"p":"0655L00108000000","a":"DEER LN","m":"Lincoln","u":"L","o":"corp","sf":48787,"v":4500}},{"type":"Feature","geometry":{"type":"Point","coordinates":[-79.85492,40.31207]},"properties":{"p":"0655L00175000000","a":"DEER LN","m":"Lincoln","u":"L","o":"individual","sf":265716,"v":9200}},{"type":"Feature","geometry":{"type":"Point","coordinates":[-79.85427,40.31042]},"properties":{"p":"0655L00199000000","a":"DEER LN","m":"Lincoln","u":"L","o":"individual","sf":153331,"v":10600}},{"type":"Feature","geometry":{"type":"Point","coordinates":[-79.85226,40.31149]},"properties":{"p":"0655M00140000000","a":"CALHOUN RD","m":"Lincoln","u":"L","o":"individual","sf":88688,"v":6100}},{"type":"Feature","geometry":{"type":"Point","coordinates":[-79.85311,40.31157]},"properties":{"p":"0655M00367000000","a":"CALHOUN RD","m":"Lincoln","u":"L","o":"individual","sf":22808,"v":2100}},{"type":"Feature","geometry":{"type":"Point","coordinates":[-79.85823,40.32039]},"properties":{"p":"0556K00041000000","a":"LIBERTY WAY","m":"Lincoln","u":"L","o":"corp","sf":41918,"v":25000}},{"type":"Feature","geometry":{"type":"Point","coordinates":[-79.85678,40.31342]},"properties":{"p":"0655G00083000000","a":"527 SCENE RIDGE RD","m":"Lincoln","u":"L","o":"corp","sf":337590,"v":43900}},{"type":"Feature","geometry":{"type":"Point","coordinates":[-79.84799,40.31081]},"properties":{"p":"0654J00133000000","a":"CALHOUN RD","m":"Lincoln","u":"L","o":"individual","sf":113779,"v":25900}},{"type":"Feature","geometry":{"type":"Point","coordinates":[-79.85243,40.32449]},"properties":{"p":"0556D00317000000","a":"E ST","m":"Liberty","u":"L","o":"individual","sf":4530,"v":7300}},{"type":"Feature","geometry":{"type":"Point","coordinates":[-79.85926,40.32337]},"properties":{"p":"0556F00359000000","a":"SCENE RIDGE RD","m":"Liberty","u":"L","o":"individual","sf":22790,"v":13600}},{"type":"Feature","geometry":{"type":"Point","coordinates":[-79.85493,40.32879]},"properties":{"p":"0465L00068000000","a":"C ST","m":"Liberty","u":"L","o":"individual","sf":3300,"v":1100}},{"type":"Feature","geometry":{"type":"Point","coordinates":[-79.8404,40.32502]},"properties":{"p":"0555C00120000000","a":"HERMAN ALY","m":"12th Ward  - McKEESPORT","u":"L","o":"individual","sf":19588,"v":13300}},{"type":"Feature","geometry":{"type":"Point","coordinates":[-79.85181,40.31077]},"properties":{"p":"0655M00188000000","a":"CALHOUN RD","m":"Lincoln","u":"L","o":"individual","sf":60984,"v":26800}},{"type":"Feature","geometry":{"type":"Point","coordinates":[-79.85498,40.32577]},"properties":{"p":"0556C00373000100","a":"SOUTHERN AVE","m":"Liberty","u":"L","o":"individual","sf":10890,"v":16500}},{"type":"Feature","geometry":{"type":"Point","coordinates":[-79.85877,40.32131]},"properties":{"p":"0556K00010000000","a":"LIBERTY WAY","m":"Liberty","u":"L","o":"individual","sf":3723,"v":1100}},{"type":"Feature","geometry":{"type":"Point","coordinates":[-79.84016,40.32518]},"properties":{"p":"0555C00108000000","a":"WILL ST","m":"12th Ward  - McKEESPORT","u":"L","o":"individual","sf":12384,"v":12700}},{"type":"Feature","geometry":{"type":"Point","coordinates":[-79.85614,40.32221]},"properties":{"p":"0556G00246000000","a":"SCENE RIDGE RD","m":"Liberty","u":"B","o":"corp","sf":8900,"v":2200}},{"type":"Feature","geometry":{"type":"Point","coordinates":[-79.85575,40.32183]},"properties":{"p":"0556G00248000000","a":"531 SCENE RIDGE RD","m":"Liberty","u":"B","o":"individual","sf":14722,"v":2700}},{"type":"Feature","geometry":{"type":"Point","coordinates":[-79.85537,40.32177]},"properties":{"p":"0556G00252000000","a":"531 SCENE RIDGE RD","m":"Liberty","u":"B","o":"individual","sf":14722,"v":2700}},{"type":"Feature","geometry":{"type":"Point","coordinates":[-79.85534,40.32126]},"properties":{"p":"0556L00067000000","a":"531 SCENE RIDGE RD","m":"Liberty","u":"B","o":"individual","sf":12691,"v":2500}}]}