{"type":"FeatureCollection","features":[{"type":"Feature","geometry":{"type":"Point","coordinates":[-79.82371,40.54746]},"properties":{"p":"0529G00500000000","a":"GULF LAB RD","m":"Harmar","u":"I","o":"corp","sf":52533,"v":12100}},{"type":"Feature","geometry":{"type":"Point","coordinates":[-79.82896,40.54031]},"properties":{"p":"0529P00028000000","a":"6 LANDINGS DR","m":"Harmar","u":"C","o":"corp","sf":61923,"v":98000}},{"type":"Feature","geometry":{"type":"Point","coordinates":[-79.82259,40.53963]},"properties":{"p":"0442A00075000000","a":"42 DENNY ESTS","m":"Harmar","u":"C","o":"corp","sf":34587,"v":15000}},{"type":"Feature","geometry":{"type":"Point","coordinates":[-79.82709,40.5386]},"properties":{"p":"0442B00171000000","a":"22 DENNY ESTS","m":"Harmar","u":"C","o":"individual","sf":13091,"v":27700}},{"type":"Feature","geometry":{"type":"Point","coordinates":[-79.82976,40.54016]},"properties":{"p":"0442A00138000000","a":"4 LANDINGS DR","m":"Harmar","u":"C","o":"corp","sf":51802,"v":416200}},{"type":"Feature","geometry":{"type":"Point","coordinates":[-79.82975,40.54239]},"properties":{"p":"0529N00175000000","a":"GULF LAB RD","m":"Harmar","u":"C","o":"corp","sf":489266,"v":70000}},{"type":"Feature","geometry":{"type":"Point","coordinates":[-79.83197,40.54918]},"properties":{"p":"0528M00050000000","a":"RICH HILL RD","m":"Harmar","u":"C","o":"corp","sf":4990782,"v":3929800}},{"type":"Feature","geometry":{"type":"Point","coordinates":[-79.82214,40.54988]},"properties":{"p":"0624R00033000000","a":"11 HARMAR DR","m":"Harmar","u":"L","o":"individual","sf":7825,"v":3200}},{"type":"Feature","geometry":{"type":"Point","coordinates":[-79.82372,40.53934]},"properties":{"p":"0442C00060000000","a":"36 A DENNY ESTS","m":"Harmar","u":"L","o":"corp","sf":8007,"v":17000}},{"type":"Feature","geometry":{"type":"Point","coordinates":[-79.82354,40.53938]},"properties":{"p":"0442C00062000000","a":"37 DENNY ESTS","m":"Harmar","u":"L","o":"corp","sf":8921,"v":18900}},{"type":"Feature","geometry":{"type":"Point","coordinates":[-79.82319,40.53946]},"properties":{"p":"0442C00064000000","a":"DENNY ESTS","m":"Harmar","u":"L","o":"corp","sf":25291,"v":53600}},{"type":"Feature","geometry":{"type":"Point","coordinates":[-79.83114,40.53787]},"properties":{"p":"0442A00145000000","a":"1 C DENNY ESTS","m":"Harmar","u":"L","o":"corp","sf":8990,"v":18900}},{"type":"Feature","geometry":{"type":"Point","coordinates":[-79.83097,40.53779]},"properties":{"p":"0442A00147000000","a":"1 D DENNY ESTS","m":"Harmar","u":"L","o":"corp","sf":8208,"v":17400}},{"type":"Feature","geometry":{"type":"Point","coordinates":[-79.82159,40.54813]},"properties":{"p":"0529C00075000000","a":"GULF LAB RD","m":"Harmar","u":"L","o":"individual","sf":35257,"v":10700}},{"type":"Feature","geometry":{"type":"Point","coordinates":[-79.82658,40.53871]},"properties":{"p":"0442B00177000000","a":"24 DENNY ESTS","m":"Harmar","u":"L","o":"corp","sf":10526,"v":22300}},{"type":"Feature","geometry":{"type":"Point","coordinates":[-79.82636,40.53876]},"properties":{"p":"0442B00179000000","a":"25 DENNY ESTS","m":"Harmar","u":"L","o":"corp","sf":16213,"v":34300}},{"type":"Feature","geometry":{"type":"Point","coordinates":[-79.82611,40.53881]},"properties":{"p":"0442B00181000000","a":"26 DENNY ESTS","m":"Harmar","u":"L","o":"corp","sf":14540,"v":16900}},{"type":"Feature","geometry":{"type":"Point","coordinates":[-79.82588,40.53886]},"properties":{"p":"0442B00183000000","a":"27 DENNY ESTS","m":"Harmar","u":"L","o":"corp","sf":12351,"v":26200}},{"type":"Feature","geometry":{"type":"Point","coordinates":[-79.82569,40.5389]},"properties":{"p":"0442B00185000000","a":"28 DENNY ESTS","m":"Harmar","u":"L","o":"corp","sf":11025,"v":23300}},{"type":"Feature","geometry":{"type":"Point","coordinates":[-79.82546,40.53895]},"properties":{"p":"0442B00187000000","a":"29 DENNY ESTS","m":"Harmar","u":"L","o":"individual","sf":15913,"v":33700}},{"type":"Feature","geometry":{"type":"Point","coordinates":[-79.82523,40.539]},"properties":{"p":"0442B00189000000","a":"30 DENNY ESTS","m":"Harmar","u":"L","o":"corp","sf":9354,"v":19800}},{"type":"Feature","geometry":{"type":"Point","coordinates":[-79.82505,40.53904]},"properties":{"p":"0442B00191000000","a":"31 DENNY ESTS","m":"Harmar","u":"L","o":"corp","sf":11080,"v":23500}},{"type":"Feature","geometry":{"type":"Point","coordinates":[-79.82485,40.53908]},"properties":{"p":"0442B00193000000","a":"32 DENNY ESTS","m":"Harmar","u":"L","o":"corp","sf":10359,"v":21900}},{"type":"Feature","geometry":{"type":"Point","coordinates":[-79.82464,40.53913]},"properties":{"p":"0442C00052000000","a":"33 DENNY ESTS","m":"Harmar","u":"L","o":"corp","sf":11189,"v":23700}},{"type":"Feature","geometry":{"type":"Point","coordinates":[-79.82441,40.53918]},"properties":{"p":"0442C00054000000","a":"34 DENNY ESTS","m":"Harmar","u":"L","o":"corp","sf":13140,"v":27800}},{"type":"Feature","geometry":{"type":"Point","coordinates":[-79.82414,40.53924]},"properties":{"p":"0442C00056000000","a":"35 DENNY ESTS","m":"Harmar","u":"L","o":"corp","sf":13991,"v":29600}},{"type":"Feature","geometry":{"type":"Point","coordinates":[-79.8239,40.53929]},"properties":{"p":"0442C00058000000","a":"36 DENNY ESTS","m":"Harmar","u":"L","o":"corp","sf":10608,"v":22500}},{"type":"Feature","geometry":{"type":"Point","coordinates":[-79.82894,40.53824]},"properties":{"p":"0442B00151000000","a":"12 DENNY ESTS","m":"Harmar","u":"L","o":"corp","sf":12703,"v":26900}},{"type":"Feature","geometry":{"type":"Point","coordinates":[-79.82877,40.53827]},"properties":{"p":"0442B00153000000","a":"12 A DENNY ESTS","m":"Harmar","u":"L","o":"corp","sf":11739,"v":24900}},{"type":"Feature","geometry":{"type":"Point","coordinates":[-79.82859,40.5383]},"properties":{"p":"0442B00155000000","a":"13 DENNY ESTS","m":"Harmar","u":"L","o":"corp","sf":14597,"v":30900}},{"type":"Feature","geometry":{"type":"Point","coordinates":[-79.8284,40.53834]},"properties":{"p":"0442B00157000000","a":"14 DENNY ESTS","m":"Harmar","u":"L","o":"corp","sf":12695,"v":26900}},{"type":"Feature","geometry":{"type":"Point","coordinates":[-79.82826,40.5385]},"properties":{"p":"0442B00159000000","a":"15 DENNY ESTS","m":"Harmar","u":"L","o":"corp","sf":11940,"v":25300}},{"type":"Feature","geometry":{"type":"Point","coordinates":[-79.82808,40.53851]},"properties":{"p":"0442B00161000000","a":"16 DENNY ESTS","m":"Harmar","u":"L","o":"corp","sf":13557,"v":28700}},{"type":"Feature","geometry":{"type":"Point","coordinates":[-79.82783,40.53829]},"properties":{"p":"0442B00163000000","a":"18 DENNY ESTS","m":"Harmar","u":"L","o":"corp","sf":10889,"v":23000}},{"type":"Feature","geometry":{"type":"Point","coordinates":[-79.82775,40.53863]},"properties":{"p":"0442B00165000000","a":"19 DENNY ESTS","m":"Harmar","u":"L","o":"corp","sf":13526,"v":28600}},{"type":"Feature","geometry":{"type":"Point","coordinates":[-79.8275,40.53851]},"properties":{"p":"0442B00167000000","a":"20 DENNY ESTS","m":"Harmar","u":"L","o":"corp","sf":13196,"v":27900}},{"type":"Feature","geometry":{"type":"Point","coordinates":[-79.8273,40.53856]},"properties":{"p":"0442B00169000000","a":"21 DENNY ESTS","m":"Harmar","u":"L","o":"corp","sf":14241,"v":30200}},{"type":"Feature","geometry":{"type":"Point","coordinates":[-79.82691,40.53864]},"properties":{"p":"0442B00173000000","a":"22 A DENNY ESTS","m":"Harmar","u":"L","o":"corp","sf":10534,"v":22300}},{"type":"Feature","geometry":{"type":"Point","coordinates":[-79.82675,40.53868]},"properties":{"p":"0442B00175000000","a":"23 DENNY ESTS","m":"Harmar","u":"L","o":"individual","sf":11315,"v":24000}},{"type":"Feature","geometry":{"type":"Point","coordinates":[-79.82124,40.54716]},"properties":{"p":"0529G00106000000","a":"GULF LAB RD","m":"Harmar","u":"L","o":"individual","sf":4399,"v":1400}},{"type":"Feature","geometry":{"type":"Point","coordinates":[-79.83083,40.5378]},"properties":{"p":"0442A00149000000","a":"2 DENNY ESTS","m":"Harmar","u":"L","o":"corp","sf":8948,"v":18900}},{"type":"Feature","geometry":{"type":"Point","coordinates":[-79.83071,40.53795]},"properties":{"p":"0442A00151000000","a":"3 DENNY ESTS","m":"Harmar","u":"L","o":"corp","sf":10210,"v":21600}},{"type":"Feature","geometry":{"type":"Point","coordinates":[-79.83056,40.53797]},"properties":{"p":"0442A00153000000","a":"4 DENNY ESTS","m":"Harmar","u":"L","o":"corp","sf":8965,"v":19000}},{"type":"Feature","geometry":{"type":"Point","coordinates":[-79.8304,40.538]},"properties":{"p":"0442A00155000000","a":"5 DENNY ESTS","m":"Harmar","u":"L","o":"individual","sf":10960,"v":23200}},{"type":"Feature","geometry":{"type":"Point","coordinates":[-79.83023,40.53802]},"properties":{"p":"0442A00157000000","a":"6 A DENNY ESTS","m":"Harmar","u":"L","o":"corp","sf":10588,"v":22400}},{"type":"Feature","geometry":{"type":"Point","coordinates":[-79.83007,40.53805]},"properties":{"p":"0442A00159000000","a":"6 B DENNY ESTS","m":"Harmar","u":"L","o":"corp","sf":10591,"v":22400}},{"type":"Feature","geometry":{"type":"Point","coordinates":[-79.82991,40.53807]},"properties":{"p":"0442A00161000000","a":"7 DENNY ESTS","m":"Harmar","u":"L","o":"corp","sf":10320,"v":21900}},{"type":"Feature","geometry":{"type":"Point","coordinates":[-79.82972,40.5381]},"properties":{"p":"0442A00163000000","a":"8 DENNY ESTS","m":"Harmar","u":"L","o":"corp","sf":14255,"v":30200}},{"type":"Feature","geometry":{"type":"Point","coordinates":[-79.82952,40.53813]},"properties":{"p":"0442A00165000000","a":"9 DENNY ESTS","m":"Harmar","u":"L","o":"corp","sf":12658,"v":26800}},{"type":"Feature","geometry":{"type":"Point","coordinates":[-79.82932,40.53817]},"properties":{"p":"0442A00167000000","a":"10 DENNY ESTS","m":"Harmar","u":"L","o":"corp","sf":14992,"v":31700}},{"type":"Feature","geometry":{"type":"Point","coordinates":[-79.82912,40.53821]},"properties":{"p":"0442A00169000000","a":"11 DENNY ESTS","m":"Harmar","u":"L","o":"corp","sf":12919,"v":27400}},{"type":"Feature","geometry":{"type":"Point","coordinates":[-79.82167,40.54643]},"properties":{"p":"0529G00099000000","a":"703 GULF LAB RD","m":"Harmar","u":"L","o":"corp","sf":1391,"v":500}},{"type":"Feature","geometry":{"type":"Point","coordinates":[-79.83131,40.53785]},"properties":{"p":"0442A00143000000","a":"1 B DENNY ESTS","m":"Harmar","u":"L","o":"corp","sf":10410,"v":22000}}]}