{"type":"FeatureCollection","features":[{"type":"Feature","geometry":{"type":"Point","coordinates":[-79.82075,40.47774]},"properties":{"p":"0448G00059000000","a":"FRANKSTOWN RD","m":"Penn Hills","u":"C","o":"corp","sf":376097,"v":54600}},{"type":"Feature","geometry":{"type":"Point","coordinates":[-79.82115,40.47628]},"properties":{"p":"0448L00028000000","a":"FRANKSTOWN RD","m":"Penn Hills","u":"C","o":"individual","sf":119790,"v":28000}},{"type":"Feature","geometry":{"type":"Point","coordinates":[-79.82968,40.48268]},"properties":{"p":"0448B00375000100","a":"SALTSBURG RD","m":"Penn Hills","u":"C","o":"corp","sf":29303,"v":7700}},{"type":"Feature","geometry":{"type":"Point","coordinates":[-79.83594,40.48636]},"properties":{"p":"0366M00315000000","a":"POKETA RD","m":"Penn Hills","u":"C","o":"corp","sf":16534,"v":5000}},{"type":"Feature","geometry":{"type":"Point","coordinates":[-79.83423,40.47982]},"properties":{"p":"0367D00090000000","a":"SALTSBURG RD","m":"Penn Hills","u":"C","o":"corp","sf":17741,"v":6000}},{"type":"Feature","geometry":{"type":"Point","coordinates":[-79.83463,40.47991]},"properties":{"p":"0367D00286000100","a":"SALTSBURG RD","m":"Penn Hills","u":"C","o":"corp","sf":3250,"v":1100}},{"type":"Feature","geometry":{"type":"Point","coordinates":[-79.82268,40.47069]},"properties":{"p":"0449C00099000000","a":"FRANKSTOWN RD","m":"Penn Hills","u":"C","o":"corp","sf":16084,"v":27700}},{"type":"Feature","geometry":{"type":"Point","coordinates":[-79.8213,40.47116]},"properties":{"p":"0449C00117000000","a":"FRANKSTOWN RD","m":"Penn Hills","u":"C","o":"individual","sf":23400,"v":8000}},{"type":"Feature","geometry":{"type":"Point","coordinates":[-79.82163,40.47108]},"properties":{"p":"0449C00119000000","a":"FRANKSTOWN RD","m":"Penn Hills","u":"C","o":"individual","sf":7800,"v":2700}},{"type":"Feature","geometry":{"type":"Point","coordinates":[-79.8219,40.47087]},"properties":{"p":"0449C00118000000","a":"FRANKSTOWN RD","m":"Penn Hills","u":"C","o":"individual","sf":12000,"v":4100}},{"type":"Feature","geometry":{"type":"Point","coordinates":[-79.82072,40.47476]},"properties":{"p":"0448R00298000000","a":"FRANKSTOWN RD","m":"Penn Hills","u":"L","o":"individual","sf":16358,"v":4700}},{"type":"Feature","geometry":{"type":"Point","coordinates":[-79.83365,40.47013]},"properties":{"p":"0368D00112000000","a":"MARILYNN RD","m":"Penn Hills","u":"L","o":"corp","sf":167706,"v":3900}},{"type":"Feature","geometry":{"type":"Point","coordinates":[-79.83224,40.47484]},"properties":{"p":"0448N00340000000","a":"HATHAWAY CT","m":"Penn Hills","u":"L","o":"individual","sf":8057,"v":12300}},{"type":"Feature","geometry":{"type":"Point","coordinates":[-79.83225,40.47468]},"properties":{"p":"0448N00344000000","a":"HATHAWAY CT","m":"Penn Hills","u":"L","o":"individual","sf":10320,"v":6500}},{"type":"Feature","geometry":{"type":"Point","coordinates":[-79.82406,40.47447]},"properties":{"p":"0448R00362000000","a":"SPRING GROVE RD","m":"Penn Hills","u":"L","o":"individual","sf":962,"v":1200}},{"type":"Feature","geometry":{"type":"Point","coordinates":[-79.82102,40.4744]},"properties":{"p":"0448R00392000000","a":"SHENANDOAH DR","m":"Penn Hills","u":"L","o":"corp","sf":13488,"v":6800}},{"type":"Feature","geometry":{"type":"Point","coordinates":[-79.83608,40.47246]},"properties":{"p":"0368D00024000000","a":"AZALEA DR","m":"Penn Hills","u":"L","o":"individual","sf":780,"v":300}},{"type":"Feature","geometry":{"type":"Point","coordinates":[-79.82223,40.4796]},"properties":{"p":"0448G00152000000","a":"FRANKSTOWN RD","m":"Penn Hills","u":"L","o":"corp","sf":9055,"v":6400}},{"type":"Feature","geometry":{"type":"Point","coordinates":[-79.822,40.47995]},"properties":{"p":"0448G00159000000","a":"FRANKSTOWN RD","m":"Penn Hills","u":"L","o":"corp","sf":13776,"v":6800}},{"type":"Feature","geometry":{"type":"Point","coordinates":[-79.83924,40.47724]},"properties":{"p":"0367G00221000000","a":"135 KIM LN","m":"Penn Hills","u":"L","o":"individual","sf":100754,"v":10000}},{"type":"Feature","geometry":{"type":"Point","coordinates":[-79.83917,40.47917]},"properties":{"p":"0367G00226000000","a":"SALTSBURG RD","m":"Penn Hills","u":"L","o":"individual","sf":43560,"v":15500}},{"type":"Feature","geometry":{"type":"Point","coordinates":[-79.82165,40.47288]},"properties":{"p":"0448R00103000000","a":"CRESCENT HILLS RD","m":"Penn Hills","u":"L","o":"individual","sf":23434,"v":13700}},{"type":"Feature","geometry":{"type":"Point","coordinates":[-79.83029,40.47634]},"properties":{"p":"0448J00090000000","a":"GLENFIELD DR","m":"Penn Hills","u":"L","o":"individual","sf":9225,"v":2700}},{"type":"Feature","geometry":{"type":"Point","coordinates":[-79.83962,40.47912]},"properties":{"p":"0367G00269000000","a":"VERONA RD","m":"Penn Hills","u":"L","o":"individual","sf":11074,"v":12600}},{"type":"Feature","geometry":{"type":"Point","coordinates":[-79.83367,40.47955]},"properties":{"p":"0367H00092000000","a":"STEPHENS LN","m":"Penn Hills","u":"L","o":"individual","sf":3448,"v":1100}},{"type":"Feature","geometry":{"type":"Point","coordinates":[-79.83224,40.47166]},"properties":{"p":"0449A00392000000","a":"LIME HOLLOW RD","m":"Penn Hills","u":"L","o":"corp","sf":264583,"v":32600}},{"type":"Feature","geometry":{"type":"Point","coordinates":[-79.82243,40.47455]},"properties":{"p":"0448R00337000000","a":"FRANKSTOWN RD","m":"Penn Hills","u":"L","o":"individual","sf":12310,"v":12700}},{"type":"Feature","geometry":{"type":"Point","coordinates":[-79.83156,40.47555]},"properties":{"p":"0448J00260000000","a":"EARLWOOD RD","m":"Penn Hills","u":"L","o":"corp","sf":10532,"v":3100}},{"type":"Feature","geometry":{"type":"Point","coordinates":[-79.83315,40.47112]},"properties":{"p":"0368D00073000000","a":"AZALEA DR","m":"Penn Hills","u":"L","o":"corp","sf":5355,"v":6000}},{"type":"Feature","geometry":{"type":"Point","coordinates":[-79.8349,40.47174]},"properties":{"p":"0368D00170000000","a":"AZALEA DR","m":"Penn Hills","u":"L","o":"individual","sf":4975,"v":1500}},{"type":"Feature","geometry":{"type":"Point","coordinates":[-79.83901,40.47543]},"properties":{"p":"0367L00105000000","a":"SALTSBURG RD","m":"Penn Hills","u":"L","o":"individual","sf":186437,"v":17100}},{"type":"Feature","geometry":{"type":"Point","coordinates":[-79.83825,40.47652]},"properties":{"p":"0367L00245000000","a":"KIM LN","m":"Penn Hills","u":"L","o":"individual","sf":170058,"v":15600}},{"type":"Feature","geometry":{"type":"Point","coordinates":[-79.82817,40.47084]},"properties":{"p":"0449B00301000000","a":"LIME HOLLOW RD","m":"Penn Hills","u":"L","o":"corp","sf":19145,"v":13300}},{"type":"Feature","geometry":{"type":"Point","coordinates":[-79.82114,40.47893]},"properties":{"p":"0448G00089000000","a":"LIBERTO RD","m":"Penn Hills","u":"L","o":"individual","sf":96268,"v":8800}},{"type":"Feature","geometry":{"type":"Point","coordinates":[-79.82564,40.47623]},"properties":{"p":"0448K00216000000","a":"GLENFIELD DR","m":"Penn Hills","u":"L","o":"individual","sf":38400,"v":15000}},{"type":"Feature","geometry":{"type":"Point","coordinates":[-79.83548,40.47789]},"properties":{"p":"0367H00199000000","a":"CRISTIE DR","m":"Penn Hills","u":"L","o":"individual","sf":8936,"v":6400}},{"type":"Feature","geometry":{"type":"Point","coordinates":[-79.8354,40.47749]},"properties":{"p":"0367H00206000000","a":"CRISTIE DR","m":"Penn Hills","u":"L","o":"corp","sf":97139,"v":8900}},{"type":"Feature","geometry":{"type":"Point","coordinates":[-79.83007,40.47063]},"properties":{"p":"0449A00027000000","a":"LIME HOLLOW RD","m":"Penn Hills","u":"L","o":"individual","sf":31900,"v":9000}},{"type":"Feature","geometry":{"type":"Point","coordinates":[-79.83079,40.47598]},"properties":{"p":"0448J00172000000","a":"EARLWOOD RD","m":"Penn Hills","u":"L","o":"individual","sf":13577,"v":3900}},{"type":"Feature","geometry":{"type":"Point","coordinates":[-79.83803,40.47455]},"properties":{"p":"0367R00065000000","a":"LIME HOLLOW RD","m":"Penn Hills","u":"L","o":"individual","sf":130680,"v":3000}},{"type":"Feature","geometry":{"type":"Point","coordinates":[-79.83908,40.4721]},"properties":{"p":"0367R00181000000","a":"LIME HOLLOW RD","m":"Penn Hills","u":"L","o":"corp","sf":837659,"v":19200}},{"type":"Feature","geometry":{"type":"Point","coordinates":[-79.83937,40.47383]},"properties":{"p":"0367R00258000000","a":"LIME HOLLOW RD","m":"Penn Hills","u":"L","o":"individual","sf":21780,"v":6200}},{"type":"Feature","geometry":{"type":"Point","coordinates":[-79.83674,40.47268]},"properties":{"p":"0367S00020000000","a":"11029 AZALEA DR","m":"Penn Hills","u":"L","o":"individual","sf":7157,"v":12200}},{"type":"Feature","geometry":{"type":"Point","coordinates":[-79.82767,40.48664]},"properties":{"p":"0447K00155000000","a":"POKETA RD","m":"Penn Hills","u":"L","o":"individual","sf":5500,"v":1600}},{"type":"Feature","geometry":{"type":"Point","coordinates":[-79.82452,40.4847]},"properties":{"p":"0447R00229000000","a":"HEBERTON DR","m":"Penn Hills","u":"L","o":"individual","sf":25072,"v":13800}},{"type":"Feature","geometry":{"type":"Point","coordinates":[-79.82906,40.48084]},"properties":{"p":"0448B00368000000","a":"SYCAMORE DR","m":"Penn Hills","u":"L","o":"corp","sf":618,"v":300}},{"type":"Feature","geometry":{"type":"Point","coordinates":[-79.82065,40.48036]},"properties":{"p":"0448C00002000000","a":"LIBERTO RD","m":"Penn Hills","u":"L","o":"individual","sf":25000,"v":13800}},{"type":"Feature","geometry":{"type":"Point","coordinates":[-79.821,40.48459]},"properties":{"p":"0447R00368000000","a":"FORBES RD","m":"Penn Hills","u":"L","o":"individual","sf":15234,"v":12900}},{"type":"Feature","geometry":{"type":"Point","coordinates":[-79.8206,40.48287]},"properties":{"p":"0447S00341000000","a":"FRANKSTOWN RD","m":"Penn Hills","u":"L","o":"corp","sf":40319,"v":15200}},{"type":"Feature","geometry":{"type":"Point","coordinates":[-79.83182,40.4847]},"properties":{"p":"0447J00132000000","a":"POKETA RD","m":"Penn Hills","u":"L","o":"individual","sf":41644,"v":15300}},{"type":"Feature","geometry":{"type":"Point","coordinates":[-79.83092,40.48369]},"properties":{"p":"0447N00259000000","a":"ROCKCLIFF RD","m":"Penn Hills","u":"L","o":"individual","sf":2400,"v":800}},{"type":"Feature","geometry":{"type":"Point","coordinates":[-79.83153,40.48356]},"properties":{"p":"0447N00261000100","a":"ROCKCLIFF RD","m":"Penn Hills","u":"L","o":"individual","sf":22440,"v":7600}},{"type":"Feature","geometry":{"type":"Point","coordinates":[-79.83159,40.48382]},"properties":{"p":"0447N00265000100","a":"ROCKCLIFF RD","m":"Penn Hills","u":"L","o":"individual","sf":42841,"v":12100}},{"type":"Feature","geometry":{"type":"Point","coordinates":[-79.8281,40.48667]},"properties":{"p":"0447K00179000000","a":"POKETA RD","m":"Penn Hills","u":"L","o":"individual","sf":9000,"v":12400}},{"type":"Feature","geometry":{"type":"Point","coordinates":[-79.82832,40.48654]},"properties":{"p":"0447K00183000000","a":"POKETA RD","m":"Penn Hills","u":"L","o":"individual","sf":4500,"v":1400}},{"type":"Feature","geometry":{"type":"Point","coordinates":[-79.82863,40.48636]},"properties":{"p":"0447K00192000000","a":"POKETA RD","m":"Penn Hills","u":"L","o":"individual","sf":5701,"v":1700}},{"type":"Feature","geometry":{"type":"Point","coordinates":[-79.82858,40.4862]},"properties":{"p":"0447K00199000000","a":"BOLTE DR","m":"Penn Hills","u":"L","o":"individual","sf":3447,"v":1100}},{"type":"Feature","geometry":{"type":"Point","coordinates":[-79.82603,40.48312]},"properties":{"p":"0447P00096000000","a":"HEBERTON DR","m":"Penn Hills","u":"L","o":"corp","sf":21780,"v":13500}},{"type":"Feature","geometry":{"type":"Point","coordinates":[-79.82188,40.4889]},"properties":{"p":"0447G00107000000","a":"POKETA RD","m":"Penn Hills","u":"L","o":"individual","sf":25504,"v":13900}},{"type":"Feature","geometry":{"type":"Point","coordinates":[-79.83217,40.47839]},"properties":{"p":"0448E00312000000","a":"EARLWOOD RD","m":"Penn Hills","u":"L","o":"individual","sf":39225,"v":9100}},{"type":"Feature","geometry":{"type":"Point","coordinates":[-79.82165,40.48582]},"properties":{"p":"0447L00105000000","a":"UNION GREEN DR","m":"Penn Hills","u":"L","o":"individual","sf":16723,"v":4800}},{"type":"Feature","geometry":{"type":"Point","coordinates":[-79.82235,40.48576]},"properties":{"p":"0447L00123000000","a":"UNION GREEN DR","m":"Penn Hills","u":"L","o":"individual","sf":40510,"v":11400}},{"type":"Feature","geometry":{"type":"Point","coordinates":[-79.82289,40.48574]},"properties":{"p":"0447L00131000000","a":"UNION GREEN DR","m":"Penn Hills","u":"L","o":"individual","sf":15750,"v":4500}},{"type":"Feature","geometry":{"type":"Point","coordinates":[-79.82634,40.48011]},"properties":{"p":"0448B00248000000","a":"SHERWOOD DR","m":"Penn Hills","u":"L","o":"individual","sf":5985,"v":1800}},{"type":"Feature","geometry":{"type":"Point","coordinates":[-79.82393,40.48963]},"properties":{"p":"0447G00370000000","a":"SHANNON RD","m":"Penn Hills","u":"L","o":"individual","sf":15343,"v":4400}},{"type":"Feature","geometry":{"type":"Point","coordinates":[-79.82418,40.48964]},"properties":{"p":"0447G00374000000","a":"SHANNON RD","m":"Penn Hills","u":"L","o":"individual","sf":15332,"v":4400}},{"type":"Feature","geometry":{"type":"Point","coordinates":[-79.82444,40.48965]},"properties":{"p":"0447G00378000000","a":"SHANNON RD","m":"Penn Hills","u":"L","o":"individual","sf":15323,"v":4400}},{"type":"Feature","geometry":{"type":"Point","coordinates":[-79.82559,40.48724]},"properties":{"p":"0447F00081000000","a":"POKETA RD","m":"Penn Hills","u":"L","o":"individual","sf":41295,"v":6000}},{"type":"Feature","geometry":{"type":"Point","coordinates":[-79.82545,40.48756]},"properties":{"p":"0447F00083000000","a":"POKETA RD","m":"Penn Hills","u":"L","o":"individual","sf":18000,"v":5100}},{"type":"Feature","geometry":{"type":"Point","coordinates":[-79.82352,40.48683]},"properties":{"p":"0447F00113000000","a":"POKETA RD","m":"Penn Hills","u":"L","o":"individual","sf":189486,"v":13100}},{"type":"Feature","geometry":{"type":"Point","coordinates":[-79.82895,40.48635]},"properties":{"p":"0447J00066000000","a":"POKETA RD","m":"Penn Hills","u":"L","o":"individual","sf":69583,"v":29500}},{"type":"Feature","geometry":{"type":"Point","coordinates":[-79.8299,40.48556]},"properties":{"p":"0447J00088000000","a":"POKETA RD","m":"Penn Hills","u":"L","o":"individual","sf":1563,"v":500}},{"type":"Feature","geometry":{"type":"Point","coordinates":[-79.83126,40.48266]},"properties":{"p":"0447N00189000000","a":"VINCENT DR","m":"Penn Hills","u":"L","o":"individual","sf":46174,"v":15800}},{"type":"Feature","geometry":{"type":"Point","coordinates":[-79.82126,40.48845]},"properties":{"p":"0447G00067000000","a":"8 -14 ARNOLD DR","m":"Penn Hills","u":"L","o":"individual","sf":1259,"v":500}},{"type":"Feature","geometry":{"type":"Point","coordinates":[-79.82123,40.48847]},"properties":{"p":"0447G00068000000","a":"261 HULTON RD","m":"Penn Hills","u":"L","o":"individual","sf":1634,"v":600}},{"type":"Feature","geometry":{"type":"Point","coordinates":[-79.82803,40.48622]},"properties":{"p":"0447K00260000000","a":"POKETA RD","m":"Penn Hills","u":"L","o":"individual","sf":4500,"v":1400}},{"type":"Feature","geometry":{"type":"Point","coordinates":[-79.82789,40.48631]},"properties":{"p":"0447K00264000000","a":"POKETA RD","m":"Penn Hills","u":"L","o":"individual","sf":4500,"v":1400}},{"type":"Feature","geometry":{"type":"Point","coordinates":[-79.82774,40.48639]},"properties":{"p":"0447K00268000000","a":"POKETA RD","m":"Penn Hills","u":"L","o":"individual","sf":4500,"v":1400}},{"type":"Feature","geometry":{"type":"Point","coordinates":[-79.8276,40.48648]},"properties":{"p":"0447K00272000000","a":"POKETA RD","m":"Penn Hills","u":"L","o":"individual","sf":4500,"v":1400}},{"type":"Feature","geometry":{"type":"Point","coordinates":[-79.82752,40.48613]},"properties":{"p":"0447K00282000000","a":"POKETA RD","m":"Penn Hills","u":"L","o":"individual","sf":35419,"v":14700}},{"type":"Feature","geometry":{"type":"Point","coordinates":[-79.82537,40.48494]},"properties":{"p":"0447K00017000000","a":"UNION GREEN DR","m":"Penn Hills","u":"L","o":"individual","sf":11759,"v":12600}},{"type":"Feature","geometry":{"type":"Point","coordinates":[-79.8255,40.48636]},"properties":{"p":"0447K00075000000","a":"POKETA RD","m":"Penn Hills","u":"L","o":"individual","sf":267893,"v":15000}},{"type":"Feature","geometry":{"type":"Point","coordinates":[-79.82656,40.48688]},"properties":{"p":"0447K00121000000","a":"POKETA RD","m":"Penn Hills","u":"L","o":"individual","sf":84071,"v":1000}},{"type":"Feature","geometry":{"type":"Point","coordinates":[-79.82926,40.48328]},"properties":{"p":"0447N00360000000","a":"ALMAR DR","m":"Penn Hills","u":"L","o":"individual","sf":2871,"v":900}},{"type":"Feature","geometry":{"type":"Point","coordinates":[-79.82381,40.48252]},"properties":{"p":"0447R00044000000","a":"SALTSBURG RD","m":"Penn Hills","u":"L","o":"individual","sf":11783,"v":12600}},{"type":"Feature","geometry":{"type":"Point","coordinates":[-79.82313,40.48248]},"properties":{"p":"0447R00056000000","a":"SALTSBURG RD","m":"Penn Hills","u":"L","o":"individual","sf":8168,"v":2400}},{"type":"Feature","geometry":{"type":"Point","coordinates":[-79.82258,40.48265]},"properties":{"p":"0447R00075000000","a":"SALTSBURG RD","m":"Penn Hills","u":"L","o":"individual","sf":7436,"v":2200}},{"type":"Feature","geometry":{"type":"Point","coordinates":[-79.82194,40.48285]},"properties":{"p":"0447R00088000000","a":"SALTSBURG RD","m":"Penn Hills","u":"L","o":"individual","sf":10135,"v":2900}},{"type":"Feature","geometry":{"type":"Point","coordinates":[-79.82171,40.48303]},"properties":{"p":"0447R00092000000","a":"SALTSBURG RD","m":"Penn Hills","u":"L","o":"individual","sf":16737,"v":5600}},{"type":"Feature","geometry":{"type":"Point","coordinates":[-79.821,40.48346]},"properties":{"p":"0447R00110000000","a":"6014 SALTSBURG RD","m":"Penn Hills","u":"L","o":"corp","sf":27057,"v":14000}},{"type":"Feature","geometry":{"type":"Point","coordinates":[-79.82679,40.48981]},"properties":{"p":"0447B00267000000","a":"SHANNON RD","m":"Penn Hills","u":"L","o":"individual","sf":19719,"v":13300}},{"type":"Feature","geometry":{"type":"Point","coordinates":[-79.82366,40.4822]},"properties":{"p":"0448C00270000000","a":"SALTSBURG RD","m":"Penn Hills","u":"L","o":"individual","sf":6720,"v":12200}},{"type":"Feature","geometry":{"type":"Point","coordinates":[-79.82436,40.48023]},"properties":{"p":"0448C00322000000","a":"WHIRLWOOD DR","m":"Penn Hills","u":"L","o":"individual","sf":15702,"v":13000}},{"type":"Feature","geometry":{"type":"Point","coordinates":[-79.83163,40.48112]},"properties":{"p":"0448A00323000000","a":"SALTSBURG RD","m":"Penn Hills","u":"L","o":"individual","sf":5952,"v":12100}},{"type":"Feature","geometry":{"type":"Point","coordinates":[-79.83615,40.47669]},"properties":{"p":"0367M00252000000","a":"WILLETT DR","m":"Penn Hills","u":"L","o":"individual","sf":34700,"v":9800}},{"type":"Feature","geometry":{"type":"Point","coordinates":[-79.8223,40.48787]},"properties":{"p":"0447G00131000000","a":"ARNOLD DR","m":"Penn Hills","u":"L","o":"individual","sf":23565,"v":6700}},{"type":"Feature","geometry":{"type":"Point","coordinates":[-79.82303,40.48622]},"properties":{"p":"0447L00275000000","a":"UNION GREEN DR","m":"Penn Hills","u":"L","o":"individual","sf":5300,"v":1600}},{"type":"Feature","geometry":{"type":"Point","coordinates":[-79.82287,40.4863]},"properties":{"p":"0447L00279000000","a":"UNION GREEN DR","m":"Penn Hills","u":"L","o":"individual","sf":10435,"v":3000}},{"type":"Feature","geometry":{"type":"Point","coordinates":[-79.82225,40.48688]},"properties":{"p":"0447L00283000000","a":"UNION GREEN DR","m":"Penn Hills","u":"L","o":"individual","sf":44518,"v":9600}},{"type":"Feature","geometry":{"type":"Point","coordinates":[-79.82942,40.4852]},"properties":{"p":"0447J00037000000","a":"6045 BOLTE DR","m":"Penn Hills","u":"L","o":"individual","sf":5632,"v":1700}},{"type":"Feature","geometry":{"type":"Point","coordinates":[-79.82949,40.48541]},"properties":{"p":"0447J00045000000","a":"6045 BOLTE DR","m":"Penn Hills","u":"L","o":"individual","sf":9524,"v":2800}},{"type":"Feature","geometry":{"type":"Point","coordinates":[-79.82944,40.4799]},"properties":{"p":"0448A00004000000","a":"MCCURDY DR","m":"Penn Hills","u":"L","o":"individual","sf":11495,"v":12600}},{"type":"Feature","geometry":{"type":"Point","coordinates":[-79.82919,40.48032]},"properties":{"p":"0448A00020000000","a":"MCCURDY DR","m":"Penn Hills","u":"L","o":"individual","sf":14214,"v":12800}},{"type":"Feature","geometry":{"type":"Point","coordinates":[-79.83226,40.48554]},"properties":{"p":"0447J00184000000","a":"POKETA RD","m":"Penn Hills","u":"L","o":"individual","sf":6612,"v":2000}},{"type":"Feature","geometry":{"type":"Point","coordinates":[-79.82818,40.48612]},"properties":{"p":"0447K00256000000","a":"POKETA RD","m":"Penn Hills","u":"L","o":"individual","sf":5701,"v":1700}},{"type":"Feature","geometry":{"type":"Point","coordinates":[-79.82008,40.48123]},"properties":{"p":"0448D00325000000","a":"KILVINGTON DR","m":"Penn Hills","u":"L","o":"individual","sf":20027,"v":13400}},{"type":"Feature","geometry":{"type":"Point","coordinates":[-79.83,40.48359]},"properties":{"p":"0447N00319000100","a":"ROCKCLIFF RD","m":"Penn Hills","u":"L","o":"individual","sf":871,"v":300}},{"type":"Feature","geometry":{"type":"Point","coordinates":[-79.8379,40.47761]},"properties":{"p":"0367G00114000000","a":"KIM LN","m":"Penn Hills","u":"L","o":"individual","sf":8400,"v":2500}},{"type":"Feature","geometry":{"type":"Point","coordinates":[-79.83863,40.47736]},"properties":{"p":"0367G00131000000","a":"KIM LN","m":"Penn Hills","u":"L","o":"individual","sf":43348,"v":9500}},{"type":"Feature","geometry":{"type":"Point","coordinates":[-79.82389,40.48628]},"properties":{"p":"0447L00258000000","a":"UNION GREEN DR","m":"Penn Hills","u":"L","o":"individual","sf":22216,"v":6300}},{"type":"Feature","geometry":{"type":"Point","coordinates":[-79.82322,40.48621]},"properties":{"p":"0447L00266000000","a":"UNION GREEN DR","m":"Penn Hills","u":"L","o":"individual","sf":13615,"v":12800}},{"type":"Feature","geometry":{"type":"Point","coordinates":[-79.82496,40.48966]},"properties":{"p":"0447F00148000000","a":"SHANNON RD","m":"Penn Hills","u":"L","o":"corp","sf":19972,"v":13400}},{"type":"Feature","geometry":{"type":"Point","coordinates":[-79.8305,40.48511]},"properties":{"p":"0447J00104000000","a":"ROCKCLIFF RD","m":"Penn Hills","u":"L","o":"individual","sf":2438,"v":800}},{"type":"Feature","geometry":{"type":"Point","coordinates":[-79.82056,40.47376]},"properties":{"p":"9934X50471000000","a":"STOTLER RD","m":"Penn Hills","u":"L","o":"corp","sf":121968,"v":19200}},{"type":"Feature","geometry":{"type":"Point","coordinates":[-79.83287,40.4798]},"properties":{"p":"0448E00376000000","a":"EARLWOOD RD","m":"Penn Hills","u":"L","o":"individual","sf":15761,"v":4500}},{"type":"Feature","geometry":{"type":"Point","coordinates":[-79.83822,40.4887]},"properties":{"p":"0366G00157000000","a":"MADISON DR","m":"Penn Hills","u":"L","o":"individual","sf":5462,"v":1600}},{"type":"Feature","geometry":{"type":"Point","coordinates":[-79.83493,40.48669]},"properties":{"p":"0366M00321000000","a":"POKETA RD","m":"Penn Hills","u":"L","o":"individual","sf":89734,"v":6200}},{"type":"Feature","geometry":{"type":"Point","coordinates":[-79.82846,40.47261]},"properties":{"p":"0449B00388000000","a":"CRESCENT HILLS RD","m":"Penn Hills","u":"L","o":"individual","sf":522,"v":200}},{"type":"Feature","geometry":{"type":"Point","coordinates":[-79.83904,40.48001]},"properties":{"p":"0367C00101000000","a":"VERONA RD","m":"Penn Hills","u":"L","o":"individual","sf":2460,"v":800}},{"type":"Feature","geometry":{"type":"Point","coordinates":[-79.82378,40.47035]},"properties":{"p":"0449C00027000000","a":"SPRINGDALE DR","m":"Penn Hills","u":"L","o":"corp","sf":11572,"v":12600}},{"type":"Feature","geometry":{"type":"Point","coordinates":[-79.82656,40.47851]},"properties":{"p":"0448F00122000000","a":"232 CRESTVIEW RD","m":"Penn Hills","u":"L","o":"individual","sf":29192,"v":14200}},{"type":"Feature","geometry":{"type":"Point","coordinates":[-79.83473,40.4827]},"properties":{"p":"0366S00133000000","a":"BOWER AVE","m":"Penn Hills","u":"L","o":"individual","sf":7500,"v":2200}},{"type":"Feature","geometry":{"type":"Point","coordinates":[-79.83724,40.48534]},"properties":{"p":"0366M00234000000","a":"VERONA RD","m":"Penn Hills","u":"L","o":"individual","sf":13504,"v":3900}},{"type":"Feature","geometry":{"type":"Point","coordinates":[-79.83723,40.48929]},"properties":{"p":"0366H00383000000","a":"5939 VERONA RD","m":"Penn Hills","u":"L","o":"individual","sf":4005,"v":10800}},{"type":"Feature","geometry":{"type":"Point","coordinates":[-79.83771,40.4893]},"properties":{"p":"0366H00384000000","a":"VERONA RD","m":"Penn Hills","u":"L","o":"individual","sf":16353,"v":13000}},{"type":"Feature","geometry":{"type":"Point","coordinates":[-79.83816,40.48318]},"properties":{"p":"0366R00065000000","a":"VERONA RD","m":"Penn Hills","u":"L","o":"individual","sf":29278,"v":14200}},{"type":"Feature","geometry":{"type":"Point","coordinates":[-79.83775,40.48334]},"properties":{"p":"0366R00097000000","a":"VERONA RD","m":"Penn Hills","u":"L","o":"individual","sf":3100,"v":1000}},{"type":"Feature","geometry":{"type":"Point","coordinates":[-79.83833,40.48344]},"properties":{"p":"0366R00098000000","a":"VERONA RD","m":"Penn Hills","u":"L","o":"individual","sf":5491,"v":1600}},{"type":"Feature","geometry":{"type":"Point","coordinates":[-79.83849,40.48364]},"properties":{"p":"0366R00113000000","a":"VERONA RD","m":"Penn Hills","u":"L","o":"individual","sf":7655,"v":12200}},{"type":"Feature","geometry":{"type":"Point","coordinates":[-79.82794,40.47179]},"properties":{"p":"0449B00328000000","a":"CRESCENT HILLS RD","m":"Penn Hills","u":"L","o":"individual","sf":11195,"v":12600}},{"type":"Feature","geometry":{"type":"Point","coordinates":[-79.83751,40.48084]},"properties":{"p":"0367D00366000000","a":"BOWER AVE","m":"Penn Hills","u":"L","o":"individual","sf":9038,"v":12400}},{"type":"Feature","geometry":{"type":"Point","coordinates":[-79.82193,40.47113]},"properties":{"p":"0449C00121000000","a":"SPRINGDALE DR","m":"Penn Hills","u":"L","o":"individual","sf":5700,"v":1700}},{"type":"Feature","geometry":{"type":"Point","coordinates":[-79.82177,40.47119]},"properties":{"p":"0449C00128000000","a":"SPRINGDALE DR","m":"Penn Hills","u":"L","o":"corp","sf":3800,"v":4600}},{"type":"Feature","geometry":{"type":"Point","coordinates":[-79.83735,40.48223]},"properties":{"p":"0367C00042000000","a":"FRONT ST","m":"Penn Hills","u":"L","o":"corp","sf":7864,"v":6300}},{"type":"Feature","geometry":{"type":"Point","coordinates":[-79.82067,40.47127]},"properties":{"p":"0449C00149000000","a":"FRANKSTOWN RD","m":"Penn Hills","u":"L","o":"individual","sf":11400,"v":12600}},{"type":"Feature","geometry":{"type":"Point","coordinates":[-79.83888,40.4844]},"properties":{"p":"0366R00176000000","a":"3RD ST","m":"Penn Hills","u":"L","o":"individual","sf":4310,"v":1300}},{"type":"Feature","geometry":{"type":"Point","coordinates":[-79.83865,40.48438]},"properties":{"p":"0366R00177000000","a":"3RD ST","m":"Penn Hills","u":"L","o":"individual","sf":6617,"v":2000}},{"type":"Feature","geometry":{"type":"Point","coordinates":[-79.83879,40.48413]},"properties":{"p":"0366R00181000000","a":"3RD ST","m":"Penn Hills","u":"L","o":"individual","sf":10005,"v":12500}},{"type":"Feature","geometry":{"type":"Point","coordinates":[-79.83768,40.4897]},"properties":{"p":"0366C00010000000","a":"VERONA RD","m":"Penn Hills","u":"L","o":"individual","sf":17163,"v":4900}},{"type":"Feature","geometry":{"type":"Point","coordinates":[-79.83344,40.48321]},"properties":{"p":"0366S00019000000","a":"CRESCENT PINES DR","m":"Penn Hills","u":"L","o":"individual","sf":6450,"v":12100}},{"type":"Feature","geometry":{"type":"Point","coordinates":[-79.83695,40.48746]},"properties":{"p":"0366H00329000000","a":"VERONA RD","m":"Penn Hills","u":"L","o":"individual","sf":4126,"v":1300}},{"type":"Feature","geometry":{"type":"Point","coordinates":[-79.8383,40.48254]},"properties":{"p":"0366R00026000000","a":"VERONA RD","m":"Penn Hills","u":"L","o":"individual","sf":27840,"v":14100}},{"type":"Feature","geometry":{"type":"Point","coordinates":[-79.83682,40.48462]},"properties":{"p":"0366S00349000000","a":"VERONA RD","m":"Penn Hills","u":"L","o":"corp","sf":58893,"v":17000}},{"type":"Feature","geometry":{"type":"Point","coordinates":[-79.8372,40.48347]},"properties":{"p":"0366S00386000000","a":"VERONA RD","m":"Penn Hills","u":"L","o":"individual","sf":3940,"v":1200}},{"type":"Feature","geometry":{"type":"Point","coordinates":[-79.83767,40.48062]},"properties":{"p":"0367C00031000000","a":"BOWER AVE","m":"Penn Hills","u":"L","o":"individual","sf":6888,"v":12200}},{"type":"Feature","geometry":{"type":"Point","coordinates":[-79.8376,40.48072]},"properties":{"p":"0367C00034000000","a":"5409 BOWER AVE","m":"Penn Hills","u":"L","o":"individual","sf":5412,"v":12000}},{"type":"Feature","geometry":{"type":"Point","coordinates":[-79.83905,40.4805]},"properties":{"p":"0367C00175000000","a":"VERONA RD","m":"Penn Hills","u":"L","o":"individual","sf":9376,"v":12400}},{"type":"Feature","geometry":{"type":"Point","coordinates":[-79.83864,40.48159]},"properties":{"p":"0367C00267000000","a":"HOMESTEAD RD","m":"Penn Hills","u":"L","o":"individual","sf":1423,"v":500}},{"type":"Feature","geometry":{"type":"Point","coordinates":[-79.82322,40.47074]},"properties":{"p":"0449C00092000000","a":"SPRINGDALE DR","m":"Penn Hills","u":"L","o":"corp","sf":21303,"v":13500}},{"type":"Feature","geometry":{"type":"Point","coordinates":[-79.82213,40.47106]},"properties":{"p":"0449C00115000000","a":"SPRINGDALE DR","m":"Penn Hills","u":"L","o":"corp","sf":5700,"v":6100}},{"type":"Feature","geometry":{"type":"Point","coordinates":[-79.83173,40.48413]},"properties":{"p":"0447N00278000100","a":"ROCKCLIFF RD","m":"Penn Hills","u":"L","o":"individual","sf":41930,"v":9300}},{"type":"Feature","geometry":{"type":"Point","coordinates":[-79.83792,40.48129]},"properties":{"p":"0367C00076000000","a":"5420 VERONA RD","m":"Penn Hills","u":"L","o":"individual","sf":16498,"v":13000}},{"type":"Feature","geometry":{"type":"Point","coordinates":[-79.82359,40.48407]},"properties":{"p":"0447R00247000000","a":"HEBERTON DR","m":"Penn Hills","u":"L","o":"individual","sf":10010,"v":12500}},{"type":"Feature","geometry":{"type":"Point","coordinates":[-79.82662,40.48783]},"properties":{"p":"0447F00079000000","a":"POKETA RD","m":"Penn Hills","u":"L","o":"individual","sf":3129,"v":1000}},{"type":"Feature","geometry":{"type":"Point","coordinates":[-79.8228,40.48817]},"properties":{"p":"0447G00263000000","a":"POKETA RD","m":"Penn Hills","u":"L","o":"individual","sf":130680,"v":23500}},{"type":"Feature","geometry":{"type":"Point","coordinates":[-79.83402,40.47458]},"properties":{"p":"0367S00338000000","a":"261 GARLOW DR","m":"Penn Hills","u":"L","o":"individual","sf":4350,"v":5200}},{"type":"Feature","geometry":{"type":"Point","coordinates":[-79.83185,40.48436]},"properties":{"p":"0447N00282000100","a":"ROCKCLIFF RD","m":"Penn Hills","u":"L","o":"individual","sf":20602,"v":7400}},{"type":"Feature","geometry":{"type":"Point","coordinates":[-79.83166,40.47071]},"properties":{"p":"0449A00294000000","a":"AZALEA DR","m":"Penn Hills","u":"L","o":"individual","sf":54058,"v":16500}},{"type":"Feature","geometry":{"type":"Point","coordinates":[-79.83196,40.48498]},"properties":{"p":"0447J00138000000","a":"POKETA RD","m":"Penn Hills","u":"L","o":"individual","sf":14670,"v":4200}},{"type":"Feature","geometry":{"type":"Point","coordinates":[-79.83797,40.48288]},"properties":{"p":"0366R00055000000","a":"VERONA RD","m":"Penn Hills","u":"L","o":"individual","sf":7006,"v":2100}},{"type":"Feature","geometry":{"type":"Point","coordinates":[-79.83959,40.47711]},"properties":{"p":"0367G00214000000","a":"135 KIM LN","m":"Penn Hills","u":"L","o":"individual","sf":100754,"v":10000}},{"type":"Feature","geometry":{"type":"Point","coordinates":[-79.82846,40.48646]},"properties":{"p":"0447K00188000000","a":"POKETA RD","m":"Penn Hills","u":"L","o":"individual","sf":4500,"v":1400}},{"type":"Feature","geometry":{"type":"Point","coordinates":[-79.83526,40.47657]},"properties":{"p":"0367M00272000000","a":"WILLETT DR","m":"Penn Hills","u":"L","o":"individual","sf":142877,"v":9800}},{"type":"Feature","geometry":{"type":"Point","coordinates":[-79.83118,40.48192]},"properties":{"p":"0448A00261000000","a":"VINCENT DR","m":"Penn Hills","u":"L","o":"individual","sf":6744,"v":12200}},{"type":"Feature","geometry":{"type":"Point","coordinates":[-79.82966,40.48674]},"properties":{"p":"0447J00125000000","a":"GLEN COURT DR","m":"Penn Hills","u":"B","o":"individual","sf":326700,"v":32700}},{"type":"Feature","geometry":{"type":"Point","coordinates":[-79.82949,40.48114]},"properties":{"p":"0448A00165000000","a":"SALTSBURG RD","m":"Penn Hills","u":"B","o":"corp","sf":12018,"v":2400}},{"type":"Feature","geometry":{"type":"Point","coordinates":[-79.8293,40.48143]},"properties":{"p":"0448A00179000000","a":"SALTSBURG RD","m":"Penn Hills","u":"B","o":"corp","sf":10114,"v":2300}}]}