{"type":"FeatureCollection","features":[{"type":"Feature","geometry":{"type":"Point","coordinates":[-79.83386,40.60697]},"properties":{"p":"1218D00068000000","a":"DEER CREEK RD","m":"West Deer","u":"C","o":"corp","sf":87120,"v":46500}},{"type":"Feature","geometry":{"type":"Point","coordinates":[-79.82248,40.6018]},"properties":{"p":"1219L00025000000","a":"LANDING VIEW DR","m":"West Deer","u":"C","o":"corp","sf":1073754,"v":616250}},{"type":"Feature","geometry":{"type":"Point","coordinates":[-79.82016,40.60313]},"properties":{"p":"1219M00104000000","a":"GULFSTREAM LN","m":"West Deer","u":"C","o":"corp","sf":276606,"v":146300}},{"type":"Feature","geometry":{"type":"Point","coordinates":[-79.82093,40.60002]},"properties":{"p":"1219R00050000000","a":"MSA BLVD","m":"West Deer","u":"C","o":"corp","sf":747490,"v":159700}},{"type":"Feature","geometry":{"type":"Point","coordinates":[-79.82499,40.60133]},"properties":{"p":"1219R00100000000","a":"DEER CREEK RD","m":"West Deer","u":"C","o":"corp","sf":730937,"v":419500}},{"type":"Feature","geometry":{"type":"Point","coordinates":[-79.83352,40.60912]},"properties":{"p":"1361S00146000000","a":"LITTLE DEER CREEK VALLEY RD","m":"West Deer","u":"C","o":"corp","sf":84550,"v":40000}},{"type":"Feature","geometry":{"type":"Point","coordinates":[-79.83097,40.59438]},"properties":{"p":"1084E00141000000","a":"LITTLE DEER CREEK RD","m":"Indiana","u":"L","o":"individual","sf":35992,"v":51800}},{"type":"Feature","geometry":{"type":"Point","coordinates":[-79.82991,40.59607]},"properties":{"p":"1084E00186000000","a":"LITTLE DEER CREEK RD","m":"Indiana","u":"L","o":"individual","sf":26128,"v":25700}},{"type":"Feature","geometry":{"type":"Point","coordinates":[-79.83037,40.5961]},"properties":{"p":"1084E00197000000","a":"LITTLE DEER CREEK RD","m":"Indiana","u":"L","o":"individual","sf":592,"v":100}},{"type":"Feature","geometry":{"type":"Point","coordinates":[-79.82822,40.59161]},"properties":{"p":"1084K00339000000","a":"186 LITTLE DEER CREEK RD","m":"Indiana","u":"L","o":"individual","sf":8412,"v":10500}},{"type":"Feature","geometry":{"type":"Point","coordinates":[-79.83093,40.59716]},"properties":{"p":"1084A00194000000","a":"257 LITTLE DEER CREEK RD","m":"Indiana","u":"L","o":"individual","sf":5184,"v":5300}},{"type":"Feature","geometry":{"type":"Point","coordinates":[-79.83107,40.59348]},"properties":{"p":"1084J00170000000","a":"LITTLE DEER CREEK RD","m":"Indiana","u":"L","o":"individual","sf":22500,"v":16560}},{"type":"Feature","geometry":{"type":"Point","coordinates":[-79.83115,40.59277]},"properties":{"p":"1084J00195000000","a":"LITTLE DEER CREEK RD","m":"Indiana","u":"L","o":"individual","sf":11851,"v":14800}},{"type":"Feature","geometry":{"type":"Point","coordinates":[-79.82741,40.59013]},"properties":{"p":"1084P00273000000","a":"LITTLE DEER CREEK RD","m":"Indiana","u":"L","o":"individual","sf":10081,"v":1100}},{"type":"Feature","geometry":{"type":"Point","coordinates":[-79.82802,40.59102]},"properties":{"p":"1084P00365000000","a":"LITTLE DEER CREEK RD","m":"Indiana","u":"L","o":"individual","sf":100188,"v":37900}},{"type":"Feature","geometry":{"type":"Point","coordinates":[-79.82192,40.59013]},"properties":{"p":"1084R00149000000","a":"CRAWFORD RUN RD","m":"Indiana","u":"L","o":"individual","sf":46653,"v":15000}},{"type":"Feature","geometry":{"type":"Point","coordinates":[-79.82092,40.59091]},"properties":{"p":"1084R00203000000","a":"CRAWFORD RUN RD","m":"Indiana","u":"L","o":"individual","sf":99143,"v":24500}},{"type":"Feature","geometry":{"type":"Point","coordinates":[-79.82905,40.59785]},"properties":{"p":"1084A00046000000","a":"LITTLE DEER CREEK RD","m":"Indiana","u":"L","o":"individual","sf":15202,"v":1700}},{"type":"Feature","geometry":{"type":"Point","coordinates":[-79.83453,40.60332]},"properties":{"p":"1218M00253000000","a":"EISENHOWER DR","m":"West Deer","u":"L","o":"individual","sf":37697,"v":5000}},{"type":"Feature","geometry":{"type":"Point","coordinates":[-79.8349,40.60284]},"properties":{"p":"1218M00260000000","a":"E 2ND AVE","m":"West Deer","u":"L","o":"individual","sf":14840,"v":4900}},{"type":"Feature","geometry":{"type":"Point","coordinates":[-79.83775,40.60217]},"properties":{"p":"1218L00071000000","a":"EISENHOWER DR","m":"West Deer","u":"L","o":"individual","sf":15111,"v":10900}},{"type":"Feature","geometry":{"type":"Point","coordinates":[-79.83818,40.60309]},"properties":{"p":"1218L00093000000","a":"EISENHOWER DR","m":"West Deer","u":"L","o":"individual","sf":16830,"v":5500}},{"type":"Feature","geometry":{"type":"Point","coordinates":[-79.83487,40.60231]},"properties":{"p":"1218M00208000000","a":"EISENHOWER DR","m":"West Deer","u":"L","o":"individual","sf":21654,"v":7000}},{"type":"Feature","geometry":{"type":"Point","coordinates":[-79.83702,40.60414]},"properties":{"p":"1218H00277000000","a":"MACARTHUR DR","m":"West Deer","u":"L","o":"individual","sf":9825,"v":3200}},{"type":"Feature","geometry":{"type":"Point","coordinates":[-79.83707,40.60379]},"properties":{"p":"1218H00284000000","a":"MACARTHUR DR","m":"West Deer","u":"L","o":"individual","sf":4913,"v":1700}},{"type":"Feature","geometry":{"type":"Point","coordinates":[-79.83742,40.60122]},"properties":{"p":"1218L00006000000","a":"BATTAN DR","m":"West Deer","u":"L","o":"individual","sf":4720,"v":1150}},{"type":"Feature","geometry":{"type":"Point","coordinates":[-79.83213,40.6009]},"properties":{"p":"1219N00379000000","a":"1007 MACARTHUR DR","m":"West Deer","u":"L","o":"individual","sf":10862,"v":3600}},{"type":"Feature","geometry":{"type":"Point","coordinates":[-79.83558,40.60294]},"properties":{"p":"1218M00304000000","a":"CLARK DR","m":"West Deer","u":"L","o":"corp","sf":7320,"v":2400}},{"type":"Feature","geometry":{"type":"Point","coordinates":[-79.83484,40.60356]},"properties":{"p":"1218M00338000000","a":"CLARK DR","m":"West Deer","u":"L","o":"individual","sf":45755,"v":23800}},{"type":"Feature","geometry":{"type":"Point","coordinates":[-79.83602,40.60332]},"properties":{"p":"1218M00366000000","a":"MACARTHUR DR","m":"West Deer","u":"L","o":"individual","sf":4235,"v":1500}},{"type":"Feature","geometry":{"type":"Point","coordinates":[-79.836,40.60341]},"properties":{"p":"1218M00368000000","a":"MACARTHUR DR","m":"West Deer","u":"L","o":"individual","sf":4321,"v":1500}},{"type":"Feature","geometry":{"type":"Point","coordinates":[-79.83598,40.60356]},"properties":{"p":"1218M00370000000","a":"MACARTHUR DR","m":"West Deer","u":"L","o":"individual","sf":17568,"v":5700}},{"type":"Feature","geometry":{"type":"Point","coordinates":[-79.83453,40.60117]},"properties":{"p":"1218M00027000000","a":"MACARTHUR DR","m":"West Deer","u":"L","o":"individual","sf":3109,"v":1100}},{"type":"Feature","geometry":{"type":"Point","coordinates":[-79.83486,40.60116]},"properties":{"p":"1218M00030000000","a":"MACARTHUR DR","m":"West Deer","u":"L","o":"individual","sf":12451,"v":4100}},{"type":"Feature","geometry":{"type":"Point","coordinates":[-79.83877,40.60878]},"properties":{"p":"1361R00081000000","a":"MICHAEL RD","m":"West Deer","u":"L","o":"individual","sf":37723,"v":13000}},{"type":"Feature","geometry":{"type":"Point","coordinates":[-79.83994,40.6092]},"properties":{"p":"1361R00141000000","a":"MICHAEL RD","m":"West Deer","u":"L","o":"individual","sf":10138,"v":3300}},{"type":"Feature","geometry":{"type":"Point","coordinates":[-79.83777,40.6094]},"properties":{"p":"1361R00188000000","a":"MATKO DR","m":"West Deer","u":"L","o":"individual","sf":43560,"v":13500}},{"type":"Feature","geometry":{"type":"Point","coordinates":[-79.8358,40.60803]},"properties":{"p":"1361S00175000000","a":"LITTLE DEER CREEK VALLEY RD","m":"West Deer","u":"L","o":"individual","sf":534830,"v":21100}},{"type":"Feature","geometry":{"type":"Point","coordinates":[-79.8319,40.60269]},"properties":{"p":"1219J00220000000","a":"979 LITTLE DEER CREEK VALLEY RD","m":"West Deer","u":"L","o":"individual","sf":11000,"v":10500}},{"type":"Feature","geometry":{"type":"Point","coordinates":[-79.83321,40.601]},"properties":{"p":"1218S00040000000","a":"6TH WAY","m":"West Deer","u":"L","o":"individual","sf":19000,"v":6200}},{"type":"Feature","geometry":{"type":"Point","coordinates":[-79.83526,40.60105]},"properties":{"p":"1218S00213000000","a":"MACARTHUR DR","m":"West Deer","u":"L","o":"individual","sf":6307,"v":2100}},{"type":"Feature","geometry":{"type":"Point","coordinates":[-79.82986,40.59359]},"properties":{"p":"1084J00182000000","a":"LITTLE DEER CREEK RD","m":"Indiana","u":"L","o":"corp","sf":433858,"v":15200}},{"type":"Feature","geometry":{"type":"Point","coordinates":[-79.8365,40.60402]},"properties":{"p":"1218H00257000000","a":"MACARTHUR DR","m":"West Deer","u":"L","o":"individual","sf":8424,"v":10300}},{"type":"Feature","geometry":{"type":"Point","coordinates":[-79.83033,40.59553]},"properties":{"p":"1084E00167000000","a":"LITTLE DEER CREEK RD","m":"Indiana","u":"L","o":"individual","sf":7500,"v":9400}},{"type":"Feature","geometry":{"type":"Point","coordinates":[-79.82614,40.59533]},"properties":{"p":"1084K00160000000","a":"LITTLE DEER CREEK RD","m":"Indiana","u":"L","o":"corp","sf":1212584,"v":137600}},{"type":"Feature","geometry":{"type":"Point","coordinates":[-79.82443,40.60974]},"properties":{"p":"1362L00086000000","a":"CREIGHTON RUSSELLTON RD","m":"West Deer","u":"L","o":"corp","sf":957884,"v":549750}},{"type":"Feature","geometry":{"type":"Point","coordinates":[-79.82787,40.5916]},"properties":{"p":"1084K00329000000","a":"LITTLE DEER CREEK RD","m":"Indiana","u":"L","o":"individual","sf":7318,"v":800}},{"type":"Feature","geometry":{"type":"Point","coordinates":[-79.82121,40.59004]},"properties":{"p":"1084R00164000000","a":"CRAWFORD RUN RD","m":"Indiana","u":"L","o":"individual","sf":116741,"v":28400}}]}