{"type":"FeatureCollection","features":[{"type":"Feature","geometry":{"type":"Point","coordinates":[-79.82588,40.55056]},"properties":{"p":"0624P00075000000","a":"ROUTE 910","m":"Harmar","u":"I","o":"corp","sf":610010,"v":200600}},{"type":"Feature","geometry":{"type":"Point","coordinates":[-79.83451,40.55252]},"properties":{"p":"0623M00095000000","a":"10 RICH HILL RD","m":"Harmar","u":"I","o":"individual","sf":99055,"v":63500}},{"type":"Feature","geometry":{"type":"Point","coordinates":[-79.8296,40.55504]},"properties":{"p":"0624J00075000000","a":"RICH HILL RD","m":"Harmar","u":"C","o":"corp","sf":1605926,"v":1396100}},{"type":"Feature","geometry":{"type":"Point","coordinates":[-79.83325,40.55443]},"properties":{"p":"0623M00200000000","a":"RICH HILL RD","m":"Harmar","u":"C","o":"individual","sf":556897,"v":38400}},{"type":"Feature","geometry":{"type":"Point","coordinates":[-79.82301,40.56242]},"properties":{"p":"0727S00003000000","a":"RUSSELLTON RD","m":"Harmar","u":"C","o":"corp","sf":256133,"v":27900}},{"type":"Feature","geometry":{"type":"Point","coordinates":[-79.82073,40.55951]},"properties":{"p":"0727S00010000000","a":"RUSSELLTON RD","m":"Harmar","u":"C","o":"corp","sf":128052,"v":47400}},{"type":"Feature","geometry":{"type":"Point","coordinates":[-79.83187,40.56031]},"properties":{"p":"0623F00398000000","a":"DEER CREEK RD","m":"Harmar","u":"C","o":"corp","sf":399807,"v":196000}},{"type":"Feature","geometry":{"type":"Point","coordinates":[-79.82328,40.55649]},"properties":{"p":"0624G00097000000","a":"NIXON RD","m":"Harmar","u":"C","o":"corp","sf":3006,"v":700}},{"type":"Feature","geometry":{"type":"Point","coordinates":[-79.82249,40.55725]},"properties":{"p":"0624G00025000000","a":"NIXON RD","m":"Harmar","u":"C","o":"corp","sf":44867,"v":14300}},{"type":"Feature","geometry":{"type":"Point","coordinates":[-79.82114,40.5568]},"properties":{"p":"0624G00050000000","a":"493 NIXON RD","m":"Harmar","u":"C","o":"corp","sf":29075,"v":12900}},{"type":"Feature","geometry":{"type":"Point","coordinates":[-79.83487,40.55969]},"properties":{"p":"0726S00075000000","a":"RICH HILL RD","m":"Harmar","u":"C","o":"corp","sf":127104,"v":9915}},{"type":"Feature","geometry":{"type":"Point","coordinates":[-79.83387,40.56071]},"properties":{"p":"0726S00151000000","a":"JACOBY RD","m":"Harmar","u":"C","o":"corp","sf":277678,"v":19400}},{"type":"Feature","geometry":{"type":"Point","coordinates":[-79.82916,40.56101]},"properties":{"p":"0727P00012000000","a":"JACOBY RD","m":"Indiana","u":"C","o":"corp","sf":159865,"v":24000}},{"type":"Feature","geometry":{"type":"Point","coordinates":[-79.83334,40.55612]},"properties":{"p":"0623H00075000000","a":"RICH HILL RD","m":"Harmar","u":"C","o":"corp","sf":1058508,"v":507300}},{"type":"Feature","geometry":{"type":"Point","coordinates":[-79.8276,40.55886]},"properties":{"p":"0727P00085000000","a":"R OF W","m":"Harmar","u":"C","o":"corp","sf":85290,"v":12300}},{"type":"Feature","geometry":{"type":"Point","coordinates":[-79.83074,40.55919]},"properties":{"p":"0727P00083000000","a":"JACOBY RD","m":"Harmar","u":"L","o":"corp","sf":2418233,"v":155259}},{"type":"Feature","geometry":{"type":"Point","coordinates":[-79.82052,40.55432]},"properties":{"p":"0624M00077000000","a":"HODEL ST","m":"Harmar","u":"L","o":"individual","sf":4800,"v":2000}},{"type":"Feature","geometry":{"type":"Point","coordinates":[-79.82301,40.55088]},"properties":{"p":"0624R00102000000","a":"HARMAR DR","m":"Harmar","u":"L","o":"individual","sf":22216,"v":8800}},{"type":"Feature","geometry":{"type":"Point","coordinates":[-79.82067,40.55404]},"properties":{"p":"0624L00057000000","a":"101 CENTER ST","m":"Harmar","u":"L","o":"individual","sf":4560,"v":1900}},{"type":"Feature","geometry":{"type":"Point","coordinates":[-79.82068,40.55383]},"properties":{"p":"0624L00061000000","a":"101 CENTER ST","m":"Harmar","u":"L","o":"individual","sf":4560,"v":1900}},{"type":"Feature","geometry":{"type":"Point","coordinates":[-79.83876,40.55976]},"properties":{"p":"0726R00080000000","a":"JACOBY RD","m":"Harmar","u":"L","o":"individual","sf":42689,"v":19100}},{"type":"Feature","geometry":{"type":"Point","coordinates":[-79.83324,40.56225]},"properties":{"p":"0726M00014000000","a":"JACOBY RD","m":"Indiana","u":"L","o":"individual","sf":157252,"v":65800}},{"type":"Feature","geometry":{"type":"Point","coordinates":[-79.83385,40.56175]},"properties":{"p":"0726M00146000000","a":"MCDADE LN","m":"Indiana","u":"L","o":"individual","sf":120661,"v":61600}},{"type":"Feature","geometry":{"type":"Point","coordinates":[-79.83503,40.56249]},"properties":{"p":"0726M00182000000","a":"MCDADE LN","m":"Indiana","u":"L","o":"individual","sf":87120,"v":22000}},{"type":"Feature","geometry":{"type":"Point","coordinates":[-79.83505,40.56295]},"properties":{"p":"0726M00206000000","a":"416 MCDADE LN","m":"Indiana","u":"L","o":"individual","sf":13200,"v":1500}},{"type":"Feature","geometry":{"type":"Point","coordinates":[-79.82857,40.56339]},"properties":{"p":"0727K00316000000","a":"ECKER LN","m":"Indiana","u":"L","o":"individual","sf":19223,"v":2100}},{"type":"Feature","geometry":{"type":"Point","coordinates":[-79.82885,40.56273]},"properties":{"p":"0727K00334000000","a":"99 ECKER LN","m":"Indiana","u":"L","o":"individual","sf":137214,"v":15800}},{"type":"Feature","geometry":{"type":"Point","coordinates":[-79.83177,40.56165]},"properties":{"p":"0727N00375000000","a":"ROSEDALE RD","m":"Indiana","u":"L","o":"individual","sf":25962,"v":25700}},{"type":"Feature","geometry":{"type":"Point","coordinates":[-79.83461,40.56199]},"properties":{"p":"0726S00250000000","a":"MCDADE LN","m":"Indiana","u":"L","o":"corp","sf":4506,"v":500}},{"type":"Feature","geometry":{"type":"Point","coordinates":[-79.8394,40.56489]},"properties":{"p":"0726G00307000000","a":"336 RICH HILL RD","m":"Indiana","u":"L","o":"individual","sf":94090,"v":33500}},{"type":"Feature","geometry":{"type":"Point","coordinates":[-79.82677,40.56244]},"properties":{"p":"0727K00026000000","a":"ECKER LN","m":"Indiana","u":"L","o":"individual","sf":156816,"v":40700}},{"type":"Feature","geometry":{"type":"Point","coordinates":[-79.82961,40.56261]},"properties":{"p":"0727J00030000000","a":"ROSEDALE RD","m":"Indiana","u":"L","o":"individual","sf":27645,"v":50800}},{"type":"Feature","geometry":{"type":"Point","coordinates":[-79.83788,40.56504]},"properties":{"p":"0726G00032000000","a":"RICH HILL RD","m":"Indiana","u":"L","o":"individual","sf":152460,"v":65200}},{"type":"Feature","geometry":{"type":"Point","coordinates":[-79.83881,40.56501]},"properties":{"p":"0726G00036000000","a":"RICH HILL RD","m":"Indiana","u":"L","o":"individual","sf":21780,"v":50200}},{"type":"Feature","geometry":{"type":"Point","coordinates":[-79.8396,40.56597]},"properties":{"p":"0726G00296000000","a":"RICH HILL RD","m":"Indiana","u":"L","o":"individual","sf":43821,"v":27700}},{"type":"Feature","geometry":{"type":"Point","coordinates":[-79.82764,40.56399]},"properties":{"p":"0727K00246000000","a":"ROSEDALE RD","m":"Indiana","u":"L","o":"corp","sf":108900,"v":2000}},{"type":"Feature","geometry":{"type":"Point","coordinates":[-79.82307,40.55492]},"properties":{"p":"0624G00225000000","a":"HODEL ST","m":"Harmar","u":"L","o":"individual","sf":3611,"v":1500}},{"type":"Feature","geometry":{"type":"Point","coordinates":[-79.8203,40.55432]},"properties":{"p":"0624M00076000000","a":"HODEL ST","m":"Harmar","u":"L","o":"individual","sf":9600,"v":3800}}]}