{"type":"FeatureCollection","features":[{"type":"Feature","geometry":{"type":"Point","coordinates":[-79.82778,40.22741]},"properties":{"p":"1904B00084000000","a":"PINEVIEW DR","m":"Elizabeth Twp","u":"L","o":"individual","sf":451199,"v":97300}},{"type":"Feature","geometry":{"type":"Point","coordinates":[-79.82559,40.2276]},"properties":{"p":"1904B00101000000","a":"PINEVIEW DR","m":"Elizabeth Twp","u":"L","o":"individual","sf":320166,"v":7350}},{"type":"Feature","geometry":{"type":"Point","coordinates":[-79.82123,40.22742]},"properties":{"p":"1904C00230000000","a":"LONG HOLLOW RD","m":"Elizabeth Twp","u":"L","o":"individual","sf":87381,"v":41200}},{"type":"Feature","geometry":{"type":"Point","coordinates":[-79.82524,40.21493]},"properties":{"p":"2083F00238000000","a":"W NEWTON RD","m":"Elizabeth Twp","u":"L","o":"corp","sf":31929,"v":4100}},{"type":"Feature","geometry":{"type":"Point","coordinates":[-79.8282,40.21621]},"properties":{"p":"2083F00380000000","a":"WEST NEWTON RD","m":"Elizabeth Twp","u":"L","o":"individual","sf":78408,"v":22900}},{"type":"Feature","geometry":{"type":"Point","coordinates":[-79.82236,40.21547]},"properties":{"p":"2083G00267000000","a":"LONG HOLLOW RD","m":"Elizabeth Twp","u":"L","o":"corp","sf":18049,"v":15900}},{"type":"Feature","geometry":{"type":"Point","coordinates":[-79.82517,40.21792]},"properties":{"p":"2083C00252000000","a":"LONG HOLLOW RD","m":"Elizabeth Twp","u":"L","o":"individual","sf":639800,"v":64100}},{"type":"Feature","geometry":{"type":"Point","coordinates":[-79.82751,40.22468]},"properties":{"p":"1904F00232000000","a":"PINEVIEW DR","m":"Elizabeth Twp","u":"L","o":"individual","sf":66734,"v":39300}},{"type":"Feature","geometry":{"type":"Point","coordinates":[-79.82681,40.22544]},"properties":{"p":"1904F00307000000","a":"PINEVIEW DR","m":"Elizabeth Twp","u":"L","o":"individual","sf":197762,"v":51300}},{"type":"Feature","geometry":{"type":"Point","coordinates":[-79.82692,40.22606]},"properties":{"p":"1904F00327000000","a":"PINEVIEW DR","m":"Elizabeth Twp","u":"L","o":"individual","sf":40952,"v":19500}},{"type":"Feature","geometry":{"type":"Point","coordinates":[-79.82792,40.22434]},"properties":{"p":"1904F00359000000","a":"PINEVIEW DR","m":"Elizabeth Twp","u":"L","o":"individual","sf":95745,"v":42000}},{"type":"Feature","geometry":{"type":"Point","coordinates":[-79.83421,40.21648]},"properties":{"p":"2084H00037000000","a":"WEST NEWTON RD","m":"Elizabeth Twp","u":"L","o":"individual","sf":43647,"v":4000}},{"type":"Feature","geometry":{"type":"Point","coordinates":[-79.83771,40.22991]},"properties":{"p":"1734R00019000000","a":"SKYLINE DR","m":"Elizabeth Twp","u":"L","o":"corp","sf":18295,"v":1700}},{"type":"Feature","geometry":{"type":"Point","coordinates":[-79.82809,40.22305]},"properties":{"p":"1904E00033000000","a":"PINEVIEW DR","m":"Elizabeth Twp","u":"L","o":"corp","sf":1291467,"v":88900}},{"type":"Feature","geometry":{"type":"Point","coordinates":[-79.82395,40.21599]},"properties":{"p":"2083G00363000000","a":"LONG HOLLOW RD","m":"Elizabeth Twp","u":"L","o":"individual","sf":52189,"v":600}},{"type":"Feature","geometry":{"type":"Point","coordinates":[-79.83799,40.21717]},"properties":{"p":"2084C00109000000","a":"WEST NEWTON RD","m":"Elizabeth Twp","u":"L","o":"individual","sf":28358,"v":14000}},{"type":"Feature","geometry":{"type":"Point","coordinates":[-79.82127,40.22325]},"properties":{"p":"1904L00049000000","a":"LONG HOLLOW RD","m":"Elizabeth Twp","u":"L","o":"individual","sf":101930,"v":9400}},{"type":"Feature","geometry":{"type":"Point","coordinates":[-79.83923,40.2264]},"properties":{"p":"1905C00098000100","a":"SKYLINE DR","m":"Elizabeth Twp","u":"L","o":"individual","sf":20175,"v":17600}},{"type":"Feature","geometry":{"type":"Point","coordinates":[-79.83826,40.22876]},"properties":{"p":"1905C00135000000","a":"SKYLINE DR","m":"Elizabeth Twp","u":"L","o":"corp","sf":62683,"v":21400}},{"type":"Feature","geometry":{"type":"Point","coordinates":[-79.82819,40.21411]},"properties":{"p":"2083F00086000000","a":"WEST NEWTON RD","m":"Elizabeth Twp","u":"L","o":"individual","sf":47829,"v":7000}},{"type":"Feature","geometry":{"type":"Point","coordinates":[-79.82584,40.21561]},"properties":{"p":"2083F00169000000","a":"LONG HOLLOW RD","m":"Elizabeth Twp","u":"L","o":"individual","sf":260489,"v":10000}},{"type":"Feature","geometry":{"type":"Point","coordinates":[-79.83226,40.21534]},"properties":{"p":"2083E00112000000","a":"WEST NEWTON RD","m":"Elizabeth Twp","u":"L","o":"individual","sf":32155,"v":2900}},{"type":"Feature","geometry":{"type":"Point","coordinates":[-79.83209,40.21566]},"properties":{"p":"2083E00120000000","a":"WEST NEWTON RD","m":"Elizabeth Twp","u":"L","o":"individual","sf":8138,"v":7200}},{"type":"Feature","geometry":{"type":"Point","coordinates":[-79.83192,40.21518]},"properties":{"p":"2083E00131000000","a":"WEST NEWTON RD","m":"Elizabeth Twp","u":"L","o":"individual","sf":14175,"v":1300}},{"type":"Feature","geometry":{"type":"Point","coordinates":[-79.8309,40.21647]},"properties":{"p":"2083E00340000000","a":"WEST NEWTON RD","m":"Elizabeth Twp","u":"L","o":"individual","sf":239449,"v":11400}},{"type":"Feature","geometry":{"type":"Point","coordinates":[-79.82152,40.21647]},"properties":{"p":"2083G00140000000","a":"WEST NEWTON RD","m":"Elizabeth Twp","u":"L","o":"individual","sf":23670,"v":2100}},{"type":"Feature","geometry":{"type":"Point","coordinates":[-79.82474,40.21439]},"properties":{"p":"2083F00005000000","a":"W NEWTON RD","m":"Elizabeth Twp","u":"L","o":"individual","sf":43778,"v":4000}},{"type":"Feature","geometry":{"type":"Point","coordinates":[-79.83707,40.22616]},"properties":{"p":"1905G00396000000","a":"PINEVIEW DR","m":"Elizabeth Twp","u":"L","o":"individual","sf":27704,"v":2500}}]}