{"type":"FeatureCollection","features":[{"type":"Feature","geometry":{"type":"Point","coordinates":[-79.83113,40.2397]},"properties":{"p":"1570N00323000000","a":"DOUGLAS RUN RD","m":"Elizabeth Twp","u":"L","o":"individual","sf":72423,"v":6700}},{"type":"Feature","geometry":{"type":"Point","coordinates":[-79.83288,40.24026]},"properties":{"p":"1570N00330000000","a":"ROUND HILL RD","m":"Elizabeth Twp","u":"L","o":"individual","sf":52795,"v":38800}},{"type":"Feature","geometry":{"type":"Point","coordinates":[-79.82363,40.23897]},"properties":{"p":"1570R00112000000","a":"ROUND HILL RD","m":"Elizabeth Twp","u":"L","o":"individual","sf":163350,"v":1900}},{"type":"Feature","geometry":{"type":"Point","coordinates":[-79.83833,40.24533]},"properties":{"p":"1571G00052000000","a":"SIMPSON HOWELL RD","m":"Elizabeth Twp","u":"L","o":"individual","sf":98446,"v":42900}},{"type":"Feature","geometry":{"type":"Point","coordinates":[-79.82795,40.24779]},"properties":{"p":"1570B00227000000","a":"PEAIRS RD","m":"Elizabeth Twp","u":"L","o":"individual","sf":41730,"v":20200}},{"type":"Feature","geometry":{"type":"Point","coordinates":[-79.8277,40.24757]},"properties":{"p":"1570B00254000000","a":"PEAIRS RD","m":"Elizabeth Twp","u":"L","o":"individual","sf":41730,"v":3800}},{"type":"Feature","geometry":{"type":"Point","coordinates":[-79.82864,40.24656]},"properties":{"p":"1570B00372000000","a":"PEAIRS RD","m":"Elizabeth Twp","u":"L","o":"individual","sf":14520,"v":17800}},{"type":"Feature","geometry":{"type":"Point","coordinates":[-79.82875,40.23959]},"properties":{"p":"1570N00072000000","a":"ROUND HILL RD","m":"Elizabeth Twp","u":"L","o":"individual","sf":392040,"v":57900}},{"type":"Feature","geometry":{"type":"Point","coordinates":[-79.83561,40.24986]},"properties":{"p":"1416S00259000000","a":"SIMPSON HOWELL RD","m":"Elizabeth Twp","u":"L","o":"individual","sf":14000,"v":17700}},{"type":"Feature","geometry":{"type":"Point","coordinates":[-79.83799,40.24945]},"properties":{"p":"1416R00039000000","a":"SIMPSON HOWELL RD","m":"Elizabeth Twp","u":"L","o":"individual","sf":30783,"v":4000}},{"type":"Feature","geometry":{"type":"Point","coordinates":[-79.82196,40.23806]},"properties":{"p":"1733C00025000000","a":"ROUND HILL RD","m":"Elizabeth Twp","u":"L","o":"individual","sf":333670,"v":56600}}]}