{"type":"FeatureCollection","features":[{"type":"Feature","geometry":{"type":"Point","coordinates":[-79.82667,40.30803]},"properties":{"p":"0653P00145000000","a":"BOSTON HOLLOW RD","m":"Elizabeth Twp","u":"C","o":"corp","sf":92783,"v":24500}},{"type":"Feature","geometry":{"type":"Point","coordinates":[-79.83404,40.29116]},"properties":{"p":"0876M00099000000","a":"MANSFIELD RD","m":"Elizabeth Twp","u":"C","o":"individual","sf":17462,"v":2000}},{"type":"Feature","geometry":{"type":"Point","coordinates":[-79.82333,40.3057]},"properties":{"p":"0653R00394000000","a":"RENZIE RD","m":"Elizabeth Twp","u":"C","o":"individual","sf":1118303,"v":52500}},{"type":"Feature","geometry":{"type":"Point","coordinates":[-79.83801,40.29192]},"properties":{"p":"0876L00266000000","a":"FINNEY RD","m":"Lincoln","u":"L","o":"individual","sf":19776,"v":1800}},{"type":"Feature","geometry":{"type":"Point","coordinates":[-79.83812,40.29089]},"properties":{"p":"0876L00305000000","a":"FINNEY RD","m":"Lincoln","u":"L","o":"individual","sf":1490,"v":100}},{"type":"Feature","geometry":{"type":"Point","coordinates":[-79.83805,40.29074]},"properties":{"p":"0876L00308000000","a":"FINNEY RD","m":"Lincoln","u":"L","o":"individual","sf":23086,"v":2100}},{"type":"Feature","geometry":{"type":"Point","coordinates":[-79.83776,40.29073]},"properties":{"p":"0876L00323000000","a":"10 DOUGLAS DR","m":"Lincoln","u":"L","o":"individual","sf":6022,"v":500}},{"type":"Feature","geometry":{"type":"Point","coordinates":[-79.83728,40.29073]},"properties":{"p":"0876L00336000000","a":"10 DOUGLAS DR","m":"Lincoln","u":"L","o":"individual","sf":5107,"v":500}},{"type":"Feature","geometry":{"type":"Point","coordinates":[-79.83967,40.30333]},"properties":{"p":"0761G00295000000","a":"WEST SMITHFIELD ST","m":"Lincoln","u":"L","o":"individual","sf":307163,"v":18500}},{"type":"Feature","geometry":{"type":"Point","coordinates":[-79.83799,40.29522]},"properties":{"p":"0876C00042000000","a":"SILVERLEAF DR","m":"Lincoln","u":"L","o":"individual","sf":34815,"v":3100}},{"type":"Feature","geometry":{"type":"Point","coordinates":[-79.83877,40.29577]},"properties":{"p":"0876C00113000000","a":"SILVERLEAF DR","m":"Lincoln","u":"L","o":"individual","sf":24045,"v":2200}},{"type":"Feature","geometry":{"type":"Point","coordinates":[-79.82957,40.29718]},"properties":{"p":"0875A00090000000","a":"BOSTON HOLLOW RD","m":"Lincoln","u":"L","o":"individual","sf":15208,"v":1400}},{"type":"Feature","geometry":{"type":"Point","coordinates":[-79.83686,40.30784]},"properties":{"p":"0654R00148000000","a":"CALHOUN RD","m":"Lincoln","u":"L","o":"individual","sf":106940,"v":31000}},{"type":"Feature","geometry":{"type":"Point","coordinates":[-79.82974,40.29801]},"properties":{"p":"0760N00160000000","a":"BOSTON HOLLOW RD","m":"Lincoln","u":"L","o":"individual","sf":960,"v":100}},{"type":"Feature","geometry":{"type":"Point","coordinates":[-79.83139,40.29818]},"properties":{"p":"0760N00178000000","a":"BOSTON HOLLOW RD","m":"Lincoln","u":"L","o":"individual","sf":93131,"v":18200}},{"type":"Feature","geometry":{"type":"Point","coordinates":[-79.83761,40.29307]},"properties":{"p":"0876G00169000000","a":"10 EVERGREEN DR","m":"Lincoln","u":"L","o":"individual","sf":64251,"v":5900}},{"type":"Feature","geometry":{"type":"Point","coordinates":[-79.83957,40.29267]},"properties":{"p":"0876G00226000000","a":"FINNEY RD","m":"Lincoln","u":"L","o":"individual","sf":40000,"v":3600}},{"type":"Feature","geometry":{"type":"Point","coordinates":[-79.83342,40.29264]},"properties":{"p":"0876M00186000100","a":"BOSTON HOLLOW RD","m":"Lincoln","u":"L","o":"individual","sf":116262,"v":1300}},{"type":"Feature","geometry":{"type":"Point","coordinates":[-79.83514,40.29125]},"properties":{"p":"0876M00199000001","a":"BOSTON HOLLOW RD","m":"Lincoln","u":"L","o":"individual","sf":16928,"v":1500}},{"type":"Feature","geometry":{"type":"Point","coordinates":[-79.8354,40.29104]},"properties":{"p":"0876M00211000000","a":"603 BOSTON HOLLOW RD","m":"Lincoln","u":"L","o":"individual","sf":29472,"v":12500}},{"type":"Feature","geometry":{"type":"Point","coordinates":[-79.83685,40.29161]},"properties":{"p":"0876M00282000000","a":"DOUGLAS DR","m":"Lincoln","u":"L","o":"individual","sf":131242,"v":12100}},{"type":"Feature","geometry":{"type":"Point","coordinates":[-79.83077,40.30942]},"properties":{"p":"0653N00359000000","a":"527 SCENE RIDGE RD","m":"Elizabeth Twp","u":"L","o":"corp","sf":142040,"v":47300}},{"type":"Feature","geometry":{"type":"Point","coordinates":[-79.82601,40.30763]},"properties":{"p":"0653P00156000000","a":"BOSTON HOLLOW RD","m":"Elizabeth Twp","u":"L","o":"corp","sf":27244,"v":21000}},{"type":"Feature","geometry":{"type":"Point","coordinates":[-79.82599,40.3074]},"properties":{"p":"0653P00173000000","a":"BOSTON HOLLOW RD","m":"Elizabeth Twp","u":"L","o":"corp","sf":13309,"v":23800}},{"type":"Feature","geometry":{"type":"Point","coordinates":[-79.82533,40.3057]},"properties":{"p":"0760B00040000000","a":"PITT ST","m":"Elizabeth Twp","u":"L","o":"individual","sf":11513,"v":3800}},{"type":"Feature","geometry":{"type":"Point","coordinates":[-79.82309,40.29637]},"properties":{"p":"0875C00227000000","a":"YOUGHIOGHENY DR","m":"Elizabeth Twp","u":"L","o":"individual","sf":17069,"v":26500}},{"type":"Feature","geometry":{"type":"Point","coordinates":[-79.82338,40.29613]},"properties":{"p":"0875C00234000000","a":"YOUGHIOGHENY DR","m":"Elizabeth Twp","u":"L","o":"individual","sf":15366,"v":6800}},{"type":"Feature","geometry":{"type":"Point","coordinates":[-79.82827,40.30186]},"properties":{"p":"0760K00386000000","a":"BOSTON HOLLOW RD","m":"Elizabeth Twp","u":"L","o":"individual","sf":40534,"v":19500}},{"type":"Feature","geometry":{"type":"Point","coordinates":[-79.82071,40.30047]},"properties":{"p":"0760L00086000000","a":"TURKEYFOOT RD","m":"Elizabeth Twp","u":"L","o":"individual","sf":8289,"v":7300}},{"type":"Feature","geometry":{"type":"Point","coordinates":[-79.82345,40.29683]},"properties":{"p":"0875C00345000000","a":"YOUGHIOGHENY DR","m":"Elizabeth Twp","u":"L","o":"individual","sf":30000,"v":2700}},{"type":"Feature","geometry":{"type":"Point","coordinates":[-79.823,40.29726]},"properties":{"p":"0875C00365000000","a":"YOUGHIOGHENY DR","m":"Elizabeth Twp","u":"L","o":"individual","sf":15000,"v":1400}},{"type":"Feature","geometry":{"type":"Point","coordinates":[-79.83285,40.30776]},"properties":{"p":"0653N00180000000","a":"SMITHFIELD ST","m":"Elizabeth Twp","u":"L","o":"individual","sf":7650,"v":700}},{"type":"Feature","geometry":{"type":"Point","coordinates":[-79.83151,40.30851]},"properties":{"p":"0653N00233000000","a":"5204 W SMITHFIELD ST","m":"Elizabeth Twp","u":"L","o":"individual","sf":22244,"v":8000}},{"type":"Feature","geometry":{"type":"Point","coordinates":[-79.83188,40.29408]},"properties":{"p":"0875E00030000000","a":"ROUTE 48","m":"Elizabeth Twp","u":"L","o":"individual","sf":5161,"v":21900}},{"type":"Feature","geometry":{"type":"Point","coordinates":[-79.8207,40.29707]},"properties":{"p":"0875C00148000000","a":"HANKINS DR","m":"Elizabeth Twp","u":"L","o":"individual","sf":196020,"v":42900}},{"type":"Feature","geometry":{"type":"Point","coordinates":[-79.82775,40.30347]},"properties":{"p":"0760F00255000000","a":"BOSTON HOLLOW RD","m":"Elizabeth Twp","u":"L","o":"individual","sf":65501,"v":800}},{"type":"Feature","geometry":{"type":"Point","coordinates":[-79.82749,40.30307]},"properties":{"p":"0760F00262000000","a":"BOSTON HOLLOW RD","m":"Elizabeth Twp","u":"L","o":"individual","sf":1903,"v":200}},{"type":"Feature","geometry":{"type":"Point","coordinates":[-79.8281,40.30251]},"properties":{"p":"0760F00279000000","a":"BOSTON HOLLOW RD","m":"Elizabeth Twp","u":"L","o":"individual","sf":21780,"v":5000}},{"type":"Feature","geometry":{"type":"Point","coordinates":[-79.82784,40.30912]},"properties":{"p":"0653K00285000000","a":"W SMITHFIELD ST","m":"Elizabeth Twp","u":"L","o":"individual","sf":141352,"v":8000}},{"type":"Feature","geometry":{"type":"Point","coordinates":[-79.82258,40.29679]},"properties":{"p":"0875C00219000000","a":"YOUGHIOGHENY DR","m":"Elizabeth Twp","u":"L","o":"individual","sf":17370,"v":26500}},{"type":"Feature","geometry":{"type":"Point","coordinates":[-79.82283,40.29658]},"properties":{"p":"0875C00223000000","a":"YOUGHIOGHENY DR","m":"Elizabeth Twp","u":"L","o":"individual","sf":16515,"v":26500}},{"type":"Feature","geometry":{"type":"Point","coordinates":[-79.83313,40.30996]},"properties":{"p":"0653J00040000000","a":"YATES ST","m":"Elizabeth Twp","u":"L","o":"individual","sf":43293,"v":9000}},{"type":"Feature","geometry":{"type":"Point","coordinates":[-79.83164,40.29021]},"properties":{"p":"0875J00036000000","a":"MANSFIELD RD","m":"Elizabeth Twp","u":"L","o":"individual","sf":15405,"v":31000}},{"type":"Feature","geometry":{"type":"Point","coordinates":[-79.83318,40.2909]},"properties":{"p":"0875J00088000000","a":"MANSFIELD RD","m":"Elizabeth Twp","u":"L","o":"individual","sf":13200,"v":1200}},{"type":"Feature","geometry":{"type":"Point","coordinates":[-79.82405,40.30873]},"properties":{"p":"0653R00237000000","a":"RENZIE RD","m":"Elizabeth Twp","u":"L","o":"individual","sf":172323,"v":43100}},{"type":"Feature","geometry":{"type":"Point","coordinates":[-79.82507,40.30603]},"properties":{"p":"0760B00064000000","a":"PITT ST","m":"Elizabeth Twp","u":"L","o":"individual","sf":4979,"v":21800}},{"type":"Feature","geometry":{"type":"Point","coordinates":[-79.82207,40.29579]},"properties":{"p":"0875C00088000000","a":"LAWNVIEW DR","m":"Elizabeth Twp","u":"L","o":"individual","sf":10000,"v":900}},{"type":"Feature","geometry":{"type":"Point","coordinates":[-79.82581,40.30544]},"properties":{"p":"0760B00145000000","a":"BOSTON HOLLOW RD","m":"Elizabeth Twp","u":"L","o":"individual","sf":14928,"v":1300}},{"type":"Feature","geometry":{"type":"Point","coordinates":[-79.82718,40.30931]},"properties":{"p":"0653K00259000000","a":"ROUTE 48","m":"Elizabeth Twp","u":"L","o":"individual","sf":31009,"v":25300}},{"type":"Feature","geometry":{"type":"Point","coordinates":[-79.83349,40.30997]},"properties":{"p":"0654M00248000000","a":"YATES ST","m":"Elizabeth Twp","u":"L","o":"individual","sf":20919,"v":6800}},{"type":"Feature","geometry":{"type":"Point","coordinates":[-79.82144,40.29605]},"properties":{"p":"0875C00110000000","a":"LAWNVIEW DR","m":"Elizabeth Twp","u":"L","o":"individual","sf":11000,"v":25000}},{"type":"Feature","geometry":{"type":"Point","coordinates":[-79.82045,40.29659]},"properties":{"p":"0875C00134000000","a":"HANKINS DR","m":"Elizabeth Twp","u":"L","o":"individual","sf":28417,"v":14400}},{"type":"Feature","geometry":{"type":"Point","coordinates":[-79.83279,40.30878]},"properties":{"p":"0654S00169000000","a":"W SMITHFIELD ST","m":"Elizabeth Twp","u":"L","o":"individual","sf":185566,"v":50200}},{"type":"Feature","geometry":{"type":"Point","coordinates":[-79.82017,40.3002]},"properties":{"p":"0760M00024000000","a":"1902 TURKEYFOOT RD","m":"Elizabeth Twp","u":"L","o":"individual","sf":7500,"v":6600}},{"type":"Feature","geometry":{"type":"Point","coordinates":[-79.82031,40.30102]},"properties":{"p":"0760M00047000000","a":"TURKEYFOOT RD","m":"Elizabeth Twp","u":"L","o":"individual","sf":6600,"v":600}},{"type":"Feature","geometry":{"type":"Point","coordinates":[-79.82035,40.30118]},"properties":{"p":"0760M00052000000","a":"TURKEYFOOT RD","m":"Elizabeth Twp","u":"L","o":"individual","sf":6300,"v":600}},{"type":"Feature","geometry":{"type":"Point","coordinates":[-79.82038,40.30135]},"properties":{"p":"0760M00057000000","a":"TURKEYFOOT RD","m":"Elizabeth Twp","u":"L","o":"individual","sf":6600,"v":600}},{"type":"Feature","geometry":{"type":"Point","coordinates":[-79.83314,40.30661]},"properties":{"p":"0761D00076000000","a":"SMITHFIELD ST","m":"Elizabeth Twp","u":"L","o":"individual","sf":135907,"v":12200}},{"type":"Feature","geometry":{"type":"Point","coordinates":[-79.83408,40.30657]},"properties":{"p":"0761D00098000000","a":"SMITHFIELD ST","m":"Elizabeth Twp","u":"L","o":"individual","sf":65209,"v":4700}},{"type":"Feature","geometry":{"type":"Point","coordinates":[-79.82523,40.29319]},"properties":{"p":"0875F00036000000","a":"RIDGE RD","m":"Elizabeth Twp","u":"L","o":"individual","sf":55844,"v":38300}},{"type":"Feature","geometry":{"type":"Point","coordinates":[-79.82665,40.29288]},"properties":{"p":"0875F00065000000","a":"RIDGE RD","m":"Elizabeth Twp","u":"L","o":"individual","sf":16335,"v":14400}},{"type":"Feature","geometry":{"type":"Point","coordinates":[-79.82474,40.2925]},"properties":{"p":"0875G00269000000","a":"SWALLOW HILL RD","m":"Elizabeth Twp","u":"L","o":"individual","sf":7607,"v":700}},{"type":"Feature","geometry":{"type":"Point","coordinates":[-79.831,40.29484]},"properties":{"p":"0875A00040000000","a":"ROUTE 48","m":"Elizabeth Twp","u":"L","o":"individual","sf":19820,"v":34800}},{"type":"Feature","geometry":{"type":"Point","coordinates":[-79.82979,40.29611]},"properties":{"p":"0875A00060000000","a":"KEDDIE RD","m":"Elizabeth Twp","u":"L","o":"individual","sf":64948,"v":6000}},{"type":"Feature","geometry":{"type":"Point","coordinates":[-79.82626,40.2957]},"properties":{"p":"0875B00015000000","a":"ROUTE 48","m":"Elizabeth Twp","u":"L","o":"individual","sf":295337,"v":11900}},{"type":"Feature","geometry":{"type":"Point","coordinates":[-79.8222,40.29323]},"properties":{"p":"0875G00200000000","a":"BRIARWOOD DR","m":"Elizabeth Twp","u":"L","o":"individual","sf":479,"v":100}},{"type":"Feature","geometry":{"type":"Point","coordinates":[-79.82211,40.294]},"properties":{"p":"0875G00108000000","a":"2211 RIDGE RD","m":"Elizabeth Twp","u":"L","o":"individual","sf":21903,"v":26900}},{"type":"Feature","geometry":{"type":"Point","coordinates":[-79.82431,40.29369]},"properties":{"p":"0875G00297000000","a":"RIDGE RD","m":"Elizabeth Twp","u":"L","o":"corp","sf":27592,"v":7900}},{"type":"Feature","geometry":{"type":"Point","coordinates":[-79.83052,40.2991]},"properties":{"p":"0760N00236000000","a":"FEY RD","m":"Elizabeth Twp","u":"L","o":"individual","sf":20517,"v":3000}},{"type":"Feature","geometry":{"type":"Point","coordinates":[-79.83074,40.29945]},"properties":{"p":"0760N00240000000","a":"BOSTON HOLLOW RD","m":"Elizabeth Twp","u":"L","o":"individual","sf":6534,"v":600}},{"type":"Feature","geometry":{"type":"Point","coordinates":[-79.83109,40.29954]},"properties":{"p":"0760N00263000000","a":"1 FEY RD","m":"Elizabeth Twp","u":"L","o":"individual","sf":13181,"v":11600}},{"type":"Feature","geometry":{"type":"Point","coordinates":[-79.83164,40.29297]},"properties":{"p":"0875E00115000000","a":"BOSTON HOLLOW RD","m":"Elizabeth Twp","u":"L","o":"individual","sf":266457,"v":54300}},{"type":"Feature","geometry":{"type":"Point","coordinates":[-79.83202,40.29702]},"properties":{"p":"0875A00174000000","a":"BOSTON HOLLOW RD","m":"Lincoln","u":"L","o":"individual","sf":326051,"v":48600}},{"type":"Feature","geometry":{"type":"Point","coordinates":[-79.83293,40.29079]},"properties":{"p":"0875J00085000000","a":"MANSFIELD RD","m":"Elizabeth Twp","u":"L","o":"individual","sf":13200,"v":29000}},{"type":"Feature","geometry":{"type":"Point","coordinates":[-79.82091,40.29604]},"properties":{"p":"0875C00132000000","a":"HANKINS DR","m":"Elizabeth Twp","u":"L","o":"individual","sf":11004,"v":25000}},{"type":"Feature","geometry":{"type":"Point","coordinates":[-79.82453,40.29849]},"properties":{"p":"0760R00337000000","a":"1796 HANKINS DR","m":"Elizabeth Twp","u":"L","o":"individual","sf":5000,"v":5400}},{"type":"Feature","geometry":{"type":"Point","coordinates":[-79.83702,40.29039]},"properties":{"p":"0876M00262000000","a":"DOUGLAS DR","m":"Lincoln","u":"L","o":"individual","sf":12979,"v":1200}},{"type":"Feature","geometry":{"type":"Point","coordinates":[-79.82712,40.29057]},"properties":{"p":"0875K00192000000","a":"RIDGE RD","m":"Elizabeth Twp","u":"L","o":"individual","sf":9576,"v":8400}},{"type":"Feature","geometry":{"type":"Point","coordinates":[-79.82807,40.3028]},"properties":{"p":"0760F00275000000","a":"BOSTON HOLLOW RD","m":"Elizabeth Twp","u":"L","o":"individual","sf":26136,"v":35600}},{"type":"Feature","geometry":{"type":"Point","coordinates":[-79.83628,40.30782]},"properties":{"p":"0654S00198000000","a":"YOUGH RD","m":"Lincoln","u":"L","o":"individual","sf":30607,"v":2800}},{"type":"Feature","geometry":{"type":"Point","coordinates":[-79.82405,40.29099]},"properties":{"p":"0875L00003000000","a":"SWALLOW HILL RD","m":"Elizabeth Twp","u":"B","o":"corp","sf":23939,"v":4900}},{"type":"Feature","geometry":{"type":"Point","coordinates":[-79.82379,40.29064]},"properties":{"p":"0875L00004000000","a":"SWALLOW HILL RD","m":"Elizabeth Twp","u":"B","o":"corp","sf":25621,"v":2300}},{"type":"Feature","geometry":{"type":"Point","coordinates":[-79.82353,40.29028]},"properties":{"p":"0875L00005000000","a":"SWALLOW HILL RD","m":"Elizabeth Twp","u":"B","o":"corp","sf":27302,"v":2500}},{"type":"Feature","geometry":{"type":"Point","coordinates":[-79.82295,40.29069]},"properties":{"p":"0875L00008000000","a":"SWALLOW HILL RD","m":"Elizabeth Twp","u":"B","o":"corp","sf":25340,"v":2300}},{"type":"Feature","geometry":{"type":"Point","coordinates":[-79.82332,40.29105]},"properties":{"p":"0875L00009000000","a":"2223 LEBANON DR","m":"Elizabeth Twp","u":"B","o":"corp","sf":20410,"v":1800}},{"type":"Feature","geometry":{"type":"Point","coordinates":[-79.82297,40.2912]},"properties":{"p":"0875L00010000000","a":"2217 -2219 LEBANON DR","m":"Elizabeth Twp","u":"B","o":"corp","sf":18587,"v":1700}},{"type":"Feature","geometry":{"type":"Point","coordinates":[-79.82258,40.29133]},"properties":{"p":"0875L00011000000","a":"2211 -2215 LEBANON DR","m":"Elizabeth Twp","u":"B","o":"corp","sf":25110,"v":2300}},{"type":"Feature","geometry":{"type":"Point","coordinates":[-79.82192,40.29165]},"properties":{"p":"0875L00013000000","a":"2207 LEBANON DR","m":"Elizabeth Twp","u":"B","o":"corp","sf":19189,"v":1700}},{"type":"Feature","geometry":{"type":"Point","coordinates":[-79.82131,40.29157]},"properties":{"p":"0875L00015000000","a":"2304 SHORT DR","m":"Elizabeth Twp","u":"B","o":"corp","sf":15394,"v":1400}},{"type":"Feature","geometry":{"type":"Point","coordinates":[-79.82107,40.29137]},"properties":{"p":"0875L00016000000","a":"2306 SHORT DR","m":"Elizabeth Twp","u":"B","o":"corp","sf":15394,"v":1400}},{"type":"Feature","geometry":{"type":"Point","coordinates":[-79.82087,40.29117]},"properties":{"p":"0875L00017000000","a":"2308 SHORT DR","m":"Elizabeth Twp","u":"B","o":"corp","sf":14570,"v":1300}},{"type":"Feature","geometry":{"type":"Point","coordinates":[-79.82372,40.2927]},"properties":{"p":"0875G00266005A00","a":"BRIARWOOD DR","m":"Elizabeth Twp","u":"B","o":"individual","sf":7840,"v":3200}},{"type":"Feature","geometry":{"type":"Point","coordinates":[-79.8241,40.29252]},"properties":{"p":"0875G00266006A00","a":"BRIARWOOD DR","m":"Elizabeth Twp","u":"B","o":"individual","sf":14810,"v":4100}},{"type":"Feature","geometry":{"type":"Point","coordinates":[-79.82389,40.29261]},"properties":{"p":"0875G00266006B00","a":"BRIARWOOD DR","m":"Elizabeth Twp","u":"B","o":"individual","sf":7840,"v":3200}},{"type":"Feature","geometry":{"type":"Point","coordinates":[-79.82029,40.29147]},"properties":{"p":"0875M00036000000","a":"2309 SHORT DR","m":"Elizabeth Twp","u":"B","o":"corp","sf":11999,"v":1100}},{"type":"Feature","geometry":{"type":"Point","coordinates":[-79.82052,40.29167]},"properties":{"p":"0875M00037000000","a":"2307 SHORT DR","m":"Elizabeth Twp","u":"B","o":"corp","sf":11999,"v":1100}},{"type":"Feature","geometry":{"type":"Point","coordinates":[-79.8222,40.29221]},"properties":{"p":"0875L00022000000","a":"2206 LEBANON DR","m":"Elizabeth Twp","u":"B","o":"corp","sf":19575,"v":1800}},{"type":"Feature","geometry":{"type":"Point","coordinates":[-79.82299,40.29184]},"properties":{"p":"0875L00024000000","a":"2216 LEBANON DR","m":"Elizabeth Twp","u":"B","o":"corp","sf":28684,"v":5300}},{"type":"Feature","geometry":{"type":"Point","coordinates":[-79.8205,40.29067]},"properties":{"p":"0875M00033000000","a":"2310 SHORT DR","m":"Elizabeth Twp","u":"B","o":"corp","sf":19033,"v":1700}},{"type":"Feature","geometry":{"type":"Point","coordinates":[-79.82263,40.29027]},"properties":{"p":"0875L00007000000","a":"SWALLOW HILL RD","m":"Elizabeth Twp","u":"B","o":"corp","sf":27103,"v":2400}},{"type":"Feature","geometry":{"type":"Point","coordinates":[-79.8222,40.29148]},"properties":{"p":"0875L00012000000","a":"2209 LEBANON DR","m":"Elizabeth Twp","u":"B","o":"corp","sf":19000,"v":4500}}]}