{"type":"FeatureCollection","features":[{"type":"Feature","geometry":{"type":"Point","coordinates":[-79.83821,40.31911]},"properties":{"p":"0555R00010000000","a":"R/W","m":"Versailles","u":"I","o":"corp","sf":2030,"v":200}},{"type":"Feature","geometry":{"type":"Point","coordinates":[-79.82752,40.31521]},"properties":{"p":"0653B00264000000","a":"LINDEN ST","m":"Versailles","u":"I","o":"corp","sf":16170,"v":14900}},{"type":"Feature","geometry":{"type":"Point","coordinates":[-79.82796,40.31196]},"properties":{"p":"0653F00133000000","a":"DONNER ST","m":"Elizabeth Twp","u":"I","o":"individual","sf":4050,"v":5600}},{"type":"Feature","geometry":{"type":"Point","coordinates":[-79.83476,40.32864]},"properties":{"p":"0464S00024000000","a":"EDEN PARK BLVD","m":"12th Ward  - McKEESPORT","u":"C","o":"individual","sf":13000,"v":2300}},{"type":"Feature","geometry":{"type":"Point","coordinates":[-79.83625,40.3286]},"properties":{"p":"0464S00064000000","a":"EDEN PARK BLVD","m":"12th Ward  - McKEESPORT","u":"C","o":"individual","sf":74166,"v":11900}},{"type":"Feature","geometry":{"type":"Point","coordinates":[-79.83383,40.32865]},"properties":{"p":"0464S00201000000","a":"EDEN PARK BLVD","m":"12th Ward  - McKEESPORT","u":"C","o":"corp","sf":6143,"v":12900}},{"type":"Feature","geometry":{"type":"Point","coordinates":[-79.8383,40.32343]},"properties":{"p":"0555G00365000000","a":"LONG RUN RD","m":"12th Ward  - McKEESPORT","u":"C","o":"individual","sf":6313,"v":1100}},{"type":"Feature","geometry":{"type":"Point","coordinates":[-79.83796,40.3234]},"properties":{"p":"0555G00372000000","a":"LONG RUN RD","m":"12th Ward  - McKEESPORT","u":"C","o":"individual","sf":2894,"v":500}},{"type":"Feature","geometry":{"type":"Point","coordinates":[-79.83809,40.32434]},"properties":{"p":"0555G00396000000","a":"LONG RUN RD","m":"12th Ward  - McKEESPORT","u":"C","o":"corp","sf":19793,"v":40900}},{"type":"Feature","geometry":{"type":"Point","coordinates":[-79.83845,40.32424]},"properties":{"p":"0555G00398000000","a":"LONG RUN RD","m":"12th Ward  - McKEESPORT","u":"C","o":"corp","sf":11983,"v":28100}},{"type":"Feature","geometry":{"type":"Point","coordinates":[-79.83516,40.32506]},"properties":{"p":"0555D00282000000","a":"LONG RUN RD","m":"12th Ward  - McKEESPORT","u":"C","o":"individual","sf":13095,"v":29900}},{"type":"Feature","geometry":{"type":"Point","coordinates":[-79.82658,40.32286]},"properties":{"p":"0554F00193000000","a":"MCINTOSH RD","m":"12th Ward  - McKEESPORT","u":"C","o":"individual","sf":10454,"v":16400}},{"type":"Feature","geometry":{"type":"Point","coordinates":[-79.82603,40.32299]},"properties":{"p":"0554F00211000000","a":"LONG RUN RD","m":"12th Ward  - McKEESPORT","u":"C","o":"corp","sf":12418,"v":28800}},{"type":"Feature","geometry":{"type":"Point","coordinates":[-79.82886,40.32068]},"properties":{"p":"0554K00024000000","a":"LONG RUN RD","m":"12th Ward  - McKEESPORT","u":"C","o":"corp","sf":23653,"v":47300}},{"type":"Feature","geometry":{"type":"Point","coordinates":[-79.8284,40.32085]},"properties":{"p":"0554K00025000000","a":"LONG RUN RD","m":"12th Ward  - McKEESPORT","u":"C","o":"individual","sf":20625,"v":21000}},{"type":"Feature","geometry":{"type":"Point","coordinates":[-79.83894,40.32481]},"properties":{"p":"0555C00257000000","a":"WALNUT ST","m":"12th Ward  - McKEESPORT","u":"C","o":"individual","sf":3156,"v":600}},{"type":"Feature","geometry":{"type":"Point","coordinates":[-79.8387,40.3271]},"properties":{"p":"0464R00274000000","a":"WALNUT ST","m":"12th Ward  - McKEESPORT","u":"C","o":"corp","sf":2550,"v":2400}},{"type":"Feature","geometry":{"type":"Point","coordinates":[-79.82012,40.32528]},"properties":{"p":"0554D00201000000","a":"LONG RUN RD","m":"12th Ward  - McKEESPORT","u":"C","o":"corp","sf":181401,"v":33300}},{"type":"Feature","geometry":{"type":"Point","coordinates":[-79.8324,40.32353]},"properties":{"p":"0554E00210000100","a":"4313 WALNUT ST","m":"12th Ward  - McKEESPORT","u":"C","o":"corp","sf":51662,"v":6000}},{"type":"Feature","geometry":{"type":"Point","coordinates":[-79.83646,40.3277]},"properties":{"p":"0464S00122000000","a":"HILLVIEW ST","m":"12th Ward  - McKEESPORT","u":"C","o":"individual","sf":3615,"v":2900}},{"type":"Feature","geometry":{"type":"Point","coordinates":[-79.82087,40.32344]},"properties":{"p":"0554G00210000000","a":"LONG RUN RD","m":"12th Ward  - McKEESPORT","u":"C","o":"corp","sf":25831,"v":4700}},{"type":"Feature","geometry":{"type":"Point","coordinates":[-79.83694,40.32386]},"properties":{"p":"0555H00018000000","a":"LONG RUN RD","m":"12th Ward  - McKEESPORT","u":"C","o":"individual","sf":21699,"v":44100}},{"type":"Feature","geometry":{"type":"Point","coordinates":[-79.83852,40.32081]},"properties":{"p":"0555L00107000000","a":"BIRCH ST","m":"Versailles","u":"C","o":"individual","sf":6849,"v":15200}},{"type":"Feature","geometry":{"type":"Point","coordinates":[-79.83266,40.31639]},"properties":{"p":"0653A00011000000","a":"4901 WALNUT ST","m":"Versailles","u":"C","o":"corp","sf":13200,"v":2400}},{"type":"Feature","geometry":{"type":"Point","coordinates":[-79.8372,40.32144]},"properties":{"p":"0555M00141000000","a":"4236 WALNUT ST","m":"Versailles","u":"C","o":"individual","sf":1363,"v":400}},{"type":"Feature","geometry":{"type":"Point","coordinates":[-79.83375,40.31825]},"properties":{"p":"0555S00048000000","a":"4709 WALNUT ST","m":"Versailles","u":"C","o":"individual","sf":17250,"v":22800}},{"type":"Feature","geometry":{"type":"Point","coordinates":[-79.83366,40.31799]},"properties":{"p":"0555S00059000000","a":"4709 WALNUT ST","m":"Versailles","u":"C","o":"individual","sf":5977,"v":40600}},{"type":"Feature","geometry":{"type":"Point","coordinates":[-79.83297,40.31614]},"properties":{"p":"0653A00230000000","a":"WALNUT ST","m":"Versailles","u":"C","o":"individual","sf":660,"v":900}},{"type":"Feature","geometry":{"type":"Point","coordinates":[-79.83204,40.31609]},"properties":{"p":"0653A00045000000","a":"WALNUT ST","m":"Versailles","u":"C","o":"individual","sf":3024,"v":4000}},{"type":"Feature","geometry":{"type":"Point","coordinates":[-79.83672,40.31846]},"properties":{"p":"0555S00337000000","a":"2ND ST","m":"Versailles","u":"C","o":"individual","sf":3631,"v":700}},{"type":"Feature","geometry":{"type":"Point","coordinates":[-79.82744,40.31485]},"properties":{"p":"0653B00293000000","a":"YOUGH ST","m":"Versailles","u":"C","o":"corp","sf":4393,"v":400}},{"type":"Feature","geometry":{"type":"Point","coordinates":[-79.83749,40.31654]},"properties":{"p":"0654D00315000000","a":"CENTER ST","m":"Versailles","u":"C","o":"corp","sf":43560,"v":3900}},{"type":"Feature","geometry":{"type":"Point","coordinates":[-79.8278,40.31391]},"properties":{"p":"0653E00120000000","a":"1ST ST","m":"Versailles","u":"C","o":"individual","sf":86394,"v":15600}},{"type":"Feature","geometry":{"type":"Point","coordinates":[-79.82555,40.31642]},"properties":{"p":"0653B00024000000","a":"CENTER ST","m":"Versailles","u":"C","o":"corp","sf":62056,"v":1400}},{"type":"Feature","geometry":{"type":"Point","coordinates":[-79.8262,40.31553]},"properties":{"p":"0653B00070000000","a":"601 LINDEN ST","m":"Versailles","u":"C","o":"corp","sf":93654,"v":86200}},{"type":"Feature","geometry":{"type":"Point","coordinates":[-79.83394,40.31719]},"properties":{"p":"0555S00091000000","a":"WALNUT ST","m":"Versailles","u":"C","o":"corp","sf":4455,"v":37600}},{"type":"Feature","geometry":{"type":"Point","coordinates":[-79.83529,40.31569]},"properties":{"p":"0654D00200000002","a":"1ST ST","m":"Versailles","u":"C","o":"corp","sf":99739,"v":18000}},{"type":"Feature","geometry":{"type":"Point","coordinates":[-79.82662,40.31083]},"properties":{"p":"0653K00144000000","a":"SMITHFIELD ST","m":"Elizabeth Twp","u":"C","o":"individual","sf":6343,"v":1700}},{"type":"Feature","geometry":{"type":"Point","coordinates":[-79.82335,40.31517]},"properties":{"p":"0653C00191000000","a":"HART ST","m":"Elizabeth Twp","u":"C","o":"corp","sf":19622,"v":2400}},{"type":"Feature","geometry":{"type":"Point","coordinates":[-79.82487,40.31414]},"properties":{"p":"0653C00193000000","a":"HART ST","m":"Elizabeth Twp","u":"C","o":"individual","sf":27744,"v":3300}},{"type":"Feature","geometry":{"type":"Point","coordinates":[-79.83467,40.32842]},"properties":{"p":"0464S00017000000","a":"EDEN PARK BLVD","m":"12th Ward  - McKEESPORT","u":"C","o":"individual","sf":2562,"v":400}},{"type":"Feature","geometry":{"type":"Point","coordinates":[-79.82635,40.3229]},"properties":{"p":"0554F00205000000","a":"MCINTOSH RD","m":"12th Ward  - McKEESPORT","u":"C","o":"individual","sf":4170,"v":11300}},{"type":"Feature","geometry":{"type":"Point","coordinates":[-79.83556,40.32427]},"properties":{"p":"0555D00224000000","a":"LONG RUN RD","m":"12th Ward  - McKEESPORT","u":"C","o":"individual","sf":51836,"v":1200}},{"type":"Feature","geometry":{"type":"Point","coordinates":[-79.83826,40.32892]},"properties":{"p":"0464R00084000000","a":"425 36TH ST","m":"11th Ward  - McKEESPORT","u":"L","o":"individual","sf":5000,"v":1500}},{"type":"Feature","geometry":{"type":"Point","coordinates":[-79.83773,40.32722]},"properties":{"p":"0464R00202000000","a":"EDEN PARK BLVD","m":"12th Ward  - McKEESPORT","u":"L","o":"individual","sf":9371,"v":6400}},{"type":"Feature","geometry":{"type":"Point","coordinates":[-79.82414,40.32685]},"properties":{"p":"0463R00071000000","a":"MARSHALL DR","m":"12th Ward  - McKEESPORT","u":"L","o":"individual","sf":5550,"v":1900}},{"type":"Feature","geometry":{"type":"Point","coordinates":[-79.83057,40.329]},"properties":{"p":"0463J00003000000","a":"DIEHL DR","m":"12th Ward  - McKEESPORT","u":"L","o":"corp","sf":17601,"v":12600}},{"type":"Feature","geometry":{"type":"Point","coordinates":[-79.82962,40.32833]},"properties":{"p":"0463N00009000100","a":"BECKMAN DR","m":"12th Ward  - McKEESPORT","u":"L","o":"individual","sf":1742,"v":4000}},{"type":"Feature","geometry":{"type":"Point","coordinates":[-79.82953,40.3274]},"properties":{"p":"0463N00036000000","a":"BECKMAN DR","m":"12th Ward  - McKEESPORT","u":"L","o":"individual","sf":8531,"v":11800}},{"type":"Feature","geometry":{"type":"Point","coordinates":[-79.83624,40.32764]},"properties":{"p":"0464S00120000000","a":"REBA ST","m":"12th Ward  - McKEESPORT","u":"L","o":"corp","sf":5094,"v":12000}},{"type":"Feature","geometry":{"type":"Point","coordinates":[-79.8261,40.324]},"properties":{"p":"0554F00320000000","a":"LONG RUN RD","m":"12th Ward  - McKEESPORT","u":"L","o":"individual","sf":209829,"v":30800}},{"type":"Feature","geometry":{"type":"Point","coordinates":[-79.82776,40.3229]},"properties":{"p":"0554F00323000000","a":"MCINTOSH RD","m":"12th Ward  - McKEESPORT","u":"L","o":"individual","sf":6857,"v":2000}},{"type":"Feature","geometry":{"type":"Point","coordinates":[-79.82249,40.32367]},"properties":{"p":"0554G00086000000","a":"LONG RUN RD","m":"12th Ward  - McKEESPORT","u":"L","o":"individual","sf":48922,"v":27000}},{"type":"Feature","geometry":{"type":"Point","coordinates":[-79.82695,40.32763]},"properties":{"p":"0463P00281000000","a":"HERSHEY DR","m":"12th Ward  - McKEESPORT","u":"L","o":"individual","sf":8120,"v":2700}},{"type":"Feature","geometry":{"type":"Point","coordinates":[-79.82673,40.32754]},"properties":{"p":"0463P00283000000","a":"HERSHEY DR","m":"12th Ward  - McKEESPORT","u":"L","o":"individual","sf":7540,"v":2500}},{"type":"Feature","geometry":{"type":"Point","coordinates":[-79.83286,40.32567]},"properties":{"p":"0464S00381000000","a":"RUN RD","m":"12th Ward  - McKEESPORT","u":"L","o":"individual","sf":312325,"v":33700}},{"type":"Feature","geometry":{"type":"Point","coordinates":[-79.83018,40.32535]},"properties":{"p":"0554A00017000000","a":"BECKMAN DR","m":"12th Ward  - McKEESPORT","u":"L","o":"individual","sf":392041,"v":23100}},{"type":"Feature","geometry":{"type":"Point","coordinates":[-79.82784,40.32539]},"properties":{"p":"0554B00116000000","a":"DIEHL DR","m":"12th Ward  - McKEESPORT","u":"L","o":"individual","sf":8400,"v":23300}},{"type":"Feature","geometry":{"type":"Point","coordinates":[-79.83265,40.32972]},"properties":{"p":"0463J00324000000","a":"EDEN PARK BLVD","m":"12th Ward  - McKEESPORT","u":"L","o":"individual","sf":12960,"v":6700}},{"type":"Feature","geometry":{"type":"Point","coordinates":[-79.83288,40.32962]},"properties":{"p":"0463J00328000000","a":"EDEN PARK BLVD","m":"12th Ward  - McKEESPORT","u":"L","o":"individual","sf":9000,"v":12400}},{"type":"Feature","geometry":{"type":"Point","coordinates":[-79.83719,40.32844]},"properties":{"p":"0464S00077000000","a":"BEALE ST","m":"11th Ward  - McKEESPORT","u":"L","o":"individual","sf":12375,"v":9700}},{"type":"Feature","geometry":{"type":"Point","coordinates":[-79.83739,40.32854]},"properties":{"p":"0464S00082000000","a":"BEALE ST","m":"11th Ward  - McKEESPORT","u":"L","o":"individual","sf":8580,"v":2500}},{"type":"Feature","geometry":{"type":"Point","coordinates":[-79.83734,40.32884]},"properties":{"p":"0464S00091000000","a":"3603 BEALE ST","m":"11th Ward  - McKEESPORT","u":"L","o":"individual","sf":4530,"v":4100}},{"type":"Feature","geometry":{"type":"Point","coordinates":[-79.82413,40.32314]},"properties":{"p":"0554G00112000000","a":"MCINTOSH RD","m":"12th Ward  - McKEESPORT","u":"L","o":"corp","sf":31219,"v":14400}},{"type":"Feature","geometry":{"type":"Point","coordinates":[-79.82474,40.32314]},"properties":{"p":"0554G00116000000","a":"MCINTOSH RD","m":"12th Ward  - McKEESPORT","u":"L","o":"individual","sf":23762,"v":13700}},{"type":"Feature","geometry":{"type":"Point","coordinates":[-79.82341,40.32412]},"properties":{"p":"0554G00125000000","a":"MCINTOSH RD","m":"12th Ward  - McKEESPORT","u":"L","o":"corp","sf":71120,"v":29100}},{"type":"Feature","geometry":{"type":"Point","coordinates":[-79.83791,40.322]},"properties":{"p":"0555G00320000000","a":"4224 WALNUT ST","m":"12th Ward  - McKEESPORT","u":"L","o":"individual","sf":4790,"v":11800}},{"type":"Feature","geometry":{"type":"Point","coordinates":[-79.8203,40.32143]},"properties":{"p":"0554M00205000000","a":"CENTER ST","m":"12th Ward  - McKEESPORT","u":"L","o":"corp","sf":589367,"v":40600}},{"type":"Feature","geometry":{"type":"Point","coordinates":[-79.83651,40.32611]},"properties":{"p":"0555D00039000000","a":"427 LEMON AVE","m":"12th Ward  - McKEESPORT","u":"L","o":"individual","sf":4750,"v":5700}},{"type":"Feature","geometry":{"type":"Point","coordinates":[-79.83169,40.32668]},"properties":{"p":"0463N00231000000","a":"LONG RUN RD","m":"12th Ward  - McKEESPORT","u":"L","o":"individual","sf":180338,"v":28100}},{"type":"Feature","geometry":{"type":"Point","coordinates":[-79.83238,40.32839]},"properties":{"p":"0463N00338000000","a":"PALM ST","m":"12th Ward  - McKEESPORT","u":"L","o":"individual","sf":273557,"v":21900}},{"type":"Feature","geometry":{"type":"Point","coordinates":[-79.83854,40.32998]},"properties":{"p":"0464L00234000000","a":"LEXINGTON AVE","m":"11th Ward  - McKEESPORT","u":"L","o":"individual","sf":3808,"v":1200}},{"type":"Feature","geometry":{"type":"Point","coordinates":[-79.83756,40.32921]},"properties":{"p":"0464L00328000000","a":"BEALE ST","m":"11th Ward  - McKEESPORT","u":"L","o":"individual","sf":4987,"v":1500}},{"type":"Feature","geometry":{"type":"Point","coordinates":[-79.83765,40.32948]},"properties":{"p":"0464L00337000000","a":"BEALE ST","m":"11th Ward  - McKEESPORT","u":"L","o":"individual","sf":12515,"v":5200}},{"type":"Feature","geometry":{"type":"Point","coordinates":[-79.83807,40.32976]},"properties":{"p":"0464L00341000000","a":"BEALE ST","m":"11th Ward  - McKEESPORT","u":"L","o":"individual","sf":8291,"v":4800}},{"type":"Feature","geometry":{"type":"Point","coordinates":[-79.8222,40.32455]},"properties":{"p":"0554C00288000000","a":"MCINTOSH RD","m":"12th Ward  - McKEESPORT","u":"L","o":"individual","sf":9414,"v":3100}},{"type":"Feature","geometry":{"type":"Point","coordinates":[-79.837,40.32442]},"properties":{"p":"0555D00236000000","a":"LONG RUN RD","m":"12th Ward  - McKEESPORT","u":"L","o":"individual","sf":5748,"v":12100}},{"type":"Feature","geometry":{"type":"Point","coordinates":[-79.83646,40.3246]},"properties":{"p":"0555D00247000000","a":"LONG RUN RD","m":"12th Ward  - McKEESPORT","u":"L","o":"individual","sf":6360,"v":12100}},{"type":"Feature","geometry":{"type":"Point","coordinates":[-79.82925,40.32882]},"properties":{"p":"0463P00073000100","a":"BECKMAN DR","m":"12th Ward  - McKEESPORT","u":"L","o":"individual","sf":1909,"v":700}},{"type":"Feature","geometry":{"type":"Point","coordinates":[-79.82856,40.32938]},"properties":{"p":"0463K00279000100","a":"BECKMAN DR","m":"12th Ward  - McKEESPORT","u":"L","o":"individual","sf":1625,"v":600}},{"type":"Feature","geometry":{"type":"Point","coordinates":[-79.82872,40.32925]},"properties":{"p":"0463K00282000100","a":"BECKMAN DR","m":"12th Ward  - McKEESPORT","u":"L","o":"individual","sf":1625,"v":600}},{"type":"Feature","geometry":{"type":"Point","coordinates":[-79.82888,40.32912]},"properties":{"p":"0463K00285000100","a":"BECKMAN DR","m":"12th Ward  - McKEESPORT","u":"L","o":"individual","sf":1625,"v":600}},{"type":"Feature","geometry":{"type":"Point","coordinates":[-79.82905,40.32898]},"properties":{"p":"0463K00288000100","a":"BECKMAN DR","m":"12th Ward  - McKEESPORT","u":"L","o":"individual","sf":1958,"v":700}},{"type":"Feature","geometry":{"type":"Point","coordinates":[-79.82421,40.32974]},"properties":{"p":"0463L00410000000","a":"ARNOLD DR","m":"12th Ward  - McKEESPORT","u":"L","o":"individual","sf":80586,"v":5600}},{"type":"Feature","geometry":{"type":"Point","coordinates":[-79.83297,40.32913]},"properties":{"p":"0463J00131000000","a":"PALM ST","m":"12th Ward  - McKEESPORT","u":"L","o":"individual","sf":12600,"v":12700}},{"type":"Feature","geometry":{"type":"Point","coordinates":[-79.83235,40.32935]},"properties":{"p":"0463J00142000000","a":"539 PALM ST","m":"12th Ward  - McKEESPORT","u":"L","o":"individual","sf":24090,"v":7700}},{"type":"Feature","geometry":{"type":"Point","coordinates":[-79.82538,40.32307]},"properties":{"p":"0554F00223000000","a":"LONG RUN RD","m":"12th Ward  - McKEESPORT","u":"L","o":"individual","sf":33977,"v":2300}},{"type":"Feature","geometry":{"type":"Point","coordinates":[-79.82052,40.32987]},"properties":{"p":"0463M00061000000","a":"WAINWRIGHT DR","m":"12th Ward  - McKEESPORT","u":"L","o":"individual","sf":14418,"v":4500}},{"type":"Feature","geometry":{"type":"Point","coordinates":[-79.82324,40.32708]},"properties":{"p":"0463R00250000000","a":"MARSHALL DR","m":"12th Ward  - McKEESPORT","u":"L","o":"individual","sf":30000,"v":13800}},{"type":"Feature","geometry":{"type":"Point","coordinates":[-79.82338,40.32804]},"properties":{"p":"0463R00263000000","a":"HALSEY DR","m":"12th Ward  - McKEESPORT","u":"L","o":"individual","sf":19050,"v":6200}},{"type":"Feature","geometry":{"type":"Point","coordinates":[-79.83201,40.3297]},"properties":{"p":"0463J00154000000","a":"CENTER ST","m":"12th Ward  - McKEESPORT","u":"L","o":"individual","sf":5000,"v":1500}},{"type":"Feature","geometry":{"type":"Point","coordinates":[-79.83175,40.32949]},"properties":{"p":"0463J00156000000","a":"539 PALM ST","m":"12th Ward  - McKEESPORT","u":"L","o":"individual","sf":5000,"v":6000}},{"type":"Feature","geometry":{"type":"Point","coordinates":[-79.82987,40.32856]},"properties":{"p":"0463N00117000000","a":"DIEHL DR","m":"12th Ward  - McKEESPORT","u":"L","o":"corp","sf":7540,"v":2500}},{"type":"Feature","geometry":{"type":"Point","coordinates":[-79.83078,40.32884]},"properties":{"p":"0463N00147000000","a":"DIEHL DR","m":"12th Ward  - McKEESPORT","u":"L","o":"individual","sf":26581,"v":13400}},{"type":"Feature","geometry":{"type":"Point","coordinates":[-79.83135,40.32827]},"properties":{"p":"0463N00155000000","a":"CHARLES CIR","m":"12th Ward  - McKEESPORT","u":"L","o":"individual","sf":7953,"v":2600}},{"type":"Feature","geometry":{"type":"Point","coordinates":[-79.83161,40.32763]},"properties":{"p":"0463N00157000000","a":"CHARLES CIR","m":"12th Ward  - McKEESPORT","u":"L","o":"individual","sf":17424,"v":12600}},{"type":"Feature","geometry":{"type":"Point","coordinates":[-79.83132,40.32766]},"properties":{"p":"0463N00159000000","a":"CHARLES CIR","m":"12th Ward  - McKEESPORT","u":"L","o":"individual","sf":10890,"v":12000}},{"type":"Feature","geometry":{"type":"Point","coordinates":[-79.82722,40.32303]},"properties":{"p":"0554F00305000000","a":"710 MCINTOSH RD","m":"12th Ward  - McKEESPORT","u":"L","o":"individual","sf":9530,"v":2800}},{"type":"Feature","geometry":{"type":"Point","coordinates":[-79.83512,40.32787]},"properties":{"p":"0464S00184000000","a":"EDEN PARK BLVD","m":"12th Ward  - McKEESPORT","u":"L","o":"individual","sf":3425,"v":1100}},{"type":"Feature","geometry":{"type":"Point","coordinates":[-79.83519,40.327]},"properties":{"p":"0464S00315000000","a":"LEMON AVE","m":"12th Ward  - McKEESPORT","u":"L","o":"individual","sf":5250,"v":6000}},{"type":"Feature","geometry":{"type":"Point","coordinates":[-79.83631,40.32654]},"properties":{"p":"0464S00332000100","a":"PETERSON ST","m":"12th Ward  - McKEESPORT","u":"L","o":"individual","sf":385,"v":200}},{"type":"Feature","geometry":{"type":"Point","coordinates":[-79.8283,40.32409]},"properties":{"p":"0554B00200000000","a":"BECKMAN DR","m":"12th Ward  - McKEESPORT","u":"L","o":"individual","sf":100963,"v":7000}},{"type":"Feature","geometry":{"type":"Point","coordinates":[-79.83996,40.3299]},"properties":{"p":"0464L00191000000","a":"402 EUCLID AVE","m":"11th Ward  - McKEESPORT","u":"L","o":"individual","sf":2256,"v":700}},{"type":"Feature","geometry":{"type":"Point","coordinates":[-79.83821,40.32928]},"properties":{"p":"0464L00299000000","a":"35TH ST","m":"11th Ward  - McKEESPORT","u":"L","o":"individual","sf":7500,"v":2200}},{"type":"Feature","geometry":{"type":"Point","coordinates":[-79.83839,40.32923]},"properties":{"p":"0464L00300000000","a":"35TH ST","m":"11th Ward  - McKEESPORT","u":"L","o":"individual","sf":2458,"v":800}},{"type":"Feature","geometry":{"type":"Point","coordinates":[-79.83864,40.32915]},"properties":{"p":"0464L00306000000","a":"35TH ST","m":"11th Ward  - McKEESPORT","u":"L","o":"individual","sf":2500,"v":800}},{"type":"Feature","geometry":{"type":"Point","coordinates":[-79.83765,40.32995]},"properties":{"p":"0464L00396000000","a":"LAFAYETTE ST","m":"11th Ward  - McKEESPORT","u":"L","o":"individual","sf":6380,"v":1900}},{"type":"Feature","geometry":{"type":"Point","coordinates":[-79.83759,40.3298]},"properties":{"p":"0464L00398000000","a":"LAFAYETTE ST","m":"11th Ward  - McKEESPORT","u":"L","o":"individual","sf":6600,"v":2000}},{"type":"Feature","geometry":{"type":"Point","coordinates":[-79.82687,40.32466]},"properties":{"p":"0554B00215000000","a":"BECKMAN DR","m":"12th Ward  - McKEESPORT","u":"L","o":"individual","sf":74705,"v":29400}},{"type":"Feature","geometry":{"type":"Point","coordinates":[-79.8363,40.32572]},"properties":{"p":"0555D00087000000","a":"GREENWOOD AVE","m":"12th Ward  - McKEESPORT","u":"L","o":"individual","sf":7420,"v":12200}},{"type":"Feature","geometry":{"type":"Point","coordinates":[-79.83475,40.32635]},"properties":{"p":"0555D00115000000","a":"OAKWOOD ST","m":"12th Ward  - McKEESPORT","u":"L","o":"individual","sf":7000,"v":12200}},{"type":"Feature","geometry":{"type":"Point","coordinates":[-79.82955,40.32847]},"properties":{"p":"0463P00068000100","a":"BECKMAN DR","m":"12th Ward  - McKEESPORT","u":"L","o":"individual","sf":1909,"v":4400}},{"type":"Feature","geometry":{"type":"Point","coordinates":[-79.82938,40.32868]},"properties":{"p":"0463P00071000100","a":"BECKMAN DR","m":"12th Ward  - McKEESPORT","u":"L","o":"individual","sf":1909,"v":4400}},{"type":"Feature","geometry":{"type":"Point","coordinates":[-79.8284,40.32951]},"properties":{"p":"0463K00276000100","a":"BECKMAN DR","m":"12th Ward  - McKEESPORT","u":"L","o":"individual","sf":1742,"v":700}},{"type":"Feature","geometry":{"type":"Point","coordinates":[-79.8376,40.32677]},"properties":{"p":"0464S00153000000","a":"HILLVIEW ST","m":"12th Ward  - McKEESPORT","u":"L","o":"individual","sf":5094,"v":6000}},{"type":"Feature","geometry":{"type":"Point","coordinates":[-79.83116,40.32925]},"properties":{"p":"0463J00101000000","a":"PALM ST","m":"12th Ward  - McKEESPORT","u":"L","o":"individual","sf":6771,"v":12200}},{"type":"Feature","geometry":{"type":"Point","coordinates":[-79.83025,40.32794]},"properties":{"p":"0463N00083000000","a":"DIEHL DR","m":"12th Ward  - McKEESPORT","u":"L","o":"individual","sf":13035,"v":23700}},{"type":"Feature","geometry":{"type":"Point","coordinates":[-79.83016,40.32821]},"properties":{"p":"0463N00087000000","a":"391 DIEHL DR","m":"12th Ward  - McKEESPORT","u":"L","o":"individual","sf":7409,"v":11700}},{"type":"Feature","geometry":{"type":"Point","coordinates":[-79.83777,40.32863]},"properties":{"p":"0464R00094000000","a":"36TH ST","m":"11th Ward  - McKEESPORT","u":"L","o":"individual","sf":2500,"v":2300}},{"type":"Feature","geometry":{"type":"Point","coordinates":[-79.82857,40.32376]},"properties":{"p":"0554E00375000000","a":"BECKMAN DR","m":"12th Ward  - McKEESPORT","u":"L","o":"individual","sf":628440,"v":14500}},{"type":"Feature","geometry":{"type":"Point","coordinates":[-79.83754,40.32422]},"properties":{"p":"0555D00374000000","a":"LONG RUN RD","m":"12th Ward  - McKEESPORT","u":"L","o":"corp","sf":4280,"v":5100}},{"type":"Feature","geometry":{"type":"Point","coordinates":[-79.83773,40.32415]},"properties":{"p":"0555D00378000000","a":"LONG RUN RD","m":"12th Ward  - McKEESPORT","u":"L","o":"corp","sf":7701,"v":6200}},{"type":"Feature","geometry":{"type":"Point","coordinates":[-79.83698,40.32704]},"properties":{"p":"0464S00161000000","a":"HILLVIEW ST","m":"12th Ward  - McKEESPORT","u":"L","o":"individual","sf":5071,"v":12000}},{"type":"Feature","geometry":{"type":"Point","coordinates":[-79.8349,40.32753]},"properties":{"p":"0464S00264000000","a":"REBA ST","m":"12th Ward  - McKEESPORT","u":"L","o":"corp","sf":4776,"v":11700}},{"type":"Feature","geometry":{"type":"Point","coordinates":[-79.83466,40.32763]},"properties":{"p":"0464S00266000000","a":"REBA ST","m":"12th Ward  - McKEESPORT","u":"L","o":"individual","sf":11044,"v":12500}},{"type":"Feature","geometry":{"type":"Point","coordinates":[-79.83433,40.32776]},"properties":{"p":"0464S00270000000","a":"REBA ST","m":"12th Ward  - McKEESPORT","u":"L","o":"individual","sf":11906,"v":12600}},{"type":"Feature","geometry":{"type":"Point","coordinates":[-79.82877,40.3252]},"properties":{"p":"0554B00044000000","a":"DIEHL DR","m":"12th Ward  - McKEESPORT","u":"L","o":"individual","sf":7644,"v":2500}},{"type":"Feature","geometry":{"type":"Point","coordinates":[-79.83863,40.32594]},"properties":{"p":"0555C00343000000","a":"ELIZABETH ST","m":"12th Ward  - McKEESPORT","u":"L","o":"corp","sf":16875,"v":13100}},{"type":"Feature","geometry":{"type":"Point","coordinates":[-79.83883,40.32568]},"properties":{"p":"0555C00344000000","a":"PEOPLES ST","m":"12th Ward  - McKEESPORT","u":"L","o":"corp","sf":1890,"v":2300}},{"type":"Feature","geometry":{"type":"Point","coordinates":[-79.82999,40.32845]},"properties":{"p":"0463N00112000000","a":"DIEHL DR","m":"12th Ward  - McKEESPORT","u":"L","o":"corp","sf":7885,"v":2600}},{"type":"Feature","geometry":{"type":"Point","coordinates":[-79.8336,40.32712]},"properties":{"p":"0464S00305000000","a":"PETERSON ST","m":"12th Ward  - McKEESPORT","u":"L","o":"individual","sf":108900,"v":10000}},{"type":"Feature","geometry":{"type":"Point","coordinates":[-79.82725,40.32546]},"properties":{"p":"0554B00158000000","a":"BECKMAN DR","m":"12th Ward  - McKEESPORT","u":"L","o":"individual","sf":7540,"v":23200}},{"type":"Feature","geometry":{"type":"Point","coordinates":[-79.82548,40.32874]},"properties":{"p":"0463K00031000000","a":"ARNOLD DR","m":"12th Ward  - McKEESPORT","u":"L","o":"individual","sf":14228,"v":12300}},{"type":"Feature","geometry":{"type":"Point","coordinates":[-79.82516,40.32918]},"properties":{"p":"0463K00037000000","a":"ARNOLD DR","m":"12th Ward  - McKEESPORT","u":"L","o":"individual","sf":41321,"v":2900}},{"type":"Feature","geometry":{"type":"Point","coordinates":[-79.83924,40.32861]},"properties":{"p":"0464R00066000000","a":"36TH ST","m":"11th Ward  - McKEESPORT","u":"L","o":"individual","sf":2515,"v":800}},{"type":"Feature","geometry":{"type":"Point","coordinates":[-79.8249,40.32964]},"properties":{"p":"0463K00050000000","a":"ARNOLD DR","m":"12th Ward  - McKEESPORT","u":"L","o":"individual","sf":9317,"v":3100}},{"type":"Feature","geometry":{"type":"Point","coordinates":[-79.82489,40.32986]},"properties":{"p":"0463K00052000000","a":"ARNOLD DR","m":"12th Ward  - McKEESPORT","u":"L","o":"individual","sf":14980,"v":4900}},{"type":"Feature","geometry":{"type":"Point","coordinates":[-79.83789,40.32001]},"properties":{"p":"0555L00083000000","a":"1ST ST","m":"Versailles","u":"L","o":"individual","sf":8200,"v":4000}},{"type":"Feature","geometry":{"type":"Point","coordinates":[-79.83798,40.32012]},"properties":{"p":"0555L00087000000","a":"1ST ST","m":"Versailles","u":"L","o":"individual","sf":7690,"v":8200}},{"type":"Feature","geometry":{"type":"Point","coordinates":[-79.83808,40.32026]},"properties":{"p":"0555L00093000000","a":"1ST ST","m":"Versailles","u":"L","o":"corp","sf":7950,"v":8300}},{"type":"Feature","geometry":{"type":"Point","coordinates":[-79.83676,40.31767]},"properties":{"p":"0555S00365000000","a":"PENN WAY","m":"Versailles","u":"L","o":"individual","sf":5000,"v":8000}},{"type":"Feature","geometry":{"type":"Point","coordinates":[-79.83126,40.31592]},"properties":{"p":"0653A00054000000","a":"CENTER ST","m":"Versailles","u":"L","o":"corp","sf":3885,"v":400}},{"type":"Feature","geometry":{"type":"Point","coordinates":[-79.83047,40.31619]},"properties":{"p":"0653A00059000000","a":"CENTER ST","m":"Versailles","u":"L","o":"individual","sf":11790,"v":1100}},{"type":"Feature","geometry":{"type":"Point","coordinates":[-79.83023,40.31628]},"properties":{"p":"0653A00062000000","a":"CENTER ST","m":"Versailles","u":"L","o":"individual","sf":7088,"v":16000}},{"type":"Feature","geometry":{"type":"Point","coordinates":[-79.82804,40.31869]},"properties":{"p":"0554P00128000000","a":"731 NORTH LN","m":"Versailles","u":"L","o":"individual","sf":7018,"v":5800}},{"type":"Feature","geometry":{"type":"Point","coordinates":[-79.82817,40.31581]},"properties":{"p":"0653B00220000000","a":"CHESTNUT ST","m":"Versailles","u":"L","o":"corp","sf":4620,"v":3800}},{"type":"Feature","geometry":{"type":"Point","coordinates":[-79.83385,40.31647]},"properties":{"p":"0654D00010000000","a":"4817 3RD ST","m":"Versailles","u":"L","o":"individual","sf":2828,"v":800}},{"type":"Feature","geometry":{"type":"Point","coordinates":[-79.82951,40.31525]},"properties":{"p":"0653A00120000000","a":"CHESTNUT ST","m":"Versailles","u":"L","o":"individual","sf":495,"v":100}},{"type":"Feature","geometry":{"type":"Point","coordinates":[-79.82957,40.31513]},"properties":{"p":"0653A00126000000","a":"CHESTNUT ST","m":"Versailles","u":"L","o":"individual","sf":2310,"v":1900}},{"type":"Feature","geometry":{"type":"Point","coordinates":[-79.83451,40.31555]},"properties":{"p":"0654D00145000000","a":"4820 2ND ST","m":"Versailles","u":"L","o":"corp","sf":2575,"v":2100}},{"type":"Feature","geometry":{"type":"Point","coordinates":[-79.8348,40.31859]},"properties":{"p":"0555S00154000000","a":"WALNUT ST","m":"Versailles","u":"L","o":"individual","sf":1294,"v":400}},{"type":"Feature","geometry":{"type":"Point","coordinates":[-79.83825,40.32101]},"properties":{"p":"0555L00044000000","a":null,"m":"Versailles","u":"L","o":"corp","sf":5275,"v":8000}},{"type":"Feature","geometry":{"type":"Point","coordinates":[-79.83816,40.32091]},"properties":{"p":"0555L00046000000","a":"3RD ST","m":"Versailles","u":"L","o":"individual","sf":2500,"v":700}},{"type":"Feature","geometry":{"type":"Point","coordinates":[-79.83246,40.32009]},"properties":{"p":"0554J00284000000","a":"ELM ST","m":"Versailles","u":"L","o":"individual","sf":10800,"v":19000}},{"type":"Feature","geometry":{"type":"Point","coordinates":[-79.83344,40.31884]},"properties":{"p":"0554N00341000000","a":"VINE ST","m":"Versailles","u":"L","o":"individual","sf":6500,"v":15500}},{"type":"Feature","geometry":{"type":"Point","coordinates":[-79.83318,40.31558]},"properties":{"p":"0653A00239000000","a":"4920 3RD ST","m":"Versailles","u":"L","o":"individual","sf":2525,"v":700}},{"type":"Feature","geometry":{"type":"Point","coordinates":[-79.83738,40.31973]},"properties":{"p":"0555L00061000000","a":"BIRCH ST","m":"Versailles","u":"L","o":"individual","sf":1475,"v":500}},{"type":"Feature","geometry":{"type":"Point","coordinates":[-79.82774,40.3147]},"properties":{"p":"0653B00298000000","a":"YOUGH ST","m":"Versailles","u":"L","o":"individual","sf":7203,"v":16100}},{"type":"Feature","geometry":{"type":"Point","coordinates":[-79.82446,40.31977]},"properties":{"p":"0554L00022000000","a":"CENTER ST","m":"Versailles","u":"L","o":"individual","sf":6710,"v":2800}},{"type":"Feature","geometry":{"type":"Point","coordinates":[-79.82452,40.31992]},"properties":{"p":"0554L00032000000","a":"HARPHEN ST","m":"Versailles","u":"L","o":"individual","sf":3485,"v":300}},{"type":"Feature","geometry":{"type":"Point","coordinates":[-79.82448,40.3209]},"properties":{"p":"0554L00083000000","a":"CENTER ST","m":"Versailles","u":"L","o":"individual","sf":112385,"v":1300}},{"type":"Feature","geometry":{"type":"Point","coordinates":[-79.82899,40.31637]},"properties":{"p":"0653B00162000000","a":"CENTER ST","m":"Versailles","u":"L","o":"individual","sf":7764,"v":16500}},{"type":"Feature","geometry":{"type":"Point","coordinates":[-79.82886,40.31643]},"properties":{"p":"0653B00170000000","a":"CENTER ST","m":"Versailles","u":"L","o":"individual","sf":2632,"v":500}},{"type":"Feature","geometry":{"type":"Point","coordinates":[-79.82874,40.31946]},"properties":{"p":"0554P00046000000","a":"HIGH ST","m":"Versailles","u":"L","o":"individual","sf":101930,"v":2600}},{"type":"Feature","geometry":{"type":"Point","coordinates":[-79.82822,40.31794]},"properties":{"p":"0554P00073000000","a":"HIGH ST","m":"Versailles","u":"L","o":"individual","sf":10152,"v":18500}},{"type":"Feature","geometry":{"type":"Point","coordinates":[-79.83635,40.31775]},"properties":{"p":"0555S00325000000","a":"2ND ST","m":"Versailles","u":"L","o":"individual","sf":5000,"v":8000}},{"type":"Feature","geometry":{"type":"Point","coordinates":[-79.83649,40.31824]},"properties":{"p":"0555S00332000000","a":"JUNIPER ST","m":"Versailles","u":"L","o":"individual","sf":1782,"v":5400}},{"type":"Feature","geometry":{"type":"Point","coordinates":[-79.8367,40.31816]},"properties":{"p":"0555S00334000000","a":"204 JUNIPER ST","m":"Versailles","u":"L","o":"individual","sf":1428,"v":500}},{"type":"Feature","geometry":{"type":"Point","coordinates":[-79.83219,40.3133]},"properties":{"p":"0653E00155000000","a":"RAILROAD ST","m":"Versailles","u":"L","o":"individual","sf":4240,"v":1200}},{"type":"Feature","geometry":{"type":"Point","coordinates":[-79.83118,40.3128]},"properties":{"p":"0653E00170000000","a":"OARD ST","m":"Versailles","u":"L","o":"individual","sf":3211,"v":900}},{"type":"Feature","geometry":{"type":"Point","coordinates":[-79.83113,40.31562]},"properties":{"p":"0653A00092000000","a":"WALNUT ST","m":"Versailles","u":"L","o":"corp","sf":14697,"v":8900}},{"type":"Feature","geometry":{"type":"Point","coordinates":[-79.82548,40.31857]},"properties":{"p":"0554P00215000000","a":"CENTER ST","m":"Versailles","u":"L","o":"individual","sf":7650,"v":6400}},{"type":"Feature","geometry":{"type":"Point","coordinates":[-79.82518,40.31803]},"properties":{"p":"0554P00236000000","a":"CENTER ST","m":"Versailles","u":"L","o":"individual","sf":43734,"v":22900}},{"type":"Feature","geometry":{"type":"Point","coordinates":[-79.82782,40.31506]},"properties":{"p":"0653B00272000000","a":"LINDEN ST","m":"Versailles","u":"L","o":"individual","sf":4620,"v":400}},{"type":"Feature","geometry":{"type":"Point","coordinates":[-79.8285,40.31474]},"properties":{"p":"0653B00282000000","a":"LINDEN ST","m":"Versailles","u":"L","o":"individual","sf":6930,"v":1700}},{"type":"Feature","geometry":{"type":"Point","coordinates":[-79.8271,40.31503]},"properties":{"p":"0653B00287000000","a":"YOUGH ST","m":"Versailles","u":"L","o":"individual","sf":1946,"v":200}},{"type":"Feature","geometry":{"type":"Point","coordinates":[-79.82716,40.315]},"properties":{"p":"0653B00288000000","a":"YOUGH ST","m":"Versailles","u":"L","o":"individual","sf":1992,"v":1700}},{"type":"Feature","geometry":{"type":"Point","coordinates":[-79.82729,40.31494]},"properties":{"p":"0653B00291000000","a":"YOUGH ST","m":"Versailles","u":"L","o":"individual","sf":6248,"v":15300}},{"type":"Feature","geometry":{"type":"Point","coordinates":[-79.83372,40.31545]},"properties":{"p":"0654D00107000000","a":"2ND ST","m":"Versailles","u":"L","o":"individual","sf":2868,"v":6300}},{"type":"Feature","geometry":{"type":"Point","coordinates":[-79.82583,40.31801]},"properties":{"p":"0554P00249000000","a":"CENTER ST","m":"Versailles","u":"L","o":"individual","sf":39548,"v":22500}},{"type":"Feature","geometry":{"type":"Point","coordinates":[-79.82629,40.31798]},"properties":{"p":"0554P00252000000","a":"CENTER ST","m":"Versailles","u":"L","o":"individual","sf":8973,"v":17500}},{"type":"Feature","geometry":{"type":"Point","coordinates":[-79.82501,40.31712]},"properties":{"p":"0554P00260000000","a":"CENTER ST","m":"Versailles","u":"L","o":"individual","sf":110686,"v":1300}},{"type":"Feature","geometry":{"type":"Point","coordinates":[-79.83446,40.31776]},"properties":{"p":"0555S00112000000","a":"LARCH ST","m":"Versailles","u":"L","o":"individual","sf":3796,"v":1100}},{"type":"Feature","geometry":{"type":"Point","coordinates":[-79.83476,40.31878]},"properties":{"p":"0555S00148000000","a":"JUNIPER ST","m":"Versailles","u":"L","o":"individual","sf":3173,"v":6500}},{"type":"Feature","geometry":{"type":"Point","coordinates":[-79.83482,40.31872]},"properties":{"p":"0555S00151000000","a":"JUNIPER ST","m":"Versailles","u":"L","o":"individual","sf":3029,"v":6400}},{"type":"Feature","geometry":{"type":"Point","coordinates":[-79.83197,40.32177]},"properties":{"p":"0554J00167000000","a":"JUNIPER ST","m":"Versailles","u":"L","o":"corp","sf":137650,"v":31500}},{"type":"Feature","geometry":{"type":"Point","coordinates":[-79.82192,40.31842]},"properties":{"p":"0554R00240000000","a":"CENTER ST","m":"Versailles","u":"L","o":"individual","sf":50530,"v":23500}},{"type":"Feature","geometry":{"type":"Point","coordinates":[-79.82545,40.32085]},"properties":{"p":"0554K00389000000","a":"HARPHEN ST","m":"Versailles","u":"L","o":"individual","sf":124582,"v":1500}},{"type":"Feature","geometry":{"type":"Point","coordinates":[-79.83503,40.31723]},"properties":{"p":"0555S00223000000","a":"3RD ST","m":"Versailles","u":"L","o":"individual","sf":4500,"v":7600}},{"type":"Feature","geometry":{"type":"Point","coordinates":[-79.82458,40.32005]},"properties":{"p":"0554L00020000000","a":"HARPHEN ST","m":"Versailles","u":"L","o":"individual","sf":3060,"v":300}},{"type":"Feature","geometry":{"type":"Point","coordinates":[-79.82858,40.3171]},"properties":{"p":"0554P00008000000","a":"CENTER ST","m":"Versailles","u":"L","o":"individual","sf":8384,"v":10100}},{"type":"Feature","geometry":{"type":"Point","coordinates":[-79.82881,40.31743]},"properties":{"p":"0554P00017000000","a":"HIGH ST","m":"Versailles","u":"L","o":"individual","sf":5400,"v":14600}},{"type":"Feature","geometry":{"type":"Point","coordinates":[-79.83697,40.31923]},"properties":{"p":"0555M00011000000","a":"4415 2ND ST","m":"Versailles","u":"L","o":"individual","sf":5000,"v":8000}},{"type":"Feature","geometry":{"type":"Point","coordinates":[-79.83537,40.31703]},"properties":{"p":"0555S00295000000","a":"2ND ST","m":"Versailles","u":"L","o":"individual","sf":9400,"v":8400}},{"type":"Feature","geometry":{"type":"Point","coordinates":[-79.83598,40.3171]},"properties":{"p":"0555S00313000000","a":"2ND ST","m":"Versailles","u":"L","o":"individual","sf":2430,"v":700}},{"type":"Feature","geometry":{"type":"Point","coordinates":[-79.83605,40.3172]},"properties":{"p":"0555S00315000000","a":"2ND ST","m":"Versailles","u":"L","o":"individual","sf":3700,"v":1000}},{"type":"Feature","geometry":{"type":"Point","coordinates":[-79.83627,40.31743]},"properties":{"p":"0555S00321000000","a":"2ND ST","m":"Versailles","u":"L","o":"individual","sf":6093,"v":8100}},{"type":"Feature","geometry":{"type":"Point","coordinates":[-79.83153,40.31315]},"properties":{"p":"0653E00148000000","a":"RAILROAD ST","m":"Versailles","u":"L","o":"individual","sf":3274,"v":900}},{"type":"Feature","geometry":{"type":"Point","coordinates":[-79.83451,40.31661]},"properties":{"p":"0654D00059000000","a":"3RD ST","m":"Versailles","u":"L","o":"individual","sf":4941,"v":8000}},{"type":"Feature","geometry":{"type":"Point","coordinates":[-79.83492,40.31636]},"properties":{"p":"0654D00072000000","a":"2ND ST","m":"Versailles","u":"L","o":"individual","sf":5450,"v":4000}},{"type":"Feature","geometry":{"type":"Point","coordinates":[-79.83473,40.31628]},"properties":{"p":"0654D00078000000","a":"4805 2ND ST","m":"Versailles","u":"L","o":"individual","sf":2679,"v":2100}},{"type":"Feature","geometry":{"type":"Point","coordinates":[-79.82713,40.31865]},"properties":{"p":"0554P00184000000","a":"CENTER ST","m":"Versailles","u":"L","o":"individual","sf":3436,"v":300}},{"type":"Feature","geometry":{"type":"Point","coordinates":[-79.83355,40.31762]},"properties":{"p":"0555S00069000000","a":"WALNUT ST","m":"Versailles","u":"L","o":"individual","sf":5860,"v":8100}},{"type":"Feature","geometry":{"type":"Point","coordinates":[-79.83344,40.31706]},"properties":{"p":"0555S00080000000","a":"WALNUT ST","m":"Versailles","u":"L","o":"individual","sf":1100,"v":400}},{"type":"Feature","geometry":{"type":"Point","coordinates":[-79.83331,40.31697]},"properties":{"p":"0555S00081000000","a":"WALNUT ST","m":"Versailles","u":"L","o":"individual","sf":6600,"v":8100}},{"type":"Feature","geometry":{"type":"Point","coordinates":[-79.82956,40.31807]},"properties":{"p":"0554N00115000000","a":"WORTHINGTON ST","m":"Versailles","u":"L","o":"corp","sf":5423,"v":14600}},{"type":"Feature","geometry":{"type":"Point","coordinates":[-79.82366,40.32318]},"properties":{"p":"0554G00110000000","a":"LONG RUN RD","m":"Versailles","u":"L","o":"corp","sf":2400,"v":700}},{"type":"Feature","geometry":{"type":"Point","coordinates":[-79.8353,40.31624]},"properties":{"p":"0654D00171000000","a":"2ND ST","m":"Versailles","u":"L","o":"individual","sf":5325,"v":8000}},{"type":"Feature","geometry":{"type":"Point","coordinates":[-79.82346,40.31915]},"properties":{"p":"0554R00026000000","a":"CENTER ST","m":"Versailles","u":"L","o":"individual","sf":3100,"v":300}},{"type":"Feature","geometry":{"type":"Point","coordinates":[-79.82359,40.31841]},"properties":{"p":"0554R00082000000","a":"CENTER ST","m":"Versailles","u":"L","o":"individual","sf":21257,"v":10800}},{"type":"Feature","geometry":{"type":"Point","coordinates":[-79.83291,40.31704]},"properties":{"p":"0554N00191000000","a":"WORTHINGTON ST","m":"Versailles","u":"L","o":"individual","sf":2750,"v":2300}},{"type":"Feature","geometry":{"type":"Point","coordinates":[-79.83057,40.32021]},"properties":{"p":"0554J00331000000","a":"JUNIPER ST","m":"Versailles","u":"L","o":"individual","sf":123710,"v":30300}},{"type":"Feature","geometry":{"type":"Point","coordinates":[-79.82993,40.31983]},"properties":{"p":"0554J00371000000","a":"LAUREL ST","m":"Versailles","u":"L","o":"individual","sf":42868,"v":22800}},{"type":"Feature","geometry":{"type":"Point","coordinates":[-79.83231,40.3186]},"properties":{"p":"0554N00364000000","a":"ELM ST","m":"Versailles","u":"L","o":"individual","sf":4969,"v":4100}},{"type":"Feature","geometry":{"type":"Point","coordinates":[-79.83435,40.31494]},"properties":{"p":"0654D00233000000","a":"1ST ST","m":"Versailles","u":"L","o":"corp","sf":36888,"v":8900}},{"type":"Feature","geometry":{"type":"Point","coordinates":[-79.83223,40.31476]},"properties":{"p":"0653A00257000000","a":"2ND ST","m":"Versailles","u":"L","o":"individual","sf":2424,"v":700}},{"type":"Feature","geometry":{"type":"Point","coordinates":[-79.83209,40.31471]},"properties":{"p":"0653A00258000000","a":"2ND ST","m":"Versailles","u":"L","o":"individual","sf":6350,"v":8100}},{"type":"Feature","geometry":{"type":"Point","coordinates":[-79.83191,40.31464]},"properties":{"p":"0653A00261000000","a":"2ND ST","m":"Versailles","u":"L","o":"individual","sf":4600,"v":7700}},{"type":"Feature","geometry":{"type":"Point","coordinates":[-79.8318,40.3146]},"properties":{"p":"0653A00263000000","a":"2ND ST","m":"Versailles","u":"L","o":"individual","sf":2300,"v":700}},{"type":"Feature","geometry":{"type":"Point","coordinates":[-79.8264,40.31087]},"properties":{"p":"0653K00143000000","a":"SMITHFIELD ST","m":"Elizabeth Twp","u":"L","o":"individual","sf":7661,"v":7000}},{"type":"Feature","geometry":{"type":"Point","coordinates":[-79.82109,40.31237]},"properties":{"p":"0653G00019000000","a":"6009 MEADE ST","m":"Elizabeth Twp","u":"L","o":"individual","sf":1750,"v":700}},{"type":"Feature","geometry":{"type":"Point","coordinates":[-79.82218,40.31022]},"properties":{"p":"0653L00129000000","a":"HIGH ST","m":"Elizabeth Twp","u":"L","o":"individual","sf":400,"v":400}},{"type":"Feature","geometry":{"type":"Point","coordinates":[-79.82548,40.31193]},"properties":{"p":"0653F00355000000","a":"DRAKE AVE","m":"Elizabeth Twp","u":"L","o":"individual","sf":6454,"v":2200}},{"type":"Feature","geometry":{"type":"Point","coordinates":[-79.82097,40.31194]},"properties":{"p":"0653G00004000000","a":"6010 MEADE ST","m":"Elizabeth Twp","u":"L","o":"individual","sf":4800,"v":1600}},{"type":"Feature","geometry":{"type":"Point","coordinates":[-79.83154,40.31007]},"properties":{"p":"0653J00069000000","a":"2001 YATES ST","m":"Elizabeth Twp","u":"L","o":"individual","sf":32500,"v":25500}},{"type":"Feature","geometry":{"type":"Point","coordinates":[-79.8294,40.31002]},"properties":{"p":"0653J00181000000","a":"W SMITHFIELD ST","m":"Elizabeth Twp","u":"L","o":"individual","sf":21780,"v":1500}},{"type":"Feature","geometry":{"type":"Point","coordinates":[-79.82472,40.31241]},"properties":{"p":"0653F00335000000","a":"DRAKE AVE","m":"Elizabeth Twp","u":"L","o":"individual","sf":5327,"v":2000}},{"type":"Feature","geometry":{"type":"Point","coordinates":[-79.83312,40.31047]},"properties":{"p":"0654M00257000000","a":"YATES ST","m":"Elizabeth Twp","u":"L","o":"individual","sf":3500,"v":1200}},{"type":"Feature","geometry":{"type":"Point","coordinates":[-79.82411,40.31031]},"properties":{"p":"0653L00260000000","a":"5808 MEADE ST","m":"Elizabeth Twp","u":"L","o":"individual","sf":1048,"v":400}},{"type":"Feature","geometry":{"type":"Point","coordinates":[-79.82436,40.31055]},"properties":{"p":"0653L00287000000","a":"MEADE ST","m":"Elizabeth Twp","u":"L","o":"individual","sf":816,"v":400}},{"type":"Feature","geometry":{"type":"Point","coordinates":[-79.82438,40.31314]},"properties":{"p":"0653G00350000000","a":"1936 WALTER ST","m":"Elizabeth Twp","u":"L","o":"individual","sf":3403,"v":1200}},{"type":"Feature","geometry":{"type":"Point","coordinates":[-79.82364,40.31136]},"properties":{"p":"0653L00383000000","a":"ROSLYN ST","m":"Elizabeth Twp","u":"L","o":"individual","sf":2125,"v":800}},{"type":"Feature","geometry":{"type":"Point","coordinates":[-79.82361,40.31145]},"properties":{"p":"0653L00384000000","a":"ROSLYN ST","m":"Elizabeth Twp","u":"L","o":"individual","sf":2125,"v":800}},{"type":"Feature","geometry":{"type":"Point","coordinates":[-79.82144,40.31154]},"properties":{"p":"0653L00208000000","a":"MEADE ST","m":"Elizabeth Twp","u":"L","o":"individual","sf":4700,"v":10800}},{"type":"Feature","geometry":{"type":"Point","coordinates":[-79.82255,40.31067]},"properties":{"p":"0653L00231000000","a":"MEADE ST","m":"Elizabeth Twp","u":"L","o":"individual","sf":3654,"v":1300}},{"type":"Feature","geometry":{"type":"Point","coordinates":[-79.82415,40.31071]},"properties":{"p":"0653L00356000000","a":"ROSLYN ST","m":"Elizabeth Twp","u":"L","o":"individual","sf":3604,"v":1300}},{"type":"Feature","geometry":{"type":"Point","coordinates":[-79.82457,40.31105]},"properties":{"p":"0653L00362000000","a":"5738 SMITHFIELD ST","m":"Elizabeth Twp","u":"L","o":"corp","sf":12185,"v":12200}},{"type":"Feature","geometry":{"type":"Point","coordinates":[-79.82163,40.3128]},"properties":{"p":"0653G00085000000","a":"ROSLYN ST","m":"Elizabeth Twp","u":"L","o":"individual","sf":5000,"v":11500}},{"type":"Feature","geometry":{"type":"Point","coordinates":[-79.82113,40.31066]},"properties":{"p":"0653L00170000000","a":"HOLSING ST","m":"Elizabeth Twp","u":"L","o":"individual","sf":41547,"v":13400}},{"type":"Feature","geometry":{"type":"Point","coordinates":[-79.82238,40.3127]},"properties":{"p":"0653G00141000000","a":"SMITHFIELD ST","m":"Elizabeth Twp","u":"L","o":"individual","sf":5000,"v":1700}},{"type":"Feature","geometry":{"type":"Point","coordinates":[-79.82428,40.31058]},"properties":{"p":"0653L00291000000","a":"5805 MEADE ST","m":"Elizabeth Twp","u":"L","o":"individual","sf":5984,"v":11600}},{"type":"Feature","geometry":{"type":"Point","coordinates":[-79.83204,40.31505]},"properties":{"p":"0653A00186000000","a":"3RD ST","m":"Versailles","u":"L","o":"individual","sf":959,"v":300}},{"type":"Feature","geometry":{"type":"Point","coordinates":[-79.83181,40.32018]},"properties":{"p":"0554J00286000000","a":"JUNIPER ST","m":"Versailles","u":"L","o":"individual","sf":32436,"v":2900}},{"type":"Feature","geometry":{"type":"Point","coordinates":[-79.8341,40.32669]},"properties":{"p":"0464S00374000000","a":"LEMON AVE","m":"12th Ward  - McKEESPORT","u":"L","o":"individual","sf":18506,"v":2600}},{"type":"Feature","geometry":{"type":"Point","coordinates":[-79.82995,40.3164]},"properties":{"p":"0653A00064000000","a":"CENTER ST","m":"Versailles","u":"L","o":"individual","sf":3479,"v":2900}},{"type":"Feature","geometry":{"type":"Point","coordinates":[-79.82982,40.31379]},"properties":{"p":"0653E00056000000","a":"1ST ST","m":"Versailles","u":"L","o":"individual","sf":6600,"v":8100}},{"type":"Feature","geometry":{"type":"Point","coordinates":[-79.82678,40.32835]},"properties":{"p":"0463P00348000000","a":"MARSHALL DR","m":"12th Ward  - McKEESPORT","u":"L","o":"individual","sf":7853,"v":1000}},{"type":"Feature","geometry":{"type":"Point","coordinates":[-79.82987,40.31644]},"properties":{"p":"0653A00065000000","a":"CENTER ST","m":"Versailles","u":"L","o":"individual","sf":3900,"v":3200}},{"type":"Feature","geometry":{"type":"Point","coordinates":[-79.8383,40.32626]},"properties":{"p":"0555C00333000000","a":"407 PETERSON ST","m":"12th Ward  - McKEESPORT","u":"L","o":"individual","sf":7200,"v":6200}},{"type":"Feature","geometry":{"type":"Point","coordinates":[-79.83663,40.31742]},"properties":{"p":"0555S00372000000","a":"PENN WAY","m":"Versailles","u":"L","o":"corp","sf":5000,"v":8000}},{"type":"Feature","geometry":{"type":"Point","coordinates":[-79.83822,40.32525]},"properties":{"p":"0555C00362000000","a":"ELIZABETH ST","m":"12th Ward  - McKEESPORT","u":"L","o":"individual","sf":4750,"v":4000}},{"type":"Feature","geometry":{"type":"Point","coordinates":[-79.82105,40.33]},"properties":{"p":"0463L00087000000","a":"WAINWRIGHT DR","m":"12th Ward  - McKEESPORT","u":"L","o":"corp","sf":11250,"v":23600}},{"type":"Feature","geometry":{"type":"Point","coordinates":[-79.82358,40.32668]},"properties":{"p":"0463R00068000000","a":"MARSHALL DR","m":"12th Ward  - McKEESPORT","u":"L","o":"corp","sf":56628,"v":27700}},{"type":"Feature","geometry":{"type":"Point","coordinates":[-79.83273,40.32917]},"properties":{"p":"0463J00138000000","a":"PALM ST","m":"12th Ward  - McKEESPORT","u":"L","o":"individual","sf":7259,"v":12200}},{"type":"Feature","geometry":{"type":"Point","coordinates":[-79.83876,40.32489]},"properties":{"p":"0555C00257000100","a":"WALNUT ST","m":"12th Ward  - McKEESPORT","u":"L","o":"corp","sf":3223,"v":3900}},{"type":"Feature","geometry":{"type":"Point","coordinates":[-79.83531,40.32614]},"properties":{"p":"0555D00103000000","a":"GREENWOOD AVE","m":"12th Ward  - McKEESPORT","u":"L","o":"individual","sf":22400,"v":7600}},{"type":"Feature","geometry":{"type":"Point","coordinates":[-79.82446,40.31051]},"properties":{"p":"0653L00286000000","a":"MEADE ST","m":"Elizabeth Twp","u":"L","o":"individual","sf":7782,"v":2600}},{"type":"Feature","geometry":{"type":"Point","coordinates":[-79.83038,40.32665]},"properties":{"p":"0463N00193000000","a":"DIEHL DR","m":"12th Ward  - McKEESPORT","u":"L","o":"individual","sf":5940,"v":11600}},{"type":"Feature","geometry":{"type":"Point","coordinates":[-79.8311,40.3277]},"properties":{"p":"0463N00161000000","a":"CHARLES CIR","m":"12th Ward  - McKEESPORT","u":"L","o":"individual","sf":7841,"v":2600}},{"type":"Feature","geometry":{"type":"Point","coordinates":[-79.8287,40.32675]},"properties":{"p":"0463P00052000000","a":"BECKMAN DR","m":"12th Ward  - McKEESPORT","u":"L","o":"individual","sf":8932,"v":11900}},{"type":"Feature","geometry":{"type":"Point","coordinates":[-79.82926,40.32456]},"properties":{"p":"0554B00022000000","a":"BECKMAN DR","m":"12th Ward  - McKEESPORT","u":"L","o":"individual","sf":9562,"v":11900}},{"type":"Feature","geometry":{"type":"Point","coordinates":[-79.83213,40.31644]},"properties":{"p":"0653A00020000000","a":"HIGH ST","m":"Versailles","u":"L","o":"individual","sf":5900,"v":15000}},{"type":"Feature","geometry":{"type":"Point","coordinates":[-79.83454,40.31192]},"properties":{"p":"0654M00082000000","a":"YATES ST","m":"Elizabeth Twp","u":"L","o":"corp","sf":426884,"v":17700}},{"type":"Feature","geometry":{"type":"Point","coordinates":[-79.83739,40.32086]},"properties":{"p":"0555L00010000000","a":"3RD ST","m":"Versailles","u":"L","o":"individual","sf":2500,"v":700}},{"type":"Feature","geometry":{"type":"Point","coordinates":[-79.82182,40.32984]},"properties":{"p":"0463L00124000000","a":"NIMITZ DR","m":"12th Ward  - McKEESPORT","u":"L","o":"corp","sf":9256,"v":23400}},{"type":"Feature","geometry":{"type":"Point","coordinates":[-79.82795,40.315]},"properties":{"p":"0653B00274000000","a":"LINDEN ST","m":"Versailles","u":"L","o":"individual","sf":4620,"v":13900}}]}