{"type":"FeatureCollection","features":[{"type":"Feature","geometry":{"type":"Point","coordinates":[-79.81509,40.45963]},"properties":{"p":"0539E00251000000","a":"BRYANT DR","m":"Penn Hills","u":"C","o":"corp","sf":436210,"v":64100}},{"type":"Feature","geometry":{"type":"Point","coordinates":[-79.81479,40.45741]},"properties":{"p":"0539J00238000000","a":"JEFFERSON RD","m":"Penn Hills","u":"C","o":"corp","sf":559202,"v":41600}},{"type":"Feature","geometry":{"type":"Point","coordinates":[-79.80802,40.45969]},"properties":{"p":"0539F00342000000","a":"FREY RD","m":"Penn Hills","u":"C","o":"corp","sf":37270,"v":11200}},{"type":"Feature","geometry":{"type":"Point","coordinates":[-79.80792,40.46059]},"properties":{"p":"0539F00367000000","a":"UNIVERSAL RD","m":"Penn Hills","u":"C","o":"corp","sf":41353,"v":110600}},{"type":"Feature","geometry":{"type":"Point","coordinates":[-79.80889,40.4605]},"properties":{"p":"0539F00375000000","a":"UNIVERSAL RD","m":"Penn Hills","u":"C","o":"corp","sf":53596,"v":115700}},{"type":"Feature","geometry":{"type":"Point","coordinates":[-79.81048,40.46055]},"properties":{"p":"0539B00038000000","a":"UNIVERSAL RD","m":"Penn Hills","u":"C","o":"individual","sf":44758,"v":7500}},{"type":"Feature","geometry":{"type":"Point","coordinates":[-79.81123,40.46068]},"properties":{"p":"0539B00045000000","a":"UNIVERSAL RD","m":"Penn Hills","u":"C","o":"individual","sf":28314,"v":37400}},{"type":"Feature","geometry":{"type":"Point","coordinates":[-79.81133,40.46111]},"properties":{"p":"0539B00061000000","a":"IDLEWOOD RD","m":"Penn Hills","u":"C","o":"corp","sf":1274,"v":400}},{"type":"Feature","geometry":{"type":"Point","coordinates":[-79.80476,40.46186]},"properties":{"p":"0539C00127000000","a":"UNIVERSAL RD","m":"Penn Hills","u":"C","o":"corp","sf":130680,"v":34500}},{"type":"Feature","geometry":{"type":"Point","coordinates":[-79.80559,40.4618]},"properties":{"p":"0539C00178000000","a":"STOTLER RD","m":"Penn Hills","u":"C","o":"corp","sf":85399,"v":17500}},{"type":"Feature","geometry":{"type":"Point","coordinates":[-79.8049,40.46341]},"properties":{"p":"0539C00093000000","a":"STOTLER RD","m":"Penn Hills","u":"C","o":"corp","sf":273906,"v":40700}},{"type":"Feature","geometry":{"type":"Point","coordinates":[-79.81922,40.46748]},"properties":{"p":"0449M00098000000","a":"PARKRIDGE DR","m":"Penn Hills","u":"L","o":"individual","sf":12945,"v":12700}},{"type":"Feature","geometry":{"type":"Point","coordinates":[-79.81958,40.46186]},"properties":{"p":"0450D00343000000","a":"JEFFERSON RD","m":"Penn Hills","u":"L","o":"individual","sf":21473,"v":7500}},{"type":"Feature","geometry":{"type":"Point","coordinates":[-79.81987,40.46205]},"properties":{"p":"0450D00350000000","a":"JEFFERSON RD","m":"Penn Hills","u":"L","o":"individual","sf":20675,"v":7400}},{"type":"Feature","geometry":{"type":"Point","coordinates":[-79.81915,40.46106]},"properties":{"p":"0450D00371000000","a":"JEFFERSON RD","m":"Penn Hills","u":"L","o":"individual","sf":4748,"v":1400}},{"type":"Feature","geometry":{"type":"Point","coordinates":[-79.81898,40.46314]},"properties":{"p":"0449S00021000000","a":"UNIVERSAL RD","m":"Penn Hills","u":"L","o":"individual","sf":55321,"v":600}},{"type":"Feature","geometry":{"type":"Point","coordinates":[-79.81659,40.45723]},"properties":{"p":"0450M00017000000","a":"JEFFERSON RD","m":"Penn Hills","u":"L","o":"corp","sf":65340,"v":17500}},{"type":"Feature","geometry":{"type":"Point","coordinates":[-79.81969,40.45691]},"properties":{"p":"0450M00326000000","a":"LOUGEAY RD","m":"Penn Hills","u":"L","o":"individual","sf":13200,"v":12700}},{"type":"Feature","geometry":{"type":"Point","coordinates":[-79.81974,40.45669]},"properties":{"p":"0450M00338000000","a":"318 LOUGEAY RD","m":"Penn Hills","u":"L","o":"individual","sf":17753,"v":5100}},{"type":"Feature","geometry":{"type":"Point","coordinates":[-79.8193,40.46246]},"properties":{"p":"0450D00227000000","a":"JEFFERSON RD","m":"Penn Hills","u":"L","o":"individual","sf":108900,"v":1300}},{"type":"Feature","geometry":{"type":"Point","coordinates":[-79.81804,40.45962]},"properties":{"p":"0450H00098000000","a":"JEFFERSON RD","m":"Penn Hills","u":"L","o":"individual","sf":3604,"v":1100}},{"type":"Feature","geometry":{"type":"Point","coordinates":[-79.81672,40.46464]},"properties":{"p":"0449S00308000000","a":"POPLAR RIDGE DR","m":"Penn Hills","u":"L","o":"individual","sf":5371,"v":2300}},{"type":"Feature","geometry":{"type":"Point","coordinates":[-79.81847,40.46338]},"properties":{"p":"0449S00115000000","a":"WEBSTER DR","m":"Penn Hills","u":"L","o":"individual","sf":8200,"v":12300}},{"type":"Feature","geometry":{"type":"Point","coordinates":[-79.81667,40.46235]},"properties":{"p":"0450D00022000000","a":"WEBSTER DR","m":"Penn Hills","u":"L","o":"corp","sf":6400,"v":12100}},{"type":"Feature","geometry":{"type":"Point","coordinates":[-79.81657,40.46222]},"properties":{"p":"0450D00024000000","a":"WEBSTER DR","m":"Penn Hills","u":"L","o":"corp","sf":6400,"v":12100}},{"type":"Feature","geometry":{"type":"Point","coordinates":[-79.81308,40.45512]},"properties":{"p":"0539N00089000000","a":"PAYNE DR","m":"Penn Hills","u":"L","o":"individual","sf":18747,"v":10200}},{"type":"Feature","geometry":{"type":"Point","coordinates":[-79.81409,40.45992]},"properties":{"p":"0539E00211000000","a":"CLAY DR","m":"Penn Hills","u":"L","o":"individual","sf":6000,"v":6100}},{"type":"Feature","geometry":{"type":"Point","coordinates":[-79.8117,40.46343]},"properties":{"p":"0538P00020000000","a":"IDLEWOOD RD","m":"Penn Hills","u":"L","o":"individual","sf":10340,"v":3000}},{"type":"Feature","geometry":{"type":"Point","coordinates":[-79.81627,40.45219]},"properties":{"p":"0540A00367000000","a":"WINDSOR DR","m":"Penn Hills","u":"L","o":"individual","sf":4574,"v":1100}},{"type":"Feature","geometry":{"type":"Point","coordinates":[-79.80128,40.45988]},"properties":{"p":"0539H00118000000","a":"KEEFER DR","m":"Penn Hills","u":"L","o":"individual","sf":13000,"v":6700}},{"type":"Feature","geometry":{"type":"Point","coordinates":[-79.80795,40.45761]},"properties":{"p":"0539K00275000000","a":"HAZEL RD","m":"Penn Hills","u":"L","o":"corp","sf":9719,"v":12400}},{"type":"Feature","geometry":{"type":"Point","coordinates":[-79.80471,40.45804]},"properties":{"p":"0539G00009000000","a":"FREY RD","m":"Penn Hills","u":"L","o":"individual","sf":30928,"v":14300}},{"type":"Feature","geometry":{"type":"Point","coordinates":[-79.80627,40.45866]},"properties":{"p":"0539G00072000000","a":"FREY RD","m":"Penn Hills","u":"L","o":"individual","sf":80150,"v":900}},{"type":"Feature","geometry":{"type":"Point","coordinates":[-79.80625,40.45932]},"properties":{"p":"0539G00085000000","a":"FREY RD","m":"Penn Hills","u":"L","o":"corp","sf":353533,"v":12000}},{"type":"Feature","geometry":{"type":"Point","coordinates":[-79.80036,40.45224]},"properties":{"p":"0540D00375000000","a":"MCALISTER DR","m":"Penn Hills","u":"L","o":"corp","sf":35821,"v":10100}},{"type":"Feature","geometry":{"type":"Point","coordinates":[-79.80715,40.46415]},"properties":{"p":"0538R00109000000","a":"IDLEWOOD RD","m":"Penn Hills","u":"L","o":"corp","sf":7977,"v":6300}},{"type":"Feature","geometry":{"type":"Point","coordinates":[-79.80667,40.46388]},"properties":{"p":"0538R00131000000","a":"STOTLER RD","m":"Penn Hills","u":"L","o":"corp","sf":48874,"v":16000}},{"type":"Feature","geometry":{"type":"Point","coordinates":[-79.80628,40.46356]},"properties":{"p":"0538R00174000000","a":"STOTLER RD","m":"Penn Hills","u":"L","o":"corp","sf":5613,"v":6100}},{"type":"Feature","geometry":{"type":"Point","coordinates":[-79.81247,40.4538]},"properties":{"p":"0539N00146000000","a":"JEFFERSON RD","m":"Penn Hills","u":"L","o":"individual","sf":46348,"v":15800}},{"type":"Feature","geometry":{"type":"Point","coordinates":[-79.80616,40.4633]},"properties":{"p":"0538R00190000000","a":"STOTLER RD","m":"Penn Hills","u":"L","o":"corp","sf":17827,"v":13200}},{"type":"Feature","geometry":{"type":"Point","coordinates":[-79.80018,40.46485]},"properties":{"p":"0538S00013000000","a":"UNIVERSAL RD","m":"Penn Hills","u":"L","o":"individual","sf":19129,"v":13300}},{"type":"Feature","geometry":{"type":"Point","coordinates":[-79.8004,40.46446]},"properties":{"p":"0538S00024000000","a":"UNIVERSAL RD","m":"Penn Hills","u":"L","o":"individual","sf":43386,"v":15500}},{"type":"Feature","geometry":{"type":"Point","coordinates":[-79.8059,40.46948]},"properties":{"p":"0538G00282000000","a":"CRESCENT GARDEN DR","m":"Penn Hills","u":"L","o":"corp","sf":7068,"v":12200}},{"type":"Feature","geometry":{"type":"Point","coordinates":[-79.8047,40.4687]},"properties":{"p":"0538H00362000000","a":"STOTLER RD","m":"Penn Hills","u":"L","o":"corp","sf":294030,"v":33300}},{"type":"Feature","geometry":{"type":"Point","coordinates":[-79.81176,40.46635]},"properties":{"p":"0538K00342000200","a":"COLLINS DR","m":"Penn Hills","u":"L","o":"corp","sf":7500,"v":12200}},{"type":"Feature","geometry":{"type":"Point","coordinates":[-79.81759,40.45112]},"properties":{"p":"0451D00177000000","a":"580 LOUGEAY RD","m":"Penn Hills","u":"L","o":"individual","sf":39099,"v":15100}},{"type":"Feature","geometry":{"type":"Point","coordinates":[-79.81828,40.45192]},"properties":{"p":"0451D00232000000","a":"LOUGEAY RD","m":"Penn Hills","u":"L","o":"individual","sf":59825,"v":5500}},{"type":"Feature","geometry":{"type":"Point","coordinates":[-79.80785,40.46667]},"properties":{"p":"0538L00245000000","a":"STOTLER RD","m":"Penn Hills","u":"L","o":"corp","sf":18608,"v":5300}},{"type":"Feature","geometry":{"type":"Point","coordinates":[-79.81133,40.46991]},"properties":{"p":"0538F00321000000","a":"ORCHARD DR","m":"Penn Hills","u":"L","o":"corp","sf":206910,"v":19000}},{"type":"Feature","geometry":{"type":"Point","coordinates":[-79.80397,40.4662]},"properties":{"p":"0538M00352000000","a":"GUYLYN DR","m":"Penn Hills","u":"L","o":"corp","sf":133294,"v":23800}},{"type":"Feature","geometry":{"type":"Point","coordinates":[-79.81559,40.45026]},"properties":{"p":"0540E00298000000","a":"LOUGEAY RD","m":"Penn Hills","u":"L","o":"individual","sf":16362,"v":7000}},{"type":"Feature","geometry":{"type":"Point","coordinates":[-79.81216,40.46177]},"properties":{"p":"0539A00052000000","a":"COLLINS DR","m":"Penn Hills","u":"L","o":"individual","sf":68389,"v":1600}},{"type":"Feature","geometry":{"type":"Point","coordinates":[-79.80719,40.46495]},"properties":{"p":"0538R00094000000","a":"IDLEWOOD RD","m":"Penn Hills","u":"L","o":"corp","sf":10503,"v":12500}},{"type":"Feature","geometry":{"type":"Point","coordinates":[-79.80628,40.4544]},"properties":{"p":"0539R00107000000","a":"JEFFERSON RD","m":"Penn Hills","u":"L","o":"individual","sf":11327,"v":6600}},{"type":"Feature","geometry":{"type":"Point","coordinates":[-79.80639,40.45477]},"properties":{"p":"0539R00118000000","a":"EVERGREEN DR","m":"Penn Hills","u":"L","o":"individual","sf":8712,"v":2500}},{"type":"Feature","geometry":{"type":"Point","coordinates":[-79.81345,40.46442]},"properties":{"p":"0538N00108000000","a":"COLLINS DR","m":"Penn Hills","u":"L","o":"individual","sf":3320,"v":1000}},{"type":"Feature","geometry":{"type":"Point","coordinates":[-79.81207,40.45343]},"properties":{"p":"0539P00396000000","a":"EVERGREEN DR","m":"Penn Hills","u":"L","o":"individual","sf":6277,"v":1900}},{"type":"Feature","geometry":{"type":"Point","coordinates":[-79.80784,40.46194]},"properties":{"p":"0539C00339000000","a":"IDLEWOOD RD","m":"Penn Hills","u":"L","o":"individual","sf":17009,"v":4900}},{"type":"Feature","geometry":{"type":"Point","coordinates":[-79.80497,40.46675]},"properties":{"p":"0538L00076000000","a":"GUYLYN DR","m":"Penn Hills","u":"L","o":"individual","sf":12239,"v":3500}},{"type":"Feature","geometry":{"type":"Point","coordinates":[-79.80426,40.46652]},"properties":{"p":"0538L00089000000","a":"GUYLYN DR","m":"Penn Hills","u":"L","o":"individual","sf":9360,"v":6400}},{"type":"Feature","geometry":{"type":"Point","coordinates":[-79.81809,40.45936]},"properties":{"p":"0450H00205000000","a":"STOWE DR","m":"Penn Hills","u":"L","o":"corp","sf":106591,"v":21300}},{"type":"Feature","geometry":{"type":"Point","coordinates":[-79.81936,40.46158]},"properties":{"p":"0450D00373000000","a":"JEFFERSON RD","m":"Penn Hills","u":"L","o":"corp","sf":45302,"v":15700}},{"type":"Feature","geometry":{"type":"Point","coordinates":[-79.81979,40.45621]},"properties":{"p":"0450M00342000000","a":"LOUGEAY RD","m":"Penn Hills","u":"L","o":"individual","sf":17600,"v":5000}},{"type":"Feature","geometry":{"type":"Point","coordinates":[-79.8198,40.45605]},"properties":{"p":"0450M00349000000","a":"LOUGEAY RD","m":"Penn Hills","u":"L","o":"individual","sf":39340,"v":15100}},{"type":"Feature","geometry":{"type":"Point","coordinates":[-79.81986,40.45581]},"properties":{"p":"0450M00355000000","a":"LOUGEAY RD","m":"Penn Hills","u":"L","o":"individual","sf":19895,"v":13300}},{"type":"Feature","geometry":{"type":"Point","coordinates":[-79.81996,40.45557]},"properties":{"p":"0450M00358000000","a":"LOUGEAY RD","m":"Penn Hills","u":"L","o":"individual","sf":21731,"v":13500}},{"type":"Feature","geometry":{"type":"Point","coordinates":[-79.81804,40.46935]},"properties":{"p":"0449H00214000000","a":"HARVARD DR","m":"Penn Hills","u":"L","o":"individual","sf":11416,"v":12600}},{"type":"Feature","geometry":{"type":"Point","coordinates":[-79.80672,40.4645]},"properties":{"p":"0538R00111000000","a":"IDLEWOOD RD","m":"Penn Hills","u":"L","o":"corp","sf":24367,"v":13700}},{"type":"Feature","geometry":{"type":"Point","coordinates":[-79.81983,40.46683]},"properties":{"p":"0449M00041000000","a":"PARKRIDGE DR","m":"Penn Hills","u":"L","o":"individual","sf":8267,"v":2400}},{"type":"Feature","geometry":{"type":"Point","coordinates":[-79.80344,40.46256]},"properties":{"p":"0539D00351000000","a":"UNIVERSAL RD","m":"Penn Hills","u":"L","o":"individual","sf":7480,"v":12200}},{"type":"Feature","geometry":{"type":"Point","coordinates":[-79.80606,40.46298]},"properties":{"p":"0539C00197000000","a":"STOTLER RD","m":"Penn Hills","u":"L","o":"corp","sf":11813,"v":12600}}]}