{"type":"FeatureCollection","features":[{"type":"Feature","geometry":{"type":"Point","coordinates":[-79.80735,40.37829]},"properties":{"p":"0547L00101000000","a":"1050 3RD ST","m":"North Versailles","u":"I","o":"corp","sf":14884,"v":31100}},{"type":"Feature","geometry":{"type":"Point","coordinates":[-79.80811,40.37804]},"properties":{"p":"0547L00064000000","a":"3RD ST","m":"North Versailles","u":"I","o":"corp","sf":46513,"v":70600}},{"type":"Feature","geometry":{"type":"Point","coordinates":[-79.80862,40.3715]},"properties":{"p":"0548F00080000000","a":"CROOKED RUN RD","m":"North Versailles","u":"I","o":"corp","sf":22872,"v":28600}},{"type":"Feature","geometry":{"type":"Point","coordinates":[-79.80774,40.37494]},"properties":{"p":"0548C00008000000","a":"1103 3RD ST","m":"North Versailles","u":"I","o":"individual","sf":1307,"v":900}},{"type":"Feature","geometry":{"type":"Point","coordinates":[-79.80944,40.37115]},"properties":{"p":"0548F00082000000","a":"3840 CROOKED RUN RD","m":"North Versailles","u":"I","o":"corp","sf":4513,"v":5600}},{"type":"Feature","geometry":{"type":"Point","coordinates":[-79.812,40.37115]},"properties":{"p":"0548F00141000000","a":"CROOKED RUN RD","m":"North Versailles","u":"I","o":"individual","sf":36895,"v":36700}},{"type":"Feature","geometry":{"type":"Point","coordinates":[-79.80827,40.37491]},"properties":{"p":"0548B00020000000","a":"1111 3RD ST","m":"North Versailles","u":"I","o":"individual","sf":2026,"v":2500}},{"type":"Feature","geometry":{"type":"Point","coordinates":[-79.81923,40.38641]},"properties":{"p":"0457S00020000000","a":"ROSEDALE AVE","m":"North Versailles","u":"I","o":"corp","sf":32900,"v":24400}},{"type":"Feature","geometry":{"type":"Point","coordinates":[-79.81012,40.38309]},"properties":{"p":"0547B00161000000","a":"5TH AVE","m":"East McKeesport","u":"C","o":"corp","sf":5192,"v":39000}},{"type":"Feature","geometry":{"type":"Point","coordinates":[-79.80115,40.38995]},"properties":{"p":"0546H00122000000","a":"MORRELLE AVE","m":"East McKeesport","u":"C","o":"individual","sf":12807,"v":20500}},{"type":"Feature","geometry":{"type":"Point","coordinates":[-79.80109,40.38971]},"properties":{"p":"0546H00130000000","a":"MORRELLE AVE","m":"East McKeesport","u":"C","o":"corp","sf":1612,"v":10500}},{"type":"Feature","geometry":{"type":"Point","coordinates":[-79.81235,40.37959]},"properties":{"p":"0547J00087000000","a":"5TH AVE","m":"East McKeesport","u":"C","o":"corp","sf":7702,"v":20000}},{"type":"Feature","geometry":{"type":"Point","coordinates":[-79.81179,40.38139]},"properties":{"p":"0547F00123000000","a":"1152 5TH AVE","m":"East McKeesport","u":"C","o":"individual","sf":1412,"v":1900}},{"type":"Feature","geometry":{"type":"Point","coordinates":[-79.81207,40.38139]},"properties":{"p":"0547F00126000000","a":"LINCOLN HWY","m":"East McKeesport","u":"C","o":"individual","sf":6784,"v":42200}},{"type":"Feature","geometry":{"type":"Point","coordinates":[-79.81257,40.38844]},"properties":{"p":"0546G00175000000","a":"ORIENT AVE","m":"Wilmerding","u":"C","o":"corp","sf":54954,"v":13800}},{"type":"Feature","geometry":{"type":"Point","coordinates":[-79.8064,40.38956]},"properties":{"p":"0546G00069000000","a":"ORIENT AVE","m":"Wilmerding","u":"C","o":"corp","sf":80567,"v":13800}},{"type":"Feature","geometry":{"type":"Point","coordinates":[-79.81818,40.38326]},"properties":{"p":"0458D00162000000","a":"1408 GREENSBURG PIKE","m":"North Versailles","u":"C","o":"corp","sf":6751,"v":1800}},{"type":"Feature","geometry":{"type":"Point","coordinates":[-79.8189,40.38952]},"properties":{"p":"0457M00002000000","a":"HYER AVE","m":"North Versailles","u":"C","o":"corp","sf":20255,"v":500}},{"type":"Feature","geometry":{"type":"Point","coordinates":[-79.81421,40.38765]},"properties":{"p":"0546J00200000000","a":"ICE PLANT RD","m":"North Versailles","u":"C","o":"individual","sf":39750,"v":9900}},{"type":"Feature","geometry":{"type":"Point","coordinates":[-79.81462,40.38891]},"properties":{"p":"0546J00355000000","a":"WOODWARD RD","m":"North Versailles","u":"C","o":"corp","sf":293594,"v":8300}},{"type":"Feature","geometry":{"type":"Point","coordinates":[-79.80705,40.37771]},"properties":{"p":"0547L00075000000","a":"1064 3RD ST","m":"North Versailles","u":"C","o":"corp","sf":15682,"v":21000}},{"type":"Feature","geometry":{"type":"Point","coordinates":[-79.80717,40.37781]},"properties":{"p":"0547L00076000000","a":"3RD ST","m":"North Versailles","u":"C","o":"corp","sf":13610,"v":18800}},{"type":"Feature","geometry":{"type":"Point","coordinates":[-79.81825,40.3844]},"properties":{"p":"0458D00210000000","a":"GREENSBURG PIKE","m":"North Versailles","u":"C","o":"corp","sf":54014,"v":6500}},{"type":"Feature","geometry":{"type":"Point","coordinates":[-79.81779,40.3835]},"properties":{"p":"0458D00216000000","a":"GREENSBURG PIKE","m":"North Versailles","u":"C","o":"corp","sf":68176,"v":9500}},{"type":"Feature","geometry":{"type":"Point","coordinates":[-79.8196,40.38213]},"properties":{"p":"0458H00312000000","a":"LINCOLN HWY","m":"North Versailles","u":"C","o":"corp","sf":2760,"v":7900}},{"type":"Feature","geometry":{"type":"Point","coordinates":[-79.81891,40.3839]},"properties":{"p":"0458D00124000000","a":"1460 GREENSBURG PIKE","m":"North Versailles","u":"C","o":"individual","sf":36608,"v":9700}},{"type":"Feature","geometry":{"type":"Point","coordinates":[-79.81851,40.38312]},"properties":{"p":"0458D00138000000","a":"1408 GREENSBURG PIKE","m":"North Versailles","u":"C","o":"corp","sf":11880,"v":15700}},{"type":"Feature","geometry":{"type":"Point","coordinates":[-79.81814,40.38282]},"properties":{"p":"0458D00144000000","a":"1408 GREENSBURG PIKE","m":"North Versailles","u":"C","o":"corp","sf":6560,"v":1700}},{"type":"Feature","geometry":{"type":"Point","coordinates":[-79.80856,40.37861]},"properties":{"p":"0547L00023000000","a":"LINCOLN HWY","m":"North Versailles","u":"C","o":"individual","sf":79279,"v":19800}},{"type":"Feature","geometry":{"type":"Point","coordinates":[-79.81708,40.38712]},"properties":{"p":"0547A00100000000","a":"WESTINGHOUSE AVE","m":"North Versailles","u":"C","o":"corp","sf":4264436,"v":106900}},{"type":"Feature","geometry":{"type":"Point","coordinates":[-79.80969,40.37572]},"properties":{"p":"0548C00037000000","a":"3RD ST","m":"North Versailles","u":"C","o":"individual","sf":170320,"v":23500}},{"type":"Feature","geometry":{"type":"Point","coordinates":[-79.80224,40.37271]},"properties":{"p":"0548D00018000000","a":"CROOKED RUN RD","m":"North Versailles","u":"C","o":"individual","sf":7056,"v":18300}},{"type":"Feature","geometry":{"type":"Point","coordinates":[-79.80166,40.3728]},"properties":{"p":"0548D00020000000","a":"CROOKED RUN RD","m":"North Versailles","u":"C","o":"individual","sf":6486,"v":1600}},{"type":"Feature","geometry":{"type":"Point","coordinates":[-79.80714,40.3771]},"properties":{"p":"0547R00085000000","a":"1064 3RD ST","m":"North Versailles","u":"C","o":"corp","sf":19053,"v":21300}},{"type":"Feature","geometry":{"type":"Point","coordinates":[-79.80702,40.37745]},"properties":{"p":"0547R00090000000","a":"1064 3RD ST","m":"North Versailles","u":"C","o":"corp","sf":38080,"v":60100}},{"type":"Feature","geometry":{"type":"Point","coordinates":[-79.81397,40.37464]},"properties":{"p":"0548A00212000000","a":"OAKDALE RD","m":"North Versailles","u":"C","o":"individual","sf":24400,"v":5600}},{"type":"Feature","geometry":{"type":"Point","coordinates":[-79.81414,40.37338]},"properties":{"p":"0548A00226000000","a":"OAKDALE RD","m":"North Versailles","u":"C","o":"individual","sf":7261,"v":1700}},{"type":"Feature","geometry":{"type":"Point","coordinates":[-79.81436,40.37317]},"properties":{"p":"0548A00229000000","a":"OAKDALE RD","m":"North Versailles","u":"C","o":"individual","sf":11456,"v":2600}},{"type":"Feature","geometry":{"type":"Point","coordinates":[-79.80309,40.37858]},"properties":{"p":"0547M00097000000","a":"1101 LINCOLN HWY","m":"North Versailles","u":"C","o":"corp","sf":11840,"v":20400}},{"type":"Feature","geometry":{"type":"Point","coordinates":[-79.81554,40.37156]},"properties":{"p":"0548E00099000000","a":"5TH AVE","m":"North Versailles","u":"C","o":"individual","sf":8450,"v":1900}},{"type":"Feature","geometry":{"type":"Point","coordinates":[-79.81461,40.37236]},"properties":{"p":"0548E00182000000","a":"OAKDALE RD","m":"North Versailles","u":"C","o":"individual","sf":18315,"v":35400}},{"type":"Feature","geometry":{"type":"Point","coordinates":[-79.81421,40.37465]},"properties":{"p":"0548A00208000000","a":"OAKDALE RD","m":"North Versailles","u":"C","o":"individual","sf":9840,"v":2300}},{"type":"Feature","geometry":{"type":"Point","coordinates":[-79.80091,40.37925]},"properties":{"p":"0547M00200000000","a":"PITTSBURGH ST","m":"North Versailles","u":"C","o":"corp","sf":25300,"v":44100}},{"type":"Feature","geometry":{"type":"Point","coordinates":[-79.80967,40.37827]},"properties":{"p":"0547K00267000000","a":"JAMES AVE","m":"North Versailles","u":"C","o":"individual","sf":16300,"v":32900}},{"type":"Feature","geometry":{"type":"Point","coordinates":[-79.81642,40.38076]},"properties":{"p":"0547E00304000000","a":"GREENSBURG AVE","m":"North Versailles","u":"C","o":"corp","sf":7303,"v":9100}},{"type":"Feature","geometry":{"type":"Point","coordinates":[-79.81985,40.38298]},"properties":{"p":"0458D00058000000","a":"LINCOLN HWY","m":"North Versailles","u":"C","o":"individual","sf":3000,"v":1000}},{"type":"Feature","geometry":{"type":"Point","coordinates":[-79.81926,40.38457]},"properties":{"p":"0458D00113000000","a":"GREENSBURG PIKE","m":"North Versailles","u":"C","o":"individual","sf":4512,"v":1200}},{"type":"Feature","geometry":{"type":"Point","coordinates":[-79.81916,40.38438]},"properties":{"p":"0458D00115000000","a":"GREENSBURG PIKE","m":"North Versailles","u":"C","o":"corp","sf":22989,"v":6500}},{"type":"Feature","geometry":{"type":"Point","coordinates":[-79.81905,40.38414]},"properties":{"p":"0458D00121000000","a":"GREENSBURG PIKE","m":"North Versailles","u":"C","o":"corp","sf":9043,"v":4000}},{"type":"Feature","geometry":{"type":"Point","coordinates":[-79.80711,40.37852]},"properties":{"p":"0547L00088000000","a":"3RD ST","m":"North Versailles","u":"C","o":"corp","sf":29882,"v":24000}},{"type":"Feature","geometry":{"type":"Point","coordinates":[-79.81419,40.37409]},"properties":{"p":"0548A00191000000","a":"OAKDALE RD","m":"North Versailles","u":"C","o":"individual","sf":17424,"v":55200}},{"type":"Feature","geometry":{"type":"Point","coordinates":[-79.81518,40.38774]},"properties":{"p":"0546J00026000000","a":"WOODWARD RD","m":"North Versailles","u":"C","o":"corp","sf":75794,"v":3700}},{"type":"Feature","geometry":{"type":"Point","coordinates":[-79.81894,40.38285]},"properties":{"p":"0458D00038000000","a":"GREENSBURG PIKE","m":"North Versailles","u":"C","o":"individual","sf":3605,"v":35900}},{"type":"Feature","geometry":{"type":"Point","coordinates":[-79.81013,40.37066]},"properties":{"p":"0548F00113000000","a":"3840 CROOKED RUN RD","m":"North Versailles","u":"C","o":"corp","sf":100779,"v":72000}},{"type":"Feature","geometry":{"type":"Point","coordinates":[-79.81096,40.38242]},"properties":{"p":"0547B00150000000","a":"BROADWAY BLVD","m":"East McKeesport","u":"L","o":"individual","sf":3760,"v":1300}},{"type":"Feature","geometry":{"type":"Point","coordinates":[-79.80526,40.38728]},"properties":{"p":"0546L00354000000","a":"706 PUNTA GORDA AVE","m":"East McKeesport","u":"L","o":"individual","sf":3600,"v":1100}},{"type":"Feature","geometry":{"type":"Point","coordinates":[-79.80467,40.3885]},"properties":{"p":"0546L00300000000","a":"WILDWOOD ST","m":"East McKeesport","u":"L","o":"individual","sf":45878,"v":23700}},{"type":"Feature","geometry":{"type":"Point","coordinates":[-79.80849,40.38472]},"properties":{"p":"0546P00098000000","a":"DESOTA ST","m":"East McKeesport","u":"L","o":"individual","sf":3600,"v":3200}},{"type":"Feature","geometry":{"type":"Point","coordinates":[-79.80887,40.38757]},"properties":{"p":"0546P00100000000","a":"MORRELLE AVE","m":"East McKeesport","u":"L","o":"individual","sf":7500,"v":9200}},{"type":"Feature","geometry":{"type":"Point","coordinates":[-79.80808,40.38508]},"properties":{"p":"0546P00107000000","a":"425 DESOTA ST","m":"East McKeesport","u":"L","o":"individual","sf":7800,"v":9300}},{"type":"Feature","geometry":{"type":"Point","coordinates":[-79.80835,40.38517]},"properties":{"p":"0546P00110000000","a":"DESOTA ST","m":"East McKeesport","u":"L","o":"individual","sf":1950,"v":600}},{"type":"Feature","geometry":{"type":"Point","coordinates":[-79.80571,40.38512]},"properties":{"p":"0546R00328000000","a":"FLORENCE AVE","m":"East McKeesport","u":"L","o":"individual","sf":3600,"v":1100}},{"type":"Feature","geometry":{"type":"Point","coordinates":[-79.80563,40.38519]},"properties":{"p":"0546R00330000000","a":"FLORENCE AVE","m":"East McKeesport","u":"L","o":"individual","sf":3600,"v":1100}},{"type":"Feature","geometry":{"type":"Point","coordinates":[-79.81149,40.38276]},"properties":{"p":"0547B00137000000","a":"BROADWAY AVE","m":"East McKeesport","u":"L","o":"individual","sf":7750,"v":20300}},{"type":"Feature","geometry":{"type":"Point","coordinates":[-79.8135,40.37844]},"properties":{"p":"0547J00225000000","a":"WILMERDING AVE","m":"East McKeesport","u":"L","o":"individual","sf":4086,"v":1400}},{"type":"Feature","geometry":{"type":"Point","coordinates":[-79.80296,40.38467]},"properties":{"p":"0546S00126000000","a":"5TH AVE","m":"East McKeesport","u":"L","o":"individual","sf":8000,"v":9300}},{"type":"Feature","geometry":{"type":"Point","coordinates":[-79.80334,40.38459]},"properties":{"p":"0546S00130000000","a":"5TH AVE","m":"East McKeesport","u":"L","o":"corp","sf":8000,"v":9300}},{"type":"Feature","geometry":{"type":"Point","coordinates":[-79.81014,40.38332]},"properties":{"p":"0547B00166000000","a":"BROADWAY AVE","m":"East McKeesport","u":"L","o":"corp","sf":3113,"v":1100}},{"type":"Feature","geometry":{"type":"Point","coordinates":[-79.80245,40.38879]},"properties":{"p":"0546M00072000000","a":"EDNA ST","m":"East McKeesport","u":"L","o":"individual","sf":3630,"v":1100}},{"type":"Feature","geometry":{"type":"Point","coordinates":[-79.81117,40.38561]},"properties":{"p":"0546P00324000000","a":"CARSON ST","m":"East McKeesport","u":"L","o":"individual","sf":1936,"v":1700}},{"type":"Feature","geometry":{"type":"Point","coordinates":[-79.8116,40.38568]},"properties":{"p":"0546P00332000000","a":"CARSON ST","m":"East McKeesport","u":"L","o":"individual","sf":2025,"v":700}},{"type":"Feature","geometry":{"type":"Point","coordinates":[-79.81149,40.38566]},"properties":{"p":"0546P00332000100","a":"CARSON ST","m":"East McKeesport","u":"L","o":"individual","sf":380,"v":400}},{"type":"Feature","geometry":{"type":"Point","coordinates":[-79.80104,40.38945]},"properties":{"p":"0546H00134000000","a":"339 TISSONIA ALY","m":"East McKeesport","u":"L","o":"corp","sf":10400,"v":5000}},{"type":"Feature","geometry":{"type":"Point","coordinates":[-79.80058,40.38952]},"properties":{"p":"0546H00139000000","a":"MORRELLE AVE","m":"East McKeesport","u":"L","o":"individual","sf":4751,"v":1400}},{"type":"Feature","geometry":{"type":"Point","coordinates":[-79.80712,40.38363]},"properties":{"p":"0547C00192000100","a":"907 FLORENCE AVE","m":"East McKeesport","u":"L","o":"corp","sf":1170,"v":400}},{"type":"Feature","geometry":{"type":"Point","coordinates":[-79.8068,40.38373]},"properties":{"p":"0547C00199000000","a":"FLORENCE AVE","m":"East McKeesport","u":"L","o":"individual","sf":3300,"v":1000}},{"type":"Feature","geometry":{"type":"Point","coordinates":[-79.81099,40.38054]},"properties":{"p":"0547F00035000000","a":"LINCOLN HWY","m":"East McKeesport","u":"L","o":"individual","sf":4069,"v":18100}},{"type":"Feature","geometry":{"type":"Point","coordinates":[-79.81076,40.38468]},"properties":{"p":"0547B00083000000","a":"MESSINEO AVE","m":"East McKeesport","u":"L","o":"individual","sf":11905,"v":20600}},{"type":"Feature","geometry":{"type":"Point","coordinates":[-79.80786,40.38269]},"properties":{"p":"0547C00339000000","a":"941 -943 5TH AVE","m":"East McKeesport","u":"L","o":"corp","sf":6300,"v":20100}},{"type":"Feature","geometry":{"type":"Point","coordinates":[-79.80774,40.3827]},"properties":{"p":"0547C00341000000","a":"941 -943 5TH AVE","m":"East McKeesport","u":"L","o":"corp","sf":3000,"v":1100}},{"type":"Feature","geometry":{"type":"Point","coordinates":[-79.80285,40.3863]},"properties":{"p":"0546S00198000000","a":"JOSEPHINE ST","m":"East McKeesport","u":"L","o":"individual","sf":3175,"v":1000}},{"type":"Feature","geometry":{"type":"Point","coordinates":[-79.80106,40.38589]},"properties":{"p":"0546S00200000000","a":"5TH AVE","m":"East McKeesport","u":"L","o":"individual","sf":38981,"v":12100}},{"type":"Feature","geometry":{"type":"Point","coordinates":[-79.80082,40.38847]},"properties":{"p":"0546M00148000000","a":"MORRELLE AVE","m":"East McKeesport","u":"L","o":"corp","sf":6400,"v":9100}},{"type":"Feature","geometry":{"type":"Point","coordinates":[-79.80085,40.38861]},"properties":{"p":"0546M00149000000","a":"MORRELLE AVE","m":"East McKeesport","u":"L","o":"individual","sf":1600,"v":600}},{"type":"Feature","geometry":{"type":"Point","coordinates":[-79.80087,40.38869]},"properties":{"p":"0546M00152000000","a":"MORRELLE AVE","m":"East McKeesport","u":"L","o":"individual","sf":3200,"v":1000}},{"type":"Feature","geometry":{"type":"Point","coordinates":[-79.80088,40.38877]},"properties":{"p":"0546M00153000000","a":"MORRELLE AVE","m":"East McKeesport","u":"L","o":"corp","sf":2000,"v":700}},{"type":"Feature","geometry":{"type":"Point","coordinates":[-79.8009,40.38883]},"properties":{"p":"0546M00155000000","a":"MORRELLE AVE","m":"East McKeesport","u":"L","o":"corp","sf":1600,"v":600}},{"type":"Feature","geometry":{"type":"Point","coordinates":[-79.80091,40.38891]},"properties":{"p":"0546M00157000000","a":"MORRELLE AVE","m":"East McKeesport","u":"L","o":"individual","sf":3200,"v":1000}},{"type":"Feature","geometry":{"type":"Point","coordinates":[-79.80093,40.38899]},"properties":{"p":"0546M00158000000","a":"MORRELLE AVE","m":"East McKeesport","u":"L","o":"individual","sf":1600,"v":600}},{"type":"Feature","geometry":{"type":"Point","coordinates":[-79.80095,40.3891]},"properties":{"p":"0546M00162000000","a":"MORRELLE AVE","m":"East McKeesport","u":"L","o":"individual","sf":4800,"v":1400}},{"type":"Feature","geometry":{"type":"Point","coordinates":[-79.80047,40.38863]},"properties":{"p":"0546M00185000000","a":"MORRELLE AVE","m":"East McKeesport","u":"L","o":"individual","sf":2800,"v":900}},{"type":"Feature","geometry":{"type":"Point","coordinates":[-79.80109,40.38808]},"properties":{"p":"0546M00199000000","a":"HELENA ST","m":"East McKeesport","u":"L","o":"individual","sf":1747,"v":600}},{"type":"Feature","geometry":{"type":"Point","coordinates":[-79.80124,40.38804]},"properties":{"p":"0546M00202000000","a":"HELENA ST","m":"East McKeesport","u":"L","o":"individual","sf":6630,"v":9200}},{"type":"Feature","geometry":{"type":"Point","coordinates":[-79.80138,40.38798]},"properties":{"p":"0546M00204000000","a":"HELENA ST","m":"East McKeesport","u":"L","o":"individual","sf":2400,"v":800}},{"type":"Feature","geometry":{"type":"Point","coordinates":[-79.80048,40.38961]},"properties":{"p":"0546H00291000000","a":"BROADWAY AVE","m":"East McKeesport","u":"L","o":"individual","sf":903,"v":400}},{"type":"Feature","geometry":{"type":"Point","coordinates":[-79.80758,40.38374]},"properties":{"p":"0547C00262000000","a":"FLORENCE AVE","m":"East McKeesport","u":"L","o":"individual","sf":3600,"v":1100}},{"type":"Feature","geometry":{"type":"Point","coordinates":[-79.812,40.38151]},"properties":{"p":"0547F00124000000","a":"BROADWAY AVE","m":"East McKeesport","u":"L","o":"individual","sf":1976,"v":700}},{"type":"Feature","geometry":{"type":"Point","coordinates":[-79.81426,40.3791]},"properties":{"p":"0547J00267000000","a":"BROADWAY AVE","m":"East McKeesport","u":"L","o":"individual","sf":362,"v":400}},{"type":"Feature","geometry":{"type":"Point","coordinates":[-79.81369,40.38191]},"properties":{"p":"0547E00076000000","a":"MORRELLE AVE","m":"East McKeesport","u":"L","o":"individual","sf":6600,"v":800}},{"type":"Feature","geometry":{"type":"Point","coordinates":[-79.80786,40.38552]},"properties":{"p":"0546R00080000000","a":"422 MADISON ST","m":"East McKeesport","u":"L","o":"individual","sf":3900,"v":1200}},{"type":"Feature","geometry":{"type":"Point","coordinates":[-79.80722,40.38578]},"properties":{"p":"0546R00090000000","a":"427 MADISON ST","m":"East McKeesport","u":"L","o":"individual","sf":2240,"v":2000}},{"type":"Feature","geometry":{"type":"Point","coordinates":[-79.81222,40.3837]},"properties":{"p":"0547A00224000000","a":"CHICORA ST","m":"East McKeesport","u":"L","o":"individual","sf":15675,"v":21000}},{"type":"Feature","geometry":{"type":"Point","coordinates":[-79.808,40.38718]},"properties":{"p":"0546K00004000000","a":"LARGO WAY","m":"East McKeesport","u":"L","o":"individual","sf":4200,"v":3800}},{"type":"Feature","geometry":{"type":"Point","coordinates":[-79.80825,40.38738]},"properties":{"p":"0546K00008000000","a":"LEE ST","m":"East McKeesport","u":"L","o":"individual","sf":4200,"v":3800}},{"type":"Feature","geometry":{"type":"Point","coordinates":[-79.80838,40.38732]},"properties":{"p":"0546K00031000000","a":"MORRELLE AVE","m":"East McKeesport","u":"L","o":"individual","sf":3510,"v":1100}},{"type":"Feature","geometry":{"type":"Point","coordinates":[-79.80849,40.38726]},"properties":{"p":"0546K00034000000","a":"MORRELLE AVE","m":"East McKeesport","u":"L","o":"individual","sf":6512,"v":9100}},{"type":"Feature","geometry":{"type":"Point","coordinates":[-79.80899,40.38769]},"properties":{"p":"0546K00077000000","a":"WELSH AVE","m":"East McKeesport","u":"L","o":"individual","sf":1875,"v":600}},{"type":"Feature","geometry":{"type":"Point","coordinates":[-79.80235,40.38744]},"properties":{"p":"0546M00261000000","a":"BROADWAY AVE","m":"East McKeesport","u":"L","o":"individual","sf":7680,"v":9200}},{"type":"Feature","geometry":{"type":"Point","coordinates":[-79.80186,40.38753]},"properties":{"p":"0546M00272000000","a":"BROADWAY AVE","m":"East McKeesport","u":"L","o":"individual","sf":2200,"v":2000}},{"type":"Feature","geometry":{"type":"Point","coordinates":[-79.80162,40.38761]},"properties":{"p":"0546M00276000000","a":"BROADWAY AVE","m":"East McKeesport","u":"L","o":"individual","sf":14166,"v":9800}},{"type":"Feature","geometry":{"type":"Point","coordinates":[-79.81497,40.37893]},"properties":{"p":"0547J00277000000","a":"BROADWAY AVE","m":"East McKeesport","u":"L","o":"individual","sf":5800,"v":4500}},{"type":"Feature","geometry":{"type":"Point","coordinates":[-79.81412,40.38174]},"properties":{"p":"0547E00083000000","a":"MORRELLE AVE","m":"East McKeesport","u":"L","o":"individual","sf":3300,"v":6600}},{"type":"Feature","geometry":{"type":"Point","coordinates":[-79.80685,40.37993]},"properties":{"p":"0547G00159000000","a":"LARIMER AVE","m":"East McKeesport","u":"L","o":"individual","sf":6300,"v":20100}},{"type":"Feature","geometry":{"type":"Point","coordinates":[-79.80998,40.38263]},"properties":{"p":"0547B00337000000","a":"1031 5TH AVE","m":"East McKeesport","u":"L","o":"corp","sf":4185,"v":8400}},{"type":"Feature","geometry":{"type":"Point","coordinates":[-79.80963,40.38255]},"properties":{"p":"0547B00343000000","a":"CHICORA ST","m":"East McKeesport","u":"L","o":"corp","sf":2522,"v":900}},{"type":"Feature","geometry":{"type":"Point","coordinates":[-79.80135,40.38771]},"properties":{"p":"0546M00283000000","a":"BROADWAY AVE","m":"East McKeesport","u":"L","o":"individual","sf":3872,"v":1200}},{"type":"Feature","geometry":{"type":"Point","coordinates":[-79.8012,40.38776]},"properties":{"p":"0546M00286000000","a":"BROADWAY AVE","m":"East McKeesport","u":"L","o":"individual","sf":3872,"v":3500}},{"type":"Feature","geometry":{"type":"Point","coordinates":[-79.80107,40.38783]},"properties":{"p":"0546M00288000000","a":"BROADWAY AVE","m":"East McKeesport","u":"L","o":"corp","sf":2862,"v":900}},{"type":"Feature","geometry":{"type":"Point","coordinates":[-79.80095,40.38791]},"properties":{"p":"0546M00290000000","a":"BROADWAY AVE","m":"East McKeesport","u":"L","o":"individual","sf":2960,"v":900}},{"type":"Feature","geometry":{"type":"Point","coordinates":[-79.80078,40.38811]},"properties":{"p":"0546M00292000000","a":"BROADWAY AVE","m":"East McKeesport","u":"L","o":"individual","sf":6000,"v":9100}},{"type":"Feature","geometry":{"type":"Point","coordinates":[-79.80536,40.38866]},"properties":{"p":"0546L00145000000","a":"WILDWOOD ST","m":"East McKeesport","u":"L","o":"individual","sf":8480,"v":9300}},{"type":"Feature","geometry":{"type":"Point","coordinates":[-79.80684,40.38825]},"properties":{"p":"0546L00150000000","a":"MORRELLE AVE","m":"East McKeesport","u":"L","o":"corp","sf":64774,"v":4500}},{"type":"Feature","geometry":{"type":"Point","coordinates":[-79.80587,40.38868]},"properties":{"p":"0546L00153000000","a":"LARGO WAY","m":"East McKeesport","u":"L","o":"individual","sf":16744,"v":10100}},{"type":"Feature","geometry":{"type":"Point","coordinates":[-79.80623,40.38864]},"properties":{"p":"0546L00160000000","a":"MORRELLE AVE","m":"East McKeesport","u":"L","o":"individual","sf":9235,"v":9400}},{"type":"Feature","geometry":{"type":"Point","coordinates":[-79.8065,40.38845]},"properties":{"p":"0546L00161000000","a":"MORRELLE AVE","m":"East McKeesport","u":"L","o":"individual","sf":1416,"v":500}},{"type":"Feature","geometry":{"type":"Point","coordinates":[-79.80656,40.38842]},"properties":{"p":"0546L00163000000","a":"MORRELLE AVE","m":"East McKeesport","u":"L","o":"individual","sf":1389,"v":500}},{"type":"Feature","geometry":{"type":"Point","coordinates":[-79.80741,40.38762]},"properties":{"p":"0546L00175000000","a":"BROADWAY AVE","m":"East McKeesport","u":"L","o":"individual","sf":1400,"v":500}},{"type":"Feature","geometry":{"type":"Point","coordinates":[-79.8075,40.38821]},"properties":{"p":"0546L00184000000","a":"LARGO WAY","m":"East McKeesport","u":"L","o":"individual","sf":3880,"v":1200}},{"type":"Feature","geometry":{"type":"Point","coordinates":[-79.8078,40.38733]},"properties":{"p":"0546L00200000000","a":"LEE ST","m":"East McKeesport","u":"L","o":"individual","sf":11200,"v":9600}},{"type":"Feature","geometry":{"type":"Point","coordinates":[-79.80705,40.38794]},"properties":{"p":"0546L00230000000","a":"LARGO WAY","m":"East McKeesport","u":"L","o":"individual","sf":2000,"v":1800}},{"type":"Feature","geometry":{"type":"Point","coordinates":[-79.81386,40.37889]},"properties":{"p":"0547J00201000000","a":"WILMERDING AVE","m":"East McKeesport","u":"L","o":"individual","sf":6366,"v":15100}},{"type":"Feature","geometry":{"type":"Point","coordinates":[-79.81565,40.37966]},"properties":{"p":"0547J00368000000","a":"1352 HILDA AVE","m":"East McKeesport","u":"L","o":"individual","sf":3600,"v":1300}},{"type":"Feature","geometry":{"type":"Point","coordinates":[-79.81574,40.37962]},"properties":{"p":"0547J00370000000","a":"HILDA AVE","m":"East McKeesport","u":"L","o":"individual","sf":3566,"v":1200}},{"type":"Feature","geometry":{"type":"Point","coordinates":[-79.81586,40.3796]},"properties":{"p":"0547J00372000000","a":"HILDA AVE","m":"East McKeesport","u":"L","o":"individual","sf":6434,"v":20100}},{"type":"Feature","geometry":{"type":"Point","coordinates":[-79.81369,40.38015]},"properties":{"p":"0547E00223000000","a":"BROADWAY AVE","m":"East McKeesport","u":"L","o":"individual","sf":5800,"v":20100}},{"type":"Feature","geometry":{"type":"Point","coordinates":[-79.80549,40.38181]},"properties":{"p":"0547G00237000000","a":"3RD ST","m":"East McKeesport","u":"L","o":"individual","sf":6000,"v":10100}},{"type":"Feature","geometry":{"type":"Point","coordinates":[-79.81302,40.38257]},"properties":{"p":"0547A00355000000","a":"MORRELLE AVE","m":"East McKeesport","u":"L","o":"individual","sf":330,"v":200}},{"type":"Feature","geometry":{"type":"Point","coordinates":[-79.80583,40.38395]},"properties":{"p":"0547C00170000000","a":"JOSEPHINE ST","m":"East McKeesport","u":"L","o":"individual","sf":3300,"v":1000}},{"type":"Feature","geometry":{"type":"Point","coordinates":[-79.80591,40.38389]},"properties":{"p":"0547C00172000000","a":"JOSEPHINE ST","m":"East McKeesport","u":"L","o":"corp","sf":3300,"v":2500}},{"type":"Feature","geometry":{"type":"Point","coordinates":[-79.81093,40.38487]},"properties":{"p":"0546P00053000000","a":"MESSINEO AVE","m":"East McKeesport","u":"L","o":"individual","sf":6534,"v":20100}},{"type":"Feature","geometry":{"type":"Point","coordinates":[-79.81096,40.38513]},"properties":{"p":"0546P00056000000","a":"CARSON ST","m":"East McKeesport","u":"L","o":"corp","sf":3360,"v":3000}},{"type":"Feature","geometry":{"type":"Point","coordinates":[-79.80445,40.38592]},"properties":{"p":"0546R00241000000","a":"SEMINOLE ST","m":"East McKeesport","u":"L","o":"individual","sf":7200,"v":9200}},{"type":"Feature","geometry":{"type":"Point","coordinates":[-79.80443,40.38521]},"properties":{"p":"0546R00250000000","a":"ALCOTE AVE","m":"East McKeesport","u":"L","o":"individual","sf":3600,"v":1300}},{"type":"Feature","geometry":{"type":"Point","coordinates":[-79.80958,40.38622]},"properties":{"p":"0546P00247000000","a":"MORRELLE AVE","m":"East McKeesport","u":"L","o":"individual","sf":945,"v":400}},{"type":"Feature","geometry":{"type":"Point","coordinates":[-79.80934,40.38643]},"properties":{"p":"0546P00248000000","a":"MORRELLE AVE","m":"East McKeesport","u":"L","o":"individual","sf":3178,"v":1000}},{"type":"Feature","geometry":{"type":"Point","coordinates":[-79.80879,40.38699]},"properties":{"p":"0546P00269000000","a":"MORRELLE AVE","m":"East McKeesport","u":"L","o":"individual","sf":3403,"v":1100}},{"type":"Feature","geometry":{"type":"Point","coordinates":[-79.80872,40.38705]},"properties":{"p":"0546P00271000000","a":"MORRELLE AVE","m":"East McKeesport","u":"L","o":"individual","sf":1760,"v":600}},{"type":"Feature","geometry":{"type":"Point","coordinates":[-79.80902,40.38678]},"properties":{"p":"0546P00300000000","a":"MORRELLE AVE","m":"East McKeesport","u":"L","o":"individual","sf":10980,"v":9500}},{"type":"Feature","geometry":{"type":"Point","coordinates":[-79.81045,40.38629]},"properties":{"p":"0546P00301000000","a":"MORRELLE AVE","m":"East McKeesport","u":"L","o":"individual","sf":1875,"v":600}},{"type":"Feature","geometry":{"type":"Point","coordinates":[-79.81054,40.38627]},"properties":{"p":"0546P00302000000","a":"MORRELLE AVE","m":"East McKeesport","u":"L","o":"individual","sf":1875,"v":600}},{"type":"Feature","geometry":{"type":"Point","coordinates":[-79.81099,40.38645]},"properties":{"p":"0546P00312000000","a":"MORRELLE AVE","m":"East McKeesport","u":"L","o":"individual","sf":46261,"v":12800}},{"type":"Feature","geometry":{"type":"Point","coordinates":[-79.81137,40.38632]},"properties":{"p":"0546P00317000000","a":"MORRELLE AVE","m":"East McKeesport","u":"L","o":"individual","sf":23680,"v":6700}},{"type":"Feature","geometry":{"type":"Point","coordinates":[-79.80259,40.38947]},"properties":{"p":"0546H00088000000","a":"EDNA ST","m":"East McKeesport","u":"L","o":"corp","sf":7200,"v":9200}},{"type":"Feature","geometry":{"type":"Point","coordinates":[-79.80537,40.38188]},"properties":{"p":"0547G00241000000","a":"3RD ST","m":"East McKeesport","u":"L","o":"individual","sf":3000,"v":6000}},{"type":"Feature","geometry":{"type":"Point","coordinates":[-79.81433,40.3774]},"properties":{"p":"0547N00149000000","a":"458 CONGRESS ST","m":"East McKeesport","u":"L","o":"individual","sf":4791,"v":9600}},{"type":"Feature","geometry":{"type":"Point","coordinates":[-79.81399,40.37739]},"properties":{"p":"0547N00153000000","a":"CONGRESS ST","m":"East McKeesport","u":"L","o":"corp","sf":4567,"v":1600}},{"type":"Feature","geometry":{"type":"Point","coordinates":[-79.814,40.37718]},"properties":{"p":"0547N00156000000","a":"5TH AVE","m":"East McKeesport","u":"L","o":"individual","sf":3698,"v":7400}},{"type":"Feature","geometry":{"type":"Point","coordinates":[-79.80643,40.3835]},"properties":{"p":"0547C00185000000","a":"JOSEPHINE ST","m":"East McKeesport","u":"L","o":"individual","sf":5340,"v":9000}},{"type":"Feature","geometry":{"type":"Point","coordinates":[-79.81434,40.38012]},"properties":{"p":"0547E00328000000","a":"HILDA AVE","m":"East McKeesport","u":"L","o":"individual","sf":3600,"v":1300}},{"type":"Feature","geometry":{"type":"Point","coordinates":[-79.81429,40.3802]},"properties":{"p":"0547E00330000000","a":"HILDA AVE","m":"East McKeesport","u":"L","o":"individual","sf":3600,"v":1300}},{"type":"Feature","geometry":{"type":"Point","coordinates":[-79.80447,40.38511]},"properties":{"p":"0546R00257000000","a":"HOWARD ST","m":"East McKeesport","u":"L","o":"individual","sf":5400,"v":9000}},{"type":"Feature","geometry":{"type":"Point","coordinates":[-79.80466,40.38493]},"properties":{"p":"0546R00262000000","a":"JOSEPHINE ST","m":"East McKeesport","u":"L","o":"individual","sf":5044,"v":9000}},{"type":"Feature","geometry":{"type":"Point","coordinates":[-79.81131,40.38362]},"properties":{"p":"0547B00062000000","a":"MESSINEO AVE","m":"East McKeesport","u":"L","o":"individual","sf":6600,"v":20100}},{"type":"Feature","geometry":{"type":"Point","coordinates":[-79.81121,40.38372]},"properties":{"p":"0547B00064000000","a":"MESSINEO AVE","m":"East McKeesport","u":"L","o":"individual","sf":3300,"v":6600}},{"type":"Feature","geometry":{"type":"Point","coordinates":[-79.81096,40.38411]},"properties":{"p":"0547B00073000000","a":"1047 MESSINEO AVE","m":"East McKeesport","u":"L","o":"individual","sf":10014,"v":20500}},{"type":"Feature","geometry":{"type":"Point","coordinates":[-79.81092,40.38423]},"properties":{"p":"0547B00075000000","a":"MESSINEO AVE","m":"East McKeesport","u":"L","o":"individual","sf":5100,"v":10000}},{"type":"Feature","geometry":{"type":"Point","coordinates":[-79.80665,40.38442]},"properties":{"p":"0547C00241000000","a":"FLORENCE AVE","m":"East McKeesport","u":"L","o":"corp","sf":5400,"v":4500}},{"type":"Feature","geometry":{"type":"Point","coordinates":[-79.80734,40.38391]},"properties":{"p":"0547C00256000000","a":"FLORENCE AVE","m":"East McKeesport","u":"L","o":"corp","sf":3300,"v":1000}},{"type":"Feature","geometry":{"type":"Point","coordinates":[-79.81332,40.37963]},"properties":{"p":"0547J00244000000","a":"WILMERDING AVE","m":"East McKeesport","u":"L","o":"individual","sf":5642,"v":20100}},{"type":"Feature","geometry":{"type":"Point","coordinates":[-79.80356,40.38444]},"properties":{"p":"0547D00009000000","a":"5TH AVE","m":"East McKeesport","u":"L","o":"individual","sf":1600,"v":600}},{"type":"Feature","geometry":{"type":"Point","coordinates":[-79.81497,40.38197]},"properties":{"p":"0547E00023000000","a":"MELROSE AVE","m":"East McKeesport","u":"L","o":"individual","sf":6404,"v":10100}},{"type":"Feature","geometry":{"type":"Point","coordinates":[-79.81469,40.38235]},"properties":{"p":"0547E00034000000","a":"MELROSE AVE","m":"East McKeesport","u":"L","o":"individual","sf":10800,"v":20500}},{"type":"Feature","geometry":{"type":"Point","coordinates":[-79.81416,40.38219]},"properties":{"p":"0547E00047000000","a":"MORRELLE AVE","m":"East McKeesport","u":"L","o":"individual","sf":3300,"v":1200}},{"type":"Feature","geometry":{"type":"Point","coordinates":[-79.81407,40.38222]},"properties":{"p":"0547E00049000000","a":"MORRELLE AVE","m":"East McKeesport","u":"L","o":"individual","sf":3300,"v":1200}},{"type":"Feature","geometry":{"type":"Point","coordinates":[-79.81388,40.3823]},"properties":{"p":"0547E00052000000","a":"MORRELLE AVE","m":"East McKeesport","u":"L","o":"individual","sf":9900,"v":10400}},{"type":"Feature","geometry":{"type":"Point","coordinates":[-79.80757,40.38482]},"properties":{"p":"0546R00057000000","a":"PUNTA GORDA AVE","m":"East McKeesport","u":"L","o":"individual","sf":4800,"v":1400}},{"type":"Feature","geometry":{"type":"Point","coordinates":[-79.80742,40.38517]},"properties":{"p":"0546R00068000000","a":"436 MADISON ST","m":"East McKeesport","u":"L","o":"corp","sf":3900,"v":3500}},{"type":"Feature","geometry":{"type":"Point","coordinates":[-79.80054,40.38694]},"properties":{"p":"0546S00323000000","a":"5TH AVE","m":"East McKeesport","u":"L","o":"corp","sf":48003,"v":13000}},{"type":"Feature","geometry":{"type":"Point","coordinates":[-79.80053,40.38983]},"properties":{"p":"0546H00287000000","a":"BROADWAY AVE","m":"East McKeesport","u":"L","o":"individual","sf":2897,"v":900}},{"type":"Feature","geometry":{"type":"Point","coordinates":[-79.80051,40.38973]},"properties":{"p":"0546H00288000000","a":"BROADWAY AVE","m":"East McKeesport","u":"L","o":"individual","sf":2635,"v":800}},{"type":"Feature","geometry":{"type":"Point","coordinates":[-79.81503,40.37799]},"properties":{"p":"0547J00148000000","a":"LESLIE ST","m":"East McKeesport","u":"L","o":"individual","sf":7800,"v":20300}},{"type":"Feature","geometry":{"type":"Point","coordinates":[-79.81155,40.38585]},"properties":{"p":"0546B00320000000","a":"MORRELLE AVE","m":"East McKeesport","u":"L","o":"individual","sf":1800,"v":1600}},{"type":"Feature","geometry":{"type":"Point","coordinates":[-79.80911,40.3828]},"properties":{"p":"0547B00318000000","a":"975 5TH AVE","m":"East McKeesport","u":"L","o":"individual","sf":3000,"v":1100}},{"type":"Feature","geometry":{"type":"Point","coordinates":[-79.81388,40.38143]},"properties":{"p":"0547E00160000000","a":"LINCOLN HWY","m":"East McKeesport","u":"L","o":"individual","sf":4800,"v":1600}},{"type":"Feature","geometry":{"type":"Point","coordinates":[-79.81363,40.38153]},"properties":{"p":"0547E00164000000","a":"LINCOLN HWY","m":"East McKeesport","u":"L","o":"individual","sf":4800,"v":1600}},{"type":"Feature","geometry":{"type":"Point","coordinates":[-79.81455,40.38253]},"properties":{"p":"0547A00291000000","a":"MELROSE AVE","m":"East McKeesport","u":"L","o":"individual","sf":7200,"v":20200}},{"type":"Feature","geometry":{"type":"Point","coordinates":[-79.81349,40.38332]},"properties":{"p":"0547A00301000000","a":"MIAMI ST","m":"East McKeesport","u":"L","o":"individual","sf":6333,"v":20100}},{"type":"Feature","geometry":{"type":"Point","coordinates":[-79.80523,40.38921]},"properties":{"p":"0546L00095000000","a":"MORRELLE AVE","m":"East McKeesport","u":"L","o":"individual","sf":4511,"v":1400}},{"type":"Feature","geometry":{"type":"Point","coordinates":[-79.80412,40.38937]},"properties":{"p":"0546L00108000000","a":"MYSTIC AVE","m":"East McKeesport","u":"L","o":"individual","sf":4800,"v":1400}},{"type":"Feature","geometry":{"type":"Point","coordinates":[-79.8041,40.38838]},"properties":{"p":"0546L00127000000","a":"WILDWOOD ST","m":"East McKeesport","u":"L","o":"individual","sf":4080,"v":1400}},{"type":"Feature","geometry":{"type":"Point","coordinates":[-79.80522,40.38863]},"properties":{"p":"0546L00143000000","a":"WILDWOOD ST","m":"East McKeesport","u":"L","o":"individual","sf":8000,"v":9300}},{"type":"Feature","geometry":{"type":"Point","coordinates":[-79.80475,40.38976]},"properties":{"p":"0546G00019000000","a":"MORRELLE AVE","m":"East McKeesport","u":"L","o":"individual","sf":4800,"v":1400}},{"type":"Feature","geometry":{"type":"Point","coordinates":[-79.80454,40.38987]},"properties":{"p":"0546G00022000000","a":"MORRELLE AVE","m":"East McKeesport","u":"L","o":"individual","sf":6400,"v":9100}},{"type":"Feature","geometry":{"type":"Point","coordinates":[-79.80337,40.3894]},"properties":{"p":"0546M00015000000","a":"329 GROVE ST","m":"East McKeesport","u":"L","o":"individual","sf":9031,"v":2600}},{"type":"Feature","geometry":{"type":"Point","coordinates":[-79.80499,40.38407]},"properties":{"p":"0547C00136000000","a":"5TH AVE","m":"East McKeesport","u":"L","o":"individual","sf":2950,"v":900}},{"type":"Feature","geometry":{"type":"Point","coordinates":[-79.80075,40.38733]},"properties":{"p":"0546M00370000000","a":"505 JOSEPHINE ST","m":"East McKeesport","u":"L","o":"individual","sf":3465,"v":3100}},{"type":"Feature","geometry":{"type":"Point","coordinates":[-79.80148,40.38729]},"properties":{"p":"0546M00387000000","a":"JOSEPHINE ST","m":"East McKeesport","u":"L","o":"corp","sf":10890,"v":9500}},{"type":"Feature","geometry":{"type":"Point","coordinates":[-79.80195,40.38706]},"properties":{"p":"0546M00390000000","a":"BROADWAY AVE","m":"East McKeesport","u":"L","o":"individual","sf":7150,"v":9200}},{"type":"Feature","geometry":{"type":"Point","coordinates":[-79.80346,40.38706]},"properties":{"p":"0546M00399000000","a":"BROADWAY AVE","m":"East McKeesport","u":"L","o":"individual","sf":14410,"v":9900}},{"type":"Feature","geometry":{"type":"Point","coordinates":[-79.80528,40.38654]},"properties":{"p":"0546R00223000000","a":"SEMINOLE ST","m":"East McKeesport","u":"L","o":"individual","sf":14410,"v":5400}},{"type":"Feature","geometry":{"type":"Point","coordinates":[-79.81013,40.38551]},"properties":{"p":"0546P00215000000","a":"CARSON ST","m":"East McKeesport","u":"L","o":"individual","sf":2038,"v":700}},{"type":"Feature","geometry":{"type":"Point","coordinates":[-79.81047,40.38538]},"properties":{"p":"0546P00221000000","a":"313 CARSON ST","m":"East McKeesport","u":"L","o":"individual","sf":1960,"v":700}},{"type":"Feature","geometry":{"type":"Point","coordinates":[-79.80858,40.38675]},"properties":{"p":"0546P00225000000","a":"LARGO WAY","m":"East McKeesport","u":"L","o":"individual","sf":16800,"v":10100}},{"type":"Feature","geometry":{"type":"Point","coordinates":[-79.81461,40.38058]},"properties":{"p":"0547E00276000000","a":"1305 GREENSBURG AVE","m":"East McKeesport","u":"L","o":"individual","sf":4800,"v":1600}},{"type":"Feature","geometry":{"type":"Point","coordinates":[-79.81165,40.38452]},"properties":{"p":"0547B00021000000","a":"MESSINEO AVE","m":"East McKeesport","u":"L","o":"individual","sf":7400,"v":20200}},{"type":"Feature","geometry":{"type":"Point","coordinates":[-79.8117,40.38431]},"properties":{"p":"0547B00027000000","a":"MESSINEO AVE","m":"East McKeesport","u":"L","o":"individual","sf":7400,"v":20200}},{"type":"Feature","geometry":{"type":"Point","coordinates":[-79.80609,40.38425]},"properties":{"p":"0547C00215000000","a":"FLORENCE AVE","m":"East McKeesport","u":"L","o":"individual","sf":3300,"v":3000}},{"type":"Feature","geometry":{"type":"Point","coordinates":[-79.80293,40.38697]},"properties":{"p":"0546S00232000000","a":"BROADWAY AVE","m":"East McKeesport","u":"L","o":"individual","sf":3300,"v":1000}},{"type":"Feature","geometry":{"type":"Point","coordinates":[-79.80148,40.38678]},"properties":{"p":"0546S00256000000","a":"JOSEPHINE ST","m":"East McKeesport","u":"L","o":"individual","sf":3920,"v":1200}},{"type":"Feature","geometry":{"type":"Point","coordinates":[-79.80707,40.38555]},"properties":{"p":"0546R00096000000","a":"MADISON ST","m":"East McKeesport","u":"L","o":"individual","sf":3900,"v":1200}},{"type":"Feature","geometry":{"type":"Point","coordinates":[-79.81228,40.37974]},"properties":{"p":"0547J00090000000","a":"5TH AVE","m":"East McKeesport","u":"L","o":"corp","sf":7501,"v":20200}},{"type":"Feature","geometry":{"type":"Point","coordinates":[-79.81511,40.3789]},"properties":{"p":"0547J00279000000","a":"BROADWAY AVE","m":"East McKeesport","u":"L","o":"individual","sf":5800,"v":20100}},{"type":"Feature","geometry":{"type":"Point","coordinates":[-79.81551,40.37878]},"properties":{"p":"0547J00285000000","a":"BROADWAY AVE","m":"East McKeesport","u":"L","o":"corp","sf":5800,"v":20100}},{"type":"Feature","geometry":{"type":"Point","coordinates":[-79.80922,40.38321]},"properties":{"p":"0547B00276000000","a":"5TH AVE","m":"East McKeesport","u":"L","o":"corp","sf":3000,"v":1100}},{"type":"Feature","geometry":{"type":"Point","coordinates":[-79.80911,40.3832]},"properties":{"p":"0547B00278000000","a":"976 5TH AVE","m":"East McKeesport","u":"L","o":"individual","sf":3000,"v":1100}},{"type":"Feature","geometry":{"type":"Point","coordinates":[-79.80874,40.38316]},"properties":{"p":"0547B00284000000","a":"962 -966 5TH AVE","m":"East McKeesport","u":"L","o":"individual","sf":6000,"v":10100}},{"type":"Feature","geometry":{"type":"Point","coordinates":[-79.81442,40.38162]},"properties":{"p":"0547E00088000000","a":"MORRELLE AVE","m":"East McKeesport","u":"L","o":"individual","sf":3300,"v":1200}},{"type":"Feature","geometry":{"type":"Point","coordinates":[-79.81451,40.38159]},"properties":{"p":"0547E00090000000","a":"MORRELLE AVE","m":"East McKeesport","u":"L","o":"individual","sf":3300,"v":6600}},{"type":"Feature","geometry":{"type":"Point","coordinates":[-79.8148,40.38149]},"properties":{"p":"0547E00095000000","a":"MORRELLE AVE","m":"East McKeesport","u":"L","o":"individual","sf":3160,"v":1100}},{"type":"Feature","geometry":{"type":"Point","coordinates":[-79.80685,40.38537]},"properties":{"p":"0546R00103000000","a":"MADISON ST","m":"East McKeesport","u":"L","o":"corp","sf":3900,"v":3500}},{"type":"Feature","geometry":{"type":"Point","coordinates":[-79.80659,40.38578]},"properties":{"p":"0546R00115000000","a":"OCALA ST","m":"East McKeesport","u":"L","o":"corp","sf":3900,"v":3500}},{"type":"Feature","geometry":{"type":"Point","coordinates":[-79.8137,40.38364]},"properties":{"p":"0547A00263000000","a":"MELROSE AVE","m":"East McKeesport","u":"L","o":"individual","sf":3600,"v":1300}},{"type":"Feature","geometry":{"type":"Point","coordinates":[-79.81393,40.38335]},"properties":{"p":"0547A00271000000","a":"MELROSE AVE","m":"East McKeesport","u":"L","o":"individual","sf":3600,"v":1300}},{"type":"Feature","geometry":{"type":"Point","coordinates":[-79.80687,40.38877]},"properties":{"p":"0546L00059000000","a":"VICTOR ST","m":"East McKeesport","u":"L","o":"individual","sf":7500,"v":9200}},{"type":"Feature","geometry":{"type":"Point","coordinates":[-79.80656,40.38894]},"properties":{"p":"0546L00063000000","a":"VICTOR ST","m":"East McKeesport","u":"L","o":"individual","sf":8428,"v":9300}},{"type":"Feature","geometry":{"type":"Point","coordinates":[-79.8057,40.3894]},"properties":{"p":"0546L00071000000","a":"789 MOBILE AVE","m":"East McKeesport","u":"L","o":"individual","sf":5153,"v":9000}},{"type":"Feature","geometry":{"type":"Point","coordinates":[-79.80535,40.38955]},"properties":{"p":"0546L00077000000","a":"MORRELLE AVE","m":"East McKeesport","u":"L","o":"individual","sf":7500,"v":9200}},{"type":"Feature","geometry":{"type":"Point","coordinates":[-79.8052,40.38963]},"properties":{"p":"0546L00079000000","a":"MOBILE AVE","m":"East McKeesport","u":"L","o":"individual","sf":7500,"v":4700}},{"type":"Feature","geometry":{"type":"Point","coordinates":[-79.80064,40.38815]},"properties":{"p":"0546M00296000000","a":"BROADWAY AVE","m":"East McKeesport","u":"L","o":"individual","sf":3000,"v":2700}},{"type":"Feature","geometry":{"type":"Point","coordinates":[-79.8004,40.38835]},"properties":{"p":"0546M00299000000","a":"BROADWAY AVE","m":"East McKeesport","u":"L","o":"corp","sf":14680,"v":9900}},{"type":"Feature","geometry":{"type":"Point","coordinates":[-79.80022,40.38865]},"properties":{"p":"0546M00307000000","a":"MORRELLE AVE","m":"East McKeesport","u":"L","o":"individual","sf":2800,"v":900}},{"type":"Feature","geometry":{"type":"Point","coordinates":[-79.80035,40.38873]},"properties":{"p":"0546M00310000000","a":"BROADWAY AVE","m":"East McKeesport","u":"L","o":"individual","sf":3398,"v":1100}},{"type":"Feature","geometry":{"type":"Point","coordinates":[-79.80389,40.38717]},"properties":{"p":"0546L00386000000","a":"BROADWAY AVE","m":"East McKeesport","u":"L","o":"individual","sf":6741,"v":9200}},{"type":"Feature","geometry":{"type":"Point","coordinates":[-79.81433,40.38136]},"properties":{"p":"0547E00152000000","a":"GREENSBURG AVE","m":"East McKeesport","u":"L","o":"individual","sf":1980,"v":700}},{"type":"Feature","geometry":{"type":"Point","coordinates":[-79.80757,40.3806]},"properties":{"p":"0547G00178000000","a":"LARIMER AVE","m":"East McKeesport","u":"L","o":"individual","sf":3000,"v":1100}},{"type":"Feature","geometry":{"type":"Point","coordinates":[-79.81398,40.38328]},"properties":{"p":"0547A00273000000","a":"MELROSE AVE","m":"East McKeesport","u":"L","o":"corp","sf":3600,"v":1300}},{"type":"Feature","geometry":{"type":"Point","coordinates":[-79.81403,40.3832]},"properties":{"p":"0547A00275000000","a":"MELROSE AVE","m":"East McKeesport","u":"L","o":"individual","sf":3600,"v":1300}},{"type":"Feature","geometry":{"type":"Point","coordinates":[-79.81409,40.38314]},"properties":{"p":"0547A00277000000","a":"MELROSE AVE","m":"East McKeesport","u":"L","o":"individual","sf":3600,"v":1300}},{"type":"Feature","geometry":{"type":"Point","coordinates":[-79.80027,40.38901]},"properties":{"p":"0546M00316000000","a":"BROADWAY AVE","m":"East McKeesport","u":"L","o":"individual","sf":1700,"v":600}},{"type":"Feature","geometry":{"type":"Point","coordinates":[-79.80028,40.38907]},"properties":{"p":"0546M00317000000","a":"BROADWAY AVE","m":"East McKeesport","u":"L","o":"individual","sf":1700,"v":600}},{"type":"Feature","geometry":{"type":"Point","coordinates":[-79.8003,40.38912]},"properties":{"p":"0546M00319000000","a":"BROADWAY AVE","m":"East McKeesport","u":"L","o":"individual","sf":1680,"v":600}},{"type":"Feature","geometry":{"type":"Point","coordinates":[-79.80412,40.38681]},"properties":{"p":"0546R00186000000","a":"WOODMONT AVE","m":"East McKeesport","u":"L","o":"individual","sf":7200,"v":9200}},{"type":"Feature","geometry":{"type":"Point","coordinates":[-79.80689,40.38796]},"properties":{"p":"0546L00232000000","a":"LARGO WAY","m":"East McKeesport","u":"L","o":"individual","sf":10455,"v":9500}},{"type":"Feature","geometry":{"type":"Point","coordinates":[-79.80621,40.38836]},"properties":{"p":"0546L00248000000","a":"LARGO WAY","m":"East McKeesport","u":"L","o":"individual","sf":1520,"v":500}},{"type":"Feature","geometry":{"type":"Point","coordinates":[-79.80605,40.38842]},"properties":{"p":"0546L00249000000","a":"LARGO WAY","m":"East McKeesport","u":"L","o":"individual","sf":6480,"v":9100}},{"type":"Feature","geometry":{"type":"Point","coordinates":[-79.80946,40.38558]},"properties":{"p":"0546P00153000000","a":"BROADWAY AVE","m":"East McKeesport","u":"L","o":"individual","sf":10296,"v":10000}},{"type":"Feature","geometry":{"type":"Point","coordinates":[-79.80815,40.38707]},"properties":{"p":"0546P00181000000","a":"LARGO WAY","m":"East McKeesport","u":"L","o":"individual","sf":4200,"v":1300}},{"type":"Feature","geometry":{"type":"Point","coordinates":[-79.80825,40.38699]},"properties":{"p":"0546P00182000000","a":"LARGO WAY","m":"East McKeesport","u":"L","o":"individual","sf":1400,"v":1300}},{"type":"Feature","geometry":{"type":"Point","coordinates":[-79.80893,40.38649]},"properties":{"p":"0546P00197000000","a":"LARGO WAY","m":"East McKeesport","u":"L","o":"individual","sf":1400,"v":500}},{"type":"Feature","geometry":{"type":"Point","coordinates":[-79.80482,40.38997]},"properties":{"p":"0546G00063000000","a":"VICTOR ST","m":"East McKeesport","u":"L","o":"individual","sf":2800,"v":900}},{"type":"Feature","geometry":{"type":"Point","coordinates":[-79.80494,40.38991]},"properties":{"p":"0546G00066000000","a":"VICTOR ST","m":"East McKeesport","u":"L","o":"individual","sf":2800,"v":900}},{"type":"Feature","geometry":{"type":"Point","coordinates":[-79.80319,40.38996]},"properties":{"p":"0546H00016000000","a":"LECANTO AVE","m":"East McKeesport","u":"L","o":"individual","sf":2713,"v":900}},{"type":"Feature","geometry":{"type":"Point","coordinates":[-79.81572,40.38009]},"properties":{"p":"0547J00379000000","a":"UPSALA ST","m":"East McKeesport","u":"L","o":"individual","sf":6608,"v":3200}},{"type":"Feature","geometry":{"type":"Point","coordinates":[-79.81398,40.38083]},"properties":{"p":"0547E00266000000","a":"LINCOLN HWY","m":"East McKeesport","u":"L","o":"individual","sf":4800,"v":1600}},{"type":"Feature","geometry":{"type":"Point","coordinates":[-79.80892,40.38524]},"properties":{"p":"0546P00090000000","a":"BROADWAY AVE","m":"East McKeesport","u":"L","o":"individual","sf":6900,"v":20200}},{"type":"Feature","geometry":{"type":"Point","coordinates":[-79.80521,40.38596]},"properties":{"p":"0546R00278000000","a":"SEMINOLE ST","m":"East McKeesport","u":"L","o":"individual","sf":4900,"v":4400}},{"type":"Feature","geometry":{"type":"Point","coordinates":[-79.81284,40.38888]},"properties":{"p":"0546J00210000000","a":"SUMMIT AVE","m":"Wilmerding","u":"L","o":"corp","sf":103455,"v":12500}},{"type":"Feature","geometry":{"type":"Point","coordinates":[-79.8079,40.38899]},"properties":{"p":"0546K00151000000","a":"ORIENT AVE","m":"Wilmerding","u":"L","o":"individual","sf":6180,"v":1600}},{"type":"Feature","geometry":{"type":"Point","coordinates":[-79.81016,40.38831]},"properties":{"p":"0546K00198000000","a":"WELSH AVE","m":"Wilmerding","u":"L","o":"individual","sf":18826,"v":8200}},{"type":"Feature","geometry":{"type":"Point","coordinates":[-79.80926,40.38899]},"properties":{"p":"0546K00210000000","a":"WELSH AVE","m":"Wilmerding","u":"L","o":"individual","sf":2949,"v":800}},{"type":"Feature","geometry":{"type":"Point","coordinates":[-79.80893,40.38918]},"properties":{"p":"0546K00216000000","a":"WELSH AVE","m":"Wilmerding","u":"L","o":"individual","sf":4513,"v":1200}},{"type":"Feature","geometry":{"type":"Point","coordinates":[-79.80859,40.38939]},"properties":{"p":"0546K00222000000","a":"WELSH AVE","m":"Wilmerding","u":"L","o":"individual","sf":6076,"v":1600}},{"type":"Feature","geometry":{"type":"Point","coordinates":[-79.80778,40.38905]},"properties":{"p":"0546L00018000000","a":"ORIENT AVE","m":"Wilmerding","u":"L","o":"individual","sf":8560,"v":2200}},{"type":"Feature","geometry":{"type":"Point","coordinates":[-79.80716,40.38998]},"properties":{"p":"0546G00162000000","a":"WOOD ST","m":"Wilmerding","u":"L","o":"individual","sf":8136,"v":7300}},{"type":"Feature","geometry":{"type":"Point","coordinates":[-79.80826,40.3896]},"properties":{"p":"0546F00386000000","a":"WELSH AVE","m":"Wilmerding","u":"L","o":"corp","sf":3664,"v":1000}},{"type":"Feature","geometry":{"type":"Point","coordinates":[-79.80729,40.38929]},"properties":{"p":"0546L00010000000","a":"ORIENT AVE","m":"Wilmerding","u":"L","o":"individual","sf":24372,"v":6200}},{"type":"Feature","geometry":{"type":"Point","coordinates":[-79.80759,40.38914]},"properties":{"p":"0546L00016000000","a":"ORIENT AVE","m":"Wilmerding","u":"L","o":"corp","sf":16901,"v":8100}},{"type":"Feature","geometry":{"type":"Point","coordinates":[-79.80821,40.38964]},"properties":{"p":"0546F00388000000","a":"WELSH AVE","m":"Wilmerding","u":"L","o":"individual","sf":3792,"v":1100}},{"type":"Feature","geometry":{"type":"Point","coordinates":[-79.80808,40.38971]},"properties":{"p":"0546F00389000000","a":"WELSH AVE","m":"Wilmerding","u":"L","o":"individual","sf":12119,"v":7600}},{"type":"Feature","geometry":{"type":"Point","coordinates":[-79.80796,40.38993]},"properties":{"p":"0546F00392000000","a":"WELSH AVE","m":"Wilmerding","u":"L","o":"individual","sf":6920,"v":1800}},{"type":"Feature","geometry":{"type":"Point","coordinates":[-79.81291,40.38997]},"properties":{"p":"0546E00126000000","a":"MORNINGSIDE AVE","m":"Wilmerding","u":"L","o":"individual","sf":7520,"v":3700}},{"type":"Feature","geometry":{"type":"Point","coordinates":[-79.81381,40.38972]},"properties":{"p":"0546E00226000000","a":"SUMMIT AVE","m":"Wilmerding","u":"L","o":"corp","sf":50573,"v":11200}},{"type":"Feature","geometry":{"type":"Point","coordinates":[-79.80097,40.38811]},"properties":{"p":"0546M00198000000","a":"HELENA ST","m":"East McKeesport","u":"L","o":"corp","sf":3482,"v":7600}},{"type":"Feature","geometry":{"type":"Point","coordinates":[-79.8077,40.38779]},"properties":{"p":"0546L00198000000","a":"LEE ST","m":"East McKeesport","u":"L","o":"individual","sf":12600,"v":9700}},{"type":"Feature","geometry":{"type":"Point","coordinates":[-79.80032,40.38568]},"properties":{"p":"0546S00012000000","a":"LONG AVE","m":"North Versailles","u":"L","o":"individual","sf":15000,"v":18900}},{"type":"Feature","geometry":{"type":"Point","coordinates":[-79.80307,40.38056]},"properties":{"p":"0547H00039000000","a":"CLARA ST","m":"North Versailles","u":"L","o":"individual","sf":7500,"v":18200}},{"type":"Feature","geometry":{"type":"Point","coordinates":[-79.8066,40.37833]},"properties":{"p":"0547L00096000000","a":"JAMISON AVE","m":"North Versailles","u":"L","o":"individual","sf":6250,"v":20100}},{"type":"Feature","geometry":{"type":"Point","coordinates":[-79.8064,40.37822]},"properties":{"p":"0547L00100000000","a":"JAMISON AVE","m":"North Versailles","u":"L","o":"individual","sf":10500,"v":10500}},{"type":"Feature","geometry":{"type":"Point","coordinates":[-79.8185,40.37297]},"properties":{"p":"0459D00222000000","a":"DELAWARE AVE","m":"North Versailles","u":"L","o":"individual","sf":6000,"v":18100}},{"type":"Feature","geometry":{"type":"Point","coordinates":[-79.81883,40.38479]},"properties":{"p":"0458D00205000000","a":"HAWTHORNE ST","m":"North Versailles","u":"L","o":"individual","sf":2284,"v":2300}},{"type":"Feature","geometry":{"type":"Point","coordinates":[-79.81736,40.38435]},"properties":{"p":"0458D00232000000","a":"MAYFIELD RD","m":"North Versailles","u":"L","o":"corp","sf":61245,"v":700}},{"type":"Feature","geometry":{"type":"Point","coordinates":[-79.81997,40.38167]},"properties":{"p":"0458H00264000000","a":"SPRINGDALE AVE","m":"North Versailles","u":"L","o":"corp","sf":3225,"v":5800}},{"type":"Feature","geometry":{"type":"Point","coordinates":[-79.81674,40.37316]},"properties":{"p":"0459D00337000000","a":"LOCUST ST","m":"North Versailles","u":"L","o":"individual","sf":3150,"v":1000}},{"type":"Feature","geometry":{"type":"Point","coordinates":[-79.81757,40.37867]},"properties":{"p":"0458M00327000000","a":"BROADWAY AVE","m":"North Versailles","u":"L","o":"individual","sf":5500,"v":18100}},{"type":"Feature","geometry":{"type":"Point","coordinates":[-79.81799,40.37802]},"properties":{"p":"0458M00342000000","a":"OWEN ST","m":"North Versailles","u":"L","o":"corp","sf":1575,"v":2800}},{"type":"Feature","geometry":{"type":"Point","coordinates":[-79.81831,40.37448]},"properties":{"p":"0459D00186000000","a":"DELAWARE AVE","m":"North Versailles","u":"L","o":"individual","sf":3000,"v":1000}},{"type":"Feature","geometry":{"type":"Point","coordinates":[-79.81835,40.37439]},"properties":{"p":"0459D00188000000","a":"DELAWARE AVE","m":"North Versailles","u":"L","o":"individual","sf":3000,"v":1000}},{"type":"Feature","geometry":{"type":"Point","coordinates":[-79.8054,40.38052]},"properties":{"p":"0547G00125000000","a":"301 ELIZABETH ST","m":"North Versailles","u":"L","o":"individual","sf":6577,"v":9100}},{"type":"Feature","geometry":{"type":"Point","coordinates":[-79.8077,40.37879]},"properties":{"p":"0547L00028000000","a":"3RD ST","m":"North Versailles","u":"L","o":"corp","sf":15300,"v":10900}},{"type":"Feature","geometry":{"type":"Point","coordinates":[-79.81936,40.38027]},"properties":{"p":"0458H00174000000","a":"LYNWOOD AVE","m":"North Versailles","u":"L","o":"corp","sf":3225,"v":1100}},{"type":"Feature","geometry":{"type":"Point","coordinates":[-79.81964,40.37997]},"properties":{"p":"0458H00181000000","a":"LYNWOOD AVE","m":"North Versailles","u":"L","o":"corp","sf":8948,"v":2800}},{"type":"Feature","geometry":{"type":"Point","coordinates":[-79.81998,40.38034]},"properties":{"p":"0458H00190000000","a":"LYNWOOD AVE","m":"North Versailles","u":"L","o":"individual","sf":5150,"v":1600}},{"type":"Feature","geometry":{"type":"Point","coordinates":[-79.8198,40.381]},"properties":{"p":"0458H00248000000","a":"LYNWOOD AVE","m":"North Versailles","u":"L","o":"corp","sf":32652,"v":9900}},{"type":"Feature","geometry":{"type":"Point","coordinates":[-79.81664,40.37984]},"properties":{"p":"0458M00314000000","a":"BROADWAY AVE","m":"North Versailles","u":"L","o":"individual","sf":3361,"v":1100}},{"type":"Feature","geometry":{"type":"Point","coordinates":[-79.81765,40.37769]},"properties":{"p":"0458M00395000000","a":"BROADWAY AVE","m":"North Versailles","u":"L","o":"individual","sf":7972,"v":18300}},{"type":"Feature","geometry":{"type":"Point","coordinates":[-79.81775,40.37756]},"properties":{"p":"0458M00396000000","a":"BROADWAY EXT","m":"North Versailles","u":"L","o":"individual","sf":3000,"v":14400}},{"type":"Feature","geometry":{"type":"Point","coordinates":[-79.80848,40.37113]},"properties":{"p":"0548F00059000000","a":"SAINT GEORGE DR","m":"North Versailles","u":"L","o":"individual","sf":6808,"v":2300}},{"type":"Feature","geometry":{"type":"Point","coordinates":[-79.81879,40.37442]},"properties":{"p":"0459D00161000000","a":"MARVIN ST","m":"North Versailles","u":"L","o":"individual","sf":3000,"v":1000}},{"type":"Feature","geometry":{"type":"Point","coordinates":[-79.81862,40.37477]},"properties":{"p":"0459D00166000000","a":"MARVIN ST","m":"North Versailles","u":"L","o":"individual","sf":3000,"v":5400}},{"type":"Feature","geometry":{"type":"Point","coordinates":[-79.81858,40.37486]},"properties":{"p":"0459D00168000000","a":"MARVIN ST","m":"North Versailles","u":"L","o":"individual","sf":3000,"v":1000}},{"type":"Feature","geometry":{"type":"Point","coordinates":[-79.80426,40.38249]},"properties":{"p":"0547C00006000000","a":"3RD ST","m":"North Versailles","u":"L","o":"individual","sf":3000,"v":5400}},{"type":"Feature","geometry":{"type":"Point","coordinates":[-79.80438,40.38243]},"properties":{"p":"0547C00009000000","a":"3RD ST","m":"North Versailles","u":"L","o":"individual","sf":6000,"v":9100}},{"type":"Feature","geometry":{"type":"Point","coordinates":[-79.81235,40.37504]},"properties":{"p":"0548B00002000000","a":"JAMES AVE","m":"North Versailles","u":"L","o":"corp","sf":2040,"v":800}},{"type":"Feature","geometry":{"type":"Point","coordinates":[-79.80162,40.37436]},"properties":{"p":"0548D00176000000","a":"STEVENS ST","m":"North Versailles","u":"L","o":"individual","sf":8280,"v":20300}},{"type":"Feature","geometry":{"type":"Point","coordinates":[-79.804,40.37594]},"properties":{"p":"0547S00050000000","a":"JACKMAN RD","m":"North Versailles","u":"L","o":"corp","sf":91346,"v":16900}},{"type":"Feature","geometry":{"type":"Point","coordinates":[-79.81377,40.37628]},"properties":{"p":"0547N00294000000","a":"OAKDALE RD","m":"North Versailles","u":"L","o":"individual","sf":4428,"v":1400}},{"type":"Feature","geometry":{"type":"Point","coordinates":[-79.81262,40.3724]},"properties":{"p":"0548E00223000000","a":"WOODLAND RD","m":"North Versailles","u":"L","o":"individual","sf":8690,"v":20300}},{"type":"Feature","geometry":{"type":"Point","coordinates":[-79.81352,40.37096]},"properties":{"p":"0548E00290000000","a":"255 OAKDALE RD","m":"North Versailles","u":"L","o":"individual","sf":152678,"v":3500}},{"type":"Feature","geometry":{"type":"Point","coordinates":[-79.81012,40.37243]},"properties":{"p":"0548F00230000000","a":"RUSTIC RD","m":"North Versailles","u":"L","o":"individual","sf":4500,"v":9000}},{"type":"Feature","geometry":{"type":"Point","coordinates":[-79.81135,40.37554]},"properties":{"p":"0547P00201000000","a":"RUSTIC RD","m":"North Versailles","u":"L","o":"individual","sf":7795,"v":20300}},{"type":"Feature","geometry":{"type":"Point","coordinates":[-79.81557,40.37453]},"properties":{"p":"0548A00083000000","a":"ROBIN ST","m":"North Versailles","u":"L","o":"individual","sf":8046,"v":1200}},{"type":"Feature","geometry":{"type":"Point","coordinates":[-79.81361,40.37416]},"properties":{"p":"0548A00319000000","a":"OAKDALE RD","m":"North Versailles","u":"L","o":"individual","sf":4390,"v":16900}},{"type":"Feature","geometry":{"type":"Point","coordinates":[-79.80278,40.37516]},"properties":{"p":"0548D00158000000","a":"STEVENS ST","m":"North Versailles","u":"L","o":"individual","sf":12800,"v":3000}},{"type":"Feature","geometry":{"type":"Point","coordinates":[-79.81384,40.37597]},"properties":{"p":"0547N00207000000","a":"5TH AVE","m":"North Versailles","u":"L","o":"individual","sf":13149,"v":18700}},{"type":"Feature","geometry":{"type":"Point","coordinates":[-79.81378,40.37619]},"properties":{"p":"0547N00211000000","a":"5TH AVE","m":"North Versailles","u":"L","o":"corp","sf":2560,"v":4600}},{"type":"Feature","geometry":{"type":"Point","coordinates":[-79.81346,40.37704]},"properties":{"p":"0547N00218000000","a":"5TH AVE","m":"North Versailles","u":"L","o":"individual","sf":6699,"v":9200}},{"type":"Feature","geometry":{"type":"Point","coordinates":[-79.81035,40.37238]},"properties":{"p":"0548F00228000000","a":"RUSTIC RD","m":"North Versailles","u":"L","o":"individual","sf":3877,"v":7800}},{"type":"Feature","geometry":{"type":"Point","coordinates":[-79.81384,40.37174]},"properties":{"p":"0548E00152000000","a":"OAKDALE RD","m":"North Versailles","u":"L","o":"individual","sf":87120,"v":22500}},{"type":"Feature","geometry":{"type":"Point","coordinates":[-79.81399,40.37238]},"properties":{"p":"0548E00187000000","a":"OAKDALE RD","m":"North Versailles","u":"L","o":"individual","sf":36459,"v":20800}},{"type":"Feature","geometry":{"type":"Point","coordinates":[-79.81647,40.37393]},"properties":{"p":"0548A00031000000","a":"LAWRENCE AVE","m":"North Versailles","u":"L","o":"individual","sf":3000,"v":1000}},{"type":"Feature","geometry":{"type":"Point","coordinates":[-79.80641,40.37706]},"properties":{"p":"0547R00125000000","a":"EDWARD ST","m":"North Versailles","u":"L","o":"individual","sf":28314,"v":12100}},{"type":"Feature","geometry":{"type":"Point","coordinates":[-79.80518,40.37913]},"properties":{"p":"0547L00220000000","a":"LINCOLN HWY","m":"North Versailles","u":"L","o":"individual","sf":15260,"v":18900}},{"type":"Feature","geometry":{"type":"Point","coordinates":[-79.81537,40.37613]},"properties":{"p":"0547N00110000000","a":"214 LAWRENCE AVE","m":"North Versailles","u":"L","o":"individual","sf":3000,"v":5400}},{"type":"Feature","geometry":{"type":"Point","coordinates":[-79.8143,40.37001]},"properties":{"p":"0548J00076000000","a":"CROOKED RUN RD","m":"North Versailles","u":"L","o":"individual","sf":13952,"v":18800}},{"type":"Feature","geometry":{"type":"Point","coordinates":[-79.80659,40.37678]},"properties":{"p":"0547R00130000000","a":"EDWARD ST","m":"North Versailles","u":"L","o":"individual","sf":14940,"v":10900}},{"type":"Feature","geometry":{"type":"Point","coordinates":[-79.80654,40.37735]},"properties":{"p":"0547R00156000000","a":"EDWARD ST","m":"North Versailles","u":"L","o":"individual","sf":9900,"v":900}},{"type":"Feature","geometry":{"type":"Point","coordinates":[-79.80621,40.37729]},"properties":{"p":"0547R00158000000","a":"1010 EDWARD ST","m":"North Versailles","u":"L","o":"individual","sf":4500,"v":9000}},{"type":"Feature","geometry":{"type":"Point","coordinates":[-79.81634,40.37164]},"properties":{"p":"0548E00029000000","a":"ROBIN ST","m":"North Versailles","u":"L","o":"individual","sf":10000,"v":9500}},{"type":"Feature","geometry":{"type":"Point","coordinates":[-79.81612,40.37504]},"properties":{"p":"0548A00014000000","a":"AUSTIN ALY","m":"North Versailles","u":"L","o":"individual","sf":371,"v":400}},{"type":"Feature","geometry":{"type":"Point","coordinates":[-79.81052,40.37489]},"properties":{"p":"0548B00325000000","a":"MEADOWBROOK DR","m":"North Versailles","u":"L","o":"corp","sf":5929,"v":20100}},{"type":"Feature","geometry":{"type":"Point","coordinates":[-79.80232,40.37915]},"properties":{"p":"0547M00199000000","a":"PITTSBURGH ST","m":"North Versailles","u":"L","o":"individual","sf":52,"v":100}},{"type":"Feature","geometry":{"type":"Point","coordinates":[-79.81693,40.37194]},"properties":{"p":"0459H00060000000","a":"VINE ST","m":"North Versailles","u":"L","o":"individual","sf":6208,"v":18100}},{"type":"Feature","geometry":{"type":"Point","coordinates":[-79.81952,40.37615]},"properties":{"p":"0458S00121000000","a":"311 BROADWAY EXT","m":"North Versailles","u":"L","o":"individual","sf":3150,"v":5700}},{"type":"Feature","geometry":{"type":"Point","coordinates":[-79.81657,40.38336]},"properties":{"p":"0547E00006000000","a":"WESTINGHOUSE AVE","m":"North Versailles","u":"L","o":"corp","sf":35150,"v":9900}},{"type":"Feature","geometry":{"type":"Point","coordinates":[-79.8153,40.38243]},"properties":{"p":"0547E00018000000","a":"WESTINGHOUSE AVE","m":"North Versailles","u":"L","o":"corp","sf":57499,"v":700}},{"type":"Feature","geometry":{"type":"Point","coordinates":[-79.81589,40.38064]},"properties":{"p":"0547E00295000000","a":"GREENSBURG AVE","m":"North Versailles","u":"L","o":"individual","sf":10891,"v":18500}},{"type":"Feature","geometry":{"type":"Point","coordinates":[-79.81648,40.38043]},"properties":{"p":"0547E00306000000","a":"WASHINGTON RD","m":"North Versailles","u":"L","o":"corp","sf":10783,"v":18500}},{"type":"Feature","geometry":{"type":"Point","coordinates":[-79.81854,40.38074]},"properties":{"p":"0458H00155000000","a":"HIGHWOOD RD","m":"North Versailles","u":"L","o":"individual","sf":2814,"v":900}},{"type":"Feature","geometry":{"type":"Point","coordinates":[-79.81874,40.38094]},"properties":{"p":"0458H00157000000","a":"LYNWOOD AVE","m":"North Versailles","u":"L","o":"individual","sf":2286,"v":800}},{"type":"Feature","geometry":{"type":"Point","coordinates":[-79.81893,40.37761]},"properties":{"p":"0458M00257000000","a":"BROADWAY EXT","m":"North Versailles","u":"L","o":"individual","sf":3000,"v":500}},{"type":"Feature","geometry":{"type":"Point","coordinates":[-79.81855,40.37806]},"properties":{"p":"0458M00267000000","a":"N BROADWAY AVE","m":"North Versailles","u":"L","o":"individual","sf":6000,"v":18100}},{"type":"Feature","geometry":{"type":"Point","coordinates":[-79.81971,40.37983]},"properties":{"p":"0458M00016000000","a":"LYNWOOD AVE","m":"North Versailles","u":"L","o":"corp","sf":3225,"v":1100}},{"type":"Feature","geometry":{"type":"Point","coordinates":[-79.80114,40.3819]},"properties":{"p":"0547H00211000000","a":"WILLMAN AVE","m":"North Versailles","u":"L","o":"individual","sf":22967,"v":19600}},{"type":"Feature","geometry":{"type":"Point","coordinates":[-79.81805,40.37867]},"properties":{"p":"0458M00280000000","a":"BROADWAY AVE","m":"North Versailles","u":"L","o":"individual","sf":3000,"v":1000}},{"type":"Feature","geometry":{"type":"Point","coordinates":[-79.81876,40.37561]},"properties":{"p":"0458S00250000000","a":"312 WASHINGTON RD","m":"North Versailles","u":"L","o":"individual","sf":6300,"v":2100}},{"type":"Feature","geometry":{"type":"Point","coordinates":[-79.80474,40.38386]},"properties":{"p":"0547C00109000000","a":"5TH AVE","m":"North Versailles","u":"L","o":"individual","sf":7286,"v":18200}},{"type":"Feature","geometry":{"type":"Point","coordinates":[-79.80428,40.38394]},"properties":{"p":"0547C00114000000","a":"5TH AVE","m":"North Versailles","u":"L","o":"individual","sf":8000,"v":18300}},{"type":"Feature","geometry":{"type":"Point","coordinates":[-79.81845,40.37513]},"properties":{"p":"0458S00257000000","a":"MARVIN ST","m":"North Versailles","u":"L","o":"individual","sf":6000,"v":9100}},{"type":"Feature","geometry":{"type":"Point","coordinates":[-79.81996,40.37352]},"properties":{"p":"0459D00120000000","a":"MARVIN ST","m":"North Versailles","u":"L","o":"individual","sf":5570,"v":18100}},{"type":"Feature","geometry":{"type":"Point","coordinates":[-79.8032,40.38175]},"properties":{"p":"0547H00122000000","a":"JOSEPH ST","m":"North Versailles","u":"L","o":"individual","sf":1278,"v":2300}},{"type":"Feature","geometry":{"type":"Point","coordinates":[-79.80393,40.38218]},"properties":{"p":"0547H00127000000","a":"3RD ST","m":"North Versailles","u":"L","o":"individual","sf":7830,"v":18300}},{"type":"Feature","geometry":{"type":"Point","coordinates":[-79.80281,40.38331]},"properties":{"p":"0547D00133000000","a":"3RD ST","m":"North Versailles","u":"L","o":"individual","sf":12000,"v":6000}},{"type":"Feature","geometry":{"type":"Point","coordinates":[-79.80072,40.38036]},"properties":{"p":"0547H00346000000","a":"CLAVALE DR","m":"North Versailles","u":"L","o":"individual","sf":9235,"v":20400}},{"type":"Feature","geometry":{"type":"Point","coordinates":[-79.81777,40.38041]},"properties":{"p":"0458H00048000000","a":"UNION AVE","m":"North Versailles","u":"L","o":"individual","sf":1908,"v":700}},{"type":"Feature","geometry":{"type":"Point","coordinates":[-79.81805,40.3804]},"properties":{"p":"0458H00121000000","a":"91 LINCOLN AVE","m":"North Versailles","u":"L","o":"individual","sf":5131,"v":9000}},{"type":"Feature","geometry":{"type":"Point","coordinates":[-79.81883,40.37693]},"properties":{"p":"0458S00105000000","a":"BROADWAY AVE","m":"North Versailles","u":"L","o":"individual","sf":3150,"v":1000}},{"type":"Feature","geometry":{"type":"Point","coordinates":[-79.80217,40.38237]},"properties":{"p":"0547D00358000000","a":"WILLMAN AVE","m":"North Versailles","u":"L","o":"individual","sf":7362,"v":2300}},{"type":"Feature","geometry":{"type":"Point","coordinates":[-79.80107,40.38236]},"properties":{"p":"0547D00387000000","a":"WILLMAN AVE","m":"North Versailles","u":"L","o":"individual","sf":19210,"v":19300}},{"type":"Feature","geometry":{"type":"Point","coordinates":[-79.81938,40.37769]},"properties":{"p":"0458M00248000000","a":"UNION AVE","m":"North Versailles","u":"L","o":"individual","sf":4000,"v":7200}},{"type":"Feature","geometry":{"type":"Point","coordinates":[-79.81994,40.37302]},"properties":{"p":"0459D00130000000","a":"MARVIN ST","m":"North Versailles","u":"L","o":"individual","sf":3435,"v":1100}},{"type":"Feature","geometry":{"type":"Point","coordinates":[-79.8177,40.37689]},"properties":{"p":"0458S00210000000","a":"WASHINGTON RD","m":"North Versailles","u":"L","o":"individual","sf":3550,"v":1200}},{"type":"Feature","geometry":{"type":"Point","coordinates":[-79.81769,40.37672]},"properties":{"p":"0458S00213000000","a":"WASHINGTON RD","m":"North Versailles","u":"L","o":"individual","sf":7701,"v":18200}},{"type":"Feature","geometry":{"type":"Point","coordinates":[-79.81789,40.3766]},"properties":{"p":"0458S00217000000","a":"WASHINGTON RD","m":"North Versailles","u":"L","o":"individual","sf":4284,"v":1400}},{"type":"Feature","geometry":{"type":"Point","coordinates":[-79.81794,40.37653]},"properties":{"p":"0458S00219000000","a":"WASHINGTON RD","m":"North Versailles","u":"L","o":"individual","sf":4205,"v":7600}},{"type":"Feature","geometry":{"type":"Point","coordinates":[-79.80416,40.38299]},"properties":{"p":"0547C00038000000","a":"803 4TH ST","m":"North Versailles","u":"L","o":"individual","sf":1500,"v":2700}},{"type":"Feature","geometry":{"type":"Point","coordinates":[-79.80421,40.38341]},"properties":{"p":"0547C00049000000","a":"4TH ST","m":"North Versailles","u":"L","o":"individual","sf":8592,"v":18300}},{"type":"Feature","geometry":{"type":"Point","coordinates":[-79.80474,40.38311]},"properties":{"p":"0547C00061000000","a":"4TH ST","m":"North Versailles","u":"L","o":"individual","sf":12240,"v":18700}},{"type":"Feature","geometry":{"type":"Point","coordinates":[-79.80503,40.38295]},"properties":{"p":"0547C00066000000","a":"818 4TH ST","m":"North Versailles","u":"L","o":"individual","sf":8022,"v":18300}},{"type":"Feature","geometry":{"type":"Point","coordinates":[-79.80265,40.38387]},"properties":{"p":"0547D00084000000","a":"4TH ST","m":"North Versailles","u":"L","o":"individual","sf":838,"v":1500}},{"type":"Feature","geometry":{"type":"Point","coordinates":[-79.81828,40.37629]},"properties":{"p":"0458S00229000000","a":"WASHINGTON RD","m":"North Versailles","u":"L","o":"individual","sf":8511,"v":2700}},{"type":"Feature","geometry":{"type":"Point","coordinates":[-79.80364,40.38327]},"properties":{"p":"0547D00096000000","a":"EMLYN ST","m":"North Versailles","u":"L","o":"individual","sf":3000,"v":5400}},{"type":"Feature","geometry":{"type":"Point","coordinates":[-79.80391,40.38313]},"properties":{"p":"0547D00103000000","a":"4TH ST","m":"North Versailles","u":"L","o":"individual","sf":3000,"v":5400}},{"type":"Feature","geometry":{"type":"Point","coordinates":[-79.80398,40.38265]},"properties":{"p":"0547D00109000000","a":"3RD ST","m":"North Versailles","u":"L","o":"individual","sf":3000,"v":900}},{"type":"Feature","geometry":{"type":"Point","coordinates":[-79.80006,40.38103]},"properties":{"p":"0547H00334000000","a":"CLAVALE DR","m":"North Versailles","u":"L","o":"corp","sf":9191,"v":20400}},{"type":"Feature","geometry":{"type":"Point","coordinates":[-79.80072,40.38275]},"properties":{"p":"0547D00290000000","a":"3RD ST","m":"North Versailles","u":"L","o":"individual","sf":125017,"v":1400}},{"type":"Feature","geometry":{"type":"Point","coordinates":[-79.81696,40.38028]},"properties":{"p":"0458H00008000000","a":"N BROADWAY AVE","m":"North Versailles","u":"L","o":"individual","sf":759,"v":300}},{"type":"Feature","geometry":{"type":"Point","coordinates":[-79.80882,40.37908]},"properties":{"p":"0547K00229000000","a":"JAMES AVE","m":"North Versailles","u":"L","o":"individual","sf":4000,"v":1400}},{"type":"Feature","geometry":{"type":"Point","coordinates":[-79.81886,40.38595]},"properties":{"p":"0457S00136000000","a":"HAWTHORNE ST","m":"North Versailles","u":"L","o":"individual","sf":10889,"v":10500}},{"type":"Feature","geometry":{"type":"Point","coordinates":[-79.81802,40.37724]},"properties":{"p":"0458S00188000000","a":"CENTRALIA AVE","m":"North Versailles","u":"L","o":"individual","sf":3000,"v":1000}},{"type":"Feature","geometry":{"type":"Point","coordinates":[-79.81616,40.37781]},"properties":{"p":"0547J00005000000","a":"DELAWARE AVE","m":"North Versailles","u":"L","o":"individual","sf":3000,"v":5400}},{"type":"Feature","geometry":{"type":"Point","coordinates":[-79.80384,40.38417]},"properties":{"p":"0547D00017000000","a":"5TH AVE","m":"North Versailles","u":"L","o":"corp","sf":8000,"v":18300}},{"type":"Feature","geometry":{"type":"Point","coordinates":[-79.80343,40.38385]},"properties":{"p":"0547D00027000000","a":"4TH ST","m":"North Versailles","u":"L","o":"individual","sf":4611,"v":1500}},{"type":"Feature","geometry":{"type":"Point","coordinates":[-79.8032,40.38399]},"properties":{"p":"0547D00031000000","a":"OHARA ST","m":"North Versailles","u":"L","o":"individual","sf":4706,"v":17500}},{"type":"Feature","geometry":{"type":"Point","coordinates":[-79.8024,40.38444]},"properties":{"p":"0547D00045000000","a":"4TH ST","m":"North Versailles","u":"L","o":"individual","sf":5040,"v":18000}},{"type":"Feature","geometry":{"type":"Point","coordinates":[-79.8019,40.38422]},"properties":{"p":"0547D00065000000","a":"4TH ST","m":"North Versailles","u":"L","o":"individual","sf":6000,"v":18100}},{"type":"Feature","geometry":{"type":"Point","coordinates":[-79.81962,40.3774]},"properties":{"p":"0458S00019000000","a":"UNION AVE","m":"North Versailles","u":"L","o":"individual","sf":3000,"v":1000}},{"type":"Feature","geometry":{"type":"Point","coordinates":[-79.81968,40.37734]},"properties":{"p":"0458S00021000000","a":"UNION AVE","m":"North Versailles","u":"L","o":"individual","sf":3000,"v":1000}},{"type":"Feature","geometry":{"type":"Point","coordinates":[-79.81477,40.37957]},"properties":{"p":"0547J00344000000","a":"HILDA AVE","m":"East McKeesport","u":"L","o":"individual","sf":3600,"v":1300}},{"type":"Feature","geometry":{"type":"Point","coordinates":[-79.80454,40.38948]},"properties":{"p":"0546L00084000000","a":"631 MOBILE AVE","m":"East McKeesport","u":"L","o":"individual","sf":2400,"v":800}},{"type":"Feature","geometry":{"type":"Point","coordinates":[-79.80117,40.38644]},"properties":{"p":"0546S00317000000","a":"5TH AVE","m":"East McKeesport","u":"L","o":"individual","sf":8000,"v":9300}},{"type":"Feature","geometry":{"type":"Point","coordinates":[-79.80366,40.38383]},"properties":{"p":"0547D00024000000","a":"EMLYN ST","m":"North Versailles","u":"L","o":"individual","sf":8045,"v":18300}},{"type":"Feature","geometry":{"type":"Point","coordinates":[-79.81469,40.37967]},"properties":{"p":"0547J00345000000","a":"HILDA AVE","m":"East McKeesport","u":"L","o":"individual","sf":10800,"v":20500}},{"type":"Feature","geometry":{"type":"Point","coordinates":[-79.8077,40.38092]},"properties":{"p":"0547G00187000000","a":"PARK AVE","m":"East McKeesport","u":"L","o":"individual","sf":948,"v":1900}},{"type":"Feature","geometry":{"type":"Point","coordinates":[-79.81424,40.38123]},"properties":{"p":"0547E00154000000","a":"GREENSBURG AVE","m":"East McKeesport","u":"L","o":"corp","sf":2620,"v":5200}},{"type":"Feature","geometry":{"type":"Point","coordinates":[-79.81089,40.38431]},"properties":{"p":"0547B00077000000","a":"MESSINEO AVE","m":"East McKeesport","u":"L","o":"individual","sf":5130,"v":10000}},{"type":"Feature","geometry":{"type":"Point","coordinates":[-79.80466,40.37602]},"properties":{"p":"0547R00292000000","a":"TAYLOR ST","m":"North Versailles","u":"L","o":"individual","sf":22000,"v":21500}},{"type":"Feature","geometry":{"type":"Point","coordinates":[-79.81544,40.37599]},"properties":{"p":"0547N00114000000","a":"214 LAWRENCE AVE","m":"North Versailles","u":"L","o":"individual","sf":3000,"v":5400}},{"type":"Feature","geometry":{"type":"Point","coordinates":[-79.80793,40.38791]},"properties":{"p":"0546L00350000000","a":"MORRELLE AVE","m":"East McKeesport","u":"L","o":"individual","sf":22851,"v":10600}},{"type":"Feature","geometry":{"type":"Point","coordinates":[-79.80893,40.37075]},"properties":{"p":"0548F00051000000","a":"SAINT GEORGE DR","m":"North Versailles","u":"L","o":"individual","sf":13562,"v":20800}},{"type":"Feature","geometry":{"type":"Point","coordinates":[-79.80144,40.38797]},"properties":{"p":"0546M00206000000","a":"HELENA ST","m":"East McKeesport","u":"L","o":"individual","sf":2400,"v":800}},{"type":"Feature","geometry":{"type":"Point","coordinates":[-79.80329,40.38615]},"properties":{"p":"0546S00186000000","a":"WOODMONT AVE","m":"East McKeesport","u":"L","o":"individual","sf":3900,"v":1200}},{"type":"Feature","geometry":{"type":"Point","coordinates":[-79.80587,40.37573]},"properties":{"p":"0547R00219000000","a":"TAYLOR ST","m":"North Versailles","u":"L","o":"individual","sf":10222,"v":8400}},{"type":"Feature","geometry":{"type":"Point","coordinates":[-79.81359,40.37221]},"properties":{"p":"0548E00194000000","a":"444 WOODLAND RD","m":"North Versailles","u":"L","o":"individual","sf":23124,"v":7500}},{"type":"Feature","geometry":{"type":"Point","coordinates":[-79.81996,40.37444]},"properties":{"p":"0459C00030000000","a":"BROADWAY AVE","m":"North Versailles","u":"L","o":"individual","sf":3000,"v":1000}},{"type":"Feature","geometry":{"type":"Point","coordinates":[-79.80305,40.38869]},"properties":{"p":"0546M00035000000","a":"LECANTO AVE","m":"East McKeesport","u":"L","o":"individual","sf":9440,"v":9400}},{"type":"Feature","geometry":{"type":"Point","coordinates":[-79.81055,40.38504]},"properties":{"p":"0546P00064000000","a":"CARSON ST","m":"East McKeesport","u":"L","o":"corp","sf":3600,"v":3200}},{"type":"Feature","geometry":{"type":"Point","coordinates":[-79.80056,40.3882]},"properties":{"p":"0546M00298000000","a":"BROADWAY AVE","m":"East McKeesport","u":"L","o":"corp","sf":1875,"v":1700}},{"type":"Feature","geometry":{"type":"Point","coordinates":[-79.80432,40.37655]},"properties":{"p":"0547S00052000000","a":"JACKMAN RD","m":"North Versailles","u":"L","o":"corp","sf":29359,"v":7300}},{"type":"Feature","geometry":{"type":"Point","coordinates":[-79.81292,40.37528]},"properties":{"p":"0547N00264000000","a":"140 OAKDALE RD","m":"North Versailles","u":"L","o":"individual","sf":17599,"v":19100}},{"type":"Feature","geometry":{"type":"Point","coordinates":[-79.81803,40.37579]},"properties":{"p":"0458S00269000000","a":"WASHINGTON RD","m":"North Versailles","u":"L","o":"individual","sf":5787,"v":9100}},{"type":"Feature","geometry":{"type":"Point","coordinates":[-79.81781,40.37749]},"properties":{"p":"0458S00194000000","a":"CENTRALIA AVE","m":"North Versailles","u":"L","o":"individual","sf":3000,"v":1000}},{"type":"Feature","geometry":{"type":"Point","coordinates":[-79.80286,40.38418]},"properties":{"p":"0547D00035000000","a":"4TH ST","m":"North Versailles","u":"L","o":"individual","sf":14546,"v":7900}},{"type":"Feature","geometry":{"type":"Point","coordinates":[-79.81694,40.37322]},"properties":{"p":"0459D00341000000","a":"LOCUST ST","m":"North Versailles","u":"L","o":"individual","sf":3150,"v":1000}},{"type":"Feature","geometry":{"type":"Point","coordinates":[-79.80281,40.38696]},"properties":{"p":"0546S00234000000","a":"BROADWAY AVE","m":"East McKeesport","u":"L","o":"individual","sf":3300,"v":1000}},{"type":"Feature","geometry":{"type":"Point","coordinates":[-79.80068,40.38959]},"properties":{"p":"0546H00140000000","a":"MORRELLE AVE","m":"East McKeesport","u":"L","o":"individual","sf":1400,"v":500}},{"type":"Feature","geometry":{"type":"Point","coordinates":[-79.80698,40.38038]},"properties":{"p":"0547G00168000000","a":"627 LARIMER AVE","m":"East McKeesport","u":"L","o":"individual","sf":3000,"v":1100}},{"type":"Feature","geometry":{"type":"Point","coordinates":[-79.81907,40.37743]},"properties":{"p":"0458S00087000000","a":"208 BROADWAY EXT","m":"North Versailles","u":"L","o":"individual","sf":3000,"v":500}},{"type":"Feature","geometry":{"type":"Point","coordinates":[-79.81995,40.38088]},"properties":{"p":"0458H00247000000","a":"SPRINGDALE AVE","m":"North Versailles","u":"L","o":"corp","sf":3225,"v":1100}},{"type":"Feature","geometry":{"type":"Point","coordinates":[-79.80916,40.38904]},"properties":{"p":"0546K00212000000","a":"WELSH AVE","m":"Wilmerding","u":"L","o":"individual","sf":3471,"v":1000}},{"type":"Feature","geometry":{"type":"Point","coordinates":[-79.80473,40.38425]},"properties":{"p":"0547C00132000000","a":"5TH AVE","m":"East McKeesport","u":"L","o":"individual","sf":3650,"v":1100}},{"type":"Feature","geometry":{"type":"Point","coordinates":[-79.80339,40.38967]},"properties":{"p":"0546H00002000000","a":"PLAYFORD ST","m":"East McKeesport","u":"L","o":"individual","sf":21613,"v":10500}},{"type":"Feature","geometry":{"type":"Point","coordinates":[-79.81335,40.38412]},"properties":{"p":"0547A00253000000","a":"CHICORA ST","m":"East McKeesport","u":"L","o":"individual","sf":15274,"v":20900}},{"type":"Feature","geometry":{"type":"Point","coordinates":[-79.81704,40.3783]},"properties":{"p":"0458M00371000000","a":"BROADWAY AVE","m":"North Versailles","u":"L","o":"individual","sf":3689,"v":6600}},{"type":"Feature","geometry":{"type":"Point","coordinates":[-79.81416,40.37118]},"properties":{"p":"0548E00132000000","a":"255 OAKDALE RD","m":"North Versailles","u":"L","o":"individual","sf":43560,"v":1000}},{"type":"Feature","geometry":{"type":"Point","coordinates":[-79.81183,40.38446]},"properties":{"p":"0547B00024000000","a":"MESSINEO AVE","m":"East McKeesport","u":"L","o":"individual","sf":7400,"v":20200}},{"type":"Feature","geometry":{"type":"Point","coordinates":[-79.8072,40.38873]},"properties":{"p":"0546L00053000000","a":"VICTOR ST","m":"East McKeesport","u":"L","o":"individual","sf":42450,"v":12400}},{"type":"Feature","geometry":{"type":"Point","coordinates":[-79.80289,40.38627]},"properties":{"p":"0546S00197000000","a":"JOSEPHINE ST","m":"East McKeesport","u":"L","o":"individual","sf":1878,"v":600}},{"type":"Feature","geometry":{"type":"Point","coordinates":[-79.813,40.38398]},"properties":{"p":"0547A00242000000","a":"CHICORA ST","m":"East McKeesport","u":"L","o":"corp","sf":6150,"v":20100}},{"type":"Feature","geometry":{"type":"Point","coordinates":[-79.80607,40.38866]},"properties":{"p":"0546L00154000000","a":"MORRELLE AVE","m":"East McKeesport","u":"L","o":"individual","sf":1629,"v":600}},{"type":"Feature","geometry":{"type":"Point","coordinates":[-79.81241,40.37947]},"properties":{"p":"0547J00085000000","a":"5TH AVE","m":"East McKeesport","u":"L","o":"corp","sf":3574,"v":7200}},{"type":"Feature","geometry":{"type":"Point","coordinates":[-79.81499,40.37441]},"properties":{"p":"0548A00123000000","a":"ROBIN ST","m":"North Versailles","u":"L","o":"individual","sf":5486,"v":700}},{"type":"Feature","geometry":{"type":"Point","coordinates":[-79.80237,40.37671]},"properties":{"p":"0547S00157000000","a":"1116 JAMISON AVE","m":"North Versailles","u":"L","o":"individual","sf":26894,"v":12000}},{"type":"Feature","geometry":{"type":"Point","coordinates":[-79.80239,40.37127]},"properties":{"p":"0548H00189000000","a":"FOSTER RD","m":"North Versailles","u":"L","o":"corp","sf":42689,"v":13400}},{"type":"Feature","geometry":{"type":"Point","coordinates":[-79.8161,40.38042]},"properties":{"p":"0547E00308000000","a":"UPSALA ST","m":"North Versailles","u":"L","o":"individual","sf":14034,"v":18800}},{"type":"Feature","geometry":{"type":"Point","coordinates":[-79.81936,40.37435]},"properties":{"p":"0459D00107000000","a":"MARVIN ST","m":"North Versailles","u":"L","o":"individual","sf":5482,"v":18000}},{"type":"Feature","geometry":{"type":"Point","coordinates":[-79.80187,40.38226]},"properties":{"p":"0547H00151000000","a":"WILLMAN AVE","m":"North Versailles","u":"L","o":"corp","sf":10560,"v":18500}},{"type":"Feature","geometry":{"type":"Point","coordinates":[-79.801,40.38466]},"properties":{"p":"0546S00300000000","a":"4TH ST","m":"North Versailles","u":"B","o":"corp","sf":176549,"v":18100}},{"type":"Feature","geometry":{"type":"Point","coordinates":[-79.8021,40.37859]},"properties":{"p":"0547M00123000000","a":"LARIMER AVE","m":"North Versailles","u":"B","o":"individual","sf":7492,"v":3200}},{"type":"Feature","geometry":{"type":"Point","coordinates":[-79.80192,40.37853]},"properties":{"p":"0547M00124000000","a":"LARIMER AVE","m":"North Versailles","u":"B","o":"individual","sf":4487,"v":2900}},{"type":"Feature","geometry":{"type":"Point","coordinates":[-79.80163,40.37842]},"properties":{"p":"0547M00126000000","a":"LARIMER AVE","m":"North Versailles","u":"B","o":"individual","sf":5619,"v":3100}},{"type":"Feature","geometry":{"type":"Point","coordinates":[-79.80266,40.37878]},"properties":{"p":"0547M00120000000","a":"LARIMER AVE","m":"North Versailles","u":"B","o":"individual","sf":6665,"v":3200}},{"type":"Feature","geometry":{"type":"Point","coordinates":[-79.8025,40.37873]},"properties":{"p":"0547M00121000000","a":"LARIMER AVE","m":"North Versailles","u":"B","o":"individual","sf":4530,"v":2900}},{"type":"Feature","geometry":{"type":"Point","coordinates":[-79.80232,40.37867]},"properties":{"p":"0547M00122000000","a":"LARIMER AVE","m":"North Versailles","u":"B","o":"individual","sf":7492,"v":3200}},{"type":"Feature","geometry":{"type":"Point","coordinates":[-79.80178,40.37848]},"properties":{"p":"0547M00125000000","a":"LARIMER AVE","m":"North Versailles","u":"B","o":"individual","sf":4487,"v":2900}}]}