{"type":"FeatureCollection","features":[{"type":"Feature","geometry":{"type":"Point","coordinates":[-79.8196,40.55353]},"properties":{"p":"0624M00005000000","a":"RUSSELLTON RD","m":"Harmar","u":"I","o":"corp","sf":95657,"v":22000}},{"type":"Feature","geometry":{"type":"Point","coordinates":[-79.80066,40.56579]},"properties":{"p":"0728H00100000000","a":"VILLAGE CENTER DR","m":"Frazer","u":"C","o":"corp","sf":315017,"v":74900}},{"type":"Feature","geometry":{"type":"Point","coordinates":[-79.81915,40.55729]},"properties":{"p":"0624D00036000000","a":"1006 RUSSELLTON RD","m":"Harmar","u":"C","o":"individual","sf":11601,"v":23200}},{"type":"Feature","geometry":{"type":"Point","coordinates":[-79.80515,40.56879]},"properties":{"p":"0839R00025000000","a":"VALUE DR","m":"Frazer","u":"C","o":"corp","sf":97609,"v":78400}},{"type":"Feature","geometry":{"type":"Point","coordinates":[-79.81914,40.55663]},"properties":{"p":"0624H00070000000","a":"1006 RUSSELLTON RD","m":"Harmar","u":"C","o":"individual","sf":11772,"v":23500}},{"type":"Feature","geometry":{"type":"Point","coordinates":[-79.81914,40.55687]},"properties":{"p":"0624H00077000000","a":"1006 RUSSELLTON RD","m":"Harmar","u":"C","o":"individual","sf":5763,"v":11500}},{"type":"Feature","geometry":{"type":"Point","coordinates":[-79.81915,40.55701]},"properties":{"p":"0624H00079000000","a":"1006 RUSSELLTON RD","m":"Harmar","u":"C","o":"individual","sf":5764,"v":11500}},{"type":"Feature","geometry":{"type":"Point","coordinates":[-79.80808,40.55533]},"properties":{"p":"0625F00075000000","a":"SCHOOL ST","m":"Springdale Twp","u":"C","o":"corp","sf":10200,"v":21400}},{"type":"Feature","geometry":{"type":"Point","coordinates":[-79.81912,40.55745]},"properties":{"p":"0624D00039000000","a":"1006 RUSSELLTON RD","m":"Harmar","u":"C","o":"individual","sf":5800,"v":11600}},{"type":"Feature","geometry":{"type":"Point","coordinates":[-79.80687,40.56913]},"properties":{"p":"0728C00001000000","a":"YUTES RUN RD","m":"Frazer","u":"L","o":"individual","sf":1304195,"v":96100}},{"type":"Feature","geometry":{"type":"Point","coordinates":[-79.8168,40.56415]},"properties":{"p":"0727M00075000000","a":"RUSSELLTON RD","m":"Harmar","u":"L","o":"corp","sf":1614064,"v":151100}},{"type":"Feature","geometry":{"type":"Point","coordinates":[-79.8177,40.55738]},"properties":{"p":"0624D00017000000","a":"ROBERTS ST","m":"Harmar","u":"L","o":"individual","sf":5296,"v":2200}},{"type":"Feature","geometry":{"type":"Point","coordinates":[-79.81808,40.55745]},"properties":{"p":"0624D00020000000","a":"FREDERICK ST","m":"Harmar","u":"L","o":"individual","sf":5636,"v":2300}},{"type":"Feature","geometry":{"type":"Point","coordinates":[-79.81276,40.56142]},"properties":{"p":"0728N00100000000","a":"CRONE HOLLOW RD","m":"Harmar","u":"L","o":"individual","sf":124102,"v":18500}},{"type":"Feature","geometry":{"type":"Point","coordinates":[-79.81761,40.55513]},"properties":{"p":"0624H00259000000","a":"BECKMAN ST","m":"Harmar","u":"L","o":"individual","sf":632,"v":300}},{"type":"Feature","geometry":{"type":"Point","coordinates":[-79.81957,40.56121]},"properties":{"p":"0727S00082000000","a":"RUSSELLTON RD","m":"Harmar","u":"L","o":"individual","sf":3455,"v":1400}},{"type":"Feature","geometry":{"type":"Point","coordinates":[-79.81734,40.56054]},"properties":{"p":"0727S00100000000","a":"LITTLE DEER CREEK RD","m":"Harmar","u":"L","o":"individual","sf":707850,"v":53000}},{"type":"Feature","geometry":{"type":"Point","coordinates":[-79.8188,40.55824]},"properties":{"p":"0624D00216000000","a":"DOMINICI LN","m":"Harmar","u":"L","o":"individual","sf":10229,"v":65800}},{"type":"Feature","geometry":{"type":"Point","coordinates":[-79.81529,40.55685]},"properties":{"p":"0625E00035000000","a":"HITE RD","m":"Harmar","u":"L","o":"individual","sf":9000,"v":3600}},{"type":"Feature","geometry":{"type":"Point","coordinates":[-79.81418,40.55705]},"properties":{"p":"0625E00050000000","a":"HILLTOP LN","m":"Harmar","u":"L","o":"individual","sf":21736,"v":8000}},{"type":"Feature","geometry":{"type":"Point","coordinates":[-79.81348,40.5572]},"properties":{"p":"0625E00058000000","a":"HILLTOP LN","m":"Harmar","u":"L","o":"individual","sf":43200,"v":23300}},{"type":"Feature","geometry":{"type":"Point","coordinates":[-79.80857,40.55341]},"properties":{"p":"0625K00027000000","a":"529 LOW GRADE RD","m":"Harmar","u":"L","o":"corp","sf":87978,"v":29200}},{"type":"Feature","geometry":{"type":"Point","coordinates":[-79.81181,40.55436]},"properties":{"p":"0625K00250000000","a":"HITE RD","m":"Harmar","u":"L","o":"corp","sf":61748,"v":21200}},{"type":"Feature","geometry":{"type":"Point","coordinates":[-79.81784,40.55512]},"properties":{"p":"0624H00257000000","a":"BECKMAN ST","m":"Harmar","u":"L","o":"individual","sf":1139,"v":500}},{"type":"Feature","geometry":{"type":"Point","coordinates":[-79.81847,40.55824]},"properties":{"p":"0624D00218000000","a":"DOMINICI LN","m":"Harmar","u":"L","o":"individual","sf":10901,"v":33400}},{"type":"Feature","geometry":{"type":"Point","coordinates":[-79.81763,40.55838]},"properties":{"p":"0624D00225000000","a":"DOMINICI LN","m":"Harmar","u":"L","o":"individual","sf":16117,"v":6400}},{"type":"Feature","geometry":{"type":"Point","coordinates":[-79.81841,40.55786]},"properties":{"p":"0624D00252000000","a":"ELEANOR ST","m":"Harmar","u":"L","o":"individual","sf":5885,"v":2400}},{"type":"Feature","geometry":{"type":"Point","coordinates":[-79.81637,40.55888]},"properties":{"p":"0624D00275000000","a":"ELEANOR ST","m":"Harmar","u":"L","o":"individual","sf":107593,"v":12000}},{"type":"Feature","geometry":{"type":"Point","coordinates":[-79.81592,40.55615]},"properties":{"p":"0625E00169000000","a":"HITE RD","m":"Harmar","u":"L","o":"individual","sf":7399,"v":3000}},{"type":"Feature","geometry":{"type":"Point","coordinates":[-79.81816,40.55668]},"properties":{"p":"0624H00060000000","a":"HITE RD","m":"Harmar","u":"L","o":"individual","sf":5735,"v":2300}},{"type":"Feature","geometry":{"type":"Point","coordinates":[-79.81831,40.55968]},"properties":{"p":"0624D00135000000","a":"LITTLE DEER CREEK RD","m":"Harmar","u":"L","o":"individual","sf":88035,"v":13100}},{"type":"Feature","geometry":{"type":"Point","coordinates":[-79.81905,40.55899]},"properties":{"p":"0624D00149000000","a":"RUSSELLTON RD","m":"Harmar","u":"L","o":"individual","sf":50965,"v":7600}},{"type":"Feature","geometry":{"type":"Point","coordinates":[-79.80638,40.55837]},"properties":{"p":"0625C00195000000","a":"HIGH ST","m":"Springdale Twp","u":"L","o":"individual","sf":11498,"v":23600}},{"type":"Feature","geometry":{"type":"Point","coordinates":[-79.80744,40.5533]},"properties":{"p":"0625L00230000000","a":"LOW GRADE RD","m":"Springdale Twp","u":"L","o":"corp","sf":103368,"v":32000}},{"type":"Feature","geometry":{"type":"Point","coordinates":[-79.80702,40.5522]},"properties":{"p":"0625R00225000000","a":"N HAMILTON AVE","m":"Springdale Twp","u":"L","o":"individual","sf":7736,"v":23300}},{"type":"Feature","geometry":{"type":"Point","coordinates":[-79.80371,40.55016]},"properties":{"p":"0625S00014000000","a":"MCKINLEY AVE","m":"Springdale Twp","u":"L","o":"individual","sf":5732,"v":1900}},{"type":"Feature","geometry":{"type":"Point","coordinates":[-79.8009,40.55291]},"properties":{"p":"0625M00153000000","a":"THOMPSON RUN RD","m":"Springdale Twp","u":"L","o":"individual","sf":12838,"v":12200}},{"type":"Feature","geometry":{"type":"Point","coordinates":[-79.80639,40.55616]},"properties":{"p":"0625G00174000000","a":"820 -822 MAIN ST","m":"Springdale Twp","u":"L","o":"individual","sf":350,"v":200}},{"type":"Feature","geometry":{"type":"Point","coordinates":[-79.8041,40.5553]},"properties":{"p":"0625G00298000000","a":"218 SPRING ST","m":"Springdale Twp","u":"L","o":"individual","sf":5625,"v":23100}},{"type":"Feature","geometry":{"type":"Point","coordinates":[-79.80579,40.55432]},"properties":{"p":"0625L00121000000","a":"PILLOW AVE","m":"Springdale Twp","u":"L","o":"corp","sf":1961,"v":4500}},{"type":"Feature","geometry":{"type":"Point","coordinates":[-79.80682,40.5545]},"properties":{"p":"0625L00160000000","a":"PILLOW AVE","m":"Springdale Twp","u":"L","o":"corp","sf":13920,"v":15200}},{"type":"Feature","geometry":{"type":"Point","coordinates":[-79.80673,40.55159]},"properties":{"p":"0625R00148000000","a":"CENTER ST","m":"Springdale Twp","u":"L","o":"individual","sf":6493,"v":2200}},{"type":"Feature","geometry":{"type":"Point","coordinates":[-79.8073,40.55526]},"properties":{"p":"0625G00016000000","a":"1614 PILLOW AVE","m":"Springdale Twp","u":"L","o":"individual","sf":6000,"v":11600}},{"type":"Feature","geometry":{"type":"Point","coordinates":[-79.80792,40.55591]},"properties":{"p":"0625G00033000000","a":"721 HITE RD","m":"Springdale Twp","u":"L","o":"individual","sf":6000,"v":23100}},{"type":"Feature","geometry":{"type":"Point","coordinates":[-79.80725,40.55406]},"properties":{"p":"0625L00375000000","a":"LOW GRADE RD","m":"Springdale Twp","u":"L","o":"corp","sf":36205,"v":32400}},{"type":"Feature","geometry":{"type":"Point","coordinates":[-79.80489,40.55421]},"properties":{"p":"0625L00111000000","a":"835 THOMPSON RUN RD","m":"Springdale Twp","u":"L","o":"individual","sf":1174,"v":2700}},{"type":"Feature","geometry":{"type":"Point","coordinates":[-79.80271,40.55317]},"properties":{"p":"0625M00260000000","a":"ORCHARD ST","m":"Springdale Twp","u":"L","o":"individual","sf":40047,"v":26200}},{"type":"Feature","geometry":{"type":"Point","coordinates":[-79.80598,40.55015]},"properties":{"p":"0625R00033000000","a":"MAPLE ST","m":"Springdale Twp","u":"L","o":"individual","sf":6250,"v":2100}},{"type":"Feature","geometry":{"type":"Point","coordinates":[-79.80896,40.55842]},"properties":{"p":"0625C00400000000","a":"HIGH ST","m":"Springdale Twp","u":"L","o":"corp","sf":1848686,"v":106200}},{"type":"Feature","geometry":{"type":"Point","coordinates":[-79.80893,40.55638]},"properties":{"p":"0625F00173000000","a":"HIGH ST","m":"Springdale Twp","u":"L","o":"corp","sf":24877,"v":24800}},{"type":"Feature","geometry":{"type":"Point","coordinates":[-79.80659,40.56159]},"properties":{"p":"0728R00105000000","a":"YUTES RUN RD","m":"Springdale Twp","u":"L","o":"individual","sf":13154,"v":23700}},{"type":"Feature","geometry":{"type":"Point","coordinates":[-79.80657,40.56099]},"properties":{"p":"0728R00115000000","a":"1106 YUTES RUN RD","m":"Springdale Twp","u":"L","o":"individual","sf":9099,"v":1600}},{"type":"Feature","geometry":{"type":"Point","coordinates":[-79.80333,40.55016]},"properties":{"p":"0625S00022000000","a":"MAPLE ST","m":"Springdale Twp","u":"L","o":"corp","sf":5028,"v":1700}},{"type":"Feature","geometry":{"type":"Point","coordinates":[-79.80431,40.55713]},"properties":{"p":"0625G00124000000","a":"MAIN ST","m":"Springdale Twp","u":"L","o":"individual","sf":8185,"v":2700}},{"type":"Feature","geometry":{"type":"Point","coordinates":[-79.80442,40.55707]},"properties":{"p":"0625G00126000000","a":"MAIN ST","m":"Springdale Twp","u":"L","o":"individual","sf":7931,"v":2600}},{"type":"Feature","geometry":{"type":"Point","coordinates":[-79.8046,40.557]},"properties":{"p":"0625G00130000000","a":"MAIN ST","m":"Springdale Twp","u":"L","o":"individual","sf":18257,"v":24200}},{"type":"Feature","geometry":{"type":"Point","coordinates":[-79.805,40.55684]},"properties":{"p":"0625G00135000000","a":"317 SPRING ST","m":"Springdale Twp","u":"L","o":"individual","sf":7766,"v":23300}},{"type":"Feature","geometry":{"type":"Point","coordinates":[-79.80473,40.55669]},"properties":{"p":"0625G00138000000","a":"SPRING ST","m":"Springdale Twp","u":"L","o":"individual","sf":6000,"v":23100}},{"type":"Feature","geometry":{"type":"Point","coordinates":[-79.80415,40.55667]},"properties":{"p":"0625G00141000000","a":"SPRING ST","m":"Springdale Twp","u":"L","o":"corp","sf":24960,"v":24800}},{"type":"Feature","geometry":{"type":"Point","coordinates":[-79.80524,40.55559]},"properties":{"p":"0625G00143000000","a":"SPRING ST","m":"Springdale Twp","u":"L","o":"corp","sf":29534,"v":25200}},{"type":"Feature","geometry":{"type":"Point","coordinates":[-79.80585,40.55871]},"properties":{"p":"0625C00129000000","a":"HIGH ST","m":"Springdale Twp","u":"L","o":"individual","sf":14793,"v":4800}},{"type":"Feature","geometry":{"type":"Point","coordinates":[-79.80646,40.55965]},"properties":{"p":"0625C00176000000","a":"HIGH ST","m":"Springdale Twp","u":"L","o":"individual","sf":8218,"v":2700}},{"type":"Feature","geometry":{"type":"Point","coordinates":[-79.80666,40.55928]},"properties":{"p":"0625C00180000000","a":"HIGH ST","m":"Springdale Twp","u":"L","o":"individual","sf":11981,"v":23600}},{"type":"Feature","geometry":{"type":"Point","coordinates":[-79.80605,40.55588]},"properties":{"p":"0625G00214000000","a":"ISOBEL ST","m":"Springdale Twp","u":"L","o":"individual","sf":10693,"v":23500}},{"type":"Feature","geometry":{"type":"Point","coordinates":[-79.8053,40.55051]},"properties":{"p":"0625R00109000000","a":"MAPLE ST","m":"Springdale Twp","u":"L","o":"individual","sf":730,"v":300}},{"type":"Feature","geometry":{"type":"Point","coordinates":[-79.81799,40.55805]},"properties":{"p":"0624D00221000000","a":"DOMINICI LN","m":"Harmar","u":"L","o":"individual","sf":3575,"v":1500}},{"type":"Feature","geometry":{"type":"Point","coordinates":[-79.80657,40.56078]},"properties":{"p":"0728R00120000000","a":"YUTES RUN RD","m":"Springdale Twp","u":"L","o":"individual","sf":9146,"v":3000}},{"type":"Feature","geometry":{"type":"Point","coordinates":[-79.81729,40.56199]},"properties":{"p":"0727S00094000000","a":"RUSSELLTON RD","m":"Harmar","u":"L","o":"individual","sf":99622,"v":14900}},{"type":"Feature","geometry":{"type":"Point","coordinates":[-79.80314,40.55012]},"properties":{"p":"0625S00025000000","a":"MCKINLEY AVE","m":"Springdale Twp","u":"L","o":"individual","sf":5028,"v":1700}},{"type":"Feature","geometry":{"type":"Point","coordinates":[-79.80739,40.55604]},"properties":{"p":"0625G00045000000","a":"727 HITE RD","m":"Springdale Twp","u":"L","o":"corp","sf":8749,"v":700}},{"type":"Feature","geometry":{"type":"Point","coordinates":[-79.81181,40.56146]},"properties":{"p":"0728P00010000000","a":"CRONE HOLLOW RD","m":"Harmar","u":"L","o":"individual","sf":112820,"v":16800}}]}