{"type":"FeatureCollection","features":[{"type":"Feature","geometry":{"type":"Point","coordinates":[-79.81464,40.60422]},"properties":{"p":"1220E00237000000","a":"DEER CREEK RD","m":"West Deer","u":"C","o":"corp","sf":165964,"v":127400}},{"type":"Feature","geometry":{"type":"Point","coordinates":[-79.81548,40.6052]},"properties":{"p":"1220E00264000000","a":"RUSSELTON AIRPORT RD","m":"West Deer","u":"C","o":"corp","sf":113692,"v":65250}},{"type":"Feature","geometry":{"type":"Point","coordinates":[-79.81849,40.60427]},"properties":{"p":"1219H00101000000","a":"FALCON LN","m":"West Deer","u":"C","o":"corp","sf":135036,"v":80000}},{"type":"Feature","geometry":{"type":"Point","coordinates":[-79.81263,40.60232]},"properties":{"p":"1220J00059000000","a":"2706 RUSSELLTON AIRPORT RD","m":"Frazer","u":"L","o":"individual","sf":10239,"v":900}},{"type":"Feature","geometry":{"type":"Point","coordinates":[-79.80784,40.602]},"properties":{"p":"1220K00058000000","a":"BUTLER LOGAN RD","m":"Frazer","u":"L","o":"individual","sf":130680,"v":45200}},{"type":"Feature","geometry":{"type":"Point","coordinates":[-79.80591,40.59853]},"properties":{"p":"1220R00220000000","a":"CRAWFORD RUN RD","m":"Frazer","u":"L","o":"individual","sf":31019,"v":37200}},{"type":"Feature","geometry":{"type":"Point","coordinates":[-79.80641,40.59931]},"properties":{"p":"1220R00228000000","a":"CRAWFORD RUN RD","m":"Frazer","u":"L","o":"individual","sf":10510,"v":1000}},{"type":"Feature","geometry":{"type":"Point","coordinates":[-79.80754,40.60122]},"properties":{"p":"1220R00327000000","a":"BUTLER LOGAN RD","m":"Frazer","u":"L","o":"individual","sf":89080,"v":41300}},{"type":"Feature","geometry":{"type":"Point","coordinates":[-79.80716,40.59905]},"properties":{"p":"1220R00350000000","a":"BUTLER LOGAN RD","m":"Frazer","u":"L","o":"individual","sf":33541,"v":3000}},{"type":"Feature","geometry":{"type":"Point","coordinates":[-79.81006,40.60039]},"properties":{"p":"1220P00321000000","a":"CRAWFORD RUN RD","m":"Frazer","u":"L","o":"individual","sf":233177,"v":21400}},{"type":"Feature","geometry":{"type":"Point","coordinates":[-79.80884,40.59992]},"properties":{"p":"1220P00348000000","a":"CRAWFORD RUN RD","m":"Frazer","u":"L","o":"individual","sf":11687,"v":1100}},{"type":"Feature","geometry":{"type":"Point","coordinates":[-79.80998,40.60129]},"properties":{"p":"1220K00252000000","a":"BUTLER LOGAN RD","m":"Frazer","u":"L","o":"individual","sf":154246,"v":14000}},{"type":"Feature","geometry":{"type":"Point","coordinates":[-79.81231,40.59879]},"properties":{"p":"1220N00002000000","a":"CRAWFORD RUN RD","m":"Frazer","u":"L","o":"individual","sf":41184,"v":36900}},{"type":"Feature","geometry":{"type":"Point","coordinates":[-79.80953,40.5987]},"properties":{"p":"1220P00007000000","a":"BUTLER LOGAN RD","m":"Frazer","u":"L","o":"individual","sf":40162,"v":14000}},{"type":"Feature","geometry":{"type":"Point","coordinates":[-79.80756,40.59896]},"properties":{"p":"1220R00368000000","a":"BUTLER LOGAN RD","m":"Frazer","u":"L","o":"individual","sf":21593,"v":17700}},{"type":"Feature","geometry":{"type":"Point","coordinates":[-79.80027,40.59419]},"properties":{"p":"1085H00132000000","a":"CRAWFORD RUN RD","m":"Frazer","u":"L","o":"individual","sf":82764,"v":19800}},{"type":"Feature","geometry":{"type":"Point","coordinates":[-79.80002,40.60717]},"properties":{"p":"1220D00087000000","a":"BAILEYS RUN RD","m":"Frazer","u":"L","o":"individual","sf":17810,"v":1600}},{"type":"Feature","geometry":{"type":"Point","coordinates":[-79.80431,40.60963]},"properties":{"p":"1363R00265000000","a":"1017 BAILEYS RUN RD","m":"Frazer","u":"L","o":"individual","sf":435600,"v":60800}},{"type":"Feature","geometry":{"type":"Point","coordinates":[-79.81108,40.59661]},"properties":{"p":"1085B00266000000","a":"BUTLER LOGAN RD","m":"Frazer","u":"L","o":"individual","sf":91912,"v":41600}},{"type":"Feature","geometry":{"type":"Point","coordinates":[-79.80098,40.60831]},"properties":{"p":"1363S00181000000","a":"BAILEYS RUN RD","m":"Frazer","u":"L","o":"individual","sf":101495,"v":11600}},{"type":"Feature","geometry":{"type":"Point","coordinates":[-79.8019,40.60959]},"properties":{"p":"1363S00244000000","a":"BAILEYS RUN RD","m":"Frazer","u":"L","o":"individual","sf":316681,"v":34700}},{"type":"Feature","geometry":{"type":"Point","coordinates":[-79.8164,40.59527]},"properties":{"p":"1084H00096000000","a":"CRAWFORD RUN RD","m":"Indiana","u":"L","o":"individual","sf":21780,"v":2400}},{"type":"Feature","geometry":{"type":"Point","coordinates":[-79.81929,40.59606]},"properties":{"p":"1084H00365000000","a":"CRAWFORD RUN RD","m":"Indiana","u":"L","o":"individual","sf":55321,"v":28000}},{"type":"Feature","geometry":{"type":"Point","coordinates":[-79.81419,40.59682]},"properties":{"p":"1085A00134000000","a":"SPRING WATER LN","m":"Indiana","u":"L","o":"individual","sf":3746,"v":400}},{"type":"Feature","geometry":{"type":"Point","coordinates":[-79.81258,40.59094]},"properties":{"p":"1085N00284000000","a":"LOG CABIN RD","m":"Indiana","u":"L","o":"individual","sf":174240,"v":17500}},{"type":"Feature","geometry":{"type":"Point","coordinates":[-79.81909,40.59323]},"properties":{"p":"1084M00340000000","a":"CRAWFORD RUN RD","m":"Indiana","u":"L","o":"individual","sf":36373,"v":51800}},{"type":"Feature","geometry":{"type":"Point","coordinates":[-79.81902,40.5935]},"properties":{"p":"1084M00352000000","a":"CRAWFORD RUN RD","m":"Indiana","u":"L","o":"individual","sf":36373,"v":23000}},{"type":"Feature","geometry":{"type":"Point","coordinates":[-79.81272,40.59659]},"properties":{"p":"1085A00019000000","a":"108 SMALARA LN","m":"Indiana","u":"L","o":"individual","sf":89298,"v":58000}},{"type":"Feature","geometry":{"type":"Point","coordinates":[-79.81255,40.59807]},"properties":{"p":"1085A00190000000","a":"CRAWFORD RUN RD","m":"Indiana","u":"L","o":"individual","sf":871,"v":100}},{"type":"Feature","geometry":{"type":"Point","coordinates":[-79.8145,40.59835]},"properties":{"p":"1085A00252000000","a":"CRAWFORD RUN RD","m":"Indiana","u":"L","o":"individual","sf":65122,"v":47500}},{"type":"Feature","geometry":{"type":"Point","coordinates":[-79.81968,40.59002]},"properties":{"p":"1084R00025000000","a":"CRAWFORD RUN RD","m":"Indiana","u":"L","o":"individual","sf":348611,"v":50700}},{"type":"Feature","geometry":{"type":"Point","coordinates":[-79.81713,40.59719]},"properties":{"p":"8000T04635000000","a":"JEROME LN","m":"Indiana","u":"L","o":"individual","sf":0,"v":0}},{"type":"Feature","geometry":{"type":"Point","coordinates":[-79.81441,40.60172]},"properties":{"p":"1220J00222000000","a":"2706 RUSSELLTON AIRPORT RD","m":"West Deer","u":"L","o":"individual","sf":588060,"v":65000}},{"type":"Feature","geometry":{"type":"Point","coordinates":[-79.81321,40.60328]},"properties":{"p":"1220J00227000000","a":"DEER HOLLOW LN","m":"West Deer","u":"L","o":"individual","sf":7361,"v":2500}},{"type":"Feature","geometry":{"type":"Point","coordinates":[-79.8138,40.60309]},"properties":{"p":"1220J00251000000","a":"DEER HOLLOW LN","m":"West Deer","u":"L","o":"individual","sf":23470,"v":21700}},{"type":"Feature","geometry":{"type":"Point","coordinates":[-79.81399,40.60338]},"properties":{"p":"1220J00252000000","a":"DEER HOLLOW LN","m":"West Deer","u":"L","o":"individual","sf":19,"v":100}}]}