{"type":"FeatureCollection","features":[{"type":"Feature","geometry":{"type":"Point","coordinates":[-79.80376,40.22794]},"properties":{"p":"1903D00025000000","a":"WILLIAM ST","m":"Elizabeth Twp","u":"C","o":"corp","sf":802376,"v":23000}},{"type":"Feature","geometry":{"type":"Point","coordinates":[-79.80318,40.22304]},"properties":{"p":"1903L00028000000","a":"WEDDELL RD","m":"Elizabeth Twp","u":"C","o":"individual","sf":1022353,"v":34000}},{"type":"Feature","geometry":{"type":"Point","coordinates":[-79.81005,40.22147]},"properties":{"p":"1903K00141000000","a":"WEDDELL RD","m":"Elizabeth Twp","u":"C","o":"corp","sf":914760,"v":65100}},{"type":"Feature","geometry":{"type":"Point","coordinates":[-79.80128,40.22798]},"properties":{"p":"1903D00075000000","a":"WILLIAMS DR","m":"Elizabeth Twp","u":"C","o":"corp","sf":130680,"v":4500}},{"type":"Feature","geometry":{"type":"Point","coordinates":[-79.81794,40.22799]},"properties":{"p":"1904D00135000000","a":"SKILLET HILL RD","m":"Elizabeth Twp","u":"L","o":"individual","sf":13068,"v":1200}},{"type":"Feature","geometry":{"type":"Point","coordinates":[-79.81743,40.22406]},"properties":{"p":"1904H00018000000","a":"WEDDELL RD","m":"Elizabeth Twp","u":"L","o":"individual","sf":9876,"v":900}},{"type":"Feature","geometry":{"type":"Point","coordinates":[-79.81856,40.22504]},"properties":{"p":"1904H00227000000","a":"SKILLET HILL RD","m":"Elizabeth Twp","u":"L","o":"individual","sf":112820,"v":43500}},{"type":"Feature","geometry":{"type":"Point","coordinates":[-79.81897,40.22589]},"properties":{"p":"1904H00257000000","a":"3100 SKILLET HILL RD","m":"Elizabeth Twp","u":"L","o":"individual","sf":86249,"v":1000}},{"type":"Feature","geometry":{"type":"Point","coordinates":[-79.81973,40.22605]},"properties":{"p":"1904H00275000000","a":"LONG HOLLOW RD","m":"Elizabeth Twp","u":"L","o":"individual","sf":44126,"v":37200}},{"type":"Feature","geometry":{"type":"Point","coordinates":[-79.81794,40.2207]},"properties":{"p":"1904S00074000000","a":"SKILLET HILL RD","m":"Elizabeth Twp","u":"L","o":"individual","sf":172933,"v":11900}},{"type":"Feature","geometry":{"type":"Point","coordinates":[-79.81767,40.21948]},"properties":{"p":"1904S00183000000","a":"SKILLET HILL RD","m":"Elizabeth Twp","u":"L","o":"individual","sf":181915,"v":15200}},{"type":"Feature","geometry":{"type":"Point","coordinates":[-79.81576,40.21643]},"properties":{"p":"2082E00010000000","a":"WEST NEWTON RD","m":"Elizabeth Twp","u":"L","o":"individual","sf":107463,"v":10000}},{"type":"Feature","geometry":{"type":"Point","coordinates":[-79.81952,40.22086]},"properties":{"p":"1904M00167000000","a":"SKILLET HILL RD","m":"Elizabeth Twp","u":"L","o":"individual","sf":405587,"v":27900}},{"type":"Feature","geometry":{"type":"Point","coordinates":[-79.81983,40.22312]},"properties":{"p":"1904M00387000000","a":"LONG HOLLOW RD","m":"Elizabeth Twp","u":"L","o":"corp","sf":5401,"v":500}},{"type":"Feature","geometry":{"type":"Point","coordinates":[-79.81937,40.22403]},"properties":{"p":"1904M00392000000","a":"LONG HOLLOW RD","m":"Elizabeth Twp","u":"L","o":"individual","sf":87120,"v":8000}},{"type":"Feature","geometry":{"type":"Point","coordinates":[-79.80008,40.22889]},"properties":{"p":"1732S00006000000","a":"MARGARET ST","m":"Elizabeth Twp","u":"L","o":"individual","sf":13088,"v":4000}},{"type":"Feature","geometry":{"type":"Point","coordinates":[-79.80007,40.22972]},"properties":{"p":"1732S00194000000","a":"SMITHDALE RD","m":"Elizabeth Twp","u":"L","o":"individual","sf":6945,"v":2200}},{"type":"Feature","geometry":{"type":"Point","coordinates":[-79.80096,40.22993]},"properties":{"p":"1732S00216000000","a":"SMITHDALE RD","m":"Elizabeth Twp","u":"L","o":"individual","sf":8727,"v":14300}},{"type":"Feature","geometry":{"type":"Point","coordinates":[-79.81986,40.22704]},"properties":{"p":"1904D00386000000","a":"LONG HOLLOW RD","m":"Elizabeth Twp","u":"L","o":"individual","sf":115434,"v":43800}},{"type":"Feature","geometry":{"type":"Point","coordinates":[-79.81787,40.2216]},"properties":{"p":"1904M00054000000","a":"SKILLET HILL RD","m":"Elizabeth Twp","u":"L","o":"individual","sf":77319,"v":22800}},{"type":"Feature","geometry":{"type":"Point","coordinates":[-79.81788,40.22256]},"properties":{"p":"1904M00129000000","a":"SKILLET HILL RD","m":"Elizabeth Twp","u":"L","o":"individual","sf":16887,"v":1500}},{"type":"Feature","geometry":{"type":"Point","coordinates":[-79.80601,40.2254]},"properties":{"p":"1903G00003000000","a":"WEDDELL RD","m":"Elizabeth Twp","u":"L","o":"individual","sf":1987,"v":200}},{"type":"Feature","geometry":{"type":"Point","coordinates":[-79.80922,40.22698]},"properties":{"p":"1903B00020000000","a":"WEDDELL RD","m":"Elizabeth Twp","u":"L","o":"individual","sf":23822,"v":2100}},{"type":"Feature","geometry":{"type":"Point","coordinates":[-79.81971,40.22552]},"properties":{"p":"1904H00294000000","a":"LONG HOLLOW RD","m":"Elizabeth Twp","u":"L","o":"individual","sf":43560,"v":37200}},{"type":"Feature","geometry":{"type":"Point","coordinates":[-79.81648,40.22116]},"properties":{"p":"1904S00056000000","a":"SKILLET HILL RD","m":"Elizabeth Twp","u":"L","o":"individual","sf":73094,"v":22400}}]}