{"type":"FeatureCollection","features":[{"type":"Feature","geometry":{"type":"Point","coordinates":[-79.81513,40.26955]},"properties":{"p":"1128N00200000000","a":"ROCK RUN RD","m":"Elizabeth Twp","u":"L","o":"corp","sf":11761,"v":1300}},{"type":"Feature","geometry":{"type":"Point","coordinates":[-79.80146,40.26956]},"properties":{"p":"1128S00218000000","a":"BOYDS HOLLOW RD","m":"Elizabeth Twp","u":"L","o":"corp","sf":32670,"v":500}},{"type":"Feature","geometry":{"type":"Point","coordinates":[-79.80235,40.26865]},"properties":{"p":"1128S00254000000","a":"BOYDS HOLLOW RD","m":"Elizabeth Twp","u":"L","o":"corp","sf":43560,"v":500}},{"type":"Feature","geometry":{"type":"Point","coordinates":[-79.80538,40.26553]},"properties":{"p":"1267G00216000000","a":"BOYDS HOLLOW RD","m":"Elizabeth Twp","u":"L","o":"corp","sf":36839,"v":11800}},{"type":"Feature","geometry":{"type":"Point","coordinates":[-79.80047,40.25136]},"properties":{"p":"1414S00166000000","a":"BLYTHEDALE RD","m":"Elizabeth Twp","u":"L","o":"individual","sf":150413,"v":3400}},{"type":"Feature","geometry":{"type":"Point","coordinates":[-79.81265,40.25341]},"properties":{"p":"1414E00027000000","a":"1390 FALLEN TIMBER RD","m":"Elizabeth Twp","u":"L","o":"individual","sf":9031,"v":800}},{"type":"Feature","geometry":{"type":"Point","coordinates":[-79.81347,40.25334]},"properties":{"p":"1414E00042000000","a":"FALLEN TIMBER RD","m":"Elizabeth Twp","u":"L","o":"individual","sf":43560,"v":37900}},{"type":"Feature","geometry":{"type":"Point","coordinates":[-79.81611,40.25439]},"properties":{"p":"1414E00068000000","a":"1315 FALLEN TIMBER RD","m":"Elizabeth Twp","u":"L","o":"individual","sf":109379,"v":10000}},{"type":"Feature","geometry":{"type":"Point","coordinates":[-79.81559,40.2545]},"properties":{"p":"1414E00084000000","a":"FALLEN TIMBER RD","m":"Elizabeth Twp","u":"L","o":"individual","sf":47480,"v":4400}},{"type":"Feature","geometry":{"type":"Point","coordinates":[-79.80045,40.25433]},"properties":{"p":"1414H00037000000","a":"FALLEN TIMBER RD","m":"Elizabeth Twp","u":"L","o":"corp","sf":11282,"v":1000}},{"type":"Feature","geometry":{"type":"Point","coordinates":[-79.80483,40.26573]},"properties":{"p":"1267C00024000000","a":"BOYDS HOLLOW RD","m":"Elizabeth Twp","u":"L","o":"corp","sf":14972,"v":9900}},{"type":"Feature","geometry":{"type":"Point","coordinates":[-79.80315,40.26803]},"properties":{"p":"1267D00338000000","a":"BOYDS HOLLOW RD","m":"Elizabeth Twp","u":"L","o":"corp","sf":21780,"v":500}},{"type":"Feature","geometry":{"type":"Point","coordinates":[-79.80269,40.26812]},"properties":{"p":"1267D00341000000","a":"BOYDS HOLLOW RD","m":"Elizabeth Twp","u":"L","o":"corp","sf":65340,"v":500}},{"type":"Feature","geometry":{"type":"Point","coordinates":[-79.80213,40.25042]},"properties":{"p":"1414S00261000000","a":"BLYTHEDALE RD","m":"Elizabeth Twp","u":"L","o":"individual","sf":43604,"v":37200}},{"type":"Feature","geometry":{"type":"Point","coordinates":[-79.80243,40.25037]},"properties":{"p":"1414S00261000100","a":"1630 BLYTHEDALE RD","m":"Elizabeth Twp","u":"L","o":"individual","sf":2854,"v":300}},{"type":"Feature","geometry":{"type":"Point","coordinates":[-79.81824,40.25268]},"properties":{"p":"1415M00186000000","a":"NICHOLS HILL RD","m":"Elizabeth Twp","u":"L","o":"individual","sf":3571,"v":300}},{"type":"Feature","geometry":{"type":"Point","coordinates":[-79.81268,40.25379]},"properties":{"p":"1414E00020000000","a":"1408 FALLEN TIMBER RD","m":"Elizabeth Twp","u":"L","o":"individual","sf":4431,"v":400}},{"type":"Feature","geometry":{"type":"Point","coordinates":[-79.81705,40.25428]},"properties":{"p":"1415H00046000000","a":"FALLEN TIMBER RD","m":"Elizabeth Twp","u":"L","o":"individual","sf":43996,"v":4000}},{"type":"Feature","geometry":{"type":"Point","coordinates":[-79.81256,40.25342]},"properties":{"p":"1414J00020000000","a":"1418 FALLEN TIMBER RD","m":"Elizabeth Twp","u":"L","o":"individual","sf":2518,"v":200}},{"type":"Feature","geometry":{"type":"Point","coordinates":[-79.81248,40.25319]},"properties":{"p":"1414J00022000000","a":"1420 FALLEN TIMBER RD","m":"Elizabeth Twp","u":"L","o":"individual","sf":1825,"v":200}},{"type":"Feature","geometry":{"type":"Point","coordinates":[-79.80188,40.26902]},"properties":{"p":"1128S00237000000","a":"BOYDS HOLLOW RD","m":"Elizabeth Twp","u":"L","o":"corp","sf":44736,"v":500}},{"type":"Feature","geometry":{"type":"Point","coordinates":[-79.80603,40.26539]},"properties":{"p":"1267G00228000000","a":"BOYDS HOLLOW RD","m":"Elizabeth Twp","u":"L","o":"corp","sf":13388,"v":4400}},{"type":"Feature","geometry":{"type":"Point","coordinates":[-79.81889,40.25826]},"properties":{"p":"1415D00160000000","a":"1100 PATTERSON RD","m":"Elizabeth Twp","u":"B","o":"individual","sf":466179,"v":16000}}]}