{"type":"FeatureCollection","features":[{"type":"Feature","geometry":{"type":"Point","coordinates":[-79.81069,40.29371]},"properties":{"p":"0874F00283000000","a":"GREENOCK BUENA VISTA RD","m":"Elizabeth Twp","u":"C","o":"corp","sf":21785,"v":31400}},{"type":"Feature","geometry":{"type":"Point","coordinates":[-79.80378,40.29728]},"properties":{"p":"0759S00349000000","a":"414 RAILROAD ST","m":"South Versailles","u":"C","o":"corp","sf":7495,"v":4400}},{"type":"Feature","geometry":{"type":"Point","coordinates":[-79.80327,40.30055]},"properties":{"p":"0759L00016000000","a":"TOURMAN ST","m":"South Versailles","u":"C","o":"corp","sf":46609,"v":28400}},{"type":"Feature","geometry":{"type":"Point","coordinates":[-79.8096,40.30193]},"properties":{"p":"0759K00363000000","a":"BUNKER HILL RD","m":"Elizabeth Twp","u":"L","o":"individual","sf":3591,"v":300}},{"type":"Feature","geometry":{"type":"Point","coordinates":[-79.81425,40.29009]},"properties":{"p":"0874J00045000000","a":"DUNCAN STATION RD","m":"Elizabeth Twp","u":"L","o":"individual","sf":4650,"v":400}},{"type":"Feature","geometry":{"type":"Point","coordinates":[-79.80934,40.30416]},"properties":{"p":"0759F00131000000","a":"BUNKER HILL RD","m":"Elizabeth Twp","u":"L","o":"individual","sf":31605,"v":27800}},{"type":"Feature","geometry":{"type":"Point","coordinates":[-79.81898,40.29496]},"properties":{"p":"0875D00376000000","a":"MOUNT VERNON DR","m":"Elizabeth Twp","u":"L","o":"individual","sf":2864,"v":3100}},{"type":"Feature","geometry":{"type":"Point","coordinates":[-79.80573,40.30387]},"properties":{"p":"0759G00270000000","a":"HILL ST","m":"Elizabeth Twp","u":"L","o":"individual","sf":51910,"v":37900}},{"type":"Feature","geometry":{"type":"Point","coordinates":[-79.8066,40.30436]},"properties":{"p":"0759G00330000000","a":"BUNKER HILL RD","m":"Elizabeth Twp","u":"L","o":"individual","sf":71874,"v":39800}},{"type":"Feature","geometry":{"type":"Point","coordinates":[-79.80777,40.30281]},"properties":{"p":"0759G00344000000","a":"NO SIDE P LE RR","m":"Elizabeth Twp","u":"L","o":"individual","sf":87120,"v":6000}},{"type":"Feature","geometry":{"type":"Point","coordinates":[-79.8072,40.30455]},"properties":{"p":"0759G00362000000","a":"BUNKER HILL RD","m":"Elizabeth Twp","u":"L","o":"individual","sf":48264,"v":37600}},{"type":"Feature","geometry":{"type":"Point","coordinates":[-79.80461,40.29331]},"properties":{"p":"0874G00049000000","a":"GREENOCK BUENA VISTA RD","m":"Elizabeth Twp","u":"L","o":"individual","sf":290240,"v":6600}},{"type":"Feature","geometry":{"type":"Point","coordinates":[-79.81327,40.29021]},"properties":{"p":"0874J00012000000","a":"GREENOCK BUENA VISTA RD","m":"Elizabeth Twp","u":"L","o":"individual","sf":4013,"v":4300}},{"type":"Feature","geometry":{"type":"Point","coordinates":[-79.8184,40.30904]},"properties":{"p":"0653S00080000000","a":"GOLFVIEW DR","m":"Elizabeth Twp","u":"L","o":"individual","sf":6000,"v":8800}},{"type":"Feature","geometry":{"type":"Point","coordinates":[-79.8198,40.30274]},"properties":{"p":"0760H00351000000","a":"RENZIE RD","m":"Elizabeth Twp","u":"L","o":"individual","sf":63162,"v":5800}},{"type":"Feature","geometry":{"type":"Point","coordinates":[-79.81974,40.3023]},"properties":{"p":"0760H00371000000","a":"TURKEYFOOT RD","m":"Elizabeth Twp","u":"L","o":"individual","sf":6595,"v":600}},{"type":"Feature","geometry":{"type":"Point","coordinates":[-79.8127,40.30463]},"properties":{"p":"0759A00135000000","a":"GOLFVIEW DR","m":"Elizabeth Twp","u":"L","o":"individual","sf":17268,"v":25000}},{"type":"Feature","geometry":{"type":"Point","coordinates":[-79.81966,40.29294]},"properties":{"p":"0875H00297000000","a":"LEBANON DR","m":"Elizabeth Twp","u":"L","o":"individual","sf":11026,"v":25000}},{"type":"Feature","geometry":{"type":"Point","coordinates":[-79.81949,40.30191]},"properties":{"p":"0760M00237000000","a":"RENZIE RD","m":"Elizabeth Twp","u":"L","o":"individual","sf":19584,"v":1800}},{"type":"Feature","geometry":{"type":"Point","coordinates":[-79.81884,40.30166]},"properties":{"p":"0760M00241000000","a":"RENZIE RD","m":"Elizabeth Twp","u":"L","o":"individual","sf":8233,"v":7300}},{"type":"Feature","geometry":{"type":"Point","coordinates":[-79.80896,40.29318]},"properties":{"p":"0874F00073000000","a":"GREENOCK BUENA VISTA RD","m":"Elizabeth Twp","u":"L","o":"individual","sf":38880,"v":15000}},{"type":"Feature","geometry":{"type":"Point","coordinates":[-79.81128,40.29072]},"properties":{"p":"0874K00060000000","a":"GREENOCK BUENA VISTA RD","m":"Elizabeth Twp","u":"L","o":"individual","sf":1500,"v":1600}},{"type":"Feature","geometry":{"type":"Point","coordinates":[-79.81076,40.29053]},"properties":{"p":"0874K00073000000","a":"GREENOCK BUENA VISTA RD","m":"Elizabeth Twp","u":"L","o":"individual","sf":66821,"v":31000}},{"type":"Feature","geometry":{"type":"Point","coordinates":[-79.81036,40.29044]},"properties":{"p":"0874K00087000000","a":"GREENOCK BUENA VISTA RD","m":"Elizabeth Twp","u":"L","o":"individual","sf":38191,"v":3400}},{"type":"Feature","geometry":{"type":"Point","coordinates":[-79.81003,40.29008]},"properties":{"p":"0874K00096000000","a":"COLONIAL DR","m":"Elizabeth Twp","u":"L","o":"individual","sf":64382,"v":17800}},{"type":"Feature","geometry":{"type":"Point","coordinates":[-79.80697,40.29146]},"properties":{"p":"0874L00246000000","a":"5 YORKTOWN PL","m":"Elizabeth Twp","u":"L","o":"individual","sf":1725,"v":1900}},{"type":"Feature","geometry":{"type":"Point","coordinates":[-79.80813,40.29675]},"properties":{"p":"0874C00394000000","a":"LE PGH","m":"Elizabeth Twp","u":"L","o":"individual","sf":566825,"v":13200}},{"type":"Feature","geometry":{"type":"Point","coordinates":[-79.80888,40.2927]},"properties":{"p":"0874E00099000000","a":"GREENOCK BUENA VISTA RD","m":"Elizabeth Twp","u":"L","o":"individual","sf":19602,"v":34700}},{"type":"Feature","geometry":{"type":"Point","coordinates":[-79.8029,40.29043]},"properties":{"p":"0874M00056000000","a":"MOHAWK DR","m":"Elizabeth Twp","u":"L","o":"individual","sf":13130,"v":26100}},{"type":"Feature","geometry":{"type":"Point","coordinates":[-79.80914,40.30679]},"properties":{"p":"0759B00111000000","a":"FRIENDSHIP DR","m":"Elizabeth Twp","u":"L","o":"individual","sf":12514,"v":26100}},{"type":"Feature","geometry":{"type":"Point","coordinates":[-79.80653,40.2904]},"properties":{"p":"0874L00151000000","a":"COLONIAL DR","m":"Elizabeth Twp","u":"L","o":"individual","sf":8201,"v":8900}},{"type":"Feature","geometry":{"type":"Point","coordinates":[-79.80655,40.30534]},"properties":{"p":"0759C00173000000","a":"BUNKER HILL RD","m":"Elizabeth Twp","u":"L","o":"individual","sf":53230,"v":38100}},{"type":"Feature","geometry":{"type":"Point","coordinates":[-79.80731,40.30503]},"properties":{"p":"0759C00215000000","a":"PENHURST DR","m":"Elizabeth Twp","u":"L","o":"corp","sf":45302,"v":37300}},{"type":"Feature","geometry":{"type":"Point","coordinates":[-79.80326,40.29127]},"properties":{"p":"0874M00107000000","a":"MOHAWK DR","m":"Elizabeth Twp","u":"L","o":"individual","sf":19336,"v":26700}},{"type":"Feature","geometry":{"type":"Point","coordinates":[-79.80361,40.29189]},"properties":{"p":"0874M00139000000","a":"MOHAWK DR","m":"Elizabeth Twp","u":"L","o":"individual","sf":7500,"v":1500}},{"type":"Feature","geometry":{"type":"Point","coordinates":[-79.80193,40.29179]},"properties":{"p":"0874M00149000000","a":"MOHAWK DR","m":"Elizabeth Twp","u":"L","o":"individual","sf":418611,"v":4000}},{"type":"Feature","geometry":{"type":"Point","coordinates":[-79.81906,40.29288]},"properties":{"p":"0875H00005000000","a":"BEA MAR DR","m":"Elizabeth Twp","u":"L","o":"individual","sf":5072,"v":500}},{"type":"Feature","geometry":{"type":"Point","coordinates":[-79.81732,40.29227]},"properties":{"p":"0875H00030000000","a":"DUNCAN STATION RD","m":"Elizabeth Twp","u":"L","o":"individual","sf":19283,"v":26700}},{"type":"Feature","geometry":{"type":"Point","coordinates":[-79.81998,40.29119]},"properties":{"p":"0875M00035000000","a":"2311 SHORT DR","m":"Elizabeth Twp","u":"L","o":"corp","sf":22795,"v":2100}},{"type":"Feature","geometry":{"type":"Point","coordinates":[-79.81351,40.30574]},"properties":{"p":"0759B00252000000","a":"GREENOCK BUENA VISTA RD","m":"Elizabeth Twp","u":"L","o":"individual","sf":340160,"v":62300}},{"type":"Feature","geometry":{"type":"Point","coordinates":[-79.81828,40.29179]},"properties":{"p":"0875M00022000000","a":"BEA MAR DR","m":"Elizabeth Twp","u":"L","o":"individual","sf":48456,"v":29400}},{"type":"Feature","geometry":{"type":"Point","coordinates":[-79.81294,40.29168]},"properties":{"p":"0874K00394000000","a":"GREENOCK BUENA VISTA RD","m":"Elizabeth Twp","u":"L","o":"individual","sf":9490,"v":11900}},{"type":"Feature","geometry":{"type":"Point","coordinates":[-79.80099,40.30742]},"properties":{"p":"0652S00021000000","a":"ROBIN RD","m":"Elizabeth Twp","u":"L","o":"individual","sf":145926,"v":19700}},{"type":"Feature","geometry":{"type":"Point","coordinates":[-79.80945,40.30838]},"properties":{"p":"0652P00161000000","a":"GREENOCK BUENA VISTA RD","m":"Elizabeth Twp","u":"L","o":"individual","sf":8900,"v":9600}},{"type":"Feature","geometry":{"type":"Point","coordinates":[-79.81611,40.30993]},"properties":{"p":"0652J00373000000","a":"THUNDERBIRD DR","m":"Elizabeth Twp","u":"L","o":"individual","sf":10325,"v":32600}},{"type":"Feature","geometry":{"type":"Point","coordinates":[-79.8046,40.3081]},"properties":{"p":"0652R00367000000","a":"EVERGLADE DR","m":"Elizabeth Twp","u":"L","o":"individual","sf":7500,"v":8100}},{"type":"Feature","geometry":{"type":"Point","coordinates":[-79.80844,40.30719]},"properties":{"p":"0652P00003000000","a":"FRIENDSHIP DR","m":"Elizabeth Twp","u":"L","o":"individual","sf":10501,"v":24400}},{"type":"Feature","geometry":{"type":"Point","coordinates":[-79.80538,40.30875]},"properties":{"p":"0652R00288000000","a":"822 EVERGLADE DR","m":"Elizabeth Twp","u":"L","o":"individual","sf":9143,"v":800}},{"type":"Feature","geometry":{"type":"Point","coordinates":[-79.81009,40.30855]},"properties":{"p":"0652P00223000000","a":"1514 GREENOCK BUENA VISTA RD","m":"Elizabeth Twp","u":"L","o":"individual","sf":2610,"v":2800}},{"type":"Feature","geometry":{"type":"Point","coordinates":[-79.81034,40.30815]},"properties":{"p":"0652P00235000000","a":"1514 GREENOCK BUENA VISTA RD","m":"Elizabeth Twp","u":"L","o":"individual","sf":52272,"v":29700}},{"type":"Feature","geometry":{"type":"Point","coordinates":[-79.80778,40.30716]},"properties":{"p":"0652R00062000000","a":"OBERDICK DR","m":"Elizabeth Twp","u":"L","o":"individual","sf":65079,"v":30900}},{"type":"Feature","geometry":{"type":"Point","coordinates":[-79.80113,40.30995]},"properties":{"p":"0652M00259000000","a":"ROBIN RD","m":"Elizabeth Twp","u":"L","o":"individual","sf":28816,"v":2600}},{"type":"Feature","geometry":{"type":"Point","coordinates":[-79.80281,40.29588]},"properties":{"p":"0874D00127000000","a":"HAGENDON ST","m":"South Versailles","u":"L","o":"individual","sf":11632,"v":7600}},{"type":"Feature","geometry":{"type":"Point","coordinates":[-79.80168,40.29411]},"properties":{"p":"0874H00062000000","a":"RAILROAD ST","m":"South Versailles","u":"L","o":"individual","sf":12284,"v":1100}},{"type":"Feature","geometry":{"type":"Point","coordinates":[-79.80174,40.29432]},"properties":{"p":"0874H00071000000","a":"RAILROAD ST","m":"South Versailles","u":"L","o":"individual","sf":7052,"v":600}},{"type":"Feature","geometry":{"type":"Point","coordinates":[-79.80163,40.29461]},"properties":{"p":"0874H00083000000","a":"RAILROAD ST","m":"South Versailles","u":"L","o":"individual","sf":15860,"v":1100}},{"type":"Feature","geometry":{"type":"Point","coordinates":[-79.80093,40.29447]},"properties":{"p":"0874H00091000000","a":"RAILROAD ST","m":"South Versailles","u":"L","o":"individual","sf":10890,"v":1000}},{"type":"Feature","geometry":{"type":"Point","coordinates":[-79.80094,40.29426]},"properties":{"p":"0874H00097000000","a":"205 RAILROAD ST","m":"South Versailles","u":"L","o":"individual","sf":5000,"v":16300}},{"type":"Feature","geometry":{"type":"Point","coordinates":[-79.80104,40.29399]},"properties":{"p":"0874H00103000000","a":"RAILROAD ST","m":"South Versailles","u":"L","o":"individual","sf":9975,"v":900}},{"type":"Feature","geometry":{"type":"Point","coordinates":[-79.80086,40.29364]},"properties":{"p":"0874H00121000000","a":"2ND ST","m":"South Versailles","u":"L","o":"individual","sf":20000,"v":26000}},{"type":"Feature","geometry":{"type":"Point","coordinates":[-79.80068,40.29397]},"properties":{"p":"0874H00128000000","a":"2ND ST","m":"South Versailles","u":"L","o":"individual","sf":20100,"v":26000}},{"type":"Feature","geometry":{"type":"Point","coordinates":[-79.80058,40.29424]},"properties":{"p":"0874H00139000000","a":"2ND ST","m":"South Versailles","u":"L","o":"individual","sf":5000,"v":16300}},{"type":"Feature","geometry":{"type":"Point","coordinates":[-79.80058,40.29443]},"properties":{"p":"0874H00144000000","a":"2ND ST","m":"South Versailles","u":"L","o":"individual","sf":10638,"v":1000}},{"type":"Feature","geometry":{"type":"Point","coordinates":[-79.80247,40.30292]},"properties":{"p":"0759H00201000000","a":"103 9TH ST","m":"South Versailles","u":"L","o":"individual","sf":11000,"v":1000}},{"type":"Feature","geometry":{"type":"Point","coordinates":[-79.8012,40.30336]},"properties":{"p":"0759H00240000000","a":"RAILROAD ST","m":"South Versailles","u":"L","o":"individual","sf":24000,"v":3500}},{"type":"Feature","geometry":{"type":"Point","coordinates":[-79.80019,40.30366]},"properties":{"p":"0759H00272000000","a":"924 RAILROAD ST","m":"South Versailles","u":"L","o":"individual","sf":24000,"v":2200}},{"type":"Feature","geometry":{"type":"Point","coordinates":[-79.80474,40.29872]},"properties":{"p":"0759R00034000000","a":"RAILROAD ST","m":"South Versailles","u":"L","o":"individual","sf":18000,"v":1600}},{"type":"Feature","geometry":{"type":"Point","coordinates":[-79.80466,40.29847]},"properties":{"p":"0759R00042000000","a":"RAILROAD ST","m":"South Versailles","u":"L","o":"individual","sf":20000,"v":1800}},{"type":"Feature","geometry":{"type":"Point","coordinates":[-79.80155,40.2953]},"properties":{"p":"0874D00218000000","a":"RAILROAD ST","m":"South Versailles","u":"L","o":"individual","sf":22500,"v":2000}},{"type":"Feature","geometry":{"type":"Point","coordinates":[-79.802,40.2975]},"properties":{"p":"0759S00322000000","a":"COULTER RD","m":"South Versailles","u":"L","o":"individual","sf":12173,"v":1100}},{"type":"Feature","geometry":{"type":"Point","coordinates":[-79.80256,40.29723]},"properties":{"p":"0759S00342000000","a":"4TH ST","m":"South Versailles","u":"L","o":"individual","sf":12256,"v":1100}},{"type":"Feature","geometry":{"type":"Point","coordinates":[-79.80246,40.29685]},"properties":{"p":"0874D00098000000","a":"HAGEDON ST","m":"South Versailles","u":"L","o":"individual","sf":9017,"v":5900}},{"type":"Feature","geometry":{"type":"Point","coordinates":[-79.80253,40.29624]},"properties":{"p":"0874D00124000000","a":"HAGENDON ST","m":"South Versailles","u":"L","o":"individual","sf":12083,"v":7900}},{"type":"Feature","geometry":{"type":"Point","coordinates":[-79.80018,40.30477]},"properties":{"p":"0759D00023000000","a":"RAILROAD ST","m":"South Versailles","u":"L","o":"individual","sf":62726,"v":29900}},{"type":"Feature","geometry":{"type":"Point","coordinates":[-79.80462,40.30268]},"properties":{"p":"0759G00025000000","a":"RAILROAD ST","m":"South Versailles","u":"L","o":"individual","sf":87120,"v":32200}},{"type":"Feature","geometry":{"type":"Point","coordinates":[-79.80387,40.30324]},"properties":{"p":"0759H00018000000","a":"RAILROAD ST","m":"South Versailles","u":"L","o":"individual","sf":54014,"v":13500}},{"type":"Feature","geometry":{"type":"Point","coordinates":[-79.80259,40.30388]},"properties":{"p":"0759H00054000000","a":"RAILROAD ST","m":"South Versailles","u":"L","o":"individual","sf":46130,"v":4200}},{"type":"Feature","geometry":{"type":"Point","coordinates":[-79.80066,40.30462]},"properties":{"p":"0759H00106000000","a":"RAILROAD ST","m":"South Versailles","u":"L","o":"individual","sf":31000,"v":27000}},{"type":"Feature","geometry":{"type":"Point","coordinates":[-79.8038,40.30218]},"properties":{"p":"0759H00147000000","a":"RAILROAD ST","m":"South Versailles","u":"L","o":"individual","sf":13618,"v":1200}},{"type":"Feature","geometry":{"type":"Point","coordinates":[-79.80045,40.29669]},"properties":{"p":"0874D00326000000","a":"TOURMAN ST","m":"South Versailles","u":"L","o":"individual","sf":25650,"v":2300}},{"type":"Feature","geometry":{"type":"Point","coordinates":[-79.80228,40.29429]},"properties":{"p":"0874H00045000000","a":"RAILROAD ST","m":"South Versailles","u":"L","o":"individual","sf":22844,"v":2100}},{"type":"Feature","geometry":{"type":"Point","coordinates":[-79.80144,40.29384]},"properties":{"p":"0874H00051000000","a":"RAILROAD ST","m":"South Versailles","u":"L","o":"individual","sf":22000,"v":2000}},{"type":"Feature","geometry":{"type":"Point","coordinates":[-79.80131,40.2941]},"properties":{"p":"0874H00058000000","a":"CHERRY ALY","m":"South Versailles","u":"L","o":"individual","sf":11021,"v":1000}},{"type":"Feature","geometry":{"type":"Point","coordinates":[-79.80543,40.30176]},"properties":{"p":"0759L00172000000","a":"RAILROAD ST","m":"South Versailles","u":"L","o":"individual","sf":29000,"v":10000}},{"type":"Feature","geometry":{"type":"Point","coordinates":[-79.80572,40.30113]},"properties":{"p":"0759L00196000000","a":"RAILROAD ST","m":"South Versailles","u":"L","o":"individual","sf":25000,"v":2300}},{"type":"Feature","geometry":{"type":"Point","coordinates":[-79.80583,40.30084]},"properties":{"p":"0759L00207000000","a":"RAILROAD ST","m":"South Versailles","u":"L","o":"individual","sf":25000,"v":2300}},{"type":"Feature","geometry":{"type":"Point","coordinates":[-79.80594,40.30057]},"properties":{"p":"0759L00217000000","a":"RAILROAD ST","m":"South Versailles","u":"L","o":"individual","sf":26000,"v":2300}},{"type":"Feature","geometry":{"type":"Point","coordinates":[-79.80603,40.3001]},"properties":{"p":"0759L00240000000","a":"RAILROAD ST","m":"South Versailles","u":"L","o":"individual","sf":54014,"v":29100}},{"type":"Feature","geometry":{"type":"Point","coordinates":[-79.80054,40.2987]},"properties":{"p":"0759S00176000000","a":"COULTER RD","m":"South Versailles","u":"L","o":"individual","sf":28460,"v":2600}},{"type":"Feature","geometry":{"type":"Point","coordinates":[-79.80316,40.29822]},"properties":{"p":"0759S00299000000","a":"3RD ST","m":"South Versailles","u":"L","o":"individual","sf":20435,"v":26000}},{"type":"Feature","geometry":{"type":"Point","coordinates":[-79.80499,40.29692]},"properties":{"p":"0874C00014000000","a":"RAILROAD ST","m":"South Versailles","u":"L","o":"individual","sf":44867,"v":28300}},{"type":"Feature","geometry":{"type":"Point","coordinates":[-79.80469,40.29658]},"properties":{"p":"0874C00035000000","a":"RAILROAD ST","m":"South Versailles","u":"L","o":"individual","sf":23000,"v":26300}},{"type":"Feature","geometry":{"type":"Point","coordinates":[-79.80277,40.29499]},"properties":{"p":"0874D00046000000","a":"RAILROAD ST","m":"South Versailles","u":"L","o":"individual","sf":33345,"v":3000}},{"type":"Feature","geometry":{"type":"Point","coordinates":[-79.80229,40.29496]},"properties":{"p":"0874D00051000000","a":"RAILROAD ST","m":"South Versailles","u":"L","o":"individual","sf":35815,"v":27400}},{"type":"Feature","geometry":{"type":"Point","coordinates":[-79.80364,40.2971]},"properties":{"p":"0874D00082000000","a":"414 RAILROAD ST","m":"South Versailles","u":"L","o":"individual","sf":7505,"v":700}},{"type":"Feature","geometry":{"type":"Point","coordinates":[-79.80029,40.29602]},"properties":{"p":"0874D00270000000","a":"2ND ST","m":"South Versailles","u":"L","o":"individual","sf":11091,"v":1000}},{"type":"Feature","geometry":{"type":"Point","coordinates":[-79.80056,40.30233]},"properties":{"p":"0759H00295000000","a":"TOURMAN ST","m":"South Versailles","u":"L","o":"individual","sf":41192,"v":3700}},{"type":"Feature","geometry":{"type":"Point","coordinates":[-79.80366,40.30011]},"properties":{"p":"0759L00010000000","a":"ROONEY ST","m":"South Versailles","u":"L","o":"individual","sf":65340,"v":30200}},{"type":"Feature","geometry":{"type":"Point","coordinates":[-79.80574,40.29815]},"properties":{"p":"0759R00173000000","a":"RAILROAD ST","m":"South Versailles","u":"L","o":"individual","sf":12500,"v":26500}},{"type":"Feature","geometry":{"type":"Point","coordinates":[-79.80558,40.29786]},"properties":{"p":"0759R00180000000","a":"RAILROAD ST","m":"South Versailles","u":"L","o":"individual","sf":21094,"v":1900}},{"type":"Feature","geometry":{"type":"Point","coordinates":[-79.80542,40.29757]},"properties":{"p":"0759R00193000000","a":"RAILROAD ST","m":"South Versailles","u":"L","o":"individual","sf":22806,"v":32900}},{"type":"Feature","geometry":{"type":"Point","coordinates":[-79.80521,40.29726]},"properties":{"p":"0759R00210000000","a":"RAILROAD ST","m":"South Versailles","u":"L","o":"individual","sf":11021,"v":30200}},{"type":"Feature","geometry":{"type":"Point","coordinates":[-79.80278,40.29914]},"properties":{"p":"0759S00121000000","a":"COULTER RD","m":"South Versailles","u":"L","o":"individual","sf":179990,"v":12300}},{"type":"Feature","geometry":{"type":"Point","coordinates":[-79.80407,40.30193]},"properties":{"p":"0759L00066000000","a":"TOURMAN ST","m":"South Versailles","u":"L","o":"individual","sf":15250,"v":1400}},{"type":"Feature","geometry":{"type":"Point","coordinates":[-79.8056,40.30139]},"properties":{"p":"0759L00184000000","a":"RAILROAD STREET REAR","m":"South Versailles","u":"L","o":"individual","sf":22000,"v":26200}},{"type":"Feature","geometry":{"type":"Point","coordinates":[-79.81848,40.30914]},"properties":{"p":"0653S00077000000","a":"822 GOLFVIEW DR","m":"Elizabeth Twp","u":"L","o":"individual","sf":6000,"v":8800}},{"type":"Feature","geometry":{"type":"Point","coordinates":[-79.80044,40.29786]},"properties":{"p":"0759S00252000000","a":"COULTER RD","m":"South Versailles","u":"L","o":"individual","sf":26411,"v":2400}},{"type":"Feature","geometry":{"type":"Point","coordinates":[-79.80127,40.30065]},"properties":{"p":"0759M00308000000","a":"HARRIS ST","m":"South Versailles","u":"L","o":"individual","sf":20000,"v":1800}},{"type":"Feature","geometry":{"type":"Point","coordinates":[-79.81526,40.30849]},"properties":{"p":"0652N00354000000","a":"BURNING TREE DR","m":"Elizabeth Twp","u":"L","o":"individual","sf":5700,"v":500}},{"type":"Feature","geometry":{"type":"Point","coordinates":[-79.80297,40.29635]},"properties":{"p":"0874D00121000000","a":"RAILROAD ST","m":"South Versailles","u":"L","o":"individual","sf":22500,"v":2000}},{"type":"Feature","geometry":{"type":"Point","coordinates":[-79.80081,40.29678]},"properties":{"p":"0874D00330000000","a":"TOURMAN ST","m":"South Versailles","u":"L","o":"individual","sf":33536,"v":3000}},{"type":"Feature","geometry":{"type":"Point","coordinates":[-79.80577,40.29829]},"properties":{"p":"0759R00166000000","a":"RAILROAD ST","m":"South Versailles","u":"L","o":"individual","sf":12250,"v":1100}},{"type":"Feature","geometry":{"type":"Point","coordinates":[-79.80307,40.3037]},"properties":{"p":"0759H00044000000","a":"RAILROAD ST","m":"South Versailles","u":"L","o":"individual","sf":23500,"v":800}},{"type":"Feature","geometry":{"type":"Point","coordinates":[-79.80453,40.29997]},"properties":{"p":"0759L00120000000","a":"TOURMAN ST","m":"South Versailles","u":"L","o":"individual","sf":22045,"v":8700}},{"type":"Feature","geometry":{"type":"Point","coordinates":[-79.80525,40.30924]},"properties":{"p":"0652R00313000000","a":"EVERGLADE DR","m":"Elizabeth Twp","u":"L","o":"individual","sf":9000,"v":9700}},{"type":"Feature","geometry":{"type":"Point","coordinates":[-79.80004,40.29633]},"properties":{"p":"0874D00320000000","a":"TOURMAN ST","m":"South Versailles","u":"L","o":"individual","sf":18800,"v":7000}},{"type":"Feature","geometry":{"type":"Point","coordinates":[-79.81995,40.29061]},"properties":{"p":"0875M00034000000","a":"2312 SHORT DR","m":"Elizabeth Twp","u":"B","o":"corp","sf":60456,"v":5400}}]}