{"type":"FeatureCollection","features":[{"type":"Feature","geometry":{"type":"Point","coordinates":[-79.8189,40.32585]},"properties":{"p":"0554D00221000000","a":"LONG RUN RD","m":"12th Ward  - McKEESPORT","u":"C","o":"corp","sf":250440,"v":46000}},{"type":"Feature","geometry":{"type":"Point","coordinates":[-79.81721,40.32262]},"properties":{"p":"0554H00027000000","a":"CENTER ST","m":"White Oak","u":"C","o":"corp","sf":44431,"v":1000}},{"type":"Feature","geometry":{"type":"Point","coordinates":[-79.81711,40.32942]},"properties":{"p":"0463M00330000000","a":"LONG RUN RD","m":"White Oak","u":"C","o":"individual","sf":94046,"v":50000}},{"type":"Feature","geometry":{"type":"Point","coordinates":[-79.80683,40.31854]},"properties":{"p":"0553R00245000000","a":"SMITHFIELD ST","m":"Elizabeth Twp","u":"C","o":"individual","sf":25700,"v":17000}},{"type":"Feature","geometry":{"type":"Point","coordinates":[-79.81133,40.3125]},"properties":{"p":"0652G00076000000","a":"CONSTITUTION BLVD","m":"Elizabeth Twp","u":"C","o":"corp","sf":497534,"v":158300}},{"type":"Feature","geometry":{"type":"Point","coordinates":[-79.80785,40.31069]},"properties":{"p":"0652L00398000000","a":"GREENOCK BUENA VISTA RD","m":"Elizabeth Twp","u":"C","o":"individual","sf":56863,"v":56100}},{"type":"Feature","geometry":{"type":"Point","coordinates":[-79.80039,40.31124]},"properties":{"p":"0652M00351000000","a":"1002 GREENOCK BUENA VISTA RD","m":"Elizabeth Twp","u":"C","o":"corp","sf":658,"v":100}},{"type":"Feature","geometry":{"type":"Point","coordinates":[-79.81729,40.32821]},"properties":{"p":"0463S00010000000","a":"2002 RIPPLE RD","m":"12th Ward  - McKEESPORT","u":"L","o":"corp","sf":12420,"v":4100}},{"type":"Feature","geometry":{"type":"Point","coordinates":[-79.81837,40.32125]},"properties":{"p":"0554M00151000000","a":"CENTER ST","m":"12th Ward  - McKEESPORT","u":"L","o":"individual","sf":7900,"v":2600}},{"type":"Feature","geometry":{"type":"Point","coordinates":[-79.81963,40.32012]},"properties":{"p":"0554M00225000000","a":"CENTER ST","m":"12th Ward  - McKEESPORT","u":"L","o":"corp","sf":252648,"v":17400}},{"type":"Feature","geometry":{"type":"Point","coordinates":[-79.818,40.32062]},"properties":{"p":"0554M00245000000","a":"CENTER ST","m":"12th Ward  - McKEESPORT","u":"L","o":"individual","sf":114432,"v":7900}},{"type":"Feature","geometry":{"type":"Point","coordinates":[-79.81721,40.32094]},"properties":{"p":"0554M00285000000","a":"CENTER ST","m":"12th Ward  - McKEESPORT","u":"L","o":"individual","sf":48352,"v":3300}},{"type":"Feature","geometry":{"type":"Point","coordinates":[-79.81908,40.32226]},"properties":{"p":"0554H00087000000","a":"CENTER ST","m":"12th Ward  - McKEESPORT","u":"L","o":"individual","sf":119354,"v":33500}},{"type":"Feature","geometry":{"type":"Point","coordinates":[-79.81863,40.32231]},"properties":{"p":"0554H00103000000","a":"CENTER ST","m":"12th Ward  - McKEESPORT","u":"L","o":"individual","sf":38911,"v":4200}},{"type":"Feature","geometry":{"type":"Point","coordinates":[-79.80875,40.32444]},"properties":{"p":"0553B00102000000","a":"CENTER ST","m":"White Oak","u":"L","o":"individual","sf":2320,"v":200}},{"type":"Feature","geometry":{"type":"Point","coordinates":[-79.81217,40.32602]},"properties":{"p":"0553B00377000000","a":"LEWIS ST","m":"White Oak","u":"L","o":"individual","sf":25637,"v":35500}},{"type":"Feature","geometry":{"type":"Point","coordinates":[-79.80509,40.32238]},"properties":{"p":"0553C00005000000","a":"CENTER ST EXT","m":"White Oak","u":"L","o":"corp","sf":2260764,"v":75500}},{"type":"Feature","geometry":{"type":"Point","coordinates":[-79.81464,40.32262]},"properties":{"p":"0553E00252000000","a":"CENTER ST","m":"White Oak","u":"L","o":"individual","sf":64033,"v":5900}},{"type":"Feature","geometry":{"type":"Point","coordinates":[-79.81434,40.32364]},"properties":{"p":"0553E00260000000","a":"1147 CENTER ST EXT","m":"White Oak","u":"L","o":"individual","sf":2073,"v":1800}},{"type":"Feature","geometry":{"type":"Point","coordinates":[-79.81386,40.32693]},"properties":{"p":"0552N00333000000","a":"RIPPLE RD","m":"White Oak","u":"L","o":"corp","sf":207468,"v":52200}},{"type":"Feature","geometry":{"type":"Point","coordinates":[-79.81051,40.32615]},"properties":{"p":"0553B00345000000","a":"LEWIS ST","m":"White Oak","u":"L","o":"individual","sf":44347,"v":37200}},{"type":"Feature","geometry":{"type":"Point","coordinates":[-79.81175,40.32651]},"properties":{"p":"0553B00355000000","a":"LEWIS ST","m":"White Oak","u":"L","o":"individual","sf":10185,"v":26400}},{"type":"Feature","geometry":{"type":"Point","coordinates":[-79.81171,40.32622]},"properties":{"p":"0553B00366000000","a":"2228 LEWIS ST","m":"White Oak","u":"L","o":"individual","sf":1150,"v":1000}},{"type":"Feature","geometry":{"type":"Point","coordinates":[-79.80649,40.32616]},"properties":{"p":"0553C00262000000","a":"CLARK ST","m":"White Oak","u":"L","o":"individual","sf":10988,"v":27100}},{"type":"Feature","geometry":{"type":"Point","coordinates":[-79.80751,40.32506]},"properties":{"p":"0553C00353000000","a":"CENTER ST","m":"White Oak","u":"L","o":"individual","sf":33169,"v":36200}},{"type":"Feature","geometry":{"type":"Point","coordinates":[-79.80788,40.3252]},"properties":{"p":"0553C00355000000","a":"CENTER ST","m":"White Oak","u":"L","o":"individual","sf":32828,"v":36200}},{"type":"Feature","geometry":{"type":"Point","coordinates":[-79.8119,40.32308]},"properties":{"p":"0553F00071000000","a":"STEPANIK RD","m":"White Oak","u":"L","o":"individual","sf":70567,"v":4500}},{"type":"Feature","geometry":{"type":"Point","coordinates":[-79.81013,40.32205]},"properties":{"p":"0553F00105000000","a":"W R OF W","m":"White Oak","u":"L","o":"individual","sf":108029,"v":43100}},{"type":"Feature","geometry":{"type":"Point","coordinates":[-79.80226,40.32371]},"properties":{"p":"0553H00114000000","a":"CENTER ST","m":"White Oak","u":"L","o":"individual","sf":30000,"v":28300}},{"type":"Feature","geometry":{"type":"Point","coordinates":[-79.81672,40.3224]},"properties":{"p":"0554H00052000000","a":"CENTER ST","m":"White Oak","u":"L","o":"individual","sf":66516,"v":39300}},{"type":"Feature","geometry":{"type":"Point","coordinates":[-79.81924,40.32972]},"properties":{"p":"0463M00342000000","a":"PRIVATE RD","m":"White Oak","u":"L","o":"individual","sf":10808,"v":3600}},{"type":"Feature","geometry":{"type":"Point","coordinates":[-79.80622,40.32409]},"properties":{"p":"0553C00015000000","a":"CENTER ST","m":"White Oak","u":"L","o":"individual","sf":17860,"v":5000}},{"type":"Feature","geometry":{"type":"Point","coordinates":[-79.80443,40.32492]},"properties":{"p":"0553C00104000000","a":"CENTER ST","m":"White Oak","u":"L","o":"individual","sf":111078,"v":35700}},{"type":"Feature","geometry":{"type":"Point","coordinates":[-79.80566,40.32606]},"properties":{"p":"0553C00230000000","a":"CLARK ST","m":"White Oak","u":"L","o":"individual","sf":158558,"v":14600}},{"type":"Feature","geometry":{"type":"Point","coordinates":[-79.80679,40.32494]},"properties":{"p":"0553C00232000000","a":"CLARK ST","m":"White Oak","u":"L","o":"individual","sf":65776,"v":4500}},{"type":"Feature","geometry":{"type":"Point","coordinates":[-79.81348,40.32351]},"properties":{"p":"0553E00262000000","a":"CENTER ST","m":"White Oak","u":"L","o":"individual","sf":129809,"v":27600}},{"type":"Feature","geometry":{"type":"Point","coordinates":[-79.81312,40.32399]},"properties":{"p":"0553E00264000000","a":"CENTER ST EXT","m":"White Oak","u":"L","o":"individual","sf":570,"v":100}},{"type":"Feature","geometry":{"type":"Point","coordinates":[-79.81656,40.32328]},"properties":{"p":"0553E00326000000","a":"CENTER ST","m":"White Oak","u":"L","o":"corp","sf":86249,"v":7900}},{"type":"Feature","geometry":{"type":"Point","coordinates":[-79.80858,40.32882]},"properties":{"p":"0552K00002000000","a":"LEWIS ST","m":"White Oak","u":"L","o":"individual","sf":21472,"v":35100}},{"type":"Feature","geometry":{"type":"Point","coordinates":[-79.80828,40.32927]},"properties":{"p":"0552K00006000000","a":"LEWIS ST","m":"White Oak","u":"L","o":"individual","sf":44518,"v":37300}},{"type":"Feature","geometry":{"type":"Point","coordinates":[-79.80809,40.32948]},"properties":{"p":"0552K00008000000","a":"LEWIS ST","m":"White Oak","u":"L","o":"individual","sf":36131,"v":36500}},{"type":"Feature","geometry":{"type":"Point","coordinates":[-79.81529,40.32454]},"properties":{"p":"0553A00140000000","a":"RIPPLE RD","m":"White Oak","u":"L","o":"corp","sf":251777,"v":15800}},{"type":"Feature","geometry":{"type":"Point","coordinates":[-79.81359,40.32445]},"properties":{"p":"0553A00200000000","a":"CENTER ST","m":"White Oak","u":"L","o":"individual","sf":25700,"v":35500}},{"type":"Feature","geometry":{"type":"Point","coordinates":[-79.81697,40.31374]},"properties":{"p":"0653H00146000000","a":"SMITHFIELD ST","m":"Elizabeth Twp","u":"L","o":"individual","sf":43560,"v":15000}},{"type":"Feature","geometry":{"type":"Point","coordinates":[-79.81897,40.31286]},"properties":{"p":"0653H00204000000","a":"CHESNEY ST","m":"Elizabeth Twp","u":"L","o":"individual","sf":12763,"v":4200}},{"type":"Feature","geometry":{"type":"Point","coordinates":[-79.81932,40.31308]},"properties":{"p":"0653H00109000000","a":"MEADE ST","m":"Elizabeth Twp","u":"L","o":"individual","sf":2820,"v":1000}},{"type":"Feature","geometry":{"type":"Point","coordinates":[-79.81866,40.31366]},"properties":{"p":"0653H00069000000","a":"MEADE ST","m":"Elizabeth Twp","u":"L","o":"individual","sf":797,"v":400}},{"type":"Feature","geometry":{"type":"Point","coordinates":[-79.81656,40.31071]},"properties":{"p":"0653M00064000000","a":"THUNDERBIRD DR","m":"Elizabeth Twp","u":"L","o":"individual","sf":50355,"v":38500}},{"type":"Feature","geometry":{"type":"Point","coordinates":[-79.81743,40.31047]},"properties":{"p":"0653M00116000000","a":"THUNDERBIRD DR","m":"Elizabeth Twp","u":"L","o":"individual","sf":13127,"v":35100}},{"type":"Feature","geometry":{"type":"Point","coordinates":[-79.81231,40.31855]},"properties":{"p":"0553N00166000000","a":"SMITHFIELD ST","m":"Elizabeth Twp","u":"L","o":"individual","sf":14039,"v":1300}},{"type":"Feature","geometry":{"type":"Point","coordinates":[-79.81349,40.31013]},"properties":{"p":"0652J00177000000","a":"BURNING TREE DR","m":"Elizabeth Twp","u":"L","o":"individual","sf":4080,"v":6000}},{"type":"Feature","geometry":{"type":"Point","coordinates":[-79.80884,40.31596]},"properties":{"p":"0652B00219000000","a":"1311 SCHWEITZER RD","m":"Elizabeth Twp","u":"L","o":"individual","sf":42875,"v":3900}},{"type":"Feature","geometry":{"type":"Point","coordinates":[-79.80847,40.31492]},"properties":{"p":"0652B00268000000","a":"SCHWEITZER RD","m":"Elizabeth Twp","u":"L","o":"individual","sf":41811,"v":3900}},{"type":"Feature","geometry":{"type":"Point","coordinates":[-79.81516,40.31011]},"properties":{"p":"0652N00393000000","a":"OLD HILLS RD","m":"Elizabeth Twp","u":"L","o":"corp","sf":225119,"v":33500}},{"type":"Feature","geometry":{"type":"Point","coordinates":[-79.8102,40.31135]},"properties":{"p":"0652K00183000000","a":"OLD HILLS RD","m":"Elizabeth Twp","u":"L","o":"corp","sf":43560,"v":4000}},{"type":"Feature","geometry":{"type":"Point","coordinates":[-79.80411,40.31533]},"properties":{"p":"0652C00169000000","a":"1113 SCHWEITZER RD","m":"Elizabeth Twp","u":"L","o":"individual","sf":18461,"v":1700}},{"type":"Feature","geometry":{"type":"Point","coordinates":[-79.80759,40.3129]},"properties":{"p":"0652G00173000000","a":"TRANSIT DR","m":"Elizabeth Twp","u":"L","o":"individual","sf":17110,"v":13800}},{"type":"Feature","geometry":{"type":"Point","coordinates":[-79.80003,40.31217]},"properties":{"p":"0652H00018000000","a":"HERMAN LN","m":"Elizabeth Twp","u":"L","o":"corp","sf":50094,"v":38500}},{"type":"Feature","geometry":{"type":"Point","coordinates":[-79.80031,40.31297]},"properties":{"p":"0652H00022000000","a":"ZIMMER LN","m":"Elizabeth Twp","u":"L","o":"individual","sf":18513,"v":15000}},{"type":"Feature","geometry":{"type":"Point","coordinates":[-79.8058,40.31106]},"properties":{"p":"0652L00327000000","a":"WEXFORD ST","m":"Elizabeth Twp","u":"L","o":"individual","sf":11904,"v":25900}},{"type":"Feature","geometry":{"type":"Point","coordinates":[-79.81045,40.317]},"properties":{"p":"0553P00071000000","a":"VIRGINIA AVE","m":"Elizabeth Twp","u":"L","o":"individual","sf":8234,"v":29500}},{"type":"Feature","geometry":{"type":"Point","coordinates":[-79.81097,40.31704]},"properties":{"p":"0553P00082000000","a":"VIRGINIA AVE","m":"Elizabeth Twp","u":"L","o":"individual","sf":21468,"v":35900}},{"type":"Feature","geometry":{"type":"Point","coordinates":[-79.81148,40.31719]},"properties":{"p":"0553P00095000000","a":"VIRGINIA AVE","m":"Elizabeth Twp","u":"L","o":"individual","sf":22500,"v":18500}},{"type":"Feature","geometry":{"type":"Point","coordinates":[-79.81146,40.31758]},"properties":{"p":"0553P00118000000","a":"EMERSON AVE","m":"Elizabeth Twp","u":"L","o":"individual","sf":7833,"v":700}},{"type":"Feature","geometry":{"type":"Point","coordinates":[-79.81123,40.31756]},"properties":{"p":"0553P00120000000","a":"EMERSON AVE","m":"Elizabeth Twp","u":"L","o":"individual","sf":8198,"v":12000}},{"type":"Feature","geometry":{"type":"Point","coordinates":[-79.80386,40.31041]},"properties":{"p":"0652M00128000000","a":"OBERDICK DR","m":"Elizabeth Twp","u":"L","o":"individual","sf":5414,"v":5900}},{"type":"Feature","geometry":{"type":"Point","coordinates":[-79.81455,40.31194]},"properties":{"p":"0652E00032000000","a":"SAINT ANDREWS CIR","m":"Elizabeth Twp","u":"L","o":"corp","sf":9113,"v":30800}},{"type":"Feature","geometry":{"type":"Point","coordinates":[-79.81349,40.31703]},"properties":{"p":"0553N00123000000","a":"SCHWEITZER RD","m":"Elizabeth Twp","u":"L","o":"individual","sf":65035,"v":39900}},{"type":"Feature","geometry":{"type":"Point","coordinates":[-79.81354,40.31749]},"properties":{"p":"0553N00126000000","a":"SMITHFIELD ST","m":"Elizabeth Twp","u":"L","o":"individual","sf":11686,"v":34600}},{"type":"Feature","geometry":{"type":"Point","coordinates":[-79.81328,40.31761]},"properties":{"p":"0553N00132000000","a":"SMITHFIELD ST","m":"Elizabeth Twp","u":"L","o":"individual","sf":19412,"v":1800}},{"type":"Feature","geometry":{"type":"Point","coordinates":[-79.81298,40.31795]},"properties":{"p":"0553N00141000000","a":"SMITHFIELD ST","m":"Elizabeth Twp","u":"L","o":"individual","sf":30517,"v":2800}},{"type":"Feature","geometry":{"type":"Point","coordinates":[-79.81382,40.31099]},"properties":{"p":"0652J00150000000","a":"OLD HILLS RD","m":"Elizabeth Twp","u":"L","o":"corp","sf":9164,"v":30900}},{"type":"Feature","geometry":{"type":"Point","coordinates":[-79.81158,40.31622]},"properties":{"p":"0652B00138000000","a":"SCHWEITZER RD","m":"Elizabeth Twp","u":"L","o":"individual","sf":18286,"v":35600}},{"type":"Feature","geometry":{"type":"Point","coordinates":[-79.81187,40.31631]},"properties":{"p":"0652B00148000000","a":"SCHWEITZER RD","m":"Elizabeth Twp","u":"L","o":"individual","sf":17774,"v":35600}},{"type":"Feature","geometry":{"type":"Point","coordinates":[-79.81186,40.31558]},"properties":{"p":"0652B00163000000","a":"SCHWEITZER RD","m":"Elizabeth Twp","u":"L","o":"corp","sf":6815,"v":600}},{"type":"Feature","geometry":{"type":"Point","coordinates":[-79.80847,40.31342]},"properties":{"p":"0652F00196000000","a":"CONSTITUTION BLVD","m":"Elizabeth Twp","u":"L","o":"individual","sf":65340,"v":6000}},{"type":"Feature","geometry":{"type":"Point","coordinates":[-79.80229,40.31879]},"properties":{"p":"0553S00314000000","a":"ANTONELLI DR","m":"Elizabeth Twp","u":"L","o":"individual","sf":33600,"v":19500}},{"type":"Feature","geometry":{"type":"Point","coordinates":[-79.81814,40.31676]},"properties":{"p":"0554S00011000000","a":"SAINT DAVID DR","m":"Elizabeth Twp","u":"L","o":"individual","sf":7500,"v":2500}},{"type":"Feature","geometry":{"type":"Point","coordinates":[-79.81813,40.31701]},"properties":{"p":"0554S00015000000","a":"SAINT DAVID DR","m":"Elizabeth Twp","u":"L","o":"individual","sf":15349,"v":5000}},{"type":"Feature","geometry":{"type":"Point","coordinates":[-79.81467,40.31897]},"properties":{"p":"0553N00362000000","a":"SMITHFIELD ST","m":"Elizabeth Twp","u":"L","o":"corp","sf":10347,"v":900}},{"type":"Feature","geometry":{"type":"Point","coordinates":[-79.807,40.31624]},"properties":{"p":"0652C00262000000","a":"SCHWEITZER RD","m":"Elizabeth Twp","u":"L","o":"individual","sf":11000,"v":33600}},{"type":"Feature","geometry":{"type":"Point","coordinates":[-79.8104,40.31863]},"properties":{"p":"0553P00326000000","a":"6739 SMITHFIELD ST","m":"Elizabeth Twp","u":"L","o":"individual","sf":9080,"v":13300}},{"type":"Feature","geometry":{"type":"Point","coordinates":[-79.81015,40.31863]},"properties":{"p":"0553P00333000000","a":"6739 SMITHFIELD ST","m":"Elizabeth Twp","u":"L","o":"individual","sf":5606,"v":8200}},{"type":"Feature","geometry":{"type":"Point","coordinates":[-79.81028,40.31924]},"properties":{"p":"0553P00379000000","a":"SMITHFIELD ST","m":"Elizabeth Twp","u":"L","o":"individual","sf":25931,"v":2300}},{"type":"Feature","geometry":{"type":"Point","coordinates":[-79.812,40.31919]},"properties":{"p":"0553P00399000000","a":"SMITHFIELD ST","m":"Elizabeth Twp","u":"L","o":"corp","sf":21688,"v":35900}},{"type":"Feature","geometry":{"type":"Point","coordinates":[-79.8044,40.31744]},"properties":{"p":"0553R00065000000","a":"SMITHFIELD ST","m":"Elizabeth Twp","u":"L","o":"corp","sf":72745,"v":40600}},{"type":"Feature","geometry":{"type":"Point","coordinates":[-79.80996,40.31648]},"properties":{"p":"0652B00033000000","a":"VIRGINIA AVE","m":"Elizabeth Twp","u":"L","o":"individual","sf":9070,"v":13200}},{"type":"Feature","geometry":{"type":"Point","coordinates":[-79.80893,40.31657]},"properties":{"p":"0652B00061000000","a":"VIRGINIA AVE","m":"Elizabeth Twp","u":"L","o":"individual","sf":15357,"v":2000}},{"type":"Feature","geometry":{"type":"Point","coordinates":[-79.81263,40.31674]},"properties":{"p":"0553N00005000000","a":"SCHWEITZER RD","m":"Elizabeth Twp","u":"L","o":"individual","sf":7500,"v":700}},{"type":"Feature","geometry":{"type":"Point","coordinates":[-79.80873,40.31209]},"properties":{"p":"0652F00031000000","a":"CONSTITUTION BLVD","m":"Elizabeth Twp","u":"L","o":"individual","sf":16423,"v":26400}},{"type":"Feature","geometry":{"type":"Point","coordinates":[-79.80188,40.31789]},"properties":{"p":"0553S00182000000","a":"SMITHFIELD ST","m":"Elizabeth Twp","u":"L","o":"individual","sf":9245,"v":1600}},{"type":"Feature","geometry":{"type":"Point","coordinates":[-79.81417,40.31035]},"properties":{"p":"0652J00227000000","a":"BURNING TREE DR","m":"Elizabeth Twp","u":"L","o":"individual","sf":12198,"v":16700}},{"type":"Feature","geometry":{"type":"Point","coordinates":[-79.80359,40.31268]},"properties":{"p":"0652H00140000000","a":"614 BRINKMAN LN","m":"Elizabeth Twp","u":"L","o":"individual","sf":6622,"v":7200}},{"type":"Feature","geometry":{"type":"Point","coordinates":[-79.80498,40.31159]},"properties":{"p":"0652L00345000000","a":"GREENOCK BUENA VISTA RD","m":"Elizabeth Twp","u":"L","o":"individual","sf":3800,"v":4100}},{"type":"Feature","geometry":{"type":"Point","coordinates":[-79.80284,40.31467]},"properties":{"p":"0652D00329000000","a":"SCHWEITZER RD","m":"Elizabeth Twp","u":"L","o":"individual","sf":21001,"v":35900}},{"type":"Feature","geometry":{"type":"Point","coordinates":[-79.81087,40.31752]},"properties":{"p":"0553P00129000000","a":"EMERSON AVE","m":"Elizabeth Twp","u":"L","o":"individual","sf":9975,"v":14600}},{"type":"Feature","geometry":{"type":"Point","coordinates":[-79.80854,40.31806]},"properties":{"p":"0553P00214000000","a":"SMITHFIELD ST","m":"Elizabeth Twp","u":"L","o":"corp","sf":87120,"v":24400}},{"type":"Feature","geometry":{"type":"Point","coordinates":[-79.80957,40.31803]},"properties":{"p":"0553P00227000000","a":"SMITHFIELD ST","m":"Elizabeth Twp","u":"L","o":"corp","sf":22275,"v":18400}},{"type":"Feature","geometry":{"type":"Point","coordinates":[-79.81193,40.31857]},"properties":{"p":"0553P00306000000","a":"SMITHFIELD ST","m":"Elizabeth Twp","u":"L","o":"corp","sf":10162,"v":14800}},{"type":"Feature","geometry":{"type":"Point","coordinates":[-79.80429,40.31015]},"properties":{"p":"0652L00025000000","a":"EVERGLADE DR","m":"Elizabeth Twp","u":"L","o":"individual","sf":8031,"v":8700}},{"type":"Feature","geometry":{"type":"Point","coordinates":[-79.80239,40.31467]},"properties":{"p":"0652D00351000100","a":"929 SCHWEITZER RD","m":"Elizabeth Twp","u":"L","o":"individual","sf":23045,"v":36000}},{"type":"Feature","geometry":{"type":"Point","coordinates":[-79.81341,40.31905]},"properties":{"p":"0553P00312000000","a":"SMITHFIELD ST","m":"Elizabeth Twp","u":"L","o":"individual","sf":281572,"v":24400}},{"type":"Feature","geometry":{"type":"Point","coordinates":[-79.80234,40.31681]},"properties":{"p":"0553S00033000000","a":"SMITHFIELD ST","m":"Elizabeth Twp","u":"L","o":"individual","sf":88296,"v":42000}},{"type":"Feature","geometry":{"type":"Point","coordinates":[-79.80087,40.31095]},"properties":{"p":"0652M00225000000","a":"GREENOCK BUENA VISTA RD","m":"Elizabeth Twp","u":"L","o":"individual","sf":6150,"v":600}},{"type":"Feature","geometry":{"type":"Point","coordinates":[-79.81171,40.31516]},"properties":{"p":"0652A00390000000","a":"SCHWEITZER RD","m":"Elizabeth Twp","u":"L","o":"individual","sf":381891,"v":57700}},{"type":"Feature","geometry":{"type":"Point","coordinates":[-79.81221,40.31641]},"properties":{"p":"0652A00392000000","a":"SCHWEITZER RD","m":"Elizabeth Twp","u":"L","o":"individual","sf":15431,"v":35400}},{"type":"Feature","geometry":{"type":"Point","coordinates":[-79.81455,40.31296]},"properties":{"p":"0652E00167000000","a":"BURNING TREE DR","m":"Elizabeth Twp","u":"L","o":"corp","sf":408288,"v":9400}},{"type":"Feature","geometry":{"type":"Point","coordinates":[-79.81249,40.32528]},"properties":{"p":"0553B00391000000","a":"2234 LEWIS ST","m":"White Oak","u":"L","o":"individual","sf":19956,"v":17600}},{"type":"Feature","geometry":{"type":"Point","coordinates":[-79.81037,40.32877]},"properties":{"p":"0552P00191000000","a":"2160 LEWIS ST","m":"White Oak","u":"L","o":"individual","sf":43560,"v":37200}},{"type":"Feature","geometry":{"type":"Point","coordinates":[-79.80713,40.31925]},"properties":{"p":"0553R00385000000","a":"JOAN CT","m":"Elizabeth Twp","u":"L","o":"corp","sf":363639,"v":46300}},{"type":"Feature","geometry":{"type":"Point","coordinates":[-79.80922,40.3259]},"properties":{"p":"0553B00204000000","a":"CENTER ST","m":"White Oak","u":"L","o":"individual","sf":121920,"v":26900}},{"type":"Feature","geometry":{"type":"Point","coordinates":[-79.80939,40.31696]},"properties":{"p":"0553P00044000000","a":"VIRGINIA AVE","m":"Elizabeth Twp","u":"L","o":"individual","sf":9353,"v":31200}},{"type":"Feature","geometry":{"type":"Point","coordinates":[-79.81525,40.32355]},"properties":{"p":"0553E00337000000","a":"1135 CENTER ST","m":"White Oak","u":"L","o":"individual","sf":11655,"v":10300}},{"type":"Feature","geometry":{"type":"Point","coordinates":[-79.8078,40.3296]},"properties":{"p":"0552K00010000000","a":"LEWIS ST","m":"White Oak","u":"L","o":"individual","sf":3500,"v":300}},{"type":"Feature","geometry":{"type":"Point","coordinates":[-79.81329,40.3227]},"properties":{"p":"0553E00075000000","a":"1057 STEPANIK RD","m":"White Oak","u":"L","o":"individual","sf":18046,"v":15900}},{"type":"Feature","geometry":{"type":"Point","coordinates":[-79.80749,40.32644]},"properties":{"p":"0552R00004000000","a":"CLARK ST","m":"White Oak","u":"L","o":"individual","sf":12208,"v":10700}},{"type":"Feature","geometry":{"type":"Point","coordinates":[-79.80993,40.318]},"properties":{"p":"0553P00236000000","a":"SMITHFIELD ST","m":"Elizabeth Twp","u":"L","o":"corp","sf":23489,"v":18600}},{"type":"Feature","geometry":{"type":"Point","coordinates":[-79.80514,40.32411]},"properties":{"p":"0553C00009000000","a":"CENTER ST","m":"White Oak","u":"B","o":"corp","sf":15246,"v":4800}},{"type":"Feature","geometry":{"type":"Point","coordinates":[-79.80543,40.32409]},"properties":{"p":"0553C00011000000","a":"CENTER ST","m":"White Oak","u":"B","o":"corp","sf":17860,"v":4900}},{"type":"Feature","geometry":{"type":"Point","coordinates":[-79.80684,40.32419]},"properties":{"p":"0553C00019000000","a":"CENTER ST","m":"White Oak","u":"B","o":"individual","sf":17860,"v":4900}},{"type":"Feature","geometry":{"type":"Point","coordinates":[-79.80747,40.3243]},"properties":{"p":"0553C00023000000","a":"CENTER ST","m":"White Oak","u":"B","o":"corp","sf":17860,"v":4900}},{"type":"Feature","geometry":{"type":"Point","coordinates":[-79.80778,40.32435]},"properties":{"p":"0553C00025000000","a":"CENTER ST","m":"White Oak","u":"B","o":"corp","sf":17860,"v":4900}},{"type":"Feature","geometry":{"type":"Point","coordinates":[-79.80809,40.3244]},"properties":{"p":"0553C00027000000","a":"CENTER ST","m":"White Oak","u":"B","o":"corp","sf":16074,"v":4700}},{"type":"Feature","geometry":{"type":"Point","coordinates":[-79.80716,40.32425]},"properties":{"p":"0553C00021000000","a":"CENTER ST","m":"White Oak","u":"B","o":"corp","sf":17860,"v":4900}},{"type":"Feature","geometry":{"type":"Point","coordinates":[-79.80582,40.32407]},"properties":{"p":"0553C00013000000","a":"CENTER ST","m":"White Oak","u":"B","o":"corp","sf":25265,"v":5700}},{"type":"Feature","geometry":{"type":"Point","coordinates":[-79.80486,40.32411]},"properties":{"p":"0553C00007000000","a":"CENTER ST","m":"White Oak","u":"B","o":"corp","sf":17860,"v":5100}}]}