{"type":"FeatureCollection","features":[{"type":"Feature","geometry":{"type":"Point","coordinates":[-80.34396,40.46726]},"properties":{"p":"1624N00067000000","a":"MCCULLOUGH RD","m":"Findlay","u":"L","o":"individual","sf":123462,"v":28300}},{"type":"Feature","geometry":{"type":"Point","coordinates":[-80.34526,40.46686]},"properties":{"p":"1624F00090000000","a":"MCCULLOUGH RD","m":"Findlay","u":"L","o":"individual","sf":423403,"v":27300}},{"type":"Feature","geometry":{"type":"Point","coordinates":[-80.34784,40.46796]},"properties":{"p":"1624E00290000000","a":"101 MCCULLOUGH RD","m":"Findlay","u":"L","o":"individual","sf":230868,"v":65700}}]}