{"type":"FeatureCollection","features":[{"type":"Feature","geometry":{"type":"Point","coordinates":[-79.78009,40.40193]},"properties":{"p":"0747A00006000000","a":"WALL AVE","m":"Pitcairn","u":"I","o":"individual","sf":4500,"v":13100}},{"type":"Feature","geometry":{"type":"Point","coordinates":[-79.79974,40.39054]},"properties":{"p":"0546H00336000000","a":"BROADWAY AVE","m":"East McKeesport","u":"C","o":"individual","sf":241322,"v":5500}},{"type":"Feature","geometry":{"type":"Point","coordinates":[-79.78277,40.40759]},"properties":{"p":"0641M00261000000","a":"JOHNSTON RD","m":"Monroeville","u":"C","o":"corp","sf":2365656,"v":3563500}},{"type":"Feature","geometry":{"type":"Point","coordinates":[-79.78686,40.39988]},"properties":{"p":"0642H00118000000","a":"BROADWAY BLVD","m":"Monroeville","u":"C","o":"corp","sf":89938,"v":6800}},{"type":"Feature","geometry":{"type":"Point","coordinates":[-79.78414,40.40165]},"properties":{"p":"0642H00236000000","a":"JOHNSTON RD","m":"Monroeville","u":"C","o":"corp","sf":143487,"v":57400}},{"type":"Feature","geometry":{"type":"Point","coordinates":[-79.79347,40.39774]},"properties":{"p":"0642K00275000000","a":"QUARRY RD","m":"Monroeville","u":"C","o":"corp","sf":5411,"v":8100}},{"type":"Feature","geometry":{"type":"Point","coordinates":[-79.79197,40.39823]},"properties":{"p":"0642K00127000000","a":"BROADWAY BLVD","m":"Monroeville","u":"C","o":"corp","sf":3469,"v":1600}},{"type":"Feature","geometry":{"type":"Point","coordinates":[-79.79224,40.39821]},"properties":{"p":"0642K00123000000","a":"ROBERTS ST","m":"Monroeville","u":"C","o":"corp","sf":7315,"v":59400}},{"type":"Feature","geometry":{"type":"Point","coordinates":[-79.79437,40.40146]},"properties":{"p":"0642F00290000000","a":"VALLEY RD","m":"Monroeville","u":"C","o":"corp","sf":119790,"v":49900}},{"type":"Feature","geometry":{"type":"Point","coordinates":[-79.78557,40.39471]},"properties":{"p":"0642S00100000000","a":"SHORT ST","m":"Wall","u":"C","o":"corp","sf":1800,"v":300}},{"type":"Feature","geometry":{"type":"Point","coordinates":[-79.79992,40.39011]},"properties":{"p":"0546H00315000000","a":"BROADWAY ST","m":"East McKeesport","u":"L","o":"individual","sf":28928,"v":11200}},{"type":"Feature","geometry":{"type":"Point","coordinates":[-79.78065,40.40191]},"properties":{"p":"0747A00246000000","a":"2ND ST","m":"Pitcairn","u":"L","o":"corp","sf":2500,"v":700}},{"type":"Feature","geometry":{"type":"Point","coordinates":[-79.78074,40.4019]},"properties":{"p":"0747A00247000000","a":"2ND ST","m":"Pitcairn","u":"L","o":"individual","sf":2500,"v":700}},{"type":"Feature","geometry":{"type":"Point","coordinates":[-79.78115,40.40177]},"properties":{"p":"0747A00252000000","a":"2ND ST","m":"Pitcairn","u":"L","o":"corp","sf":2500,"v":2000}},{"type":"Feature","geometry":{"type":"Point","coordinates":[-79.78283,40.40234]},"properties":{"p":"0747A00275000000","a":"SHORT ST","m":"Pitcairn","u":"L","o":"individual","sf":5000,"v":8000}},{"type":"Feature","geometry":{"type":"Point","coordinates":[-79.78232,40.40276]},"properties":{"p":"0747A00282000000","a":"SHORT ST","m":"Pitcairn","u":"L","o":"corp","sf":1300,"v":5000}},{"type":"Feature","geometry":{"type":"Point","coordinates":[-79.78238,40.40281]},"properties":{"p":"0747A00283000000","a":"SHORT ST","m":"Pitcairn","u":"L","o":"corp","sf":1625,"v":500}},{"type":"Feature","geometry":{"type":"Point","coordinates":[-79.78003,40.40735]},"properties":{"p":"0746J00062000000","a":"PENNSYLVANIA AVE","m":"Pitcairn","u":"L","o":"individual","sf":7573,"v":8200}},{"type":"Feature","geometry":{"type":"Point","coordinates":[-79.78208,40.40162]},"properties":{"p":"0747E00334000000","a":"2ND ST","m":"Pitcairn","u":"L","o":"corp","sf":5000,"v":8000}},{"type":"Feature","geometry":{"type":"Point","coordinates":[-79.78131,40.4029]},"properties":{"p":"0747A00140000000","a":"3RD ST","m":"Pitcairn","u":"L","o":"individual","sf":2500,"v":6000}},{"type":"Feature","geometry":{"type":"Point","coordinates":[-79.78088,40.40298]},"properties":{"p":"0747A00145000000","a":"3RD ST","m":"Pitcairn","u":"L","o":"individual","sf":2500,"v":6000}},{"type":"Feature","geometry":{"type":"Point","coordinates":[-79.78141,40.40173]},"properties":{"p":"0747E00350000000","a":"2ND ST","m":"Pitcairn","u":"L","o":"individual","sf":2500,"v":700}},{"type":"Feature","geometry":{"type":"Point","coordinates":[-79.7813,40.40175]},"properties":{"p":"0747E00352000000","a":"2ND ST","m":"Pitcairn","u":"L","o":"individual","sf":3000,"v":900}},{"type":"Feature","geometry":{"type":"Point","coordinates":[-79.78122,40.40176]},"properties":{"p":"0747E00355000000","a":"2ND ST","m":"Pitcairn","u":"L","o":"corp","sf":2000,"v":600}},{"type":"Feature","geometry":{"type":"Point","coordinates":[-79.78251,40.40213]},"properties":{"p":"0747A00174000000","a":"3RD ST","m":"Pitcairn","u":"L","o":"individual","sf":7572,"v":8200}},{"type":"Feature","geometry":{"type":"Point","coordinates":[-79.78078,40.40251]},"properties":{"p":"0747A00193000000","a":"3RD ST","m":"Pitcairn","u":"L","o":"individual","sf":2500,"v":700}},{"type":"Feature","geometry":{"type":"Point","coordinates":[-79.78121,40.40374]},"properties":{"p":"0747A00304000000","a":"KENNEY AVE","m":"Pitcairn","u":"L","o":"individual","sf":2500,"v":6000}},{"type":"Feature","geometry":{"type":"Point","coordinates":[-79.78296,40.40276]},"properties":{"p":"0747A00340000000","a":"KENNEY AVE","m":"Pitcairn","u":"L","o":"individual","sf":13911,"v":8800}},{"type":"Feature","geometry":{"type":"Point","coordinates":[-79.78269,40.40346]},"properties":{"p":"0747A00345000000","a":"PARK AVE","m":"Pitcairn","u":"L","o":"individual","sf":5457,"v":1500}},{"type":"Feature","geometry":{"type":"Point","coordinates":[-79.78255,40.40452]},"properties":{"p":"0746N00290000000","a":"WOOD ST","m":"Pitcairn","u":"L","o":"individual","sf":8000,"v":2100}},{"type":"Feature","geometry":{"type":"Point","coordinates":[-79.78283,40.40452]},"properties":{"p":"0746N00307000000","a":"PARK AVE","m":"Pitcairn","u":"L","o":"individual","sf":3229,"v":900}},{"type":"Feature","geometry":{"type":"Point","coordinates":[-79.78002,40.40271]},"properties":{"p":"0747A00043000000","a":"3RD ST","m":"Pitcairn","u":"L","o":"individual","sf":2100,"v":5700}},{"type":"Feature","geometry":{"type":"Point","coordinates":[-79.78172,40.40242]},"properties":{"p":"0747A00166000000","a":"3RD ST","m":"Pitcairn","u":"L","o":"individual","sf":2500,"v":6000}},{"type":"Feature","geometry":{"type":"Point","coordinates":[-79.78181,40.4024]},"properties":{"p":"0747A00167000000","a":"3RD ST","m":"Pitcairn","u":"L","o":"individual","sf":2500,"v":700}},{"type":"Feature","geometry":{"type":"Point","coordinates":[-79.7819,40.40238]},"properties":{"p":"0747A00168000000","a":"3RD ST","m":"Pitcairn","u":"L","o":"corp","sf":2500,"v":2000}},{"type":"Feature","geometry":{"type":"Point","coordinates":[-79.78225,40.40236]},"properties":{"p":"0747A00172000000","a":"3RD ST","m":"Pitcairn","u":"L","o":"individual","sf":2300,"v":5800}},{"type":"Feature","geometry":{"type":"Point","coordinates":[-79.78251,40.40326]},"properties":{"p":"0747A00329000000","a":"KENNEY AVE","m":"Pitcairn","u":"L","o":"individual","sf":2500,"v":700}},{"type":"Feature","geometry":{"type":"Point","coordinates":[-79.78257,40.40321]},"properties":{"p":"0747A00330000000","a":"KENNEY AVE","m":"Pitcairn","u":"L","o":"corp","sf":2500,"v":700}},{"type":"Feature","geometry":{"type":"Point","coordinates":[-79.78266,40.40314]},"properties":{"p":"0747A00332000000","a":"KENNEY AVE","m":"Pitcairn","u":"L","o":"individual","sf":5000,"v":8000}},{"type":"Feature","geometry":{"type":"Point","coordinates":[-79.78054,40.40155]},"properties":{"p":"0747E00228000000","a":"BROADWAY","m":"Pitcairn","u":"L","o":"individual","sf":2500,"v":700}},{"type":"Feature","geometry":{"type":"Point","coordinates":[-79.78069,40.40381]},"properties":{"p":"0747A00118000000","a":"412 WALL AVE","m":"Pitcairn","u":"L","o":"corp","sf":1560,"v":1300}},{"type":"Feature","geometry":{"type":"Point","coordinates":[-79.78075,40.40366]},"properties":{"p":"0747A00120000000","a":"400 WALL AVE","m":"Pitcairn","u":"L","o":"individual","sf":2700,"v":800}},{"type":"Feature","geometry":{"type":"Point","coordinates":[-79.7805,40.40263]},"properties":{"p":"0747A00152000000","a":"3RD ST","m":"Pitcairn","u":"L","o":"individual","sf":2600,"v":2100}},{"type":"Feature","geometry":{"type":"Point","coordinates":[-79.78082,40.40264]},"properties":{"p":"0747A00156000000","a":"3RD ST","m":"Pitcairn","u":"L","o":"individual","sf":2500,"v":700}},{"type":"Feature","geometry":{"type":"Point","coordinates":[-79.78052,40.40508]},"properties":{"p":"0746N00078000000","a":"ROBINSON ST","m":"Pitcairn","u":"L","o":"corp","sf":2544,"v":700}},{"type":"Feature","geometry":{"type":"Point","coordinates":[-79.7804,40.40509]},"properties":{"p":"0746N00079000000","a":"ROBINSON ST","m":"Pitcairn","u":"L","o":"individual","sf":2523,"v":700}},{"type":"Feature","geometry":{"type":"Point","coordinates":[-79.78143,40.40417]},"properties":{"p":"0747A00312000000","a":"KENNEY AVE","m":"Pitcairn","u":"L","o":"individual","sf":2500,"v":6000}},{"type":"Feature","geometry":{"type":"Point","coordinates":[-79.78134,40.40541]},"properties":{"p":"0746N00239000000","a":"WALL AVE","m":"Pitcairn","u":"L","o":"corp","sf":78539,"v":14600}},{"type":"Feature","geometry":{"type":"Point","coordinates":[-79.78071,40.39474]},"properties":{"p":"0747N00165000000","a":"GROVE ST","m":"Wall","u":"L","o":"individual","sf":2500,"v":700}},{"type":"Feature","geometry":{"type":"Point","coordinates":[-79.78093,40.39507]},"properties":{"p":"0747N00171000000","a":"GROVE ST","m":"Wall","u":"L","o":"individual","sf":10000,"v":8500}},{"type":"Feature","geometry":{"type":"Point","coordinates":[-79.7848,40.39141]},"properties":{"p":"0643H00162000000","a":"SEELEY AVE","m":"Wall","u":"L","o":"individual","sf":8750,"v":8300}},{"type":"Feature","geometry":{"type":"Point","coordinates":[-79.78468,40.39125]},"properties":{"p":"0643H00165000000","a":"NEGLEY AVE","m":"Wall","u":"L","o":"individual","sf":24500,"v":9800}},{"type":"Feature","geometry":{"type":"Point","coordinates":[-79.78454,40.39103]},"properties":{"p":"0643H00168000000","a":"NEGLEY AVE","m":"Wall","u":"L","o":"individual","sf":13125,"v":8700}},{"type":"Feature","geometry":{"type":"Point","coordinates":[-79.78419,40.39052]},"properties":{"p":"0643H00182000000","a":"NEGLEY AVE","m":"Wall","u":"L","o":"individual","sf":3688,"v":1000}},{"type":"Feature","geometry":{"type":"Point","coordinates":[-79.784,40.3904]},"properties":{"p":"0643H00185000000","a":"SEELEY AVE","m":"Wall","u":"L","o":"individual","sf":6220,"v":8100}},{"type":"Feature","geometry":{"type":"Point","coordinates":[-79.78409,40.39021]},"properties":{"p":"0643H00186000000","a":"NEGLEY AVE","m":"Wall","u":"L","o":"individual","sf":4550,"v":1200}},{"type":"Feature","geometry":{"type":"Point","coordinates":[-79.78407,40.39007]},"properties":{"p":"0643H00188000000","a":"NEGLEY AVE","m":"Wall","u":"L","o":"individual","sf":8750,"v":8300}},{"type":"Feature","geometry":{"type":"Point","coordinates":[-79.78496,40.39015]},"properties":{"p":"0643H00222000000","a":"SEELEY AVE","m":"Wall","u":"L","o":"individual","sf":14750,"v":8900}},{"type":"Feature","geometry":{"type":"Point","coordinates":[-79.78531,40.39061]},"properties":{"p":"0643H00234000000","a":"SEELEY AVE","m":"Wall","u":"L","o":"individual","sf":15500,"v":4000}},{"type":"Feature","geometry":{"type":"Point","coordinates":[-79.78375,40.39204]},"properties":{"p":"0643D00114000000","a":"NEGLEY AVE","m":"Wall","u":"L","o":"individual","sf":10050,"v":8500}},{"type":"Feature","geometry":{"type":"Point","coordinates":[-79.78338,40.39338]},"properties":{"p":"0643D00180000000","a":"BEECH ST","m":"Wall","u":"L","o":"individual","sf":7672,"v":8200}},{"type":"Feature","geometry":{"type":"Point","coordinates":[-79.78337,40.39404]},"properties":{"p":"0643D00198000000","a":"ROSS ST","m":"Wall","u":"L","o":"individual","sf":6910,"v":8200}},{"type":"Feature","geometry":{"type":"Point","coordinates":[-79.78349,40.39398]},"properties":{"p":"0643D00201000000","a":"GRANT ST","m":"Wall","u":"L","o":"individual","sf":6910,"v":8200}},{"type":"Feature","geometry":{"type":"Point","coordinates":[-79.78408,40.39369]},"properties":{"p":"0643D00214000000","a":"ROSS ST","m":"Wall","u":"L","o":"individual","sf":6250,"v":8100}},{"type":"Feature","geometry":{"type":"Point","coordinates":[-79.78424,40.39359]},"properties":{"p":"0643D00218000000","a":"ROSS ST","m":"Wall","u":"L","o":"individual","sf":7700,"v":8200}},{"type":"Feature","geometry":{"type":"Point","coordinates":[-79.79063,40.39174]},"properties":{"p":"0643G00097000000","a":"VALLEY AVE","m":"Wall","u":"L","o":"individual","sf":1308,"v":400}},{"type":"Feature","geometry":{"type":"Point","coordinates":[-79.79064,40.39179]},"properties":{"p":"0643G00098000000","a":"VALLEY AVE","m":"Wall","u":"L","o":"individual","sf":2694,"v":800}},{"type":"Feature","geometry":{"type":"Point","coordinates":[-79.78962,40.39031]},"properties":{"p":"0643G00154000000","a":"SHADY AVE","m":"Wall","u":"L","o":"individual","sf":3401,"v":1000}},{"type":"Feature","geometry":{"type":"Point","coordinates":[-79.78435,40.3916]},"properties":{"p":"0643H00067000000","a":"NEGLEY AVE","m":"Wall","u":"L","o":"individual","sf":6000,"v":8100}},{"type":"Feature","geometry":{"type":"Point","coordinates":[-79.78427,40.39149]},"properties":{"p":"0643H00071000000","a":"NEGLEY AVE","m":"Wall","u":"L","o":"individual","sf":3000,"v":900}},{"type":"Feature","geometry":{"type":"Point","coordinates":[-79.78423,40.39142]},"properties":{"p":"0643H00073000000","a":"NEGLEY AVE","m":"Wall","u":"L","o":"individual","sf":3000,"v":900}},{"type":"Feature","geometry":{"type":"Point","coordinates":[-79.78408,40.39121]},"properties":{"p":"0643H00079000000","a":"NEGLEY AVE","m":"Wall","u":"L","o":"corp","sf":3000,"v":900}},{"type":"Feature","geometry":{"type":"Point","coordinates":[-79.78401,40.3911]},"properties":{"p":"0643H00081000000","a":"NEGLEY AVE","m":"Wall","u":"L","o":"individual","sf":6000,"v":8100}},{"type":"Feature","geometry":{"type":"Point","coordinates":[-79.78389,40.39092]},"properties":{"p":"0643H00087000000","a":"NEGLEY AVE","m":"Wall","u":"L","o":"corp","sf":3000,"v":900}},{"type":"Feature","geometry":{"type":"Point","coordinates":[-79.78375,40.3907]},"properties":{"p":"0643H00091000000","a":"NEGLEY AVE","m":"Wall","u":"L","o":"individual","sf":8550,"v":8300}},{"type":"Feature","geometry":{"type":"Point","coordinates":[-79.78309,40.39012]},"properties":{"p":"0643H00100000000","a":"SEELEY AVE","m":"Wall","u":"L","o":"corp","sf":88148,"v":11600}},{"type":"Feature","geometry":{"type":"Point","coordinates":[-79.78361,40.39035]},"properties":{"p":"0643H00103000000","a":"NEGLEY AVE","m":"Wall","u":"L","o":"corp","sf":3000,"v":900}},{"type":"Feature","geometry":{"type":"Point","coordinates":[-79.78357,40.39011]},"properties":{"p":"0643H00109000000","a":"NEGLEY AVE","m":"Wall","u":"L","o":"corp","sf":3000,"v":900}},{"type":"Feature","geometry":{"type":"Point","coordinates":[-79.78434,40.39074]},"properties":{"p":"0643H00140000000","a":"NEGLEY AVE","m":"Wall","u":"L","o":"individual","sf":32900,"v":10500}},{"type":"Feature","geometry":{"type":"Point","coordinates":[-79.78233,40.39505]},"properties":{"p":"0747N00233000000","a":"WALL AVE","m":"Wall","u":"L","o":"individual","sf":10260,"v":8500}},{"type":"Feature","geometry":{"type":"Point","coordinates":[-79.78261,40.39501]},"properties":{"p":"0747N00242000000","a":"WALL AVE","m":"Wall","u":"L","o":"individual","sf":8550,"v":8300}},{"type":"Feature","geometry":{"type":"Point","coordinates":[-79.78693,40.39144]},"properties":{"p":"0643G00200000000","a":"GRANDVIEW AVE","m":"Wall","u":"L","o":"individual","sf":23645,"v":2000}},{"type":"Feature","geometry":{"type":"Point","coordinates":[-79.78806,40.39006]},"properties":{"p":"0643G00279000000","a":"PATTERSON ST","m":"Wall","u":"L","o":"individual","sf":23060,"v":2000}},{"type":"Feature","geometry":{"type":"Point","coordinates":[-79.78793,40.39167]},"properties":{"p":"0643G00319000000","a":"ROUTH ST","m":"Wall","u":"L","o":"individual","sf":10500,"v":8500}},{"type":"Feature","geometry":{"type":"Point","coordinates":[-79.78452,40.39185]},"properties":{"p":"0643H00061000000","a":"NEGLEY AVE","m":"Wall","u":"L","o":"individual","sf":3000,"v":900}},{"type":"Feature","geometry":{"type":"Point","coordinates":[-79.78442,40.39171]},"properties":{"p":"0643H00065000000","a":"NEGLEY AVE","m":"Wall","u":"L","o":"corp","sf":3000,"v":900}},{"type":"Feature","geometry":{"type":"Point","coordinates":[-79.78116,40.39535]},"properties":{"p":"0747N00205000000","a":"WALL AVE","m":"Wall","u":"L","o":"individual","sf":14422,"v":8900}},{"type":"Feature","geometry":{"type":"Point","coordinates":[-79.78167,40.3953]},"properties":{"p":"0747N00209000000","a":"SHORT ST","m":"Wall","u":"L","o":"individual","sf":8400,"v":8300}},{"type":"Feature","geometry":{"type":"Point","coordinates":[-79.78179,40.39506]},"properties":{"p":"0747N00217000000","a":"WALL AVE","m":"Wall","u":"L","o":"individual","sf":6825,"v":8200}},{"type":"Feature","geometry":{"type":"Point","coordinates":[-79.78494,40.39319]},"properties":{"p":"0643D00237000000","a":"ROSS ST","m":"Wall","u":"L","o":"individual","sf":27860,"v":10100}},{"type":"Feature","geometry":{"type":"Point","coordinates":[-79.78198,40.39468]},"properties":{"p":"0747N00016000000","a":"ROSS ST","m":"Wall","u":"L","o":"individual","sf":8000,"v":2100}},{"type":"Feature","geometry":{"type":"Point","coordinates":[-79.79133,40.39289]},"properties":{"p":"0643C00161000000","a":"PATTERSON ST","m":"Wall","u":"L","o":"individual","sf":1956,"v":600}},{"type":"Feature","geometry":{"type":"Point","coordinates":[-79.78839,40.39429]},"properties":{"p":"0642R00025000000","a":"PENNSYLVANIA AVE","m":"Wall","u":"L","o":"individual","sf":2650,"v":800}},{"type":"Feature","geometry":{"type":"Point","coordinates":[-79.79627,40.39251]},"properties":{"p":"0643A00074000000","a":"GRANT ST","m":"Wall","u":"L","o":"individual","sf":6000,"v":1600}},{"type":"Feature","geometry":{"type":"Point","coordinates":[-79.7961,40.39254]},"properties":{"p":"0643A00076000000","a":"GRANT ST","m":"Wall","u":"L","o":"individual","sf":6000,"v":8100}},{"type":"Feature","geometry":{"type":"Point","coordinates":[-79.79593,40.39257]},"properties":{"p":"0643A00078000000","a":"GRANT ST","m":"Wall","u":"L","o":"individual","sf":5460,"v":1500}},{"type":"Feature","geometry":{"type":"Point","coordinates":[-79.79572,40.39296]},"properties":{"p":"0643A00096000000","a":"GRANT ST","m":"Wall","u":"L","o":"individual","sf":3064,"v":900}},{"type":"Feature","geometry":{"type":"Point","coordinates":[-79.79304,40.39313]},"properties":{"p":"0643B00222000000","a":"GRANT ST","m":"Wall","u":"L","o":"individual","sf":7197,"v":8200}},{"type":"Feature","geometry":{"type":"Point","coordinates":[-79.79292,40.39311]},"properties":{"p":"0643B00224000000","a":"GRANT ST","m":"Wall","u":"L","o":"individual","sf":3000,"v":6400}},{"type":"Feature","geometry":{"type":"Point","coordinates":[-79.79284,40.39308]},"properties":{"p":"0643B00225000000","a":"GRANT ST","m":"Wall","u":"L","o":"individual","sf":3000,"v":900}},{"type":"Feature","geometry":{"type":"Point","coordinates":[-79.79276,40.39304]},"properties":{"p":"0643B00226000000","a":"GRANT ST","m":"Wall","u":"L","o":"individual","sf":3000,"v":900}},{"type":"Feature","geometry":{"type":"Point","coordinates":[-79.79268,40.393]},"properties":{"p":"0643B00227000000","a":"GRANT ST","m":"Wall","u":"L","o":"individual","sf":3000,"v":900}},{"type":"Feature","geometry":{"type":"Point","coordinates":[-79.79259,40.39297]},"properties":{"p":"0643B00228000000","a":"GRANT ST","m":"Wall","u":"L","o":"individual","sf":3000,"v":900}},{"type":"Feature","geometry":{"type":"Point","coordinates":[-79.7925,40.39293]},"properties":{"p":"0643B00229000000","a":"GRANT ST","m":"Wall","u":"L","o":"individual","sf":3000,"v":900}},{"type":"Feature","geometry":{"type":"Point","coordinates":[-79.79242,40.3929]},"properties":{"p":"0643B00230000000","a":"GRANT ST","m":"Wall","u":"L","o":"individual","sf":3000,"v":900}},{"type":"Feature","geometry":{"type":"Point","coordinates":[-79.79216,40.39279]},"properties":{"p":"0643B00232000000","a":"GRANT ST","m":"Wall","u":"L","o":"individual","sf":3000,"v":900}},{"type":"Feature","geometry":{"type":"Point","coordinates":[-79.78481,40.39438]},"properties":{"p":"0642S00065000000","a":"WALL AVE","m":"Wall","u":"L","o":"individual","sf":3000,"v":6400}},{"type":"Feature","geometry":{"type":"Point","coordinates":[-79.78468,40.39487]},"properties":{"p":"0642S00077000000","a":"WALL AVE","m":"Wall","u":"L","o":"individual","sf":3343,"v":6700}},{"type":"Feature","geometry":{"type":"Point","coordinates":[-79.78489,40.39482]},"properties":{"p":"0642S00081000000","a":"WALL AVE","m":"Wall","u":"L","o":"individual","sf":2563,"v":6100}},{"type":"Feature","geometry":{"type":"Point","coordinates":[-79.78499,40.39479]},"properties":{"p":"0642S00083000000","a":"515 WALL AVE","m":"Wall","u":"L","o":"individual","sf":3072,"v":6500}},{"type":"Feature","geometry":{"type":"Point","coordinates":[-79.78974,40.39356]},"properties":{"p":"0643C00127000000","a":"WALL AVE","m":"Wall","u":"L","o":"individual","sf":2970,"v":800}},{"type":"Feature","geometry":{"type":"Point","coordinates":[-79.79583,40.39313]},"properties":{"p":"0643A00172000000","a":"WALL AVE","m":"Wall","u":"L","o":"individual","sf":2125,"v":600}},{"type":"Feature","geometry":{"type":"Point","coordinates":[-79.78836,40.39405]},"properties":{"p":"0643C00081000000","a":"445 WALL AVE","m":"Wall","u":"L","o":"individual","sf":2653,"v":800}},{"type":"Feature","geometry":{"type":"Point","coordinates":[-79.78825,40.39405]},"properties":{"p":"0643C00082000000","a":"WALL AVE","m":"Wall","u":"L","o":"individual","sf":2727,"v":800}},{"type":"Feature","geometry":{"type":"Point","coordinates":[-79.7859,40.39344]},"properties":{"p":"0643D00302000000","a":"NEGLEY AVE","m":"Wall","u":"L","o":"individual","sf":3500,"v":1000}},{"type":"Feature","geometry":{"type":"Point","coordinates":[-79.78574,40.39313]},"properties":{"p":"0643D00310000000","a":"NEGLEY AVE","m":"Wall","u":"L","o":"individual","sf":6089,"v":8100}},{"type":"Feature","geometry":{"type":"Point","coordinates":[-79.78558,40.39283]},"properties":{"p":"0643D00312000000","a":"NEGLEY AVE","m":"Wall","u":"L","o":"corp","sf":20435,"v":5000}},{"type":"Feature","geometry":{"type":"Point","coordinates":[-79.78613,40.39302]},"properties":{"p":"0643D00315000000","a":"WALL AVE","m":"Wall","u":"L","o":"corp","sf":17175,"v":5100}},{"type":"Feature","geometry":{"type":"Point","coordinates":[-79.78856,40.39334]},"properties":{"p":"0643C00281000000","a":"433 MARIE ST","m":"Wall","u":"L","o":"individual","sf":2625,"v":800}},{"type":"Feature","geometry":{"type":"Point","coordinates":[-79.78821,40.39334]},"properties":{"p":"0643C00285000000","a":"MARIE ST","m":"Wall","u":"L","o":"individual","sf":6563,"v":1700}},{"type":"Feature","geometry":{"type":"Point","coordinates":[-79.79151,40.39309]},"properties":{"p":"0643B00017000000","a":"PATTERSON ST","m":"Wall","u":"L","o":"individual","sf":1474,"v":500}},{"type":"Feature","geometry":{"type":"Point","coordinates":[-79.79137,40.39334]},"properties":{"p":"0643B00020000000","a":"WALL AVE","m":"Wall","u":"L","o":"individual","sf":5458,"v":1500}},{"type":"Feature","geometry":{"type":"Point","coordinates":[-79.79135,40.39369]},"properties":{"p":"0643B00024000000","a":"WALL AVE","m":"Wall","u":"L","o":"corp","sf":3050,"v":900}},{"type":"Feature","geometry":{"type":"Point","coordinates":[-79.79148,40.39368]},"properties":{"p":"0643B00025000000","a":"WALL AVE","m":"Wall","u":"L","o":"individual","sf":1488,"v":500}},{"type":"Feature","geometry":{"type":"Point","coordinates":[-79.79002,40.39281]},"properties":{"p":"0643C00224000000","a":"ALTER ST","m":"Wall","u":"L","o":"individual","sf":3000,"v":900}},{"type":"Feature","geometry":{"type":"Point","coordinates":[-79.78357,40.39499]},"properties":{"p":"0642S00042000000","a":"MAGNUS ST","m":"Wall","u":"L","o":"individual","sf":4242,"v":1200}},{"type":"Feature","geometry":{"type":"Point","coordinates":[-79.78699,40.39458]},"properties":{"p":"0642S00130000000","a":"HAMPTON ST","m":"Wall","u":"L","o":"individual","sf":3600,"v":1000}},{"type":"Feature","geometry":{"type":"Point","coordinates":[-79.79845,40.39216]},"properties":{"p":"0643A00053000000","a":"GRANT ST","m":"Wall","u":"L","o":"individual","sf":10725,"v":8500}},{"type":"Feature","geometry":{"type":"Point","coordinates":[-79.79238,40.3934]},"properties":{"p":"0643B00174000000","a":"382 WALL AVE","m":"Wall","u":"L","o":"individual","sf":12960,"v":3300}},{"type":"Feature","geometry":{"type":"Point","coordinates":[-79.79331,40.39365]},"properties":{"p":"0643B00184000000","a":"GRANT ST","m":"Wall","u":"L","o":"individual","sf":10750,"v":2800}},{"type":"Feature","geometry":{"type":"Point","coordinates":[-79.79519,40.39269]},"properties":{"p":"0643B00203000000","a":"GRANT ST","m":"Wall","u":"L","o":"individual","sf":3000,"v":900}},{"type":"Feature","geometry":{"type":"Point","coordinates":[-79.78614,40.39196]},"properties":{"p":"0643D00058000000","a":"326 SEELEY AVE","m":"Wall","u":"L","o":"individual","sf":15150,"v":8900}},{"type":"Feature","geometry":{"type":"Point","coordinates":[-79.78611,40.39186]},"properties":{"p":"0643D00060000000","a":"326 SEELEY AVE","m":"Wall","u":"L","o":"individual","sf":2750,"v":6200}},{"type":"Feature","geometry":{"type":"Point","coordinates":[-79.78516,40.39195]},"properties":{"p":"0643D00067000000","a":"SEELEY AVE","m":"Wall","u":"L","o":"individual","sf":4375,"v":1200}},{"type":"Feature","geometry":{"type":"Point","coordinates":[-79.7853,40.39217]},"properties":{"p":"0643D00071000000","a":"SEELEY AVE","m":"Wall","u":"L","o":"individual","sf":18060,"v":9200}},{"type":"Feature","geometry":{"type":"Point","coordinates":[-79.78393,40.39491]},"properties":{"p":"0642S00046000000","a":"WALL AVE","m":"Wall","u":"L","o":"individual","sf":2472,"v":6000}},{"type":"Feature","geometry":{"type":"Point","coordinates":[-79.784,40.39487]},"properties":{"p":"0642S00048000000","a":"WALL AVE","m":"Wall","u":"L","o":"individual","sf":2535,"v":6000}},{"type":"Feature","geometry":{"type":"Point","coordinates":[-79.78425,40.39472]},"properties":{"p":"0642S00054000000","a":"WALL AVE","m":"Wall","u":"L","o":"individual","sf":5900,"v":1600}},{"type":"Feature","geometry":{"type":"Point","coordinates":[-79.7846,40.39451]},"properties":{"p":"0642S00060000000","a":"WALL AVE","m":"Wall","u":"L","o":"individual","sf":3000,"v":6400}},{"type":"Feature","geometry":{"type":"Point","coordinates":[-79.78954,40.39406]},"properties":{"p":"0643C00025000000","a":"WALL AVE","m":"Wall","u":"L","o":"individual","sf":120,"v":100}},{"type":"Feature","geometry":{"type":"Point","coordinates":[-79.78972,40.39413]},"properties":{"p":"0643C00028000000","a":"PENNSYLVANIA AVE","m":"Wall","u":"L","o":"individual","sf":1450,"v":500}},{"type":"Feature","geometry":{"type":"Point","coordinates":[-79.78979,40.39412]},"properties":{"p":"0643C00029000000","a":"PENNSYLVANIA AVE","m":"Wall","u":"L","o":"individual","sf":1450,"v":500}},{"type":"Feature","geometry":{"type":"Point","coordinates":[-79.78993,40.39409]},"properties":{"p":"0643C00030000000","a":"PENNSYLVANIA AVE","m":"Wall","u":"L","o":"corp","sf":4380,"v":1200}},{"type":"Feature","geometry":{"type":"Point","coordinates":[-79.78855,40.39369]},"properties":{"p":"0643C00113000000","a":"WALL AVE","m":"Wall","u":"L","o":"individual","sf":10000,"v":8500}},{"type":"Feature","geometry":{"type":"Point","coordinates":[-79.7857,40.39261]},"properties":{"p":"0643D00076000000","a":"SEELEY AVE","m":"Wall","u":"L","o":"individual","sf":12466,"v":8700}},{"type":"Feature","geometry":{"type":"Point","coordinates":[-79.79012,40.39386]},"properties":{"p":"0643C00058000000","a":"WALL AVE","m":"Wall","u":"L","o":"corp","sf":1775,"v":500}},{"type":"Feature","geometry":{"type":"Point","coordinates":[-79.78541,40.39401]},"properties":{"p":"0643D00288000000","a":"WALL AVE","m":"Wall","u":"L","o":"individual","sf":6000,"v":8100}},{"type":"Feature","geometry":{"type":"Point","coordinates":[-79.78901,40.39296]},"properties":{"p":"0643C00262000000","a":"MARIE ST","m":"Wall","u":"L","o":"corp","sf":10422,"v":2700}},{"type":"Feature","geometry":{"type":"Point","coordinates":[-79.78763,40.39335]},"properties":{"p":"0643C00294000000","a":"MARIE ST","m":"Wall","u":"L","o":"individual","sf":5250,"v":1400}},{"type":"Feature","geometry":{"type":"Point","coordinates":[-79.78757,40.39294]},"properties":{"p":"0643C00306000000","a":"MARIE ST","m":"Wall","u":"L","o":"individual","sf":2750,"v":800}},{"type":"Feature","geometry":{"type":"Point","coordinates":[-79.79444,40.39337]},"properties":{"p":"0643B00133000000","a":"WALL AVE","m":"Wall","u":"L","o":"individual","sf":3750,"v":1000}},{"type":"Feature","geometry":{"type":"Point","coordinates":[-79.7943,40.39338]},"properties":{"p":"0643B00135000000","a":"WALL AVE","m":"Wall","u":"L","o":"individual","sf":7500,"v":2000}},{"type":"Feature","geometry":{"type":"Point","coordinates":[-79.79345,40.39356]},"properties":{"p":"0643B00146000000","a":"GRANT ST","m":"Wall","u":"L","o":"individual","sf":10920,"v":2800}},{"type":"Feature","geometry":{"type":"Point","coordinates":[-79.79289,40.39357]},"properties":{"p":"0643B00153000000","a":"370 WALL AVE","m":"Wall","u":"L","o":"corp","sf":2187,"v":600}},{"type":"Feature","geometry":{"type":"Point","coordinates":[-79.78821,40.39293]},"properties":{"p":"0643C00316000000","a":"MARIE ST","m":"Wall","u":"L","o":"individual","sf":2750,"v":800}},{"type":"Feature","geometry":{"type":"Point","coordinates":[-79.78861,40.39292]},"properties":{"p":"0643C00321000000","a":"MARIE ST","m":"Wall","u":"L","o":"individual","sf":11000,"v":8500}},{"type":"Feature","geometry":{"type":"Point","coordinates":[-79.78763,40.39258]},"properties":{"p":"0643C00339000000","a":"BELLVIEW ST","m":"Wall","u":"L","o":"individual","sf":2750,"v":800}},{"type":"Feature","geometry":{"type":"Point","coordinates":[-79.78292,40.39426]},"properties":{"p":"0642S00003000000","a":"ROSS ST","m":"Wall","u":"L","o":"individual","sf":5600,"v":1500}},{"type":"Feature","geometry":{"type":"Point","coordinates":[-79.78407,40.39427]},"properties":{"p":"0642S00010000000","a":"MAGNUS ST","m":"Wall","u":"L","o":"individual","sf":3000,"v":900}},{"type":"Feature","geometry":{"type":"Point","coordinates":[-79.78401,40.39432]},"properties":{"p":"0642S00012000000","a":"MAGNUS ST","m":"Wall","u":"L","o":"individual","sf":3000,"v":900}},{"type":"Feature","geometry":{"type":"Point","coordinates":[-79.78387,40.3944]},"properties":{"p":"0642S00016000000","a":"MAGNUS ST","m":"Wall","u":"L","o":"individual","sf":3000,"v":900}},{"type":"Feature","geometry":{"type":"Point","coordinates":[-79.78366,40.39453]},"properties":{"p":"0642S00022000000","a":"MAGNUS ST","m":"Wall","u":"L","o":"individual","sf":3000,"v":900}},{"type":"Feature","geometry":{"type":"Point","coordinates":[-79.7834,40.39461]},"properties":{"p":"0642S00028000000","a":"ROSS ST","m":"Wall","u":"L","o":"individual","sf":3000,"v":900}},{"type":"Feature","geometry":{"type":"Point","coordinates":[-79.78342,40.39474]},"properties":{"p":"0642S00030000000","a":"ROSS ST","m":"Wall","u":"L","o":"individual","sf":3125,"v":900}},{"type":"Feature","geometry":{"type":"Point","coordinates":[-79.78324,40.3948]},"properties":{"p":"0642S00034000000","a":"BROAD ST","m":"Wall","u":"L","o":"individual","sf":3000,"v":900}},{"type":"Feature","geometry":{"type":"Point","coordinates":[-79.78317,40.39484]},"properties":{"p":"0642S00036000000","a":"BROAD ST","m":"Wall","u":"L","o":"individual","sf":3000,"v":900}},{"type":"Feature","geometry":{"type":"Point","coordinates":[-79.78308,40.39495]},"properties":{"p":"0642S00038000000","a":"MAGNUS ST","m":"Wall","u":"L","o":"individual","sf":3882,"v":1100}},{"type":"Feature","geometry":{"type":"Point","coordinates":[-79.79209,40.39276]},"properties":{"p":"0643B00233000000","a":"GRANT ST","m":"Wall","u":"L","o":"individual","sf":3000,"v":900}},{"type":"Feature","geometry":{"type":"Point","coordinates":[-79.79154,40.39248]},"properties":{"p":"0643B00241000000","a":"VALLEY AVE","m":"Wall","u":"L","o":"individual","sf":3500,"v":1000}},{"type":"Feature","geometry":{"type":"Point","coordinates":[-79.79147,40.39241]},"properties":{"p":"0643B00242000000","a":"VALLEY AVE","m":"Wall","u":"L","o":"individual","sf":2445,"v":700}},{"type":"Feature","geometry":{"type":"Point","coordinates":[-79.79137,40.39239]},"properties":{"p":"0643B00243000000","a":"GREELY AVE","m":"Wall","u":"L","o":"individual","sf":3079,"v":900}},{"type":"Feature","geometry":{"type":"Point","coordinates":[-79.78935,40.39418]},"properties":{"p":"0643C00023000000","a":"430 PENNSYLVANIA AVE","m":"Wall","u":"L","o":"individual","sf":2175,"v":600}},{"type":"Feature","geometry":{"type":"Point","coordinates":[-79.78589,40.39439]},"properties":{"p":"0642S00103000000","a":"NEGLEY AVE","m":"Wall","u":"L","o":"corp","sf":2250,"v":700}},{"type":"Feature","geometry":{"type":"Point","coordinates":[-79.78591,40.39446]},"properties":{"p":"0642S00104000000","a":"NEGLEY AVE","m":"Wall","u":"L","o":"individual","sf":2500,"v":700}},{"type":"Feature","geometry":{"type":"Point","coordinates":[-79.78594,40.39459]},"properties":{"p":"0642S00107000000","a":"NEGLEY AVE","m":"Wall","u":"L","o":"individual","sf":2250,"v":700}},{"type":"Feature","geometry":{"type":"Point","coordinates":[-79.7865,40.39466]},"properties":{"p":"0642S00111000000","a":"PENNSYLVANIA AVE","m":"Wall","u":"L","o":"individual","sf":3000,"v":900}},{"type":"Feature","geometry":{"type":"Point","coordinates":[-79.79864,40.39266]},"properties":{"p":"0643A00135000000","a":"206 WALL AVE","m":"Wall","u":"L","o":"individual","sf":8100,"v":8300}},{"type":"Feature","geometry":{"type":"Point","coordinates":[-79.78768,40.39369]},"properties":{"p":"0643C00101000000","a":"472 WALL AVE","m":"Wall","u":"L","o":"corp","sf":2575,"v":700}},{"type":"Feature","geometry":{"type":"Point","coordinates":[-79.79931,40.39183]},"properties":{"p":"0643E00288000000","a":"COAL ST","m":"Wall","u":"L","o":"individual","sf":5000,"v":1400}},{"type":"Feature","geometry":{"type":"Point","coordinates":[-79.79803,40.3933]},"properties":{"p":"0643A00225000000","a":"RAILROAD ST","m":"Wall","u":"L","o":"individual","sf":6850,"v":8200}},{"type":"Feature","geometry":{"type":"Point","coordinates":[-79.7988,40.39333]},"properties":{"p":"0643A00234000000","a":"WALL AVE","m":"Wall","u":"L","o":"individual","sf":7500,"v":1100}},{"type":"Feature","geometry":{"type":"Point","coordinates":[-79.78846,40.39212]},"properties":{"p":"0643C00373000000","a":"DALZELL ST","m":"Wall","u":"L","o":"individual","sf":5250,"v":1400}},{"type":"Feature","geometry":{"type":"Point","coordinates":[-79.78706,40.39222]},"properties":{"p":"0643D00020000000","a":"BELLVIEW ST","m":"Wall","u":"L","o":"individual","sf":10001,"v":2000}},{"type":"Feature","geometry":{"type":"Point","coordinates":[-79.79535,40.39322]},"properties":{"p":"0643B00120000000","a":"WALL AVE","m":"Wall","u":"L","o":"individual","sf":7388,"v":8200}},{"type":"Feature","geometry":{"type":"Point","coordinates":[-79.79469,40.39329]},"properties":{"p":"0643B00129000000","a":"338 WALL AVE","m":"Wall","u":"L","o":"individual","sf":3750,"v":1000}},{"type":"Feature","geometry":{"type":"Point","coordinates":[-79.79161,40.39916]},"properties":{"p":"0642K00186000000","a":"STEELE ST","m":"Monroeville","u":"L","o":"individual","sf":3930,"v":400}},{"type":"Feature","geometry":{"type":"Point","coordinates":[-79.79237,40.39902]},"properties":{"p":"0642K00201000000","a":"STEELE ST","m":"Monroeville","u":"L","o":"individual","sf":3600,"v":300}},{"type":"Feature","geometry":{"type":"Point","coordinates":[-79.79765,40.39499]},"properties":{"p":"0642N00117000000","a":"HILLSIDE RD","m":"Monroeville","u":"L","o":"individual","sf":7927,"v":21600}},{"type":"Feature","geometry":{"type":"Point","coordinates":[-79.79839,40.39509]},"properties":{"p":"0642N00131000000","a":"THOMAS ST","m":"Monroeville","u":"L","o":"individual","sf":5318,"v":500}},{"type":"Feature","geometry":{"type":"Point","coordinates":[-79.79854,40.39507]},"properties":{"p":"0642N00133000000","a":"HILLSIDE AVE EXT","m":"Monroeville","u":"L","o":"individual","sf":5584,"v":500}},{"type":"Feature","geometry":{"type":"Point","coordinates":[-79.7986,40.39479]},"properties":{"p":"0642N00138000012","a":"THOMAS ST","m":"Monroeville","u":"L","o":"individual","sf":4854,"v":400}},{"type":"Feature","geometry":{"type":"Point","coordinates":[-79.79885,40.39482]},"properties":{"p":"0642N00146000000","a":"THOMAS ST","m":"Monroeville","u":"L","o":"individual","sf":10864,"v":24800}},{"type":"Feature","geometry":{"type":"Point","coordinates":[-79.79907,40.39487]},"properties":{"p":"0642N00148000000","a":"THOMAS ST","m":"Monroeville","u":"L","o":"individual","sf":1350,"v":100}},{"type":"Feature","geometry":{"type":"Point","coordinates":[-79.79916,40.39489]},"properties":{"p":"0642N00150000000","a":"THOMAS ST","m":"Monroeville","u":"L","o":"individual","sf":1175,"v":1300}},{"type":"Feature","geometry":{"type":"Point","coordinates":[-79.79925,40.3949]},"properties":{"p":"0642N00152000000","a":"BROADWAY BLVD","m":"Monroeville","u":"L","o":"individual","sf":1138,"v":100}},{"type":"Feature","geometry":{"type":"Point","coordinates":[-79.79934,40.39493]},"properties":{"p":"0642N00153000000","a":"THOMAS ST","m":"Monroeville","u":"L","o":"individual","sf":1199,"v":100}},{"type":"Feature","geometry":{"type":"Point","coordinates":[-79.79942,40.39496]},"properties":{"p":"0642N00155000000","a":"HUMBERT ST","m":"Monroeville","u":"L","o":"individual","sf":679,"v":100}},{"type":"Feature","geometry":{"type":"Point","coordinates":[-79.79604,40.39799]},"properties":{"p":"0642J00062000100","a":"2ND AVE","m":"Monroeville","u":"L","o":"individual","sf":2104,"v":200}},{"type":"Feature","geometry":{"type":"Point","coordinates":[-79.79711,40.39753]},"properties":{"p":"0642J00083000000","a":"2ND AVE","m":"Monroeville","u":"L","o":"individual","sf":3600,"v":500}},{"type":"Feature","geometry":{"type":"Point","coordinates":[-79.79692,40.39761]},"properties":{"p":"0642J00086000000","a":"2ND AVE","m":"Monroeville","u":"L","o":"individual","sf":3600,"v":500}},{"type":"Feature","geometry":{"type":"Point","coordinates":[-79.79861,40.39732]},"properties":{"p":"0642J00097000000","a":"3RD ST","m":"Monroeville","u":"L","o":"individual","sf":6300,"v":6800}},{"type":"Feature","geometry":{"type":"Point","coordinates":[-79.79685,40.39693]},"properties":{"p":"0642J00100000000","a":"1ST ST","m":"Monroeville","u":"L","o":"individual","sf":65340,"v":30900}},{"type":"Feature","geometry":{"type":"Point","coordinates":[-79.79861,40.39693]},"properties":{"p":"0642J00104000000","a":"2ND AVE","m":"Monroeville","u":"L","o":"individual","sf":7008,"v":2000}},{"type":"Feature","geometry":{"type":"Point","coordinates":[-79.78292,40.40481]},"properties":{"p":"0746N00320000000","a":"JOHNSTON RD","m":"Monroeville","u":"L","o":"individual","sf":13416,"v":13100}},{"type":"Feature","geometry":{"type":"Point","coordinates":[-79.79594,40.39841]},"properties":{"p":"0642J00175000000","a":"4TH ST","m":"Monroeville","u":"L","o":"individual","sf":3150,"v":300}},{"type":"Feature","geometry":{"type":"Point","coordinates":[-79.79063,40.39937]},"properties":{"p":"0642L00323000000","a":"MAWCO DR","m":"Monroeville","u":"L","o":"individual","sf":100972,"v":34200}},{"type":"Feature","geometry":{"type":"Point","coordinates":[-79.79108,40.39848]},"properties":{"p":"0642L00383000000","a":"STEELE ST","m":"Monroeville","u":"L","o":"individual","sf":3930,"v":400}},{"type":"Feature","geometry":{"type":"Point","coordinates":[-79.78013,40.40807]},"properties":{"p":"0746J00130000000","a":"PENNSYLVANIA AVE","m":"Monroeville","u":"L","o":"individual","sf":66211,"v":31000}},{"type":"Feature","geometry":{"type":"Point","coordinates":[-79.79604,40.39727]},"properties":{"p":"0642J00015000000","a":"1ST ST","m":"Monroeville","u":"L","o":"individual","sf":75794,"v":7000}},{"type":"Feature","geometry":{"type":"Point","coordinates":[-79.79739,40.39692]},"properties":{"p":"0642J00035000000","a":"2ND AVE","m":"Monroeville","u":"L","o":"individual","sf":7200,"v":700}},{"type":"Feature","geometry":{"type":"Point","coordinates":[-79.79552,40.39814]},"properties":{"p":"0642J00058000000","a":"4TH ST","m":"Monroeville","u":"L","o":"individual","sf":2958,"v":3200}},{"type":"Feature","geometry":{"type":"Point","coordinates":[-79.79445,40.39643]},"properties":{"p":"0642P00325000000","a":"BROADWAY BLVD","m":"Monroeville","u":"L","o":"individual","sf":6504,"v":600}},{"type":"Feature","geometry":{"type":"Point","coordinates":[-79.79466,40.39635]},"properties":{"p":"0642P00333000000","a":"BROADWAY BLVD","m":"Monroeville","u":"L","o":"individual","sf":18300,"v":1700}},{"type":"Feature","geometry":{"type":"Point","coordinates":[-79.79769,40.39806]},"properties":{"p":"0642J00145000000","a":"4TH ST","m":"Monroeville","u":"L","o":"individual","sf":3150,"v":300}},{"type":"Feature","geometry":{"type":"Point","coordinates":[-79.79746,40.39807]},"properties":{"p":"0642J00147000000","a":"4TH ST","m":"Monroeville","u":"L","o":"corp","sf":2730,"v":16000}},{"type":"Feature","geometry":{"type":"Point","coordinates":[-79.79737,40.39806]},"properties":{"p":"0642J00149000000","a":"4TH ST","m":"Monroeville","u":"L","o":"corp","sf":2730,"v":3000}},{"type":"Feature","geometry":{"type":"Point","coordinates":[-79.7989,40.3961]},"properties":{"p":"0642J00150000000","a":"1ST ST","m":"Monroeville","u":"L","o":"individual","sf":7200,"v":700}},{"type":"Feature","geometry":{"type":"Point","coordinates":[-79.79562,40.39842]},"properties":{"p":"0642J00169000000","a":"4TH ST","m":"Monroeville","u":"L","o":"individual","sf":3150,"v":300}},{"type":"Feature","geometry":{"type":"Point","coordinates":[-79.79572,40.39842]},"properties":{"p":"0642J00171000000","a":"4TH ST","m":"Monroeville","u":"L","o":"individual","sf":3150,"v":300}},{"type":"Feature","geometry":{"type":"Point","coordinates":[-79.79583,40.39842]},"properties":{"p":"0642J00173000000","a":"4TH ST","m":"Monroeville","u":"L","o":"individual","sf":3150,"v":3400}},{"type":"Feature","geometry":{"type":"Point","coordinates":[-79.79555,40.39946]},"properties":{"p":"0642K00307000000","a":"QUARRY RD","m":"Monroeville","u":"L","o":"individual","sf":27386,"v":27400}},{"type":"Feature","geometry":{"type":"Point","coordinates":[-79.79657,40.39887]},"properties":{"p":"0642J00255000000","a":"5TH ST","m":"Monroeville","u":"L","o":"individual","sf":3150,"v":3400}},{"type":"Feature","geometry":{"type":"Point","coordinates":[-79.79262,40.39966]},"properties":{"p":"0642F00201000000","a":"STEELE ST","m":"Monroeville","u":"L","o":"individual","sf":35000,"v":28100}},{"type":"Feature","geometry":{"type":"Point","coordinates":[-79.79332,40.39962]},"properties":{"p":"0642F00230000000","a":"STEELE ST","m":"Monroeville","u":"L","o":"individual","sf":35000,"v":28100}},{"type":"Feature","geometry":{"type":"Point","coordinates":[-79.79921,40.39525]},"properties":{"p":"0642N00162000000","a":"THOMAS ST","m":"Monroeville","u":"L","o":"individual","sf":12031,"v":26000}},{"type":"Feature","geometry":{"type":"Point","coordinates":[-79.79846,40.39551]},"properties":{"p":"0642N00176000000","a":"HILLSIDE AVE EXT","m":"Monroeville","u":"L","o":"individual","sf":16181,"v":1500}},{"type":"Feature","geometry":{"type":"Point","coordinates":[-79.79548,40.39668]},"properties":{"p":"0642N00200000000","a":"1ST ST","m":"Monroeville","u":"L","o":"individual","sf":3000,"v":300}},{"type":"Feature","geometry":{"type":"Point","coordinates":[-79.79485,40.39621]},"properties":{"p":"0642N00200000001","a":"BROADWAY BLVD","m":"Monroeville","u":"L","o":"individual","sf":3315,"v":300}},{"type":"Feature","geometry":{"type":"Point","coordinates":[-79.7976,40.39642]},"properties":{"p":"0642N00320000000","a":"1ST ST","m":"Monroeville","u":"L","o":"individual","sf":3600,"v":3900}},{"type":"Feature","geometry":{"type":"Point","coordinates":[-79.79805,40.39624]},"properties":{"p":"0642N00330000000","a":"1ST ST","m":"Monroeville","u":"L","o":"individual","sf":1440,"v":100}},{"type":"Feature","geometry":{"type":"Point","coordinates":[-79.79861,40.39642]},"properties":{"p":"0642N00348000000","a":"2ND AVE","m":"Monroeville","u":"L","o":"individual","sf":6450,"v":600}},{"type":"Feature","geometry":{"type":"Point","coordinates":[-79.79975,40.39512]},"properties":{"p":"0642N00371000000","a":"HUMBERT ST","m":"Monroeville","u":"L","o":"corp","sf":6671,"v":7200}},{"type":"Feature","geometry":{"type":"Point","coordinates":[-79.79796,40.39771]},"properties":{"p":"0642J00121000000","a":"3RD ST","m":"Monroeville","u":"L","o":"individual","sf":12600,"v":26100}},{"type":"Feature","geometry":{"type":"Point","coordinates":[-79.79839,40.39772]},"properties":{"p":"0642J00126000000","a":"3RD ST","m":"Monroeville","u":"L","o":"individual","sf":12600,"v":13000}},{"type":"Feature","geometry":{"type":"Point","coordinates":[-79.79866,40.39772]},"properties":{"p":"0642J00128000000","a":"3RD ST","m":"Monroeville","u":"L","o":"individual","sf":3150,"v":3400}},{"type":"Feature","geometry":{"type":"Point","coordinates":[-79.79843,40.39807]},"properties":{"p":"0642J00133000000","a":"4TH ST","m":"Monroeville","u":"L","o":"individual","sf":3150,"v":3400}},{"type":"Feature","geometry":{"type":"Point","coordinates":[-79.79821,40.39854]},"properties":{"p":"0642J00211000000","a":"4TH ST","m":"Monroeville","u":"L","o":"individual","sf":3150,"v":3400}},{"type":"Feature","geometry":{"type":"Point","coordinates":[-79.79842,40.39854]},"properties":{"p":"0642J00215000000","a":"4TH ST","m":"Monroeville","u":"L","o":"individual","sf":3150,"v":300}},{"type":"Feature","geometry":{"type":"Point","coordinates":[-79.79846,40.39884]},"properties":{"p":"0642J00223000000","a":"5TH ST","m":"Monroeville","u":"L","o":"individual","sf":6300,"v":600}},{"type":"Feature","geometry":{"type":"Point","coordinates":[-79.7983,40.39884]},"properties":{"p":"0642J00227000000","a":"5TH ST","m":"Monroeville","u":"L","o":"corp","sf":3150,"v":3400}},{"type":"Feature","geometry":{"type":"Point","coordinates":[-79.79626,40.39882]},"properties":{"p":"0642J00262000000","a":"5TH ST","m":"Monroeville","u":"L","o":"individual","sf":3150,"v":3400}},{"type":"Feature","geometry":{"type":"Point","coordinates":[-79.79604,40.39881]},"properties":{"p":"0642J00264000000","a":"5TH ST","m":"Monroeville","u":"L","o":"individual","sf":9450,"v":23300}},{"type":"Feature","geometry":{"type":"Point","coordinates":[-79.79169,40.3987]},"properties":{"p":"0642K00140000000","a":"ROBERTS ST","m":"Monroeville","u":"L","o":"individual","sf":3539,"v":300}},{"type":"Feature","geometry":{"type":"Point","coordinates":[-79.79212,40.39866]},"properties":{"p":"0642K00147000000","a":"ROBERTS ST","m":"Monroeville","u":"L","o":"individual","sf":3300,"v":300}},{"type":"Feature","geometry":{"type":"Point","coordinates":[-79.79899,40.39815]},"properties":{"p":"0642J00320000000","a":"THOMAS ST","m":"Monroeville","u":"L","o":"individual","sf":6600,"v":7100}},{"type":"Feature","geometry":{"type":"Point","coordinates":[-79.79149,40.39902]},"properties":{"p":"0642K00182000000","a":"STEELE ST","m":"Monroeville","u":"L","o":"individual","sf":7860,"v":21600}},{"type":"Feature","geometry":{"type":"Point","coordinates":[-79.79964,40.39804]},"properties":{"p":"0642J00370000000","a":"441 THOMAS ST","m":"Monroeville","u":"L","o":"individual","sf":3600,"v":3900}},{"type":"Feature","geometry":{"type":"Point","coordinates":[-79.79964,40.39822]},"properties":{"p":"0642J00374000000","a":"THOMAS ST","m":"Monroeville","u":"L","o":"individual","sf":3000,"v":3200}},{"type":"Feature","geometry":{"type":"Point","coordinates":[-79.799,40.39778]},"properties":{"p":"0642J00331000000","a":"THOMAS ST","m":"Monroeville","u":"L","o":"individual","sf":3600,"v":300}},{"type":"Feature","geometry":{"type":"Point","coordinates":[-79.79876,40.39732]},"properties":{"p":"0642J00340000100","a":"3RD ST","m":"Monroeville","u":"L","o":"individual","sf":1700,"v":1800}},{"type":"Feature","geometry":{"type":"Point","coordinates":[-79.79964,40.39693]},"properties":{"p":"0642J00352000000","a":"THOMAS ST","m":"Monroeville","u":"L","o":"individual","sf":19140,"v":13600}},{"type":"Feature","geometry":{"type":"Point","coordinates":[-79.79958,40.39537]},"properties":{"p":"0545S00327000000","a":"SHAW AVE","m":"Monroeville","u":"L","o":"individual","sf":30875,"v":27700}},{"type":"Feature","geometry":{"type":"Point","coordinates":[-79.79791,40.39024]},"properties":{"p":"0643E00167000000","a":"MAPLE AVE","m":"North Versailles","u":"L","o":"individual","sf":406005,"v":1000}},{"type":"Feature","geometry":{"type":"Point","coordinates":[-79.796,40.39144]},"properties":{"p":"0643F00024000000","a":"NORTH AVE","m":"North Versailles","u":"L","o":"individual","sf":19395,"v":6000}},{"type":"Feature","geometry":{"type":"Point","coordinates":[-79.79192,40.39204]},"properties":{"p":"0643B00348000000","a":"GREELY AVE","m":"North Versailles","u":"L","o":"individual","sf":9842,"v":9400}},{"type":"Feature","geometry":{"type":"Point","coordinates":[-79.79558,40.39112]},"properties":{"p":"0643E00034000000","a":"808 SYLVAN AVE","m":"North Versailles","u":"L","o":"individual","sf":4800,"v":5000}},{"type":"Feature","geometry":{"type":"Point","coordinates":[-79.79552,40.39067]},"properties":{"p":"0643E00040000000","a":"SYLVAN AVE","m":"North Versailles","u":"L","o":"individual","sf":4800,"v":8600}},{"type":"Feature","geometry":{"type":"Point","coordinates":[-79.79544,40.39017]},"properties":{"p":"0643E00046000000","a":"SYLVAN AVE","m":"North Versailles","u":"L","o":"individual","sf":9600,"v":1700}},{"type":"Feature","geometry":{"type":"Point","coordinates":[-79.79728,40.3909]},"properties":{"p":"0643J00200000000","a":"MAPLE AVE","m":"North Versailles","u":"L","o":"individual","sf":12000,"v":8700}},{"type":"Feature","geometry":{"type":"Point","coordinates":[-79.79096,40.39107]},"properties":{"p":"0643G00038000000","a":"VALLEY AVE","m":"North Versailles","u":"L","o":"individual","sf":8132,"v":18300}},{"type":"Feature","geometry":{"type":"Point","coordinates":[-79.791,40.39077]},"properties":{"p":"0643G00041000000","a":"WALL AVE","m":"North Versailles","u":"L","o":"individual","sf":13000,"v":18700}},{"type":"Feature","geometry":{"type":"Point","coordinates":[-79.7924,40.39223]},"properties":{"p":"0643B00300000000","a":"VALLEY AVE","m":"North Versailles","u":"L","o":"individual","sf":45738,"v":5900}},{"type":"Feature","geometry":{"type":"Point","coordinates":[-79.79451,40.39233]},"properties":{"p":"0643B00314000000","a":"GREELY AVE","m":"North Versailles","u":"L","o":"individual","sf":6230,"v":18100}},{"type":"Feature","geometry":{"type":"Point","coordinates":[-79.79344,40.39278]},"properties":{"p":"0643B00327000000","a":"GREELY AVE","m":"North Versailles","u":"L","o":"individual","sf":1620,"v":600}},{"type":"Feature","geometry":{"type":"Point","coordinates":[-79.79092,40.39042]},"properties":{"p":"0643G00049000000","a":"372 VALLEY AVE","m":"North Versailles","u":"L","o":"individual","sf":10146,"v":18500}},{"type":"Feature","geometry":{"type":"Point","coordinates":[-79.79548,40.39216]},"properties":{"p":"0643F00150000000","a":"RIDGE ST","m":"North Versailles","u":"L","o":"individual","sf":146418,"v":31000}},{"type":"Feature","geometry":{"type":"Point","coordinates":[-79.79266,40.39043]},"properties":{"p":"0643F00162000000","a":"CLIFFORD ST","m":"North Versailles","u":"L","o":"individual","sf":12000,"v":18600}},{"type":"Feature","geometry":{"type":"Point","coordinates":[-79.79268,40.39059]},"properties":{"p":"0643F00165000000","a":"CLIFFORD ST","m":"North Versailles","u":"L","o":"individual","sf":12000,"v":18600}},{"type":"Feature","geometry":{"type":"Point","coordinates":[-79.79426,40.3911]},"properties":{"p":"0643F00200000000","a":"GRAND AVE","m":"North Versailles","u":"L","o":"individual","sf":258398,"v":16900}},{"type":"Feature","geometry":{"type":"Point","coordinates":[-79.79601,40.39006]},"properties":{"p":"0643E00067000000","a":"SYLVAN AVE","m":"North Versailles","u":"L","o":"individual","sf":8400,"v":18300}},{"type":"Feature","geometry":{"type":"Point","coordinates":[-79.79604,40.39025]},"properties":{"p":"0643E00069000000","a":"SYLVAN AVE","m":"North Versailles","u":"L","o":"individual","sf":4200,"v":7600}},{"type":"Feature","geometry":{"type":"Point","coordinates":[-79.79145,40.39151]},"properties":{"p":"0643G00028000000","a":"VALLEY AVE","m":"North Versailles","u":"L","o":"individual","sf":11200,"v":3500}},{"type":"Feature","geometry":{"type":"Point","coordinates":[-79.79139,40.3914]},"properties":{"p":"0643G00030000000","a":"VALLEY AVE","m":"North Versailles","u":"L","o":"individual","sf":6138,"v":18100}},{"type":"Feature","geometry":{"type":"Point","coordinates":[-79.79613,40.39082]},"properties":{"p":"0643E00080000000","a":"SYLVAN AVE","m":"North Versailles","u":"L","o":"individual","sf":12600,"v":18700}},{"type":"Feature","geometry":{"type":"Point","coordinates":[-79.79664,40.3909]},"properties":{"p":"0643E00091000000","a":"800 MAPLE AVE","m":"North Versailles","u":"L","o":"individual","sf":4800,"v":1500}},{"type":"Feature","geometry":{"type":"Point","coordinates":[-79.7926,40.39868]},"properties":{"p":"0642K00157000000","a":"ROBERTS ST","m":"Monroeville","u":"L","o":"individual","sf":3300,"v":3600}},{"type":"Feature","geometry":{"type":"Point","coordinates":[-79.79736,40.39772]},"properties":{"p":"0642J00109000000","a":"JAMES AVE","m":"Monroeville","u":"L","o":"individual","sf":11210,"v":12100}},{"type":"Feature","geometry":{"type":"Point","coordinates":[-79.79306,40.39899]},"properties":{"p":"0642K00213000000","a":"328 VALLEY RD","m":"Monroeville","u":"L","o":"individual","sf":7200,"v":20900}},{"type":"Feature","geometry":{"type":"Point","coordinates":[-79.79572,40.39881]},"properties":{"p":"0642J00270000000","a":"5TH ST","m":"Monroeville","u":"L","o":"individual","sf":10376,"v":24300}},{"type":"Feature","geometry":{"type":"Point","coordinates":[-79.78479,40.39486]},"properties":{"p":"0642S00079000000","a":"WALL AVE","m":"Wall","u":"L","o":"individual","sf":2051,"v":5600}},{"type":"Feature","geometry":{"type":"Point","coordinates":[-79.79045,40.39112]},"properties":{"p":"0643G00090000000","a":"VALLEY AVE","m":"Wall","u":"L","o":"corp","sf":5000,"v":8000}},{"type":"Feature","geometry":{"type":"Point","coordinates":[-79.78683,40.39399]},"properties":{"p":"0643D00013000000","a":"WALL AVE","m":"Wall","u":"L","o":"individual","sf":4241,"v":1200}},{"type":"Feature","geometry":{"type":"Point","coordinates":[-79.79363,40.39344]},"properties":{"p":"0643B00143000000","a":"WALL AVE","m":"Wall","u":"L","o":"individual","sf":9750,"v":24400}},{"type":"Feature","geometry":{"type":"Point","coordinates":[-79.78037,40.40193]},"properties":{"p":"0747A00243000000","a":"2ND ST","m":"Pitcairn","u":"L","o":"corp","sf":2500,"v":700}},{"type":"Feature","geometry":{"type":"Point","coordinates":[-79.7803,40.40511]},"properties":{"p":"0746N00080000000","a":"ROBINSON ST","m":"Pitcairn","u":"L","o":"individual","sf":2523,"v":700}},{"type":"Feature","geometry":{"type":"Point","coordinates":[-79.78215,40.39508]},"properties":{"p":"0747N00227000000","a":"WALL AVE","m":"Wall","u":"L","o":"individual","sf":15732,"v":9000}},{"type":"Feature","geometry":{"type":"Point","coordinates":[-79.79142,40.39826]},"properties":{"p":"0642K00135000000","a":"ROBERTS ST","m":"Monroeville","u":"L","o":"individual","sf":3706,"v":17100}},{"type":"Feature","geometry":{"type":"Point","coordinates":[-79.79701,40.39757]},"properties":{"p":"0642J00084000000","a":"2ND AVE","m":"Monroeville","u":"L","o":"individual","sf":3600,"v":500}},{"type":"Feature","geometry":{"type":"Point","coordinates":[-79.79929,40.40206]},"properties":{"p":"0642A00349000000","a":"THOMAS ST","m":"Monroeville","u":"L","o":"individual","sf":20000,"v":26800}},{"type":"Feature","geometry":{"type":"Point","coordinates":[-79.78069,40.39526]},"properties":{"p":"0747N00181000000","a":"GROVE ST","m":"Wall","u":"L","o":"individual","sf":2500,"v":700}},{"type":"Feature","geometry":{"type":"Point","coordinates":[-79.79404,40.39169]},"properties":{"p":"0643F00250000000","a":"RIDGE ST","m":"North Versailles","u":"L","o":"individual","sf":675393,"v":19600}},{"type":"Feature","geometry":{"type":"Point","coordinates":[-79.78415,40.39131]},"properties":{"p":"0643H00075000000","a":"NEGLEY AVE","m":"Wall","u":"L","o":"individual","sf":6000,"v":2000}},{"type":"Feature","geometry":{"type":"Point","coordinates":[-79.79813,40.39734]},"properties":{"p":"0642J00105000000","a":"3RD ST","m":"Monroeville","u":"L","o":"individual","sf":22050,"v":14400}},{"type":"Feature","geometry":{"type":"Point","coordinates":[-79.78413,40.39044]},"properties":{"p":"0643H00183000000","a":"NEGLEY AVE","m":"Wall","u":"L","o":"individual","sf":4875,"v":1300}},{"type":"Feature","geometry":{"type":"Point","coordinates":[-79.78766,40.39293]},"properties":{"p":"0643C00308000000","a":"MARIE ST","m":"Wall","u":"L","o":"individual","sf":2750,"v":800}},{"type":"Feature","geometry":{"type":"Point","coordinates":[-79.79659,40.39057]},"properties":{"p":"0643E00097000000","a":"MAPLE AVE","m":"North Versailles","u":"L","o":"individual","sf":4800,"v":8600}},{"type":"Feature","geometry":{"type":"Point","coordinates":[-79.79779,40.39221]},"properties":{"p":"0643A00059000000","a":"GRANT ST","m":"Wall","u":"L","o":"individual","sf":6000,"v":8100}},{"type":"Feature","geometry":{"type":"Point","coordinates":[-79.79031,40.39856]},"properties":{"p":"0642L00349000000","a":"MAWCO DR","m":"Monroeville","u":"L","o":"individual","sf":14418,"v":26300}},{"type":"Feature","geometry":{"type":"Point","coordinates":[-79.79341,40.39741]},"properties":{"p":"0642K00267000000","a":"QUARRY RD","m":"Monroeville","u":"L","o":"individual","sf":12502,"v":13000}},{"type":"Feature","geometry":{"type":"Point","coordinates":[-79.79427,40.39723]},"properties":{"p":"0642K00351000000","a":"QUARRY RD","m":"Monroeville","u":"L","o":"corp","sf":29773,"v":2700}},{"type":"Feature","geometry":{"type":"Point","coordinates":[-79.7836,40.39027]},"properties":{"p":"0643H00105000000","a":"NEGLEY AVE","m":"Wall","u":"L","o":"individual","sf":3000,"v":900}},{"type":"Feature","geometry":{"type":"Point","coordinates":[-79.78701,40.39108]},"properties":{"p":"0643H00380000000","a":"ARGYLE ST","m":"Wall","u":"L","o":"individual","sf":20133,"v":9400}},{"type":"Feature","geometry":{"type":"Point","coordinates":[-79.78441,40.39411]},"properties":{"p":"0643D00264000000","a":"525 ROSS ST","m":"Wall","u":"L","o":"individual","sf":9000,"v":8400}},{"type":"Feature","geometry":{"type":"Point","coordinates":[-79.79458,40.39167]},"properties":{"p":"0643F00218000000","a":"GREELY AVE","m":"North Versailles","u":"L","o":"individual","sf":8396,"v":18300}}]}