{"type":"FeatureCollection","features":[{"type":"Feature","geometry":{"type":"Point","coordinates":[-79.78981,40.50137]},"properties":{"p":"0631P00143000000","a":"MILLTOWN RD","m":"Plum","u":"I","o":"corp","sf":453024,"v":281600}},{"type":"Feature","geometry":{"type":"Point","coordinates":[-79.78519,40.49146]},"properties":{"p":"0633D00040000000","a":"LEECHBURG RD","m":"Plum","u":"C","o":"individual","sf":27913,"v":73300}},{"type":"Feature","geometry":{"type":"Point","coordinates":[-79.78435,40.49461]},"properties":{"p":"0632M00011000000","a":"LEECHBURG RD","m":"Plum","u":"C","o":"corp","sf":80455,"v":29200}},{"type":"Feature","geometry":{"type":"Point","coordinates":[-79.78255,40.49586]},"properties":{"p":"0632H00295000000","a":"LEECHBURG RD","m":"Plum","u":"C","o":"corp","sf":733725,"v":11000}},{"type":"Feature","geometry":{"type":"Point","coordinates":[-79.78392,40.49055]},"properties":{"p":"0633D00064000000","a":"134 UNITY CENTER RD","m":"Plum","u":"C","o":"individual","sf":1630,"v":1900}},{"type":"Feature","geometry":{"type":"Point","coordinates":[-79.78965,40.49366]},"properties":{"p":"0632R00248000000","a":"LEECHBURG RD","m":"Penn Hills","u":"C","o":"individual","sf":3500,"v":35700}},{"type":"Feature","geometry":{"type":"Point","coordinates":[-79.79006,40.49342]},"properties":{"p":"0632R00255000000","a":"LEECHBURG RD","m":"Penn Hills","u":"C","o":"individual","sf":4134,"v":6200}},{"type":"Feature","geometry":{"type":"Point","coordinates":[-79.79283,40.50668]},"properties":{"p":"0631F00144000000","a":"HULTON RD","m":"Penn Hills","u":"C","o":"individual","sf":2553,"v":800}},{"type":"Feature","geometry":{"type":"Point","coordinates":[-79.79183,40.5064]},"properties":{"p":"0631F00160000000","a":"1300 HULTON RD","m":"Penn Hills","u":"C","o":"corp","sf":35430,"v":5000}},{"type":"Feature","geometry":{"type":"Point","coordinates":[-79.79308,40.50248]},"properties":{"p":"0631P00343000000","a":"MILLTOWN RD","m":"Penn Hills","u":"C","o":"corp","sf":779593,"v":194400}},{"type":"Feature","geometry":{"type":"Point","coordinates":[-79.79182,40.50587]},"properties":{"p":"0631K00020000000","a":"1300 HULTON RD","m":"Penn Hills","u":"C","o":"corp","sf":39753,"v":5600}},{"type":"Feature","geometry":{"type":"Point","coordinates":[-79.79224,40.50526]},"properties":{"p":"0631K00040000000","a":"HULTON RD","m":"Penn Hills","u":"C","o":"corp","sf":59634,"v":700}},{"type":"Feature","geometry":{"type":"Point","coordinates":[-79.79294,40.50566]},"properties":{"p":"0631K00101000000","a":"HULTON RD","m":"Penn Hills","u":"C","o":"corp","sf":85480,"v":12000}},{"type":"Feature","geometry":{"type":"Point","coordinates":[-79.78842,40.49892]},"properties":{"p":"0631K00300000000","a":"HULTON RD","m":"Penn Hills","u":"C","o":"corp","sf":276171,"v":70700}},{"type":"Feature","geometry":{"type":"Point","coordinates":[-79.79429,40.50403]},"properties":{"p":"0631P00316000000","a":"HULTON RD","m":"Penn Hills","u":"C","o":"individual","sf":154377,"v":46300}},{"type":"Feature","geometry":{"type":"Point","coordinates":[-79.7894,40.49879]},"properties":{"p":"0632G00130000000","a":"1108 MILLTOWN RD","m":"Penn Hills","u":"C","o":"corp","sf":126541,"v":1300000}},{"type":"Feature","geometry":{"type":"Point","coordinates":[-79.78224,40.49002]},"properties":{"p":"0738A00359000000","a":"ELWOOD AVE","m":"Plum","u":"L","o":"corp","sf":2500,"v":200}},{"type":"Feature","geometry":{"type":"Point","coordinates":[-79.78238,40.49006]},"properties":{"p":"0738A00361000000","a":"ELWOOD AVE","m":"Plum","u":"L","o":"corp","sf":6000,"v":17300}},{"type":"Feature","geometry":{"type":"Point","coordinates":[-79.7808,40.49115]},"properties":{"p":"0738A00208000000","a":"CENTER RD","m":"Plum","u":"L","o":"individual","sf":3300,"v":300}},{"type":"Feature","geometry":{"type":"Point","coordinates":[-79.78113,40.49113]},"properties":{"p":"0738A00216000000","a":"TURNPIKE","m":"Plum","u":"L","o":"individual","sf":6189,"v":5900}},{"type":"Feature","geometry":{"type":"Point","coordinates":[-79.78043,40.50228]},"properties":{"p":"0736N00148000000","a":"ELICKER RD","m":"Plum","u":"L","o":"individual","sf":55321,"v":41100}},{"type":"Feature","geometry":{"type":"Point","coordinates":[-79.78145,40.50191]},"properties":{"p":"0736N00173000000","a":"ELICKER RD","m":"Plum","u":"L","o":"individual","sf":43560,"v":500}},{"type":"Feature","geometry":{"type":"Point","coordinates":[-79.78213,40.49475]},"properties":{"p":"0737J00266000000","a":"LEECHBURG RD","m":"Plum","u":"L","o":"individual","sf":8177,"v":1500}},{"type":"Feature","geometry":{"type":"Point","coordinates":[-79.7877,40.49771]},"properties":{"p":"0632G00015000000","a":"JAMES WAY","m":"Plum","u":"L","o":"individual","sf":8800,"v":24100}},{"type":"Feature","geometry":{"type":"Point","coordinates":[-79.78815,40.49714]},"properties":{"p":"0632G00039000000","a":"JAMES WAY","m":"Plum","u":"L","o":"individual","sf":11200,"v":1000}},{"type":"Feature","geometry":{"type":"Point","coordinates":[-79.78817,40.49736]},"properties":{"p":"0632G00044000000","a":"JAMES WAY","m":"Plum","u":"L","o":"individual","sf":22400,"v":30300}},{"type":"Feature","geometry":{"type":"Point","coordinates":[-79.78463,40.49289]},"properties":{"p":"0632S00127000000","a":"LEECHBURG RD","m":"Plum","u":"L","o":"individual","sf":33476,"v":13500}},{"type":"Feature","geometry":{"type":"Point","coordinates":[-79.78504,40.49313]},"properties":{"p":"0632S00163000000","a":"LEECHBURG RD","m":"Plum","u":"L","o":"corp","sf":4216,"v":400}},{"type":"Feature","geometry":{"type":"Point","coordinates":[-79.78774,40.50433]},"properties":{"p":"0631L00132000000","a":"ELICKER  RD","m":"Plum","u":"L","o":"corp","sf":335847,"v":10500}},{"type":"Feature","geometry":{"type":"Point","coordinates":[-79.78707,40.49683]},"properties":{"p":"0632G00002000000","a":"MARY ST","m":"Plum","u":"L","o":"individual","sf":10090,"v":900}},{"type":"Feature","geometry":{"type":"Point","coordinates":[-79.78348,40.49333]},"properties":{"p":"0632S00039000000","a":"122 SIPLE ST","m":"Plum","u":"L","o":"individual","sf":5475,"v":5300}},{"type":"Feature","geometry":{"type":"Point","coordinates":[-79.78337,40.49402]},"properties":{"p":"0632S00050000000","a":"SIPLE ST","m":"Plum","u":"L","o":"individual","sf":9307,"v":20500}},{"type":"Feature","geometry":{"type":"Point","coordinates":[-79.78685,40.49774]},"properties":{"p":"0632H00372000000","a":"MARY ST","m":"Plum","u":"L","o":"individual","sf":10626,"v":1000}},{"type":"Feature","geometry":{"type":"Point","coordinates":[-79.78361,40.49008]},"properties":{"p":"0633D00107000100","a":"UNIVERSAL RD","m":"Plum","u":"L","o":"corp","sf":2134,"v":200}},{"type":"Feature","geometry":{"type":"Point","coordinates":[-79.78189,40.49951]},"properties":{"p":"0737A00225000000","a":"ELICKER RD","m":"Plum","u":"L","o":"individual","sf":56628,"v":6300}},{"type":"Feature","geometry":{"type":"Point","coordinates":[-79.78215,40.50067]},"properties":{"p":"0737A00229000000","a":"ELICKER RD","m":"Plum","u":"L","o":"individual","sf":56628,"v":6500}},{"type":"Feature","geometry":{"type":"Point","coordinates":[-79.78889,40.49781]},"properties":{"p":"9880X82268000000","a":"R OF W","m":"Plum","u":"L","o":"individual","sf":152896,"v":14000}},{"type":"Feature","geometry":{"type":"Point","coordinates":[-79.79301,40.49954]},"properties":{"p":"0632B00188000000","a":"116 BESSEMER ST","m":"Penn Hills","u":"L","o":"individual","sf":5693,"v":1700}},{"type":"Feature","geometry":{"type":"Point","coordinates":[-79.7987,40.4961]},"properties":{"p":"0632J00381000000","a":"HULTON RD","m":"Penn Hills","u":"L","o":"individual","sf":169231,"v":11700}},{"type":"Feature","geometry":{"type":"Point","coordinates":[-79.78958,40.49953]},"properties":{"p":"0632C00276000000","a":"JODIE LN","m":"Penn Hills","u":"L","o":"individual","sf":12298,"v":12700}},{"type":"Feature","geometry":{"type":"Point","coordinates":[-79.79127,40.4998]},"properties":{"p":"0632C00335000000","a":"MILLTOWN RD","m":"Penn Hills","u":"L","o":"corp","sf":47263,"v":4300}},{"type":"Feature","geometry":{"type":"Point","coordinates":[-79.78708,40.49414]},"properties":{"p":"0632S00348000000","a":"2219 LEECHBURG RD","m":"Penn Hills","u":"L","o":"individual","sf":3263,"v":6100}},{"type":"Feature","geometry":{"type":"Point","coordinates":[-79.78665,40.4942]},"properties":{"p":"0632S00356000000","a":"LEECHBURG RD","m":"Penn Hills","u":"L","o":"individual","sf":6090,"v":1800}},{"type":"Feature","geometry":{"type":"Point","coordinates":[-79.79884,40.49492]},"properties":{"p":"0632J00100000000","a":"BILLY DR","m":"Penn Hills","u":"L","o":"individual","sf":34878,"v":14700}},{"type":"Feature","geometry":{"type":"Point","coordinates":[-79.7954,40.49983]},"properties":{"p":"0632B00330000000","a":"3RD ST","m":"Penn Hills","u":"L","o":"individual","sf":4538,"v":11500}},{"type":"Feature","geometry":{"type":"Point","coordinates":[-79.79548,40.5003]},"properties":{"p":"0632B00348000000","a":"COLLEGE ST","m":"Penn Hills","u":"L","o":"individual","sf":4000,"v":10800}},{"type":"Feature","geometry":{"type":"Point","coordinates":[-79.78715,40.49106]},"properties":{"p":"0633D00301000000","a":"MEADOW AVE","m":"Penn Hills","u":"L","o":"individual","sf":35937,"v":8800}},{"type":"Feature","geometry":{"type":"Point","coordinates":[-79.78684,40.49128]},"properties":{"p":"0633D00311000000","a":"CEDARWOOD DR","m":"Penn Hills","u":"L","o":"individual","sf":7409,"v":12200}},{"type":"Feature","geometry":{"type":"Point","coordinates":[-79.78722,40.49139]},"properties":{"p":"0633D00362000000","a":"RAILROAD ST","m":"Penn Hills","u":"L","o":"individual","sf":8712,"v":12300}},{"type":"Feature","geometry":{"type":"Point","coordinates":[-79.78599,40.49199]},"properties":{"p":"0633D00380000000","a":"RAILROAD ST","m":"Penn Hills","u":"L","o":"individual","sf":7516,"v":12200}},{"type":"Feature","geometry":{"type":"Point","coordinates":[-79.79233,40.49931]},"properties":{"p":"0632B00215000000","a":"BESSEMER ST","m":"Penn Hills","u":"L","o":"individual","sf":4238,"v":11100}},{"type":"Feature","geometry":{"type":"Point","coordinates":[-79.79246,40.49926]},"properties":{"p":"0632B00217000000","a":"BESSEMER ST","m":"Penn Hills","u":"L","o":"individual","sf":3040,"v":9700}},{"type":"Feature","geometry":{"type":"Point","coordinates":[-79.79258,40.49921]},"properties":{"p":"0632B00219000000","a":"BESSEMER ST","m":"Penn Hills","u":"L","o":"individual","sf":5228,"v":12000}},{"type":"Feature","geometry":{"type":"Point","coordinates":[-79.79271,40.49915]},"properties":{"p":"0632B00221000000","a":"BESSEMER ST","m":"Penn Hills","u":"L","o":"individual","sf":4723,"v":1400}},{"type":"Feature","geometry":{"type":"Point","coordinates":[-79.79323,40.49468]},"properties":{"p":"0632K00032000000","a":"PHYLLIS DR","m":"Penn Hills","u":"L","o":"corp","sf":7055,"v":2100}},{"type":"Feature","geometry":{"type":"Point","coordinates":[-79.79607,40.50967]},"properties":{"p":"0631A00044000000","a":"1445 HULTON RD","m":"Penn Hills","u":"L","o":"corp","sf":36792,"v":14900}},{"type":"Feature","geometry":{"type":"Point","coordinates":[-79.79769,40.50976]},"properties":{"p":"0631A00088000000","a":"HULTON RD","m":"Penn Hills","u":"L","o":"individual","sf":9806,"v":2800}},{"type":"Feature","geometry":{"type":"Point","coordinates":[-79.79523,40.50067]},"properties":{"p":"0632B00303000000","a":"COLLEGE ST","m":"Penn Hills","u":"L","o":"individual","sf":7673,"v":6200}},{"type":"Feature","geometry":{"type":"Point","coordinates":[-79.79771,40.5077]},"properties":{"p":"0631E00042000000","a":"COLGAN TER","m":"Penn Hills","u":"L","o":"individual","sf":25966,"v":7400}},{"type":"Feature","geometry":{"type":"Point","coordinates":[-79.79096,40.49428]},"properties":{"p":"0632R00372000000","a":"WALNUT ST","m":"Penn Hills","u":"L","o":"individual","sf":15384,"v":660}},{"type":"Feature","geometry":{"type":"Point","coordinates":[-79.78535,40.49285]},"properties":{"p":"0632S00190000000","a":"MARGARET ST","m":"Penn Hills","u":"L","o":"individual","sf":42100,"v":11900}},{"type":"Feature","geometry":{"type":"Point","coordinates":[-79.79485,40.49485]},"properties":{"p":"0632K00188000000","a":"LORETTA DR","m":"Penn Hills","u":"L","o":"individual","sf":304,"v":6400}},{"type":"Feature","geometry":{"type":"Point","coordinates":[-79.79712,40.4983]},"properties":{"p":"0632E00163000000","a":"HULTON RD","m":"Penn Hills","u":"L","o":"individual","sf":958,"v":400}},{"type":"Feature","geometry":{"type":"Point","coordinates":[-79.79582,40.49868]},"properties":{"p":"0632E00208000000","a":"HULTON RD","m":"Penn Hills","u":"L","o":"corp","sf":584053,"v":39000}},{"type":"Feature","geometry":{"type":"Point","coordinates":[-79.78713,40.49337]},"properties":{"p":"0632S00279000000","a":"MAY ST","m":"Penn Hills","u":"L","o":"individual","sf":6900,"v":2000}},{"type":"Feature","geometry":{"type":"Point","coordinates":[-79.78652,40.49336]},"properties":{"p":"0632S00290000000","a":"MAY ST","m":"Penn Hills","u":"L","o":"corp","sf":9200,"v":6400}},{"type":"Feature","geometry":{"type":"Point","coordinates":[-79.79997,40.49778]},"properties":{"p":"0535H00003000000","a":"HULTON RD","m":"Penn Hills","u":"L","o":"individual","sf":47960,"v":4400}},{"type":"Feature","geometry":{"type":"Point","coordinates":[-79.79351,40.50704]},"properties":{"p":"0631F00238000000","a":"HULTON RD","m":"Penn Hills","u":"L","o":"individual","sf":16999,"v":4900}},{"type":"Feature","geometry":{"type":"Point","coordinates":[-79.7938,40.50674]},"properties":{"p":"0631F00241000000","a":"HULTON RD","m":"Penn Hills","u":"L","o":"individual","sf":7166,"v":2100}},{"type":"Feature","geometry":{"type":"Point","coordinates":[-79.79409,40.50709]},"properties":{"p":"0631F00284000000","a":"INDIANA RD","m":"Penn Hills","u":"L","o":"corp","sf":19728,"v":5600}},{"type":"Feature","geometry":{"type":"Point","coordinates":[-79.79662,40.49988]},"properties":{"p":"0632A00077000000","a":"HULTON RD","m":"Penn Hills","u":"L","o":"corp","sf":17095,"v":4900}},{"type":"Feature","geometry":{"type":"Point","coordinates":[-79.79679,40.50723]},"properties":{"p":"0631E00079000000","a":"INDIANA RD","m":"Penn Hills","u":"L","o":"individual","sf":45302,"v":15700}},{"type":"Feature","geometry":{"type":"Point","coordinates":[-79.79799,40.49865]},"properties":{"p":"0632E00266000000","a":"HULTON RD","m":"Penn Hills","u":"L","o":"corp","sf":115434,"v":4000}},{"type":"Feature","geometry":{"type":"Point","coordinates":[-79.7916,40.49701]},"properties":{"p":"0632F00025000000","a":"MERRY DR","m":"Penn Hills","u":"L","o":"corp","sf":291852,"v":33200}},{"type":"Feature","geometry":{"type":"Point","coordinates":[-79.79555,40.4961]},"properties":{"p":"0632F00078000000","a":"MERRY DR","m":"Penn Hills","u":"L","o":"individual","sf":70829,"v":800}},{"type":"Feature","geometry":{"type":"Point","coordinates":[-79.79385,40.50648]},"properties":{"p":"0631K00230000000","a":"HULTON RD","m":"Penn Hills","u":"L","o":"individual","sf":5445,"v":1600}},{"type":"Feature","geometry":{"type":"Point","coordinates":[-79.79501,40.49817]},"properties":{"p":"0632F00296000000","a":"223 BESSEMER ST","m":"Penn Hills","u":"L","o":"individual","sf":4784,"v":1400}},{"type":"Feature","geometry":{"type":"Point","coordinates":[-79.79717,40.50114]},"properties":{"p":"0632A00168000000","a":"HULTON RD","m":"Penn Hills","u":"L","o":"corp","sf":7500,"v":6200}},{"type":"Feature","geometry":{"type":"Point","coordinates":[-79.78586,40.4942]},"properties":{"p":"0632S00375000000","a":"LEECHBURG RD","m":"Penn Hills","u":"L","o":"individual","sf":22231,"v":13600}},{"type":"Feature","geometry":{"type":"Point","coordinates":[-79.79506,40.50847]},"properties":{"p":"0631F00361000000","a":"COLGAN TER","m":"Penn Hills","u":"L","o":"individual","sf":5600,"v":12100}},{"type":"Feature","geometry":{"type":"Point","coordinates":[-79.79631,40.50127]},"properties":{"p":"0632A00132000000","a":"HULTON RD","m":"Penn Hills","u":"L","o":"corp","sf":995,"v":400}},{"type":"Feature","geometry":{"type":"Point","coordinates":[-79.78768,40.49754]},"properties":{"p":"0632G00019000000","a":"JAMES WAY","m":"Plum","u":"L","o":"individual","sf":8800,"v":800}},{"type":"Feature","geometry":{"type":"Point","coordinates":[-79.79565,40.50206]},"properties":{"p":"0631P00357000000","a":"HULTON RD","m":"Penn Hills","u":"L","o":"individual","sf":76230,"v":18500}},{"type":"Feature","geometry":{"type":"Point","coordinates":[-79.79541,40.50021]},"properties":{"p":"0632B00344000000","a":"4TH ST","m":"Penn Hills","u":"L","o":"individual","sf":4000,"v":10800}},{"type":"Feature","geometry":{"type":"Point","coordinates":[-79.79495,40.50725]},"properties":{"p":"0631F00265000000","a":"MILLTOWN RD","m":"Penn Hills","u":"L","o":"individual","sf":56428,"v":5200}},{"type":"Feature","geometry":{"type":"Point","coordinates":[-79.79733,40.49639]},"properties":{"p":"0632J00362000000","a":"HULTON RD","m":"Penn Hills","u":"L","o":"corp","sf":217364,"v":20000}},{"type":"Feature","geometry":{"type":"Point","coordinates":[-79.79983,40.49227]},"properties":{"p":"0633A00395000000","a":"BILLY DR","m":"Penn Hills","u":"L","o":"corp","sf":37375,"v":14900}},{"type":"Feature","geometry":{"type":"Point","coordinates":[-79.79329,40.49887]},"properties":{"p":"0632F00324000000","a":"119 BESSEMER ST","m":"Penn Hills","u":"L","o":"individual","sf":6921,"v":6200}},{"type":"Feature","geometry":{"type":"Point","coordinates":[-79.79062,40.49531]},"properties":{"p":"0632L00085000000","a":"NASH AVE","m":"Penn Hills","u":"L","o":"individual","sf":12000,"v":3500}},{"type":"Feature","geometry":{"type":"Point","coordinates":[-79.78756,40.49621]},"properties":{"p":"0632L00394000000","a":"MARY ST","m":"Plum","u":"L","o":"individual","sf":4655,"v":400}},{"type":"Feature","geometry":{"type":"Point","coordinates":[-79.79025,40.49732]},"properties":{"p":"0632G00325000000","a":"BARCKHOFF ST","m":"Penn Hills","u":"L","o":"individual","sf":30492,"v":8600}},{"type":"Feature","geometry":{"type":"Point","coordinates":[-79.79316,40.49503]},"properties":{"p":"0632K00065000000","a":"PHYLLIS DR","m":"Penn Hills","u":"L","o":"corp","sf":25790,"v":13900}},{"type":"Feature","geometry":{"type":"Point","coordinates":[-79.79274,40.49965]},"properties":{"p":"0632B00192000000","a":"BESSEMER ST","m":"Penn Hills","u":"L","o":"individual","sf":5258,"v":12000}},{"type":"Feature","geometry":{"type":"Point","coordinates":[-79.79931,40.49592]},"properties":{"p":"0632J00388000000","a":"HULTON RD","m":"Penn Hills","u":"L","o":"individual","sf":4791,"v":100}},{"type":"Feature","geometry":{"type":"Point","coordinates":[-79.79457,40.49704]},"properties":{"p":"0632F00079000000","a":"MERRY DR","m":"Penn Hills","u":"L","o":"individual","sf":65340,"v":17500}}]}