{"type":"FeatureCollection","features":[{"type":"Feature","geometry":{"type":"Point","coordinates":[-79.79594,40.56637]},"properties":{"p":"0729B00007000000","a":"TAWNEY RUN RD","m":"Frazer","u":"C","o":"corp","sf":1190451,"v":64600}},{"type":"Feature","geometry":{"type":"Point","coordinates":[-79.78653,40.56761]},"properties":{"p":"0729D00379000000","a":"RIDDLE RUN RD","m":"Frazer","u":"C","o":"individual","sf":3572,"v":400}},{"type":"Feature","geometry":{"type":"Point","coordinates":[-79.79269,40.55915]},"properties":{"p":"0626B00075000000","a":"BUTLER RD","m":"Springdale Twp","u":"C","o":"corp","sf":67518,"v":3500}},{"type":"Feature","geometry":{"type":"Point","coordinates":[-79.79346,40.55965]},"properties":{"p":"0729P00132000000","a":"BUTLER RD","m":"Springdale Twp","u":"C","o":"corp","sf":6795,"v":2700}},{"type":"Feature","geometry":{"type":"Point","coordinates":[-79.7871,40.56971]},"properties":{"p":"0840S00081000000","a":"RIDDLE RUN RD","m":"Frazer","u":"L","o":"individual","sf":21780,"v":2000}},{"type":"Feature","geometry":{"type":"Point","coordinates":[-79.78649,40.56973]},"properties":{"p":"0840S00107000000","a":"IVANS LN","m":"Frazer","u":"L","o":"individual","sf":14344,"v":1300}},{"type":"Feature","geometry":{"type":"Point","coordinates":[-79.78201,40.56302]},"properties":{"p":"0729M00028000000","a":"RIDDLE RUN RD","m":"Frazer","u":"L","o":"individual","sf":314547,"v":12600}},{"type":"Feature","geometry":{"type":"Point","coordinates":[-79.78365,40.56472]},"properties":{"p":"0729M00077000000","a":"RIDDLE RUN RD","m":"Frazer","u":"L","o":"individual","sf":69260,"v":22500}},{"type":"Feature","geometry":{"type":"Point","coordinates":[-79.78595,40.56482]},"properties":{"p":"0729M00087000000","a":"RIDDLE RUN RD","m":"Frazer","u":"L","o":"individual","sf":191664,"v":50800}},{"type":"Feature","geometry":{"type":"Point","coordinates":[-79.78176,40.56469]},"properties":{"p":"0730E00006000000","a":"RIDDLE RUN RD","m":"Frazer","u":"L","o":"individual","sf":263538,"v":27000}},{"type":"Feature","geometry":{"type":"Point","coordinates":[-79.78117,40.56557]},"properties":{"p":"0730E00187000001","a":"BUTLER LOGAN RD","m":"Frazer","u":"L","o":"corp","sf":154202,"v":47300}},{"type":"Feature","geometry":{"type":"Point","coordinates":[-79.78226,40.56757]},"properties":{"p":"0729H00271000000","a":"RIDDLE RUN RD","m":"Frazer","u":"L","o":"individual","sf":1029758,"v":54500}},{"type":"Feature","geometry":{"type":"Point","coordinates":[-79.78428,40.56723]},"properties":{"p":"0729H00273000000","a":"RIDDLE RUN RD","m":"Frazer","u":"L","o":"individual","sf":62726,"v":700}},{"type":"Feature","geometry":{"type":"Point","coordinates":[-79.78385,40.5655]},"properties":{"p":"0729H00352000000","a":"RIDDLE RUN RD","m":"Frazer","u":"L","o":"individual","sf":42625,"v":37000}},{"type":"Feature","geometry":{"type":"Point","coordinates":[-79.7962,40.56308]},"properties":{"p":"0729J00239000000","a":"1716 -1720 BUTLER LOGAN RD","m":"Frazer","u":"L","o":"individual","sf":533131,"v":39400}},{"type":"Feature","geometry":{"type":"Point","coordinates":[-79.79816,40.56278]},"properties":{"p":"0729J00242000000","a":"1716 -1720 BUTLER LOGAN RD","m":"Frazer","u":"L","o":"individual","sf":19820,"v":1800}},{"type":"Feature","geometry":{"type":"Point","coordinates":[-79.79184,40.56644]},"properties":{"p":"0729F00094000000","a":"BUTLER LOGAN RD","m":"Frazer","u":"L","o":"individual","sf":43560,"v":37200}},{"type":"Feature","geometry":{"type":"Point","coordinates":[-79.7857,40.56633]},"properties":{"p":"0729H00150000000","a":"RIDDLE RUN RD","m":"Frazer","u":"L","o":"individual","sf":17380,"v":1600}},{"type":"Feature","geometry":{"type":"Point","coordinates":[-79.78426,40.56474]},"properties":{"p":"0729H00216000000","a":"RIDDLE RUN RD","m":"Frazer","u":"L","o":"individual","sf":16802,"v":1500}},{"type":"Feature","geometry":{"type":"Point","coordinates":[-79.78618,40.56946]},"properties":{"p":"0840S00138000000","a":"102 IVANS LN","m":"Frazer","u":"L","o":"individual","sf":1110,"v":100}},{"type":"Feature","geometry":{"type":"Point","coordinates":[-79.78544,40.56752]},"properties":{"p":"0729D00314000000","a":"RIDDLE RUN RD","m":"Frazer","u":"L","o":"individual","sf":36996,"v":3300}},{"type":"Feature","geometry":{"type":"Point","coordinates":[-79.79398,40.55862]},"properties":{"p":"0626B00001000000","a":"BUTLER RD","m":"Springdale Twp","u":"L","o":"individual","sf":261377,"v":46500}},{"type":"Feature","geometry":{"type":"Point","coordinates":[-79.78973,40.5573]},"properties":{"p":"0626C00023000000","a":"BUTLER RD","m":"Springdale Twp","u":"L","o":"individual","sf":13068,"v":4300}},{"type":"Feature","geometry":{"type":"Point","coordinates":[-79.79082,40.55777]},"properties":{"p":"0626C00031000000","a":"BUTLER RD","m":"Springdale Twp","u":"L","o":"individual","sf":34945,"v":25700}},{"type":"Feature","geometry":{"type":"Point","coordinates":[-79.78746,40.55287]},"properties":{"p":"0626L00215000000","a":"BUCKNELL DR","m":"Springdale Twp","u":"L","o":"individual","sf":11324,"v":9200}},{"type":"Feature","geometry":{"type":"Point","coordinates":[-79.78392,40.55287]},"properties":{"p":"0626M00039000000","a":"ADELINE ST","m":"Springdale Twp","u":"L","o":"individual","sf":1906,"v":700}},{"type":"Feature","geometry":{"type":"Point","coordinates":[-79.79945,40.55177]},"properties":{"p":"0626N00062000000","a":"GALECKI DR","m":"Springdale Twp","u":"L","o":"individual","sf":54450,"v":27500}},{"type":"Feature","geometry":{"type":"Point","coordinates":[-79.79087,40.56034]},"properties":{"p":"0729R00190000000","a":"BUTLER RD","m":"Springdale Twp","u":"L","o":"individual","sf":176854,"v":27300}},{"type":"Feature","geometry":{"type":"Point","coordinates":[-79.79884,40.55161]},"properties":{"p":"0626N00082000000","a":"GALECKI DR","m":"Springdale Twp","u":"L","o":"individual","sf":8050,"v":2700}},{"type":"Feature","geometry":{"type":"Point","coordinates":[-79.7806,40.55172]},"properties":{"p":"0731N00230000000","a":"MELZENA ST","m":"Springdale Twp","u":"L","o":"individual","sf":13560,"v":4400}},{"type":"Feature","geometry":{"type":"Point","coordinates":[-79.78024,40.5517]},"properties":{"p":"0731N00234000000","a":"MELZENA ST","m":"Springdale Twp","u":"L","o":"individual","sf":9100,"v":3000}},{"type":"Feature","geometry":{"type":"Point","coordinates":[-79.78026,40.55199]},"properties":{"p":"0731N00236000000","a":"MELZENA ST","m":"Springdale Twp","u":"L","o":"individual","sf":4550,"v":1600}},{"type":"Feature","geometry":{"type":"Point","coordinates":[-79.78029,40.55231]},"properties":{"p":"0731N00240000000","a":"MELZENA ST","m":"Springdale Twp","u":"L","o":"individual","sf":18150,"v":5900}},{"type":"Feature","geometry":{"type":"Point","coordinates":[-79.7862,40.5523]},"properties":{"p":"0626M00314000000","a":"126 BUCKNELL DR","m":"Springdale Twp","u":"L","o":"individual","sf":897,"v":400}},{"type":"Feature","geometry":{"type":"Point","coordinates":[-79.7973,40.55257]},"properties":{"p":"0626N00032000000","a":"THOMPSON RUN RD","m":"Springdale Twp","u":"L","o":"individual","sf":28951,"v":25200}},{"type":"Feature","geometry":{"type":"Point","coordinates":[-79.79767,40.55256]},"properties":{"p":"0626N00036000000","a":"THOMPSON RUN RD","m":"Springdale Twp","u":"L","o":"individual","sf":28993,"v":25200}},{"type":"Feature","geometry":{"type":"Point","coordinates":[-79.78334,40.5511]},"properties":{"p":"0626S00052000000","a":"MELZENA ST","m":"Springdale Twp","u":"L","o":"individual","sf":12251,"v":23700}},{"type":"Feature","geometry":{"type":"Point","coordinates":[-79.781,40.55028]},"properties":{"p":"0731N00110000000","a":"ADELINE ST","m":"Springdale Twp","u":"L","o":"individual","sf":104370,"v":2400}},{"type":"Feature","geometry":{"type":"Point","coordinates":[-79.78351,40.55053]},"properties":{"p":"0626S00026000000","a":"BUTLER RD","m":"Springdale Twp","u":"L","o":"corp","sf":8625,"v":2900}},{"type":"Feature","geometry":{"type":"Point","coordinates":[-79.78406,40.55102]},"properties":{"p":"0626S00043000000","a":"118 MELZENA ST","m":"Springdale Twp","u":"L","o":"individual","sf":6126,"v":2100}},{"type":"Feature","geometry":{"type":"Point","coordinates":[-79.78379,40.55101]},"properties":{"p":"0626S00045000000","a":"MELZENA ST","m":"Springdale Twp","u":"L","o":"individual","sf":3261,"v":1100}},{"type":"Feature","geometry":{"type":"Point","coordinates":[-79.79045,40.55753]},"properties":{"p":"0626C00033000000","a":"1340 BUTLER RD","m":"Springdale Twp","u":"L","o":"individual","sf":17468,"v":24100}},{"type":"Feature","geometry":{"type":"Point","coordinates":[-79.78521,40.55032]},"properties":{"p":"0626S00234000000","a":"204 SYCAMORE RIDGE DR","m":"Springdale Twp","u":"L","o":"individual","sf":9501,"v":11900}},{"type":"Feature","geometry":{"type":"Point","coordinates":[-79.78268,40.55037]},"properties":{"p":"0731N00041000000","a":"ADELINE ST","m":"Springdale Twp","u":"L","o":"individual","sf":51749,"v":15800}},{"type":"Feature","geometry":{"type":"Point","coordinates":[-79.78614,40.55385]},"properties":{"p":"0626M00190000000","a":"BUTLER RD","m":"Springdale Twp","u":"L","o":"individual","sf":27405,"v":13500}},{"type":"Feature","geometry":{"type":"Point","coordinates":[-79.79802,40.55149]},"properties":{"p":"0626N00153000000","a":"1020 THOMPSON RUN RD","m":"Springdale Twp","u":"L","o":"individual","sf":7050,"v":11700}},{"type":"Feature","geometry":{"type":"Point","coordinates":[-79.7825,40.55302]},"properties":{"p":"0731J00375000000","a":"ADELINE ST","m":"Springdale Twp","u":"L","o":"individual","sf":64499,"v":28500}},{"type":"Feature","geometry":{"type":"Point","coordinates":[-79.78741,40.56961]},"properties":{"p":"0729D00186000000","a":"IVANS LN","m":"Frazer","u":"L","o":"individual","sf":1973,"v":200}},{"type":"Feature","geometry":{"type":"Point","coordinates":[-79.79598,40.55261]},"properties":{"p":"0626N00026000000","a":"THOMPSON RUN RD","m":"Springdale Twp","u":"L","o":"individual","sf":21780,"v":13000}},{"type":"Feature","geometry":{"type":"Point","coordinates":[-79.79025,40.56794]},"properties":{"p":"0729B00311000000","a":"1753 BUTLER LOGAN RD","m":"Frazer","u":"L","o":"individual","sf":435600,"v":58200}},{"type":"Feature","geometry":{"type":"Point","coordinates":[-79.7997,40.56118]},"properties":{"p":"0729N00035000000","a":"TAWNEY RUN RD","m":"Springdale Twp","u":"L","o":"individual","sf":77972,"v":3580}},{"type":"Feature","geometry":{"type":"Point","coordinates":[-79.79216,40.56104]},"properties":{"p":"0729P00250000000","a":"BUTLER RD","m":"Springdale Twp","u":"L","o":"individual","sf":21780,"v":24500}},{"type":"Feature","geometry":{"type":"Point","coordinates":[-79.78564,40.55245]},"properties":{"p":"0626M00303000100","a":"1144 BUTLER RD","m":"Springdale Twp","u":"L","o":"individual","sf":1383,"v":500}}]}