{"type":"FeatureCollection","features":[{"type":"Feature","geometry":{"type":"Point","coordinates":[-79.79167,40.57485]},"properties":{"p":"0840F00100000000","a":"MILLS DR","m":"Frazer","u":"C","o":"corp","sf":305316,"v":32100}},{"type":"Feature","geometry":{"type":"Point","coordinates":[-79.78884,40.58931]},"properties":{"p":"1086R00070000000","a":"CRAWFORD RUN RD","m":"East Deer","u":"C","o":"corp","sf":80150,"v":5500}},{"type":"Feature","geometry":{"type":"Point","coordinates":[-79.78135,40.58462]},"properties":{"p":"0960J00210000000","a":"CRAWFORD RUN RD","m":"East Deer","u":"C","o":"individual","sf":303483,"v":21200}},{"type":"Feature","geometry":{"type":"Point","coordinates":[-79.79865,40.575]},"properties":{"p":"0840F00050000000","a":"PITTSBURGH MILLS CIR","m":"Frazer","u":"C","o":"corp","sf":407299,"v":22200}},{"type":"Feature","geometry":{"type":"Point","coordinates":[-79.79107,40.57263]},"properties":{"p":"0840L00275000000","a":"MILLS DR","m":"Frazer","u":"C","o":"corp","sf":96991,"v":103400}},{"type":"Feature","geometry":{"type":"Point","coordinates":[-79.79306,40.57345]},"properties":{"p":"0840K00050000000","a":"590 PITTSBURGH MILLS CIR","m":"Frazer","u":"C","o":"corp","sf":207781,"v":240000}},{"type":"Feature","geometry":{"type":"Point","coordinates":[-79.79178,40.57238]},"properties":{"p":"0840P00050000000","a":"PITTSBURGH MILLS CIR","m":"Frazer","u":"C","o":"corp","sf":238682,"v":46100}},{"type":"Feature","geometry":{"type":"Point","coordinates":[-79.78795,40.57206]},"properties":{"p":"0840R00131000000","a":"RIDDLE RUN RD","m":"Frazer","u":"L","o":"individual","sf":50399,"v":37800}},{"type":"Feature","geometry":{"type":"Point","coordinates":[-79.78866,40.57162]},"properties":{"p":"0840R00134000000","a":"RIDDLE RUN RD","m":"Frazer","u":"L","o":"individual","sf":24135,"v":2200}},{"type":"Feature","geometry":{"type":"Point","coordinates":[-79.78869,40.57137]},"properties":{"p":"0840R00143000000","a":"RIDDLE RUN RD","m":"Frazer","u":"L","o":"individual","sf":19910,"v":1800}},{"type":"Feature","geometry":{"type":"Point","coordinates":[-79.78926,40.57134]},"properties":{"p":"0840R00251000000","a":"RIDDLE RUN RD","m":"Frazer","u":"L","o":"individual","sf":25544,"v":2300}},{"type":"Feature","geometry":{"type":"Point","coordinates":[-79.78912,40.57152]},"properties":{"p":"0840R00265000000","a":"BUTLER LOGAN RD","m":"Frazer","u":"L","o":"individual","sf":71,"v":100}},{"type":"Feature","geometry":{"type":"Point","coordinates":[-79.78611,40.57006]},"properties":{"p":"0840S00110000000","a":"OAK LN","m":"Frazer","u":"L","o":"individual","sf":16335,"v":1500}},{"type":"Feature","geometry":{"type":"Point","coordinates":[-79.79855,40.58062]},"properties":{"p":"0959N00336000000","a":"2163 BUTLER LOGAN RD","m":"Frazer","u":"L","o":"individual","sf":40000,"v":36800}},{"type":"Feature","geometry":{"type":"Point","coordinates":[-79.79968,40.58431]},"properties":{"p":"0958M00063000000","a":"CLARKS PIKE RD","m":"Frazer","u":"L","o":"individual","sf":23087,"v":2100}},{"type":"Feature","geometry":{"type":"Point","coordinates":[-79.79674,40.58387]},"properties":{"p":"0959J00036000000","a":"CLARKS PIKE RD","m":"Frazer","u":"L","o":"individual","sf":17424,"v":1600}},{"type":"Feature","geometry":{"type":"Point","coordinates":[-79.78927,40.57463]},"properties":{"p":"0840G00057000000","a":"BUTLER LOGAN RD","m":"Frazer","u":"L","o":"corp","sf":430808,"v":59100}},{"type":"Feature","geometry":{"type":"Point","coordinates":[-79.79083,40.57599]},"properties":{"p":"0840G00247000000","a":"BUTLER LOGAN RD","m":"Frazer","u":"L","o":"individual","sf":43264,"v":5000}},{"type":"Feature","geometry":{"type":"Point","coordinates":[-79.78951,40.57286]},"properties":{"p":"0840L00152000000","a":"102 DIVISION RD","m":"Frazer","u":"L","o":"individual","sf":16448,"v":1500}},{"type":"Feature","geometry":{"type":"Point","coordinates":[-79.78776,40.57239]},"properties":{"p":"0840L00167000000","a":"RIDDLE RUN RD","m":"Frazer","u":"L","o":"individual","sf":7990,"v":700}},{"type":"Feature","geometry":{"type":"Point","coordinates":[-79.79706,40.57656]},"properties":{"p":"0840F00273000000","a":"PEACHTREE LN","m":"Frazer","u":"L","o":"individual","sf":65340,"v":6000}},{"type":"Feature","geometry":{"type":"Point","coordinates":[-79.79671,40.57581]},"properties":{"p":"0840F00330000000","a":"BUTLER LOGAN RD","m":"Frazer","u":"L","o":"individual","sf":530996,"v":31100}},{"type":"Feature","geometry":{"type":"Point","coordinates":[-79.79437,40.57709]},"properties":{"p":"0840F00331000000","a":"PEACHTREE LN","m":"Frazer","u":"L","o":"individual","sf":28925,"v":2600}},{"type":"Feature","geometry":{"type":"Point","coordinates":[-79.79718,40.5771]},"properties":{"p":"0840F00332000000","a":"PEACHTREE LN","m":"Frazer","u":"L","o":"individual","sf":610667,"v":36600}},{"type":"Feature","geometry":{"type":"Point","coordinates":[-79.79285,40.57706]},"properties":{"p":"0840F00373000000","a":"PEACHTREE LN","m":"Frazer","u":"L","o":"individual","sf":39951,"v":19400}},{"type":"Feature","geometry":{"type":"Point","coordinates":[-79.7832,40.58401]},"properties":{"p":"0959M00005000000","a":"301 CRAWFORD RUN RD","m":"East Deer","u":"L","o":"corp","sf":1375,"v":500}},{"type":"Feature","geometry":{"type":"Point","coordinates":[-79.78311,40.58462]},"properties":{"p":"0960E00004000000","a":"STANLEY ST","m":"East Deer","u":"L","o":"individual","sf":1417,"v":600}},{"type":"Feature","geometry":{"type":"Point","coordinates":[-79.78303,40.58438]},"properties":{"p":"0960E00006000000","a":"CRAWFORD RUN RD","m":"East Deer","u":"L","o":"individual","sf":2378,"v":900}},{"type":"Feature","geometry":{"type":"Point","coordinates":[-79.7831,40.57286]},"properties":{"p":"0840M00150000000","a":"OLD MURRAYHILL RD","m":"East Deer","u":"L","o":"corp","sf":296644,"v":41400}},{"type":"Feature","geometry":{"type":"Point","coordinates":[-79.78043,40.58116]},"properties":{"p":"0960N00127000000","a":"MURRAYHILL RD","m":"East Deer","u":"L","o":"individual","sf":11000,"v":3600}},{"type":"Feature","geometry":{"type":"Point","coordinates":[-79.7808,40.58112]},"properties":{"p":"0960N00139000000","a":"MURRAYHILL RD","m":"East Deer","u":"L","o":"individual","sf":17914,"v":21200}},{"type":"Feature","geometry":{"type":"Point","coordinates":[-79.78749,40.58625]},"properties":{"p":"0959H00007000000","a":"447 CRAWFORD RUN RD","m":"East Deer","u":"L","o":"individual","sf":20304,"v":11400}},{"type":"Feature","geometry":{"type":"Point","coordinates":[-79.78638,40.57202]},"properties":{"p":"0840S00006000000","a":"YOST DR","m":"East Deer","u":"L","o":"individual","sf":6854,"v":7400}},{"type":"Feature","geometry":{"type":"Point","coordinates":[-79.78735,40.58505]},"properties":{"p":"0959H00031000000","a":"421 CRAWFORD RUN RD","m":"East Deer","u":"L","o":"individual","sf":39983,"v":23200}},{"type":"Feature","geometry":{"type":"Point","coordinates":[-79.78257,40.58198]},"properties":{"p":"0960J00006000000","a":"DAVIDEK LN","m":"East Deer","u":"L","o":"individual","sf":4655,"v":1600}},{"type":"Feature","geometry":{"type":"Point","coordinates":[-79.78281,40.58267]},"properties":{"p":"0960J00032000000","a":"DAVIDEK LN","m":"East Deer","u":"L","o":"individual","sf":16812,"v":5500}},{"type":"Feature","geometry":{"type":"Point","coordinates":[-79.7819,40.58275]},"properties":{"p":"0960J00116000000","a":"CRAWFORD RUN RD","m":"East Deer","u":"L","o":"individual","sf":10929,"v":3600}},{"type":"Feature","geometry":{"type":"Point","coordinates":[-79.79081,40.5835]},"properties":{"p":"0959L00012000000","a":"CLARKS PIKE RD","m":"East Deer","u":"L","o":"individual","sf":70132,"v":26000}},{"type":"Feature","geometry":{"type":"Point","coordinates":[-79.79146,40.57756]},"properties":{"p":"0840B00012000000","a":"BUTLER LOGAN RD","m":"Frazer","u":"L","o":"individual","sf":7243,"v":700}},{"type":"Feature","geometry":{"type":"Point","coordinates":[-79.79218,40.57706]},"properties":{"p":"0840B00209000000","a":"BUTLER LOGAN RD","m":"Frazer","u":"L","o":"individual","sf":18434,"v":1700}},{"type":"Feature","geometry":{"type":"Point","coordinates":[-79.78486,40.57251]},"properties":{"p":"0840M00204000000","a":"184 MURRAYHILL RD","m":"East Deer","u":"L","o":"individual","sf":8015,"v":10300}},{"type":"Feature","geometry":{"type":"Point","coordinates":[-79.78236,40.57758]},"properties":{"p":"0840H00125000000","a":"GARDEN HILL DR","m":"East Deer","u":"L","o":"corp","sf":748143,"v":54300}},{"type":"Feature","geometry":{"type":"Point","coordinates":[-79.78483,40.57235]},"properties":{"p":"0840M00206000000","a":"186 MURRAYHILL RD","m":"East Deer","u":"L","o":"corp","sf":8581,"v":10300}},{"type":"Feature","geometry":{"type":"Point","coordinates":[-79.78459,40.58437]},"properties":{"p":"0959H00114000000","a":"333 CRAWFORD RUN RD","m":"East Deer","u":"L","o":"individual","sf":2350,"v":900}},{"type":"Feature","geometry":{"type":"Point","coordinates":[-79.78821,40.58771]},"properties":{"p":"0959C00103000000","a":"CRAWFORD RUN RD","m":"East Deer","u":"L","o":"individual","sf":668,"v":300}},{"type":"Feature","geometry":{"type":"Point","coordinates":[-79.78438,40.58428]},"properties":{"p":"0959H00118000000","a":"CRAWFORD RUN RD","m":"East Deer","u":"L","o":"individual","sf":5342,"v":20000}},{"type":"Feature","geometry":{"type":"Point","coordinates":[-79.78334,40.58533]},"properties":{"p":"0959H00165000000","a":"STANLEY ST","m":"East Deer","u":"L","o":"individual","sf":227949,"v":15200}},{"type":"Feature","geometry":{"type":"Point","coordinates":[-79.78344,40.58468]},"properties":{"p":"0959H00192000000","a":"STANLEY ST","m":"East Deer","u":"L","o":"individual","sf":3155,"v":1100}},{"type":"Feature","geometry":{"type":"Point","coordinates":[-79.78331,40.58465]},"properties":{"p":"0959H00194000000","a":"CRAWFORD RUN RD","m":"East Deer","u":"L","o":"individual","sf":2798,"v":1000}},{"type":"Feature","geometry":{"type":"Point","coordinates":[-79.78378,40.58491]},"properties":{"p":"0959H00200000000","a":"STANLEY ST","m":"East Deer","u":"L","o":"individual","sf":27587,"v":22000}},{"type":"Feature","geometry":{"type":"Point","coordinates":[-79.78334,40.58438]},"properties":{"p":"0959H00205000000","a":"312 CRAWFORD RUN RD","m":"East Deer","u":"L","o":"individual","sf":3447,"v":1200}},{"type":"Feature","geometry":{"type":"Point","coordinates":[-79.78527,40.58471]},"properties":{"p":"0959H00292000000","a":"CRAWFORD RUN RD","m":"East Deer","u":"L","o":"individual","sf":427,"v":200}},{"type":"Feature","geometry":{"type":"Point","coordinates":[-79.78587,40.58585]},"properties":{"p":"0959H00332000000","a":"CRAWFORD RUN RD","m":"East Deer","u":"L","o":"individual","sf":3870,"v":1300}},{"type":"Feature","geometry":{"type":"Point","coordinates":[-79.78148,40.58057]},"properties":{"p":"0960N00177000000","a":"MURRAYHILL RD","m":"East Deer","u":"L","o":"individual","sf":10757,"v":20500}},{"type":"Feature","geometry":{"type":"Point","coordinates":[-79.78068,40.58036]},"properties":{"p":"0960N00193000000","a":"MURRAYHILL RD","m":"East Deer","u":"L","o":"individual","sf":124712,"v":31000}},{"type":"Feature","geometry":{"type":"Point","coordinates":[-79.78144,40.58097]},"properties":{"p":"0960N00195000000","a":"MURRAYHILL RD","m":"East Deer","u":"L","o":"corp","sf":10463,"v":3400}},{"type":"Feature","geometry":{"type":"Point","coordinates":[-79.782,40.58093]},"properties":{"p":"0960N00213000000","a":"MURRAYHILL RD","m":"East Deer","u":"L","o":"individual","sf":38313,"v":12400}},{"type":"Feature","geometry":{"type":"Point","coordinates":[-79.78272,40.5819]},"properties":{"p":"0960N00285000000","a":"DAVIDEK LN","m":"East Deer","u":"L","o":"individual","sf":2156,"v":800}},{"type":"Feature","geometry":{"type":"Point","coordinates":[-79.78855,40.58854]},"properties":{"p":"0959C00010000000","a":"CRAWFORD RUN RD","m":"East Deer","u":"L","o":"corp","sf":51187,"v":24200}},{"type":"Feature","geometry":{"type":"Point","coordinates":[-79.78467,40.57366]},"properties":{"p":"0840M00188000000","a":"OLD MURRAYHILL RD","m":"East Deer","u":"L","o":"individual","sf":15812,"v":21000}},{"type":"Feature","geometry":{"type":"Point","coordinates":[-79.78201,40.57376]},"properties":{"p":"0841J00003000B00","a":"CAMBRIA HILL DR","m":"East Deer","u":"L","o":"corp","sf":2919,"v":15800}},{"type":"Feature","geometry":{"type":"Point","coordinates":[-79.78549,40.58514]},"properties":{"p":"0959H00266000000","a":"410 CRAWFORD RUN RD","m":"East Deer","u":"L","o":"individual","sf":2484,"v":900}},{"type":"Feature","geometry":{"type":"Point","coordinates":[-79.7879,40.58699]},"properties":{"p":"0959C00088000000","a":"463 CRAWFORD RUN RD","m":"East Deer","u":"L","o":"individual","sf":15882,"v":11000}},{"type":"Feature","geometry":{"type":"Point","coordinates":[-79.78473,40.58438]},"properties":{"p":"0959H00110000000","a":"CRAWFORD RUN RD","m":"East Deer","u":"L","o":"individual","sf":4161,"v":1400}},{"type":"Feature","geometry":{"type":"Point","coordinates":[-79.78235,40.58352]},"properties":{"p":"0960J00142000000","a":"CRAWFORD RUN RD","m":"East Deer","u":"L","o":"individual","sf":2750,"v":1000}},{"type":"Feature","geometry":{"type":"Point","coordinates":[-79.78245,40.58359]},"properties":{"p":"0960J00146000000","a":"CRAWFORD RUN RD","m":"East Deer","u":"L","o":"individual","sf":5500,"v":1900}},{"type":"Feature","geometry":{"type":"Point","coordinates":[-79.78485,40.57305]},"properties":{"p":"0840M00196000000","a":"180 MURRAYHILL RD","m":"East Deer","u":"L","o":"individual","sf":8146,"v":10300}},{"type":"Feature","geometry":{"type":"Point","coordinates":[-79.78558,40.5715]},"properties":{"p":"0840S00175000000","a":"MURRAY HILL RD","m":"Frazer","u":"L","o":"individual","sf":19419,"v":1800}},{"type":"Feature","geometry":{"type":"Point","coordinates":[-79.78503,40.57212]},"properties":{"p":"0840S00004000000","a":"188 MURRAYHILL RD","m":"East Deer","u":"L","o":"individual","sf":8276,"v":10300}},{"type":"Feature","geometry":{"type":"Point","coordinates":[-79.78475,40.57017]},"properties":{"p":"0840S00057000000","a":"RIDDLE RUN RD","m":"Frazer","u":"L","o":"individual","sf":53971,"v":38100}},{"type":"Feature","geometry":{"type":"Point","coordinates":[-79.78627,40.58449]},"properties":{"p":"0959H00049000000","a":"413 CRAWFORD RUN RD","m":"East Deer","u":"L","o":"individual","sf":1188,"v":500}},{"type":"Feature","geometry":{"type":"Point","coordinates":[-79.79029,40.576]},"properties":{"p":"0840G00225000000","a":"BUTLER LOGAN RD","m":"Frazer","u":"L","o":"individual","sf":21632,"v":2000}},{"type":"Feature","geometry":{"type":"Point","coordinates":[-79.78653,40.58511]},"properties":{"p":"0959H00039000000","a":"419 CRAWFORD RUN RD","m":"East Deer","u":"L","o":"individual","sf":21999,"v":21500}},{"type":"Feature","geometry":{"type":"Point","coordinates":[-79.78481,40.57337]},"properties":{"p":"0840M00190000000","a":"178 MURRAYHILL RD","m":"East Deer","u":"L","o":"individual","sf":8015,"v":10300}},{"type":"Feature","geometry":{"type":"Point","coordinates":[-79.78485,40.57291]},"properties":{"p":"0840M00198000000","a":"182 MURRAYHILL RD","m":"East Deer","u":"B","o":"individual","sf":8015,"v":10300}}]}