{"type":"FeatureCollection","features":[{"type":"Feature","geometry":{"type":"Point","coordinates":[-79.79944,40.24803]},"properties":{"p":"1568A00386000000","a":"ENDORA ST","m":"Elizabeth Twp","u":"L","o":"individual","sf":5031,"v":1700}},{"type":"Feature","geometry":{"type":"Point","coordinates":[-79.79924,40.24842]},"properties":{"p":"1568A00394000000","a":"LUCIA ST","m":"Elizabeth Twp","u":"L","o":"individual","sf":4774,"v":1600}},{"type":"Feature","geometry":{"type":"Point","coordinates":[-79.79989,40.23015]},"properties":{"p":"1732S00353000000","a":"SMITHDALE RD","m":"Elizabeth Twp","u":"L","o":"individual","sf":7933,"v":14300}},{"type":"Feature","geometry":{"type":"Point","coordinates":[-79.79952,40.23007]},"properties":{"p":"1731N00247000000","a":"SMITHDALE RD","m":"Elizabeth Twp","u":"L","o":"individual","sf":8669,"v":14300}},{"type":"Feature","geometry":{"type":"Point","coordinates":[-79.79993,40.2483]},"properties":{"p":"1569D00159000000","a":"LUCIA ST","m":"Elizabeth Twp","u":"L","o":"individual","sf":5008,"v":1700}},{"type":"Feature","geometry":{"type":"Point","coordinates":[-79.79983,40.24854]},"properties":{"p":"1569D00167000000","a":"LUCIA ST","m":"Elizabeth Twp","u":"L","o":"individual","sf":4992,"v":1700}},{"type":"Feature","geometry":{"type":"Point","coordinates":[-79.79954,40.24848]},"properties":{"p":"1569D00170000000","a":"LUCIA ST","m":"Elizabeth Twp","u":"L","o":"individual","sf":4992,"v":1700}},{"type":"Feature","geometry":{"type":"Point","coordinates":[-79.79972,40.24809]},"properties":{"p":"1569D00151000000","a":"ENDORA ST","m":"Elizabeth Twp","u":"L","o":"individual","sf":5237,"v":1800}},{"type":"Feature","geometry":{"type":"Point","coordinates":[-79.79952,40.24822]},"properties":{"p":"1569D00155000000","a":"LUCIA ST","m":"Elizabeth Twp","u":"L","o":"individual","sf":9164,"v":23400}},{"type":"Feature","geometry":{"type":"Point","coordinates":[-79.79944,40.24863]},"properties":{"p":"1413N00357000000","a":"MAIN ST","m":"Elizabeth Twp","u":"L","o":"individual","sf":4726,"v":1600}},{"type":"Feature","geometry":{"type":"Point","coordinates":[-79.7996,40.24899]},"properties":{"p":"1413N00360000000","a":"BEECHVUE ST","m":"Elizabeth Twp","u":"L","o":"individual","sf":15420,"v":23900}},{"type":"Feature","geometry":{"type":"Point","coordinates":[-79.79948,40.24931]},"properties":{"p":"1413N00364000000","a":"MAIN ST","m":"Elizabeth Twp","u":"L","o":"individual","sf":10000,"v":23500}},{"type":"Feature","geometry":{"type":"Point","coordinates":[-79.79872,40.24987]},"properties":{"p":"1413N00326000000","a":"MAIN ST","m":"Elizabeth Twp","u":"L","o":"individual","sf":7049,"v":2400}},{"type":"Feature","geometry":{"type":"Point","coordinates":[-79.79896,40.24913]},"properties":{"p":"1413N00346000000","a":"MAIN ST","m":"Elizabeth Twp","u":"L","o":"individual","sf":7142,"v":2400}},{"type":"Feature","geometry":{"type":"Point","coordinates":[-79.79905,40.24886]},"properties":{"p":"1413N00352000000","a":"1641 BEECHVUE ST","m":"Elizabeth Twp","u":"L","o":"corp","sf":15425,"v":11000}}]}