{"type":"FeatureCollection","features":[{"type":"Feature","geometry":{"type":"Point","coordinates":[-79.79603,40.26946]},"properties":{"p":"1127N00088000000","a":"INDUSTRY RD","m":"Elizabeth Twp","u":"L","o":"individual","sf":12787,"v":14700}},{"type":"Feature","geometry":{"type":"Point","coordinates":[-79.7906,40.26607]},"properties":{"p":"1266C00072000000","a":"FRENCIK ST","m":"Elizabeth Twp","u":"L","o":"individual","sf":11400,"v":3500}},{"type":"Feature","geometry":{"type":"Point","coordinates":[-79.79095,40.26643]},"properties":{"p":"1266C00086000000","a":"FRENCIK ST","m":"Elizabeth Twp","u":"L","o":"individual","sf":11400,"v":14600}},{"type":"Feature","geometry":{"type":"Point","coordinates":[-79.79634,40.2637]},"properties":{"p":"1266E00031000000","a":"BOYDS HOLLOW RD","m":"Elizabeth Twp","u":"L","o":"individual","sf":43560,"v":3500}},{"type":"Feature","geometry":{"type":"Point","coordinates":[-79.7942,40.26443]},"properties":{"p":"1266F00248000000","a":"LINK DR","m":"Elizabeth Twp","u":"L","o":"individual","sf":41253,"v":3700}},{"type":"Feature","geometry":{"type":"Point","coordinates":[-79.79112,40.26327]},"properties":{"p":"1266G00322000000","a":"630 HEATH ST","m":"Elizabeth Twp","u":"L","o":"individual","sf":24916,"v":15800}},{"type":"Feature","geometry":{"type":"Point","coordinates":[-79.79135,40.26451]},"properties":{"p":"1266G00342000000","a":"ELWAY AVE","m":"Elizabeth Twp","u":"L","o":"individual","sf":4075,"v":1300}},{"type":"Feature","geometry":{"type":"Point","coordinates":[-79.79172,40.2649]},"properties":{"p":"1266G00383000000","a":"ELWAY AVE","m":"Elizabeth Twp","u":"L","o":"individual","sf":12622,"v":14700}},{"type":"Feature","geometry":{"type":"Point","coordinates":[-79.79511,40.26348]},"properties":{"p":"1266J00069000000","a":"BOYDS LN","m":"Elizabeth Twp","u":"L","o":"individual","sf":313588,"v":25500}},{"type":"Feature","geometry":{"type":"Point","coordinates":[-79.78986,40.26221]},"properties":{"p":"1266L00182000000","a":"714 ELWAY AVE","m":"Elizabeth Twp","u":"L","o":"individual","sf":6517,"v":2200}},{"type":"Feature","geometry":{"type":"Point","coordinates":[-79.79261,40.26792]},"properties":{"p":"1266B00074000000","a":"433 MARIA ST","m":"Elizabeth Twp","u":"L","o":"individual","sf":14160,"v":4400}},{"type":"Feature","geometry":{"type":"Point","coordinates":[-79.79127,40.2622]},"properties":{"p":"1266L00360000000","a":"INDUSTRY RD","m":"Elizabeth Twp","u":"L","o":"corp","sf":25570,"v":15900}},{"type":"Feature","geometry":{"type":"Point","coordinates":[-79.79706,40.25947]},"properties":{"p":"1266N00172000000","a":"BLYTHEDALE RD","m":"Elizabeth Twp","u":"L","o":"individual","sf":31920,"v":36100}},{"type":"Feature","geometry":{"type":"Point","coordinates":[-79.79113,40.26596]},"properties":{"p":"1266C00022000000","a":"MILTON ST","m":"Elizabeth Twp","u":"L","o":"individual","sf":6687,"v":2100}},{"type":"Feature","geometry":{"type":"Point","coordinates":[-79.79033,40.26572]},"properties":{"p":"1266C00050000000","a":"FRENCIK ST","m":"Elizabeth Twp","u":"L","o":"individual","sf":8910,"v":2800}},{"type":"Feature","geometry":{"type":"Point","coordinates":[-79.79046,40.26585]},"properties":{"p":"1266C00056000000","a":"FRENCIK ST","m":"Elizabeth Twp","u":"L","o":"individual","sf":8910,"v":3900}},{"type":"Feature","geometry":{"type":"Point","coordinates":[-79.79107,40.25891]},"properties":{"p":"1266R00366000000","a":"INDUSTRY RD","m":"Elizabeth Twp","u":"L","o":"individual","sf":25047,"v":15800}},{"type":"Feature","geometry":{"type":"Point","coordinates":[-79.79323,40.26537]},"properties":{"p":"1266F00081000000","a":"INDUSTRY RD","m":"Elizabeth Twp","u":"L","o":"corp","sf":7200,"v":700}},{"type":"Feature","geometry":{"type":"Point","coordinates":[-79.79338,40.26494]},"properties":{"p":"1266F00089000000","a":"INDUSTRY RD","m":"Elizabeth Twp","u":"L","o":"individual","sf":13726,"v":1200}},{"type":"Feature","geometry":{"type":"Point","coordinates":[-79.7931,40.26504]},"properties":{"p":"1266F00095000000","a":"INDUSTRY RD","m":"Elizabeth Twp","u":"L","o":"individual","sf":11638,"v":27600}},{"type":"Feature","geometry":{"type":"Point","coordinates":[-79.79651,40.25633]},"properties":{"p":"1413A00027000000","a":"BLYTHEDALE RD","m":"Elizabeth Twp","u":"L","o":"individual","sf":23522,"v":2100}},{"type":"Feature","geometry":{"type":"Point","coordinates":[-79.79601,40.25662]},"properties":{"p":"1413A00065000000","a":"TONEY DR","m":"Elizabeth Twp","u":"L","o":"individual","sf":37429,"v":3400}},{"type":"Feature","geometry":{"type":"Point","coordinates":[-79.79421,40.25739]},"properties":{"p":"1413A00105000000","a":"1061 BLYTHEDALE RD","m":"Elizabeth Twp","u":"L","o":"individual","sf":80673,"v":23100}},{"type":"Feature","geometry":{"type":"Point","coordinates":[-79.79003,40.26368]},"properties":{"p":"1266G00225000000","a":"ELWAY AVE","m":"Elizabeth Twp","u":"L","o":"individual","sf":20708,"v":15400}},{"type":"Feature","geometry":{"type":"Point","coordinates":[-79.79082,40.26548]},"properties":{"p":"1266G00288000000","a":"FRENCIK ST","m":"Elizabeth Twp","u":"L","o":"individual","sf":4245,"v":1400}},{"type":"Feature","geometry":{"type":"Point","coordinates":[-79.7991,40.25129]},"properties":{"p":"1413N00391000000","a":"RAILROAD ST","m":"Elizabeth Twp","u":"L","o":"corp","sf":24750,"v":8000}},{"type":"Feature","geometry":{"type":"Point","coordinates":[-79.7897,40.26105]},"properties":{"p":"1266L00032000000","a":"KRATT ST","m":"Elizabeth Twp","u":"L","o":"individual","sf":6095,"v":1900}},{"type":"Feature","geometry":{"type":"Point","coordinates":[-79.7888,40.2615]},"properties":{"p":"1266L00047000000","a":"KRATT ST","m":"Elizabeth Twp","u":"L","o":"individual","sf":25875,"v":7900}},{"type":"Feature","geometry":{"type":"Point","coordinates":[-79.78958,40.26164]},"properties":{"p":"1266L00071000000","a":"SHIELDS ST","m":"Elizabeth Twp","u":"L","o":"individual","sf":8340,"v":14300}},{"type":"Feature","geometry":{"type":"Point","coordinates":[-79.79244,40.26768]},"properties":{"p":"1266B00058000000","a":"MARIA ST","m":"Elizabeth Twp","u":"L","o":"corp","sf":15000,"v":14900}},{"type":"Feature","geometry":{"type":"Point","coordinates":[-79.79535,40.26748]},"properties":{"p":"1266B00377000000","a":"410 INDUSTRY RD","m":"Elizabeth Twp","u":"L","o":"individual","sf":2240,"v":200}},{"type":"Feature","geometry":{"type":"Point","coordinates":[-79.79125,40.26148]},"properties":{"p":"1266L00324000000","a":"INDUSTRY RD","m":"Elizabeth Twp","u":"L","o":"individual","sf":11751,"v":14600}},{"type":"Feature","geometry":{"type":"Point","coordinates":[-79.79131,40.26165]},"properties":{"p":"1266L00332000000","a":"INDUSTRY RD","m":"Elizabeth Twp","u":"L","o":"individual","sf":6780,"v":2100}},{"type":"Feature","geometry":{"type":"Point","coordinates":[-79.79138,40.26189]},"properties":{"p":"1266L00340000000","a":"INDUSTRY RD","m":"Elizabeth Twp","u":"L","o":"corp","sf":3080,"v":1000}},{"type":"Feature","geometry":{"type":"Point","coordinates":[-79.78966,40.26031]},"properties":{"p":"1266R00288000000","a":"CROSS ST","m":"Elizabeth Twp","u":"L","o":"individual","sf":11370,"v":14600}},{"type":"Feature","geometry":{"type":"Point","coordinates":[-79.7906,40.26024]},"properties":{"p":"1266R00309000000","a":"DADS LN","m":"Elizabeth Twp","u":"L","o":"individual","sf":8775,"v":14300}},{"type":"Feature","geometry":{"type":"Point","coordinates":[-79.79036,40.25974]},"properties":{"p":"1266R00327000000","a":"DADS LN","m":"Elizabeth Twp","u":"L","o":"individual","sf":12189,"v":14700}},{"type":"Feature","geometry":{"type":"Point","coordinates":[-79.7908,40.25946]},"properties":{"p":"1266R00346000000","a":"INDUSTRY RD","m":"Elizabeth Twp","u":"L","o":"individual","sf":43560,"v":4000}},{"type":"Feature","geometry":{"type":"Point","coordinates":[-79.78942,40.26436]},"properties":{"p":"1266G00191000000","a":"ELWAY AVE","m":"Elizabeth Twp","u":"L","o":"individual","sf":7680,"v":14200}},{"type":"Feature","geometry":{"type":"Point","coordinates":[-79.78933,40.2642]},"properties":{"p":"1266G00193000000","a":"ELWAY AVE","m":"Elizabeth Twp","u":"L","o":"individual","sf":22232,"v":6800}},{"type":"Feature","geometry":{"type":"Point","coordinates":[-79.79753,40.25417]},"properties":{"p":"1413J00255000000","a":"1500 BEECHVUE ST","m":"Elizabeth Twp","u":"L","o":"corp","sf":493099,"v":26400}},{"type":"Feature","geometry":{"type":"Point","coordinates":[-79.79206,40.26131]},"properties":{"p":"1266K00016000000","a":"INDUSTRY RD","m":"Elizabeth Twp","u":"L","o":"individual","sf":57586,"v":38500}},{"type":"Feature","geometry":{"type":"Point","coordinates":[-79.79022,40.26179]},"properties":{"p":"1266L00232000000","a":"SHIELDS ST","m":"Elizabeth Twp","u":"L","o":"individual","sf":10412,"v":14500}},{"type":"Feature","geometry":{"type":"Point","coordinates":[-79.78986,40.26281]},"properties":{"p":"1266L00241000000","a":"CLARK ST","m":"Elizabeth Twp","u":"L","o":"individual","sf":72,"v":100}},{"type":"Feature","geometry":{"type":"Point","coordinates":[-79.79018,40.26328]},"properties":{"p":"1266L00244000000","a":"FOWLES AVE","m":"Elizabeth Twp","u":"L","o":"individual","sf":4390,"v":1400}},{"type":"Feature","geometry":{"type":"Point","coordinates":[-79.79026,40.26608]},"properties":{"p":"1266C00060000000","a":"FRENCIK ST","m":"Elizabeth Twp","u":"L","o":"individual","sf":7679,"v":2400}},{"type":"Feature","geometry":{"type":"Point","coordinates":[-79.79613,40.26027]},"properties":{"p":"1266N00211000000","a":"INDUSTRY RD","m":"Elizabeth Twp","u":"L","o":"individual","sf":81022,"v":15000}},{"type":"Feature","geometry":{"type":"Point","coordinates":[-79.79309,40.25991]},"properties":{"p":"1266P00275000000","a":"INDUSTRY RD","m":"Elizabeth Twp","u":"L","o":"individual","sf":209088,"v":34900}},{"type":"Feature","geometry":{"type":"Point","coordinates":[-79.78941,40.26069]},"properties":{"p":"1266R00261000000","a":"CROSS ST","m":"Elizabeth Twp","u":"L","o":"individual","sf":15801,"v":15000}},{"type":"Feature","geometry":{"type":"Point","coordinates":[-79.79069,40.26051]},"properties":{"p":"1266R00267000000","a":"CROSS ST","m":"Elizabeth Twp","u":"L","o":"individual","sf":2763,"v":900}},{"type":"Feature","geometry":{"type":"Point","coordinates":[-79.79441,40.26481]},"properties":{"p":"1266F00250000000","a":"330 LINK DR","m":"Elizabeth Twp","u":"L","o":"individual","sf":40005,"v":3600}},{"type":"Feature","geometry":{"type":"Point","coordinates":[-79.79284,40.26473]},"properties":{"p":"1266F00105000000","a":"INDUSTRY RD","m":"Elizabeth Twp","u":"L","o":"individual","sf":12400,"v":10900}},{"type":"Feature","geometry":{"type":"Point","coordinates":[-79.79166,40.2614]},"properties":{"p":"1266K00007000000","a":"INDUSTRY RD","m":"Elizabeth Twp","u":"L","o":"individual","sf":4356,"v":3800}},{"type":"Feature","geometry":{"type":"Point","coordinates":[-79.79107,40.26573]},"properties":{"p":"1266C00026000000","a":"FRENCIK ST","m":"Elizabeth Twp","u":"L","o":"individual","sf":5560,"v":1800}}]}