{"type":"FeatureCollection","features":[{"type":"Feature","geometry":{"type":"Point","coordinates":[-79.78921,40.28979]},"properties":{"p":"0997H00079000000","a":"OAK DR","m":"Elizabeth Twp","u":"C","o":"corp","sf":23914440,"v":427000}},{"type":"Feature","geometry":{"type":"Point","coordinates":[-79.78019,40.28321]},"properties":{"p":"0995E00061000000","a":"HENDERSON RD","m":"Elizabeth Twp","u":"L","o":"individual","sf":28558,"v":35800}},{"type":"Feature","geometry":{"type":"Point","coordinates":[-79.7969,40.28076]},"properties":{"p":"0996J00045000000","a":"HENDERSON RD","m":"Elizabeth Twp","u":"L","o":"individual","sf":25263,"v":2300}},{"type":"Feature","geometry":{"type":"Point","coordinates":[-79.79581,40.28243]},"properties":{"p":"0996J00080000000","a":"HENDERSON RD","m":"Elizabeth Twp","u":"L","o":"corp","sf":121227,"v":44300}},{"type":"Feature","geometry":{"type":"Point","coordinates":[-79.79791,40.28081]},"properties":{"p":"0996J00148000000","a":"HENDERSON RD","m":"Elizabeth Twp","u":"L","o":"individual","sf":43560,"v":3000}},{"type":"Feature","geometry":{"type":"Point","coordinates":[-79.79705,40.27347]},"properties":{"p":"1127E00138000000","a":"WALNUT ST","m":"Elizabeth Twp","u":"L","o":"individual","sf":28975,"v":16200}},{"type":"Feature","geometry":{"type":"Point","coordinates":[-79.79763,40.27335]},"properties":{"p":"1127E00147000000","a":"WALNUT ST","m":"Elizabeth Twp","u":"L","o":"individual","sf":9650,"v":14400}},{"type":"Feature","geometry":{"type":"Point","coordinates":[-79.7969,40.27288]},"properties":{"p":"1127J00098000000","a":"141 MCCORKLE CT","m":"Elizabeth Twp","u":"L","o":"individual","sf":25358,"v":7700}},{"type":"Feature","geometry":{"type":"Point","coordinates":[-79.78076,40.28302]},"properties":{"p":"0995E00052000000","a":"HENDERSON RD","m":"Elizabeth Twp","u":"L","o":"individual","sf":19377,"v":34500}},{"type":"Feature","geometry":{"type":"Point","coordinates":[-79.78064,40.28359]},"properties":{"p":"0995E00056000000","a":"HENDERSON RD","m":"Elizabeth Twp","u":"L","o":"individual","sf":20379,"v":1800}},{"type":"Feature","geometry":{"type":"Point","coordinates":[-79.79983,40.27747]},"properties":{"p":"1127A00391000000","a":"WOOD ST","m":"Elizabeth Twp","u":"L","o":"individual","sf":7200,"v":14200}},{"type":"Feature","geometry":{"type":"Point","coordinates":[-79.79732,40.27496]},"properties":{"p":"1127E00078000000","a":"BELL ST","m":"Elizabeth Twp","u":"L","o":"individual","sf":5625,"v":14100}},{"type":"Feature","geometry":{"type":"Point","coordinates":[-79.79866,40.2795]},"properties":{"p":"0996N00278000000","a":"MCGOWAN ST","m":"Elizabeth Twp","u":"L","o":"individual","sf":12600,"v":11200}},{"type":"Feature","geometry":{"type":"Point","coordinates":[-79.79908,40.2795]},"properties":{"p":"0996N00292000000","a":"SAGER ST","m":"Elizabeth Twp","u":"L","o":"individual","sf":7200,"v":2300}},{"type":"Feature","geometry":{"type":"Point","coordinates":[-79.79726,40.27454]},"properties":{"p":"1127E00089000000","a":"BELL ST","m":"Elizabeth Twp","u":"L","o":"individual","sf":5750,"v":1800}},{"type":"Feature","geometry":{"type":"Point","coordinates":[-79.79901,40.27357]},"properties":{"p":"1127E00323000000","a":"SCOTT HAVEN RD","m":"Elizabeth Twp","u":"L","o":"corp","sf":209349,"v":32800}},{"type":"Feature","geometry":{"type":"Point","coordinates":[-79.79771,40.27116]},"properties":{"p":"1127J00289000000","a":"INDUSTRY RD","m":"Elizabeth Twp","u":"L","o":"individual","sf":13760,"v":29500}},{"type":"Feature","geometry":{"type":"Point","coordinates":[-79.79782,40.27135]},"properties":{"p":"1127J00291000000","a":"INDUSTRY RD","m":"Elizabeth Twp","u":"L","o":"individual","sf":14525,"v":30200}},{"type":"Feature","geometry":{"type":"Point","coordinates":[-79.79888,40.27134]},"properties":{"p":"1127J00331000000","a":"BOYDS HOLLOW RD","m":"Elizabeth Twp","u":"L","o":"individual","sf":116392,"v":8000}},{"type":"Feature","geometry":{"type":"Point","coordinates":[-79.79955,40.27209]},"properties":{"p":"1127J00353000000","a":"BOYDS HOLLOW RD","m":"Elizabeth Twp","u":"L","o":"individual","sf":42802,"v":37100}},{"type":"Feature","geometry":{"type":"Point","coordinates":[-79.79883,40.2783]},"properties":{"p":"0996N00152000000","a":"VEATCH ST","m":"Elizabeth Twp","u":"L","o":"individual","sf":7200,"v":7200}},{"type":"Feature","geometry":{"type":"Point","coordinates":[-79.79975,40.27864]},"properties":{"p":"0996N00218000000","a":"3240 CORNELL ST","m":"Elizabeth Twp","u":"L","o":"individual","sf":14400,"v":14900}},{"type":"Feature","geometry":{"type":"Point","coordinates":[-79.7969,40.27173]},"properties":{"p":"1127J00141000000","a":"INDUSTRY RD","m":"Elizabeth Twp","u":"L","o":"individual","sf":1282,"v":500}},{"type":"Feature","geometry":{"type":"Point","coordinates":[-79.79851,40.27712]},"properties":{"p":"1127A00223000000","a":"WOOD ST","m":"Elizabeth Twp","u":"L","o":"individual","sf":7200,"v":14200}},{"type":"Feature","geometry":{"type":"Point","coordinates":[-79.79855,40.27093]},"properties":{"p":"1129J00305000000","a":"BOYDS HOLLOW RD","m":"Elizabeth Twp","u":"L","o":"individual","sf":22510,"v":2000}},{"type":"Feature","geometry":{"type":"Point","coordinates":[-79.79983,40.27777]},"properties":{"p":"0997S00003000000","a":"VEATCH ST","m":"Elizabeth Twp","u":"L","o":"individual","sf":14400,"v":14900}},{"type":"Feature","geometry":{"type":"Point","coordinates":[-79.7973,40.27481]},"properties":{"p":"1127E00081000000","a":"BELL ST","m":"Elizabeth Twp","u":"L","o":"individual","sf":5676,"v":7100}},{"type":"Feature","geometry":{"type":"Point","coordinates":[-79.79853,40.27661]},"properties":{"p":"1127A00255000000","a":"MUSE ST","m":"Elizabeth Twp","u":"L","o":"individual","sf":12566,"v":14700}},{"type":"Feature","geometry":{"type":"Point","coordinates":[-79.79716,40.27123]},"properties":{"p":"1127J00252000000","a":"INDUSTRY RD","m":"Elizabeth Twp","u":"L","o":"individual","sf":9000,"v":7900}},{"type":"Feature","geometry":{"type":"Point","coordinates":[-79.79904,40.27703]},"properties":{"p":"1127A00240000000","a":"STYCHE ST","m":"Elizabeth Twp","u":"L","o":"individual","sf":7200,"v":14200}},{"type":"Feature","geometry":{"type":"Point","coordinates":[-79.79948,40.27948]},"properties":{"p":"0996N00294000000","a":"STYCHE ST","m":"Elizabeth Twp","u":"L","o":"individual","sf":9606,"v":3000}},{"type":"Feature","geometry":{"type":"Point","coordinates":[-79.79612,40.272]},"properties":{"p":"1127J00045000000","a":"MCCORKLE CT","m":"Elizabeth Twp","u":"L","o":"individual","sf":9876,"v":14400}}]}