{"type":"FeatureCollection","features":[{"type":"Feature","geometry":{"type":"Point","coordinates":[-79.76718,40.49899]},"properties":{"p":"0737H00305000000","a":"LEECHBURG RD","m":"Plum","u":"I","o":"corp","sf":455202,"v":31400}},{"type":"Feature","geometry":{"type":"Point","coordinates":[-79.77971,40.49428]},"properties":{"p":"0737J00009000000","a":"LEECHBURG RD","m":"Plum","u":"C","o":"individual","sf":36150,"v":13800}},{"type":"Feature","geometry":{"type":"Point","coordinates":[-79.77875,40.49446]},"properties":{"p":"0737J00081000000","a":"LEECHBURG RD","m":"Plum","u":"C","o":"individual","sf":21394,"v":37100}},{"type":"Feature","geometry":{"type":"Point","coordinates":[-79.76507,40.5015]},"properties":{"p":"0849N00310000000","a":"LEECHBURG RD","m":"Plum","u":"C","o":"corp","sf":97400,"v":500}},{"type":"Feature","geometry":{"type":"Point","coordinates":[-79.77085,40.4965]},"properties":{"p":"0737G00091000000","a":"LEECHBURG RD","m":"Plum","u":"C","o":"corp","sf":255000,"v":40000}},{"type":"Feature","geometry":{"type":"Point","coordinates":[-79.77244,40.49692]},"properties":{"p":"0737G00104000000","a":"3100 LEECHBURG RD","m":"Plum","u":"C","o":"corp","sf":47480,"v":62300}},{"type":"Feature","geometry":{"type":"Point","coordinates":[-79.76921,40.49784]},"properties":{"p":"0737H00244000000","a":"LEECHBURG RD","m":"Plum","u":"C","o":"corp","sf":52272,"v":64800}},{"type":"Feature","geometry":{"type":"Point","coordinates":[-79.76728,40.50121]},"properties":{"p":"0737D00102000000","a":"LEECHBURG RD","m":"Plum","u":"C","o":"individual","sf":96224,"v":33650}},{"type":"Feature","geometry":{"type":"Point","coordinates":[-79.7637,40.50502]},"properties":{"p":"0849J00034000000","a":"LEECHBURG RD","m":"Plum","u":"C","o":"individual","sf":29025,"v":45000}},{"type":"Feature","geometry":{"type":"Point","coordinates":[-79.7728,40.50779]},"properties":{"p":"0736G00040000000","a":"WINCHESTER DR","m":"Plum","u":"L","o":"corp","sf":17859,"v":0}},{"type":"Feature","geometry":{"type":"Point","coordinates":[-79.77313,40.50777]},"properties":{"p":"0736G00050000000","a":"WINCHESTER DR","m":"Plum","u":"L","o":"corp","sf":21780,"v":0}},{"type":"Feature","geometry":{"type":"Point","coordinates":[-79.77077,40.50838]},"properties":{"p":"0736G00098000000","a":"ROSEWOOD DR","m":"Plum","u":"L","o":"individual","sf":38516,"v":17700}},{"type":"Feature","geometry":{"type":"Point","coordinates":[-79.77329,40.49534]},"properties":{"p":"0737L00176000000","a":"LEECHBURG RD","m":"Plum","u":"L","o":"individual","sf":12670,"v":2900}},{"type":"Feature","geometry":{"type":"Point","coordinates":[-79.77364,40.49518]},"properties":{"p":"0737L00192000000","a":"LEECHBURG RD","m":"Plum","u":"L","o":"individual","sf":32693,"v":2900}},{"type":"Feature","geometry":{"type":"Point","coordinates":[-79.77064,40.50572]},"properties":{"p":"0736M00010000000","a":"WINCHESTER DR","m":"Plum","u":"L","o":"corp","sf":340204,"v":0}},{"type":"Feature","geometry":{"type":"Point","coordinates":[-79.77586,40.49469]},"properties":{"p":"0737K00107000000","a":"2975 LEECHBURG RD","m":"Plum","u":"L","o":"individual","sf":14607,"v":12400}},{"type":"Feature","geometry":{"type":"Point","coordinates":[-79.77805,40.49416]},"properties":{"p":"0737K00225000000","a":"LEECHBURG RD","m":"Plum","u":"L","o":"corp","sf":98010,"v":60200}},{"type":"Feature","geometry":{"type":"Point","coordinates":[-79.77429,40.49552]},"properties":{"p":"0737R00392000000","a":"LEECHBURG RD","m":"Plum","u":"L","o":"individual","sf":26136,"v":32100}},{"type":"Feature","geometry":{"type":"Point","coordinates":[-79.76903,40.50381]},"properties":{"p":"0736M00135000000","a":"PATRIOT CT","m":"Plum","u":"L","o":"corp","sf":59808,"v":1100}},{"type":"Feature","geometry":{"type":"Point","coordinates":[-79.77486,40.49259]},"properties":{"p":"0737P00026000000","a":"GARLOW BLVD","m":"Plum","u":"L","o":"individual","sf":9930,"v":21100}},{"type":"Feature","geometry":{"type":"Point","coordinates":[-79.77552,40.50173]},"properties":{"p":"0737P00027000000","a":"ELICKER RD","m":"Plum","u":"L","o":"individual","sf":490006,"v":81000}},{"type":"Feature","geometry":{"type":"Point","coordinates":[-79.77196,40.50877]},"properties":{"p":"0736C00090000000","a":"ELICKER RD","m":"Plum","u":"L","o":"individual","sf":133729,"v":9200}},{"type":"Feature","geometry":{"type":"Point","coordinates":[-79.77317,40.5074]},"properties":{"p":"0736G00301000000","a":"ELICKER RD","m":"Plum","u":"L","o":"individual","sf":130811,"v":48000}},{"type":"Feature","geometry":{"type":"Point","coordinates":[-79.77154,40.50781]},"properties":{"p":"0736G00332000000","a":"ELICKER RD","m":"Plum","u":"L","o":"individual","sf":86597,"v":44000}},{"type":"Feature","geometry":{"type":"Point","coordinates":[-79.77887,40.50994]},"properties":{"p":"0736G00340000000","a":"ELICKER RD","m":"Plum","u":"L","o":"individual","sf":1030917,"v":68800}},{"type":"Feature","geometry":{"type":"Point","coordinates":[-79.76518,40.49253]},"properties":{"p":"0850N00230000000","a":"OLD LEECHBURG RD","m":"Plum","u":"L","o":"individual","sf":33236,"v":3000}},{"type":"Feature","geometry":{"type":"Point","coordinates":[-79.76563,40.49241]},"properties":{"p":"0850N00236000000","a":"OLD LEECHBURG RD","m":"Plum","u":"L","o":"individual","sf":13983,"v":1300}},{"type":"Feature","geometry":{"type":"Point","coordinates":[-79.76209,40.49027]},"properties":{"p":"0851B00315000000","a":"JACKSON RD","m":"Plum","u":"L","o":"individual","sf":108843,"v":16800}},{"type":"Feature","geometry":{"type":"Point","coordinates":[-79.76299,40.49]},"properties":{"p":"0851A00028000000","a":"JACKSON RD","m":"Plum","u":"L","o":"individual","sf":24937,"v":24200}},{"type":"Feature","geometry":{"type":"Point","coordinates":[-79.76339,40.50403]},"properties":{"p":"0849J00089000000","a":"LEECHBURG RD","m":"Plum","u":"L","o":"corp","sf":66647,"v":42100}},{"type":"Feature","geometry":{"type":"Point","coordinates":[-79.76355,40.49002]},"properties":{"p":"0851A00036000000","a":"JACKSON RD","m":"Plum","u":"L","o":"individual","sf":53143,"v":7600}},{"type":"Feature","geometry":{"type":"Point","coordinates":[-79.76408,40.49002]},"properties":{"p":"0851A00048000000","a":"JACKSON RD","m":"Plum","u":"L","o":"individual","sf":40444,"v":3600}},{"type":"Feature","geometry":{"type":"Point","coordinates":[-79.76636,40.49897]},"properties":{"p":"0850E00397000000","a":"GROVE CREST DR","m":"Plum","u":"L","o":"individual","sf":505,"v":500}},{"type":"Feature","geometry":{"type":"Point","coordinates":[-79.7659,40.49233]},"properties":{"p":"0850N00242000000","a":"OLD LEECHBURG RD","m":"Plum","u":"L","o":"individual","sf":13983,"v":1300}},{"type":"Feature","geometry":{"type":"Point","coordinates":[-79.76438,40.49679]},"properties":{"p":"0850E00351000000","a":"HARVEST HILL DR","m":"Plum","u":"L","o":"individual","sf":1892,"v":200}},{"type":"Feature","geometry":{"type":"Point","coordinates":[-79.77968,40.49959]},"properties":{"p":"0737A00230000000","a":"ELICKER RD","m":"Plum","u":"L","o":"individual","sf":465791,"v":78800}},{"type":"Feature","geometry":{"type":"Point","coordinates":[-79.76666,40.50338]},"properties":{"p":"0736S00190000000","a":"WINCHESTER DR","m":"Plum","u":"L","o":"corp","sf":128938,"v":0}},{"type":"Feature","geometry":{"type":"Point","coordinates":[-79.77248,40.49948]},"properties":{"p":"0736S00200000000","a":"LEECHBURG RD","m":"Plum","u":"L","o":"individual","sf":1762455,"v":10900}},{"type":"Feature","geometry":{"type":"Point","coordinates":[-79.76803,40.50179]},"properties":{"p":"0736S00202000000","a":"LEECHBURG RD","m":"Plum","u":"L","o":"corp","sf":130593,"v":1200}},{"type":"Feature","geometry":{"type":"Point","coordinates":[-79.77262,40.50293]},"properties":{"p":"0736R00126000000","a":"MCCOMB LN","m":"Plum","u":"L","o":"individual","sf":43503,"v":3900}},{"type":"Feature","geometry":{"type":"Point","coordinates":[-79.77406,40.50237]},"properties":{"p":"0736R00256000000","a":"MCCOMB LN","m":"Plum","u":"L","o":"individual","sf":39304,"v":3500}},{"type":"Feature","geometry":{"type":"Point","coordinates":[-79.77347,40.49421]},"properties":{"p":"0737R00254000000","a":"SHEPARD DR","m":"Plum","u":"L","o":"individual","sf":12166,"v":23100}},{"type":"Feature","geometry":{"type":"Point","coordinates":[-79.77089,40.50229]},"properties":{"p":"0736S00165000000","a":"MCCOMB LN","m":"Plum","u":"L","o":"corp","sf":17296,"v":2300}},{"type":"Feature","geometry":{"type":"Point","coordinates":[-79.77503,40.49357]},"properties":{"p":"0737P00197000000","a":"LEECHBURG RD","m":"Plum","u":"L","o":"individual","sf":43560,"v":25900}},{"type":"Feature","geometry":{"type":"Point","coordinates":[-79.76852,40.50018]},"properties":{"p":"0737D00127000000","a":"3234 LEECHBURG RD","m":"Plum","u":"L","o":"individual","sf":4792,"v":400}},{"type":"Feature","geometry":{"type":"Point","coordinates":[-79.77033,40.49984]},"properties":{"p":"0737D00180000000","a":"LEECHBURG RD","m":"Plum","u":"L","o":"individual","sf":84942,"v":12000}},{"type":"Feature","geometry":{"type":"Point","coordinates":[-79.77749,40.49421]},"properties":{"p":"0737K00206000000","a":"LEECHBURG RD","m":"Plum","u":"L","o":"corp","sf":83840,"v":49200}},{"type":"Feature","geometry":{"type":"Point","coordinates":[-79.76304,40.4908]},"properties":{"p":"0851A00148000000","a":"JACKSON RD","m":"Plum","u":"L","o":"individual","sf":26095,"v":24300}},{"type":"Feature","geometry":{"type":"Point","coordinates":[-79.77056,40.50446]},"properties":{"p":"0736M00143000000","a":"27 PATRIOT CT","m":"Plum","u":"B","o":"individual","sf":14750,"v":47800}}]}