{"type":"FeatureCollection","features":[{"type":"Feature","geometry":{"type":"Point","coordinates":[-79.77823,40.36637]},"properties":{"p":"0750P00007000000","a":"LINCOLN HWY","m":"North Versailles","u":"C","o":"corp","sf":21780,"v":60600}},{"type":"Feature","geometry":{"type":"Point","coordinates":[-79.77714,40.35496]},"properties":{"p":"0752B00299000000","a":"OLD JACKS RUN RD","m":"White Oak","u":"L","o":"individual","sf":25173,"v":5000}},{"type":"Feature","geometry":{"type":"Point","coordinates":[-79.77615,40.35453]},"properties":{"p":"0752B00340000000","a":"14350 PALM ST","m":"White Oak","u":"L","o":"corp","sf":2750,"v":2400}},{"type":"Feature","geometry":{"type":"Point","coordinates":[-79.77603,40.35879]},"properties":{"p":"0751K00195000000","a":"LOGAN RD","m":"White Oak","u":"L","o":"individual","sf":43560,"v":4000}},{"type":"Feature","geometry":{"type":"Point","coordinates":[-79.77973,40.35655]},"properties":{"p":"0751N00080000000","a":"OLD JACKS RUN RD","m":"White Oak","u":"L","o":"individual","sf":46391,"v":37400}},{"type":"Feature","geometry":{"type":"Point","coordinates":[-79.77745,40.35332]},"properties":{"p":"0752B00220000000","a":"OLD JACKS RUN RD","m":"White Oak","u":"L","o":"individual","sf":236967,"v":16300}},{"type":"Feature","geometry":{"type":"Point","coordinates":[-79.77727,40.35244]},"properties":{"p":"0752F00197000000","a":"EASTVIEW DR","m":"White Oak","u":"L","o":"individual","sf":20000,"v":8800}},{"type":"Feature","geometry":{"type":"Point","coordinates":[-79.77517,40.35611]},"properties":{"p":"0752B00086000000","a":"OLD JACKS RUN RD","m":"White Oak","u":"L","o":"individual","sf":142006,"v":46200}},{"type":"Feature","geometry":{"type":"Point","coordinates":[-79.77882,40.35481]},"properties":{"p":"0752B00175000000","a":"OLD JACKS RUN RD","m":"White Oak","u":"L","o":"individual","sf":17303,"v":15200}},{"type":"Feature","geometry":{"type":"Point","coordinates":[-79.77943,40.35301]},"properties":{"p":"0752E00010000000","a":"CATHERINE DR","m":"White Oak","u":"L","o":"individual","sf":17787,"v":33100}},{"type":"Feature","geometry":{"type":"Point","coordinates":[-79.77853,40.35081]},"properties":{"p":"0752F00086000000","a":"JOSEPHINE ST","m":"White Oak","u":"L","o":"individual","sf":22033,"v":15000}},{"type":"Feature","geometry":{"type":"Point","coordinates":[-79.77925,40.35672]},"properties":{"p":"0751P00116000000","a":"PEACH WAY","m":"White Oak","u":"L","o":"individual","sf":40972,"v":5000}},{"type":"Feature","geometry":{"type":"Point","coordinates":[-79.77717,40.35706]},"properties":{"p":"0751P00183000000","a":"CHERRY LN","m":"White Oak","u":"L","o":"individual","sf":7405,"v":6500}},{"type":"Feature","geometry":{"type":"Point","coordinates":[-79.77652,40.36419]},"properties":{"p":"0751B00163000000","a":"LINCOLN HWY","m":"North Versailles","u":"L","o":"individual","sf":22204,"v":21600}},{"type":"Feature","geometry":{"type":"Point","coordinates":[-79.77634,40.36443]},"properties":{"p":"0751B00166000000","a":"LINCOLN HWY","m":"North Versailles","u":"L","o":"individual","sf":24400,"v":11800}},{"type":"Feature","geometry":{"type":"Point","coordinates":[-79.77521,40.3612]},"properties":{"p":"0751F00007000000","a":"LOGAN RD","m":"North Versailles","u":"L","o":"individual","sf":13503,"v":20800}},{"type":"Feature","geometry":{"type":"Point","coordinates":[-79.7751,40.36048]},"properties":{"p":"0751F00021000000","a":"LOGAN RD","m":"North Versailles","u":"L","o":"individual","sf":5720,"v":1900}},{"type":"Feature","geometry":{"type":"Point","coordinates":[-79.77575,40.36125]},"properties":{"p":"0751F00090000000","a":"LOGAN RD","m":"North Versailles","u":"L","o":"individual","sf":57107,"v":24800}},{"type":"Feature","geometry":{"type":"Point","coordinates":[-79.77563,40.36254]},"properties":{"p":"0751F00162000000","a":"LOGAN RD","m":"North Versailles","u":"L","o":"corp","sf":35053,"v":22700}},{"type":"Feature","geometry":{"type":"Point","coordinates":[-79.77955,40.36544]},"properties":{"p":"0750N00017000000","a":"LINCOLN HWY","m":"North Versailles","u":"L","o":"corp","sf":63598,"v":15400}},{"type":"Feature","geometry":{"type":"Point","coordinates":[-79.77496,40.36632]},"properties":{"p":"0750P00097000000","a":"LINCOLN HWY","m":"North Versailles","u":"L","o":"corp","sf":140873,"v":32500}},{"type":"Feature","geometry":{"type":"Point","coordinates":[-79.77511,40.36742]},"properties":{"p":"0750P00195000000","a":"LINCOLN HWY","m":"North Versailles","u":"L","o":"corp","sf":311367,"v":41700}},{"type":"Feature","geometry":{"type":"Point","coordinates":[-79.77706,40.36232]},"properties":{"p":"0751F00168000000","a":"LOGAN RD","m":"North Versailles","u":"L","o":"individual","sf":108421,"v":10000}},{"type":"Feature","geometry":{"type":"Point","coordinates":[-79.77895,40.36265]},"properties":{"p":"0751F00220000000","a":"REISS LN","m":"North Versailles","u":"L","o":"corp","sf":82808,"v":17200}},{"type":"Feature","geometry":{"type":"Point","coordinates":[-79.77901,40.36592]},"properties":{"p":"0750P00009000000","a":"LINCOLN HWY","m":"North Versailles","u":"L","o":"corp","sf":28696,"v":14200}},{"type":"Feature","geometry":{"type":"Point","coordinates":[-79.77538,40.35907]},"properties":{"p":"0751K00015000000","a":"LOGAN RD","m":"North Versailles","u":"L","o":"individual","sf":3049,"v":1100}},{"type":"Feature","geometry":{"type":"Point","coordinates":[-79.77663,40.36023]},"properties":{"p":"0751K00215000000","a":"LOGAN RD","m":"North Versailles","u":"L","o":"individual","sf":37000,"v":12900}},{"type":"Feature","geometry":{"type":"Point","coordinates":[-79.77596,40.36171]},"properties":{"p":"0751F00169000000","a":"LOGAN RD","m":"North Versailles","u":"L","o":"individual","sf":3933,"v":1400}},{"type":"Feature","geometry":{"type":"Point","coordinates":[-79.77923,40.35589]},"properties":{"p":"0751N00117000000","a":"545 PEACH WAY","m":"White Oak","u":"L","o":"individual","sf":23261,"v":17900}},{"type":"Feature","geometry":{"type":"Point","coordinates":[-79.77581,40.36377]},"properties":{"p":"0751B00115000000","a":"LINCOLN HWY","m":"North Versailles","u":"L","o":"individual","sf":96268,"v":28400}},{"type":"Feature","geometry":{"type":"Point","coordinates":[-79.7756,40.36174]},"properties":{"p":"0751F00167000000","a":"LOGAN RD","m":"North Versailles","u":"L","o":"individual","sf":1670,"v":600}},{"type":"Feature","geometry":{"type":"Point","coordinates":[-79.77918,40.36633]},"properties":{"p":"0750N00011000000","a":"LINCOLN HWY","m":"North Versailles","u":"L","o":"corp","sf":33043,"v":22500}}]}