{"type":"FeatureCollection","features":[{"type":"Feature","geometry":{"type":"Point","coordinates":[-79.77246,40.52776]},"properties":{"p":"0734H00365000000","a":"122 KERR RD","m":"Plum","u":"C","o":"individual","sf":369942,"v":72000}},{"type":"Feature","geometry":{"type":"Point","coordinates":[-79.77039,40.5299]},"properties":{"p":"0734C00026000000","a":"HULTON RD","m":"Plum","u":"C","o":"corp","sf":90474,"v":27300}},{"type":"Feature","geometry":{"type":"Point","coordinates":[-79.776,40.52563]},"properties":{"p":"0734K00300000000","a":"VENANGO CT","m":"Plum","u":"L","o":"individual","sf":52272,"v":38700}},{"type":"Feature","geometry":{"type":"Point","coordinates":[-79.77226,40.52535]},"properties":{"p":"0734L00136000000","a":"KERR RD","m":"Plum","u":"L","o":"corp","sf":4615,"v":400}},{"type":"Feature","geometry":{"type":"Point","coordinates":[-79.77381,40.52213]},"properties":{"p":"0734R00053000000","a":"RAMPART BLVD","m":"Plum","u":"L","o":"individual","sf":50094,"v":4600}},{"type":"Feature","geometry":{"type":"Point","coordinates":[-79.77818,40.5223]},"properties":{"p":"0734R00067000000","a":"LIGONIER LN","m":"Plum","u":"L","o":"individual","sf":15202,"v":17800}},{"type":"Feature","geometry":{"type":"Point","coordinates":[-79.77378,40.52333]},"properties":{"p":"0734R00096000000","a":"RAMPART BLVD","m":"Plum","u":"L","o":"individual","sf":57848,"v":700}},{"type":"Feature","geometry":{"type":"Point","coordinates":[-79.76158,40.5168]},"properties":{"p":"0848F00354000000","a":"LEECHBURG RD","m":"Plum","u":"L","o":"individual","sf":18780,"v":1700}},{"type":"Feature","geometry":{"type":"Point","coordinates":[-79.76414,40.51387]},"properties":{"p":"0848N00002000000","a":"LEECHBURG RD","m":"Plum","u":"L","o":"individual","sf":210434,"v":35300}},{"type":"Feature","geometry":{"type":"Point","coordinates":[-79.76389,40.51216]},"properties":{"p":"0848N00121000000","a":"LEECHBURG RD","m":"Plum","u":"L","o":"individual","sf":25000,"v":31500}},{"type":"Feature","geometry":{"type":"Point","coordinates":[-79.76547,40.52134]},"properties":{"p":"0848A00383000000","a":"SHEARER RD","m":"Plum","u":"L","o":"individual","sf":15682,"v":1400}},{"type":"Feature","geometry":{"type":"Point","coordinates":[-79.76363,40.51969]},"properties":{"p":"0848A00276000000","a":"SHEARER RD","m":"Plum","u":"L","o":"individual","sf":17772,"v":18000}},{"type":"Feature","geometry":{"type":"Point","coordinates":[-79.76497,40.52542]},"properties":{"p":"0847J00001000000","a":"KERR RD","m":"Plum","u":"L","o":"individual","sf":299649,"v":41000}},{"type":"Feature","geometry":{"type":"Point","coordinates":[-79.77637,40.52554]},"properties":{"p":"0734F00022000000","a":"RAMPART BLVD","m":"Plum","u":"L","o":"individual","sf":109336,"v":43900}},{"type":"Feature","geometry":{"type":"Point","coordinates":[-79.76909,40.52727]},"properties":{"p":"0734H00301000000","a":"KERR RD","m":"Plum","u":"L","o":"corp","sf":41262,"v":39000}},{"type":"Feature","geometry":{"type":"Point","coordinates":[-79.77551,40.52694]},"properties":{"p":"0734F00047000000","a":"VENANGO CT","m":"Plum","u":"L","o":"corp","sf":6888,"v":600}},{"type":"Feature","geometry":{"type":"Point","coordinates":[-79.77927,40.52118]},"properties":{"p":"0735A00062000000","a":"TIONESTA DR","m":"Plum","u":"L","o":"individual","sf":13150,"v":35100}},{"type":"Feature","geometry":{"type":"Point","coordinates":[-79.77205,40.52876]},"properties":{"p":"0734C00295000000","a":"COXCOMB HILL RD","m":"Plum","u":"L","o":"individual","sf":12632,"v":5800}},{"type":"Feature","geometry":{"type":"Point","coordinates":[-79.77155,40.52918]},"properties":{"p":"0734C00305000000","a":"KERR RD","m":"Plum","u":"L","o":"corp","sf":62726,"v":19000}},{"type":"Feature","geometry":{"type":"Point","coordinates":[-79.77574,40.51153]},"properties":{"p":"0736B00004000000","a":"BARNES RD","m":"Plum","u":"L","o":"individual","sf":213596,"v":35600}},{"type":"Feature","geometry":{"type":"Point","coordinates":[-79.77788,40.51083]},"properties":{"p":"0736B00006000000","a":"BARNES RD","m":"Plum","u":"L","o":"corp","sf":254965,"v":23400}},{"type":"Feature","geometry":{"type":"Point","coordinates":[-79.77666,40.51256]},"properties":{"p":"0736B00008000000","a":"BARNES RD","m":"Plum","u":"L","o":"corp","sf":429554,"v":67600}},{"type":"Feature","geometry":{"type":"Point","coordinates":[-79.77881,40.52882]},"properties":{"p":"0734B00200000000","a":"COXCOMB HILL RD","m":"Plum","u":"L","o":"corp","sf":142986,"v":13100}},{"type":"Feature","geometry":{"type":"Point","coordinates":[-79.77767,40.52029]},"properties":{"p":"0735B00224000000","a":"RAMPART BLVD","m":"Plum","u":"L","o":"individual","sf":8152,"v":700}},{"type":"Feature","geometry":{"type":"Point","coordinates":[-79.77164,40.52955]},"properties":{"p":"0734C00280000000","a":"LOGANS FERRY RD","m":"Plum","u":"L","o":"corp","sf":10454,"v":900}},{"type":"Feature","geometry":{"type":"Point","coordinates":[-79.77305,40.5295]},"properties":{"p":"0734C00285000000","a":"LOGANS FERRY RD","m":"Plum","u":"L","o":"corp","sf":3920,"v":1800}},{"type":"Feature","geometry":{"type":"Point","coordinates":[-79.77236,40.52947]},"properties":{"p":"0734C00290000000","a":"LOGANS FERRY RD","m":"Plum","u":"L","o":"corp","sf":28314,"v":33100}},{"type":"Feature","geometry":{"type":"Point","coordinates":[-79.77481,40.52925]},"properties":{"p":"0734B00009000000","a":"RAMPART BLVD","m":"Plum","u":"L","o":"individual","sf":63162,"v":5800}},{"type":"Feature","geometry":{"type":"Point","coordinates":[-79.77623,40.52974]},"properties":{"p":"0734B00012000000","a":"RAMPART BLVD","m":"Plum","u":"L","o":"corp","sf":98010,"v":9000}},{"type":"Feature","geometry":{"type":"Point","coordinates":[-79.77809,40.52341]},"properties":{"p":"0734P00034000000","a":"VENANGO CT","m":"Plum","u":"L","o":"individual","sf":13236,"v":35200}},{"type":"Feature","geometry":{"type":"Point","coordinates":[-79.77863,40.5235]},"properties":{"p":"0734P00049000000","a":"COXCOMB HILL RD","m":"Plum","u":"L","o":"individual","sf":10400,"v":32700}},{"type":"Feature","geometry":{"type":"Point","coordinates":[-79.77885,40.52271]},"properties":{"p":"0734P00055000000","a":"LIGONIER LN","m":"Plum","u":"L","o":"individual","sf":311018,"v":56000}},{"type":"Feature","geometry":{"type":"Point","coordinates":[-79.77186,40.51842]},"properties":{"p":"0735G00196000000","a":"MILLTOWN RD","m":"Plum","u":"L","o":"individual","sf":132858,"v":13000}},{"type":"Feature","geometry":{"type":"Point","coordinates":[-79.77494,40.51887]},"properties":{"p":"0735B00109000000","a":"FRONTENAC RD","m":"Plum","u":"L","o":"individual","sf":70349,"v":800}},{"type":"Feature","geometry":{"type":"Point","coordinates":[-79.77843,40.52734]},"properties":{"p":"0734F00361000000","a":"LIGONIER LN","m":"Plum","u":"L","o":"corp","sf":115434,"v":10600}},{"type":"Feature","geometry":{"type":"Point","coordinates":[-79.77027,40.52945]},"properties":{"p":"0734C00037000000","a":"KERR RD","m":"Plum","u":"L","o":"individual","sf":43560,"v":40000}},{"type":"Feature","geometry":{"type":"Point","coordinates":[-79.76988,40.52928]},"properties":{"p":"0734C00046000000","a":"KERR RD","m":"Plum","u":"L","o":"individual","sf":44431,"v":40100}},{"type":"Feature","geometry":{"type":"Point","coordinates":[-79.77846,40.51242]},"properties":{"p":"0735P00074000000","a":"PUBLIC RD","m":"Plum","u":"L","o":"individual","sf":6490,"v":600}},{"type":"Feature","geometry":{"type":"Point","coordinates":[-79.77525,40.51012]},"properties":{"p":"0736B00002000000","a":"BARNES RD","m":"Plum","u":"L","o":"individual","sf":87085,"v":8000}},{"type":"Feature","geometry":{"type":"Point","coordinates":[-79.77377,40.52239]},"properties":{"p":"0734R00120000000","a":"RAMPART BLVD","m":"Plum","u":"L","o":"individual","sf":14897,"v":1300}},{"type":"Feature","geometry":{"type":"Point","coordinates":[-79.77516,40.5202]},"properties":{"p":"0735B00023000000","a":"FRONTENAC RD","m":"Plum","u":"L","o":"corp","sf":8678,"v":30200}},{"type":"Feature","geometry":{"type":"Point","coordinates":[-79.77364,40.52384]},"properties":{"p":"0734L00326000000","a":"PEPPERTREE DR","m":"Plum","u":"L","o":"individual","sf":4475,"v":400}},{"type":"Feature","geometry":{"type":"Point","coordinates":[-79.76395,40.51192]},"properties":{"p":"0848N00127000000","a":"LEECHBURG RD","m":"Plum","u":"L","o":"individual","sf":10000,"v":900}},{"type":"Feature","geometry":{"type":"Point","coordinates":[-79.77497,40.52395]},"properties":{"p":"0734K00040000000","a":"RAMPART BLVD","m":"Plum","u":"L","o":"individual","sf":8250,"v":29600}},{"type":"Feature","geometry":{"type":"Point","coordinates":[-79.76323,40.5195]},"properties":{"p":"0848A00288000000","a":"SHEARER RD","m":"Plum","u":"B","o":"corp","sf":15246,"v":1765}},{"type":"Feature","geometry":{"type":"Point","coordinates":[-79.76648,40.52146]},"properties":{"p":"0734S00164000000","a":"SHEARER RD","m":"Plum","u":"B","o":"corp","sf":26136,"v":1765}}]}