{"type":"FeatureCollection","features":[{"type":"Feature","geometry":{"type":"Point","coordinates":[-79.77902,40.48188]},"properties":{"p":"0739A00080000000","a":"DEBORAH JANE DR","m":"Plum","u":"C","o":"corp","sf":25180,"v":3500}},{"type":"Feature","geometry":{"type":"Point","coordinates":[-79.77903,40.48928]},"properties":{"p":"0738E00012000000","a":"UNITY CENTER RD","m":"Plum","u":"C","o":"corp","sf":63911,"v":146700}},{"type":"Feature","geometry":{"type":"Point","coordinates":[-79.76006,40.47317]},"properties":{"p":"0852P00166000000","a":"OBLOCK AVE","m":"Plum","u":"C","o":"corp","sf":9445,"v":900}},{"type":"Feature","geometry":{"type":"Point","coordinates":[-79.76482,40.48027]},"properties":{"p":"0852A00270000000","a":"CENTER RD","m":"Plum","u":"C","o":"corp","sf":19000,"v":2700}},{"type":"Feature","geometry":{"type":"Point","coordinates":[-79.76486,40.47893]},"properties":{"p":"0852E00079000000","a":"UNITY CENTER RD","m":"Plum","u":"C","o":"individual","sf":725405,"v":69100}},{"type":"Feature","geometry":{"type":"Point","coordinates":[-79.76471,40.48204]},"properties":{"p":"0852A00186000000","a":"PRIVATE RD","m":"Plum","u":"C","o":"individual","sf":30658,"v":46700}},{"type":"Feature","geometry":{"type":"Point","coordinates":[-79.76113,40.47787]},"properties":{"p":"0852F00058000000","a":"UNITY CENTER RD","m":"Plum","u":"C","o":"individual","sf":24403,"v":26100}},{"type":"Feature","geometry":{"type":"Point","coordinates":[-79.76575,40.48113]},"properties":{"p":"0852A00233000000","a":"UNITY CENTER RD","m":"Plum","u":"C","o":"individual","sf":30070,"v":6900}},{"type":"Feature","geometry":{"type":"Point","coordinates":[-79.76685,40.48105]},"properties":{"p":"0852A00238000000","a":"CENTER RD","m":"Plum","u":"C","o":"individual","sf":259400,"v":49600}},{"type":"Feature","geometry":{"type":"Point","coordinates":[-79.77782,40.48759]},"properties":{"p":"0738F00345000000","a":"MILLERS LN","m":"Plum","u":"C","o":"corp","sf":18165,"v":33700}},{"type":"Feature","geometry":{"type":"Point","coordinates":[-79.77889,40.47558]},"properties":{"p":"0739K00353000000","a":"SALTSBURG RD","m":"Penn Hills","u":"C","o":"corp","sf":26175,"v":70300}},{"type":"Feature","geometry":{"type":"Point","coordinates":[-79.7791,40.47556]},"properties":{"p":"0739K00358000000","a":"SALTSBURG RD","m":"Penn Hills","u":"C","o":"corp","sf":13068,"v":47700}},{"type":"Feature","geometry":{"type":"Point","coordinates":[-79.77951,40.47552]},"properties":{"p":"0739J00057000000","a":"SALTSBURG RD","m":"Penn Hills","u":"C","o":"corp","sf":69652,"v":159900}},{"type":"Feature","geometry":{"type":"Point","coordinates":[-79.77863,40.47552]},"properties":{"p":"0739K00343000000","a":"SALTSBURG RD","m":"Plum","u":"C","o":"corp","sf":26175,"v":82700}},{"type":"Feature","geometry":{"type":"Point","coordinates":[-79.77939,40.48206]},"properties":{"p":"0739A00087000000","a":"DEBORAH JANE DR","m":"Plum","u":"L","o":"corp","sf":17829,"v":12000}},{"type":"Feature","geometry":{"type":"Point","coordinates":[-79.7698,40.47575]},"properties":{"p":"0739M00188000000","a":"R OF W","m":"Plum","u":"L","o":"individual","sf":11305,"v":22400}},{"type":"Feature","geometry":{"type":"Point","coordinates":[-79.77334,40.4743]},"properties":{"p":"0739R00287000000","a":"WILLOW VILLAGE DR","m":"Plum","u":"L","o":"corp","sf":54886,"v":26900}},{"type":"Feature","geometry":{"type":"Point","coordinates":[-79.77686,40.47862]},"properties":{"p":"0739F00120000000","a":"CRESTVIEW DR","m":"Plum","u":"L","o":"individual","sf":22456,"v":24000}},{"type":"Feature","geometry":{"type":"Point","coordinates":[-79.77674,40.48647]},"properties":{"p":"0738K00289000000","a":"ELM RD","m":"Plum","u":"L","o":"corp","sf":65601,"v":16400}},{"type":"Feature","geometry":{"type":"Point","coordinates":[-79.77138,40.4751]},"properties":{"p":"0739R00190000000","a":"WILLOW VILLAGE DR","m":"Plum","u":"L","o":"corp","sf":2010,"v":200}},{"type":"Feature","geometry":{"type":"Point","coordinates":[-79.77286,40.47487]},"properties":{"p":"0739R00226000000","a":"SALTSBURG RD","m":"Plum","u":"L","o":"individual","sf":9385,"v":20500}},{"type":"Feature","geometry":{"type":"Point","coordinates":[-79.77844,40.48171]},"properties":{"p":"0739B00256000000","a":"REGENCY DR","m":"Plum","u":"L","o":"individual","sf":10054,"v":900}},{"type":"Feature","geometry":{"type":"Point","coordinates":[-79.77344,40.48974]},"properties":{"p":"0738C00059000000","a":"OLD LEECHBURG RD","m":"Plum","u":"L","o":"individual","sf":6581,"v":6300}},{"type":"Feature","geometry":{"type":"Point","coordinates":[-79.77372,40.48978]},"properties":{"p":"0738C00066000000","a":"LEECHBURG RD","m":"Plum","u":"L","o":"corp","sf":2837,"v":300}},{"type":"Feature","geometry":{"type":"Point","coordinates":[-79.7623,40.47628]},"properties":{"p":"0852J00196000000","a":"SALTSBURG RD","m":"Plum","u":"L","o":"individual","sf":46174,"v":4200}},{"type":"Feature","geometry":{"type":"Point","coordinates":[-79.7602,40.47485]},"properties":{"p":"0852P00216000000","a":"OBLOCK AVE","m":"Plum","u":"L","o":"individual","sf":17822,"v":12000}},{"type":"Feature","geometry":{"type":"Point","coordinates":[-79.76078,40.47395]},"properties":{"p":"0852P00251000000","a":"OBLOCK DR","m":"Plum","u":"L","o":"individual","sf":35661,"v":25200}},{"type":"Feature","geometry":{"type":"Point","coordinates":[-79.76032,40.47269]},"properties":{"p":"0852P00254000000","a":"JUNE ST","m":"Plum","u":"L","o":"individual","sf":30753,"v":2800}},{"type":"Feature","geometry":{"type":"Point","coordinates":[-79.76142,40.47443]},"properties":{"p":"0852P00356000000","a":"SALTSBURG RD","m":"Plum","u":"L","o":"individual","sf":11228,"v":1000}},{"type":"Feature","geometry":{"type":"Point","coordinates":[-79.76248,40.48874]},"properties":{"p":"0851E00148000000","a":"ROBERTS RD","m":"Plum","u":"L","o":"individual","sf":6576,"v":6300}},{"type":"Feature","geometry":{"type":"Point","coordinates":[-79.76368,40.48466]},"properties":{"p":"0851N00284000000","a":"131 FRANCIS RD","m":"Plum","u":"L","o":"individual","sf":392,"v":700}},{"type":"Feature","geometry":{"type":"Point","coordinates":[-79.76242,40.48942]},"properties":{"p":"0851A00018000000","a":"ROBERTS RD","m":"Plum","u":"L","o":"individual","sf":32172,"v":24900}},{"type":"Feature","geometry":{"type":"Point","coordinates":[-79.76007,40.47335]},"properties":{"p":"0852P00171000000","a":"OBLOCK AVE","m":"Plum","u":"L","o":"individual","sf":6330,"v":6100}},{"type":"Feature","geometry":{"type":"Point","coordinates":[-79.76488,40.48986]},"properties":{"p":"0851A00068000000","a":"JACKSON RD","m":"Plum","u":"L","o":"individual","sf":27029,"v":24400}},{"type":"Feature","geometry":{"type":"Point","coordinates":[-79.76618,40.48552]},"properties":{"p":"0851J00380000000","a":"COLLEGE AVE","m":"Plum","u":"L","o":"corp","sf":14400,"v":23300}},{"type":"Feature","geometry":{"type":"Point","coordinates":[-79.76381,40.47662]},"properties":{"p":"0852J00261000000","a":"SALTSBURG RD","m":"Plum","u":"L","o":"corp","sf":37461,"v":25300}},{"type":"Feature","geometry":{"type":"Point","coordinates":[-79.76608,40.48931]},"properties":{"p":"0851E00397000000","a":"JACKSON RD","m":"Plum","u":"L","o":"individual","sf":5337,"v":5100}},{"type":"Feature","geometry":{"type":"Point","coordinates":[-79.76534,40.4834]},"properties":{"p":"0851N00206000000","a":"UNITY CENTER RD","m":"Plum","u":"L","o":"individual","sf":10020,"v":21100}},{"type":"Feature","geometry":{"type":"Point","coordinates":[-79.76499,40.47025]},"properties":{"p":"0853A00320000000","a":"445 DAVIDSON RD","m":"Plum","u":"L","o":"individual","sf":4675,"v":4500}},{"type":"Feature","geometry":{"type":"Point","coordinates":[-79.76566,40.47019]},"properties":{"p":"0853A00325000000","a":"445 DAVIDSON RD","m":"Plum","u":"L","o":"individual","sf":24378,"v":24200}},{"type":"Feature","geometry":{"type":"Point","coordinates":[-79.76446,40.48606]},"properties":{"p":"0851J00084000000","a":"CLEMENTS RD","m":"Plum","u":"L","o":"individual","sf":41382,"v":3700}},{"type":"Feature","geometry":{"type":"Point","coordinates":[-79.76446,40.48888]},"properties":{"p":"0851E00306000000","a":"MILLER RD","m":"Plum","u":"L","o":"individual","sf":18071,"v":23600}},{"type":"Feature","geometry":{"type":"Point","coordinates":[-79.76589,40.48217]},"properties":{"p":"0852A00194000000","a":"UNITY CENTER RD","m":"Plum","u":"L","o":"individual","sf":31532,"v":24800}},{"type":"Feature","geometry":{"type":"Point","coordinates":[-79.76377,40.48391]},"properties":{"p":"0851N00170000000","a":"SCOTT RD","m":"Plum","u":"L","o":"individual","sf":8533,"v":19700}},{"type":"Feature","geometry":{"type":"Point","coordinates":[-79.76434,40.47128]},"properties":{"p":"0853A00155000000","a":"TURNPIKE","m":"Plum","u":"L","o":"individual","sf":76230,"v":900}},{"type":"Feature","geometry":{"type":"Point","coordinates":[-79.76356,40.48501]},"properties":{"p":"0851N00290000000","a":"FRANCIS RD","m":"Plum","u":"L","o":"individual","sf":3180,"v":3100}},{"type":"Feature","geometry":{"type":"Point","coordinates":[-79.76579,40.48408]},"properties":{"p":"0851N00374000000","a":"815 UNITY CENTER RD","m":"Plum","u":"L","o":"individual","sf":3650,"v":300}},{"type":"Feature","geometry":{"type":"Point","coordinates":[-79.76644,40.48456]},"properties":{"p":"0851N00398000000","a":"FRANCIS RD","m":"Plum","u":"L","o":"corp","sf":4994,"v":16300}},{"type":"Feature","geometry":{"type":"Point","coordinates":[-79.77506,40.48953]},"properties":{"p":"0738F00018000000","a":"OLD LEECHBURG RD","m":"Plum","u":"L","o":"individual","sf":6098,"v":600}},{"type":"Feature","geometry":{"type":"Point","coordinates":[-79.77075,40.48537]},"properties":{"p":"0738M00050000000","a":"UNITY CENTER RD","m":"Plum","u":"L","o":"corp","sf":51688,"v":15200}},{"type":"Feature","geometry":{"type":"Point","coordinates":[-79.77351,40.48958]},"properties":{"p":"0738G00152000000","a":"PINTO DR","m":"Plum","u":"L","o":"individual","sf":8428,"v":8100}},{"type":"Feature","geometry":{"type":"Point","coordinates":[-79.76725,40.48674]},"properties":{"p":"0738M00188000000","a":"JACKSON RD","m":"Plum","u":"L","o":"individual","sf":12665,"v":1100}},{"type":"Feature","geometry":{"type":"Point","coordinates":[-79.76761,40.48724]},"properties":{"p":"0738M00194000000","a":"JACKSON RD","m":"Plum","u":"L","o":"corp","sf":350,"v":100}},{"type":"Feature","geometry":{"type":"Point","coordinates":[-79.76828,40.4865]},"properties":{"p":"0738M00197000000","a":"JACKSON RD","m":"Plum","u":"L","o":"individual","sf":350,"v":100}},{"type":"Feature","geometry":{"type":"Point","coordinates":[-79.76783,40.487]},"properties":{"p":"0738M00198000000","a":"JACKSON RD","m":"Plum","u":"L","o":"individual","sf":350,"v":100}},{"type":"Feature","geometry":{"type":"Point","coordinates":[-79.76806,40.48675]},"properties":{"p":"0738M00201000000","a":"JACKSON RD","m":"Plum","u":"L","o":"individual","sf":700,"v":100}},{"type":"Feature","geometry":{"type":"Point","coordinates":[-79.76766,40.48696]},"properties":{"p":"0738M00204000000","a":"JACKSON RD","m":"Plum","u":"L","o":"individual","sf":4051,"v":400}},{"type":"Feature","geometry":{"type":"Point","coordinates":[-79.76836,40.48621]},"properties":{"p":"0738M00224000000","a":"UNITY CENTER RD","m":"Plum","u":"L","o":"individual","sf":47916,"v":26300}},{"type":"Feature","geometry":{"type":"Point","coordinates":[-79.76907,40.48564]},"properties":{"p":"0738M00225000000","a":"JACKSON RD","m":"Plum","u":"L","o":"individual","sf":725,"v":100}},{"type":"Feature","geometry":{"type":"Point","coordinates":[-79.76962,40.48592]},"properties":{"p":"0738M00238000000","a":"UNITY CENTER RD","m":"Plum","u":"L","o":"individual","sf":19679,"v":23700}},{"type":"Feature","geometry":{"type":"Point","coordinates":[-79.77253,40.48567]},"properties":{"p":"0738L00245000000","a":"ASHLAND DR","m":"Plum","u":"L","o":"individual","sf":95514,"v":29300}},{"type":"Feature","geometry":{"type":"Point","coordinates":[-79.7747,40.48989]},"properties":{"p":"0738B00210000000","a":"OLD LEECHBURG RD","m":"Plum","u":"L","o":"corp","sf":10426,"v":21500}},{"type":"Feature","geometry":{"type":"Point","coordinates":[-79.77506,40.48756]},"properties":{"p":"0738F00222000000","a":"UNITY CENTER RD","m":"Plum","u":"L","o":"individual","sf":148104,"v":35500}},{"type":"Feature","geometry":{"type":"Point","coordinates":[-79.77765,40.48989]},"properties":{"p":"0738B00341000000","a":"ALLEGHENY AVE","m":"Plum","u":"L","o":"individual","sf":8748,"v":8400}},{"type":"Feature","geometry":{"type":"Point","coordinates":[-79.77121,40.48357]},"properties":{"p":"0738R00266000000","a":"ANDERSON AVE","m":"Plum","u":"L","o":"individual","sf":11250,"v":1000}},{"type":"Feature","geometry":{"type":"Point","coordinates":[-79.76727,40.48762]},"properties":{"p":"0738H00012000000","a":"JACKSON RD","m":"Plum","u":"L","o":"individual","sf":1050,"v":100}},{"type":"Feature","geometry":{"type":"Point","coordinates":[-79.76698,40.48793]},"properties":{"p":"0738H00026000000","a":"JACKSON RD","m":"Plum","u":"L","o":"individual","sf":350,"v":100}},{"type":"Feature","geometry":{"type":"Point","coordinates":[-79.76908,40.48418]},"properties":{"p":"0738S00191000100","a":"WILLOW DR","m":"Plum","u":"L","o":"individual","sf":7909,"v":7600}},{"type":"Feature","geometry":{"type":"Point","coordinates":[-79.77269,40.47555]},"properties":{"p":"0739L00132000000","a":"SALTSBURG RD","m":"Plum","u":"L","o":"individual","sf":20100,"v":23800}},{"type":"Feature","geometry":{"type":"Point","coordinates":[-79.76994,40.48307]},"properties":{"p":"0738S00278000000","a":"ANDERSON AVE","m":"Plum","u":"L","o":"individual","sf":43996,"v":500}},{"type":"Feature","geometry":{"type":"Point","coordinates":[-79.77033,40.48332]},"properties":{"p":"0738S00284000000","a":"ANDERSON AVE","m":"Plum","u":"L","o":"individual","sf":1128,"v":100}},{"type":"Feature","geometry":{"type":"Point","coordinates":[-79.76989,40.48421]},"properties":{"p":"0738S00351000000","a":"ANDERSON LN","m":"Plum","u":"L","o":"individual","sf":31364,"v":13300}},{"type":"Feature","geometry":{"type":"Point","coordinates":[-79.77077,40.4803]},"properties":{"p":"0739C00026000000","a":"MILLERS LN","m":"Plum","u":"L","o":"individual","sf":13373,"v":1200}},{"type":"Feature","geometry":{"type":"Point","coordinates":[-79.76689,40.48569]},"properties":{"p":"0738M00080000000","a":"COLLEGE AVE","m":"Plum","u":"L","o":"corp","sf":14850,"v":23300}},{"type":"Feature","geometry":{"type":"Point","coordinates":[-79.77189,40.48366]},"properties":{"p":"0738R00244000000","a":"ANDERSON LN","m":"Plum","u":"L","o":"corp","sf":6834,"v":6600}},{"type":"Feature","geometry":{"type":"Point","coordinates":[-79.77352,40.48925]},"properties":{"p":"0738G00174000000","a":"PINTO DR","m":"Plum","u":"L","o":"individual","sf":2524,"v":200}},{"type":"Feature","geometry":{"type":"Point","coordinates":[-79.774,40.48876]},"properties":{"p":"0738G00220000000","a":"UNITY CENTER RD","m":"Plum","u":"L","o":"individual","sf":198838,"v":40200}},{"type":"Feature","geometry":{"type":"Point","coordinates":[-79.76918,40.48642]},"properties":{"p":"0738M00265000000","a":"JACKSON RD","m":"Plum","u":"L","o":"individual","sf":45477,"v":26100}},{"type":"Feature","geometry":{"type":"Point","coordinates":[-79.77266,40.47848]},"properties":{"p":"0739G00168000000","a":"MILLERS LN","m":"Plum","u":"L","o":"corp","sf":10800,"v":21900}},{"type":"Feature","geometry":{"type":"Point","coordinates":[-79.77278,40.47791]},"properties":{"p":"0739G00188000000","a":"435 MILLERS LN","m":"Plum","u":"L","o":"individual","sf":21600,"v":23900}},{"type":"Feature","geometry":{"type":"Point","coordinates":[-79.7798,40.48001]},"properties":{"p":"0739A00025000000","a":"DEER DR","m":"Penn Hills","u":"L","o":"individual","sf":3894,"v":1200}},{"type":"Feature","geometry":{"type":"Point","coordinates":[-79.77964,40.48111]},"properties":{"p":"0739A00051000000","a":"PLUM CREEK RD","m":"Penn Hills","u":"L","o":"individual","sf":6500,"v":1900}},{"type":"Feature","geometry":{"type":"Point","coordinates":[-79.7795,40.48104]},"properties":{"p":"0739A00055000000","a":"PLUM CREEK RD","m":"Penn Hills","u":"L","o":"individual","sf":6500,"v":1900}},{"type":"Feature","geometry":{"type":"Point","coordinates":[-79.77914,40.48085]},"properties":{"p":"0739A00063000000","a":"PLUM CREEK RD","m":"Penn Hills","u":"L","o":"individual","sf":3700,"v":1100}},{"type":"Feature","geometry":{"type":"Point","coordinates":[-79.77987,40.48881]},"properties":{"p":"0738E00031000000","a":"ELLWOOD AVE EXT","m":"Plum","u":"L","o":"corp","sf":15364,"v":23300}},{"type":"Feature","geometry":{"type":"Point","coordinates":[-79.77996,40.48317]},"properties":{"p":"0738N00126000000","a":"UNIVERSAL RD","m":"Plum","u":"L","o":"individual","sf":8943,"v":800}},{"type":"Feature","geometry":{"type":"Point","coordinates":[-79.76314,40.48692]},"properties":{"p":"0851J00092000000","a":"CLEMENTS RD","m":"Plum","u":"L","o":"individual","sf":15311,"v":1400}},{"type":"Feature","geometry":{"type":"Point","coordinates":[-79.7702,40.48446]},"properties":{"p":"0738S00325000000","a":"ANDERSON LN","m":"Plum","u":"L","o":"individual","sf":26707,"v":24400}},{"type":"Feature","geometry":{"type":"Point","coordinates":[-79.77354,40.48681]},"properties":{"p":"0738G00262000000","a":"UNITY CENTER RD","m":"Plum","u":"L","o":"individual","sf":33855,"v":25000}},{"type":"Feature","geometry":{"type":"Point","coordinates":[-79.76614,40.48419]},"properties":{"p":"0851N00386000000","a":"UNITY CENTER RD","m":"Plum","u":"L","o":"individual","sf":13125,"v":11600}},{"type":"Feature","geometry":{"type":"Point","coordinates":[-79.77229,40.48653]},"properties":{"p":"0738L00153000000","a":"UNITY CENTER RD","m":"Plum","u":"L","o":"individual","sf":52708,"v":26700}},{"type":"Feature","geometry":{"type":"Point","coordinates":[-79.77997,40.48018]},"properties":{"p":"0739A00019000000","a":"DEER DR","m":"Penn Hills","u":"L","o":"individual","sf":14375,"v":12800}},{"type":"Feature","geometry":{"type":"Point","coordinates":[-79.77821,40.48163]},"properties":{"p":"0739B00261000000","a":"REGENCY DR","m":"Plum","u":"L","o":"individual","sf":8000,"v":700}},{"type":"Feature","geometry":{"type":"Point","coordinates":[-79.77201,40.47459]},"properties":{"p":"0739R00400000000","a":"107 WILLOW VILLAGE DR","m":"Plum","u":"B","o":"individual","sf":17192,"v":10600}},{"type":"Feature","geometry":{"type":"Point","coordinates":[-79.77175,40.47499]},"properties":{"p":"0739R00404000000","a":"103 WILLOW VILLAGE DR","m":"Plum","u":"B","o":"individual","sf":10374,"v":6400}},{"type":"Feature","geometry":{"type":"Point","coordinates":[-79.77207,40.47497]},"properties":{"p":"0739R00408000000","a":"7704 SALTSBURG RD","m":"Plum","u":"B","o":"corp","sf":13990,"v":8700}}]}