{"type":"FeatureCollection","features":[{"type":"Feature","geometry":{"type":"Point","coordinates":[-79.77237,40.60247]},"properties":{"p":"1087L00100000100","a":"BAKERSTOWN RD","m":"Tarentum","u":"I","o":"corp","sf":341467,"v":174800}},{"type":"Feature","geometry":{"type":"Point","coordinates":[-79.76941,40.59552]},"properties":{"p":"1087H00200000000","a":"FREEPORT RD","m":"East Deer","u":"I","o":"corp","sf":10890,"v":20000}},{"type":"Feature","geometry":{"type":"Point","coordinates":[-79.76434,40.59768]},"properties":{"p":"1088A00216000000","a":"W 6TH AVE","m":"Tarentum","u":"C","o":"corp","sf":5288,"v":12200}},{"type":"Feature","geometry":{"type":"Point","coordinates":[-79.76391,40.59886]},"properties":{"p":"1088A00004000000","a":"W 7TH AVE","m":"Tarentum","u":"C","o":"corp","sf":6000,"v":1000}},{"type":"Feature","geometry":{"type":"Point","coordinates":[-79.76443,40.5985]},"properties":{"p":"1088A00017000000","a":"360 W 7TH AVE","m":"Tarentum","u":"C","o":"individual","sf":3145,"v":3800}},{"type":"Feature","geometry":{"type":"Point","coordinates":[-79.76345,40.60501]},"properties":{"p":"1223E00205000000","a":"MILLIGAN ST","m":"Tarentum","u":"C","o":"corp","sf":14950,"v":18900}},{"type":"Feature","geometry":{"type":"Point","coordinates":[-79.76297,40.59877]},"properties":{"p":"1223N00234000000","a":"321 W 7TH AVE","m":"Tarentum","u":"C","o":"corp","sf":4813,"v":11800}},{"type":"Feature","geometry":{"type":"Point","coordinates":[-79.76611,40.59759]},"properties":{"p":"1088A00115000000","a":"W 7TH AVE","m":"Tarentum","u":"C","o":"corp","sf":3000,"v":700}},{"type":"Feature","geometry":{"type":"Point","coordinates":[-79.76618,40.59755]},"properties":{"p":"1088A00117000000","a":"W 7TH AVE","m":"Tarentum","u":"C","o":"corp","sf":3000,"v":700}},{"type":"Feature","geometry":{"type":"Point","coordinates":[-79.76979,40.59438]},"properties":{"p":"1087H00012000000","a":"FREEPORT RD","m":"East Deer","u":"C","o":"individual","sf":5000,"v":8800}},{"type":"Feature","geometry":{"type":"Point","coordinates":[-79.77048,40.59291]},"properties":{"p":"1087M00015000000","a":"BAILIES RUN RD","m":"East Deer","u":"C","o":"corp","sf":10890,"v":20000}},{"type":"Feature","geometry":{"type":"Point","coordinates":[-79.77426,40.59741]},"properties":{"p":"1087L00100000000","a":"BAILEYS RUN RD","m":"East Deer","u":"C","o":"corp","sf":6036436,"v":363000}},{"type":"Feature","geometry":{"type":"Point","coordinates":[-79.77084,40.59274]},"properties":{"p":"1087L00250000000","a":"FREEPORT RD","m":"East Deer","u":"C","o":"corp","sf":12850,"v":23600}},{"type":"Feature","geometry":{"type":"Point","coordinates":[-79.76838,40.59579]},"properties":{"p":"1087D00280000000","a":"FREEPORT RD","m":"East Deer","u":"C","o":"corp","sf":236095,"v":25200}},{"type":"Feature","geometry":{"type":"Point","coordinates":[-79.76047,40.60476]},"properties":{"p":"1223F00295000000","a":"WOOD ST","m":"Tarentum","u":"L","o":"individual","sf":19500,"v":19300}},{"type":"Feature","geometry":{"type":"Point","coordinates":[-79.76032,40.60521]},"properties":{"p":"1223F00311000000","a":"WOOD ST","m":"Tarentum","u":"L","o":"individual","sf":4500,"v":1500}},{"type":"Feature","geometry":{"type":"Point","coordinates":[-79.76351,40.60466]},"properties":{"p":"1223E00070000000","a":"W 13TH AVE","m":"Tarentum","u":"L","o":"individual","sf":5588,"v":18100}},{"type":"Feature","geometry":{"type":"Point","coordinates":[-79.76123,40.60037]},"properties":{"p":"1223P00082000000","a":"W 7TH AVE","m":"Tarentum","u":"L","o":"individual","sf":4800,"v":9800}},{"type":"Feature","geometry":{"type":"Point","coordinates":[-79.76213,40.60132]},"properties":{"p":"1223J00078000000","a":"W 9TH AVE","m":"Tarentum","u":"L","o":"corp","sf":4800,"v":17600}},{"type":"Feature","geometry":{"type":"Point","coordinates":[-79.76125,40.60232]},"properties":{"p":"1223K00188000000","a":"106 W 9TH AVE","m":"Tarentum","u":"L","o":"individual","sf":4800,"v":17600}},{"type":"Feature","geometry":{"type":"Point","coordinates":[-79.76488,40.6034]},"properties":{"p":"1223J00310000000","a":"W 12TH AVE","m":"Tarentum","u":"L","o":"individual","sf":5616,"v":18100}},{"type":"Feature","geometry":{"type":"Point","coordinates":[-79.7648,40.60346]},"properties":{"p":"1223J00312000000","a":"W 12TH AVE","m":"Tarentum","u":"L","o":"individual","sf":23607,"v":19700}},{"type":"Feature","geometry":{"type":"Point","coordinates":[-79.76456,40.60374]},"properties":{"p":"1223J00317000000","a":"W 12TH AVE","m":"Tarentum","u":"L","o":"individual","sf":7654,"v":18200}},{"type":"Feature","geometry":{"type":"Point","coordinates":[-79.76528,40.60305]},"properties":{"p":"1223J00375000100","a":"218 W 12TH AVE","m":"Tarentum","u":"L","o":"individual","sf":6229,"v":9100}},{"type":"Feature","geometry":{"type":"Point","coordinates":[-79.76334,40.60412]},"properties":{"p":"1223E00082000000","a":"107 W 13TH AVE","m":"Tarentum","u":"L","o":"individual","sf":3750,"v":15800}},{"type":"Feature","geometry":{"type":"Point","coordinates":[-79.76389,40.60391]},"properties":{"p":"1223E00094000000","a":"W 12TH AVE","m":"Tarentum","u":"L","o":"individual","sf":3750,"v":15800}},{"type":"Feature","geometry":{"type":"Point","coordinates":[-79.76454,40.59861]},"properties":{"p":"1088A00014000000","a":"W 7TH AVE","m":"Tarentum","u":"L","o":"individual","sf":481,"v":200}},{"type":"Feature","geometry":{"type":"Point","coordinates":[-79.76193,40.60624]},"properties":{"p":"1223B00045000000","a":"DOUTHETT AVE","m":"Tarentum","u":"L","o":"individual","sf":9900,"v":18400}},{"type":"Feature","geometry":{"type":"Point","coordinates":[-79.76166,40.60766]},"properties":{"p":"1223B00075000000","a":"BAKERSTOWN RD","m":"Tarentum","u":"L","o":"corp","sf":177054,"v":33800}},{"type":"Feature","geometry":{"type":"Point","coordinates":[-79.76519,40.59816]},"properties":{"p":"1088A00089000000","a":"W 7TH AVE","m":"Tarentum","u":"L","o":"corp","sf":3000,"v":8000}},{"type":"Feature","geometry":{"type":"Point","coordinates":[-79.76526,40.59812]},"properties":{"p":"1088A00091000000","a":"E 7TH AVE","m":"Tarentum","u":"L","o":"individual","sf":3000,"v":8000}},{"type":"Feature","geometry":{"type":"Point","coordinates":[-79.76533,40.59808]},"properties":{"p":"1088A00092000000","a":"W 7TH AVE","m":"Tarentum","u":"L","o":"individual","sf":3000,"v":8000}},{"type":"Feature","geometry":{"type":"Point","coordinates":[-79.76105,40.60282]},"properties":{"p":"1223K00257000000","a":"EAST ST","m":"Tarentum","u":"L","o":"corp","sf":1974,"v":700}},{"type":"Feature","geometry":{"type":"Point","coordinates":[-79.76097,40.6027]},"properties":{"p":"1223K00259000000","a":"EAST ST","m":"Tarentum","u":"L","o":"individual","sf":4160,"v":16500}},{"type":"Feature","geometry":{"type":"Point","coordinates":[-79.76074,40.60255]},"properties":{"p":"1223K00263000000","a":"EAST ST","m":"Tarentum","u":"L","o":"individual","sf":3852,"v":15900}},{"type":"Feature","geometry":{"type":"Point","coordinates":[-79.77115,40.60509]},"properties":{"p":"1222G00020000000","a":"BAKERSTOWN RD","m":"Tarentum","u":"L","o":"individual","sf":117612,"v":28300}},{"type":"Feature","geometry":{"type":"Point","coordinates":[-79.76666,40.60207]},"properties":{"p":"1222M00020000000","a":"W 11TH AVE","m":"Tarentum","u":"L","o":"individual","sf":21277,"v":6500}},{"type":"Feature","geometry":{"type":"Point","coordinates":[-79.76849,40.60176]},"properties":{"p":"1222M00040000000","a":"GRANTHAM ST","m":"Tarentum","u":"L","o":"individual","sf":202685,"v":36200}},{"type":"Feature","geometry":{"type":"Point","coordinates":[-79.76595,40.59786]},"properties":{"p":"1088A00107000000","a":"W 7TH AVE","m":"Tarentum","u":"L","o":"corp","sf":3600,"v":1100}},{"type":"Feature","geometry":{"type":"Point","coordinates":[-79.76008,40.60759]},"properties":{"p":"1223B00275000000","a":"REINHER ST","m":"Tarentum","u":"L","o":"corp","sf":98010,"v":26500}},{"type":"Feature","geometry":{"type":"Point","coordinates":[-79.76357,40.60256]},"properties":{"p":"1223J00182000000","a":"W 11TH AVE","m":"Tarentum","u":"L","o":"individual","sf":9600,"v":17500}},{"type":"Feature","geometry":{"type":"Point","coordinates":[-79.76169,40.59902]},"properties":{"p":"1223P00010000000","a":"W 6TH AVE","m":"Tarentum","u":"L","o":"individual","sf":2774,"v":900}},{"type":"Feature","geometry":{"type":"Point","coordinates":[-79.7616,40.59907]},"properties":{"p":"1223P00012000000","a":"W 6TH AVE","m":"Tarentum","u":"L","o":"individual","sf":4220,"v":1300}},{"type":"Feature","geometry":{"type":"Point","coordinates":[-79.76393,40.60536]},"properties":{"p":"1223E00250000000","a":"LEAMAN AVE","m":"Tarentum","u":"L","o":"individual","sf":28548,"v":20100}},{"type":"Feature","geometry":{"type":"Point","coordinates":[-79.76214,40.60413]},"properties":{"p":"1223F00008000000","a":"EAST ST","m":"Tarentum","u":"L","o":"individual","sf":75969,"v":24500}},{"type":"Feature","geometry":{"type":"Point","coordinates":[-79.76399,40.59822]},"properties":{"p":"1088A00148000000","a":"W 7TH AVE","m":"Tarentum","u":"L","o":"individual","sf":2400,"v":7400}},{"type":"Feature","geometry":{"type":"Point","coordinates":[-79.76405,40.59819]},"properties":{"p":"1088A00150000000","a":"W 7TH AVE","m":"Tarentum","u":"L","o":"corp","sf":2400,"v":7400}},{"type":"Feature","geometry":{"type":"Point","coordinates":[-79.76379,40.59833]},"properties":{"p":"1088A00154000000","a":"W 7TH AVE","m":"Tarentum","u":"L","o":"corp","sf":5340,"v":10000}},{"type":"Feature","geometry":{"type":"Point","coordinates":[-79.76343,40.59852]},"properties":{"p":"1088A00160000000","a":"W 7TH AVE","m":"Tarentum","u":"L","o":"individual","sf":4800,"v":9800}},{"type":"Feature","geometry":{"type":"Point","coordinates":[-79.76411,40.60075]},"properties":{"p":"1223N00059000000","a":"W 9TH AVE","m":"Tarentum","u":"L","o":"individual","sf":4800,"v":17600}},{"type":"Feature","geometry":{"type":"Point","coordinates":[-79.7622,40.59874]},"properties":{"p":"1088A00174000000","a":"W 6TH AVE","m":"Tarentum","u":"L","o":"individual","sf":3263,"v":8300}},{"type":"Feature","geometry":{"type":"Point","coordinates":[-79.76434,40.6039]},"properties":{"p":"1223E00010000000","a":"W 12TH AVE","m":"Tarentum","u":"L","o":"individual","sf":9619,"v":18400}},{"type":"Feature","geometry":{"type":"Point","coordinates":[-79.76422,40.60426]},"properties":{"p":"1223E00052000000","a":"W 13TH AVE","m":"Tarentum","u":"L","o":"individual","sf":11250,"v":18600}},{"type":"Feature","geometry":{"type":"Point","coordinates":[-79.76066,40.59954]},"properties":{"p":"1223P00028000000","a":"CONROY WAY","m":"Tarentum","u":"L","o":"individual","sf":2491,"v":7500}},{"type":"Feature","geometry":{"type":"Point","coordinates":[-79.7606,40.59957]},"properties":{"p":"1223P00029000000","a":"CONROY WAY","m":"Tarentum","u":"L","o":"individual","sf":2519,"v":7500}},{"type":"Feature","geometry":{"type":"Point","coordinates":[-79.76356,40.60155]},"properties":{"p":"1223J00123000000","a":"W 10TH AVE","m":"Tarentum","u":"L","o":"individual","sf":4800,"v":1500}},{"type":"Feature","geometry":{"type":"Point","coordinates":[-79.76368,40.60148]},"properties":{"p":"1223J00125000000","a":"W 10TH AVE","m":"Tarentum","u":"L","o":"individual","sf":4800,"v":17600}},{"type":"Feature","geometry":{"type":"Point","coordinates":[-79.76136,40.60424]},"properties":{"p":"1223F00348000000","a":"1120 BAKERSTOWN RD","m":"Tarentum","u":"L","o":"individual","sf":9000,"v":9400}},{"type":"Feature","geometry":{"type":"Point","coordinates":[-79.76146,40.60392]},"properties":{"p":"1223F00350000000","a":"BAKERSTOWN RD","m":"Tarentum","u":"L","o":"individual","sf":15000,"v":18900}},{"type":"Feature","geometry":{"type":"Point","coordinates":[-79.76963,40.60748]},"properties":{"p":"1222D00045000100","a":"111 KUHNS DR","m":"Tarentum","u":"L","o":"individual","sf":7500,"v":2400}},{"type":"Feature","geometry":{"type":"Point","coordinates":[-79.7689,40.60685]},"properties":{"p":"1222D00091000000","a":"1460 BAKERSTOWN RD","m":"Tarentum","u":"L","o":"individual","sf":47480,"v":21900}},{"type":"Feature","geometry":{"type":"Point","coordinates":[-79.7636,40.60636]},"properties":{"p":"1223A00300000000","a":"BAKERSTOWN RD","m":"Tarentum","u":"L","o":"individual","sf":11880,"v":18600}},{"type":"Feature","geometry":{"type":"Point","coordinates":[-79.76394,40.59985]},"properties":{"p":"1223N00147000000","a":"W 8TH AVE","m":"Tarentum","u":"L","o":"individual","sf":2160,"v":800}},{"type":"Feature","geometry":{"type":"Point","coordinates":[-79.76153,40.60368]},"properties":{"p":"1223K00240000000","a":"BAKERSTOWN RD","m":"Tarentum","u":"L","o":"individual","sf":3000,"v":14400}},{"type":"Feature","geometry":{"type":"Point","coordinates":[-79.76163,40.60352]},"properties":{"p":"1223K00242000000","a":"BAKERSTOWN RD","m":"Tarentum","u":"L","o":"corp","sf":7508,"v":18200}},{"type":"Feature","geometry":{"type":"Point","coordinates":[-79.76154,40.60335]},"properties":{"p":"1223K00248000000","a":"EAST ST","m":"Tarentum","u":"L","o":"individual","sf":1239,"v":500}},{"type":"Feature","geometry":{"type":"Point","coordinates":[-79.76149,40.60329]},"properties":{"p":"1223K00249000000","a":"EAST ST","m":"Tarentum","u":"L","o":"individual","sf":1845,"v":700}},{"type":"Feature","geometry":{"type":"Point","coordinates":[-79.76261,40.60588]},"properties":{"p":"1223E00174000000","a":"PITCAIRN AVE","m":"Tarentum","u":"L","o":"individual","sf":6900,"v":18200}},{"type":"Feature","geometry":{"type":"Point","coordinates":[-79.76268,40.60564]},"properties":{"p":"1223E00180000000","a":"PITCAIRN AVE","m":"Tarentum","u":"L","o":"individual","sf":6900,"v":18200}},{"type":"Feature","geometry":{"type":"Point","coordinates":[-79.76283,40.60557]},"properties":{"p":"1223E00182000000","a":"PITCAIRN AVE","m":"Tarentum","u":"L","o":"individual","sf":3450,"v":15200}},{"type":"Feature","geometry":{"type":"Point","coordinates":[-79.76581,40.59829]},"properties":{"p":"1088A00060000000","a":"W 8TH AVE","m":"Tarentum","u":"L","o":"individual","sf":6000,"v":18100}},{"type":"Feature","geometry":{"type":"Point","coordinates":[-79.76423,40.59915]},"properties":{"p":"1223N00191000100","a":"333 W 8TH AVE","m":"Tarentum","u":"L","o":"corp","sf":94,"v":100}},{"type":"Feature","geometry":{"type":"Point","coordinates":[-79.76617,40.60064]},"properties":{"p":"1223N00026000000","a":"336 W 10TH AVE","m":"Tarentum","u":"L","o":"individual","sf":3000,"v":600}},{"type":"Feature","geometry":{"type":"Point","coordinates":[-79.76273,40.5998]},"properties":{"p":"1223N00260000000","a":"WESTERN ST","m":"Tarentum","u":"L","o":"individual","sf":1840,"v":700}},{"type":"Feature","geometry":{"type":"Point","coordinates":[-79.76271,40.60356]},"properties":{"p":"1223J00025000000","a":"W 11TH AVE","m":"Tarentum","u":"L","o":"individual","sf":2400,"v":13300}},{"type":"Feature","geometry":{"type":"Point","coordinates":[-79.76136,40.60135]},"properties":{"p":"1223K00143000000","a":"WALTERS WAY","m":"Tarentum","u":"L","o":"individual","sf":1200,"v":11200}},{"type":"Feature","geometry":{"type":"Point","coordinates":[-79.76093,40.60572]},"properties":{"p":"1223F00098000000","a":"BAKERSTOWN RD","m":"Tarentum","u":"L","o":"individual","sf":2250,"v":13100}},{"type":"Feature","geometry":{"type":"Point","coordinates":[-79.76386,40.59898]},"properties":{"p":"1223N00231000000","a":"HEUSER WAY","m":"Tarentum","u":"L","o":"individual","sf":1560,"v":6600}},{"type":"Feature","geometry":{"type":"Point","coordinates":[-79.76273,40.5989]},"properties":{"p":"1223N00238000000","a":"W 7TH AVE","m":"Tarentum","u":"L","o":"individual","sf":4800,"v":9800}},{"type":"Feature","geometry":{"type":"Point","coordinates":[-79.7621,40.59924]},"properties":{"p":"1223N00248000000","a":"W 7TH AVE","m":"Tarentum","u":"L","o":"individual","sf":4800,"v":9800}},{"type":"Feature","geometry":{"type":"Point","coordinates":[-79.76583,40.6019]},"properties":{"p":"1223J00244000000","a":"312 W 11TH AVE","m":"Tarentum","u":"L","o":"individual","sf":2250,"v":800}},{"type":"Feature","geometry":{"type":"Point","coordinates":[-79.76273,40.60003]},"properties":{"p":"1223N00267000000","a":"W 8TH AVE","m":"Tarentum","u":"L","o":"individual","sf":1500,"v":600}},{"type":"Feature","geometry":{"type":"Point","coordinates":[-79.7628,40.60011]},"properties":{"p":"1223N00267000A00","a":"W 8TH AVE","m":"Tarentum","u":"L","o":"individual","sf":200,"v":200}},{"type":"Feature","geometry":{"type":"Point","coordinates":[-79.76269,40.60008]},"properties":{"p":"1223N00269000000","a":"W 8TH AVE","m":"Tarentum","u":"L","o":"individual","sf":1200,"v":500}},{"type":"Feature","geometry":{"type":"Point","coordinates":[-79.76652,40.59783]},"properties":{"p":"1087D00310000000","a":"433 W 8TH AVE","m":"Tarentum","u":"L","o":"individual","sf":3000,"v":14400}},{"type":"Feature","geometry":{"type":"Point","coordinates":[-79.76275,40.60667]},"properties":{"p":"1223A00029000000","a":"1315 ALTER AVE","m":"Tarentum","u":"L","o":"individual","sf":5472,"v":1700}},{"type":"Feature","geometry":{"type":"Point","coordinates":[-79.76077,40.60206]},"properties":{"p":"1223K00154000000","a":"W 9TH AVE","m":"Tarentum","u":"L","o":"individual","sf":5420,"v":9000}},{"type":"Feature","geometry":{"type":"Point","coordinates":[-79.76002,40.60617]},"properties":{"p":"1223F00119000000","a":"1318 LOCUST ST","m":"Tarentum","u":"L","o":"individual","sf":7500,"v":18200}},{"type":"Feature","geometry":{"type":"Point","coordinates":[-79.76965,40.60607]},"properties":{"p":"1222D00024000000","a":"BAKERSTOWN RD","m":"Tarentum","u":"L","o":"individual","sf":20000,"v":19400}},{"type":"Feature","geometry":{"type":"Point","coordinates":[-79.77009,40.60602]},"properties":{"p":"1222D00028000000","a":"BAKERSTOWN RD","m":"Tarentum","u":"L","o":"individual","sf":25500,"v":10900}},{"type":"Feature","geometry":{"type":"Point","coordinates":[-79.76304,40.60626]},"properties":{"p":"1223A00040000000","a":"ALTER AVE","m":"Tarentum","u":"L","o":"individual","sf":8094,"v":18300}},{"type":"Feature","geometry":{"type":"Point","coordinates":[-79.76427,40.60717]},"properties":{"p":"1223A00225000000","a":"BAKERSTOWN RD","m":"Tarentum","u":"L","o":"individual","sf":5663,"v":1800}},{"type":"Feature","geometry":{"type":"Point","coordinates":[-79.76502,40.60386]},"properties":{"p":"1223A00245000000","a":"BAKERSTOWN RD","m":"Tarentum","u":"L","o":"individual","sf":19001,"v":19300}},{"type":"Feature","geometry":{"type":"Point","coordinates":[-79.76416,40.6002]},"properties":{"p":"1223N00127000000","a":"W 9TH AVE","m":"Tarentum","u":"L","o":"individual","sf":4800,"v":17600}},{"type":"Feature","geometry":{"type":"Point","coordinates":[-79.76397,40.60387]},"properties":{"p":"1223E00096000000","a":"W 12TH AVE","m":"Tarentum","u":"L","o":"individual","sf":3750,"v":15800}},{"type":"Feature","geometry":{"type":"Point","coordinates":[-79.76013,40.60248]},"properties":{"p":"1223K00315000000","a":"CREEK ST","m":"Tarentum","u":"L","o":"individual","sf":89298,"v":25700}},{"type":"Feature","geometry":{"type":"Point","coordinates":[-79.76388,40.60091]},"properties":{"p":"1223N00342000000","a":"WESTERN ST","m":"Tarentum","u":"L","o":"individual","sf":383,"v":200}},{"type":"Feature","geometry":{"type":"Point","coordinates":[-79.76531,40.59909]},"properties":{"p":"1223N00171000000","a":"W 8TH AVE","m":"Tarentum","u":"L","o":"individual","sf":3000,"v":300}},{"type":"Feature","geometry":{"type":"Point","coordinates":[-79.76598,40.59769]},"properties":{"p":"1088A00111000000","a":"W 7TH AVE","m":"Tarentum","u":"L","o":"individual","sf":3000,"v":900}},{"type":"Feature","geometry":{"type":"Point","coordinates":[-79.76605,40.59764]},"properties":{"p":"1088A00113000000","a":"W 7TH AVE","m":"Tarentum","u":"L","o":"individual","sf":3000,"v":8000}},{"type":"Feature","geometry":{"type":"Point","coordinates":[-79.76287,40.59941]},"properties":{"p":"1223N00216000000","a":"W 7TH AVE","m":"Tarentum","u":"L","o":"corp","sf":4980,"v":10000}},{"type":"Feature","geometry":{"type":"Point","coordinates":[-79.76456,40.60187]},"properties":{"p":"1223J00199000100","a":"1016 WESTERN ST","m":"Tarentum","u":"L","o":"individual","sf":69,"v":100}},{"type":"Feature","geometry":{"type":"Point","coordinates":[-79.76298,40.60036]},"properties":{"p":"1223N00295000000","a":"W 8TH AVE","m":"Tarentum","u":"L","o":"individual","sf":3600,"v":15500}},{"type":"Feature","geometry":{"type":"Point","coordinates":[-79.76074,40.60158]},"properties":{"p":"1223K00128000000","a":"118 W 8TH AVE","m":"Tarentum","u":"L","o":"individual","sf":4800,"v":17600}},{"type":"Feature","geometry":{"type":"Point","coordinates":[-79.76203,40.60591]},"properties":{"p":"1223F00070000000","a":"DOUTHETT AVE","m":"Tarentum","u":"L","o":"individual","sf":3300,"v":1100}},{"type":"Feature","geometry":{"type":"Point","coordinates":[-79.76136,40.60612]},"properties":{"p":"1223F00089000000","a":"BAKERSTOWN RD","m":"Tarentum","u":"L","o":"individual","sf":4200,"v":1400}},{"type":"Feature","geometry":{"type":"Point","coordinates":[-79.76333,40.59915]},"properties":{"p":"1223N00224000000","a":"W 7TH AVE","m":"Tarentum","u":"L","o":"individual","sf":4800,"v":9800}},{"type":"Feature","geometry":{"type":"Point","coordinates":[-79.76552,40.60149]},"properties":{"p":"1223J00220000000","a":"311 W 11TH AVE","m":"Tarentum","u":"L","o":"corp","sf":3960,"v":16100}},{"type":"Feature","geometry":{"type":"Point","coordinates":[-79.76257,40.60262]},"properties":{"p":"1223J00058000000","a":"W 10TH AVE","m":"Tarentum","u":"L","o":"individual","sf":4800,"v":17600}},{"type":"Feature","geometry":{"type":"Point","coordinates":[-79.76188,40.6009]},"properties":{"p":"1223P00110000000","a":"W 8TH AVE","m":"Tarentum","u":"L","o":"corp","sf":2400,"v":800}},{"type":"Feature","geometry":{"type":"Point","coordinates":[-79.76198,40.60091]},"properties":{"p":"1223P00110000100","a":"W 8TH AVE","m":"Tarentum","u":"L","o":"corp","sf":2400,"v":800}},{"type":"Feature","geometry":{"type":"Point","coordinates":[-79.76184,40.6011]},"properties":{"p":"1223P00118000000","a":"CENTER ST","m":"Tarentum","u":"L","o":"individual","sf":4000,"v":16200}},{"type":"Feature","geometry":{"type":"Point","coordinates":[-79.76022,40.60027]},"properties":{"p":"1223P00203000000","a":"137 W 7TH AVE","m":"Tarentum","u":"L","o":"corp","sf":4800,"v":9800}},{"type":"Feature","geometry":{"type":"Point","coordinates":[-79.76013,40.59979]},"properties":{"p":"1223P00213000000","a":"13 CONROY WAY","m":"Tarentum","u":"L","o":"individual","sf":5306,"v":10000}},{"type":"Feature","geometry":{"type":"Point","coordinates":[-79.76165,40.60062]},"properties":{"p":"1223P00096000000","a":"209 HEUSER WAY","m":"Tarentum","u":"L","o":"individual","sf":2612,"v":900}},{"type":"Feature","geometry":{"type":"Point","coordinates":[-79.77272,40.60648]},"properties":{"p":"1222C00087000000","a":"CRESCENT DR","m":"Frazer","u":"L","o":"individual","sf":50094,"v":33200}},{"type":"Feature","geometry":{"type":"Point","coordinates":[-79.77323,40.60699]},"properties":{"p":"1222C00095000000","a":"BAKERSTOWN RD","m":"Frazer","u":"L","o":"individual","sf":4204,"v":400}},{"type":"Feature","geometry":{"type":"Point","coordinates":[-79.77288,40.6071]},"properties":{"p":"1222C00109000000","a":"CRESCENT DR","m":"Frazer","u":"L","o":"individual","sf":4204,"v":400}},{"type":"Feature","geometry":{"type":"Point","coordinates":[-79.77159,40.60759]},"properties":{"p":"1222C00149000000","a":"CRESCENT DR","m":"Frazer","u":"L","o":"individual","sf":31435,"v":2800}},{"type":"Feature","geometry":{"type":"Point","coordinates":[-79.77142,40.60664]},"properties":{"p":"1222C00042000000","a":"CRESCENT DR","m":"Frazer","u":"L","o":"individual","sf":110120,"v":35700}},{"type":"Feature","geometry":{"type":"Point","coordinates":[-79.76877,40.59799]},"properties":{"p":"1087D00068000000","a":"W 9TH AVE","m":"East Deer","u":"L","o":"individual","sf":4800,"v":19600}},{"type":"Feature","geometry":{"type":"Point","coordinates":[-79.76918,40.59753]},"properties":{"p":"1087D00080000000","a":"W 9TH AVE","m":"East Deer","u":"L","o":"individual","sf":2548,"v":5100}},{"type":"Feature","geometry":{"type":"Point","coordinates":[-79.76967,40.5967]},"properties":{"p":"1087D00102000000","a":"W 9TH AVE","m":"East Deer","u":"L","o":"individual","sf":812,"v":400}},{"type":"Feature","geometry":{"type":"Point","coordinates":[-79.7675,40.59689]},"properties":{"p":"1087D00265000000","a":"CRYSTAL VIEW DR","m":"East Deer","u":"L","o":"corp","sf":52272,"v":600}},{"type":"Feature","geometry":{"type":"Point","coordinates":[-79.77857,40.60057]},"properties":{"p":"1222P00211000000","a":"DAYS RUN RD","m":"East Deer","u":"L","o":"individual","sf":1385,"v":500}},{"type":"Feature","geometry":{"type":"Point","coordinates":[-79.77759,40.59446]},"properties":{"p":"1087F00137000000","a":"BAILIES RUN RD","m":"East Deer","u":"L","o":"corp","sf":2703,"v":15400}},{"type":"Feature","geometry":{"type":"Point","coordinates":[-79.77009,40.59407]},"properties":{"p":"1087H00004000000","a":"FREEPORT RD","m":"East Deer","u":"L","o":"corp","sf":3100,"v":1100}},{"type":"Feature","geometry":{"type":"Point","coordinates":[-79.77005,40.59413]},"properties":{"p":"1087H00006000000","a":"FREEPORT RD","m":"East Deer","u":"L","o":"corp","sf":2000,"v":700}},{"type":"Feature","geometry":{"type":"Point","coordinates":[-79.77716,40.5932]},"properties":{"p":"1087K00139000000","a":"301 BAILIES RUN RD","m":"East Deer","u":"L","o":"individual","sf":5967,"v":10100}},{"type":"Feature","geometry":{"type":"Point","coordinates":[-79.77704,40.59246]},"properties":{"p":"1087K00154000000","a":"277 BAILIES RUN RD","m":"East Deer","u":"L","o":"individual","sf":5322,"v":20000}},{"type":"Feature","geometry":{"type":"Point","coordinates":[-79.77126,40.60855]},"properties":{"p":"1365R00064000000","a":"CRESCENT DR","m":"Frazer","u":"L","o":"individual","sf":23218,"v":17900}},{"type":"Feature","geometry":{"type":"Point","coordinates":[-79.76876,40.59846]},"properties":{"p":"1087D00043000000","a":"W 10TH AVE","m":"East Deer","u":"L","o":"corp","sf":1980,"v":700}},{"type":"Feature","geometry":{"type":"Point","coordinates":[-79.7686,40.59865]},"properties":{"p":"1087D00047000000","a":"W 10TH AVE","m":"East Deer","u":"L","o":"individual","sf":3839,"v":1300}},{"type":"Feature","geometry":{"type":"Point","coordinates":[-79.76849,40.59815]},"properties":{"p":"1087D00064000000","a":"W 9TH AVE","m":"East Deer","u":"L","o":"corp","sf":6000,"v":20100}},{"type":"Feature","geometry":{"type":"Point","coordinates":[-79.77226,40.60975]},"properties":{"p":"1365R00132000000","a":"CRESCENT DR","m":"Frazer","u":"L","o":"individual","sf":25000,"v":2300}},{"type":"Feature","geometry":{"type":"Point","coordinates":[-79.77699,40.59161]},"properties":{"p":"1087P00173000000","a":"BAILIES RUN RD","m":"East Deer","u":"L","o":"individual","sf":3500,"v":17000}},{"type":"Feature","geometry":{"type":"Point","coordinates":[-79.77931,40.60185]},"properties":{"p":"1222J00040000000","a":"DAYS RUN RD","m":"East Deer","u":"L","o":"individual","sf":30806,"v":22300}},{"type":"Feature","geometry":{"type":"Point","coordinates":[-79.77844,40.60144]},"properties":{"p":"1222K00020000000","a":"DAYS RUN RD","m":"East Deer","u":"L","o":"individual","sf":39150,"v":23100}},{"type":"Feature","geometry":{"type":"Point","coordinates":[-79.77896,40.60043]},"properties":{"p":"1222N00012000000","a":"635 DAYS RUN RD","m":"East Deer","u":"L","o":"individual","sf":6300,"v":2100}},{"type":"Feature","geometry":{"type":"Point","coordinates":[-79.77885,40.59534]},"properties":{"p":"1087F00058000000","a":"BAILIES RUN RD","m":"East Deer","u":"L","o":"individual","sf":7585,"v":2500}},{"type":"Feature","geometry":{"type":"Point","coordinates":[-79.77843,40.59505]},"properties":{"p":"1087F00063000000","a":"BAILIES RUN RD","m":"East Deer","u":"L","o":"individual","sf":5883,"v":2000}},{"type":"Feature","geometry":{"type":"Point","coordinates":[-79.77661,40.59361]},"properties":{"p":"1087K00251000000","a":"BAILIES RUN RD","m":"East Deer","u":"L","o":"individual","sf":15523,"v":21000}},{"type":"Feature","geometry":{"type":"Point","coordinates":[-79.77702,40.59383]},"properties":{"p":"1087K00258000000","a":"BAILIES RUN RD","m":"East Deer","u":"L","o":"individual","sf":10320,"v":20500}},{"type":"Feature","geometry":{"type":"Point","coordinates":[-79.77063,40.59363]},"properties":{"p":"1087L00046000000","a":"FREEPORT RD","m":"East Deer","u":"L","o":"individual","sf":7540,"v":20200}},{"type":"Feature","geometry":{"type":"Point","coordinates":[-79.77727,40.59715]},"properties":{"p":"1087B00025000000","a":"DAYS RUN RD","m":"East Deer","u":"L","o":"individual","sf":822,"v":400}},{"type":"Feature","geometry":{"type":"Point","coordinates":[-79.77758,40.59753]},"properties":{"p":"1087B00040000000","a":"DAYS RUN RD","m":"East Deer","u":"L","o":"individual","sf":41536,"v":23300}},{"type":"Feature","geometry":{"type":"Point","coordinates":[-79.7779,40.59814]},"properties":{"p":"1087B00075000000","a":"DAYS RUN RD","m":"East Deer","u":"L","o":"individual","sf":44091,"v":5400}},{"type":"Feature","geometry":{"type":"Point","coordinates":[-79.77752,40.59881]},"properties":{"p":"1087B00085000000","a":"DAYS RUN RD","m":"East Deer","u":"L","o":"individual","sf":202010,"v":2500}},{"type":"Feature","geometry":{"type":"Point","coordinates":[-79.77939,40.59555]},"properties":{"p":"1087E00061000000","a":"BAILIES RUN RD","m":"East Deer","u":"L","o":"individual","sf":8173,"v":20300}},{"type":"Feature","geometry":{"type":"Point","coordinates":[-79.77986,40.59563]},"properties":{"p":"1087E00076000000","a":"BAILIES RUN RD","m":"East Deer","u":"L","o":"individual","sf":49833,"v":24100}},{"type":"Feature","geometry":{"type":"Point","coordinates":[-79.7798,40.59516]},"properties":{"p":"1087E00096000000","a":"BAILIES RUN RD","m":"East Deer","u":"L","o":"individual","sf":140960,"v":32500}},{"type":"Feature","geometry":{"type":"Point","coordinates":[-79.77895,40.59591]},"properties":{"p":"1087E00126000000","a":"BAILEYS RUN RD","m":"East Deer","u":"L","o":"individual","sf":43560,"v":23500}},{"type":"Feature","geometry":{"type":"Point","coordinates":[-79.7781,40.59627]},"properties":{"p":"1087F00006000000","a":"DAYS RUN RD","m":"East Deer","u":"L","o":"individual","sf":13000,"v":10700}},{"type":"Feature","geometry":{"type":"Point","coordinates":[-79.77033,40.59531]},"properties":{"p":"1087H00068000000","a":"GRECO DR","m":"East Deer","u":"L","o":"individual","sf":3150,"v":1100}},{"type":"Feature","geometry":{"type":"Point","coordinates":[-79.76906,40.59766]},"properties":{"p":"1087D00075000000","a":"W 9TH AVE","m":"East Deer","u":"L","o":"individual","sf":194,"v":200}},{"type":"Feature","geometry":{"type":"Point","coordinates":[-79.76199,40.5993]},"properties":{"p":"1223P00062000000","a":"W 7TH AVE","m":"Tarentum","u":"L","o":"individual","sf":4800,"v":9800}},{"type":"Feature","geometry":{"type":"Point","coordinates":[-79.76212,40.60466]},"properties":{"p":"1223F00030000000","a":"STEWART ST","m":"Tarentum","u":"L","o":"individual","sf":3500,"v":15300}},{"type":"Feature","geometry":{"type":"Point","coordinates":[-79.76028,40.60533]},"properties":{"p":"1223F00313000000","a":"LOCUST ST","m":"Tarentum","u":"L","o":"individual","sf":9000,"v":18400}},{"type":"Feature","geometry":{"type":"Point","coordinates":[-79.7698,40.59489]},"properties":{"p":"1087H00025000000","a":"CRYSTAL VIEW DR","m":"East Deer","u":"L","o":"corp","sf":112385,"v":24400}},{"type":"Feature","geometry":{"type":"Point","coordinates":[-79.76389,40.60123]},"properties":{"p":"1223N00346000A00","a":"910 WESTERN ST","m":"Tarentum","u":"L","o":"individual","sf":40,"v":100}},{"type":"Feature","geometry":{"type":"Point","coordinates":[-79.76362,40.60002]},"properties":{"p":"1223N00142000000","a":"W 8TH AVE","m":"Tarentum","u":"L","o":"corp","sf":4740,"v":17500}},{"type":"Feature","geometry":{"type":"Point","coordinates":[-79.77806,40.60066]},"properties":{"p":"1222P00219000000","a":"DAYS RUN RD","m":"East Deer","u":"L","o":"individual","sf":1689,"v":600}},{"type":"Feature","geometry":{"type":"Point","coordinates":[-79.76632,40.59797]},"properties":{"p":"1087D00316000000","a":"W 8TH AVE","m":"Tarentum","u":"L","o":"individual","sf":3000,"v":14400}},{"type":"Feature","geometry":{"type":"Point","coordinates":[-79.7689,40.59842]},"properties":{"p":"1087D00041000000","a":"W 10TH AVE","m":"East Deer","u":"L","o":"corp","sf":4792,"v":1600}},{"type":"Feature","geometry":{"type":"Point","coordinates":[-79.76151,40.60128]},"properties":{"p":"1223K00146000000","a":"CENTER ST","m":"Tarentum","u":"L","o":"individual","sf":2400,"v":800}},{"type":"Feature","geometry":{"type":"Point","coordinates":[-79.7647,40.6004]},"properties":{"p":"1223N00070000000","a":"W 9TH AVE","m":"Tarentum","u":"L","o":"individual","sf":2510,"v":900}},{"type":"Feature","geometry":{"type":"Point","coordinates":[-79.76996,40.59432]},"properties":{"p":"1087H00008000000","a":"FREEPORT RD","m":"East Deer","u":"L","o":"corp","sf":8000,"v":10300}},{"type":"Feature","geometry":{"type":"Point","coordinates":[-79.76866,40.59855]},"properties":{"p":"1087D00045000000","a":"W 10TH AVE","m":"East Deer","u":"L","o":"individual","sf":2940,"v":1000}},{"type":"Feature","geometry":{"type":"Point","coordinates":[-79.76038,40.60234]},"properties":{"p":"1223K00266000000","a":"EAST ST","m":"Tarentum","u":"L","o":"individual","sf":44388,"v":4100}},{"type":"Feature","geometry":{"type":"Point","coordinates":[-79.76641,40.601]},"properties":{"p":"1222S00182000000","a":"W 11TH AVE","m":"Tarentum","u":"L","o":"individual","sf":3600,"v":15500}},{"type":"Feature","geometry":{"type":"Point","coordinates":[-79.76479,40.60297]},"properties":{"p":"1223J00306000000","a":"215 COLLINS WAY","m":"Tarentum","u":"L","o":"individual","sf":4800,"v":900}},{"type":"Feature","geometry":{"type":"Point","coordinates":[-79.778,40.60064]},"properties":{"p":"1222P00185000000","a":"DAYS RUN RD","m":"East Deer","u":"L","o":"individual","sf":1434,"v":600}}]}