{"type":"FeatureCollection","features":[{"type":"Feature","geometry":{"type":"Point","coordinates":[-79.77587,40.64069]},"properties":{"p":"1842K00044000000","a":"BULL CREEK RD","m":"Fawn","u":"I","o":"corp","sf":211841,"v":20300}},{"type":"Feature","geometry":{"type":"Point","coordinates":[-79.76274,40.6317]},"properties":{"p":"1676J00014000000","a":"BULL CREEK RD","m":"Fawn","u":"C","o":"individual","sf":58937,"v":46200}},{"type":"Feature","geometry":{"type":"Point","coordinates":[-79.76521,40.64673]},"properties":{"p":"1843A00349000000","a":"HOWES RUN RD","m":"Fawn","u":"C","o":"corp","sf":87120,"v":31500}},{"type":"Feature","geometry":{"type":"Point","coordinates":[-79.77668,40.63969]},"properties":{"p":"1842P00092000000","a":"BULL CREEK RD","m":"Fawn","u":"C","o":"corp","sf":204732,"v":14100}},{"type":"Feature","geometry":{"type":"Point","coordinates":[-79.766,40.63746]},"properties":{"p":"1676A00221000000","a":"BULL CREEK RD","m":"Fawn","u":"L","o":"individual","sf":28314,"v":2600}},{"type":"Feature","geometry":{"type":"Point","coordinates":[-79.7665,40.63694]},"properties":{"p":"1676A00223000000","a":"BULL CREEK RD","m":"Fawn","u":"L","o":"individual","sf":29185,"v":2600}},{"type":"Feature","geometry":{"type":"Point","coordinates":[-79.76554,40.63683]},"properties":{"p":"1676A00248000000","a":"BULL CREEK RD","m":"Fawn","u":"L","o":"individual","sf":4254,"v":400}},{"type":"Feature","geometry":{"type":"Point","coordinates":[-79.77681,40.63677]},"properties":{"p":"1842R00375000000","a":"BULL CREEK RD","m":"Fawn","u":"L","o":"individual","sf":3111273,"v":95400}},{"type":"Feature","geometry":{"type":"Point","coordinates":[-79.76576,40.64621]},"properties":{"p":"1843A00307000000","a":"HOWES RUN RD","m":"Fawn","u":"L","o":"individual","sf":6275,"v":600}},{"type":"Feature","geometry":{"type":"Point","coordinates":[-79.77429,40.64545]},"properties":{"p":"1842B00140000000","a":"WOODROW LN","m":"Fawn","u":"L","o":"individual","sf":130680,"v":1500}},{"type":"Feature","geometry":{"type":"Point","coordinates":[-79.77413,40.64501]},"properties":{"p":"1842B00147000000","a":"WOODROW LN","m":"Fawn","u":"L","o":"individual","sf":194713,"v":2200}},{"type":"Feature","geometry":{"type":"Point","coordinates":[-79.77785,40.64344]},"properties":{"p":"1842F00241000000","a":"JOHNSON AVE","m":"Fawn","u":"L","o":"individual","sf":915,"v":100}},{"type":"Feature","geometry":{"type":"Point","coordinates":[-79.77732,40.64357]},"properties":{"p":"1842F00250000000","a":"BULL CREEK RD","m":"Fawn","u":"L","o":"individual","sf":21425,"v":1900}},{"type":"Feature","geometry":{"type":"Point","coordinates":[-79.76801,40.64422]},"properties":{"p":"1842H00208000000","a":"771 HOWES RUN RD","m":"Fawn","u":"L","o":"individual","sf":36043,"v":3200}},{"type":"Feature","geometry":{"type":"Point","coordinates":[-79.77887,40.64201]},"properties":{"p":"1842J00130000000","a":"BULL CREEK RD","m":"Fawn","u":"L","o":"individual","sf":21646,"v":2000}},{"type":"Feature","geometry":{"type":"Point","coordinates":[-79.77915,40.6421]},"properties":{"p":"1842J00136000000","a":"164 FALLEN TIMBER LN","m":"Fawn","u":"L","o":"individual","sf":5457,"v":500}},{"type":"Feature","geometry":{"type":"Point","coordinates":[-79.77983,40.64232]},"properties":{"p":"1842J00150000000","a":"R OF W","m":"Fawn","u":"L","o":"individual","sf":23368,"v":2100}},{"type":"Feature","geometry":{"type":"Point","coordinates":[-79.76688,40.63703]},"properties":{"p":"1675D00023000000","a":"BULL CREEK RD","m":"Fawn","u":"L","o":"individual","sf":29811,"v":2700}},{"type":"Feature","geometry":{"type":"Point","coordinates":[-79.77075,40.64114]},"properties":{"p":"1842M00357000000","a":"HOWES RUN RD","m":"Fawn","u":"L","o":"individual","sf":22629,"v":2000}},{"type":"Feature","geometry":{"type":"Point","coordinates":[-79.77045,40.64172]},"properties":{"p":"1842M00362000000","a":"HOWES RUN RD","m":"Fawn","u":"L","o":"individual","sf":28017,"v":2500}},{"type":"Feature","geometry":{"type":"Point","coordinates":[-79.76225,40.63412]},"properties":{"p":"1676E00050000000","a":"3750 BULL CREEK RD","m":"Fawn","u":"L","o":"individual","sf":4111,"v":400}},{"type":"Feature","geometry":{"type":"Point","coordinates":[-79.77369,40.63965]},"properties":{"p":"1842R00049000000","a":"BULL CREEK RD","m":"Fawn","u":"L","o":"individual","sf":53797,"v":1800}},{"type":"Feature","geometry":{"type":"Point","coordinates":[-79.77294,40.63934]},"properties":{"p":"1842R00065000000","a":"BULL CREEK RD","m":"Fawn","u":"L","o":"individual","sf":212137,"v":5000}},{"type":"Feature","geometry":{"type":"Point","coordinates":[-79.77374,40.63866]},"properties":{"p":"1842R00067000000","a":"BULL CREEK RD","m":"Fawn","u":"L","o":"individual","sf":37348,"v":3400}},{"type":"Feature","geometry":{"type":"Point","coordinates":[-79.77215,40.6388]},"properties":{"p":"1842R00114000000","a":"BULL CREEK RD","m":"Fawn","u":"L","o":"individual","sf":174240,"v":4000}},{"type":"Feature","geometry":{"type":"Point","coordinates":[-79.76204,40.63427]},"properties":{"p":"1676F00370000000","a":"3780 BULL CREEK RD","m":"Fawn","u":"L","o":"corp","sf":4154,"v":400}},{"type":"Feature","geometry":{"type":"Point","coordinates":[-79.77638,40.64854]},"properties":{"p":"2017K00256000000","a":"WOODROW LN","m":"Fawn","u":"L","o":"individual","sf":140263,"v":12900}},{"type":"Feature","geometry":{"type":"Point","coordinates":[-79.77477,40.64277]},"properties":{"p":"1842F00004000000","a":"BULL CREEK RD","m":"Fawn","u":"L","o":"individual","sf":11079,"v":20200}},{"type":"Feature","geometry":{"type":"Point","coordinates":[-79.77492,40.6431]},"properties":{"p":"1842F00012000000","a":"BULL CREEK RD","m":"Fawn","u":"L","o":"individual","sf":7500,"v":700}},{"type":"Feature","geometry":{"type":"Point","coordinates":[-79.76977,40.64099]},"properties":{"p":"1842M00348000000","a":"HOWES RUN RD","m":"Fawn","u":"L","o":"individual","sf":63023,"v":5800}},{"type":"Feature","geometry":{"type":"Point","coordinates":[-79.7619,40.63619]},"properties":{"p":"1676B00323000000","a":"282 JONES HOLLOW RD","m":"Fawn","u":"L","o":"individual","sf":10115,"v":19600}},{"type":"Feature","geometry":{"type":"Point","coordinates":[-79.76301,40.63513]},"properties":{"p":"1676E00004000000","a":"3940 BULL CREEK RD","m":"Fawn","u":"L","o":"individual","sf":1615,"v":200}},{"type":"Feature","geometry":{"type":"Point","coordinates":[-79.7789,40.64333]},"properties":{"p":"1842E00106000000","a":"BULL CREEK RD","m":"Fawn","u":"L","o":"individual","sf":13286,"v":1200}},{"type":"Feature","geometry":{"type":"Point","coordinates":[-79.77933,40.64184]},"properties":{"p":"1842K00392000000","a":"JOHNSON AVE","m":"Fawn","u":"L","o":"individual","sf":11404,"v":1000}},{"type":"Feature","geometry":{"type":"Point","coordinates":[-79.77845,40.64189]},"properties":{"p":"1842K00393000000","a":"JOHNSON AVE","m":"Fawn","u":"L","o":"individual","sf":21606,"v":1900}},{"type":"Feature","geometry":{"type":"Point","coordinates":[-79.76915,40.63694]},"properties":{"p":"1675D00172000000","a":"HAAS LN","m":"Fawn","u":"L","o":"individual","sf":65340,"v":6000}},{"type":"Feature","geometry":{"type":"Point","coordinates":[-79.76219,40.63645]},"properties":{"p":"1676A00067000000","a":"JONES HOLLOW RD","m":"Fawn","u":"L","o":"individual","sf":4344,"v":400}},{"type":"Feature","geometry":{"type":"Point","coordinates":[-79.76728,40.64423]},"properties":{"p":"1842H00090000000","a":"930 HOWES RUN RD","m":"Fawn","u":"L","o":"individual","sf":15357,"v":1400}},{"type":"Feature","geometry":{"type":"Point","coordinates":[-79.76745,40.64401]},"properties":{"p":"1842H00094000000","a":"HOWES RUN RD","m":"Fawn","u":"L","o":"individual","sf":15886,"v":1400}},{"type":"Feature","geometry":{"type":"Point","coordinates":[-79.76965,40.64299]},"properties":{"p":"1842H00130000000","a":"HOWES RUN RD","m":"Fawn","u":"L","o":"individual","sf":163150,"v":6000}},{"type":"Feature","geometry":{"type":"Point","coordinates":[-79.76774,40.64519]},"properties":{"p":"1842D00018000000","a":"HOWES RUN RD","m":"Fawn","u":"L","o":"individual","sf":43560,"v":28200}},{"type":"Feature","geometry":{"type":"Point","coordinates":[-79.77516,40.64339]},"properties":{"p":"1842F00021000000","a":"5624 BULL CREEK RD","m":"Fawn","u":"L","o":"individual","sf":1582,"v":100}},{"type":"Feature","geometry":{"type":"Point","coordinates":[-79.76931,40.63783]},"properties":{"p":"1842S00088000000","a":"BULL CREEK RD","m":"Fawn","u":"L","o":"individual","sf":177725,"v":16300}},{"type":"Feature","geometry":{"type":"Point","coordinates":[-79.77468,40.64329]},"properties":{"p":"1842G00391000000","a":"BULL CREEK RD","m":"Fawn","u":"L","o":"individual","sf":2223,"v":200}},{"type":"Feature","geometry":{"type":"Point","coordinates":[-79.77617,40.6436]},"properties":{"p":"1842F00276000000","a":"BULL CREEK RD","m":"Fawn","u":"L","o":"individual","sf":68738,"v":30500}}]}