{"type":"FeatureCollection","features":[{"type":"Feature","geometry":{"type":"Point","coordinates":[-79.76059,40.61417]},"properties":{"p":"1366F00141000000","a":"CEDAR ST","m":"Tarentum","u":"C","o":"individual","sf":6926,"v":1100}},{"type":"Feature","geometry":{"type":"Point","coordinates":[-79.76585,40.62879]},"properties":{"p":"1676N00131000000","a":"BULL CREEK RD","m":"Fawn","u":"C","o":"corp","sf":40075,"v":500}},{"type":"Feature","geometry":{"type":"Point","coordinates":[-79.76044,40.61359]},"properties":{"p":"1366F00110000000","a":"CEDAR ST","m":"Tarentum","u":"L","o":"corp","sf":24536,"v":7500}},{"type":"Feature","geometry":{"type":"Point","coordinates":[-79.76007,40.61328]},"properties":{"p":"1366K00090000000","a":"CEDAR ST","m":"Tarentum","u":"L","o":"corp","sf":23947,"v":7300}},{"type":"Feature","geometry":{"type":"Point","coordinates":[-79.76217,40.61061]},"properties":{"p":"1366P00155000000","a":"CEDAR ST","m":"Tarentum","u":"L","o":"corp","sf":13098,"v":250}},{"type":"Feature","geometry":{"type":"Point","coordinates":[-79.76063,40.62882]},"properties":{"p":"1676P00100000000","a":"DICKSON ST","m":"Fawn","u":"L","o":"individual","sf":28000,"v":2500}},{"type":"Feature","geometry":{"type":"Point","coordinates":[-79.76273,40.6229]},"properties":{"p":"1517J00071000000","a":"BULL CREEK RD","m":"Fawn","u":"L","o":"individual","sf":6098,"v":1000}},{"type":"Feature","geometry":{"type":"Point","coordinates":[-79.76219,40.62232]},"properties":{"p":"1517J00085000000","a":"BULL CREEK RD","m":"Fawn","u":"L","o":"individual","sf":28154,"v":2500}},{"type":"Feature","geometry":{"type":"Point","coordinates":[-79.76172,40.62279]},"properties":{"p":"1517J00099000000","a":"BULL CREEK RD","m":"Fawn","u":"L","o":"individual","sf":21192,"v":1900}},{"type":"Feature","geometry":{"type":"Point","coordinates":[-79.76368,40.62608]},"properties":{"p":"1517A00182000000","a":"BULL CREEK RD","m":"Fawn","u":"L","o":"individual","sf":28945,"v":2600}},{"type":"Feature","geometry":{"type":"Point","coordinates":[-79.76358,40.62592]},"properties":{"p":"1517A00196000000","a":"METZ RD","m":"Fawn","u":"L","o":"individual","sf":36553,"v":3300}},{"type":"Feature","geometry":{"type":"Point","coordinates":[-79.76022,40.6271]},"properties":{"p":"1517B00248000000","a":"METZ RD","m":"Fawn","u":"L","o":"individual","sf":17036,"v":1500}},{"type":"Feature","geometry":{"type":"Point","coordinates":[-79.76084,40.62698]},"properties":{"p":"1517B00268000000","a":"METZ RD","m":"Fawn","u":"L","o":"individual","sf":50930,"v":15000}},{"type":"Feature","geometry":{"type":"Point","coordinates":[-79.76273,40.62904]},"properties":{"p":"1676N00204000000","a":"KERR AVE","m":"Fawn","u":"L","o":"individual","sf":56192,"v":29300}},{"type":"Feature","geometry":{"type":"Point","coordinates":[-79.76316,40.62947]},"properties":{"p":"1676N00280000000","a":"200 HOUSTON DR","m":"Fawn","u":"L","o":"individual","sf":32544,"v":2900}},{"type":"Feature","geometry":{"type":"Point","coordinates":[-79.76423,40.62981]},"properties":{"p":"1676N00312000000","a":"200 HOUSTON DR","m":"Fawn","u":"L","o":"individual","sf":7281,"v":700}},{"type":"Feature","geometry":{"type":"Point","coordinates":[-79.76239,40.62156]},"properties":{"p":"1517J00045000000","a":"BULL CREEK RD","m":"Fawn","u":"L","o":"corp","sf":21519,"v":1900}},{"type":"Feature","geometry":{"type":"Point","coordinates":[-79.76308,40.62241]},"properties":{"p":"1517J00068000000","a":"BULL CREEK RD","m":"Fawn","u":"L","o":"individual","sf":13939,"v":1300}},{"type":"Feature","geometry":{"type":"Point","coordinates":[-79.76632,40.62729]},"properties":{"p":"1517A00094000000","a":"BULL CREEK RD","m":"Fawn","u":"L","o":"individual","sf":30056,"v":2700}},{"type":"Feature","geometry":{"type":"Point","coordinates":[-79.76209,40.62587]},"properties":{"p":"1517B00077000000","a":"METZ RD","m":"Fawn","u":"L","o":"individual","sf":16887,"v":1500}},{"type":"Feature","geometry":{"type":"Point","coordinates":[-79.76421,40.62853]},"properties":{"p":"1676N00042000000","a":"186 DICKSON ST","m":"Fawn","u":"L","o":"individual","sf":10400,"v":900}},{"type":"Feature","geometry":{"type":"Point","coordinates":[-79.76542,40.62536]},"properties":{"p":"1517E00252000000","a":"BULL CREEK RD","m":"Fawn","u":"L","o":"individual","sf":24829,"v":2200}},{"type":"Feature","geometry":{"type":"Point","coordinates":[-79.76653,40.62557]},"properties":{"p":"1516D00027000000","a":"BULL CREEK RD","m":"Fawn","u":"L","o":"individual","sf":300128,"v":4500}},{"type":"Feature","geometry":{"type":"Point","coordinates":[-79.76671,40.6267]},"properties":{"p":"1516D00034000000","a":"BULL CREEK RD","m":"Fawn","u":"L","o":"individual","sf":9416,"v":900}},{"type":"Feature","geometry":{"type":"Point","coordinates":[-79.77452,40.61536]},"properties":{"p":"1365G00272000000","a":"WALTENBAUGH ST","m":"Frazer","u":"L","o":"individual","sf":2500,"v":200}},{"type":"Feature","geometry":{"type":"Point","coordinates":[-79.77465,40.61548]},"properties":{"p":"1365G00274000000","a":"LANG AVE","m":"Frazer","u":"L","o":"individual","sf":2500,"v":200}},{"type":"Feature","geometry":{"type":"Point","coordinates":[-79.77215,40.61499]},"properties":{"p":"1365G00336000000","a":"CATALPA AVE","m":"Frazer","u":"L","o":"individual","sf":3125,"v":300}},{"type":"Feature","geometry":{"type":"Point","coordinates":[-79.77151,40.61499]},"properties":{"p":"1365G00337000000","a":"CATALPA AVE","m":"Frazer","u":"L","o":"individual","sf":3125,"v":300}},{"type":"Feature","geometry":{"type":"Point","coordinates":[-79.77152,40.61524]},"properties":{"p":"1365G00342000000","a":"CATALPA AVE","m":"Frazer","u":"L","o":"individual","sf":6250,"v":600}},{"type":"Feature","geometry":{"type":"Point","coordinates":[-79.77153,40.61549]},"properties":{"p":"1365G00347000000","a":"CATALPA AVE","m":"Frazer","u":"L","o":"individual","sf":3125,"v":300}},{"type":"Feature","geometry":{"type":"Point","coordinates":[-79.77153,40.61557]},"properties":{"p":"1365G00349000000","a":"CATALPA AVE","m":"Frazer","u":"L","o":"individual","sf":3125,"v":300}},{"type":"Feature","geometry":{"type":"Point","coordinates":[-79.77154,40.61571]},"properties":{"p":"1365G00351000000","a":"CATALPA AVE","m":"Frazer","u":"L","o":"individual","sf":3125,"v":300}},{"type":"Feature","geometry":{"type":"Point","coordinates":[-79.77953,40.61666]},"properties":{"p":"1365A00062000000","a":"1748 BAKERSTOWN RD","m":"Frazer","u":"L","o":"individual","sf":5000,"v":500}},{"type":"Feature","geometry":{"type":"Point","coordinates":[-79.77987,40.61718]},"properties":{"p":"1365A00099000000","a":"LANG AVE","m":"Frazer","u":"L","o":"individual","sf":2500,"v":200}},{"type":"Feature","geometry":{"type":"Point","coordinates":[-79.77978,40.61715]},"properties":{"p":"1365A00103000000","a":"1760 BAKERSTOWN RD","m":"Frazer","u":"L","o":"individual","sf":2500,"v":200}},{"type":"Feature","geometry":{"type":"Point","coordinates":[-79.77921,40.61693]},"properties":{"p":"1365A00118000000","a":"LANG AVE","m":"Frazer","u":"L","o":"individual","sf":2500,"v":200}},{"type":"Feature","geometry":{"type":"Point","coordinates":[-79.7755,40.61575]},"properties":{"p":"1365B00012000000","a":"BAKERSTOWN RD","m":"Frazer","u":"L","o":"individual","sf":3750,"v":300}},{"type":"Feature","geometry":{"type":"Point","coordinates":[-79.77544,40.6157]},"properties":{"p":"1365F00380000000","a":"BAKERSTOWN RD","m":"Frazer","u":"L","o":"individual","sf":2500,"v":200}},{"type":"Feature","geometry":{"type":"Point","coordinates":[-79.77538,40.61565]},"properties":{"p":"1365F00381000000","a":"BAKERSTOWN RD","m":"Frazer","u":"L","o":"individual","sf":2500,"v":200}},{"type":"Feature","geometry":{"type":"Point","coordinates":[-79.77493,40.61523]},"properties":{"p":"1365F00388000000","a":"BAKERSTOWN RD","m":"Frazer","u":"L","o":"individual","sf":5464,"v":500}},{"type":"Feature","geometry":{"type":"Point","coordinates":[-79.77138,40.61351]},"properties":{"p":"1365G00033000000","a":"MOLET AVE","m":"Frazer","u":"L","o":"individual","sf":2500,"v":200}},{"type":"Feature","geometry":{"type":"Point","coordinates":[-79.77141,40.61388]},"properties":{"p":"1365G00038000000","a":"MOLET AVE","m":"Frazer","u":"L","o":"individual","sf":5000,"v":500}},{"type":"Feature","geometry":{"type":"Point","coordinates":[-79.77141,40.61402]},"properties":{"p":"1365G00041000000","a":"MOLET AVE","m":"Frazer","u":"L","o":"individual","sf":5000,"v":500}},{"type":"Feature","geometry":{"type":"Point","coordinates":[-79.77141,40.61413]},"properties":{"p":"1365G00044000000","a":"MOLET AVE","m":"Frazer","u":"L","o":"individual","sf":2500,"v":200}},{"type":"Feature","geometry":{"type":"Point","coordinates":[-79.77321,40.6126]},"properties":{"p":"1365L00285000000","a":"BOLLINGER AVE","m":"Frazer","u":"L","o":"individual","sf":5000,"v":500}},{"type":"Feature","geometry":{"type":"Point","coordinates":[-79.77321,40.61274]},"properties":{"p":"1365L00287000000","a":"BOLLINGER AVE","m":"Frazer","u":"L","o":"individual","sf":5000,"v":500}},{"type":"Feature","geometry":{"type":"Point","coordinates":[-79.77323,40.61294]},"properties":{"p":"1365L00290000000","a":"BOLLINGER AVE","m":"Frazer","u":"L","o":"individual","sf":10000,"v":900}},{"type":"Feature","geometry":{"type":"Point","coordinates":[-79.77324,40.61315]},"properties":{"p":"1365L00292000000","a":"BOLLINGER AVE","m":"Frazer","u":"L","o":"individual","sf":5000,"v":500}},{"type":"Feature","geometry":{"type":"Point","coordinates":[-79.77325,40.61329]},"properties":{"p":"1365L00294000000","a":"BOLLINGER AVE","m":"Frazer","u":"L","o":"individual","sf":5000,"v":500}},{"type":"Feature","geometry":{"type":"Point","coordinates":[-79.77372,40.61338]},"properties":{"p":"1365L00297000000","a":"BAKERSTOWN RD","m":"Frazer","u":"L","o":"individual","sf":7500,"v":700}},{"type":"Feature","geometry":{"type":"Point","coordinates":[-79.77419,40.61306]},"properties":{"p":"1365L00300000000","a":"BAKERSTOWN RD","m":"Frazer","u":"L","o":"individual","sf":7200,"v":700}},{"type":"Feature","geometry":{"type":"Point","coordinates":[-79.7737,40.61303]},"properties":{"p":"1365L00301000000","a":"BOLLINGER AVE","m":"Frazer","u":"L","o":"individual","sf":2500,"v":200}},{"type":"Feature","geometry":{"type":"Point","coordinates":[-79.77369,40.61293]},"properties":{"p":"1365L00303000000","a":"BOLLINGER AVE","m":"Frazer","u":"L","o":"individual","sf":5000,"v":500}},{"type":"Feature","geometry":{"type":"Point","coordinates":[-79.77197,40.6144]},"properties":{"p":"1365G00180000000","a":"MECHLING ST","m":"Frazer","u":"L","o":"individual","sf":5000,"v":500}},{"type":"Feature","geometry":{"type":"Point","coordinates":[-79.77138,40.61441]},"properties":{"p":"1365G00189000000","a":"MECHLING ST","m":"Frazer","u":"L","o":"individual","sf":7500,"v":700}},{"type":"Feature","geometry":{"type":"Point","coordinates":[-79.77157,40.61472]},"properties":{"p":"1365G00201000000","a":"WALTENBAUGH ST","m":"Frazer","u":"L","o":"individual","sf":7500,"v":700}},{"type":"Feature","geometry":{"type":"Point","coordinates":[-79.77199,40.61471]},"properties":{"p":"1365G00208000000","a":"WALTENBAUGH ST","m":"Frazer","u":"L","o":"individual","sf":5000,"v":500}},{"type":"Feature","geometry":{"type":"Point","coordinates":[-79.77258,40.6147]},"properties":{"p":"1365G00217000000","a":"WALTENBAUGH ST","m":"Frazer","u":"L","o":"individual","sf":2500,"v":200}},{"type":"Feature","geometry":{"type":"Point","coordinates":[-79.7729,40.61469]},"properties":{"p":"1365G00223000000","a":"WALTENBAUGH ST","m":"Frazer","u":"L","o":"individual","sf":5000,"v":500}},{"type":"Feature","geometry":{"type":"Point","coordinates":[-79.77322,40.61468]},"properties":{"p":"1365G00237000000","a":"WALTENBAUGH ST","m":"Frazer","u":"L","o":"individual","sf":5000,"v":500}},{"type":"Feature","geometry":{"type":"Point","coordinates":[-79.77359,40.61467]},"properties":{"p":"1365G00243000000","a":"WALTENBAUGH ST","m":"Frazer","u":"L","o":"individual","sf":5000,"v":500}},{"type":"Feature","geometry":{"type":"Point","coordinates":[-79.77806,40.6161]},"properties":{"p":"1356B00054000000","a":"BAKERSTOWN RD","m":"Frazer","u":"L","o":"individual","sf":4049,"v":400}},{"type":"Feature","geometry":{"type":"Point","coordinates":[-79.77186,40.6128]},"properties":{"p":"1365L00169000000","a":"MOLET AVE","m":"Frazer","u":"L","o":"individual","sf":12500,"v":1100}},{"type":"Feature","geometry":{"type":"Point","coordinates":[-79.7723,40.61324]},"properties":{"p":"1365L00174000000","a":"GARNELL AVE","m":"Frazer","u":"L","o":"individual","sf":5000,"v":500}},{"type":"Feature","geometry":{"type":"Point","coordinates":[-79.77229,40.61304]},"properties":{"p":"1365L00178000000","a":"GARNELL AVE","m":"Frazer","u":"L","o":"individual","sf":10000,"v":900}},{"type":"Feature","geometry":{"type":"Point","coordinates":[-79.77225,40.61231]},"properties":{"p":"1365L00186000000","a":"GARNELL AVE","m":"Frazer","u":"L","o":"individual","sf":7035,"v":600}},{"type":"Feature","geometry":{"type":"Point","coordinates":[-79.77285,40.61107]},"properties":{"p":"1365L00254000000","a":"BAKERSTOWN RD","m":"Frazer","u":"L","o":"individual","sf":29848,"v":16000}},{"type":"Feature","geometry":{"type":"Point","coordinates":[-79.77156,40.61683]},"properties":{"p":"1365C00109000000","a":"CATALPA AVE","m":"Frazer","u":"L","o":"individual","sf":6250,"v":600}},{"type":"Feature","geometry":{"type":"Point","coordinates":[-79.77155,40.61648]},"properties":{"p":"1365C00116000000","a":"CATALPA AVE","m":"Frazer","u":"L","o":"individual","sf":6250,"v":600}},{"type":"Feature","geometry":{"type":"Point","coordinates":[-79.77154,40.6161]},"properties":{"p":"1365C00122000000","a":"CATALPA AVE","m":"Frazer","u":"L","o":"individual","sf":3125,"v":300}},{"type":"Feature","geometry":{"type":"Point","coordinates":[-79.77154,40.61603]},"properties":{"p":"1365C00123000000","a":"CATALPA AVE","m":"Frazer","u":"L","o":"individual","sf":3125,"v":300}},{"type":"Feature","geometry":{"type":"Point","coordinates":[-79.77154,40.61596]},"properties":{"p":"1365C00124000000","a":"CATALPA AVE","m":"Frazer","u":"L","o":"individual","sf":3125,"v":300}},{"type":"Feature","geometry":{"type":"Point","coordinates":[-79.77154,40.61589]},"properties":{"p":"1365C00125000000","a":"CATALPA AVE","m":"Frazer","u":"L","o":"individual","sf":3125,"v":300}},{"type":"Feature","geometry":{"type":"Point","coordinates":[-79.77209,40.61588]},"properties":{"p":"1365C00150000000","a":"CATALPA AVE","m":"Frazer","u":"L","o":"individual","sf":12500,"v":1100}},{"type":"Feature","geometry":{"type":"Point","coordinates":[-79.77539,40.61389]},"properties":{"p":"1365F00240000000","a":"BAKERSTOWN RD","m":"Frazer","u":"L","o":"individual","sf":221720,"v":53300}},{"type":"Feature","geometry":{"type":"Point","coordinates":[-79.77704,40.61364]},"properties":{"p":"1365F00274000000","a":"BAKERSTOWN RD","m":"Frazer","u":"L","o":"individual","sf":299301,"v":58800}},{"type":"Feature","geometry":{"type":"Point","coordinates":[-79.77319,40.61222]},"properties":{"p":"1365L00281000000","a":"COOPER ST","m":"Frazer","u":"L","o":"individual","sf":2453,"v":200}},{"type":"Feature","geometry":{"type":"Point","coordinates":[-79.77374,40.61373]},"properties":{"p":"1365G00116000000","a":"BOLLINGER AVE","m":"Frazer","u":"L","o":"individual","sf":2500,"v":200}},{"type":"Feature","geometry":{"type":"Point","coordinates":[-79.77424,40.61358]},"properties":{"p":"1365G00133000000","a":"BAKERSTOWN RD","m":"Frazer","u":"L","o":"individual","sf":10464,"v":900}},{"type":"Feature","geometry":{"type":"Point","coordinates":[-79.77425,40.61371]},"properties":{"p":"1365G00135000000","a":"BAKERSTOWN RD","m":"Frazer","u":"L","o":"individual","sf":3300,"v":300}},{"type":"Feature","geometry":{"type":"Point","coordinates":[-79.77429,40.61402]},"properties":{"p":"1365G00145000000","a":"1650 BAKERSTOWN RD","m":"Frazer","u":"L","o":"individual","sf":7593,"v":700}},{"type":"Feature","geometry":{"type":"Point","coordinates":[-79.77444,40.61433]},"properties":{"p":"1365G00147000000","a":"MECHLING ST","m":"Frazer","u":"L","o":"individual","sf":12395,"v":1100}},{"type":"Feature","geometry":{"type":"Point","coordinates":[-79.77252,40.61438]},"properties":{"p":"1365G00150000000","a":"BAKERSTOWN RD","m":"Frazer","u":"L","o":"individual","sf":2500,"v":200}},{"type":"Feature","geometry":{"type":"Point","coordinates":[-79.77357,40.61436]},"properties":{"p":"1365G00164000000","a":"MECHLING ST","m":"Frazer","u":"L","o":"individual","sf":2500,"v":200}},{"type":"Feature","geometry":{"type":"Point","coordinates":[-79.77293,40.61437]},"properties":{"p":"1365G00166000000","a":"MECHLING ST","m":"Frazer","u":"L","o":"individual","sf":2500,"v":200}},{"type":"Feature","geometry":{"type":"Point","coordinates":[-79.77284,40.61437]},"properties":{"p":"1365G00168000000","a":"MECHLING ST","m":"Frazer","u":"L","o":"individual","sf":2500,"v":200}},{"type":"Feature","geometry":{"type":"Point","coordinates":[-79.77215,40.61439]},"properties":{"p":"1365G00177000000","a":"MECHLING ST","m":"Frazer","u":"L","o":"individual","sf":5000,"v":500}},{"type":"Feature","geometry":{"type":"Point","coordinates":[-79.77526,40.61195]},"properties":{"p":"1365K00058000000","a":"BAKERSTOWN RD","m":"Frazer","u":"L","o":"individual","sf":40000,"v":2000}},{"type":"Feature","geometry":{"type":"Point","coordinates":[-79.77594,40.61247]},"properties":{"p":"1365K00082000000","a":"BAKERSTOWN RD","m":"Frazer","u":"L","o":"individual","sf":80412,"v":3000}},{"type":"Feature","geometry":{"type":"Point","coordinates":[-79.77573,40.61298]},"properties":{"p":"1365K00115000000","a":"BAKERSTOWN RD","m":"Frazer","u":"L","o":"individual","sf":134339,"v":5000}},{"type":"Feature","geometry":{"type":"Point","coordinates":[-79.77133,40.61244]},"properties":{"p":"1365L00066000000","a":"MOLET AVE","m":"Frazer","u":"L","o":"individual","sf":5000,"v":500}},{"type":"Feature","geometry":{"type":"Point","coordinates":[-79.77132,40.6123]},"properties":{"p":"1365L00068000000","a":"MOLET AVE","m":"Frazer","u":"L","o":"individual","sf":4919,"v":400}},{"type":"Feature","geometry":{"type":"Point","coordinates":[-79.77139,40.61368]},"properties":{"p":"1365L00100000000","a":"BAKERSTOWN RD","m":"Frazer","u":"L","o":"individual","sf":150103,"v":46900}},{"type":"Feature","geometry":{"type":"Point","coordinates":[-79.77183,40.61229]},"properties":{"p":"1365L00163000000","a":"146 VALLEY DR","m":"Frazer","u":"L","o":"individual","sf":4984,"v":500}},{"type":"Feature","geometry":{"type":"Point","coordinates":[-79.77184,40.61246]},"properties":{"p":"1365L00166000000","a":"146 VALLEY DR","m":"Frazer","u":"L","o":"individual","sf":2500,"v":200}},{"type":"Feature","geometry":{"type":"Point","coordinates":[-79.77557,40.6158]},"properties":{"p":"1365B00014000000","a":"BAKERSTOWN RD","m":"Frazer","u":"L","o":"individual","sf":2500,"v":200}},{"type":"Feature","geometry":{"type":"Point","coordinates":[-79.77566,40.61586]},"properties":{"p":"1365B00016000000","a":"BAKERSTOWN RD","m":"Frazer","u":"L","o":"individual","sf":4415,"v":400}},{"type":"Feature","geometry":{"type":"Point","coordinates":[-79.77602,40.61608]},"properties":{"p":"1365B00022000000","a":"BAKERSTOWN RD","m":"Frazer","u":"L","o":"individual","sf":2500,"v":200}},{"type":"Feature","geometry":{"type":"Point","coordinates":[-79.77627,40.61616]},"properties":{"p":"1365B00026000000","a":"CYPHERS RD","m":"Frazer","u":"L","o":"individual","sf":8278,"v":800}},{"type":"Feature","geometry":{"type":"Point","coordinates":[-79.7765,40.61624]},"properties":{"p":"1365B00030000000","a":"CYPHERS RD","m":"Frazer","u":"L","o":"individual","sf":7034,"v":600}},{"type":"Feature","geometry":{"type":"Point","coordinates":[-79.77687,40.61623]},"properties":{"p":"1365B00035000000","a":"CRESCENT DR","m":"Frazer","u":"L","o":"individual","sf":5780,"v":500}},{"type":"Feature","geometry":{"type":"Point","coordinates":[-79.77797,40.61608]},"properties":{"p":"1365B00052000000","a":"BAKERSTOWN RD","m":"Frazer","u":"L","o":"individual","sf":2500,"v":200}},{"type":"Feature","geometry":{"type":"Point","coordinates":[-79.77826,40.61616]},"properties":{"p":"1365B00057000000","a":"BAKERSTOWN RD","m":"Frazer","u":"L","o":"individual","sf":4837,"v":400}},{"type":"Feature","geometry":{"type":"Point","coordinates":[-79.77696,40.61657]},"properties":{"p":"1365B00100000000","a":"BAKERSTOWN RD","m":"Frazer","u":"L","o":"individual","sf":234048,"v":53500}},{"type":"Feature","geometry":{"type":"Point","coordinates":[-79.77543,40.61616]},"properties":{"p":"1365B00133000000","a":"LANG AVE","m":"Frazer","u":"L","o":"individual","sf":5397,"v":500}},{"type":"Feature","geometry":{"type":"Point","coordinates":[-79.77193,40.61408]},"properties":{"p":"1365G00047000000","a":"MOLET AVE","m":"Frazer","u":"L","o":"individual","sf":5000,"v":500}},{"type":"Feature","geometry":{"type":"Point","coordinates":[-79.77191,40.61377]},"properties":{"p":"1365G00053000000","a":"MOLET AVE","m":"Frazer","u":"L","o":"individual","sf":2500,"v":200}},{"type":"Feature","geometry":{"type":"Point","coordinates":[-79.7719,40.61346]},"properties":{"p":"1365G00060000000","a":"MOLET AVE","m":"Frazer","u":"L","o":"individual","sf":10000,"v":900}},{"type":"Feature","geometry":{"type":"Point","coordinates":[-79.77232,40.61352]},"properties":{"p":"1365G00064000000","a":"GARNELL AVE","m":"Frazer","u":"L","o":"individual","sf":5000,"v":500}},{"type":"Feature","geometry":{"type":"Point","coordinates":[-79.77285,40.61388]},"properties":{"p":"1365G00082000000","a":"GARNELL AVE","m":"Frazer","u":"L","o":"individual","sf":7500,"v":700}},{"type":"Feature","geometry":{"type":"Point","coordinates":[-79.77284,40.61354]},"properties":{"p":"1365G00088000000","a":"HAZLETT WAY","m":"Frazer","u":"L","o":"individual","sf":2500,"v":200}},{"type":"Feature","geometry":{"type":"Point","coordinates":[-79.77325,40.61343]},"properties":{"p":"1365G00093000000","a":"BOLLINGER AVE","m":"Frazer","u":"L","o":"individual","sf":5000,"v":500}},{"type":"Feature","geometry":{"type":"Point","coordinates":[-79.77326,40.61356]},"properties":{"p":"1365G00095000000","a":"BOLLINGER AVE","m":"Frazer","u":"L","o":"individual","sf":5000,"v":500}},{"type":"Feature","geometry":{"type":"Point","coordinates":[-79.77327,40.61373]},"properties":{"p":"1365G00101000000","a":"BOLLINGER AVE","m":"Frazer","u":"L","o":"individual","sf":2500,"v":200}},{"type":"Feature","geometry":{"type":"Point","coordinates":[-79.77328,40.61394]},"properties":{"p":"1365G00105000000","a":"BOLLINGER AVE","m":"Frazer","u":"L","o":"individual","sf":2500,"v":200}},{"type":"Feature","geometry":{"type":"Point","coordinates":[-79.77329,40.61404]},"properties":{"p":"1365G00107000000","a":"BOLLINGER AVE","m":"Frazer","u":"L","o":"individual","sf":5000,"v":500}},{"type":"Feature","geometry":{"type":"Point","coordinates":[-79.77376,40.61406]},"properties":{"p":"1365G00110000000","a":"BOLLINGER AVE","m":"Frazer","u":"L","o":"individual","sf":2500,"v":200}},{"type":"Feature","geometry":{"type":"Point","coordinates":[-79.77409,40.61466]},"properties":{"p":"1365G00250000000","a":"WALTENBAUGH ST","m":"Frazer","u":"L","o":"individual","sf":2500,"v":200}},{"type":"Feature","geometry":{"type":"Point","coordinates":[-79.77419,40.61466]},"properties":{"p":"1365G00252000000","a":"WALTENBAUGH ST","m":"Frazer","u":"L","o":"individual","sf":2500,"v":200}},{"type":"Feature","geometry":{"type":"Point","coordinates":[-79.77403,40.61501]},"properties":{"p":"1365G00264000000","a":"LANG AVE","m":"Frazer","u":"L","o":"individual","sf":7479,"v":700}},{"type":"Feature","geometry":{"type":"Point","coordinates":[-79.76894,40.61178]},"properties":{"p":"1365R00043000000","a":"BAKERSTOWN RD","m":"Frazer","u":"L","o":"individual","sf":2178001,"v":45800}},{"type":"Feature","geometry":{"type":"Point","coordinates":[-79.77876,40.61635]},"properties":{"p":"1365A00042000000","a":"BAKERSTOWN RD","m":"Frazer","u":"L","o":"individual","sf":2525,"v":200}},{"type":"Feature","geometry":{"type":"Point","coordinates":[-79.77285,40.61088]},"properties":{"p":"1365R00222000000","a":"CRESCENT DR","m":"Frazer","u":"L","o":"individual","sf":26841,"v":15000}},{"type":"Feature","geometry":{"type":"Point","coordinates":[-79.77368,40.61282]},"properties":{"p":"1365L00306000000","a":"BOLLINGER AVE","m":"Frazer","u":"L","o":"individual","sf":2500,"v":200}},{"type":"Feature","geometry":{"type":"Point","coordinates":[-79.77368,40.61275]},"properties":{"p":"1365L00307000000","a":"BOLLINGER AVE","m":"Frazer","u":"L","o":"individual","sf":2500,"v":200}},{"type":"Feature","geometry":{"type":"Point","coordinates":[-79.77366,40.61254]},"properties":{"p":"1365L00313000000","a":"144 BOLLINGER AVE","m":"Frazer","u":"L","o":"individual","sf":7500,"v":700}},{"type":"Feature","geometry":{"type":"Point","coordinates":[-79.77365,40.61238]},"properties":{"p":"1365L00320000000","a":"BOLLINGER AVE","m":"Frazer","u":"L","o":"individual","sf":2500,"v":200}},{"type":"Feature","geometry":{"type":"Point","coordinates":[-79.77397,40.61172]},"properties":{"p":"1365L00365000000","a":"BAKERSTOWN RD","m":"Frazer","u":"L","o":"individual","sf":18092,"v":1600}},{"type":"Feature","geometry":{"type":"Point","coordinates":[-79.77395,40.61071]},"properties":{"p":"1365R00231000000","a":"BAKERSTOWN RD","m":"Frazer","u":"L","o":"individual","sf":22023,"v":35200}},{"type":"Feature","geometry":{"type":"Point","coordinates":[-79.77753,40.62731]},"properties":{"p":"1675R00236000000","a":"BULL CREEK RD","m":"Fawn","u":"L","o":"individual","sf":5986015,"v":213700}},{"type":"Feature","geometry":{"type":"Point","coordinates":[-79.7641,40.62945]},"properties":{"p":"1676N00289000000","a":"200 HOUSTON DR","m":"Fawn","u":"L","o":"individual","sf":1080,"v":100}},{"type":"Feature","geometry":{"type":"Point","coordinates":[-79.76579,40.62044]},"properties":{"p":"1517J00380000000","a":"BULL CREEK RD","m":"Fawn","u":"L","o":"individual","sf":91476,"v":14000}},{"type":"Feature","geometry":{"type":"Point","coordinates":[-79.76947,40.62074]},"properties":{"p":"1517J00153000000","a":"BULL CREEK RD","m":"Fawn","u":"L","o":"individual","sf":1140994,"v":78600}},{"type":"Feature","geometry":{"type":"Point","coordinates":[-79.77327,40.61367]},"properties":{"p":"1365G00098000000","a":"BOLLINGER AVE","m":"Frazer","u":"L","o":"individual","sf":2500,"v":200}},{"type":"Feature","geometry":{"type":"Point","coordinates":[-79.77526,40.61512]},"properties":{"p":"1365F00373000000","a":"BAKERSTOWN RD","m":"Frazer","u":"L","o":"corp","sf":2783,"v":300}},{"type":"Feature","geometry":{"type":"Point","coordinates":[-79.77227,40.61266]},"properties":{"p":"1365L00179000000","a":"146 VALLEY DR","m":"Frazer","u":"L","o":"individual","sf":17500,"v":1600}},{"type":"Feature","geometry":{"type":"Point","coordinates":[-79.7799,40.61681]},"properties":{"p":"1365A00072000000","a":"BAKERSTOWN RD","m":"Frazer","u":"L","o":"individual","sf":7500,"v":700}},{"type":"Feature","geometry":{"type":"Point","coordinates":[-79.77161,40.61441]},"properties":{"p":"1365G00186000000","a":"MECHLING ST","m":"Frazer","u":"L","o":"individual","sf":5000,"v":500}},{"type":"Feature","geometry":{"type":"Point","coordinates":[-79.76319,40.62685]},"properties":{"p":"1517A00318000000","a":"MEMORY LN","m":"Fawn","u":"L","o":"individual","sf":24000,"v":2200}},{"type":"Feature","geometry":{"type":"Point","coordinates":[-79.76121,40.614]},"properties":{"p":"1366F00095000000","a":"CEDAR ST","m":"Tarentum","u":"L","o":"corp","sf":55757,"v":3800}},{"type":"Feature","geometry":{"type":"Point","coordinates":[-79.77378,40.61467]},"properties":{"p":"1365G00246000000","a":"WALTENBAUGH ST","m":"Frazer","u":"L","o":"individual","sf":5000,"v":500}},{"type":"Feature","geometry":{"type":"Point","coordinates":[-79.76299,40.62773]},"properties":{"p":"1517A00393000000","a":"COE AVE","m":"Fawn","u":"L","o":"individual","sf":19239,"v":1700}},{"type":"Feature","geometry":{"type":"Point","coordinates":[-79.77367,40.61269]},"properties":{"p":"1365L00310000000","a":"BOLLINGER AVE","m":"Frazer","u":"L","o":"individual","sf":2500,"v":200}},{"type":"Feature","geometry":{"type":"Point","coordinates":[-79.77192,40.61394]},"properties":{"p":"1365G00050000000","a":"MOLET AVE","m":"Frazer","u":"L","o":"individual","sf":5000,"v":500}}]}