{"type":"FeatureCollection","features":[{"type":"Feature","geometry":{"type":"Point","coordinates":[-79.75677,40.53186]},"properties":{"p":"0846R00321000000","a":"LOGANS FERRY RD","m":"Plum","u":"I","o":"individual","sf":970952,"v":51800}},{"type":"Feature","geometry":{"type":"Point","coordinates":[-79.75383,40.53356]},"properties":{"p":"0846L00011000000","a":"201 BROWNTOWN RD","m":"Plum","u":"C","o":"corp","sf":112384,"v":45000}},{"type":"Feature","geometry":{"type":"Point","coordinates":[-79.755,40.54168]},"properties":{"p":"0845R00126000000","a":"NICHOLS DR","m":"Plum","u":"C","o":"individual","sf":200812,"v":70800}},{"type":"Feature","geometry":{"type":"Point","coordinates":[-79.75732,40.53077]},"properties":{"p":"0846R00162000000","a":"LOGANS FERRY RD","m":"Plum","u":"C","o":"individual","sf":65340,"v":30000}},{"type":"Feature","geometry":{"type":"Point","coordinates":[-79.75222,40.53244]},"properties":{"p":"0846M00253000000","a":"BROWNTOWN RD","m":"Plum","u":"C","o":"corp","sf":1085080,"v":130000}},{"type":"Feature","geometry":{"type":"Point","coordinates":[-79.75706,40.53886]},"properties":{"p":"0846C00284000000","a":"EDWARDS RD","m":"Plum","u":"C","o":"individual","sf":126324,"v":10400}},{"type":"Feature","geometry":{"type":"Point","coordinates":[-79.74861,40.54983]},"properties":{"p":"0844S00135000000","a":"BROWNTOWN RD","m":"Plum","u":"C","o":"corp","sf":840254,"v":96600}},{"type":"Feature","geometry":{"type":"Point","coordinates":[-79.74974,40.5458]},"properties":{"p":"0845H00034000000","a":"SUMMIT AVE","m":"Plum","u":"L","o":"individual","sf":52747,"v":4800}},{"type":"Feature","geometry":{"type":"Point","coordinates":[-79.74981,40.54545]},"properties":{"p":"0845H00037000000","a":"BROWNTOWN RD","m":"Plum","u":"L","o":"individual","sf":33667,"v":10900}},{"type":"Feature","geometry":{"type":"Point","coordinates":[-79.75686,40.54696]},"properties":{"p":"0845G00358000000","a":"DOMBROSKI AVE","m":"Plum","u":"L","o":"individual","sf":5000,"v":1700}},{"type":"Feature","geometry":{"type":"Point","coordinates":[-79.75351,40.54917]},"properties":{"p":"0845D00142000000","a":"234 COLUMBIA RD","m":"Plum","u":"L","o":"individual","sf":15794,"v":18500}},{"type":"Feature","geometry":{"type":"Point","coordinates":[-79.75112,40.54869]},"properties":{"p":"0845D00183000000","a":"STRONG HILL RD","m":"Plum","u":"L","o":"individual","sf":234993,"v":55700}},{"type":"Feature","geometry":{"type":"Point","coordinates":[-79.74996,40.54799]},"properties":{"p":"0845D00244000000","a":"203 FONTANA LN","m":"Plum","u":"L","o":"individual","sf":7627,"v":23600}},{"type":"Feature","geometry":{"type":"Point","coordinates":[-79.75219,40.54553]},"properties":{"p":"0845H00164000000","a":"MEMORIAL DR","m":"Plum","u":"L","o":"individual","sf":5375,"v":1800}},{"type":"Feature","geometry":{"type":"Point","coordinates":[-79.75402,40.54896]},"properties":{"p":"0845C00087000000","a":"COLUMBIA RD","m":"Plum","u":"L","o":"individual","sf":33982,"v":3100}},{"type":"Feature","geometry":{"type":"Point","coordinates":[-79.75851,40.54795]},"properties":{"p":"0845C00182000000","a":"SHADY AVE","m":"Plum","u":"L","o":"corp","sf":345431,"v":58900}},{"type":"Feature","geometry":{"type":"Point","coordinates":[-79.75824,40.54874]},"properties":{"p":"0845C00194000000","a":"SHADY AVE","m":"Plum","u":"L","o":"individual","sf":182952,"v":43200}},{"type":"Feature","geometry":{"type":"Point","coordinates":[-79.75707,40.54855]},"properties":{"p":"0845C00200000000","a":"COLUMBIA RD","m":"Plum","u":"L","o":"individual","sf":125453,"v":27500}},{"type":"Feature","geometry":{"type":"Point","coordinates":[-79.7574,40.5499]},"properties":{"p":"0845C00220000000","a":"COLUMBIA RD","m":"Plum","u":"L","o":"individual","sf":140176,"v":28900}},{"type":"Feature","geometry":{"type":"Point","coordinates":[-79.75871,40.54359]},"properties":{"p":"0845K00094000000","a":"ENTRANCE DR","m":"Plum","u":"L","o":"corp","sf":87120,"v":44000}},{"type":"Feature","geometry":{"type":"Point","coordinates":[-79.75756,40.54351]},"properties":{"p":"0845K00118000000","a":"ENTRANCE DR","m":"Plum","u":"L","o":"corp","sf":165528,"v":51200}},{"type":"Feature","geometry":{"type":"Point","coordinates":[-79.74035,40.54941]},"properties":{"p":"0966C00265000000","a":"PUCKETY CREEK RD","m":"Plum","u":"L","o":"individual","sf":9217,"v":24300}},{"type":"Feature","geometry":{"type":"Point","coordinates":[-79.74049,40.54911]},"properties":{"p":"0966C00270000000","a":"MICHELLE RD","m":"Plum","u":"L","o":"corp","sf":7355,"v":20200}},{"type":"Feature","geometry":{"type":"Point","coordinates":[-79.74062,40.54882]},"properties":{"p":"0966C00284000000","a":"PUCKETY CREEK RD","m":"Plum","u":"L","o":"individual","sf":7021,"v":2300}},{"type":"Feature","geometry":{"type":"Point","coordinates":[-79.74088,40.5482]},"properties":{"p":"0966C00294000000","a":"REGENT DR","m":"Plum","u":"L","o":"individual","sf":7117,"v":2400}},{"type":"Feature","geometry":{"type":"Point","coordinates":[-79.7413,40.54696]},"properties":{"p":"0966C00298000000","a":"PUCKETY CREEK RD","m":"Plum","u":"L","o":"individual","sf":113256,"v":46400}},{"type":"Feature","geometry":{"type":"Point","coordinates":[-79.7504,40.54103]},"properties":{"p":"0845S00147000000","a":"MAISACK AVE","m":"Plum","u":"L","o":"individual","sf":6000,"v":500}},{"type":"Feature","geometry":{"type":"Point","coordinates":[-79.74931,40.5417]},"properties":{"p":"0966N00340000000","a":"VOSCAMP AVE","m":"Plum","u":"L","o":"individual","sf":3300,"v":300}},{"type":"Feature","geometry":{"type":"Point","coordinates":[-79.74942,40.54171]},"properties":{"p":"0966N00342000000","a":"C AVE","m":"Plum","u":"L","o":"individual","sf":3300,"v":300}},{"type":"Feature","geometry":{"type":"Point","coordinates":[-79.74952,40.54171]},"properties":{"p":"0966N00344000000","a":"ELM RD","m":"Plum","u":"L","o":"individual","sf":3300,"v":300}},{"type":"Feature","geometry":{"type":"Point","coordinates":[-79.74969,40.54173]},"properties":{"p":"0966N00348000000","a":"VOSCAMP AVE","m":"Plum","u":"L","o":"individual","sf":6600,"v":600}},{"type":"Feature","geometry":{"type":"Point","coordinates":[-79.74935,40.54136]},"properties":{"p":"0966N00360000000","a":"MAISACK AVE","m":"Plum","u":"L","o":"individual","sf":9000,"v":24200}},{"type":"Feature","geometry":{"type":"Point","coordinates":[-79.74453,40.54186]},"properties":{"p":"0966P00296000000","a":"BROWNTOWN RD","m":"Plum","u":"L","o":"individual","sf":56584,"v":41200}},{"type":"Feature","geometry":{"type":"Point","coordinates":[-79.7408,40.54936]},"properties":{"p":"0966C00373000000","a":"PUCKETY CREEK RD","m":"Plum","u":"L","o":"individual","sf":54014,"v":41000}},{"type":"Feature","geometry":{"type":"Point","coordinates":[-79.74956,40.54665]},"properties":{"p":"0966E00002000000","a":"SUMMIT AVE","m":"Plum","u":"L","o":"corp","sf":35659,"v":36400}},{"type":"Feature","geometry":{"type":"Point","coordinates":[-79.74444,40.5307]},"properties":{"p":"0968B00100000000","a":"WEBSTER RD","m":"Plum","u":"L","o":"individual","sf":130680,"v":9000}},{"type":"Feature","geometry":{"type":"Point","coordinates":[-79.74574,40.54653]},"properties":{"p":"0966E00068000000","a":"FARNETH RD","m":"Plum","u":"L","o":"individual","sf":50530,"v":4600}},{"type":"Feature","geometry":{"type":"Point","coordinates":[-79.7461,40.54584]},"properties":{"p":"0966E00091000000","a":"FARNETH RD","m":"Plum","u":"L","o":"individual","sf":23754,"v":2100}},{"type":"Feature","geometry":{"type":"Point","coordinates":[-79.74475,40.54817]},"properties":{"p":"0966F00250000000","a":"MICHELLE RD","m":"Plum","u":"L","o":"individual","sf":685286,"v":21500}},{"type":"Feature","geometry":{"type":"Point","coordinates":[-79.74495,40.54711]},"properties":{"p":"0966F00280000000","a":"FARNETH RD","m":"Plum","u":"L","o":"individual","sf":159430,"v":14600}},{"type":"Feature","geometry":{"type":"Point","coordinates":[-79.74538,40.54533]},"properties":{"p":"0966F00362000000","a":"FARNETH RD","m":"Plum","u":"L","o":"individual","sf":48787,"v":4500}},{"type":"Feature","geometry":{"type":"Point","coordinates":[-79.74542,40.54582]},"properties":{"p":"0966F00378000000","a":"FARNETH RD","m":"Plum","u":"L","o":"individual","sf":41298,"v":3700}},{"type":"Feature","geometry":{"type":"Point","coordinates":[-79.75263,40.53609]},"properties":{"p":"0846H00268000000","a":"BROWNTOWN RD","m":"Plum","u":"L","o":"individual","sf":20000,"v":1800}},{"type":"Feature","geometry":{"type":"Point","coordinates":[-79.74307,40.54781]},"properties":{"p":"0966B00140000000","a":"ORCHARD ST","m":"Plum","u":"L","o":"individual","sf":11200,"v":25200}},{"type":"Feature","geometry":{"type":"Point","coordinates":[-79.7433,40.54796]},"properties":{"p":"0966B00146000000","a":"ORCHARD ST","m":"Plum","u":"L","o":"individual","sf":11200,"v":1000}},{"type":"Feature","geometry":{"type":"Point","coordinates":[-79.74017,40.54942]},"properties":{"p":"0966C00143000000","a":"PARK DR","m":"Plum","u":"L","o":"individual","sf":3351,"v":1200}},{"type":"Feature","geometry":{"type":"Point","coordinates":[-79.74019,40.54913]},"properties":{"p":"0966C00255000000","a":"PUCKETY CREEK RD","m":"Plum","u":"L","o":"individual","sf":11640,"v":20600}},{"type":"Feature","geometry":{"type":"Point","coordinates":[-79.74975,40.54097]},"properties":{"p":"0966N00320000000","a":"MAISACK AVE","m":"Plum","u":"L","o":"individual","sf":25200,"v":31600}},{"type":"Feature","geometry":{"type":"Point","coordinates":[-79.7492,40.54169]},"properties":{"p":"0966N00336000000","a":"VOSCAMP AVE","m":"Plum","u":"L","o":"individual","sf":3300,"v":300}},{"type":"Feature","geometry":{"type":"Point","coordinates":[-79.75107,40.54183]},"properties":{"p":"0845S00297000000","a":"C AVE","m":"Plum","u":"L","o":"individual","sf":3300,"v":300}},{"type":"Feature","geometry":{"type":"Point","coordinates":[-79.75097,40.54182]},"properties":{"p":"0845S00299000000","a":"C AVE","m":"Plum","u":"L","o":"individual","sf":3300,"v":300}},{"type":"Feature","geometry":{"type":"Point","coordinates":[-79.75087,40.54182]},"properties":{"p":"0845S00301000000","a":"VOSCAMP AVE","m":"Plum","u":"L","o":"individual","sf":3300,"v":300}},{"type":"Feature","geometry":{"type":"Point","coordinates":[-79.75078,40.54181]},"properties":{"p":"0845S00303000000","a":"C AVE","m":"Plum","u":"L","o":"individual","sf":3300,"v":300}},{"type":"Feature","geometry":{"type":"Point","coordinates":[-79.75068,40.54179]},"properties":{"p":"0845S00305000000","a":"C AVE","m":"Plum","u":"L","o":"individual","sf":3300,"v":300}},{"type":"Feature","geometry":{"type":"Point","coordinates":[-79.75058,40.54178]},"properties":{"p":"0845S00307000000","a":"C AVE","m":"Plum","u":"L","o":"individual","sf":3300,"v":300}},{"type":"Feature","geometry":{"type":"Point","coordinates":[-79.75031,40.54171]},"properties":{"p":"0845S00312000000","a":"VOSCAMP AVE","m":"Plum","u":"L","o":"individual","sf":6600,"v":600}},{"type":"Feature","geometry":{"type":"Point","coordinates":[-79.75017,40.5417]},"properties":{"p":"0845S00316000000","a":"C AVE","m":"Plum","u":"L","o":"individual","sf":3300,"v":300}},{"type":"Feature","geometry":{"type":"Point","coordinates":[-79.75005,40.54179]},"properties":{"p":"0845S00318000000","a":"VOSCAMP AVE","m":"Plum","u":"L","o":"individual","sf":3000,"v":300}},{"type":"Feature","geometry":{"type":"Point","coordinates":[-79.74995,40.54181]},"properties":{"p":"0845S00320000000","a":"C AVE","m":"Plum","u":"L","o":"individual","sf":33000,"v":3000}},{"type":"Feature","geometry":{"type":"Point","coordinates":[-79.756,40.53048]},"properties":{"p":"0846R00176000000","a":"LOGANS FERRY RD","m":"Plum","u":"L","o":"individual","sf":123710,"v":17400}},{"type":"Feature","geometry":{"type":"Point","coordinates":[-79.74986,40.54174]},"properties":{"p":"0845S00322000000","a":"VOSCAMP AVE","m":"Plum","u":"L","o":"individual","sf":3300,"v":300}},{"type":"Feature","geometry":{"type":"Point","coordinates":[-79.74867,40.54562]},"properties":{"p":"0966E00001000000","a":"BROWNTOWN RD","m":"Plum","u":"L","o":"individual","sf":162091,"v":14900}},{"type":"Feature","geometry":{"type":"Point","coordinates":[-79.75991,40.53618]},"properties":{"p":"0846F00210000000","a":"LOGANS FERRY RD","m":"Plum","u":"L","o":"individual","sf":26227,"v":2400}},{"type":"Feature","geometry":{"type":"Point","coordinates":[-79.74218,40.54324]},"properties":{"p":"0966K00082000000","a":"PARK DR","m":"Plum","u":"L","o":"individual","sf":32670,"v":35100}},{"type":"Feature","geometry":{"type":"Point","coordinates":[-79.74263,40.54311]},"properties":{"p":"0966K00096000000","a":"BROWNTOWN RD","m":"Plum","u":"L","o":"individual","sf":38333,"v":37700}},{"type":"Feature","geometry":{"type":"Point","coordinates":[-79.74339,40.54262]},"properties":{"p":"0966K00131000000","a":"FARNETH RD","m":"Plum","u":"L","o":"individual","sf":220849,"v":56200}},{"type":"Feature","geometry":{"type":"Point","coordinates":[-79.7508,40.53536]},"properties":{"p":"0846H00136000000","a":"BROWNTOWN RD","m":"Plum","u":"L","o":"individual","sf":290981,"v":61000}},{"type":"Feature","geometry":{"type":"Point","coordinates":[-79.75161,40.5357]},"properties":{"p":"0846H00144000000","a":"BROWNTOWN RD","m":"Plum","u":"L","o":"individual","sf":45738,"v":40200}},{"type":"Feature","geometry":{"type":"Point","coordinates":[-79.74398,40.54416]},"properties":{"p":"0966K00174000000","a":"FARNETH RD","m":"Plum","u":"L","o":"individual","sf":249163,"v":15700}},{"type":"Feature","geometry":{"type":"Point","coordinates":[-79.7425,40.54489]},"properties":{"p":"0966K00235000000","a":"PARK DR","m":"Plum","u":"L","o":"individual","sf":60548,"v":41600}},{"type":"Feature","geometry":{"type":"Point","coordinates":[-79.75438,40.53526]},"properties":{"p":"0846L00192000000","a":"BROWNTOWN RD","m":"Plum","u":"L","o":"individual","sf":35428,"v":36300}},{"type":"Feature","geometry":{"type":"Point","coordinates":[-79.75612,40.53505]},"properties":{"p":"0846L00248000000","a":"BROWNTOWN RD","m":"Plum","u":"L","o":"individual","sf":113256,"v":46400}},{"type":"Feature","geometry":{"type":"Point","coordinates":[-79.75707,40.53393]},"properties":{"p":"0846L00307000000","a":"LOGANS FERRY RD","m":"Plum","u":"L","o":"corp","sf":170755,"v":4100}},{"type":"Feature","geometry":{"type":"Point","coordinates":[-79.75004,40.54135]},"properties":{"p":"0845S00164000000","a":"MAISACK AVE","m":"Plum","u":"L","o":"individual","sf":3000,"v":300}},{"type":"Feature","geometry":{"type":"Point","coordinates":[-79.75013,40.5414]},"properties":{"p":"0845S00166000000","a":"D AVE","m":"Plum","u":"L","o":"individual","sf":3000,"v":300}},{"type":"Feature","geometry":{"type":"Point","coordinates":[-79.75023,40.54141]},"properties":{"p":"0845S00168000000","a":"D AVE","m":"Plum","u":"L","o":"individual","sf":3000,"v":300}},{"type":"Feature","geometry":{"type":"Point","coordinates":[-79.75042,40.54142]},"properties":{"p":"0845S00172000000","a":"D AVE","m":"Plum","u":"L","o":"individual","sf":3000,"v":300}},{"type":"Feature","geometry":{"type":"Point","coordinates":[-79.75148,40.54132]},"properties":{"p":"0845S00284000000","a":"124 VOSCAMP AVE","m":"Plum","u":"L","o":"individual","sf":148104,"v":15000}},{"type":"Feature","geometry":{"type":"Point","coordinates":[-79.75126,40.54185]},"properties":{"p":"0845S00293000000","a":"C AVE","m":"Plum","u":"L","o":"individual","sf":3300,"v":300}},{"type":"Feature","geometry":{"type":"Point","coordinates":[-79.75117,40.54184]},"properties":{"p":"0845S00295000000","a":"C AVE","m":"Plum","u":"L","o":"individual","sf":3300,"v":300}},{"type":"Feature","geometry":{"type":"Point","coordinates":[-79.74061,40.53551]},"properties":{"p":"0967K00313000000","a":"WRIGHT RD","m":"Plum","u":"L","o":"individual","sf":2595610,"v":25000}},{"type":"Feature","geometry":{"type":"Point","coordinates":[-79.7584,40.53625]},"properties":{"p":"0846F00049000000","a":"LOGANS FERRY RD","m":"Plum","u":"L","o":"corp","sf":90605,"v":8300}},{"type":"Feature","geometry":{"type":"Point","coordinates":[-79.75832,40.53684]},"properties":{"p":"0846F00064000000","a":"LOGANS FERRY RD","m":"Plum","u":"L","o":"individual","sf":11499,"v":1000}},{"type":"Feature","geometry":{"type":"Point","coordinates":[-79.7472,40.54326]},"properties":{"p":"0966J00265000000","a":"FARNETH RD","m":"Plum","u":"L","o":"individual","sf":103194,"v":16000}},{"type":"Feature","geometry":{"type":"Point","coordinates":[-79.74816,40.54365]},"properties":{"p":"0966J00350000000","a":"BROWNTOWN RD","m":"Plum","u":"L","o":"individual","sf":458251,"v":15000}},{"type":"Feature","geometry":{"type":"Point","coordinates":[-79.74352,40.54809]},"properties":{"p":"0966B00152000000","a":"ORCHARD ST","m":"Plum","u":"L","o":"individual","sf":10777,"v":1000}},{"type":"Feature","geometry":{"type":"Point","coordinates":[-79.74377,40.54821]},"properties":{"p":"0966B00159000000","a":"ORCHARD ST","m":"Plum","u":"L","o":"individual","sf":11200,"v":25200}},{"type":"Feature","geometry":{"type":"Point","coordinates":[-79.74425,40.54888]},"properties":{"p":"0966B00230000000","a":"ORCHARD ST","m":"Plum","u":"L","o":"individual","sf":19600,"v":29100}},{"type":"Feature","geometry":{"type":"Point","coordinates":[-79.74384,40.54874]},"properties":{"p":"0966B00240000000","a":"ORCHARD ST","m":"Plum","u":"L","o":"individual","sf":19600,"v":29100}},{"type":"Feature","geometry":{"type":"Point","coordinates":[-79.74354,40.54863]},"properties":{"p":"0966B00248000000","a":"ORCHARD ST","m":"Plum","u":"L","o":"individual","sf":11200,"v":25200}},{"type":"Feature","geometry":{"type":"Point","coordinates":[-79.74307,40.54836]},"properties":{"p":"0966B00261000000","a":"ORCHARD ST","m":"Plum","u":"L","o":"individual","sf":11200,"v":25200}},{"type":"Feature","geometry":{"type":"Point","coordinates":[-79.74259,40.5481]},"properties":{"p":"0966B00273000000","a":"ORCHARD ST","m":"Plum","u":"L","o":"individual","sf":9521,"v":900}},{"type":"Feature","geometry":{"type":"Point","coordinates":[-79.7554,40.54577]},"properties":{"p":"0845G00206000000","a":"423 PLUM AVE","m":"Plum","u":"L","o":"individual","sf":4893,"v":1700}},{"type":"Feature","geometry":{"type":"Point","coordinates":[-79.75601,40.54546]},"properties":{"p":"0845G00217000000","a":"PLUM AVE","m":"Plum","u":"L","o":"individual","sf":850,"v":1700}},{"type":"Feature","geometry":{"type":"Point","coordinates":[-79.75927,40.5454]},"properties":{"p":"0845F00060000000","a":"SHADY AVE","m":"Plum","u":"L","o":"individual","sf":99012,"v":45100}},{"type":"Feature","geometry":{"type":"Point","coordinates":[-79.75894,40.54637]},"properties":{"p":"0845F00081000000","a":"RIDGE AVE","m":"Plum","u":"L","o":"individual","sf":135733,"v":9400}},{"type":"Feature","geometry":{"type":"Point","coordinates":[-79.74989,40.54743]},"properties":{"p":"0845H00384000000","a":"FONTANA LN","m":"Plum","u":"L","o":"individual","sf":12502,"v":25800}},{"type":"Feature","geometry":{"type":"Point","coordinates":[-79.74265,40.5442]},"properties":{"p":"0966K00242000000","a":"UNNAMED RD","m":"Plum","u":"L","o":"individual","sf":60548,"v":41600}},{"type":"Feature","geometry":{"type":"Point","coordinates":[-79.74469,40.54277]},"properties":{"p":"0966N00006000000","a":"516 FARNETH RD","m":"Plum","u":"L","o":"individual","sf":33541,"v":15400}},{"type":"Feature","geometry":{"type":"Point","coordinates":[-79.75933,40.53446]},"properties":{"p":"0846K00088000000","a":"LOGANS FERRY RD","m":"Plum","u":"L","o":"individual","sf":41077,"v":38900}},{"type":"Feature","geometry":{"type":"Point","coordinates":[-79.74203,40.54889]},"properties":{"p":"0966B00286000000","a":"PARK DR","m":"Plum","u":"L","o":"individual","sf":2254,"v":200}},{"type":"Feature","geometry":{"type":"Point","coordinates":[-79.74546,40.5451]},"properties":{"p":"0966K00388000000","a":"FARNETH RD","m":"Plum","u":"L","o":"individual","sf":48787,"v":40500}},{"type":"Feature","geometry":{"type":"Point","coordinates":[-79.74029,40.5474]},"properties":{"p":"0966C00216000000","a":"CRYSTAL DR","m":"Plum","u":"L","o":"corp","sf":394654,"v":60100}},{"type":"Feature","geometry":{"type":"Point","coordinates":[-79.75107,40.53493]},"properties":{"p":"0846M00284000000","a":"WRIGHT RD","m":"Plum","u":"L","o":"individual","sf":43560,"v":40000}},{"type":"Feature","geometry":{"type":"Point","coordinates":[-79.7433,40.54848]},"properties":{"p":"0966B00252000000","a":"ORCHARD ST","m":"Plum","u":"L","o":"individual","sf":11942,"v":1100}},{"type":"Feature","geometry":{"type":"Point","coordinates":[-79.7587,40.54728]},"properties":{"p":"0845F00135000000","a":"RIDGE AVE","m":"Plum","u":"L","o":"individual","sf":20700,"v":11400}},{"type":"Feature","geometry":{"type":"Point","coordinates":[-79.7498,40.54793]},"properties":{"p":"0845D00252000000","a":"FONTANA LN","m":"Plum","u":"L","o":"individual","sf":3502,"v":300}}]}