{"type":"FeatureCollection","features":[{"type":"Feature","geometry":{"type":"Point","coordinates":[-79.7567,40.45051]},"properties":{"p":"0855F00078000000","a":"SECO RD","m":"Monroeville","u":"C","o":"corp","sf":74923,"v":12000}},{"type":"Feature","geometry":{"type":"Point","coordinates":[-79.75391,40.45842]},"properties":{"p":"0854G00028000000","a":"GATEWAY DR","m":"Monroeville","u":"L","o":"individual","sf":39640,"v":4000}},{"type":"Feature","geometry":{"type":"Point","coordinates":[-79.75976,40.46125]},"properties":{"p":"0854B00284000000","a":"CENTER RD","m":"Plum","u":"L","o":"individual","sf":89951,"v":6200}},{"type":"Feature","geometry":{"type":"Point","coordinates":[-79.75867,40.45081]},"properties":{"p":"0855B00101000000","a":"BLACKBERRY DR","m":"Monroeville","u":"L","o":"individual","sf":11126,"v":1000}},{"type":"Feature","geometry":{"type":"Point","coordinates":[-79.75921,40.45711]},"properties":{"p":"0854K00221000000","a":"CENTER RD","m":"Monroeville","u":"L","o":"corp","sf":76666,"v":900}},{"type":"Feature","geometry":{"type":"Point","coordinates":[-79.75845,40.45753]},"properties":{"p":"0854K00053000000","a":"OLD FRANKSTOWN RD","m":"Monroeville","u":"L","o":"corp","sf":29795,"v":31600}},{"type":"Feature","geometry":{"type":"Point","coordinates":[-79.75962,40.45596]},"properties":{"p":"0854K00086000000","a":"CENTER RD","m":"Monroeville","u":"L","o":"corp","sf":10876,"v":13600}},{"type":"Feature","geometry":{"type":"Point","coordinates":[-79.74604,40.45327]},"properties":{"p":"0975N00025000000","a":"COOPER RD","m":"Monroeville","u":"L","o":"corp","sf":45821,"v":23100}},{"type":"Feature","geometry":{"type":"Point","coordinates":[-79.74613,40.45404]},"properties":{"p":"0975N00064000000","a":"COOPER RD","m":"Monroeville","u":"L","o":"individual","sf":12850,"v":1200}},{"type":"Feature","geometry":{"type":"Point","coordinates":[-79.74526,40.45396]},"properties":{"p":"0975N00060000000","a":"COOPER RD","m":"Monroeville","u":"L","o":"individual","sf":23871,"v":16100}}]}