{"type":"FeatureCollection","features":[{"type":"Feature","geometry":{"type":"Point","coordinates":[-79.74814,40.51141]},"properties":{"p":"0970B00382000000","a":"194 HARRIS RD","m":"Plum","u":"L","o":"individual","sf":1382877,"v":138600}},{"type":"Feature","geometry":{"type":"Point","coordinates":[-79.74107,40.51067]},"properties":{"p":"0970C00201000000","a":"ROSS HOLLOW RD","m":"Plum","u":"L","o":"corp","sf":53143,"v":4900}},{"type":"Feature","geometry":{"type":"Point","coordinates":[-79.74958,40.51454]},"properties":{"p":"0969J00062000000","a":"RUSTIC RIDGE DR","m":"Plum","u":"L","o":"corp","sf":18557,"v":35600}},{"type":"Feature","geometry":{"type":"Point","coordinates":[-79.7495,40.5143]},"properties":{"p":"0969J00066000000","a":"RUSTIC RIDGE DR","m":"Plum","u":"L","o":"individual","sf":14986,"v":35300}},{"type":"Feature","geometry":{"type":"Point","coordinates":[-79.7579,40.52882]},"properties":{"p":"0847C00218000000","a":"LOGANS FERRY RD","m":"Plum","u":"L","o":"individual","sf":1200435,"v":82700}},{"type":"Feature","geometry":{"type":"Point","coordinates":[-79.74593,40.51223]},"properties":{"p":"0969P00249000000","a":"ROSS HOLLOW RD","m":"Plum","u":"L","o":"individual","sf":185827,"v":12800}},{"type":"Feature","geometry":{"type":"Point","coordinates":[-79.74796,40.52946]},"properties":{"p":"0968A00210000000","a":"WEBSTER RD","m":"Plum","u":"L","o":"individual","sf":23740,"v":2100}},{"type":"Feature","geometry":{"type":"Point","coordinates":[-79.74926,40.52919]},"properties":{"p":"0968A00236000000","a":"WEBSTER RD","m":"Plum","u":"L","o":"individual","sf":387248,"v":59900}},{"type":"Feature","geometry":{"type":"Point","coordinates":[-79.74571,40.5239]},"properties":{"p":"0968J00027000000","a":"SARDIS RD","m":"Plum","u":"L","o":"individual","sf":4084,"v":400}},{"type":"Feature","geometry":{"type":"Point","coordinates":[-79.74048,40.52832]},"properties":{"p":"0967R00057000000","a":"WEBSTER RD","m":"Plum","u":"L","o":"individual","sf":882090,"v":12500}},{"type":"Feature","geometry":{"type":"Point","coordinates":[-79.75353,40.51408]},"properties":{"p":"0848M00144000000","a":"217 HARRIS RD","m":"Plum","u":"L","o":"individual","sf":15047,"v":1400}},{"type":"Feature","geometry":{"type":"Point","coordinates":[-79.75341,40.51432]},"properties":{"p":"0848M00152000000","a":"HARRIS RD","m":"Plum","u":"L","o":"individual","sf":119790,"v":11000}},{"type":"Feature","geometry":{"type":"Point","coordinates":[-79.75721,40.52584]},"properties":{"p":"0847L00194000000","a":"LEECHBURG RD","m":"Plum","u":"L","o":"individual","sf":808426,"v":108000}},{"type":"Feature","geometry":{"type":"Point","coordinates":[-79.75565,40.52571]},"properties":{"p":"0847L00198000000","a":"LEECHBURG RD","m":"Plum","u":"L","o":"corp","sf":131007,"v":42000}},{"type":"Feature","geometry":{"type":"Point","coordinates":[-79.75381,40.52459]},"properties":{"p":"0847M00034000000","a":"LEECHBURG RD","m":"Plum","u":"L","o":"individual","sf":76230,"v":43000}},{"type":"Feature","geometry":{"type":"Point","coordinates":[-79.75232,40.52607]},"properties":{"p":"0847M00076000000","a":"LOGANS FERRY RD","m":"Plum","u":"L","o":"individual","sf":125109,"v":13500}},{"type":"Feature","geometry":{"type":"Point","coordinates":[-79.74096,40.52143]},"properties":{"p":"0968R00356000000","a":"SARDIS RD","m":"Plum","u":"L","o":"individual","sf":193842,"v":53800}},{"type":"Feature","geometry":{"type":"Point","coordinates":[-79.75013,40.5163]},"properties":{"p":"0848M00110000000","a":"HARRIS RD","m":"Plum","u":"L","o":"individual","sf":1598936,"v":167500}},{"type":"Feature","geometry":{"type":"Point","coordinates":[-79.74158,40.5283]},"properties":{"p":"0968F00083000000","a":"MCALLISTER DR","m":"Plum","u":"L","o":"individual","sf":40654,"v":38700}},{"type":"Feature","geometry":{"type":"Point","coordinates":[-79.7423,40.52772]},"properties":{"p":"0968F00115000000","a":"MCALLISTER DR","m":"Plum","u":"L","o":"corp","sf":6054,"v":500}},{"type":"Feature","geometry":{"type":"Point","coordinates":[-79.75876,40.52593]},"properties":{"p":"0847R00061000000","a":"LEECHBURG RD","m":"Plum","u":"L","o":"corp","sf":60113,"v":5000}},{"type":"Feature","geometry":{"type":"Point","coordinates":[-79.74995,40.52267]},"properties":{"p":"0847S00078000000","a":"ROUTE 2164","m":"Plum","u":"L","o":"individual","sf":29375,"v":2600}},{"type":"Feature","geometry":{"type":"Point","coordinates":[-79.75068,40.52289]},"properties":{"p":"0847S00087000000","a":"HARRIS RD","m":"Plum","u":"L","o":"individual","sf":18500,"v":1700}},{"type":"Feature","geometry":{"type":"Point","coordinates":[-79.74622,40.52926]},"properties":{"p":"0968A00121000000","a":"WEBSTER RD","m":"Plum","u":"L","o":"individual","sf":203861,"v":14000}},{"type":"Feature","geometry":{"type":"Point","coordinates":[-79.74936,40.51399]},"properties":{"p":"0969J00070000000","a":"RUSTIC RIDGE DR","m":"Plum","u":"L","o":"individual","sf":11151,"v":33800}}]}