{"type":"FeatureCollection","features":[{"type":"Feature","geometry":{"type":"Point","coordinates":[-79.75929,40.39308]},"properties":{"p":"0861B00055000000","a":"FORBES RD","m":"Trafford","u":"I","o":"corp","sf":16170,"v":2300}},{"type":"Feature","geometry":{"type":"Point","coordinates":[-79.74882,40.40871]},"properties":{"p":"0980J00184000000","a":"2200 RAMSEY RD","m":"Monroeville","u":"C","o":"corp","sf":9324,"v":800}},{"type":"Feature","geometry":{"type":"Point","coordinates":[-79.74868,40.40829]},"properties":{"p":"0980J00191000000","a":"2200 RAMSEY RD","m":"Monroeville","u":"C","o":"corp","sf":29440,"v":2700}},{"type":"Feature","geometry":{"type":"Point","coordinates":[-79.74487,40.39844]},"properties":{"p":"0981K00159000000","a":"BRICKYARD RD","m":"Monroeville","u":"C","o":"corp","sf":1267160,"v":266600}},{"type":"Feature","geometry":{"type":"Point","coordinates":[-79.75586,40.39058]},"properties":{"p":"0861G00249000000","a":"FORBES RD","m":"Trafford","u":"L","o":"individual","sf":220849,"v":54600}},{"type":"Feature","geometry":{"type":"Point","coordinates":[-79.75708,40.3915]},"properties":{"p":"0861G00264000000","a":"FORBES RD","m":"Trafford","u":"L","o":"individual","sf":39640,"v":38100}},{"type":"Feature","geometry":{"type":"Point","coordinates":[-79.74501,40.40199]},"properties":{"p":"0981G00034000000","a":"ROSEBUD LN","m":"Monroeville","u":"L","o":"corp","sf":5669949,"v":307100}},{"type":"Feature","geometry":{"type":"Point","coordinates":[-79.75152,40.3967]},"properties":{"p":"0860S00129000000","a":"OLD RAMSEY RD","m":"Monroeville","u":"L","o":"individual","sf":382195,"v":10000}},{"type":"Feature","geometry":{"type":"Point","coordinates":[-79.75106,40.39689]},"properties":{"p":"0860S00190000000","a":"OLD RAMSEY RD","m":"Monroeville","u":"L","o":"individual","sf":20000,"v":2000}},{"type":"Feature","geometry":{"type":"Point","coordinates":[-79.75985,40.40299]},"properties":{"p":"0860B00023000000","a":"HAYMAKER RD","m":"Monroeville","u":"L","o":"individual","sf":218976,"v":6300}},{"type":"Feature","geometry":{"type":"Point","coordinates":[-79.7583,40.40293]},"properties":{"p":"0860B00024000000","a":"HAYMAKER RD","m":"Monroeville","u":"L","o":"corp","sf":69260,"v":74100}},{"type":"Feature","geometry":{"type":"Point","coordinates":[-79.75169,40.40034]},"properties":{"p":"0860H00220000000","a":"OLD RAMSEY RD","m":"Monroeville","u":"L","o":"individual","sf":263538,"v":22000}},{"type":"Feature","geometry":{"type":"Point","coordinates":[-79.75185,40.40221]},"properties":{"p":"0860D00169000000","a":"OLD RAMSEY RD","m":"Monroeville","u":"L","o":"individual","sf":96398,"v":40900}},{"type":"Feature","geometry":{"type":"Point","coordinates":[-79.75843,40.40942]},"properties":{"p":"0859F00034000000","a":"HARVARD RD","m":"Monroeville","u":"L","o":"corp","sf":14484,"v":46900}},{"type":"Feature","geometry":{"type":"Point","coordinates":[-79.75352,40.4037]},"properties":{"p":"0860C00020000000","a":"117 KELVINGTON DR","m":"Monroeville","u":"L","o":"corp","sf":272903,"v":6300}},{"type":"Feature","geometry":{"type":"Point","coordinates":[-79.75151,40.40823]},"properties":{"p":"0859M00178000000","a":"127 LESLIE RD","m":"Monroeville","u":"L","o":"individual","sf":15751,"v":2500}},{"type":"Feature","geometry":{"type":"Point","coordinates":[-79.75615,40.40252]},"properties":{"p":"0860C00215000000","a":"112 BRADBERRY DR","m":"Monroeville","u":"L","o":"individual","sf":953,"v":800}},{"type":"Feature","geometry":{"type":"Point","coordinates":[-79.7505,40.40206]},"properties":{"p":"0860H00087000000","a":"OLD RAMSEY RD","m":"Monroeville","u":"L","o":"individual","sf":13883,"v":11100}},{"type":"Feature","geometry":{"type":"Point","coordinates":[-79.75945,40.40815]},"properties":{"p":"0859P00229000000","a":"HILLSIDE AVE EXT","m":"Monroeville","u":"L","o":"individual","sf":30753,"v":4900}},{"type":"Feature","geometry":{"type":"Point","coordinates":[-79.7568,40.40576]},"properties":{"p":"0859R00273000000","a":"HAYMAKER RD","m":"Monroeville","u":"L","o":"individual","sf":10739,"v":43900}},{"type":"Feature","geometry":{"type":"Point","coordinates":[-79.75756,40.40064]},"properties":{"p":"0860G00117000000","a":"118 KELVINGTON DR","m":"Monroeville","u":"L","o":"individual","sf":7700,"v":15000}},{"type":"Feature","geometry":{"type":"Point","coordinates":[-79.75588,40.40679]},"properties":{"p":"0859L00100000000","a":"HAYMAKER RD","m":"Monroeville","u":"L","o":"corp","sf":321908,"v":42200}},{"type":"Feature","geometry":{"type":"Point","coordinates":[-79.75686,40.39261]},"properties":{"p":"0861C00301000000","a":"FORBES RD","m":"Monroeville","u":"L","o":"individual","sf":17139,"v":2700}},{"type":"Feature","geometry":{"type":"Point","coordinates":[-79.75,40.39906]},"properties":{"p":"0860M00038000000","a":"RAMSEY RD","m":"Monroeville","u":"L","o":"individual","sf":15000,"v":6000}},{"type":"Feature","geometry":{"type":"Point","coordinates":[-79.7442,40.40703]},"properties":{"p":"0980K00044000000","a":"106 MOUNT VERNON DR","m":"Monroeville","u":"L","o":"individual","sf":14810,"v":47100}},{"type":"Feature","geometry":{"type":"Point","coordinates":[-79.74931,40.40804]},"properties":{"p":"0980J00359000000","a":"RAMSEY RD","m":"Monroeville","u":"L","o":"individual","sf":9770,"v":43100}},{"type":"Feature","geometry":{"type":"Point","coordinates":[-79.74527,40.39699]},"properties":{"p":"0981P00040000000","a":"RAMSEY RD","m":"Monroeville","u":"L","o":"individual","sf":79463,"v":5000}},{"type":"Feature","geometry":{"type":"Point","coordinates":[-79.75702,40.40968]},"properties":{"p":"0859L00391000000","a":"HILLSIDE AVE EXT","m":"Monroeville","u":"L","o":"individual","sf":6916,"v":1100}},{"type":"Feature","geometry":{"type":"Point","coordinates":[-79.75962,40.39475]},"properties":{"p":"0861B00181000000","a":"FORBES RD","m":"Monroeville","u":"L","o":"corp","sf":130680,"v":21000}},{"type":"Feature","geometry":{"type":"Point","coordinates":[-79.74313,40.40617]},"properties":{"p":"0980P00024000000","a":"MOUNT VERNON DR","m":"Monroeville","u":"L","o":"individual","sf":28053,"v":57700}},{"type":"Feature","geometry":{"type":"Point","coordinates":[-79.7556,40.3987]},"properties":{"p":"0860L00248000000","a":"CASTLE HILL RD","m":"Monroeville","u":"L","o":"individual","sf":83635,"v":13400}},{"type":"Feature","geometry":{"type":"Point","coordinates":[-79.75821,40.40229]},"properties":{"p":"0860C00272000000","a":"HAYMAKER RD","m":"Monroeville","u":"L","o":"corp","sf":2887,"v":500}},{"type":"Feature","geometry":{"type":"Point","coordinates":[-79.7406,40.40303]},"properties":{"p":"0981C00056000000","a":"ARDEN DR","m":"Monroeville","u":"B","o":"corp","sf":74836,"v":1875}},{"type":"Feature","geometry":{"type":"Point","coordinates":[-79.74308,40.40287]},"properties":{"p":"0981B00023000000","a":"ARDEN DR","m":"Monroeville","u":"B","o":"corp","sf":38335,"v":1875}},{"type":"Feature","geometry":{"type":"Point","coordinates":[-79.74242,40.40201]},"properties":{"p":"0981B00027000000","a":"ARDEN DR","m":"Monroeville","u":"B","o":"corp","sf":67082,"v":1875}},{"type":"Feature","geometry":{"type":"Point","coordinates":[-79.74132,40.40288]},"properties":{"p":"0981B00035000000","a":"ARDEN DR","m":"Monroeville","u":"B","o":"corp","sf":94961,"v":1875}},{"type":"Feature","geometry":{"type":"Point","coordinates":[-79.74204,40.4031]},"properties":{"p":"0981B00039000000","a":"ARDEN DR","m":"Monroeville","u":"B","o":"corp","sf":71438,"v":1875}},{"type":"Feature","geometry":{"type":"Point","coordinates":[-79.74114,40.40169]},"properties":{"p":"0981C00060000000","a":"ARDEN DR","m":"Monroeville","u":"B","o":"corp","sf":61420,"v":1875}},{"type":"Feature","geometry":{"type":"Point","coordinates":[-79.74051,40.40116]},"properties":{"p":"0981C00064000000","a":"ARDEN DR","m":"Monroeville","u":"B","o":"corp","sf":83635,"v":1875}},{"type":"Feature","geometry":{"type":"Point","coordinates":[-79.74183,40.40191]},"properties":{"p":"0981B00031000000","a":"ARDEN DR","m":"Monroeville","u":"B","o":"corp","sf":54886,"v":1875}}]}