{"type":"FeatureCollection","features":[{"type":"Feature","geometry":{"type":"Point","coordinates":[-79.74313,40.65536]},"properties":{"p":"2019B00236000000","a":"6798 RIDGE RD","m":"Fawn","u":"L","o":"individual","sf":47655,"v":28500}},{"type":"Feature","geometry":{"type":"Point","coordinates":[-79.75849,40.65452]},"properties":{"p":"2018F00129000000","a":"2630 HOWES RUN RD","m":"Fawn","u":"L","o":"individual","sf":31403,"v":2800}},{"type":"Feature","geometry":{"type":"Point","coordinates":[-79.74263,40.65971]},"properties":{"p":"2202K00195000100","a":"RIDGE RD","m":"Fawn","u":"L","o":"corp","sf":36077,"v":3300}},{"type":"Feature","geometry":{"type":"Point","coordinates":[-79.74606,40.65029]},"properties":{"p":"2019J00026000000","a":"RIDGE RD","m":"Fawn","u":"L","o":"individual","sf":18626,"v":1700}},{"type":"Feature","geometry":{"type":"Point","coordinates":[-79.75021,40.66277]},"properties":{"p":"2201H00061000000","a":"STATE ROUTE 908","m":"Fawn","u":"L","o":"individual","sf":143748,"v":37400}},{"type":"Feature","geometry":{"type":"Point","coordinates":[-79.75142,40.66275]},"properties":{"p":"2201H00097000000","a":"RIDGE RD","m":"Fawn","u":"L","o":"individual","sf":113256,"v":34600}},{"type":"Feature","geometry":{"type":"Point","coordinates":[-79.75825,40.65664]},"properties":{"p":"2018B00094000000","a":"JESSIE LN","m":"Fawn","u":"L","o":"individual","sf":21300,"v":1900}},{"type":"Feature","geometry":{"type":"Point","coordinates":[-79.74332,40.65629]},"properties":{"p":"2019B00222000000","a":"RIDGE RD","m":"Fawn","u":"L","o":"individual","sf":56436,"v":29300}},{"type":"Feature","geometry":{"type":"Point","coordinates":[-79.75529,40.66026]},"properties":{"p":"2201L00096000000","a":"STATE ROUTE 908","m":"Fawn","u":"L","o":"individual","sf":71438,"v":800}},{"type":"Feature","geometry":{"type":"Point","coordinates":[-79.75476,40.66098]},"properties":{"p":"2201L00136000000","a":"FT ST","m":"Fawn","u":"L","o":"individual","sf":17493,"v":1600}},{"type":"Feature","geometry":{"type":"Point","coordinates":[-79.75416,40.6615]},"properties":{"p":"2201L00147000000","a":"ALTA VISTA RD","m":"Fawn","u":"L","o":"individual","sf":30600,"v":2800}},{"type":"Feature","geometry":{"type":"Point","coordinates":[-79.74408,40.66854]},"properties":{"p":"2393P00278000000","a":"STATE ROUTE 908","m":"Fawn","u":"L","o":"individual","sf":90823,"v":19500}},{"type":"Feature","geometry":{"type":"Point","coordinates":[-79.74242,40.6624]},"properties":{"p":"2202F00178000000","a":"RIDGE RD","m":"Fawn","u":"L","o":"individual","sf":38111,"v":3400}},{"type":"Feature","geometry":{"type":"Point","coordinates":[-79.74412,40.66219]},"properties":{"p":"2202F00211000000","a":"RIDGE RD","m":"Fawn","u":"L","o":"individual","sf":36801,"v":3300}},{"type":"Feature","geometry":{"type":"Point","coordinates":[-79.74402,40.66313]},"properties":{"p":"2202F00256000000","a":"RIDGE RD","m":"Fawn","u":"L","o":"individual","sf":83701,"v":31900}},{"type":"Feature","geometry":{"type":"Point","coordinates":[-79.74338,40.65333]},"properties":{"p":"2019F00126000000","a":"DONNELLVILLE RD","m":"Fawn","u":"L","o":"individual","sf":21664,"v":2000}},{"type":"Feature","geometry":{"type":"Point","coordinates":[-79.74407,40.65387]},"properties":{"p":"2019F00245000000","a":"DONNELLVILLE RD","m":"Fawn","u":"L","o":"individual","sf":9461,"v":900}},{"type":"Feature","geometry":{"type":"Point","coordinates":[-79.75046,40.66466]},"properties":{"p":"2201D00035000000","a":"STATE ROUTE 908","m":"Fawn","u":"L","o":"individual","sf":46522,"v":28400}},{"type":"Feature","geometry":{"type":"Point","coordinates":[-79.75851,40.65521]},"properties":{"p":"2018B00056000000","a":"MCKINNEY LN","m":"Fawn","u":"L","o":"individual","sf":95832,"v":33000}},{"type":"Feature","geometry":{"type":"Point","coordinates":[-79.75894,40.66075]},"properties":{"p":"2201K00031000000","a":"HOWES RUN RD","m":"Fawn","u":"L","o":"individual","sf":81414,"v":31600}},{"type":"Feature","geometry":{"type":"Point","coordinates":[-79.75999,40.65945]},"properties":{"p":"2201K00272000000","a":"HOWES RUN RD","m":"Fawn","u":"L","o":"individual","sf":114127,"v":34600}},{"type":"Feature","geometry":{"type":"Point","coordinates":[-79.7422,40.65385]},"properties":{"p":"2019F00112000001","a":"DONNELLVILLE RD","m":"Fawn","u":"L","o":"individual","sf":32670,"v":2900}},{"type":"Feature","geometry":{"type":"Point","coordinates":[-79.74358,40.66786]},"properties":{"p":"2393P00207000000","a":"GREENHAVEN DR","m":"Fawn","u":"L","o":"individual","sf":87120,"v":19200}},{"type":"Feature","geometry":{"type":"Point","coordinates":[-79.74487,40.66]},"properties":{"p":"2202K00250000000","a":"RIDGE RD","m":"Fawn","u":"L","o":"individual","sf":93044,"v":26200}},{"type":"Feature","geometry":{"type":"Point","coordinates":[-79.74266,40.65756]},"properties":{"p":"2202P00118000000","a":"PRINGLE DR","m":"Fawn","u":"L","o":"individual","sf":87120,"v":1000}},{"type":"Feature","geometry":{"type":"Point","coordinates":[-79.75988,40.65759]},"properties":{"p":"2201P00243000000","a":"HOWES RUN RD","m":"Fawn","u":"L","o":"corp","sf":67344,"v":30400}},{"type":"Feature","geometry":{"type":"Point","coordinates":[-79.74706,40.6516]},"properties":{"p":"2019J00165000000","a":"RIDGE RD","m":"Fawn","u":"L","o":"individual","sf":103194,"v":25000}},{"type":"Feature","geometry":{"type":"Point","coordinates":[-79.74793,40.6515]},"properties":{"p":"2019J00175000000","a":"RIDGE RD","m":"Fawn","u":"L","o":"individual","sf":155074,"v":29300}},{"type":"Feature","geometry":{"type":"Point","coordinates":[-79.74463,40.65079]},"properties":{"p":"2019K00358000000","a":"RIDGE RD","m":"Fawn","u":"L","o":"individual","sf":87120,"v":26200}},{"type":"Feature","geometry":{"type":"Point","coordinates":[-79.75046,40.6673]},"properties":{"p":"2201D00016000000","a":"STATE ROUTE 908","m":"Fawn","u":"L","o":"individual","sf":87120,"v":32200}},{"type":"Feature","geometry":{"type":"Point","coordinates":[-79.74354,40.66693]},"properties":{"p":"2202B00393000000","a":"GREENHAVEN DR","m":"Fawn","u":"L","o":"individual","sf":78408,"v":18400}},{"type":"Feature","geometry":{"type":"Point","coordinates":[-79.74014,40.66516]},"properties":{"p":"2202C00062000000","a":"STATE ROUTE 908","m":"Fawn","u":"L","o":"individual","sf":43560,"v":4000}},{"type":"Feature","geometry":{"type":"Point","coordinates":[-79.74053,40.66569]},"properties":{"p":"2202C00075000000","a":"STATE ROUTE 908","m":"Fawn","u":"L","o":"corp","sf":392475,"v":12500}},{"type":"Feature","geometry":{"type":"Point","coordinates":[-79.75058,40.65456]},"properties":{"p":"2018H00334000000","a":"DONNELLVILLE RD","m":"Fawn","u":"L","o":"individual","sf":62421,"v":29900}},{"type":"Feature","geometry":{"type":"Point","coordinates":[-79.75672,40.65124]},"properties":{"p":"2018L00050000000","a":"CLARICE LN","m":"Fawn","u":"L","o":"individual","sf":291504,"v":49200}},{"type":"Feature","geometry":{"type":"Point","coordinates":[-79.74964,40.6537]},"properties":{"p":"2018H00310000000","a":"DONNELLVILLE RD","m":"Fawn","u":"L","o":"individual","sf":64425,"v":30100}},{"type":"Feature","geometry":{"type":"Point","coordinates":[-79.74998,40.65458]},"properties":{"p":"2018H00312000000","a":"DONNELLVILLE RD","m":"Fawn","u":"L","o":"individual","sf":10855,"v":1000}},{"type":"Feature","geometry":{"type":"Point","coordinates":[-79.7503,40.65414]},"properties":{"p":"2018H00317000001","a":"DONNELLVILLE RD","m":"Fawn","u":"L","o":"individual","sf":4195,"v":400}},{"type":"Feature","geometry":{"type":"Point","coordinates":[-79.74872,40.66308]},"properties":{"p":"2202A00182000000","a":"STATE ROUTE 908","m":"Fawn","u":"L","o":"individual","sf":54450,"v":29200}},{"type":"Feature","geometry":{"type":"Point","coordinates":[-79.7493,40.66747]},"properties":{"p":"2202A00231000000","a":"STATE ROUTE 908","m":"Fawn","u":"L","o":"individual","sf":383894,"v":49000}},{"type":"Feature","geometry":{"type":"Point","coordinates":[-79.74228,40.66517]},"properties":{"p":"2202B00044000000","a":"RIDGE RD","m":"Fawn","u":"L","o":"individual","sf":44867,"v":28300}},{"type":"Feature","geometry":{"type":"Point","coordinates":[-79.75561,40.65362]},"properties":{"p":"2018G00233000000","a":"DONNELLVILLE RD","m":"Fawn","u":"L","o":"individual","sf":38538,"v":3500}},{"type":"Feature","geometry":{"type":"Point","coordinates":[-79.74437,40.66684]},"properties":{"p":"2202B00385000000","a":"GREENHAVEN DR","m":"Fawn","u":"L","o":"individual","sf":92347,"v":20000}},{"type":"Feature","geometry":{"type":"Point","coordinates":[-79.75546,40.65521]},"properties":{"p":"2018C00176000000","a":"MCKINNEY LN","m":"Fawn","u":"L","o":"individual","sf":146362,"v":37600}}]}