{"type":"FeatureCollection","features":[{"type":"Feature","geometry":{"type":"Point","coordinates":[-79.75386,40.55007]},"properties":{"p":"0845C00268000000","a":"COLUMBIA RD","m":"Plum","u":"L","o":"individual","sf":263699,"v":59200}},{"type":"Feature","geometry":{"type":"Point","coordinates":[-79.75241,40.55003]},"properties":{"p":"0844S00217000000","a":"COLUMBIA RD","m":"Plum","u":"L","o":"individual","sf":51401,"v":25000}},{"type":"Feature","geometry":{"type":"Point","coordinates":[-79.75221,40.55087]},"properties":{"p":"0844S00261000000","a":"COLUMBIA RD","m":"Plum","u":"L","o":"individual","sf":38882,"v":37900}},{"type":"Feature","geometry":{"type":"Point","coordinates":[-79.75133,40.55136]},"properties":{"p":"0844S00301000000","a":"COLUMBIA RD","m":"Plum","u":"L","o":"individual","sf":56576,"v":5000}}]}