{"type":"FeatureCollection","features":[{"type":"Feature","geometry":{"type":"Point","coordinates":[-79.74756,40.61357]},"properties":{"p":"1367E00016000000","a":"FREEPORT RD","m":"Harrison","u":"C","o":"corp","sf":334950,"v":17200}},{"type":"Feature","geometry":{"type":"Point","coordinates":[-79.74662,40.61626]},"properties":{"p":"1367A00005000000","a":"FREEPORT RD","m":"Harrison","u":"C","o":"corp","sf":4774468,"v":245900}},{"type":"Feature","geometry":{"type":"Point","coordinates":[-79.74945,40.61503]},"properties":{"p":"1367A00040000000","a":"LITTLE BULL CREEK","m":"Harrison","u":"C","o":"corp","sf":410474,"v":9600}},{"type":"Feature","geometry":{"type":"Point","coordinates":[-79.74613,40.61285]},"properties":{"p":"1367J00226000000","a":"CARLISLE ST","m":"Harrison","u":"C","o":"corp","sf":26137,"v":27900}},{"type":"Feature","geometry":{"type":"Point","coordinates":[-79.74869,40.61333]},"properties":{"p":"1367J00075000000","a":"LITTLE BULL CREEK","m":"Harrison","u":"C","o":"corp","sf":518943,"v":27000}},{"type":"Feature","geometry":{"type":"Point","coordinates":[-79.74642,40.61258]},"properties":{"p":"1367J00265000000","a":"FREEPORT RD","m":"Harrison","u":"C","o":"corp","sf":9328,"v":3100}},{"type":"Feature","geometry":{"type":"Point","coordinates":[-79.74047,40.61186]},"properties":{"p":"1367L00250000100","a":"1049 ATLANTIC AVE","m":"Brackenridge","u":"L","o":"individual","sf":1568,"v":600}},{"type":"Feature","geometry":{"type":"Point","coordinates":[-79.74106,40.61412]},"properties":{"p":"1367G00182000000","a":"1064 BROADVIEW BLVD","m":"Brackenridge","u":"L","o":"individual","sf":7500,"v":18200}},{"type":"Feature","geometry":{"type":"Point","coordinates":[-79.74929,40.61055]},"properties":{"p":"1367N00307000000","a":"NORWOOD DR","m":"Brackenridge","u":"L","o":"corp","sf":27007,"v":20000}},{"type":"Feature","geometry":{"type":"Point","coordinates":[-79.74895,40.61026]},"properties":{"p":"1367N00311000000","a":"NORWOOD DR","m":"Brackenridge","u":"L","o":"corp","sf":9148,"v":18400}},{"type":"Feature","geometry":{"type":"Point","coordinates":[-79.74054,40.61184]},"properties":{"p":"1367L00251000000","a":"1041 ATLANTIC AVE","m":"Brackenridge","u":"L","o":"individual","sf":1481,"v":500}},{"type":"Feature","geometry":{"type":"Point","coordinates":[-79.74906,40.61071]},"properties":{"p":"1367N00290000000","a":"NORWOOD DR","m":"Brackenridge","u":"L","o":"corp","sf":8394,"v":9300}},{"type":"Feature","geometry":{"type":"Point","coordinates":[-79.74148,40.61277]},"properties":{"p":"1367K00158000000","a":"UNION AVE","m":"Brackenridge","u":"L","o":"individual","sf":5329,"v":1700}},{"type":"Feature","geometry":{"type":"Point","coordinates":[-79.74286,40.61045]},"properties":{"p":"1367P00280000000","a":"957 ROUP AVE","m":"Brackenridge","u":"L","o":"individual","sf":6000,"v":18100}},{"type":"Feature","geometry":{"type":"Point","coordinates":[-79.75793,40.61029]},"properties":{"p":"1366R00057000000","a":"CONWELL AVE","m":"Tarentum","u":"L","o":"corp","sf":8250,"v":18300}},{"type":"Feature","geometry":{"type":"Point","coordinates":[-79.75396,40.62979]},"properties":{"p":"1676R00102000000","a":"METZ RD","m":"Fawn","u":"L","o":"individual","sf":174240,"v":16000}},{"type":"Feature","geometry":{"type":"Point","coordinates":[-79.74979,40.62847]},"properties":{"p":"1677N00033000000","a":"RIDGE RD","m":"Fawn","u":"L","o":"individual","sf":273557,"v":20000}},{"type":"Feature","geometry":{"type":"Point","coordinates":[-79.74775,40.62193]},"properties":{"p":"1518J00199000000","a":"CAMBREL POINT  RD","m":"Fawn","u":"L","o":"individual","sf":36443,"v":3300}},{"type":"Feature","geometry":{"type":"Point","coordinates":[-79.74611,40.62218]},"properties":{"p":"1518K00305000100","a":"SAXONBURG RD","m":"Fawn","u":"L","o":"corp","sf":53056,"v":4900}},{"type":"Feature","geometry":{"type":"Point","coordinates":[-79.75601,40.62588]},"properties":{"p":"1517C00217000000","a":"METZ RD","m":"Fawn","u":"L","o":"individual","sf":103207,"v":9500}},{"type":"Feature","geometry":{"type":"Point","coordinates":[-79.75778,40.62598]},"properties":{"p":"1517C00230000000","a":"METZ RD","m":"Fawn","u":"L","o":"individual","sf":73085,"v":6700}},{"type":"Feature","geometry":{"type":"Point","coordinates":[-79.74969,40.62374]},"properties":{"p":"1518E00383000000","a":"REYNARD DR","m":"Fawn","u":"L","o":"individual","sf":49658,"v":5000}},{"type":"Feature","geometry":{"type":"Point","coordinates":[-79.74954,40.623]},"properties":{"p":"1518E00384000000","a":"REYNARD DR","m":"Fawn","u":"L","o":"individual","sf":29999,"v":2700}},{"type":"Feature","geometry":{"type":"Point","coordinates":[-79.74897,40.62315]},"properties":{"p":"1518E00386000000","a":"REYNARD DR","m":"Fawn","u":"L","o":"individual","sf":50774,"v":5000}},{"type":"Feature","geometry":{"type":"Point","coordinates":[-79.74624,40.62288]},"properties":{"p":"1518J00075000000","a":"BLACK OAK DR","m":"Fawn","u":"L","o":"individual","sf":175547,"v":2000}},{"type":"Feature","geometry":{"type":"Point","coordinates":[-79.749,40.62241]},"properties":{"p":"1518J00100000000","a":"CAMBREL POINT  RD","m":"Fawn","u":"L","o":"individual","sf":120626,"v":49200}},{"type":"Feature","geometry":{"type":"Point","coordinates":[-79.75363,40.62399]},"properties":{"p":"1517H00320000000","a":"BLACK OAK DR","m":"Fawn","u":"L","o":"individual","sf":162479,"v":14900}},{"type":"Feature","geometry":{"type":"Point","coordinates":[-79.75965,40.62263]},"properties":{"p":"1517J00065000000","a":"BULL CREEK RD","m":"Fawn","u":"L","o":"corp","sf":784080,"v":13000}},{"type":"Feature","geometry":{"type":"Point","coordinates":[-79.74707,40.62478]},"properties":{"p":"1518E00189000000","a":"BLACK OAK DR","m":"Fawn","u":"L","o":"individual","sf":46174,"v":500}},{"type":"Feature","geometry":{"type":"Point","coordinates":[-79.75124,40.62541]},"properties":{"p":"1517H00039000000","a":"DEER WALK PL","m":"Fawn","u":"L","o":"individual","sf":29179,"v":2600}},{"type":"Feature","geometry":{"type":"Point","coordinates":[-79.7481,40.62531]},"properties":{"p":"1518E00223000000","a":"BLACK OAK DR","m":"Fawn","u":"L","o":"individual","sf":50530,"v":14000}},{"type":"Feature","geometry":{"type":"Point","coordinates":[-79.74953,40.62518]},"properties":{"p":"1518E00257000000","a":"BLACK OAK DR","m":"Fawn","u":"L","o":"individual","sf":48787,"v":7800}},{"type":"Feature","geometry":{"type":"Point","coordinates":[-79.74965,40.62436]},"properties":{"p":"1518E00264000000","a":"BLACK OAK DR","m":"Fawn","u":"L","o":"individual","sf":62356,"v":5700}},{"type":"Feature","geometry":{"type":"Point","coordinates":[-79.74885,40.62458]},"properties":{"p":"1518E00282000000","a":"BLACK OAK DR","m":"Fawn","u":"L","o":"individual","sf":41399,"v":3700}},{"type":"Feature","geometry":{"type":"Point","coordinates":[-79.74163,40.62179]},"properties":{"p":"1518K00007000000","a":"1730 PLEASANTVILLE RD","m":"Harrison","u":"L","o":"individual","sf":9600,"v":26400}},{"type":"Feature","geometry":{"type":"Point","coordinates":[-79.7428,40.62195]},"properties":{"p":"1518K00081000000","a":"PLEASANTVILLE RD","m":"Harrison","u":"L","o":"individual","sf":40145,"v":29200}},{"type":"Feature","geometry":{"type":"Point","coordinates":[-79.74492,40.62458]},"properties":{"p":"1518K00190000000","a":"PLEASANTVILLE RD","m":"Harrison","u":"L","o":"corp","sf":76230,"v":35900}},{"type":"Feature","geometry":{"type":"Point","coordinates":[-79.74588,40.61425]},"properties":{"p":"1367E00022000000","a":"939 OAKWOOD PL","m":"Harrison","u":"L","o":"individual","sf":697,"v":300}},{"type":"Feature","geometry":{"type":"Point","coordinates":[-79.74575,40.61462]},"properties":{"p":"1367E00043000000","a":"OAKWOOD PL","m":"Harrison","u":"L","o":"individual","sf":4233,"v":24000}},{"type":"Feature","geometry":{"type":"Point","coordinates":[-79.74585,40.61467]},"properties":{"p":"1367E00045000000","a":"OAKWOOD PL","m":"Harrison","u":"L","o":"individual","sf":5620,"v":26100}},{"type":"Feature","geometry":{"type":"Point","coordinates":[-79.7435,40.61627]},"properties":{"p":"1367B00085000000","a":"CAMBRIDGE ST","m":"Harrison","u":"L","o":"corp","sf":2000,"v":700}},{"type":"Feature","geometry":{"type":"Point","coordinates":[-79.74658,40.61243]},"properties":{"p":"1367J00268000000","a":"FREEPORT RD","m":"Harrison","u":"L","o":"corp","sf":9278,"v":26400}},{"type":"Feature","geometry":{"type":"Point","coordinates":[-79.74445,40.61623]},"properties":{"p":"1367B00194000000","a":"WOODLAND PL","m":"Harrison","u":"L","o":"individual","sf":43240,"v":29400}},{"type":"Feature","geometry":{"type":"Point","coordinates":[-79.74407,40.61674]},"properties":{"p":"1367B00196000000","a":"1023 WOODLAND PL","m":"Harrison","u":"L","o":"individual","sf":22100,"v":27500}},{"type":"Feature","geometry":{"type":"Point","coordinates":[-79.75282,40.61064]},"properties":{"p":"1366S00137000000","a":"VIRGINIA AVE","m":"Harrison","u":"L","o":"individual","sf":12347,"v":26700}},{"type":"Feature","geometry":{"type":"Point","coordinates":[-79.75295,40.6107]},"properties":{"p":"1366S00138000000","a":"KENTUCKY AVE","m":"Harrison","u":"L","o":"individual","sf":2775,"v":1000}},{"type":"Feature","geometry":{"type":"Point","coordinates":[-79.75302,40.61076]},"properties":{"p":"1366S00139000000","a":"KENTUCKY AVE","m":"Harrison","u":"L","o":"individual","sf":2750,"v":1000}},{"type":"Feature","geometry":{"type":"Point","coordinates":[-79.75358,40.6111]},"properties":{"p":"1366S00145000000","a":"KENTUCKY AVE","m":"Harrison","u":"L","o":"individual","sf":5500,"v":1900}},{"type":"Feature","geometry":{"type":"Point","coordinates":[-79.75412,40.61094]},"properties":{"p":"1366S00146000000","a":"PLEASANT AVE","m":"Harrison","u":"L","o":"corp","sf":5600,"v":26100}},{"type":"Feature","geometry":{"type":"Point","coordinates":[-79.7535,40.61068]},"properties":{"p":"1366S00153000000","a":"VIRGINIA AVE","m":"Harrison","u":"L","o":"individual","sf":3372,"v":1200}},{"type":"Feature","geometry":{"type":"Point","coordinates":[-79.75355,40.61172]},"properties":{"p":"1366S00200000000","a":"EASTON AVE","m":"Harrison","u":"L","o":"corp","sf":294849,"v":52600}},{"type":"Feature","geometry":{"type":"Point","coordinates":[-79.7405,40.61884]},"properties":{"p":"1518R00055000000","a":"MINNESOTA AVE","m":"Harrison","u":"L","o":"individual","sf":9611,"v":26400}},{"type":"Feature","geometry":{"type":"Point","coordinates":[-79.74603,40.61417]},"properties":{"p":"1367F00021000000","a":"931 OAKWOOD PL","m":"Harrison","u":"L","o":"individual","sf":697,"v":300}},{"type":"Feature","geometry":{"type":"Point","coordinates":[-79.74579,40.62592]},"properties":{"p":"1518A00010000000","a":"RIDGE RD","m":"Fawn","u":"L","o":"individual","sf":123275,"v":1400}},{"type":"Feature","geometry":{"type":"Point","coordinates":[-79.74666,40.62896]},"properties":{"p":"1677N00212000000","a":"WESLEY DR","m":"Fawn","u":"L","o":"individual","sf":18834,"v":1700}},{"type":"Feature","geometry":{"type":"Point","coordinates":[-79.74785,40.62906]},"properties":{"p":"1677N00225000000","a":"WESLEY DR","m":"Fawn","u":"L","o":"individual","sf":19885,"v":1800}},{"type":"Feature","geometry":{"type":"Point","coordinates":[-79.74664,40.62755]},"properties":{"p":"1518A00077000000","a":"2527 RIDGE RD","m":"Fawn","u":"L","o":"individual","sf":3905,"v":400}},{"type":"Feature","geometry":{"type":"Point","coordinates":[-79.74911,40.62694]},"properties":{"p":"1518A00243000000","a":"393 NAGY LN","m":"Fawn","u":"L","o":"individual","sf":2156,"v":200}},{"type":"Feature","geometry":{"type":"Point","coordinates":[-79.7494,40.62695]},"properties":{"p":"1518A00246000000","a":"393 NAGY LN","m":"Fawn","u":"L","o":"individual","sf":13720,"v":33700}},{"type":"Feature","geometry":{"type":"Point","coordinates":[-79.74006,40.62453]},"properties":{"p":"1518G00268000000","a":"PLEASANTVILLE RD","m":"Harrison","u":"L","o":"individual","sf":6440,"v":2200}},{"type":"Feature","geometry":{"type":"Point","coordinates":[-79.75533,40.6112]},"properties":{"p":"1366L00115000000","a":"PLEASANT AVE","m":"Harrison","u":"L","o":"individual","sf":3162,"v":1100}},{"type":"Feature","geometry":{"type":"Point","coordinates":[-79.75271,40.61]},"properties":{"p":"1366S00111000000","a":"PLEASANT AVE","m":"Harrison","u":"L","o":"individual","sf":2252,"v":800}},{"type":"Feature","geometry":{"type":"Point","coordinates":[-79.75308,40.61036]},"properties":{"p":"1366S00117000000","a":"VIRGINIA AVE","m":"Harrison","u":"L","o":"corp","sf":4788,"v":1600}},{"type":"Feature","geometry":{"type":"Point","coordinates":[-79.75267,40.61031]},"properties":{"p":"1366S00121000000","a":"PLEASANT AVE","m":"Harrison","u":"L","o":"corp","sf":7500,"v":13200}},{"type":"Feature","geometry":{"type":"Point","coordinates":[-79.75238,40.6103]},"properties":{"p":"1366S00125000000","a":"VIRGINIA AVE","m":"Harrison","u":"L","o":"individual","sf":4000,"v":1400}},{"type":"Feature","geometry":{"type":"Point","coordinates":[-79.75223,40.6103]},"properties":{"p":"1366S00126000000","a":"VIRGINIA AVE","m":"Harrison","u":"L","o":"individual","sf":4000,"v":1400}},{"type":"Feature","geometry":{"type":"Point","coordinates":[-79.75209,40.6103]},"properties":{"p":"1366S00127000000","a":"VIRGINIA AVE","m":"Harrison","u":"L","o":"individual","sf":4000,"v":1400}},{"type":"Feature","geometry":{"type":"Point","coordinates":[-79.7518,40.61029]},"properties":{"p":"1366S00129000000","a":"VIRGINIA AVE","m":"Harrison","u":"L","o":"individual","sf":4000,"v":1400}},{"type":"Feature","geometry":{"type":"Point","coordinates":[-79.7521,40.61067]},"properties":{"p":"1366S00132000000","a":"VIRGINIA AVE","m":"Harrison","u":"L","o":"individual","sf":8454,"v":2800}},{"type":"Feature","geometry":{"type":"Point","coordinates":[-79.74405,40.61528]},"properties":{"p":"1367F00211000000","a":"CARLISLE ST","m":"Harrison","u":"L","o":"individual","sf":7500,"v":2500}},{"type":"Feature","geometry":{"type":"Point","coordinates":[-79.75312,40.61124]},"properties":{"p":"1366M00017000000","a":"EASTON AVE","m":"Harrison","u":"L","o":"individual","sf":5000,"v":1700}},{"type":"Feature","geometry":{"type":"Point","coordinates":[-79.75477,40.61085]},"properties":{"p":"1366R00384000000","a":"PLEASANT AVE","m":"Harrison","u":"L","o":"individual","sf":3200,"v":1100}},{"type":"Feature","geometry":{"type":"Point","coordinates":[-79.75459,40.61075]},"properties":{"p":"1366R00385000000","a":"PLEASANT AVE","m":"Harrison","u":"L","o":"individual","sf":4238,"v":1500}},{"type":"Feature","geometry":{"type":"Point","coordinates":[-79.75407,40.61043]},"properties":{"p":"1366S00077000000","a":"PLEASANT AVE","m":"Harrison","u":"L","o":"individual","sf":4160,"v":1400}},{"type":"Feature","geometry":{"type":"Point","coordinates":[-79.75384,40.61029]},"properties":{"p":"1366S00079000000","a":"PLEASANT AVE","m":"Harrison","u":"L","o":"corp","sf":6640,"v":26200}},{"type":"Feature","geometry":{"type":"Point","coordinates":[-79.75354,40.61011]},"properties":{"p":"1366S00082000000","a":"PLEASANT AVE","m":"Harrison","u":"L","o":"corp","sf":9660,"v":4000}},{"type":"Feature","geometry":{"type":"Point","coordinates":[-79.74075,40.62164]},"properties":{"p":"1518L00282000000","a":"PLEASANTVILLE RD","m":"Harrison","u":"L","o":"individual","sf":4600,"v":12000}},{"type":"Feature","geometry":{"type":"Point","coordinates":[-79.74233,40.62477]},"properties":{"p":"1518F00175000000","a":"STATE ROUTE 28  SB","m":"Harrison","u":"L","o":"corp","sf":64599,"v":100}},{"type":"Feature","geometry":{"type":"Point","coordinates":[-79.74504,40.6137]},"properties":{"p":"1367F00138000000","a":"CARLISLE ST","m":"Harrison","u":"L","o":"corp","sf":1450,"v":600}},{"type":"Feature","geometry":{"type":"Point","coordinates":[-79.74043,40.62444]},"properties":{"p":"1518G00306000000","a":"PLEASANTVILLE RD","m":"Harrison","u":"L","o":"individual","sf":1750,"v":700}},{"type":"Feature","geometry":{"type":"Point","coordinates":[-79.75489,40.61092]},"properties":{"p":"1366L00121000000","a":"PLEASANT AVE","m":"Harrison","u":"L","o":"individual","sf":3220,"v":1100}},{"type":"Feature","geometry":{"type":"Point","coordinates":[-79.7545,40.61117]},"properties":{"p":"1366L00128000000","a":"PLEASANT AVE","m":"Harrison","u":"L","o":"individual","sf":20000,"v":27400}},{"type":"Feature","geometry":{"type":"Point","coordinates":[-79.75491,40.61143]},"properties":{"p":"1366L00131000000","a":"PLEASANT AVE","m":"Harrison","u":"L","o":"corp","sf":8000,"v":26300}},{"type":"Feature","geometry":{"type":"Point","coordinates":[-79.75509,40.61147]},"properties":{"p":"1366L00132000000","a":"KENTUCKY AVE","m":"Harrison","u":"L","o":"corp","sf":2110,"v":800}},{"type":"Feature","geometry":{"type":"Point","coordinates":[-79.75523,40.61178]},"properties":{"p":"1366L00134000000","a":"KENTUCKY AVE","m":"Harrison","u":"L","o":"corp","sf":9248,"v":3100}},{"type":"Feature","geometry":{"type":"Point","coordinates":[-79.75507,40.61193]},"properties":{"p":"1366L00138000000","a":"KENTUCKY AVE","m":"Harrison","u":"L","o":"corp","sf":21229,"v":6900}},{"type":"Feature","geometry":{"type":"Point","coordinates":[-79.75471,40.6118]},"properties":{"p":"1366L00144000000","a":"KENTUCKY AVE","m":"Harrison","u":"L","o":"corp","sf":5500,"v":1900}},{"type":"Feature","geometry":{"type":"Point","coordinates":[-79.75444,40.61163]},"properties":{"p":"1366L00149000000","a":"KENTUCKY AVE","m":"Harrison","u":"L","o":"individual","sf":5500,"v":1900}},{"type":"Feature","geometry":{"type":"Point","coordinates":[-79.75414,40.61145]},"properties":{"p":"1366L00153000000","a":"KENTUCKY AVE","m":"Harrison","u":"L","o":"individual","sf":5500,"v":1900}},{"type":"Feature","geometry":{"type":"Point","coordinates":[-79.754,40.61136]},"properties":{"p":"1366L00155000000","a":"KENTUCKY AVE","m":"Harrison","u":"L","o":"individual","sf":5500,"v":1900}},{"type":"Feature","geometry":{"type":"Point","coordinates":[-79.74085,40.62236]},"properties":{"p":"1518L00168000000","a":"JUNIATA ST","m":"Harrison","u":"L","o":"individual","sf":7108,"v":2400}},{"type":"Feature","geometry":{"type":"Point","coordinates":[-79.74101,40.62302]},"properties":{"p":"1518L00228000000","a":"PLEASANTVILLE RD","m":"Harrison","u":"L","o":"individual","sf":51183,"v":2500}},{"type":"Feature","geometry":{"type":"Point","coordinates":[-79.74027,40.62188]},"properties":{"p":"1518L00248000000","a":"1717 JUNIATA ST","m":"Harrison","u":"L","o":"individual","sf":4000,"v":1400}},{"type":"Feature","geometry":{"type":"Point","coordinates":[-79.75282,40.61106]},"properties":{"p":"1366M00013000000","a":"EASTON AVE","m":"Harrison","u":"L","o":"individual","sf":5000,"v":1700}},{"type":"Feature","geometry":{"type":"Point","coordinates":[-79.75297,40.61115]},"properties":{"p":"1366M00015000000","a":"EASTON AVE","m":"Harrison","u":"L","o":"individual","sf":5000,"v":1700}},{"type":"Feature","geometry":{"type":"Point","coordinates":[-79.75988,40.62715]},"properties":{"p":"1517B00240000000","a":"METZ RD","m":"Fawn","u":"L","o":"individual","sf":25188,"v":2300}},{"type":"Feature","geometry":{"type":"Point","coordinates":[-79.7526,40.61064]},"properties":{"p":"1366S00135000000","a":"VIRGINIA AVE","m":"Harrison","u":"L","o":"individual","sf":6045,"v":2000}},{"type":"Feature","geometry":{"type":"Point","coordinates":[-79.75094,40.62392]},"properties":{"p":"1517H00228000000","a":"BLACK OAK DR","m":"Fawn","u":"L","o":"individual","sf":32721,"v":2900}},{"type":"Feature","geometry":{"type":"Point","coordinates":[-79.75195,40.6103]},"properties":{"p":"1366S00128000000","a":"VIRGINIA AVE","m":"Harrison","u":"L","o":"individual","sf":4000,"v":1400}},{"type":"Feature","geometry":{"type":"Point","coordinates":[-79.75429,40.61154]},"properties":{"p":"1366L00157000000","a":"KENTUCKY AVE","m":"Harrison","u":"L","o":"individual","sf":5500,"v":1900}},{"type":"Feature","geometry":{"type":"Point","coordinates":[-79.75803,40.61067]},"properties":{"p":"1366R00055000000","a":"DAVIDSON ST","m":"Tarentum","u":"L","o":"corp","sf":5904,"v":1900}},{"type":"Feature","geometry":{"type":"Point","coordinates":[-79.75336,40.61138]},"properties":{"p":"1366M00020000000","a":"EASTON AVE","m":"Harrison","u":"L","o":"individual","sf":5000,"v":1700}},{"type":"Feature","geometry":{"type":"Point","coordinates":[-79.74407,40.62361]},"properties":{"p":"1518F00125000000","a":"PLEASANTVILLE RD","m":"Harrison","u":"L","o":"corp","sf":8400,"v":25500}},{"type":"Feature","geometry":{"type":"Point","coordinates":[-79.7477,40.62776]},"properties":{"p":"1518A00099000000","a":"292 SOBER LN","m":"Fawn","u":"L","o":"individual","sf":11935,"v":1100}},{"type":"Feature","geometry":{"type":"Point","coordinates":[-79.75374,40.61071]},"properties":{"p":"1366S00149000000","a":"PLEASANT AVE","m":"Harrison","u":"L","o":"corp","sf":6338,"v":26100}}]}