{"type":"FeatureCollection","features":[{"type":"Feature","geometry":{"type":"Point","coordinates":[-79.73555,40.4367]},"properties":{"p":"0977M00195000000","a":"WILLIAM PENN HWY","m":"Monroeville","u":"C","o":"corp","sf":151935,"v":105000}},{"type":"Feature","geometry":{"type":"Point","coordinates":[-79.73062,40.43492]},"properties":{"p":"1106N00270000000","a":"OLD WILLIAM PENN HWY","m":"Monroeville","u":"C","o":"corp","sf":38768,"v":0}},{"type":"Feature","geometry":{"type":"Point","coordinates":[-79.73027,40.4325]},"properties":{"p":"1107A00235000000","a":"4733 WILLIAM PENN HWY","m":"Monroeville","u":"C","o":"corp","sf":15950,"v":12800}},{"type":"Feature","geometry":{"type":"Point","coordinates":[-79.72853,40.43285]},"properties":{"p":"1107A00276000000","a":"WILLIAM PENN HWY","m":"Monroeville","u":"C","o":"corp","sf":264845,"v":216900}},{"type":"Feature","geometry":{"type":"Point","coordinates":[-79.73026,40.43151]},"properties":{"p":"1107A00144000000","a":"WILLIAM PENN HWY","m":"Monroeville","u":"C","o":"corp","sf":1263,"v":1000}},{"type":"Feature","geometry":{"type":"Point","coordinates":[-79.73018,40.43045]},"properties":{"p":"1107A00150000000","a":"WILLIAM PENN HWY","m":"Monroeville","u":"C","o":"corp","sf":759120,"v":58600}},{"type":"Feature","geometry":{"type":"Point","coordinates":[-79.72946,40.43498]},"properties":{"p":"1106N00289000000","a":"133 LEVIN WAY","m":"Monroeville","u":"C","o":"corp","sf":303692,"v":7000}},{"type":"Feature","geometry":{"type":"Point","coordinates":[-79.73451,40.43448]},"properties":{"p":"0977S00038000000","a":"WILLIAM PENN HWY","m":"Monroeville","u":"C","o":"corp","sf":787595,"v":1076100}},{"type":"Feature","geometry":{"type":"Point","coordinates":[-79.72603,40.44933]},"properties":{"p":"1105F00151000000","a":"OLD FRANKSTOWN RD","m":"Monroeville","u":"C","o":"individual","sf":415998,"v":30000}},{"type":"Feature","geometry":{"type":"Point","coordinates":[-79.73793,40.43088]},"properties":{"p":"0978G00059000000","a":"LAVALE DR","m":"Monroeville","u":"C","o":"corp","sf":171191,"v":171600}},{"type":"Feature","geometry":{"type":"Point","coordinates":[-79.72266,40.44799]},"properties":{"p":"1105G00145000000","a":"OLD FRANKSTOWN RD","m":"Monroeville","u":"C","o":"individual","sf":415998,"v":45000}},{"type":"Feature","geometry":{"type":"Point","coordinates":[-79.73855,40.43893]},"properties":{"p":"0977L00195000000","a":"WILLIAM PENN HWY","m":"Monroeville","u":"C","o":"corp","sf":777694,"v":114900}},{"type":"Feature","geometry":{"type":"Point","coordinates":[-79.73727,40.43446]},"properties":{"p":"0978C00258000000","a":"NORTHERN PIKE","m":"Monroeville","u":"C","o":"individual","sf":1048925,"v":57200}},{"type":"Feature","geometry":{"type":"Point","coordinates":[-79.72036,40.44044]},"properties":{"p":"1106G00232000000","a":"800 HAWKEYE DR","m":"Monroeville","u":"C","o":"corp","sf":1697750,"v":791700}},{"type":"Feature","geometry":{"type":"Point","coordinates":[-79.72609,40.44628]},"properties":{"p":"1105K00202000000","a":"EDEN DR","m":"Monroeville","u":"L","o":"individual","sf":5712,"v":7100}},{"type":"Feature","geometry":{"type":"Point","coordinates":[-79.73891,40.44039]},"properties":{"p":"0977G00230000000","a":"BURKE DR","m":"Monroeville","u":"L","o":"individual","sf":314,"v":700}},{"type":"Feature","geometry":{"type":"Point","coordinates":[-79.72772,40.4441]},"properties":{"p":"1105P00255000000","a":"HOCHBERG RD","m":"Monroeville","u":"L","o":"individual","sf":16335,"v":30400}},{"type":"Feature","geometry":{"type":"Point","coordinates":[-79.72752,40.44366]},"properties":{"p":"1105P00258000000","a":"HOCHBERG RD","m":"Monroeville","u":"L","o":"individual","sf":149411,"v":42600}},{"type":"Feature","geometry":{"type":"Point","coordinates":[-79.72182,40.43704]},"properties":{"p":"1106L00282000000","a":"ILLINI DR","m":"Monroeville","u":"L","o":"individual","sf":248292,"v":49600}},{"type":"Feature","geometry":{"type":"Point","coordinates":[-79.72291,40.43087]},"properties":{"p":"1107G00002000000","a":"ILLINI DR","m":"Monroeville","u":"L","o":"individual","sf":10468,"v":3000}},{"type":"Feature","geometry":{"type":"Point","coordinates":[-79.72612,40.43348]},"properties":{"p":"1107B00108000000","a":"CORTLAND DR","m":"Monroeville","u":"L","o":"individual","sf":16234,"v":30400}},{"type":"Feature","geometry":{"type":"Point","coordinates":[-79.72592,40.4336]},"properties":{"p":"1106P00067000000","a":"CORTLAND DR","m":"Monroeville","u":"L","o":"individual","sf":13434,"v":10000}},{"type":"Feature","geometry":{"type":"Point","coordinates":[-79.72808,40.43891]},"properties":{"p":"1106F00303000000","a":"ILLINI DR","m":"Monroeville","u":"L","o":"individual","sf":152112,"v":42900}},{"type":"Feature","geometry":{"type":"Point","coordinates":[-79.72784,40.44085]},"properties":{"p":"1106F00385000000","a":"ELLIOTT RD","m":"Monroeville","u":"L","o":"individual","sf":17860,"v":20000}},{"type":"Feature","geometry":{"type":"Point","coordinates":[-79.72195,40.43524]},"properties":{"p":"1106R00351000000","a":"ILLINI DR","m":"Monroeville","u":"L","o":"individual","sf":73616,"v":900}},{"type":"Feature","geometry":{"type":"Point","coordinates":[-79.73218,40.43043]},"properties":{"p":"1107E00198000000","a":"VALERIE CIR","m":"Monroeville","u":"L","o":"individual","sf":6831,"v":600}},{"type":"Feature","geometry":{"type":"Point","coordinates":[-79.73089,40.43586]},"properties":{"p":"1106N00333000000","a":"ELLIOTT RD","m":"Monroeville","u":"L","o":"corp","sf":11369,"v":14200}},{"type":"Feature","geometry":{"type":"Point","coordinates":[-79.72231,40.44934]},"properties":{"p":"1105G00199000000","a":"OLD FRANKSTOWN RD","m":"Plum","u":"L","o":"individual","sf":21979,"v":23900}},{"type":"Feature","geometry":{"type":"Point","coordinates":[-79.73202,40.44914]},"properties":{"p":"1105E00096000000","a":"HOCHBERG RD","m":"Monroeville","u":"L","o":"individual","sf":33320,"v":41900}},{"type":"Feature","geometry":{"type":"Point","coordinates":[-79.72451,40.44846]},"properties":{"p":"1105G00070000000","a":"OLD FRANKSTOWN RD","m":"Monroeville","u":"L","o":"individual","sf":415998,"v":18800}},{"type":"Feature","geometry":{"type":"Point","coordinates":[-79.73453,40.43161]},"properties":{"p":"0978H00061000000","a":"NORTHERN PIKE","m":"Monroeville","u":"L","o":"corp","sf":90169,"v":37200}},{"type":"Feature","geometry":{"type":"Point","coordinates":[-79.73365,40.43144]},"properties":{"p":"0978H00081000000","a":"NORTHERN PIKE","m":"Monroeville","u":"L","o":"corp","sf":169448,"v":44500}},{"type":"Feature","geometry":{"type":"Point","coordinates":[-79.73547,40.43308]},"properties":{"p":"0978D00279000000","a":"NORTHERN PIKE","m":"Monroeville","u":"L","o":"corp","sf":416870,"v":28000}},{"type":"Feature","geometry":{"type":"Point","coordinates":[-79.7353,40.43235]},"properties":{"p":"0978D00289000000","a":"NORTHERN PIKE","m":"Monroeville","u":"L","o":"corp","sf":90300,"v":37200}},{"type":"Feature","geometry":{"type":"Point","coordinates":[-79.73522,40.43199]},"properties":{"p":"0978D00299000000","a":"NORTHERN PIKE","m":"Monroeville","u":"L","o":"corp","sf":90213,"v":37200}},{"type":"Feature","geometry":{"type":"Point","coordinates":[-79.72275,40.43098]},"properties":{"p":"1107C00153000000","a":"ILLINI DR","m":"Monroeville","u":"L","o":"individual","sf":9776,"v":3000}},{"type":"Feature","geometry":{"type":"Point","coordinates":[-79.73088,40.4357]},"properties":{"p":"1106J00112000000","a":"ELLIOTT RD","m":"Monroeville","u":"L","o":"corp","sf":7687,"v":700}},{"type":"Feature","geometry":{"type":"Point","coordinates":[-79.73472,40.43203]},"properties":{"p":"0978H00057000000","a":"NORTHERN PIKE","m":"Monroeville","u":"L","o":"corp","sf":90169,"v":37200}},{"type":"Feature","geometry":{"type":"Point","coordinates":[-79.72516,40.43673]},"properties":{"p":"1106K00114000000","a":"TIMBER TRAIL DR","m":"Monroeville","u":"B","o":"individual","sf":51022,"v":8100}},{"type":"Feature","geometry":{"type":"Point","coordinates":[-79.72495,40.43696]},"properties":{"p":"1106K00116000000","a":"TIMBER TRAIL DR","m":"Monroeville","u":"B","o":"individual","sf":50978,"v":8100}},{"type":"Feature","geometry":{"type":"Point","coordinates":[-79.72486,40.43719]},"properties":{"p":"1106K00118000000","a":"TIMBER TRAIL DR","m":"Monroeville","u":"B","o":"individual","sf":32945,"v":6500}},{"type":"Feature","geometry":{"type":"Point","coordinates":[-79.72536,40.4365]},"properties":{"p":"1106K00112000000","a":"TIMBER TRAIL DR","m":"Monroeville","u":"B","o":"individual","sf":51070,"v":8100}}]}