{"type":"FeatureCollection","features":[{"type":"Feature","geometry":{"type":"Point","coordinates":[-79.73949,40.52749]},"properties":{"p":"0968C00147000000","a":"WEBSTER RD","m":"Plum","u":"L","o":"corp","sf":163350,"v":4100}},{"type":"Feature","geometry":{"type":"Point","coordinates":[-79.73724,40.52179]},"properties":{"p":"0969C00120000000","a":"SARDIS RD","m":"Plum","u":"L","o":"individual","sf":436227,"v":76100}},{"type":"Feature","geometry":{"type":"Point","coordinates":[-79.73332,40.51905]},"properties":{"p":"0969D00007000000","a":"SARDIS RD","m":"Plum","u":"L","o":"corp","sf":20778,"v":29600}},{"type":"Feature","geometry":{"type":"Point","coordinates":[-79.73423,40.51904]},"properties":{"p":"0969D00264000000","a":"SARDIS RD","m":"Plum","u":"L","o":"individual","sf":174240,"v":52000}},{"type":"Feature","geometry":{"type":"Point","coordinates":[-79.73414,40.5208]},"properties":{"p":"0969D00332000000","a":"4680 SARDIS RD","m":"Plum","u":"L","o":"individual","sf":326700,"v":63500}},{"type":"Feature","geometry":{"type":"Point","coordinates":[-79.73757,40.52847]},"properties":{"p":"0967R00035000000","a":"WEBSTER RD","m":"Plum","u":"L","o":"individual","sf":2036430,"v":119400}},{"type":"Feature","geometry":{"type":"Point","coordinates":[-79.7397,40.52999]},"properties":{"p":"0967R00044000000","a":"WEBSTER RD","m":"Plum","u":"L","o":"individual","sf":130680,"v":28000}},{"type":"Feature","geometry":{"type":"Point","coordinates":[-79.73327,40.52725]},"properties":{"p":"0967S00020000000","a":"WEBSTER RD","m":"Plum","u":"L","o":"individual","sf":3970886,"v":182200}},{"type":"Feature","geometry":{"type":"Point","coordinates":[-79.73921,40.52188]},"properties":{"p":"0968R00258000000","a":"SARDIS RD","m":"Plum","u":"L","o":"individual","sf":125958,"v":16100}},{"type":"Feature","geometry":{"type":"Point","coordinates":[-79.72892,40.51801]},"properties":{"p":"1098F00398000000","a":"SARDIS RD","m":"Plum","u":"L","o":"individual","sf":29440,"v":33600}},{"type":"Feature","geometry":{"type":"Point","coordinates":[-79.73033,40.5137]},"properties":{"p":"1098J00104000000","a":"OLD LEECHBURG RD","m":"Plum","u":"L","o":"individual","sf":48787,"v":40500}},{"type":"Feature","geometry":{"type":"Point","coordinates":[-79.73023,40.51397]},"properties":{"p":"1098J00115000000","a":"OLD LEECHBURG RD","m":"Plum","u":"L","o":"individual","sf":48526,"v":15000}},{"type":"Feature","geometry":{"type":"Point","coordinates":[-79.72991,40.51479]},"properties":{"p":"1098J00149000000","a":"1626 OLD LEECHBURG RD","m":"Plum","u":"L","o":"individual","sf":51836,"v":600}},{"type":"Feature","geometry":{"type":"Point","coordinates":[-79.72616,40.51196]},"properties":{"p":"1098P00252000000","a":"LOGANS FERRY RD","m":"Plum","u":"L","o":"individual","sf":167619,"v":12000}},{"type":"Feature","geometry":{"type":"Point","coordinates":[-79.72132,40.51257]},"properties":{"p":"1098R00110000000","a":"4258 SARDIS RD","m":"Plum","u":"L","o":"individual","sf":13852,"v":1300}},{"type":"Feature","geometry":{"type":"Point","coordinates":[-79.7308,40.51276]},"properties":{"p":"1098N00245000000","a":"OLD LEECHBURG RD","m":"Plum","u":"L","o":"individual","sf":87991,"v":44100}},{"type":"Feature","geometry":{"type":"Point","coordinates":[-79.73253,40.51307]},"properties":{"p":"1098N00349000000","a":"LEECHBURG RD","m":"Plum","u":"L","o":"individual","sf":212573,"v":35000}},{"type":"Feature","geometry":{"type":"Point","coordinates":[-79.72923,40.5105]},"properties":{"p":"1098P00112000000","a":"MORRIS DR","m":"Plum","u":"L","o":"individual","sf":361592,"v":24900}},{"type":"Feature","geometry":{"type":"Point","coordinates":[-79.72833,40.51335]},"properties":{"p":"1098P00203000000","a":"OLD LEECHBURG RD","m":"Plum","u":"L","o":"individual","sf":84942,"v":43800}},{"type":"Feature","geometry":{"type":"Point","coordinates":[-79.72965,40.51523]},"properties":{"p":"1098J00162000000","a":"OLD LEECHBURG RD","m":"Plum","u":"L","o":"individual","sf":114650,"v":26500}},{"type":"Feature","geometry":{"type":"Point","coordinates":[-79.72731,40.51493]},"properties":{"p":"1098K00286000000","a":"OLD LEECHBURG RD","m":"Plum","u":"L","o":"individual","sf":286843,"v":18000}},{"type":"Feature","geometry":{"type":"Point","coordinates":[-79.72428,40.51588]},"properties":{"p":"1098L00330000000","a":"4400 SARDIS RD","m":"Plum","u":"L","o":"individual","sf":29185,"v":2600}},{"type":"Feature","geometry":{"type":"Point","coordinates":[-79.72876,40.51594]},"properties":{"p":"1098E00020000000","a":"1634 OLD LEECHBURG RD","m":"Plum","u":"L","o":"individual","sf":43560,"v":4000}},{"type":"Feature","geometry":{"type":"Point","coordinates":[-79.72946,40.51715]},"properties":{"p":"1098E00043000000","a":"OLD LEECHBURG RD","m":"Plum","u":"L","o":"individual","sf":45520,"v":20200}},{"type":"Feature","geometry":{"type":"Point","coordinates":[-79.72147,40.52268]},"properties":{"p":"1097S00395000000","a":"OLD LEECHBURG RD","m":"Plum","u":"L","o":"individual","sf":265716,"v":59300}},{"type":"Feature","geometry":{"type":"Point","coordinates":[-79.73149,40.5186]},"properties":{"p":"1098A00068000000","a":"SARDIS RD","m":"Plum","u":"L","o":"individual","sf":182429,"v":44900}},{"type":"Feature","geometry":{"type":"Point","coordinates":[-79.73202,40.51821]},"properties":{"p":"1098A00077000000","a":"MARCELLUS  DR","m":"Plum","u":"L","o":"individual","sf":43560,"v":4000}},{"type":"Feature","geometry":{"type":"Point","coordinates":[-79.73291,40.51808]},"properties":{"p":"1098A00089000000","a":"MARCELLUS  DR","m":"Plum","u":"L","o":"individual","sf":130680,"v":12000}},{"type":"Feature","geometry":{"type":"Point","coordinates":[-79.73293,40.5191]},"properties":{"p":"1098A00092000000","a":"MARCELLUS  DR","m":"Plum","u":"L","o":"individual","sf":9757,"v":900}},{"type":"Feature","geometry":{"type":"Point","coordinates":[-79.73188,40.5196]},"properties":{"p":"1098A00131000000","a":"SARDIS RD","m":"Plum","u":"L","o":"individual","sf":15829,"v":27300}},{"type":"Feature","geometry":{"type":"Point","coordinates":[-79.72058,40.51068]},"properties":{"p":"1099D00223000000","a":"SARDIS RD","m":"Plum","u":"L","o":"individual","sf":688030,"v":7900}},{"type":"Feature","geometry":{"type":"Point","coordinates":[-79.72173,40.52119]},"properties":{"p":"1097R00100000000","a":"OLD LEECHBURG RD","m":"Plum","u":"L","o":"individual","sf":398574,"v":68500}},{"type":"Feature","geometry":{"type":"Point","coordinates":[-79.72954,40.52032]},"properties":{"p":"1098A00266000000","a":"LOGANS FERRY RD","m":"Plum","u":"L","o":"individual","sf":15032,"v":1400}},{"type":"Feature","geometry":{"type":"Point","coordinates":[-79.72774,40.51907]},"properties":{"p":"1098B00301000000","a":"SARDIS RD","m":"Plum","u":"L","o":"corp","sf":126842,"v":21500}},{"type":"Feature","geometry":{"type":"Point","coordinates":[-79.73292,40.51651]},"properties":{"p":"1098E00234000000","a":"SARDIS RD","m":"Plum","u":"L","o":"individual","sf":164221,"v":31100}},{"type":"Feature","geometry":{"type":"Point","coordinates":[-79.72745,40.51622]},"properties":{"p":"1098F00088000000","a":"OLD LEECHBURG RD","m":"Plum","u":"L","o":"individual","sf":39882,"v":18400}},{"type":"Feature","geometry":{"type":"Point","coordinates":[-79.7276,40.5166]},"properties":{"p":"1098F00133000000","a":"LEECHBURG RD","m":"Plum","u":"L","o":"corp","sf":26400,"v":2400}},{"type":"Feature","geometry":{"type":"Point","coordinates":[-79.73058,40.51908]},"properties":{"p":"1098A00159000000","a":"SARDIS RD","m":"Plum","u":"L","o":"individual","sf":28680,"v":33200}},{"type":"Feature","geometry":{"type":"Point","coordinates":[-79.73051,40.51876]},"properties":{"p":"1098A00166000000","a":"SARDIS RD","m":"Plum","u":"L","o":"individual","sf":53579,"v":23000}},{"type":"Feature","geometry":{"type":"Point","coordinates":[-79.72988,40.51869]},"properties":{"p":"1098A00180000000","a":"4549 SARDIS RD","m":"Plum","u":"L","o":"individual","sf":28314,"v":18400}},{"type":"Feature","geometry":{"type":"Point","coordinates":[-79.72905,40.51835]},"properties":{"p":"1098A00198000000","a":"SARDIS RD","m":"Plum","u":"L","o":"individual","sf":19878,"v":29200}},{"type":"Feature","geometry":{"type":"Point","coordinates":[-79.72798,40.51979]},"properties":{"p":"1098A00206000000","a":"SARDIS RD","m":"Plum","u":"L","o":"individual","sf":81327,"v":12000}},{"type":"Feature","geometry":{"type":"Point","coordinates":[-79.72974,40.5201]},"properties":{"p":"1098A00254000000","a":"SARDIS RD","m":"Plum","u":"L","o":"individual","sf":37810,"v":37400}},{"type":"Feature","geometry":{"type":"Point","coordinates":[-79.73284,40.5107]},"properties":{"p":"0970D00175000000","a":"OLD LEECHBURG RD","m":"Plum","u":"L","o":"individual","sf":116741,"v":46700}},{"type":"Feature","geometry":{"type":"Point","coordinates":[-79.73097,40.5209]},"properties":{"p":"1098A00316000000","a":"FIELD CLUB RD","m":"Plum","u":"L","o":"individual","sf":316376,"v":12300}},{"type":"Feature","geometry":{"type":"Point","coordinates":[-79.73222,40.51929]},"properties":{"p":"1098A00136000000","a":"SARDIS RD","m":"Plum","u":"L","o":"individual","sf":58806,"v":41400}},{"type":"Feature","geometry":{"type":"Point","coordinates":[-79.73029,40.51975]},"properties":{"p":"1098A00241000000","a":"SARDIS RD","m":"Plum","u":"L","o":"individual","sf":37074,"v":15000}},{"type":"Feature","geometry":{"type":"Point","coordinates":[-79.72644,40.51669]},"properties":{"p":"1098F00064000000","a":"LOGANS FERRY RD","m":"Plum","u":"L","o":"individual","sf":33808,"v":3600}},{"type":"Feature","geometry":{"type":"Point","coordinates":[-79.72877,40.51401]},"properties":{"p":"1098J00020000000","a":"OLD LEECHBURG RD","m":"Plum","u":"L","o":"individual","sf":18672,"v":1700}}]}