{"type":"FeatureCollection","features":[{"type":"Feature","geometry":{"type":"Point","coordinates":[-79.72142,40.48492]},"properties":{"p":"1101L00001000000","a":"PET PL","m":"Plum","u":"C","o":"corp","sf":51401,"v":64300}},{"type":"Feature","geometry":{"type":"Point","coordinates":[-79.72191,40.48421]},"properties":{"p":"1101R00350000000","a":"MARIAH DR","m":"Plum","u":"C","o":"corp","sf":28314,"v":4000}},{"type":"Feature","geometry":{"type":"Point","coordinates":[-79.72109,40.484]},"properties":{"p":"1101R00300000000","a":"PET PL","m":"Plum","u":"C","o":"corp","sf":108029,"v":68900}},{"type":"Feature","geometry":{"type":"Point","coordinates":[-79.72473,40.47992]},"properties":{"p":"1102B00088000000","a":"9400 SALTSBURG RD","m":"Plum","u":"C","o":"corp","sf":421660,"v":33600}},{"type":"Feature","geometry":{"type":"Point","coordinates":[-79.73959,40.48982]},"properties":{"p":"0972C00043000000","a":"NEW TEXAS RD","m":"Plum","u":"L","o":"corp","sf":6731,"v":1300}},{"type":"Feature","geometry":{"type":"Point","coordinates":[-79.73799,40.48962]},"properties":{"p":"0972G00095000000","a":"SCARLET DR","m":"Plum","u":"L","o":"corp","sf":223232,"v":40200}},{"type":"Feature","geometry":{"type":"Point","coordinates":[-79.73962,40.4886]},"properties":{"p":"0972G00175000000","a":"SCARLET DR","m":"Plum","u":"L","o":"corp","sf":3913,"v":1900}},{"type":"Feature","geometry":{"type":"Point","coordinates":[-79.7316,40.48013]},"properties":{"p":"1102A00104000000","a":"SALTSBURG RD","m":"Plum","u":"L","o":"individual","sf":7500,"v":18700}},{"type":"Feature","geometry":{"type":"Point","coordinates":[-79.73932,40.48849]},"properties":{"p":"0972G00188000000","a":"NEW TEXAS RD","m":"Plum","u":"L","o":"corp","sf":682,"v":100}},{"type":"Feature","geometry":{"type":"Point","coordinates":[-79.72973,40.48364]},"properties":{"p":"1101N00219000000","a":"RED OAK DR","m":"Plum","u":"L","o":"corp","sf":7000,"v":600}},{"type":"Feature","geometry":{"type":"Point","coordinates":[-79.73315,40.48255]},"properties":{"p":"1101N00221000000","a":"RED OAK DR","m":"Plum","u":"L","o":"corp","sf":8325,"v":800}},{"type":"Feature","geometry":{"type":"Point","coordinates":[-79.7339,40.47884]},"properties":{"p":"0973H00215000000","a":"SALTSBURG RD","m":"Plum","u":"L","o":"individual","sf":1515,"v":1500}},{"type":"Feature","geometry":{"type":"Point","coordinates":[-79.73353,40.47896]},"properties":{"p":"0973H00219000000","a":"SALTSBURG RD","m":"Plum","u":"L","o":"individual","sf":6970,"v":600}},{"type":"Feature","geometry":{"type":"Point","coordinates":[-79.7331,40.4791]},"properties":{"p":"0973H00225000000","a":"SALTSBURG RD","m":"Plum","u":"L","o":"individual","sf":9148,"v":8800}},{"type":"Feature","geometry":{"type":"Point","coordinates":[-79.73398,40.47962]},"properties":{"p":"0973H00246000100","a":"9145 SALTSBURG RD","m":"Plum","u":"L","o":"individual","sf":8015,"v":7700}},{"type":"Feature","geometry":{"type":"Point","coordinates":[-79.73527,40.4799]},"properties":{"p":"0973H00279000000","a":"SALTSBURG RD","m":"Plum","u":"L","o":"individual","sf":84942,"v":29700}},{"type":"Feature","geometry":{"type":"Point","coordinates":[-79.72717,40.48437]},"properties":{"p":"1101R00076000000","a":"SALTSBURG RD","m":"Plum","u":"L","o":"corp","sf":2267372,"v":183100}},{"type":"Feature","geometry":{"type":"Point","coordinates":[-79.73036,40.47997]},"properties":{"p":"1102E00329000000","a":"SALTSBURG RD","m":"Plum","u":"L","o":"individual","sf":47045,"v":26200}},{"type":"Feature","geometry":{"type":"Point","coordinates":[-79.73237,40.48145]},"properties":{"p":"1102A00359000000","a":"RED OAK DR","m":"Plum","u":"L","o":"corp","sf":3528,"v":3400}},{"type":"Feature","geometry":{"type":"Point","coordinates":[-79.73225,40.48129]},"properties":{"p":"1102A00363000000","a":"RED OAK DR","m":"Plum","u":"L","o":"corp","sf":10918,"v":1000}},{"type":"Feature","geometry":{"type":"Point","coordinates":[-79.73427,40.48222]},"properties":{"p":"0972S00020000000","a":"RED OAK DR","m":"Plum","u":"L","o":"corp","sf":5723,"v":700}},{"type":"Feature","geometry":{"type":"Point","coordinates":[-79.73037,40.48369]},"properties":{"p":"1101N00172000000","a":"RED OAK DR","m":"Plum","u":"L","o":"corp","sf":15471,"v":23400}},{"type":"Feature","geometry":{"type":"Point","coordinates":[-79.72139,40.48148]},"properties":{"p":"1102C00105000000","a":"OBLOCK RD","m":"Plum","u":"L","o":"corp","sf":2178,"v":200}},{"type":"Feature","geometry":{"type":"Point","coordinates":[-79.72123,40.48135]},"properties":{"p":"1102C00111000000","a":"9400 SALTSBURG RD","m":"Plum","u":"L","o":"corp","sf":7405,"v":18600}},{"type":"Feature","geometry":{"type":"Point","coordinates":[-79.7238,40.4812]},"properties":{"p":"1102C00242000000","a":"SALTSBURG RD","m":"Plum","u":"L","o":"individual","sf":44000,"v":25900}},{"type":"Feature","geometry":{"type":"Point","coordinates":[-79.72652,40.47534]},"properties":{"p":"1102P00004000000","a":"VICTORIA DR","m":"Plum","u":"L","o":"corp","sf":438932,"v":37500}},{"type":"Feature","geometry":{"type":"Point","coordinates":[-79.73829,40.48462]},"properties":{"p":"0972L00101000000","a":"NEW TEXAS RD","m":"Plum","u":"L","o":"individual","sf":15246,"v":27100}},{"type":"Feature","geometry":{"type":"Point","coordinates":[-79.73867,40.48035]},"properties":{"p":"0973C00192000000","a":"PEBBLE STONE CT","m":"Plum","u":"L","o":"corp","sf":16436,"v":10000}},{"type":"Feature","geometry":{"type":"Point","coordinates":[-79.73952,40.4825]},"properties":{"p":"0973C00219000000","a":"COBBLESTONE DR","m":"Plum","u":"L","o":"corp","sf":27321,"v":16400}},{"type":"Feature","geometry":{"type":"Point","coordinates":[-79.72931,40.47804]},"properties":{"p":"1102E00008000000","a":"CHAVELLE CT","m":"Plum","u":"L","o":"individual","sf":50791,"v":4700}},{"type":"Feature","geometry":{"type":"Point","coordinates":[-79.7344,40.48042]},"properties":{"p":"0973D00105000000","a":"SALTSBURG RD","m":"Plum","u":"L","o":"individual","sf":201683,"v":40400}},{"type":"Feature","geometry":{"type":"Point","coordinates":[-79.72726,40.48056]},"properties":{"p":"1102B00323000000","a":"SALTSBURG RD","m":"Plum","u":"L","o":"individual","sf":84724,"v":29700}},{"type":"Feature","geometry":{"type":"Point","coordinates":[-79.72837,40.48067]},"properties":{"p":"1102B00331000000","a":"SALTSBURG RD","m":"Plum","u":"L","o":"individual","sf":200855,"v":40300}},{"type":"Feature","geometry":{"type":"Point","coordinates":[-79.73032,40.4848]},"properties":{"p":"1101N00241000000","a":"BRIARWOOD LN","m":"Plum","u":"L","o":"corp","sf":122404,"v":2600}},{"type":"Feature","geometry":{"type":"Point","coordinates":[-79.73788,40.47727]},"properties":{"p":"0973G00015000000","a":"9032 SALTSBURG RD","m":"Plum","u":"L","o":"individual","sf":18839,"v":2300}},{"type":"Feature","geometry":{"type":"Point","coordinates":[-79.73814,40.47721]},"properties":{"p":"0973G00020000000","a":"9032 SALTSBURG RD","m":"Plum","u":"L","o":"individual","sf":18162,"v":1600}},{"type":"Feature","geometry":{"type":"Point","coordinates":[-79.73147,40.47569]},"properties":{"p":"1102J00005000000","a":"PARKVIEW DR","m":"Plum","u":"L","o":"corp","sf":34161,"v":100}},{"type":"Feature","geometry":{"type":"Point","coordinates":[-79.73676,40.48446]},"properties":{"p":"0972M00230000000","a":"NEW TEXAS RD","m":"Plum","u":"L","o":"corp","sf":47480,"v":600}},{"type":"Feature","geometry":{"type":"Point","coordinates":[-79.72232,40.48295]},"properties":{"p":"1101R00152000000","a":"9479 SALTSBURG RD","m":"Plum","u":"L","o":"individual","sf":9688,"v":20800}},{"type":"Feature","geometry":{"type":"Point","coordinates":[-79.73211,40.47932]},"properties":{"p":"1102E00364000000","a":"FIRWOOD DR","m":"Plum","u":"L","o":"corp","sf":4875,"v":4700}},{"type":"Feature","geometry":{"type":"Point","coordinates":[-79.73287,40.47948]},"properties":{"p":"1102E00390000000","a":"SALTSBURG RD","m":"Plum","u":"L","o":"individual","sf":8189,"v":5900}},{"type":"Feature","geometry":{"type":"Point","coordinates":[-79.73169,40.48216]},"properties":{"p":"1101N00071000000","a":"SALTSBURG RD","m":"Plum","u":"L","o":"corp","sf":8941,"v":800}},{"type":"Feature","geometry":{"type":"Point","coordinates":[-79.73296,40.48137]},"properties":{"p":"1102A00386000000","a":"WEDGEWOOD DR","m":"Plum","u":"L","o":"individual","sf":6400,"v":600}},{"type":"Feature","geometry":{"type":"Point","coordinates":[-79.73278,40.48145]},"properties":{"p":"1102A00390000000","a":"RED OAK DR","m":"Plum","u":"L","o":"individual","sf":2659,"v":200}},{"type":"Feature","geometry":{"type":"Point","coordinates":[-79.73334,40.47283]},"properties":{"p":"0973S00022000000","a":"NEW TEXAS RD","m":"Plum","u":"L","o":"individual","sf":11666,"v":1100}},{"type":"Feature","geometry":{"type":"Point","coordinates":[-79.7259,40.48026]},"properties":{"p":"1102B00074000000","a":"SALTSBURG RD","m":"Plum","u":"L","o":"individual","sf":49005,"v":26400}},{"type":"Feature","geometry":{"type":"Point","coordinates":[-79.72507,40.48023]},"properties":{"p":"1102B00119000000","a":"9400 SALTSBURG RD","m":"Plum","u":"L","o":"corp","sf":51662,"v":26600}},{"type":"Feature","geometry":{"type":"Point","coordinates":[-79.72552,40.48094]},"properties":{"p":"1102B00133000000","a":"9400 SALTSBURG RD","m":"Plum","u":"L","o":"corp","sf":45738,"v":26100}},{"type":"Feature","geometry":{"type":"Point","coordinates":[-79.73608,40.47821]},"properties":{"p":"0973H00357000000","a":"NEW TEXAS RD","m":"Plum","u":"L","o":"individual","sf":39683,"v":30200}},{"type":"Feature","geometry":{"type":"Point","coordinates":[-79.73897,40.48581]},"properties":{"p":"0972L00158000000","a":"NEW TEXAS RD","m":"Plum","u":"L","o":"individual","sf":65340,"v":42000}},{"type":"Feature","geometry":{"type":"Point","coordinates":[-79.72982,40.48425]},"properties":{"p":"1101N00246000000","a":"RED OAK DR","m":"Plum","u":"L","o":"individual","sf":33106,"v":24900}},{"type":"Feature","geometry":{"type":"Point","coordinates":[-79.73932,40.48966]},"properties":{"p":"0972G00051000000","a":"SEPTEMBER RD","m":"Plum","u":"B","o":"corp","sf":12863,"v":2500}},{"type":"Feature","geometry":{"type":"Point","coordinates":[-79.73127,40.48342]},"properties":{"p":"1101N00188000000","a":"RED OAK DR","m":"Plum","u":"B","o":"individual","sf":10862,"v":3300}},{"type":"Feature","geometry":{"type":"Point","coordinates":[-79.73151,40.48332]},"properties":{"p":"1101N00192000000","a":"RED OAK DR","m":"Plum","u":"B","o":"individual","sf":10345,"v":3300}},{"type":"Feature","geometry":{"type":"Point","coordinates":[-79.73268,40.48281]},"properties":{"p":"1101N00213000000","a":"RED OAK DR","m":"Plum","u":"B","o":"individual","sf":10871,"v":3300}},{"type":"Feature","geometry":{"type":"Point","coordinates":[-79.73302,40.48269]},"properties":{"p":"1101N00217000000","a":"RED OAK DR","m":"Plum","u":"B","o":"individual","sf":14276,"v":3700}},{"type":"Feature","geometry":{"type":"Point","coordinates":[-79.73493,40.48401]},"properties":{"p":"0972S00033000000","a":"325 THORNWOOD DR","m":"Plum","u":"B","o":"corp","sf":10833,"v":1200}},{"type":"Feature","geometry":{"type":"Point","coordinates":[-79.73679,40.483]},"properties":{"p":"0972S00311000000","a":"BRIARWOOD LN","m":"Plum","u":"B","o":"corp","sf":19602,"v":2200}},{"type":"Feature","geometry":{"type":"Point","coordinates":[-79.72924,40.47602]},"properties":{"p":"1102J00043000000","a":"201 VICTORIA DR","m":"Plum","u":"B","o":"corp","sf":58214,"v":5000}},{"type":"Feature","geometry":{"type":"Point","coordinates":[-79.73105,40.4835]},"properties":{"p":"1101N00184000000","a":"RED OAK DR","m":"Plum","u":"B","o":"individual","sf":10605,"v":3300}},{"type":"Feature","geometry":{"type":"Point","coordinates":[-79.73303,40.48403]},"properties":{"p":"1101N00249000000","a":"313 THORNWOOD DR","m":"Plum","u":"B","o":"individual","sf":10380,"v":1200}},{"type":"Feature","geometry":{"type":"Point","coordinates":[-79.73301,40.48311]},"properties":{"p":"0972S00283000000","a":"1745 BRIARWOOD LN","m":"Plum","u":"B","o":"corp","sf":11761,"v":7700}},{"type":"Feature","geometry":{"type":"Point","coordinates":[-79.73381,40.48276]},"properties":{"p":"0972S00291000000","a":"1739 BRIARWOOD LN","m":"Plum","u":"B","o":"corp","sf":13939,"v":7800}},{"type":"Feature","geometry":{"type":"Point","coordinates":[-79.73445,40.48266]},"properties":{"p":"0972S00295000000","a":"1735 BRIARWOOD LN","m":"Plum","u":"B","o":"corp","sf":13504,"v":7800}},{"type":"Feature","geometry":{"type":"Point","coordinates":[-79.73532,40.48273]},"properties":{"p":"0972S00301000000","a":"1729 BRIARWOOD LN","m":"Plum","u":"B","o":"corp","sf":12000,"v":1500}},{"type":"Feature","geometry":{"type":"Point","coordinates":[-79.7297,40.47475]},"properties":{"p":"1102J00021000000","a":"211 VICTORIA DR","m":"Plum","u":"B","o":"corp","sf":15028,"v":1200}},{"type":"Feature","geometry":{"type":"Point","coordinates":[-79.72971,40.47506]},"properties":{"p":"1102J00022000000","a":"209 VICTORIA DR","m":"Plum","u":"B","o":"corp","sf":15012,"v":1200}},{"type":"Feature","geometry":{"type":"Point","coordinates":[-79.72971,40.47535]},"properties":{"p":"1102J00023000000","a":"207 VICTORIA DR","m":"Plum","u":"B","o":"corp","sf":15139,"v":1200}},{"type":"Feature","geometry":{"type":"Point","coordinates":[-79.73276,40.48322]},"properties":{"p":"1101N00228000000","a":"1747 BRIARWOOD LN","m":"Plum","u":"B","o":"corp","sf":11761,"v":7700}},{"type":"Feature","geometry":{"type":"Point","coordinates":[-79.73252,40.48333]},"properties":{"p":"1101N00230000000","a":"1749 BRIARWOOD LN","m":"Plum","u":"B","o":"corp","sf":11761,"v":7700}},{"type":"Feature","geometry":{"type":"Point","coordinates":[-79.73227,40.48345]},"properties":{"p":"1101N00232000000","a":"1751 BRIARWOOD LN","m":"Plum","u":"B","o":"corp","sf":11761,"v":7700}},{"type":"Feature","geometry":{"type":"Point","coordinates":[-79.73203,40.48356]},"properties":{"p":"1101N00234000000","a":"1753 BRIARWOOD LN","m":"Plum","u":"B","o":"corp","sf":11761,"v":7700}},{"type":"Feature","geometry":{"type":"Point","coordinates":[-79.73177,40.48368]},"properties":{"p":"1101N00236000000","a":"1755 BRIARWOOD LN","m":"Plum","u":"B","o":"corp","sf":13503,"v":6500}},{"type":"Feature","geometry":{"type":"Point","coordinates":[-79.72966,40.47437]},"properties":{"p":"1102N00020000000","a":"213 VICTORIA DR","m":"Plum","u":"B","o":"corp","sf":23117,"v":2000}},{"type":"Feature","geometry":{"type":"Point","coordinates":[-79.73408,40.48327]},"properties":{"p":"0972S00040000000","a":"1736 BRIARWOOD LN","m":"Plum","u":"B","o":"corp","sf":10454,"v":7700}},{"type":"Feature","geometry":{"type":"Point","coordinates":[-79.73385,40.48336]},"properties":{"p":"0972S00042000000","a":"1738 BRIARWOOD LN","m":"Plum","u":"B","o":"corp","sf":11326,"v":7700}},{"type":"Feature","geometry":{"type":"Point","coordinates":[-79.73558,40.48394]},"properties":{"p":"0972S00365000000","a":"328 THISTLE CT","m":"Plum","u":"B","o":"corp","sf":10890,"v":1000}},{"type":"Feature","geometry":{"type":"Point","coordinates":[-79.73565,40.48369]},"properties":{"p":"0972S00367000000","a":"THISTLE CT","m":"Plum","u":"B","o":"corp","sf":10454,"v":1000}},{"type":"Feature","geometry":{"type":"Point","coordinates":[-79.73208,40.47409]},"properties":{"p":"1102N00001000000","a":"PARKVIEW DR","m":"Plum","u":"B","o":"corp","sf":368809,"v":14000}},{"type":"Feature","geometry":{"type":"Point","coordinates":[-79.73285,40.48384]},"properties":{"p":"1101N00251000000","a":"314 THORNWOOD DR","m":"Plum","u":"B","o":"individual","sf":11740,"v":1200}},{"type":"Feature","geometry":{"type":"Point","coordinates":[-79.73434,40.48318]},"properties":{"p":"0972S00038000000","a":"1734 BRIARWOOD LN","m":"Plum","u":"B","o":"corp","sf":9583,"v":7700}},{"type":"Feature","geometry":{"type":"Point","coordinates":[-79.73128,40.48418]},"properties":{"p":"1101N00240000000","a":"1756 BRIARWOOD LN","m":"Plum","u":"B","o":"corp","sf":21340,"v":8200}}]}