{"type":"FeatureCollection","features":[{"type":"Feature","geometry":{"type":"Point","coordinates":[-79.7243,40.41049]},"properties":{"p":"1109G00353000000","a":"ABERS CREEK RD","m":"Monroeville","u":"C","o":"corp","sf":8712,"v":42300}},{"type":"Feature","geometry":{"type":"Point","coordinates":[-79.72728,40.42918]},"properties":{"p":"1107F00331000000","a":"WILLIAM PENN HWY","m":"Monroeville","u":"C","o":"corp","sf":33097,"v":291000}},{"type":"Feature","geometry":{"type":"Point","coordinates":[-79.72474,40.42598]},"properties":{"p":"1107L00206000000","a":"NORTHERN PIKE","m":"Monroeville","u":"C","o":"individual","sf":222984,"v":76400}},{"type":"Feature","geometry":{"type":"Point","coordinates":[-79.72411,40.42622]},"properties":{"p":"1107L00210000000","a":"NORTHERN PIKE","m":"Monroeville","u":"C","o":"individual","sf":39204,"v":22500}},{"type":"Feature","geometry":{"type":"Point","coordinates":[-79.7209,40.41613]},"properties":{"p":"1108R00077000000","a":"CAVITT RD","m":"Monroeville","u":"C","o":"corp","sf":17238,"v":57400}},{"type":"Feature","geometry":{"type":"Point","coordinates":[-79.72862,40.4292]},"properties":{"p":"1107F00101000000","a":"WILLIAM PENN HWY","m":"Monroeville","u":"C","o":"corp","sf":22707,"v":18200}},{"type":"Feature","geometry":{"type":"Point","coordinates":[-79.72678,40.42861]},"properties":{"p":"1107F00322000000","a":"WILLIAM PENN HWY","m":"Monroeville","u":"C","o":"corp","sf":32670,"v":288600}},{"type":"Feature","geometry":{"type":"Point","coordinates":[-79.72769,40.42833]},"properties":{"p":"1107K00198000000","a":"NORTHERN PIKE","m":"Monroeville","u":"C","o":"individual","sf":200049,"v":34400}},{"type":"Feature","geometry":{"type":"Point","coordinates":[-79.7333,40.41815]},"properties":{"p":"0979H00317000000","a":"MCGINLEY RD","m":"Monroeville","u":"C","o":"corp","sf":868556,"v":103100}},{"type":"Feature","geometry":{"type":"Point","coordinates":[-79.72132,40.42665]},"properties":{"p":"1107L00019000000","a":"WILLIAM PENN HWY","m":"Monroeville","u":"C","o":"corp","sf":40405,"v":10600}},{"type":"Feature","geometry":{"type":"Point","coordinates":[-79.73754,40.41308]},"properties":{"p":"0980C00015000000","a":"OLD SAUNDER STATION RD","m":"Monroeville","u":"L","o":"individual","sf":3049,"v":3800}},{"type":"Feature","geometry":{"type":"Point","coordinates":[-79.73731,40.41289]},"properties":{"p":"0980C00016000000","a":"OLD SAUNDER STATION RD","m":"Monroeville","u":"L","o":"individual","sf":1307,"v":100}},{"type":"Feature","geometry":{"type":"Point","coordinates":[-79.73741,40.41307]},"properties":{"p":"0980C00013000000","a":"SAUNDERS STATION RD","m":"Monroeville","u":"L","o":"individual","sf":5136,"v":6400}},{"type":"Feature","geometry":{"type":"Point","coordinates":[-79.73202,40.42213]},"properties":{"p":"1108A00307000000","a":"SANDY DR","m":"Monroeville","u":"L","o":"corp","sf":157644,"v":43400}},{"type":"Feature","geometry":{"type":"Point","coordinates":[-79.73118,40.42873]},"properties":{"p":"1107E00054000000","a":"NORTHERN PIKE","m":"Monroeville","u":"L","o":"individual","sf":5813,"v":500}},{"type":"Feature","geometry":{"type":"Point","coordinates":[-79.72917,40.42489]},"properties":{"p":"1107J00132000000","a":"NORTHERN PIKE","m":"Monroeville","u":"L","o":"corp","sf":1596300,"v":90600}},{"type":"Feature","geometry":{"type":"Point","coordinates":[-79.72339,40.41692]},"properties":{"p":"1108R00189000000","a":"ABERS CREEK RD","m":"Monroeville","u":"L","o":"individual","sf":289674,"v":18200}},{"type":"Feature","geometry":{"type":"Point","coordinates":[-79.73218,40.42041]},"properties":{"p":"1108E00185000000","a":"SANDY DR","m":"Monroeville","u":"L","o":"individual","sf":37793,"v":32300}},{"type":"Feature","geometry":{"type":"Point","coordinates":[-79.73202,40.42028]},"properties":{"p":"1108E00190000000","a":"SANDY DR","m":"Monroeville","u":"L","o":"corp","sf":38332,"v":3500}},{"type":"Feature","geometry":{"type":"Point","coordinates":[-79.73186,40.42014]},"properties":{"p":"1108E00198000000","a":"SANDY DR","m":"Monroeville","u":"L","o":"individual","sf":38768,"v":17400}},{"type":"Feature","geometry":{"type":"Point","coordinates":[-79.73173,40.41999]},"properties":{"p":"1108E00206000000","a":"SANDY DR","m":"Monroeville","u":"L","o":"individual","sf":39813,"v":3600}},{"type":"Feature","geometry":{"type":"Point","coordinates":[-79.73166,40.41978]},"properties":{"p":"1108E00214000000","a":"SANDY DR","m":"Monroeville","u":"L","o":"individual","sf":40486,"v":7700}},{"type":"Feature","geometry":{"type":"Point","coordinates":[-79.73159,40.41958]},"properties":{"p":"1108E00220000000","a":"SANDY DR","m":"Monroeville","u":"L","o":"individual","sf":41157,"v":8000}},{"type":"Feature","geometry":{"type":"Point","coordinates":[-79.72566,40.42827]},"properties":{"p":"1107K00202000000","a":"OLD WILLIAM PENN HWY","m":"Monroeville","u":"L","o":"corp","sf":104344,"v":3600}},{"type":"Feature","geometry":{"type":"Point","coordinates":[-79.72803,40.42198]},"properties":{"p":"1108B00342000000","a":"BERT DR","m":"Monroeville","u":"L","o":"individual","sf":21000,"v":30800}},{"type":"Feature","geometry":{"type":"Point","coordinates":[-79.73066,40.42749]},"properties":{"p":"1107J00210000000","a":"BERT DR","m":"Monroeville","u":"L","o":"individual","sf":1625,"v":200}},{"type":"Feature","geometry":{"type":"Point","coordinates":[-79.73235,40.41788]},"properties":{"p":"1108J00387000000","a":"MCGINLEY RD","m":"Monroeville","u":"L","o":"corp","sf":348,"v":300}},{"type":"Feature","geometry":{"type":"Point","coordinates":[-79.72181,40.41896]},"properties":{"p":"1108L00084000000","a":"LUZERNE DR","m":"Monroeville","u":"L","o":"individual","sf":21579,"v":30900}},{"type":"Feature","geometry":{"type":"Point","coordinates":[-79.7249,40.42379]},"properties":{"p":"1108B00015000000","a":"ABERS CREEK RD","m":"Monroeville","u":"L","o":"individual","sf":16099,"v":30400}},{"type":"Feature","geometry":{"type":"Point","coordinates":[-79.72493,40.42323]},"properties":{"p":"1108B00028000000","a":"ABERS CREEK RD","m":"Monroeville","u":"L","o":"individual","sf":17835,"v":30500}},{"type":"Feature","geometry":{"type":"Point","coordinates":[-79.725,40.41135]},"properties":{"p":"1109F00385000000","a":"PENNSYLVANIA TURNPIKE","m":"Monroeville","u":"L","o":"corp","sf":199505,"v":95100}},{"type":"Feature","geometry":{"type":"Point","coordinates":[-79.7315,40.42852]},"properties":{"p":"1107J00167000000","a":"BERT DR","m":"Monroeville","u":"L","o":"individual","sf":23153,"v":2100}},{"type":"Feature","geometry":{"type":"Point","coordinates":[-79.73137,40.42838]},"properties":{"p":"1107J00176000000","a":"BERT DR","m":"Monroeville","u":"L","o":"corp","sf":4966,"v":500}},{"type":"Feature","geometry":{"type":"Point","coordinates":[-79.73105,40.428]},"properties":{"p":"1107J00185000000","a":"BERT DR","m":"Monroeville","u":"L","o":"individual","sf":27679,"v":31400}},{"type":"Feature","geometry":{"type":"Point","coordinates":[-79.73925,40.41436]},"properties":{"p":"0979R00230000000","a":"SAUNDERS STATION RD","m":"Monroeville","u":"L","o":"individual","sf":11490,"v":29400}},{"type":"Feature","geometry":{"type":"Point","coordinates":[-79.73489,40.42014]},"properties":{"p":"0979H00184000000","a":"MCGINLEY RD","m":"Monroeville","u":"L","o":"corp","sf":87338,"v":36900}},{"type":"Feature","geometry":{"type":"Point","coordinates":[-79.7341,40.41081]},"properties":{"p":"0980D00293000000","a":"SAUNDERS STATION RD","m":"Monroeville","u":"L","o":"corp","sf":146710,"v":2000}},{"type":"Feature","geometry":{"type":"Point","coordinates":[-79.73647,40.41227]},"properties":{"p":"0980D00283000000","a":"SAUNDERS STATION RD","m":"Monroeville","u":"L","o":"corp","sf":32365,"v":2000}},{"type":"Feature","geometry":{"type":"Point","coordinates":[-79.73574,40.41195]},"properties":{"p":"0980D00287000000","a":"SAUNDERS STATION RD","m":"Monroeville","u":"L","o":"corp","sf":54886,"v":2000}},{"type":"Feature","geometry":{"type":"Point","coordinates":[-79.73533,40.41155]},"properties":{"p":"0980D00289000000","a":"SAUNDERS STATION RD","m":"Monroeville","u":"L","o":"corp","sf":101887,"v":2000}},{"type":"Feature","geometry":{"type":"Point","coordinates":[-79.73506,40.427]},"properties":{"p":"0978M00184000000","a":"W PATTY LN","m":"Monroeville","u":"L","o":"individual","sf":68259,"v":35200}},{"type":"Feature","geometry":{"type":"Point","coordinates":[-79.73609,40.4122]},"properties":{"p":"0980D00285000000","a":"SAUNDERS STATION RD","m":"Monroeville","u":"L","o":"corp","sf":39291,"v":2000}},{"type":"Feature","geometry":{"type":"Point","coordinates":[-79.72086,40.42967]},"properties":{"p":"1107H00325000000","a":"GOLDEN MILE HWY","m":"Monroeville","u":"L","o":"corp","sf":407151,"v":14000}},{"type":"Feature","geometry":{"type":"Point","coordinates":[-79.7239,40.4183]},"properties":{"p":"1108L00231000000","a":"ABERS CREEK RD","m":"Monroeville","u":"L","o":"individual","sf":293028,"v":10200}},{"type":"Feature","geometry":{"type":"Point","coordinates":[-79.73469,40.41131]},"properties":{"p":"0980D00291000000","a":"SAUNDERS STATION RD","m":"Monroeville","u":"L","o":"corp","sf":118222,"v":2000}},{"type":"Feature","geometry":{"type":"Point","coordinates":[-79.72078,40.42509]},"properties":{"p":"1107R00110000000","a":"ALPINE VILLAGE DR","m":"Monroeville","u":"L","o":"individual","sf":639896,"v":58600}},{"type":"Feature","geometry":{"type":"Point","coordinates":[-79.72837,40.4205]},"properties":{"p":"1108F00329000000","a":"LOLLY DR","m":"Monroeville","u":"B","o":"individual","sf":9600,"v":4100}},{"type":"Feature","geometry":{"type":"Point","coordinates":[-79.72853,40.42029]},"properties":{"p":"1108F00331000000","a":"LOLLY DR","m":"Monroeville","u":"B","o":"individual","sf":15600,"v":4900}},{"type":"Feature","geometry":{"type":"Point","coordinates":[-79.72883,40.42006]},"properties":{"p":"1108F00333000000","a":"LOLLY DR","m":"Monroeville","u":"B","o":"individual","sf":13200,"v":4700}},{"type":"Feature","geometry":{"type":"Point","coordinates":[-79.73109,40.41034]},"properties":{"p":"1109E00032000000","a":"BEL AIRE DR","m":"Monroeville","u":"B","o":"corp","sf":24263,"v":2000}},{"type":"Feature","geometry":{"type":"Point","coordinates":[-79.72215,40.41604]},"properties":{"p":"1108R00184000000","a":"ABERS CREEK RD","m":"Monroeville","u":"B","o":"individual","sf":36154,"v":3600}},{"type":"Feature","geometry":{"type":"Point","coordinates":[-79.72248,40.41555]},"properties":{"p":"1108R00186000000","a":"CAVITT RD","m":"Monroeville","u":"B","o":"individual","sf":33105,"v":6500}},{"type":"Feature","geometry":{"type":"Point","coordinates":[-79.72156,40.41735]},"properties":{"p":"1108L00178000000","a":"ABERS CREEK RD","m":"Monroeville","u":"B","o":"individual","sf":36590,"v":3600}},{"type":"Feature","geometry":{"type":"Point","coordinates":[-79.72155,40.41689]},"properties":{"p":"1108L00180000000","a":"ABERS CREEK RD","m":"Monroeville","u":"B","o":"individual","sf":54885,"v":4000}},{"type":"Feature","geometry":{"type":"Point","coordinates":[-79.72195,40.41638]},"properties":{"p":"1108L00182000000","a":"ABERS CREEK RD","m":"Monroeville","u":"B","o":"individual","sf":35719,"v":3600}},{"type":"Feature","geometry":{"type":"Point","coordinates":[-79.7322,40.41104]},"properties":{"p":"1109E00040000000","a":"URICK LN","m":"Monroeville","u":"B","o":"individual","sf":11413,"v":6600}},{"type":"Feature","geometry":{"type":"Point","coordinates":[-79.73268,40.41103]},"properties":{"p":"1109E00044000000","a":"SAUNDERS STATION RD","m":"Monroeville","u":"B","o":"corp","sf":50704,"v":2000}},{"type":"Feature","geometry":{"type":"Point","coordinates":[-79.73312,40.41135]},"properties":{"p":"1109E00046000000","a":"SAUNDERS STATION RD","m":"Monroeville","u":"B","o":"corp","sf":39944,"v":2000}},{"type":"Feature","geometry":{"type":"Point","coordinates":[-79.7319,40.41118]},"properties":{"p":"1109E00042000000","a":"URICK LN","m":"Monroeville","u":"B","o":"corp","sf":24524,"v":2000}}]}