{"type":"FeatureCollection","features":[{"type":"Feature","geometry":{"type":"Point","coordinates":[-79.7357,40.60815]},"properties":{"p":"1224D00176000000","a":"6TH AVE","m":"Brackenridge","u":"I","o":"individual","sf":1555,"v":400}},{"type":"Feature","geometry":{"type":"Point","coordinates":[-79.73424,40.60723]},"properties":{"p":"1224D00265000000","a":"100 RIVER AVE","m":"Brackenridge","u":"I","o":"corp","sf":230868,"v":216800}},{"type":"Feature","geometry":{"type":"Point","coordinates":[-79.73572,40.60714]},"properties":{"p":"1224D00089000000","a":"MCINTIRE WAY","m":"Brackenridge","u":"I","o":"corp","sf":35573,"v":7000}},{"type":"Feature","geometry":{"type":"Point","coordinates":[-79.73546,40.60734]},"properties":{"p":"1224D00100000000","a":"MILE LOCK LN","m":"Brackenridge","u":"I","o":"corp","sf":29472,"v":22100}},{"type":"Feature","geometry":{"type":"Point","coordinates":[-79.73557,40.60754]},"properties":{"p":"1224D00104000000","a":"5TH AVE","m":"Brackenridge","u":"I","o":"corp","sf":19014,"v":4200}},{"type":"Feature","geometry":{"type":"Point","coordinates":[-79.73597,40.60741]},"properties":{"p":"1224D00115000000","a":"5TH AVE","m":"Brackenridge","u":"I","o":"corp","sf":11421,"v":2100}},{"type":"Feature","geometry":{"type":"Point","coordinates":[-79.73645,40.60728]},"properties":{"p":"1224D00125000000","a":"5TH AVE","m":"Brackenridge","u":"I","o":"corp","sf":29068,"v":2600}},{"type":"Feature","geometry":{"type":"Point","coordinates":[-79.72423,40.60922]},"properties":{"p":"1368R00040000000","a":"102 RIVER AVE","m":"Harrison","u":"I","o":"corp","sf":90126,"v":28900}},{"type":"Feature","geometry":{"type":"Point","coordinates":[-79.73445,40.60528]},"properties":{"p":"1224H00213000000","a":"NELSON AVE","m":"Brackenridge","u":"C","o":"corp","sf":1500,"v":900}},{"type":"Feature","geometry":{"type":"Point","coordinates":[-79.73439,40.60503]},"properties":{"p":"1224H00215000000","a":"MILE LOCK LN","m":"Brackenridge","u":"C","o":"corp","sf":5900,"v":1100}},{"type":"Feature","geometry":{"type":"Point","coordinates":[-79.73621,40.60451]},"properties":{"p":"1224H00249000000","a":"STIEREN AVE","m":"Brackenridge","u":"C","o":"corp","sf":21620,"v":28500}},{"type":"Feature","geometry":{"type":"Point","coordinates":[-79.73425,40.60475]},"properties":{"p":"1224H00314000000","a":"MILE LOCK LN","m":"Brackenridge","u":"C","o":"corp","sf":2791,"v":11500}},{"type":"Feature","geometry":{"type":"Point","coordinates":[-79.73423,40.60461]},"properties":{"p":"1224H00316000000","a":"MILE LOCK LN","m":"Brackenridge","u":"C","o":"corp","sf":3422,"v":12100}},{"type":"Feature","geometry":{"type":"Point","coordinates":[-79.7351,40.60677]},"properties":{"p":"1224D00044000000","a":"MILE LOCK LN","m":"Brackenridge","u":"C","o":"corp","sf":5781,"v":13500}},{"type":"Feature","geometry":{"type":"Point","coordinates":[-79.73518,40.60696]},"properties":{"p":"1224D00047000000","a":"MILE LOCK LN","m":"Brackenridge","u":"C","o":"corp","sf":5904,"v":13700}},{"type":"Feature","geometry":{"type":"Point","coordinates":[-79.73528,40.60693]},"properties":{"p":"1224D00049000000","a":"MCINTIRE WAY","m":"Brackenridge","u":"C","o":"corp","sf":1781,"v":8100}},{"type":"Feature","geometry":{"type":"Point","coordinates":[-79.73594,40.60889]},"properties":{"p":"1367S00282000000","a":"MILE LOCK LN","m":"Brackenridge","u":"C","o":"corp","sf":24880,"v":6000}},{"type":"Feature","geometry":{"type":"Point","coordinates":[-79.73588,40.60617]},"properties":{"p":"1224H00004000000","a":"BRACKENRIDGE AVE","m":"Brackenridge","u":"C","o":"individual","sf":5124,"v":16300}},{"type":"Feature","geometry":{"type":"Point","coordinates":[-79.73646,40.60599]},"properties":{"p":"1224H00015000000","a":"BRACKENRIDGE AVE","m":"Brackenridge","u":"C","o":"corp","sf":3976,"v":3600}},{"type":"Feature","geometry":{"type":"Point","coordinates":[-79.73898,40.60526]},"properties":{"p":"1224G00269000000","a":"1009 BRACKENRIDGE AVE","m":"Brackenridge","u":"C","o":"individual","sf":7904,"v":16100}},{"type":"Feature","geometry":{"type":"Point","coordinates":[-79.73832,40.60546]},"properties":{"p":"1224G00261000000","a":"BRACKENRIDGE AVE","m":"Brackenridge","u":"C","o":"individual","sf":4864,"v":11800}},{"type":"Feature","geometry":{"type":"Point","coordinates":[-79.73167,40.60733]},"properties":{"p":"1225A00175000000","a":"100 RIVER AVE","m":"Harrison","u":"C","o":"corp","sf":11935,"v":2900}},{"type":"Feature","geometry":{"type":"Point","coordinates":[-79.73597,40.60405]},"properties":{"p":"1224H00285000000","a":"STIEREN AVE","m":"Brackenridge","u":"L","o":"individual","sf":4357,"v":9400}},{"type":"Feature","geometry":{"type":"Point","coordinates":[-79.73687,40.60801]},"properties":{"p":"1224D00185000000","a":"6TH AVE","m":"Brackenridge","u":"L","o":"corp","sf":6233,"v":18100}},{"type":"Feature","geometry":{"type":"Point","coordinates":[-79.73654,40.60433]},"properties":{"p":"1224H00251000000","a":"STIEREN AVE","m":"Brackenridge","u":"L","o":"individual","sf":3619,"v":8600}},{"type":"Feature","geometry":{"type":"Point","coordinates":[-79.735,40.60597]},"properties":{"p":"1224H00093000000","a":"1124 -1126 BRACKENRIDGE AVE","m":"Brackenridge","u":"L","o":"individual","sf":4080,"v":9100}},{"type":"Feature","geometry":{"type":"Point","coordinates":[-79.73721,40.60624]},"properties":{"p":"1224D00074000000","a":"MCINTIRE WAY","m":"Brackenridge","u":"L","o":"individual","sf":292,"v":200}},{"type":"Feature","geometry":{"type":"Point","coordinates":[-79.73816,40.60459]},"properties":{"p":"1224G00230000000","a":"BRACKENRIDGE AVE","m":"Brackenridge","u":"L","o":"corp","sf":5783,"v":10100}},{"type":"Feature","geometry":{"type":"Point","coordinates":[-79.73489,40.606]},"properties":{"p":"1224H00095000000","a":"1124 -1126 BRACKENRIDGE AVE","m":"Brackenridge","u":"L","o":"individual","sf":4200,"v":9200}},{"type":"Feature","geometry":{"type":"Point","coordinates":[-79.73651,40.6069]},"properties":{"p":"1224D00085000000","a":"MCINTIRE WAY","m":"Brackenridge","u":"L","o":"corp","sf":3996,"v":1200}},{"type":"Feature","geometry":{"type":"Point","coordinates":[-79.73629,40.60696]},"properties":{"p":"1224D00087000000","a":"MCINTIRE WAY","m":"Brackenridge","u":"L","o":"corp","sf":4108,"v":9100}},{"type":"Feature","geometry":{"type":"Point","coordinates":[-79.73951,40.60443]},"properties":{"p":"1224G00131000000","a":"MORGAN ST","m":"Brackenridge","u":"L","o":"individual","sf":2746,"v":2800}},{"type":"Feature","geometry":{"type":"Point","coordinates":[-79.73957,40.60433]},"properties":{"p":"1224G00132000000","a":"MORGAN ST","m":"Brackenridge","u":"L","o":"individual","sf":1860,"v":600}},{"type":"Feature","geometry":{"type":"Point","coordinates":[-79.7395,40.60412]},"properties":{"p":"1224G00138000000","a":"NELSON AVE","m":"Brackenridge","u":"L","o":"individual","sf":2800,"v":900}},{"type":"Feature","geometry":{"type":"Point","coordinates":[-79.73614,40.60409]},"properties":{"p":"1224H00349000000","a":"1ST AVE","m":"Brackenridge","u":"L","o":"individual","sf":5648,"v":5100}},{"type":"Feature","geometry":{"type":"Point","coordinates":[-79.73594,40.60673]},"properties":{"p":"1224D00059000000","a":"MCINTIRE WAY","m":"Brackenridge","u":"L","o":"individual","sf":3206,"v":8200}},{"type":"Feature","geometry":{"type":"Point","coordinates":[-79.73602,40.6067]},"properties":{"p":"1224D00060000000","a":"MCINTIRE WAY","m":"Brackenridge","u":"L","o":"individual","sf":392,"v":200}},{"type":"Feature","geometry":{"type":"Point","coordinates":[-79.73625,40.60666]},"properties":{"p":"1224D00064000000","a":"MCINTIRE WAY","m":"Brackenridge","u":"L","o":"individual","sf":2475,"v":800}},{"type":"Feature","geometry":{"type":"Point","coordinates":[-79.73651,40.60645]},"properties":{"p":"1224D00067000000","a":"1080 MCINTIRE WAY","m":"Brackenridge","u":"L","o":"individual","sf":5073,"v":10000}},{"type":"Feature","geometry":{"type":"Point","coordinates":[-79.73682,40.60636]},"properties":{"p":"1224D00070000000","a":"1072 MCINTIRE WAY","m":"Brackenridge","u":"L","o":"individual","sf":3047,"v":3100}},{"type":"Feature","geometry":{"type":"Point","coordinates":[-79.73717,40.6044]},"properties":{"p":"1224H00170000000","a":"NELSON AVE","m":"Brackenridge","u":"L","o":"individual","sf":3029,"v":8000}},{"type":"Feature","geometry":{"type":"Point","coordinates":[-79.73742,40.60896]},"properties":{"p":"1367R00359000000","a":"716 OHIO ST","m":"Brackenridge","u":"L","o":"individual","sf":982,"v":400}},{"type":"Feature","geometry":{"type":"Point","coordinates":[-79.73899,40.60334]},"properties":{"p":"1224L00058000000","a":"MORGAN ST","m":"Brackenridge","u":"L","o":"individual","sf":8105,"v":10300}},{"type":"Feature","geometry":{"type":"Point","coordinates":[-79.73586,40.60938]},"properties":{"p":"1367S00294000000","a":"MILE LOCK LN","m":"Brackenridge","u":"L","o":"individual","sf":2249,"v":800}},{"type":"Feature","geometry":{"type":"Point","coordinates":[-79.73605,40.60925]},"properties":{"p":"1367S00283000000","a":"714 KENTUCKY ST","m":"Brackenridge","u":"L","o":"individual","sf":4038,"v":1300}},{"type":"Feature","geometry":{"type":"Point","coordinates":[-79.73969,40.60983]},"properties":{"p":"1367R00176000000","a":"1046 9TH AVE","m":"Brackenridge","u":"L","o":"individual","sf":4025,"v":16300}},{"type":"Feature","geometry":{"type":"Point","coordinates":[-79.73902,40.60959]},"properties":{"p":"1367R00239000000","a":"8TH AVE","m":"Brackenridge","u":"L","o":"individual","sf":4800,"v":17600}},{"type":"Feature","geometry":{"type":"Point","coordinates":[-79.73801,40.60593]},"properties":{"p":"1224G00305000000","a":"MCINTIRE WAY","m":"Brackenridge","u":"L","o":"individual","sf":5621,"v":3000}},{"type":"Feature","geometry":{"type":"Point","coordinates":[-79.73794,40.60791]},"properties":{"p":"1224C00101000000","a":"6TH AVE","m":"Brackenridge","u":"L","o":"individual","sf":4686,"v":17400}},{"type":"Feature","geometry":{"type":"Point","coordinates":[-79.73816,40.60789]},"properties":{"p":"1224C00104000000","a":"6TH AVE","m":"Brackenridge","u":"L","o":"individual","sf":7142,"v":18200}},{"type":"Feature","geometry":{"type":"Point","coordinates":[-79.73948,40.60736]},"properties":{"p":"1224C00118000000","a":"6TH AVE","m":"Brackenridge","u":"L","o":"corp","sf":4945,"v":17900}},{"type":"Feature","geometry":{"type":"Point","coordinates":[-79.73992,40.6073]},"properties":{"p":"1224C00124000000","a":"1027 6TH AVE","m":"Brackenridge","u":"L","o":"individual","sf":3840,"v":1300}},{"type":"Feature","geometry":{"type":"Point","coordinates":[-79.73854,40.60583]},"properties":{"p":"1224G00297000000","a":"1024 MCINTIRE WAY","m":"Brackenridge","u":"L","o":"individual","sf":5690,"v":1700}},{"type":"Feature","geometry":{"type":"Point","coordinates":[-79.73749,40.60796]},"properties":{"p":"1224C00097000000","a":"6TH AVE","m":"Brackenridge","u":"L","o":"corp","sf":4948,"v":17900}},{"type":"Feature","geometry":{"type":"Point","coordinates":[-79.73776,40.60793]},"properties":{"p":"1224C00099000000","a":"6TH AVE","m":"Brackenridge","u":"L","o":"individual","sf":3366,"v":1100}},{"type":"Feature","geometry":{"type":"Point","coordinates":[-79.73934,40.60529]},"properties":{"p":"1224G00272000000","a":"BRACKENRIDGE AVE","m":"Brackenridge","u":"L","o":"individual","sf":2064,"v":7100}},{"type":"Feature","geometry":{"type":"Point","coordinates":[-79.73956,40.60515]},"properties":{"p":"1224G00276000000","a":"BRACKENRIDGE AVE","m":"Brackenridge","u":"L","o":"individual","sf":3780,"v":5000}},{"type":"Feature","geometry":{"type":"Point","coordinates":[-79.73729,40.60576]},"properties":{"p":"1224H00035000000","a":"BRACKENRIDGE AVE","m":"Brackenridge","u":"L","o":"individual","sf":7000,"v":2100}},{"type":"Feature","geometry":{"type":"Point","coordinates":[-79.73745,40.60515]},"properties":{"p":"1224G00244000000","a":"BRACKENRIDGE AVE","m":"Brackenridge","u":"L","o":"individual","sf":11242,"v":8500}},{"type":"Feature","geometry":{"type":"Point","coordinates":[-79.73745,40.60572]},"properties":{"p":"1224G00249000000","a":"BRACKENRIDGE AVE","m":"Brackenridge","u":"L","o":"individual","sf":5840,"v":13600}},{"type":"Feature","geometry":{"type":"Point","coordinates":[-79.74,40.60716]},"properties":{"p":"1224C00125000000","a":"6TH AVE","m":"Brackenridge","u":"L","o":"individual","sf":1551,"v":500}},{"type":"Feature","geometry":{"type":"Point","coordinates":[-79.73867,40.60793]},"properties":{"p":"1224C00136000000","a":"NESBIT AVE","m":"Brackenridge","u":"L","o":"corp","sf":3948,"v":1300}},{"type":"Feature","geometry":{"type":"Point","coordinates":[-79.73899,40.60794]},"properties":{"p":"1224C00141000000","a":"NESBIT AVE","m":"Brackenridge","u":"L","o":"corp","sf":15500,"v":19000}},{"type":"Feature","geometry":{"type":"Point","coordinates":[-79.73924,40.60787]},"properties":{"p":"1224C00142000000","a":"NESBIT AVE","m":"Brackenridge","u":"L","o":"individual","sf":3180,"v":1100}},{"type":"Feature","geometry":{"type":"Point","coordinates":[-79.7398,40.60769]},"properties":{"p":"1224C00149000000","a":"NESBIT AVE","m":"Brackenridge","u":"L","o":"individual","sf":2963,"v":1000}},{"type":"Feature","geometry":{"type":"Point","coordinates":[-79.73987,40.60757]},"properties":{"p":"1224C00150000000","a":"NESBIT AVE","m":"Brackenridge","u":"L","o":"individual","sf":1000,"v":400}},{"type":"Feature","geometry":{"type":"Point","coordinates":[-79.722,40.60976]},"properties":{"p":"1368R00255000000","a":"123 RIVER AVE","m":"Harrison","u":"L","o":"corp","sf":3546,"v":1400}},{"type":"Feature","geometry":{"type":"Point","coordinates":[-79.72292,40.60954]},"properties":{"p":"1368R00104000000","a":"LINDEN ST","m":"Harrison","u":"L","o":"corp","sf":1525,"v":400}},{"type":"Feature","geometry":{"type":"Point","coordinates":[-79.73491,40.60966]},"properties":{"p":"1367S00192000000","a":"OUTLOOK ST","m":"Harrison","u":"L","o":"individual","sf":3000,"v":1100}},{"type":"Feature","geometry":{"type":"Point","coordinates":[-79.73335,40.60956]},"properties":{"p":"1367S00230000000","a":"ARGONNE DR","m":"Harrison","u":"L","o":"individual","sf":6000,"v":26100}},{"type":"Feature","geometry":{"type":"Point","coordinates":[-79.72278,40.60947]},"properties":{"p":"1368R00101000000","a":"LINDEN ST","m":"Harrison","u":"L","o":"individual","sf":1675,"v":400}},{"type":"Feature","geometry":{"type":"Point","coordinates":[-79.72283,40.60949]},"properties":{"p":"1368R00102000000","a":"LINDEN ST","m":"Harrison","u":"L","o":"individual","sf":1550,"v":400}},{"type":"Feature","geometry":{"type":"Point","coordinates":[-79.72287,40.60952]},"properties":{"p":"1368R00103000000","a":"LINDEN ST","m":"Harrison","u":"L","o":"corp","sf":1525,"v":400}},{"type":"Feature","geometry":{"type":"Point","coordinates":[-79.73215,40.60983]},"properties":{"p":"1368N00179000000","a":"ARGONNE DR","m":"Harrison","u":"L","o":"individual","sf":3000,"v":1100}},{"type":"Feature","geometry":{"type":"Point","coordinates":[-79.73279,40.60966]},"properties":{"p":"1368N00221000000","a":"ARGONNE DR","m":"Harrison","u":"L","o":"individual","sf":21000,"v":18900}},{"type":"Feature","geometry":{"type":"Point","coordinates":[-79.72312,40.60889]},"properties":{"p":"1368R00077000000","a":"SYCAMORE ST","m":"Harrison","u":"L","o":"individual","sf":4800,"v":3900}},{"type":"Feature","geometry":{"type":"Point","coordinates":[-79.73599,40.60982]},"properties":{"p":"1367S00129000000","a":"8TH AVE","m":"Brackenridge","u":"L","o":"corp","sf":4500,"v":17100}},{"type":"Feature","geometry":{"type":"Point","coordinates":[-79.73758,40.60568]},"properties":{"p":"1224G00251000000","a":"BRACKENRIDGE AVE","m":"Brackenridge","u":"L","o":"individual","sf":5390,"v":12800}},{"type":"Feature","geometry":{"type":"Point","coordinates":[-79.73885,40.6053]},"properties":{"p":"1224G00267000000","a":"1009 BRACKENRIDGE AVE","m":"Brackenridge","u":"L","o":"individual","sf":3800,"v":1200}},{"type":"Feature","geometry":{"type":"Point","coordinates":[-79.73565,40.60395]},"properties":{"p":"1224H00342000000","a":"1065 1ST AVE","m":"Brackenridge","u":"L","o":"individual","sf":1530,"v":6500}},{"type":"Feature","geometry":{"type":"Point","coordinates":[-79.73847,40.60973]},"properties":{"p":"1367R00248000000","a":"1067 8TH AVE","m":"Brackenridge","u":"L","o":"individual","sf":4500,"v":1500}},{"type":"Feature","geometry":{"type":"Point","coordinates":[-79.73583,40.60842]},"properties":{"p":"1224D00201000000","a":"PENN ST","m":"Brackenridge","u":"L","o":"individual","sf":15669,"v":19000}},{"type":"Feature","geometry":{"type":"Point","coordinates":[-79.73448,40.60496]},"properties":{"p":"1224H00211000000","a":"NELSON AVE","m":"Brackenridge","u":"L","o":"individual","sf":1602,"v":600}},{"type":"Feature","geometry":{"type":"Point","coordinates":[-79.72412,40.60979]},"properties":{"p":"1368R00055000000","a":"SYCAMORE ST","m":"Harrison","u":"L","o":"individual","sf":7800,"v":4300}},{"type":"Feature","geometry":{"type":"Point","coordinates":[-79.73348,40.60953]},"properties":{"p":"1367S00229000000","a":"OUTLOOK ST","m":"Harrison","u":"L","o":"individual","sf":3000,"v":1100}},{"type":"Feature","geometry":{"type":"Point","coordinates":[-79.73602,40.6065]},"properties":{"p":"1224D00032000000","a":"ORCHARD WAY","m":"Brackenridge","u":"L","o":"individual","sf":3224,"v":1000}},{"type":"Feature","geometry":{"type":"Point","coordinates":[-79.7361,40.60668]},"properties":{"p":"1224D00063000000","a":"MCINTIRE WAY","m":"Brackenridge","u":"L","o":"individual","sf":2850,"v":900}}]}