{"type":"FeatureCollection","features":[{"type":"Feature","geometry":{"type":"Point","coordinates":[-79.72749,40.66106]},"properties":{"p":"2203K00200000000","a":"SAXONBURG RD","m":"Fawn","u":"L","o":"corp","sf":245069,"v":44800}},{"type":"Feature","geometry":{"type":"Point","coordinates":[-79.72853,40.654]},"properties":{"p":"2020F00366000000","a":"3769 DONNELLVILLE RD","m":"Fawn","u":"L","o":"individual","sf":26891,"v":2400}},{"type":"Feature","geometry":{"type":"Point","coordinates":[-79.72297,40.66832]},"properties":{"p":"2394R00246000000","a":"STATE ROUTE 908","m":"Fawn","u":"L","o":"individual","sf":14300,"v":9300}},{"type":"Feature","geometry":{"type":"Point","coordinates":[-79.73925,40.66738]},"properties":{"p":"2393R00087000000","a":"2300 STATE ROUTE 908","m":"Fawn","u":"L","o":"individual","sf":40000,"v":3600}},{"type":"Feature","geometry":{"type":"Point","coordinates":[-79.73835,40.6675]},"properties":{"p":"2393R00114000000","a":"2112 STATE ROUTE 908","m":"Fawn","u":"L","o":"individual","sf":80150,"v":31500}},{"type":"Feature","geometry":{"type":"Point","coordinates":[-79.73759,40.66753]},"properties":{"p":"2393R00141000000","a":"2112 STATE ROUTE 908","m":"Fawn","u":"L","o":"individual","sf":78408,"v":31400}},{"type":"Feature","geometry":{"type":"Point","coordinates":[-79.7214,40.66788]},"properties":{"p":"2394R00299000000","a":"STATE ROUTE 908","m":"Fawn","u":"L","o":"individual","sf":160000,"v":38900}},{"type":"Feature","geometry":{"type":"Point","coordinates":[-79.72616,40.66441]},"properties":{"p":"2203F00285000000","a":"SAXONBURG RD","m":"Fawn","u":"L","o":"corp","sf":1821897,"v":131700}},{"type":"Feature","geometry":{"type":"Point","coordinates":[-79.72771,40.6558]},"properties":{"p":"2020B00133000000","a":"2121 SAXONBURG RD","m":"Fawn","u":"L","o":"corp","sf":31906,"v":27100}},{"type":"Feature","geometry":{"type":"Point","coordinates":[-79.72728,40.65506]},"properties":{"p":"2020B00167000000","a":"1983 SAXONBURG RD","m":"Fawn","u":"L","o":"corp","sf":66647,"v":30300}},{"type":"Feature","geometry":{"type":"Point","coordinates":[-79.73152,40.65247]},"properties":{"p":"2020E00003000000","a":"DONNELLVILLE RD","m":"Fawn","u":"L","o":"individual","sf":102192,"v":9400}},{"type":"Feature","geometry":{"type":"Point","coordinates":[-79.7283,40.66749]},"properties":{"p":"2394P00290000000","a":"1116 STATE ROUTE 908","m":"Fawn","u":"L","o":"individual","sf":6534,"v":600}},{"type":"Feature","geometry":{"type":"Point","coordinates":[-79.72841,40.66852]},"properties":{"p":"2394P00305000000","a":"1116 STATE ROUTE 908","m":"Fawn","u":"L","o":"individual","sf":30230,"v":2700}},{"type":"Feature","geometry":{"type":"Point","coordinates":[-79.73952,40.66737]},"properties":{"p":"2393R00081000000","a":"2300 STATE ROUTE 908","m":"Fawn","u":"L","o":"individual","sf":7500,"v":700}},{"type":"Feature","geometry":{"type":"Point","coordinates":[-79.72367,40.66827]},"properties":{"p":"2394R00209000000","a":"STATE ROUTE 908","m":"Fawn","u":"L","o":"individual","sf":13068,"v":1200}},{"type":"Feature","geometry":{"type":"Point","coordinates":[-79.72298,40.66732]},"properties":{"p":"2394R00223000000","a":"STATE ROUTE 908","m":"Fawn","u":"L","o":"individual","sf":199592,"v":29500}},{"type":"Feature","geometry":{"type":"Point","coordinates":[-79.73092,40.66545]},"properties":{"p":"2203A00183000000","a":"206 FREEDOM LN","m":"Fawn","u":"L","o":"individual","sf":2000,"v":200}},{"type":"Feature","geometry":{"type":"Point","coordinates":[-79.72472,40.66648]},"properties":{"p":"2203C00328000000","a":"STATE ROUTE 908","m":"Fawn","u":"L","o":"individual","sf":21857,"v":2000}},{"type":"Feature","geometry":{"type":"Point","coordinates":[-79.72997,40.65819]},"properties":{"p":"2203N00073000000","a":"SAXONBURG RD","m":"Fawn","u":"L","o":"individual","sf":127718,"v":35900}},{"type":"Feature","geometry":{"type":"Point","coordinates":[-79.73179,40.65894]},"properties":{"p":"2203N00084000000","a":"629 KUHNS LN","m":"Fawn","u":"L","o":"individual","sf":16128,"v":1500}},{"type":"Feature","geometry":{"type":"Point","coordinates":[-79.7294,40.66823]},"properties":{"p":"2394N00374000000","a":"STATE ROUTE 908","m":"Fawn","u":"L","o":"individual","sf":87120,"v":32200}},{"type":"Feature","geometry":{"type":"Point","coordinates":[-79.7339,40.6589]},"properties":{"p":"2202M00026000000","a":"PRINGLE LN","m":"Fawn","u":"L","o":"individual","sf":304920,"v":17000}},{"type":"Feature","geometry":{"type":"Point","coordinates":[-79.73416,40.66745]},"properties":{"p":"2393S00097000000","a":"STATE ROUTE 908","m":"Fawn","u":"L","o":"individual","sf":45302,"v":500}},{"type":"Feature","geometry":{"type":"Point","coordinates":[-79.73383,40.6673]},"properties":{"p":"2393S00101000000","a":"STATE ROUTE 908","m":"Fawn","u":"L","o":"individual","sf":21213,"v":1900}},{"type":"Feature","geometry":{"type":"Point","coordinates":[-79.73183,40.66541]},"properties":{"p":"2203A00053000000","a":"SAXONBURG RD","m":"Fawn","u":"L","o":"corp","sf":248510,"v":32000}},{"type":"Feature","geometry":{"type":"Point","coordinates":[-79.73944,40.65068]},"properties":{"p":"2019L00305000000","a":"BACHMAN RD","m":"Fawn","u":"L","o":"individual","sf":168577,"v":39600}},{"type":"Feature","geometry":{"type":"Point","coordinates":[-79.73287,40.66901]},"properties":{"p":"2393S00128000000","a":"MATTHEWS LN","m":"Fawn","u":"L","o":"individual","sf":28800,"v":2600}},{"type":"Feature","geometry":{"type":"Point","coordinates":[-79.7336,40.6686]},"properties":{"p":"2393S00140000000","a":"MATTHEWS LN","m":"Fawn","u":"L","o":"corp","sf":14400,"v":1300}},{"type":"Feature","geometry":{"type":"Point","coordinates":[-79.73248,40.65845]},"properties":{"p":"2203J00090000000","a":"SAXONBURG RD","m":"Fawn","u":"L","o":"individual","sf":217800,"v":44200}},{"type":"Feature","geometry":{"type":"Point","coordinates":[-79.73347,40.66524]},"properties":{"p":"2202D00038000000","a":"STATE ROUTE 908","m":"Fawn","u":"L","o":"individual","sf":130680,"v":1500}},{"type":"Feature","geometry":{"type":"Point","coordinates":[-79.72997,40.66885]},"properties":{"p":"2394N00298000000","a":"STANGLER DR","m":"Fawn","u":"L","o":"individual","sf":20281,"v":1800}},{"type":"Feature","geometry":{"type":"Point","coordinates":[-79.73016,40.6685]},"properties":{"p":"2394N00304000000","a":"STANGLER DR","m":"Fawn","u":"L","o":"individual","sf":11827,"v":1100}},{"type":"Feature","geometry":{"type":"Point","coordinates":[-79.7303,40.6682]},"properties":{"p":"2394N00308000000","a":"STANGLER DR","m":"Fawn","u":"L","o":"corp","sf":5760,"v":500}},{"type":"Feature","geometry":{"type":"Point","coordinates":[-79.73047,40.66848]},"properties":{"p":"2394N00312000000","a":"STANGLER DR","m":"Fawn","u":"L","o":"individual","sf":9760,"v":900}},{"type":"Feature","geometry":{"type":"Point","coordinates":[-79.72938,40.66743]},"properties":{"p":"2394N00210000000","a":"STATE ROUTE 908","m":"Fawn","u":"L","o":"individual","sf":45128,"v":28300}},{"type":"Feature","geometry":{"type":"Point","coordinates":[-79.73145,40.66799]},"properties":{"p":"2394N00244000000","a":"223 EKASTOWN RD","m":"Fawn","u":"L","o":"individual","sf":19665,"v":1800}},{"type":"Feature","geometry":{"type":"Point","coordinates":[-79.73748,40.66813]},"properties":{"p":"2393S00307000000","a":"STATE ROUTE 908","m":"Fawn","u":"L","o":"individual","sf":462041,"v":31600}},{"type":"Feature","geometry":{"type":"Point","coordinates":[-79.72149,40.6544]},"properties":{"p":"2020G00194000000","a":"STOBERT LN","m":"Harrison","u":"L","o":"individual","sf":8861,"v":800}},{"type":"Feature","geometry":{"type":"Point","coordinates":[-79.72116,40.65451]},"properties":{"p":"2020G00201000000","a":"STOBERT LN","m":"Harrison","u":"L","o":"individual","sf":21778,"v":2000}},{"type":"Feature","geometry":{"type":"Point","coordinates":[-79.72215,40.65067]},"properties":{"p":"2020L00170000000","a":"SAXONBURG RD","m":"Harrison","u":"L","o":"individual","sf":165092,"v":44100}},{"type":"Feature","geometry":{"type":"Point","coordinates":[-79.7241,40.65239]},"properties":{"p":"2020G00020000000","a":"SAXONBURG RD","m":"Harrison","u":"L","o":"individual","sf":23697,"v":2100}},{"type":"Feature","geometry":{"type":"Point","coordinates":[-79.72347,40.65244]},"properties":{"p":"2020G00053000000","a":"SAXONBURG RD","m":"Harrison","u":"L","o":"corp","sf":108029,"v":38800}},{"type":"Feature","geometry":{"type":"Point","coordinates":[-79.72361,40.65345]},"properties":{"p":"2020G00063000000","a":"ALTER RD","m":"Harrison","u":"L","o":"corp","sf":43996,"v":32900}},{"type":"Feature","geometry":{"type":"Point","coordinates":[-79.72267,40.65412]},"properties":{"p":"2020G00109000000","a":"125 STOBERT LN","m":"Harrison","u":"L","o":"individual","sf":25460,"v":11000}},{"type":"Feature","geometry":{"type":"Point","coordinates":[-79.72245,40.66]},"properties":{"p":"2203L00045000000","a":"SAXONBURG RD","m":"Harrison","u":"L","o":"corp","sf":116305,"v":27100}},{"type":"Feature","geometry":{"type":"Point","coordinates":[-79.72291,40.65528]},"properties":{"p":"2020C00205000000","a":"ALTER RD","m":"Harrison","u":"L","o":"individual","sf":60113,"v":34400}},{"type":"Feature","geometry":{"type":"Point","coordinates":[-79.72396,40.6544]},"properties":{"p":"2020G00015000000","a":"ALTER RD","m":"Harrison","u":"L","o":"individual","sf":159865,"v":1000}},{"type":"Feature","geometry":{"type":"Point","coordinates":[-79.72392,40.66712]},"properties":{"p":"2394R00207000000","a":"STATE ROUTE 908","m":"Fawn","u":"L","o":"individual","sf":96877,"v":33100}},{"type":"Feature","geometry":{"type":"Point","coordinates":[-79.73446,40.66564]},"properties":{"p":"2393S00035000000","a":"STOEBENER LN","m":"Fawn","u":"L","o":"individual","sf":202336,"v":11000}},{"type":"Feature","geometry":{"type":"Point","coordinates":[-79.72083,40.66499]},"properties":{"p":"2203D00001000000","a":"JOLLY HILL RD","m":"Fawn","u":"L","o":"individual","sf":146139,"v":12000}},{"type":"Feature","geometry":{"type":"Point","coordinates":[-79.73315,40.66925]},"properties":{"p":"2393M00030000000","a":"MATTHEWS LN","m":"Fawn","u":"L","o":"corp","sf":14400,"v":1300}},{"type":"Feature","geometry":{"type":"Point","coordinates":[-79.73332,40.66742]},"properties":{"p":"2394N00112000000","a":"PAINTER AVE","m":"Fawn","u":"L","o":"individual","sf":41262,"v":3700}},{"type":"Feature","geometry":{"type":"Point","coordinates":[-79.72976,40.65791]},"properties":{"p":"2203N00052000000","a":"KUHNS LN","m":"Fawn","u":"L","o":"individual","sf":43560,"v":28200}}]}