{"type":"FeatureCollection","features":[{"type":"Feature","geometry":{"type":"Point","coordinates":[-79.73167,40.63386]},"properties":{"p":"1678E00068000000","a":"COAL","m":"Harrison","u":"I","o":"corp","sf":8000,"v":1100}},{"type":"Feature","geometry":{"type":"Point","coordinates":[-79.7322,40.63361]},"properties":{"p":"1678E00072000000","a":"COAL","m":"Harrison","u":"I","o":"corp","sf":8880,"v":1200}},{"type":"Feature","geometry":{"type":"Point","coordinates":[-79.73266,40.63317]},"properties":{"p":"1678E00106000000","a":"PRIVATE RD","m":"Harrison","u":"I","o":"corp","sf":1268,"v":200}},{"type":"Feature","geometry":{"type":"Point","coordinates":[-79.73129,40.63367]},"properties":{"p":"1678E00176000000","a":"COAL","m":"Harrison","u":"I","o":"corp","sf":6059,"v":900}},{"type":"Feature","geometry":{"type":"Point","coordinates":[-79.73187,40.63496]},"properties":{"p":"1678E00005000000","a":"COAL","m":"Harrison","u":"I","o":"corp","sf":36590,"v":5100}},{"type":"Feature","geometry":{"type":"Point","coordinates":[-79.72955,40.63078]},"properties":{"p":"1678J00152000000","a":"BURTNER RD","m":"Harrison","u":"I","o":"corp","sf":5952,"v":800}},{"type":"Feature","geometry":{"type":"Point","coordinates":[-79.73002,40.63132]},"properties":{"p":"1678J00176000000","a":"BURTNER RD","m":"Harrison","u":"I","o":"corp","sf":41164,"v":5800}},{"type":"Feature","geometry":{"type":"Point","coordinates":[-79.72634,40.63422]},"properties":{"p":"1678F00114000000","a":"HAWTHORNE ST","m":"Harrison","u":"C","o":"corp","sf":182952,"v":154400}},{"type":"Feature","geometry":{"type":"Point","coordinates":[-79.72739,40.63008]},"properties":{"p":"1678K00212000000","a":"GOLFVIEW DR","m":"Harrison","u":"C","o":"corp","sf":30623,"v":5500}},{"type":"Feature","geometry":{"type":"Point","coordinates":[-79.73364,40.63446]},"properties":{"p":"1677H00070000000","a":"COAL","m":"Harrison","u":"C","o":"corp","sf":243500,"v":30900}},{"type":"Feature","geometry":{"type":"Point","coordinates":[-79.73238,40.63452]},"properties":{"p":"1678E00038000000","a":"COAL","m":"Harrison","u":"C","o":"corp","sf":108900,"v":30600}},{"type":"Feature","geometry":{"type":"Point","coordinates":[-79.7324,40.63395]},"properties":{"p":"1678E00053000000","a":"COAL","m":"Harrison","u":"C","o":"corp","sf":24000,"v":4300}},{"type":"Feature","geometry":{"type":"Point","coordinates":[-79.7309,40.63399]},"properties":{"p":"1678E00205000000","a":"COAL","m":"Harrison","u":"C","o":"corp","sf":49179,"v":25700}},{"type":"Feature","geometry":{"type":"Point","coordinates":[-79.73069,40.63485]},"properties":{"p":"1678E00220000000","a":"COAL","m":"Harrison","u":"C","o":"corp","sf":109597,"v":36600}},{"type":"Feature","geometry":{"type":"Point","coordinates":[-79.7335,40.63337]},"properties":{"p":"1677H00105000000","a":"COAL","m":"Harrison","u":"C","o":"corp","sf":51836,"v":17500}},{"type":"Feature","geometry":{"type":"Point","coordinates":[-79.7333,40.63293]},"properties":{"p":"1677M00005000000","a":"COAL","m":"Harrison","u":"C","o":"corp","sf":11172,"v":2000}},{"type":"Feature","geometry":{"type":"Point","coordinates":[-79.73664,40.63157]},"properties":{"p":"1677S00252000001","a":"PLEASANTVILLE RD","m":"Harrison","u":"C","o":"corp","sf":864971,"v":36500}},{"type":"Feature","geometry":{"type":"Point","coordinates":[-79.72023,40.63854]},"properties":{"p":"1845S00032000000","a":"MEADOW ST","m":"Harrison","u":"C","o":"corp","sf":160,"v":500}},{"type":"Feature","geometry":{"type":"Point","coordinates":[-79.73858,40.63826]},"properties":{"p":"1844R00035000000","a":"BURTNER RD","m":"Fawn","u":"L","o":"individual","sf":174240,"v":16000}},{"type":"Feature","geometry":{"type":"Point","coordinates":[-79.73206,40.64946]},"properties":{"p":"2020J00125000000","a":"3082 DONNELLVILLE RD","m":"Fawn","u":"L","o":"individual","sf":21954,"v":2000}},{"type":"Feature","geometry":{"type":"Point","coordinates":[-79.7366,40.64262]},"properties":{"p":"1844G00008000000","a":"BURTNER RD","m":"Fawn","u":"L","o":"individual","sf":260489,"v":21000}},{"type":"Feature","geometry":{"type":"Point","coordinates":[-79.73899,40.64999]},"properties":{"p":"2019L00326000000","a":"DONNELLVILLE RD","m":"Fawn","u":"L","o":"individual","sf":77101,"v":31200}},{"type":"Feature","geometry":{"type":"Point","coordinates":[-79.73869,40.6499]},"properties":{"p":"2019L00330000000","a":"DONNELLVILLE RD","m":"Fawn","u":"L","o":"individual","sf":142006,"v":37200}},{"type":"Feature","geometry":{"type":"Point","coordinates":[-79.73867,40.64058]},"properties":{"p":"1844M00373000000","a":"BURTNER RD","m":"Fawn","u":"L","o":"individual","sf":218236,"v":44200}},{"type":"Feature","geometry":{"type":"Point","coordinates":[-79.73747,40.64581]},"properties":{"p":"1844G00096000000","a":"BURTNER RD","m":"Fawn","u":"L","o":"individual","sf":51227,"v":600}},{"type":"Feature","geometry":{"type":"Point","coordinates":[-79.73608,40.64465]},"properties":{"p":"1844H00361000000","a":"BURTNER RD","m":"Fawn","u":"L","o":"individual","sf":19233,"v":1700}},{"type":"Feature","geometry":{"type":"Point","coordinates":[-79.7371,40.64414]},"properties":{"p":"1844H00374000000","a":"BURTNER RD","m":"Fawn","u":"L","o":"individual","sf":21650,"v":2000}},{"type":"Feature","geometry":{"type":"Point","coordinates":[-79.73622,40.6372]},"properties":{"p":"1677D00316000000","a":"BURTNER RD","m":"Fawn","u":"L","o":"individual","sf":58118,"v":8500}},{"type":"Feature","geometry":{"type":"Point","coordinates":[-79.73379,40.63723]},"properties":{"p":"1678A00015000000","a":"COAL","m":"Fawn","u":"L","o":"corp","sf":364946,"v":47500}},{"type":"Feature","geometry":{"type":"Point","coordinates":[-79.72582,40.633]},"properties":{"p":"1678F00088000000","a":"1505 HAWTHORNE ST","m":"Harrison","u":"L","o":"individual","sf":10871,"v":13500}},{"type":"Feature","geometry":{"type":"Point","coordinates":[-79.7239,40.63446]},"properties":{"p":"1678G00080000000","a":"SYLVAN AVE","m":"Harrison","u":"L","o":"individual","sf":26544,"v":27900}},{"type":"Feature","geometry":{"type":"Point","coordinates":[-79.72001,40.63562]},"properties":{"p":"1678H00258000000","a":"DAVIS ST","m":"Harrison","u":"L","o":"individual","sf":65340,"v":31500}},{"type":"Feature","geometry":{"type":"Point","coordinates":[-79.72029,40.63351]},"properties":{"p":"1678H00281000000","a":"1239 DAVIS ST","m":"Harrison","u":"L","o":"individual","sf":13500,"v":4400}},{"type":"Feature","geometry":{"type":"Point","coordinates":[-79.72448,40.63094]},"properties":{"p":"1678L00021000000","a":"MELROSE AVE","m":"Harrison","u":"L","o":"individual","sf":13560,"v":26800}},{"type":"Feature","geometry":{"type":"Point","coordinates":[-79.72294,40.63725]},"properties":{"p":"1678C00120000000","a":"BROOK ALY","m":"Harrison","u":"L","o":"individual","sf":66211,"v":31600}},{"type":"Feature","geometry":{"type":"Point","coordinates":[-79.72271,40.63515]},"properties":{"p":"1678G00315000000","a":"1736 SYLVAN AVE","m":"Harrison","u":"L","o":"individual","sf":2395,"v":900}},{"type":"Feature","geometry":{"type":"Point","coordinates":[-79.72022,40.63086]},"properties":{"p":"1678M00316000000","a":"1523 CAROLINE ST","m":"Harrison","u":"L","o":"individual","sf":4864,"v":1700}},{"type":"Feature","geometry":{"type":"Point","coordinates":[-79.7243,40.63205]},"properties":{"p":"1678L00055000000","a":"MELROSE AVE","m":"Harrison","u":"L","o":"individual","sf":10649,"v":26500}},{"type":"Feature","geometry":{"type":"Point","coordinates":[-79.72394,40.6387]},"properties":{"p":"1845R00280000000","a":"STATE ROUTE 28","m":"Harrison","u":"L","o":"corp","sf":30056,"v":31600}},{"type":"Feature","geometry":{"type":"Point","coordinates":[-79.72457,40.63871]},"properties":{"p":"1845R00305000000","a":"STATE ROUTE 28","m":"Harrison","u":"L","o":"individual","sf":76666,"v":7000}},{"type":"Feature","geometry":{"type":"Point","coordinates":[-79.72055,40.63887]},"properties":{"p":"1845S00010000000","a":"MEADOW ST","m":"Harrison","u":"L","o":"individual","sf":6325,"v":26100}},{"type":"Feature","geometry":{"type":"Point","coordinates":[-79.72468,40.63496]},"properties":{"p":"1678F00022000000","a":"MELROSE AVE","m":"Harrison","u":"L","o":"individual","sf":12804,"v":26700}},{"type":"Feature","geometry":{"type":"Point","coordinates":[-79.72468,40.63527]},"properties":{"p":"1678F00024000000","a":"MELROSE AVE","m":"Harrison","u":"L","o":"individual","sf":19360,"v":14500}},{"type":"Feature","geometry":{"type":"Point","coordinates":[-79.72454,40.63348]},"properties":{"p":"1678F00010000000","a":"MELROSE AVE","m":"Harrison","u":"L","o":"individual","sf":43560,"v":4000}},{"type":"Feature","geometry":{"type":"Point","coordinates":[-79.72456,40.63413]},"properties":{"p":"1678F00015000000","a":"MELROSE AVE","m":"Harrison","u":"L","o":"individual","sf":43560,"v":500}},{"type":"Feature","geometry":{"type":"Point","coordinates":[-79.72231,40.63122]},"properties":{"p":"1678L00170000000","a":"GLENN ST","m":"Harrison","u":"L","o":"individual","sf":4256,"v":24100}},{"type":"Feature","geometry":{"type":"Point","coordinates":[-79.72006,40.63939]},"properties":{"p":"1845S00184000000","a":"MEADOW ST","m":"Harrison","u":"L","o":"individual","sf":52272,"v":600}},{"type":"Feature","geometry":{"type":"Point","coordinates":[-79.72135,40.6389]},"properties":{"p":"1845R00040000000","a":"LAUREL ALY","m":"Harrison","u":"L","o":"individual","sf":5528,"v":1900}},{"type":"Feature","geometry":{"type":"Point","coordinates":[-79.72096,40.63879]},"properties":{"p":"1845R00041000000","a":"2812 LAUREL ALY","m":"Harrison","u":"L","o":"individual","sf":2380,"v":900}},{"type":"Feature","geometry":{"type":"Point","coordinates":[-79.72152,40.63809]},"properties":{"p":"1845R00056000000","a":"1616 PARKWAY AVE","m":"Harrison","u":"L","o":"individual","sf":345,"v":200}},{"type":"Feature","geometry":{"type":"Point","coordinates":[-79.72255,40.63782]},"properties":{"p":"1845R00074000000","a":"BROOK ALY","m":"Harrison","u":"L","o":"individual","sf":5329,"v":26000}},{"type":"Feature","geometry":{"type":"Point","coordinates":[-79.7231,40.6406]},"properties":{"p":"1845R00210000000","a":"STATE ROUTE 28","m":"Harrison","u":"L","o":"individual","sf":128502,"v":1500}},{"type":"Feature","geometry":{"type":"Point","coordinates":[-79.72648,40.63143]},"properties":{"p":"1678K00016000000","a":"HAWTHORNE ST","m":"Harrison","u":"L","o":"corp","sf":23945,"v":14700}},{"type":"Feature","geometry":{"type":"Point","coordinates":[-79.72646,40.6308]},"properties":{"p":"1678K00018000000","a":"HAWTHORNE ST","m":"Harrison","u":"L","o":"corp","sf":13016,"v":13700}},{"type":"Feature","geometry":{"type":"Point","coordinates":[-79.72606,40.63066]},"properties":{"p":"1678K00020000000","a":"HAWTHORNE ST","m":"Harrison","u":"L","o":"corp","sf":13377,"v":13800}},{"type":"Feature","geometry":{"type":"Point","coordinates":[-79.72607,40.63098]},"properties":{"p":"1678K00022000000","a":"HAWTHORNE ST","m":"Harrison","u":"L","o":"corp","sf":10875,"v":13500}},{"type":"Feature","geometry":{"type":"Point","coordinates":[-79.72608,40.63138]},"properties":{"p":"1678K00024000000","a":"HAWTHORNE ST","m":"Harrison","u":"L","o":"corp","sf":10875,"v":13500}},{"type":"Feature","geometry":{"type":"Point","coordinates":[-79.72288,40.63084]},"properties":{"p":"1678L00149000000","a":"GLENN ST","m":"Harrison","u":"L","o":"individual","sf":9630,"v":26400}},{"type":"Feature","geometry":{"type":"Point","coordinates":[-79.72548,40.63843]},"properties":{"p":"1845P00055000000","a":"PINE HILL RD","m":"Harrison","u":"L","o":"individual","sf":160562,"v":3700}},{"type":"Feature","geometry":{"type":"Point","coordinates":[-79.72082,40.63823]},"properties":{"p":"1845R00022000000","a":"2743 MEADOW ST","m":"Harrison","u":"L","o":"individual","sf":8625,"v":2900}},{"type":"Feature","geometry":{"type":"Point","coordinates":[-79.72094,40.63872]},"properties":{"p":"1845R00038000000","a":"2812 LAUREL ALY","m":"Harrison","u":"L","o":"individual","sf":349,"v":200}},{"type":"Feature","geometry":{"type":"Point","coordinates":[-79.72255,40.63254]},"properties":{"p":"1678L00344000000","a":"HAWTHORNE ST","m":"Harrison","u":"L","o":"individual","sf":11029,"v":26500}},{"type":"Feature","geometry":{"type":"Point","coordinates":[-79.72096,40.63608]},"properties":{"p":"1678C00186000000","a":"SOUTHERN AVE","m":"Harrison","u":"L","o":"corp","sf":43560,"v":29500}},{"type":"Feature","geometry":{"type":"Point","coordinates":[-79.72396,40.63568]},"properties":{"p":"1678C00322000000","a":"GLENMAR ST","m":"Harrison","u":"L","o":"individual","sf":7370,"v":2500}},{"type":"Feature","geometry":{"type":"Point","coordinates":[-79.72456,40.6363]},"properties":{"p":"1678C00346000000","a":"1412 GLENMAR ST","m":"Harrison","u":"L","o":"individual","sf":8973,"v":3000}},{"type":"Feature","geometry":{"type":"Point","coordinates":[-79.7241,40.63528]},"properties":{"p":"1678C00355000000","a":"GLENMAR ST","m":"Harrison","u":"L","o":"individual","sf":1000,"v":400}},{"type":"Feature","geometry":{"type":"Point","coordinates":[-79.72472,40.63204]},"properties":{"p":"1678L00057000000","a":"1604 MELROSE AVE","m":"Harrison","u":"L","o":"individual","sf":11223,"v":13600}},{"type":"Feature","geometry":{"type":"Point","coordinates":[-79.7239,40.6324]},"properties":{"p":"1678L00080000000","a":"HAWTHORNE ST","m":"Harrison","u":"L","o":"individual","sf":7710,"v":2600}},{"type":"Feature","geometry":{"type":"Point","coordinates":[-79.7319,40.63567]},"properties":{"p":"1678A00125000000","a":"PINE HILL RD","m":"Harrison","u":"L","o":"corp","sf":20000,"v":30700}},{"type":"Feature","geometry":{"type":"Point","coordinates":[-79.73189,40.63534]},"properties":{"p":"1678A00134000000","a":"PINE HILL RD","m":"Harrison","u":"L","o":"corp","sf":20000,"v":30700}},{"type":"Feature","geometry":{"type":"Point","coordinates":[-79.72027,40.63173]},"properties":{"p":"1678M00334000000","a":"IVANHOE ST","m":"Harrison","u":"L","o":"individual","sf":3370,"v":21800}},{"type":"Feature","geometry":{"type":"Point","coordinates":[-79.72039,40.6319]},"properties":{"p":"1678M00338000000","a":"IVANHOE ST","m":"Harrison","u":"L","o":"individual","sf":5030,"v":1700}},{"type":"Feature","geometry":{"type":"Point","coordinates":[-79.72271,40.64184]},"properties":{"p":"1845L00210000000","a":"STATE ROUTE 28","m":"Harrison","u":"L","o":"individual","sf":372177,"v":4000}},{"type":"Feature","geometry":{"type":"Point","coordinates":[-79.72084,40.64881]},"properties":{"p":"2020A00036000000","a":"1614 CLARK LN","m":"Harrison","u":"L","o":"individual","sf":955,"v":100}},{"type":"Feature","geometry":{"type":"Point","coordinates":[-79.72217,40.64975]},"properties":{"p":"2020L00079000000","a":"SAXONBURG RD","m":"Harrison","u":"L","o":"individual","sf":163350,"v":43900}},{"type":"Feature","geometry":{"type":"Point","coordinates":[-79.7213,40.64814]},"properties":{"p":"2020R00064000000","a":"SAXONBURG RD","m":"Harrison","u":"L","o":"individual","sf":14157,"v":1300}},{"type":"Feature","geometry":{"type":"Point","coordinates":[-79.72041,40.64818]},"properties":{"p":"2020S00060000000","a":"SAXONBURG RD","m":"Harrison","u":"L","o":"individual","sf":15591,"v":30300}},{"type":"Feature","geometry":{"type":"Point","coordinates":[-79.72047,40.64905]},"properties":{"p":"2020S00065000000","a":"SAXONBURG RD","m":"Harrison","u":"L","o":"individual","sf":87120,"v":36900}},{"type":"Feature","geometry":{"type":"Point","coordinates":[-79.72098,40.63912]},"properties":{"p":"1845R00045000000","a":"LAUREL ALY","m":"Harrison","u":"L","o":"individual","sf":21954,"v":750}},{"type":"Feature","geometry":{"type":"Point","coordinates":[-79.73772,40.644]},"properties":{"p":"1844G00048000000","a":"3168 BURTNER RD","m":"Fawn","u":"L","o":"individual","sf":23350,"v":2100}},{"type":"Feature","geometry":{"type":"Point","coordinates":[-79.73262,40.63551]},"properties":{"p":"1678A00152000000","a":"HOLMES DR","m":"Harrison","u":"L","o":"corp","sf":25859,"v":2300}},{"type":"Feature","geometry":{"type":"Point","coordinates":[-79.72585,40.63242]},"properties":{"p":"1678K00030000000","a":"HAWTHORNE ST","m":"Harrison","u":"L","o":"individual","sf":2860,"v":1000}}]}