{"type":"FeatureCollection","features":[{"type":"Feature","geometry":{"type":"Point","coordinates":[-79.70978,40.45484]},"properties":{"p":"1241P00310000000","a":"220 KANE RD","m":"Plum","u":"I","o":"corp","sf":169971,"v":36200}},{"type":"Feature","geometry":{"type":"Point","coordinates":[-79.71213,40.45498]},"properties":{"p":"1241P00391000000","a":"PINE VALLEY DR","m":"Plum","u":"I","o":"corp","sf":3920,"v":600}},{"type":"Feature","geometry":{"type":"Point","coordinates":[-79.71204,40.45519]},"properties":{"p":"1241P00393000000","a":"PINE VALLEY DR","m":"Plum","u":"I","o":"corp","sf":3920,"v":600}},{"type":"Feature","geometry":{"type":"Point","coordinates":[-79.71336,40.45458]},"properties":{"p":"1241N00063000000","a":"780 PINE VALLEY DR","m":"Plum","u":"I","o":"corp","sf":14375,"v":9900}},{"type":"Feature","geometry":{"type":"Point","coordinates":[-79.71001,40.45764]},"properties":{"p":"1241F00060000000","a":"GOLDEN MILE HWY","m":"Plum","u":"C","o":"corp","sf":292288,"v":49700}},{"type":"Feature","geometry":{"type":"Point","coordinates":[-79.71127,40.45596]},"properties":{"p":"1241K00233000000","a":"GOLDEN MILE HWY","m":"Plum","u":"C","o":"corp","sf":10019,"v":42500}},{"type":"Feature","geometry":{"type":"Point","coordinates":[-79.70784,40.45997]},"properties":{"p":"1241C00284000000","a":"SARDIS RD","m":"Plum","u":"C","o":"corp","sf":435600,"v":87000}},{"type":"Feature","geometry":{"type":"Point","coordinates":[-79.7118,40.45312]},"properties":{"p":"1241P00252000000","a":"GOLDEN MILE HWY","m":"Plum","u":"C","o":"individual","sf":21776,"v":62700}},{"type":"Feature","geometry":{"type":"Point","coordinates":[-79.71026,40.4539]},"properties":{"p":"1241P00284000000","a":"KANE RD","m":"Plum","u":"C","o":"corp","sf":44997,"v":6200}},{"type":"Feature","geometry":{"type":"Point","coordinates":[-79.70298,40.46306]},"properties":{"p":"1240S00260000000","a":"21 SANDUNE CT","m":"Plum","u":"C","o":"corp","sf":25917,"v":41800}},{"type":"Feature","geometry":{"type":"Point","coordinates":[-79.71031,40.46316]},"properties":{"p":"1240P00105000000","a":"MARIN CT","m":"Plum","u":"C","o":"corp","sf":15736,"v":31200}},{"type":"Feature","geometry":{"type":"Point","coordinates":[-79.7095,40.46155]},"properties":{"p":"1241B00070000000","a":"TIMOTHY DR","m":"Plum","u":"C","o":"corp","sf":145490,"v":74100}},{"type":"Feature","geometry":{"type":"Point","coordinates":[-79.70985,40.45954]},"properties":{"p":"1241B00216000000","a":"GOLDEN MILE HWY","m":"Plum","u":"C","o":"corp","sf":1043698,"v":38400}},{"type":"Feature","geometry":{"type":"Point","coordinates":[-79.71387,40.45365]},"properties":{"p":"1241N00275000000","a":"PINE VALLEY DR","m":"Plum","u":"C","o":"corp","sf":341510,"v":72000}},{"type":"Feature","geometry":{"type":"Point","coordinates":[-79.70629,40.46873]},"properties":{"p":"1240G00176000000","a":"GOLDEN MILE HWY","m":"Plum","u":"C","o":"individual","sf":15231,"v":17500}},{"type":"Feature","geometry":{"type":"Point","coordinates":[-79.71169,40.46175]},"properties":{"p":"1241B00284000000","a":"TIMOTHY DR","m":"Plum","u":"C","o":"corp","sf":107767,"v":14900}},{"type":"Feature","geometry":{"type":"Point","coordinates":[-79.71339,40.45016]},"properties":{"p":"1242E00047000000","a":"1860 GOLDEN MILE HWY","m":"Plum","u":"C","o":"corp","sf":30030,"v":46000}},{"type":"Feature","geometry":{"type":"Point","coordinates":[-79.70773,40.46719]},"properties":{"p":"1240L00363000000","a":"S DUANE DR","m":"Plum","u":"L","o":"corp","sf":25696,"v":24300}},{"type":"Feature","geometry":{"type":"Point","coordinates":[-79.70823,40.46722]},"properties":{"p":"1240L00398000000","a":"S DUANE DR","m":"Plum","u":"L","o":"individual","sf":142441,"v":35000}},{"type":"Feature","geometry":{"type":"Point","coordinates":[-79.71807,40.45432]},"properties":{"p":"1104S00108000000","a":"BRACKEN PL","m":"Plum","u":"L","o":"corp","sf":1468,"v":2800}},{"type":"Feature","geometry":{"type":"Point","coordinates":[-79.71126,40.45376]},"properties":{"p":"1241P00272000000","a":"GOLDEN MILE HWY","m":"Plum","u":"L","o":"corp","sf":18892,"v":23700}},{"type":"Feature","geometry":{"type":"Point","coordinates":[-79.7073,40.46866]},"properties":{"p":"1240G00266000000","a":"OLD ABERS CREEK RD","m":"Plum","u":"L","o":"individual","sf":87120,"v":29900}},{"type":"Feature","geometry":{"type":"Point","coordinates":[-79.70497,40.46376]},"properties":{"p":"1240R00103000000","a":"CAPE COD DR","m":"Plum","u":"L","o":"corp","sf":12674,"v":9500}},{"type":"Feature","geometry":{"type":"Point","coordinates":[-79.71046,40.45191]},"properties":{"p":"1242B00244000000","a":"SHASTA DR","m":"Plum","u":"L","o":"individual","sf":40600,"v":3700}},{"type":"Feature","geometry":{"type":"Point","coordinates":[-79.71085,40.4514]},"properties":{"p":"1242B00261000000","a":"KANE RD","m":"Plum","u":"L","o":"individual","sf":14898,"v":1300}},{"type":"Feature","geometry":{"type":"Point","coordinates":[-79.71103,40.45103]},"properties":{"p":"1242B00275000000","a":"KANE RD","m":"Plum","u":"L","o":"individual","sf":15361,"v":11800}},{"type":"Feature","geometry":{"type":"Point","coordinates":[-79.71132,40.4509]},"properties":{"p":"1242B00284000000","a":"KANE RD","m":"Plum","u":"L","o":"individual","sf":23348,"v":24100}},{"type":"Feature","geometry":{"type":"Point","coordinates":[-79.71131,40.45055]},"properties":{"p":"1242B00293000000","a":"KANE RD","m":"Plum","u":"L","o":"individual","sf":16179,"v":1500}},{"type":"Feature","geometry":{"type":"Point","coordinates":[-79.71217,40.46154]},"properties":{"p":"1241B00340000000","a":"BLUE RIDGE DR","m":"Plum","u":"L","o":"individual","sf":3484,"v":300}},{"type":"Feature","geometry":{"type":"Point","coordinates":[-79.71427,40.45224]},"properties":{"p":"1242A00167000000","a":"NEW TEXAS RD","m":"Plum","u":"L","o":"corp","sf":2015,"v":1900}},{"type":"Feature","geometry":{"type":"Point","coordinates":[-79.70402,40.45473]},"properties":{"p":"1241M00002000000","a":"LOGAN FERRY RD","m":"Plum","u":"L","o":"individual","sf":89864,"v":30200}},{"type":"Feature","geometry":{"type":"Point","coordinates":[-79.70373,40.45256]},"properties":{"p":"1241M00006000000","a":"LOGAN FERRY RD","m":"Plum","u":"L","o":"individual","sf":418045,"v":46500}},{"type":"Feature","geometry":{"type":"Point","coordinates":[-79.71593,40.45404]},"properties":{"p":"1241N00378000000","a":"2123 NEW TEXAS RD","m":"Plum","u":"L","o":"individual","sf":247856,"v":15700}},{"type":"Feature","geometry":{"type":"Point","coordinates":[-79.70964,40.45291]},"properties":{"p":"1241P00109000000","a":"KANE RD","m":"Plum","u":"L","o":"individual","sf":34500,"v":25100}},{"type":"Feature","geometry":{"type":"Point","coordinates":[-79.71575,40.45105]},"properties":{"p":"1242A00214000000","a":"NEW TEXAS RD","m":"Plum","u":"L","o":"corp","sf":43560,"v":25900}},{"type":"Feature","geometry":{"type":"Point","coordinates":[-79.70556,40.46883]},"properties":{"p":"1240G00174000000","a":"N DUANE DR","m":"Plum","u":"L","o":"individual","sf":26925,"v":24400}},{"type":"Feature","geometry":{"type":"Point","coordinates":[-79.7133,40.46921]},"properties":{"p":"1240E00038000000","a":"CARNIVAL DR","m":"Plum","u":"L","o":"individual","sf":10398,"v":6400}},{"type":"Feature","geometry":{"type":"Point","coordinates":[-79.71455,40.46382]},"properties":{"p":"1240J00134000000","a":"BLUE RIDGE RD","m":"Plum","u":"L","o":"individual","sf":432072,"v":25100}},{"type":"Feature","geometry":{"type":"Point","coordinates":[-79.70643,40.46648]},"properties":{"p":"1240L00177000000","a":"OLD ABERS CREEK RD","m":"Plum","u":"L","o":"corp","sf":180426,"v":38500}},{"type":"Feature","geometry":{"type":"Point","coordinates":[-79.70466,40.45466]},"properties":{"p":"1241R00223000000","a":"LOGAN FERRY RD","m":"Plum","u":"L","o":"individual","sf":91912,"v":30300}},{"type":"Feature","geometry":{"type":"Point","coordinates":[-79.70877,40.45279]},"properties":{"p":"1241R00324000000","a":"LOGANS FERRY RD","m":"Plum","u":"L","o":"individual","sf":143748,"v":35100}},{"type":"Feature","geometry":{"type":"Point","coordinates":[-79.70731,40.45041]},"properties":{"p":"1242G00165000000","a":"SAGAMORE HILL RD","m":"Plum","u":"L","o":"corp","sf":117612,"v":32700}},{"type":"Feature","geometry":{"type":"Point","coordinates":[-79.70775,40.46691]},"properties":{"p":"1240L00361000000","a":"S DUANE DR","m":"Plum","u":"L","o":"corp","sf":21208,"v":23900}},{"type":"Feature","geometry":{"type":"Point","coordinates":[-79.71647,40.46853]},"properties":{"p":"1240E00218000000","a":"SURFSIDE DR","m":"Plum","u":"L","o":"corp","sf":202872,"v":34100}},{"type":"Feature","geometry":{"type":"Point","coordinates":[-79.71741,40.46997]},"properties":{"p":"1103D00002000000","a":"BAR HARBOR DR","m":"Plum","u":"L","o":"corp","sf":185169,"v":33700}},{"type":"Feature","geometry":{"type":"Point","coordinates":[-79.71924,40.4617]},"properties":{"p":"1104D00222000000","a":"OBLOCK AVE","m":"Plum","u":"L","o":"individual","sf":70916,"v":28400}},{"type":"Feature","geometry":{"type":"Point","coordinates":[-79.71648,40.46368]},"properties":{"p":"1103S00040000000","a":"HARBORVIEW DR","m":"Plum","u":"L","o":"individual","sf":1864,"v":1800}},{"type":"Feature","geometry":{"type":"Point","coordinates":[-79.71685,40.45641]},"properties":{"p":"1104M00034000000","a":"MALABAR DR","m":"Plum","u":"L","o":"corp","sf":106504,"v":1680}},{"type":"Feature","geometry":{"type":"Point","coordinates":[-79.70413,40.46891]},"properties":{"p":"1240G00082000000","a":"N DUANE DR","m":"Plum","u":"L","o":"individual","sf":30187,"v":18900}},{"type":"Feature","geometry":{"type":"Point","coordinates":[-79.71867,40.46249]},"properties":{"p":"1104D00201000000","a":"PINE VALLEY DR","m":"Plum","u":"L","o":"individual","sf":2868,"v":300}},{"type":"Feature","geometry":{"type":"Point","coordinates":[-79.70525,40.45462]},"properties":{"p":"1241R00216000000","a":"LOGAN FERRY RD","m":"Plum","u":"L","o":"individual","sf":44867,"v":26000}},{"type":"Feature","geometry":{"type":"Point","coordinates":[-79.71093,40.45124]},"properties":{"p":"1242B00268000000","a":"KANE RD","m":"Plum","u":"L","o":"individual","sf":14985,"v":1400}},{"type":"Feature","geometry":{"type":"Point","coordinates":[-79.71141,40.45021]},"properties":{"p":"1242F00284000000","a":"KANE RD","m":"Plum","u":"L","o":"individual","sf":15333,"v":1400}},{"type":"Feature","geometry":{"type":"Point","coordinates":[-79.71725,40.45845]},"properties":{"p":"1104H00083000000","a":"MALABAR DR","m":"Plum","u":"L","o":"individual","sf":47431,"v":26200}},{"type":"Feature","geometry":{"type":"Point","coordinates":[-79.71713,40.45358]},"properties":{"p":"1104S00223000000","a":"FALLS VILLAGE RD","m":"Plum","u":"B","o":"corp","sf":1089,"v":100}},{"type":"Feature","geometry":{"type":"Point","coordinates":[-79.7175,40.45367]},"properties":{"p":"1104S00100000000","a":"FALLS VILLAGE RD","m":"Plum","u":"B","o":"corp","sf":23938,"v":8300}},{"type":"Feature","geometry":{"type":"Point","coordinates":[-79.71763,40.45482]},"properties":{"p":"1104M00100000000","a":"FALLS VILLAGE RD","m":"Plum","u":"B","o":"corp","sf":24040,"v":4600}}]}