{"type":"FeatureCollection","features":[{"type":"Feature","geometry":{"type":"Point","coordinates":[-79.70448,40.48073]},"properties":{"p":"1239G00185000000","a":"GOLDEN MILE HWY","m":"Plum","u":"C","o":"corp","sf":29089,"v":2000}},{"type":"Feature","geometry":{"type":"Point","coordinates":[-79.71189,40.48635]},"properties":{"p":"1241D00323000000","a":"GOLDEN MILE HWY","m":"Plum","u":"C","o":"individual","sf":7579,"v":1700}},{"type":"Feature","geometry":{"type":"Point","coordinates":[-79.70591,40.47099]},"properties":{"p":"1240C00260000000","a":"GOLDEN MILE HWY","m":"Plum","u":"C","o":"individual","sf":333234,"v":23000}},{"type":"Feature","geometry":{"type":"Point","coordinates":[-79.70435,40.48904]},"properties":{"p":"1238G00087000000","a":"SALTSBURG RD","m":"Plum","u":"C","o":"corp","sf":20822,"v":61100}},{"type":"Feature","geometry":{"type":"Point","coordinates":[-79.70629,40.47969]},"properties":{"p":"1239C00168000000","a":"GOLDEN MILE HWY","m":"Plum","u":"C","o":"individual","sf":116253,"v":8000}},{"type":"Feature","geometry":{"type":"Point","coordinates":[-79.70304,40.48364]},"properties":{"p":"1238S00044000000","a":"MURRAYSVILLE RD","m":"Plum","u":"C","o":"corp","sf":154886,"v":8700}},{"type":"Feature","geometry":{"type":"Point","coordinates":[-79.70482,40.48137]},"properties":{"p":"1239C00082000000","a":"HIALEAH DR","m":"Plum","u":"C","o":"corp","sf":35101,"v":2600}},{"type":"Feature","geometry":{"type":"Point","coordinates":[-79.70429,40.48622]},"properties":{"p":"1238L00099000000","a":"5021 HIALEAH DR","m":"Plum","u":"L","o":"individual","sf":7603,"v":18800}},{"type":"Feature","geometry":{"type":"Point","coordinates":[-79.71568,40.47342]},"properties":{"p":"1239N00094000000","a":"PRESQUE ISLE DR","m":"Plum","u":"L","o":"individual","sf":36660,"v":3300}},{"type":"Feature","geometry":{"type":"Point","coordinates":[-79.70445,40.479]},"properties":{"p":"1239G00135000000","a":"BLACK HILLS RD","m":"Plum","u":"L","o":"corp","sf":11268,"v":22300}},{"type":"Feature","geometry":{"type":"Point","coordinates":[-79.71612,40.48961]},"properties":{"p":"1238A00335000000","a":"ALTER DR","m":"Plum","u":"L","o":"individual","sf":63162,"v":15000}},{"type":"Feature","geometry":{"type":"Point","coordinates":[-79.7077,40.47102]},"properties":{"p":"1240C00355000000","a":"FIESTA DR","m":"Plum","u":"L","o":"individual","sf":3658,"v":3500}},{"type":"Feature","geometry":{"type":"Point","coordinates":[-79.71306,40.48553]},"properties":{"p":"1238J00094000000","a":"SALTSBURG RD","m":"Plum","u":"L","o":"individual","sf":131116,"v":22400}},{"type":"Feature","geometry":{"type":"Point","coordinates":[-79.71365,40.48437]},"properties":{"p":"1238J00104000000","a":"SALTSBURG RD","m":"Plum","u":"L","o":"corp","sf":395525,"v":54100}},{"type":"Feature","geometry":{"type":"Point","coordinates":[-79.71402,40.48622]},"properties":{"p":"1238J00168000000","a":"SALTSBURG RD","m":"Plum","u":"L","o":"individual","sf":11886,"v":1100}},{"type":"Feature","geometry":{"type":"Point","coordinates":[-79.7126,40.48053]},"properties":{"p":"1239A00258000000","a":"ABERS CREEK RD","m":"Plum","u":"L","o":"individual","sf":58806,"v":27300}},{"type":"Feature","geometry":{"type":"Point","coordinates":[-79.71234,40.47938]},"properties":{"p":"1239E00382000000","a":"1422 ABERS CREEK RD","m":"Plum","u":"L","o":"corp","sf":25257,"v":24200}},{"type":"Feature","geometry":{"type":"Point","coordinates":[-79.71204,40.47917]},"properties":{"p":"1239F00272000000","a":"1418 ABERS CREEK RD","m":"Plum","u":"L","o":"corp","sf":26109,"v":24300}},{"type":"Feature","geometry":{"type":"Point","coordinates":[-79.71171,40.47892]},"properties":{"p":"1239F00274000000","a":"1414 ABERS CREEK RD","m":"Plum","u":"L","o":"corp","sf":27656,"v":24500}},{"type":"Feature","geometry":{"type":"Point","coordinates":[-79.70985,40.47658]},"properties":{"p":"1239K00122000000","a":"ABERS CREEK RD","m":"Plum","u":"L","o":"individual","sf":2054,"v":2000}},{"type":"Feature","geometry":{"type":"Point","coordinates":[-79.70289,40.48139]},"properties":{"p":"1239D00346000000","a":"GOLDEN MILE HWY","m":"Plum","u":"L","o":"individual","sf":212224,"v":41400}},{"type":"Feature","geometry":{"type":"Point","coordinates":[-79.70318,40.48935]},"properties":{"p":"1238H00385000000","a":"SALTSBURG RD","m":"Plum","u":"L","o":"individual","sf":118,"v":100}},{"type":"Feature","geometry":{"type":"Point","coordinates":[-79.70689,40.47555]},"properties":{"p":"1239L00240000000","a":"BLACK HILLS RD","m":"Plum","u":"L","o":"corp","sf":15841,"v":11700}},{"type":"Feature","geometry":{"type":"Point","coordinates":[-79.70648,40.48773]},"properties":{"p":"1238G00206000000","a":"MARDI GRAS DR","m":"Plum","u":"L","o":"corp","sf":1339,"v":100}},{"type":"Feature","geometry":{"type":"Point","coordinates":[-79.70267,40.48212]},"properties":{"p":"1238S00010000000","a":"GOLDEN MILE HWY","m":"Plum","u":"L","o":"individual","sf":64687,"v":27800}},{"type":"Feature","geometry":{"type":"Point","coordinates":[-79.71344,40.47688]},"properties":{"p":"1239J00084000000","a":"2118 CAYUGA DR","m":"Plum","u":"L","o":"individual","sf":9345,"v":800}},{"type":"Feature","geometry":{"type":"Point","coordinates":[-79.70819,40.48881]},"properties":{"p":"1238F00198000000","a":"9956 SALTSBURG RD","m":"Plum","u":"L","o":"individual","sf":68825,"v":16700}},{"type":"Feature","geometry":{"type":"Point","coordinates":[-79.70277,40.4708]},"properties":{"p":"1240D00062000000","a":"RYAN DR","m":"Plum","u":"L","o":"individual","sf":49223,"v":10800}},{"type":"Feature","geometry":{"type":"Point","coordinates":[-79.70774,40.47561]},"properties":{"p":"1239L00322000000","a":"HOLIDAY PARK DR","m":"Plum","u":"L","o":"individual","sf":22642,"v":10800}},{"type":"Feature","geometry":{"type":"Point","coordinates":[-79.70699,40.47504]},"properties":{"p":"1239L00066000000","a":"HOLIDAY PARK DR","m":"Plum","u":"L","o":"individual","sf":19168,"v":23700}},{"type":"Feature","geometry":{"type":"Point","coordinates":[-79.71165,40.48537]},"properties":{"p":"1238K00078000000","a":"MARDI GRAS DR","m":"Plum","u":"L","o":"individual","sf":222156,"v":36500}},{"type":"Feature","geometry":{"type":"Point","coordinates":[-79.71352,40.48132]},"properties":{"p":"1239A00284000000","a":"ABERS CREEK RD","m":"Plum","u":"L","o":"corp","sf":67518,"v":28100}},{"type":"Feature","geometry":{"type":"Point","coordinates":[-79.71387,40.48626]},"properties":{"p":"1238J00174000000","a":"SALTSBURG RD","m":"Plum","u":"L","o":"individual","sf":3566,"v":300}},{"type":"Feature","geometry":{"type":"Point","coordinates":[-79.70327,40.47162]},"properties":{"p":"1240D00042000000","a":"RYAN DR","m":"Plum","u":"B","o":"corp","sf":145055,"v":35200}}]}