{"type":"FeatureCollection","features":[{"type":"Feature","geometry":{"type":"Point","coordinates":[-79.711,40.66686]},"properties":{"p":"2395P00029000000","a":"STATE ROUTE 908","m":"Harrison","u":"C","o":"corp","sf":63467,"v":189100}},{"type":"Feature","geometry":{"type":"Point","coordinates":[-79.71544,40.66447]},"properties":{"p":"2204A00340000000","a":"ALTER RD","m":"Harrison","u":"C","o":"corp","sf":30666,"v":36600}},{"type":"Feature","geometry":{"type":"Point","coordinates":[-79.71387,40.66458]},"properties":{"p":"2204E00290000000","a":"ALTER RD","m":"Harrison","u":"C","o":"corp","sf":804597,"v":264400}},{"type":"Feature","geometry":{"type":"Point","coordinates":[-79.7091,40.65001]},"properties":{"p":"2021P00065000000","a":"FREEPORT RD","m":"Harrison","u":"C","o":"corp","sf":34125,"v":96300}},{"type":"Feature","geometry":{"type":"Point","coordinates":[-79.71064,40.65376]},"properties":{"p":"2021F00165000000","a":"FREEPORT RD","m":"Harrison","u":"C","o":"corp","sf":330185,"v":93100}},{"type":"Feature","geometry":{"type":"Point","coordinates":[-79.71883,40.66592]},"properties":{"p":"2203D00225000000","a":"ALTER RD","m":"Harrison","u":"L","o":"individual","sf":52882,"v":12000}},{"type":"Feature","geometry":{"type":"Point","coordinates":[-79.71205,40.65816]},"properties":{"p":"2204P00270000000","a":"ALTERMOOR DR","m":"Harrison","u":"L","o":"individual","sf":21799,"v":30900}},{"type":"Feature","geometry":{"type":"Point","coordinates":[-79.71214,40.6587]},"properties":{"p":"2204P00272000000","a":"367 ALTERMOOR DR","m":"Harrison","u":"L","o":"individual","sf":23588,"v":31000}},{"type":"Feature","geometry":{"type":"Point","coordinates":[-79.71717,40.66717]},"properties":{"p":"2394S00022000000","a":"BANBURY LN","m":"Harrison","u":"L","o":"individual","sf":12169,"v":1100}},{"type":"Feature","geometry":{"type":"Point","coordinates":[-79.71741,40.66588]},"properties":{"p":"2203D00054000000","a":"BANBURY LN","m":"Harrison","u":"L","o":"individual","sf":12265,"v":1100}},{"type":"Feature","geometry":{"type":"Point","coordinates":[-79.71513,40.65874]},"properties":{"p":"2204N00017000000","a":"161 HELIN DR","m":"Harrison","u":"L","o":"individual","sf":18642,"v":30600}},{"type":"Feature","geometry":{"type":"Point","coordinates":[-79.71583,40.65918]},"properties":{"p":"2204N00021000000","a":"VIOLET ST","m":"Harrison","u":"L","o":"individual","sf":27176,"v":2500}},{"type":"Feature","geometry":{"type":"Point","coordinates":[-79.71939,40.65684]},"properties":{"p":"2020D00115000000","a":"140 ALTER RD","m":"Harrison","u":"L","o":"individual","sf":190793,"v":46400}},{"type":"Feature","geometry":{"type":"Point","coordinates":[-79.71219,40.65921]},"properties":{"p":"2204P00170000000","a":"SUMMIT DR","m":"Harrison","u":"L","o":"individual","sf":17684,"v":15500}},{"type":"Feature","geometry":{"type":"Point","coordinates":[-79.71001,40.65867]},"properties":{"p":"2204P00182000000","a":"SUMMIT DR","m":"Harrison","u":"L","o":"individual","sf":34322,"v":4200}},{"type":"Feature","geometry":{"type":"Point","coordinates":[-79.70955,40.65829]},"properties":{"p":"2204P00186000000","a":"SUMMIT DR","m":"Harrison","u":"L","o":"individual","sf":28140,"v":16000}},{"type":"Feature","geometry":{"type":"Point","coordinates":[-79.70919,40.65797]},"properties":{"p":"2204P00188000000","a":"SUMMIT DR","m":"Harrison","u":"L","o":"individual","sf":15856,"v":1400}},{"type":"Feature","geometry":{"type":"Point","coordinates":[-79.7083,40.66695]},"properties":{"p":"2395P00005000000","a":"STATE ROUTE 908","m":"Harrison","u":"L","o":"individual","sf":52272,"v":15900}},{"type":"Feature","geometry":{"type":"Point","coordinates":[-79.7087,40.65857]},"properties":{"p":"2204P00041000000","a":"LOGAN LN","m":"Harrison","u":"L","o":"individual","sf":35400,"v":17100}},{"type":"Feature","geometry":{"type":"Point","coordinates":[-79.70864,40.65828]},"properties":{"p":"2204P00053000000","a":"SUMMIT DR","m":"Harrison","u":"L","o":"individual","sf":26325,"v":4400}},{"type":"Feature","geometry":{"type":"Point","coordinates":[-79.71757,40.65046]},"properties":{"p":"2020S00077000000","a":"SAXONBURG RD","m":"Harrison","u":"L","o":"individual","sf":174240,"v":44900}},{"type":"Feature","geometry":{"type":"Point","coordinates":[-79.71974,40.66547]},"properties":{"p":"2203D00124000000","a":"ALTER RD","m":"Harrison","u":"L","o":"individual","sf":19371,"v":8000}},{"type":"Feature","geometry":{"type":"Point","coordinates":[-79.71907,40.66529]},"properties":{"p":"2203D00126000000","a":"ALTER RD","m":"Harrison","u":"L","o":"individual","sf":15812,"v":8000}},{"type":"Feature","geometry":{"type":"Point","coordinates":[-79.71941,40.66523]},"properties":{"p":"2203D00127000000","a":"ALTER RD","m":"Harrison","u":"L","o":"individual","sf":15910,"v":8000}},{"type":"Feature","geometry":{"type":"Point","coordinates":[-79.71966,40.66645]},"properties":{"p":"2203D00215000000","a":"JOLLY HILL RD","m":"Harrison","u":"L","o":"individual","sf":54363,"v":5000}},{"type":"Feature","geometry":{"type":"Point","coordinates":[-79.71058,40.66364]},"properties":{"p":"2204G00263000000","a":"FREEPORT RD","m":"Harrison","u":"L","o":"corp","sf":305443,"v":50900}},{"type":"Feature","geometry":{"type":"Point","coordinates":[-79.71311,40.66074]},"properties":{"p":"2204J00197000000","a":"111 SUMMIT DR","m":"Harrison","u":"L","o":"individual","sf":212390,"v":48400}},{"type":"Feature","geometry":{"type":"Point","coordinates":[-79.71419,40.66099]},"properties":{"p":"2204J00203000000","a":"103 SUMMIT DR","m":"Harrison","u":"L","o":"individual","sf":215069,"v":48700}},{"type":"Feature","geometry":{"type":"Point","coordinates":[-79.70895,40.65546]},"properties":{"p":"2021B00136000000","a":"ALTERMOOR DR","m":"Harrison","u":"L","o":"individual","sf":33079,"v":16900}},{"type":"Feature","geometry":{"type":"Point","coordinates":[-79.71541,40.66516]},"properties":{"p":"2204A00018000000","a":"ALTER RD","m":"Harrison","u":"L","o":"individual","sf":26472,"v":2400}},{"type":"Feature","geometry":{"type":"Point","coordinates":[-79.70746,40.65036]},"properties":{"p":"2021L00182000000","a":"101 OAK MANOR DR","m":"Harrison","u":"L","o":"individual","sf":17411,"v":30500}},{"type":"Feature","geometry":{"type":"Point","coordinates":[-79.71686,40.66372]},"properties":{"p":"2204E00005000000","a":"ALTER RD","m":"Harrison","u":"L","o":"individual","sf":38425,"v":24900}},{"type":"Feature","geometry":{"type":"Point","coordinates":[-79.70677,40.66406]},"properties":{"p":"2204G00243000000","a":"FREEPORT RD","m":"Harrison","u":"L","o":"corp","sf":22167,"v":15900}},{"type":"Feature","geometry":{"type":"Point","coordinates":[-79.7068,40.6637]},"properties":{"p":"2204G00251000000","a":"ROCKY RD","m":"Harrison","u":"L","o":"individual","sf":22167,"v":30900}},{"type":"Feature","geometry":{"type":"Point","coordinates":[-79.70709,40.65379]},"properties":{"p":"2021G00056000000","a":"FREEPORT RD","m":"Harrison","u":"L","o":"individual","sf":114650,"v":39400}},{"type":"Feature","geometry":{"type":"Point","coordinates":[-79.71127,40.65086]},"properties":{"p":"2021K00061000000","a":"HIGHLAND DR","m":"Harrison","u":"L","o":"individual","sf":56192,"v":34100}},{"type":"Feature","geometry":{"type":"Point","coordinates":[-79.71986,40.65835]},"properties":{"p":"2203S00289000000","a":"ALTER RD","m":"Harrison","u":"L","o":"individual","sf":23940,"v":31100}},{"type":"Feature","geometry":{"type":"Point","coordinates":[-79.70523,40.66716]},"properties":{"p":"2204C00014000000","a":"STATE ROUTE 908","m":"Harrison","u":"L","o":"individual","sf":15028,"v":1400}},{"type":"Feature","geometry":{"type":"Point","coordinates":[-79.70382,40.6655]},"properties":{"p":"2204D00055000000","a":"FREEPORT RD","m":"Harrison","u":"L","o":"individual","sf":4951,"v":500}},{"type":"Feature","geometry":{"type":"Point","coordinates":[-79.70697,40.6513]},"properties":{"p":"2021L00273000000","a":"156 YORK DR","m":"Harrison","u":"L","o":"individual","sf":6959,"v":600}},{"type":"Feature","geometry":{"type":"Point","coordinates":[-79.70914,40.65974]},"properties":{"p":"2204L00002000000","a":"5889 LOGAN LN","m":"Harrison","u":"L","o":"individual","sf":237750,"v":49400}},{"type":"Feature","geometry":{"type":"Point","coordinates":[-79.71566,40.65828]},"properties":{"p":"2204N00003000000","a":"ALTERMOOR DR","m":"Harrison","u":"L","o":"individual","sf":37161,"v":32300}},{"type":"Feature","geometry":{"type":"Point","coordinates":[-79.70831,40.65711]},"properties":{"p":"2021C00002000000","a":"FREEPORT RD","m":"Harrison","u":"L","o":"individual","sf":15687,"v":30300}},{"type":"Feature","geometry":{"type":"Point","coordinates":[-79.70803,40.65513]},"properties":{"p":"2021C00026000000","a":"VETERANS LN","m":"Harrison","u":"L","o":"individual","sf":34329,"v":17000}},{"type":"Feature","geometry":{"type":"Point","coordinates":[-79.71893,40.65848]},"properties":{"p":"2203S00004000000","a":"94 ALTERMOOR DR","m":"Harrison","u":"L","o":"individual","sf":4849,"v":400}},{"type":"Feature","geometry":{"type":"Point","coordinates":[-79.71907,40.6583]},"properties":{"p":"2203S00006000000","a":"TERLEE CT","m":"Harrison","u":"L","o":"individual","sf":29386,"v":31600}},{"type":"Feature","geometry":{"type":"Point","coordinates":[-79.70538,40.65191]},"properties":{"p":"2021L00027000000","a":"HARTFORD DR","m":"Harrison","u":"L","o":"individual","sf":10984,"v":25000}},{"type":"Feature","geometry":{"type":"Point","coordinates":[-79.70219,40.66753]},"properties":{"p":"2395S00147000000","a":"FREEPORT RD","m":"Harrison","u":"L","o":"individual","sf":35358,"v":32100}},{"type":"Feature","geometry":{"type":"Point","coordinates":[-79.70067,40.66843]},"properties":{"p":"2395S00181000000","a":"FREEPORT RD","m":"Harrison","u":"L","o":"individual","sf":22938,"v":31000}},{"type":"Feature","geometry":{"type":"Point","coordinates":[-79.70058,40.66877]},"properties":{"p":"2395S00190000000","a":"FREEPORT RD","m":"Harrison","u":"L","o":"individual","sf":17815,"v":3500}},{"type":"Feature","geometry":{"type":"Point","coordinates":[-79.70023,40.66903]},"properties":{"p":"2395S00196000000","a":"FREEPORT RD","m":"Harrison","u":"L","o":"individual","sf":42845,"v":5000}},{"type":"Feature","geometry":{"type":"Point","coordinates":[-79.70123,40.66876]},"properties":{"p":"2395S00224000000","a":"FREEPORT RD","m":"Harrison","u":"L","o":"individual","sf":71264,"v":10000}},{"type":"Feature","geometry":{"type":"Point","coordinates":[-79.7118,40.65996]},"properties":{"p":"2204P00300000000","a":"SUMMIT DR","m":"Harrison","u":"L","o":"individual","sf":102802,"v":12800}},{"type":"Feature","geometry":{"type":"Point","coordinates":[-79.71658,40.65872]},"properties":{"p":"2203S00273000000","a":"107 ALTERMOOR DR","m":"Harrison","u":"L","o":"individual","sf":39021,"v":32400}},{"type":"Feature","geometry":{"type":"Point","coordinates":[-79.71131,40.65797]},"properties":{"p":"2204P00264000000","a":"ALTERMOOR DR","m":"Harrison","u":"B","o":"corp","sf":14288,"v":4800}},{"type":"Feature","geometry":{"type":"Point","coordinates":[-79.71164,40.65805]},"properties":{"p":"2204P00268000000","a":"ALTERMOOR DR","m":"Harrison","u":"B","o":"corp","sf":14288,"v":4800}},{"type":"Feature","geometry":{"type":"Point","coordinates":[-79.71045,40.65746]},"properties":{"p":"2204P00258000000","a":"ALTERMOOR DR","m":"Harrison","u":"B","o":"corp","sf":18949,"v":5200}},{"type":"Feature","geometry":{"type":"Point","coordinates":[-79.71102,40.65786]},"properties":{"p":"2204P00262000000","a":"ALTERMOOR DR","m":"Harrison","u":"B","o":"corp","sf":12676,"v":4600}},{"type":"Feature","geometry":{"type":"Point","coordinates":[-79.71544,40.6573]},"properties":{"p":"2204N00007000000","a":"HELIN DR","m":"Harrison","u":"B","o":"individual","sf":25034,"v":5700}},{"type":"Feature","geometry":{"type":"Point","coordinates":[-79.71453,40.65765]},"properties":{"p":"2204N00008000000","a":"HELIN DR","m":"Harrison","u":"B","o":"individual","sf":20038,"v":5300}},{"type":"Feature","geometry":{"type":"Point","coordinates":[-79.71527,40.65778]},"properties":{"p":"2204N00009000000","a":"HELIN DR","m":"Harrison","u":"B","o":"individual","sf":12245,"v":4600}},{"type":"Feature","geometry":{"type":"Point","coordinates":[-79.71519,40.65804]},"properties":{"p":"2204N00011000000","a":"HELIN DR","m":"Harrison","u":"B","o":"individual","sf":11700,"v":4500}},{"type":"Feature","geometry":{"type":"Point","coordinates":[-79.7103,40.65711]},"properties":{"p":"2021B00002000000","a":"ALTERMOOR DR","m":"Harrison","u":"B","o":"corp","sf":18034,"v":5100}},{"type":"Feature","geometry":{"type":"Point","coordinates":[-79.71035,40.65684]},"properties":{"p":"2021B00004000000","a":"ALTERMOOR DR","m":"Harrison","u":"B","o":"individual","sf":16379,"v":5000}},{"type":"Feature","geometry":{"type":"Point","coordinates":[-79.71855,40.6597]},"properties":{"p":"2203M00004000000","a":"ALTER RD","m":"Harrison","u":"B","o":"individual","sf":15451,"v":4800}},{"type":"Feature","geometry":{"type":"Point","coordinates":[-79.7148,40.65692]},"properties":{"p":"2021A00031000000","a":"HELIN DR","m":"Harrison","u":"B","o":"individual","sf":34900,"v":6600}},{"type":"Feature","geometry":{"type":"Point","coordinates":[-79.71577,40.66012]},"properties":{"p":"2204J00061000000","a":"VIOLET DR","m":"Harrison","u":"B","o":"individual","sf":20591,"v":5300}},{"type":"Feature","geometry":{"type":"Point","coordinates":[-79.71516,40.66009]},"properties":{"p":"2204J00065000000","a":"FOREST DR","m":"Harrison","u":"B","o":"individual","sf":21608,"v":5400}},{"type":"Feature","geometry":{"type":"Point","coordinates":[-79.71518,40.65971]},"properties":{"p":"2204J00068000000","a":"CELIA DR","m":"Harrison","u":"B","o":"individual","sf":26101,"v":5800}},{"type":"Feature","geometry":{"type":"Point","coordinates":[-79.71489,40.66099]},"properties":{"p":"2204J00205000000","a":"FOREST DR","m":"Harrison","u":"B","o":"individual","sf":39286,"v":7000}},{"type":"Feature","geometry":{"type":"Point","coordinates":[-79.71524,40.66098]},"properties":{"p":"2204J00207000000","a":"FOREST DR","m":"Harrison","u":"B","o":"individual","sf":39284,"v":7000}},{"type":"Feature","geometry":{"type":"Point","coordinates":[-79.7156,40.66098]},"properties":{"p":"2204J00209000000","a":"FOREST DR","m":"Harrison","u":"B","o":"individual","sf":39282,"v":7000}},{"type":"Feature","geometry":{"type":"Point","coordinates":[-79.71042,40.65654]},"properties":{"p":"2021B00006000000","a":"ALTERMOOR DR","m":"Harrison","u":"B","o":"individual","sf":17250,"v":5000}},{"type":"Feature","geometry":{"type":"Point","coordinates":[-79.71813,40.65979]},"properties":{"p":"2203M00006000000","a":"ALTER RD","m":"Harrison","u":"B","o":"individual","sf":24137,"v":5700}},{"type":"Feature","geometry":{"type":"Point","coordinates":[-79.71704,40.66099]},"properties":{"p":"2203M00014000000","a":"ALTER RD","m":"Harrison","u":"B","o":"individual","sf":22835,"v":2100}},{"type":"Feature","geometry":{"type":"Point","coordinates":[-79.71844,40.65909]},"properties":{"p":"2203S00281000000","a":"ALTERMOOR DR","m":"Harrison","u":"B","o":"individual","sf":22978,"v":5600}},{"type":"Feature","geometry":{"type":"Point","coordinates":[-79.71829,40.65937]},"properties":{"p":"2203S00282000000","a":"ALTER RD","m":"Harrison","u":"B","o":"individual","sf":17348,"v":5000}},{"type":"Feature","geometry":{"type":"Point","coordinates":[-79.71892,40.65928]},"properties":{"p":"2203S00283000000","a":"ALTER RD","m":"Harrison","u":"B","o":"individual","sf":28154,"v":6000}},{"type":"Feature","geometry":{"type":"Point","coordinates":[-79.71963,40.65862]},"properties":{"p":"2203S00287000000","a":"ALTER RD","m":"Harrison","u":"B","o":"individual","sf":23940,"v":5600}},{"type":"Feature","geometry":{"type":"Point","coordinates":[-79.70856,40.66541]},"properties":{"p":"2204C00320000000","a":"FREEPORT RD","m":"Harrison","u":"B","o":"corp","sf":1459482,"v":110000}},{"type":"Feature","geometry":{"type":"Point","coordinates":[-79.71604,40.66076]},"properties":{"p":"2204J00211000000","a":"FOREST DR","m":"Harrison","u":"B","o":"individual","sf":66399,"v":9500}},{"type":"Feature","geometry":{"type":"Point","coordinates":[-79.7169,40.65996]},"properties":{"p":"2204J00215000000","a":"VIOLET ST","m":"Harrison","u":"B","o":"individual","sf":47607,"v":7800}},{"type":"Feature","geometry":{"type":"Point","coordinates":[-79.7144,40.65854]},"properties":{"p":"2204N00002000000","a":"HELIN DR","m":"Harrison","u":"B","o":"individual","sf":26232,"v":5800}},{"type":"Feature","geometry":{"type":"Point","coordinates":[-79.71437,40.65816]},"properties":{"p":"2204N00004000000","a":"HELIN DR","m":"Harrison","u":"B","o":"individual","sf":20395,"v":5300}},{"type":"Feature","geometry":{"type":"Point","coordinates":[-79.71446,40.6579]},"properties":{"p":"2204N00006000000","a":"HELIN DR","m":"Harrison","u":"B","o":"individual","sf":20038,"v":5300}},{"type":"Feature","geometry":{"type":"Point","coordinates":[-79.71839,40.65783]},"properties":{"p":"2203S00010000000","a":"15 TERLEE CT","m":"Harrison","u":"B","o":"individual","sf":57695,"v":8700}},{"type":"Feature","geometry":{"type":"Point","coordinates":[-79.7158,40.65702]},"properties":{"p":"2021A00033000000","a":"ALTERMOOR DR","m":"Harrison","u":"B","o":"individual","sf":34029,"v":6500}},{"type":"Feature","geometry":{"type":"Point","coordinates":[-79.71654,40.66066]},"properties":{"p":"2204J00213000000","a":"VIOLET ST","m":"Harrison","u":"B","o":"individual","sf":58889,"v":8800}},{"type":"Feature","geometry":{"type":"Point","coordinates":[-79.7168,40.65947]},"properties":{"p":"2204J00217000000","a":"VIOLET ST","m":"Harrison","u":"B","o":"individual","sf":78068,"v":10600}},{"type":"Feature","geometry":{"type":"Point","coordinates":[-79.71069,40.65772]},"properties":{"p":"2204P00260000000","a":"ALTERMOOR DR","m":"Harrison","u":"B","o":"corp","sf":19471,"v":5200}}]}