{"type":"FeatureCollection","features":[{"type":"Feature","geometry":{"type":"Point","coordinates":[-79.71815,40.62095]},"properties":{"p":"1519S00238000000","a":"N CANAL ST","m":"Harrison","u":"I","o":"corp","sf":490050,"v":32200}},{"type":"Feature","geometry":{"type":"Point","coordinates":[-79.71224,40.62398]},"properties":{"p":"1520E00015000000","a":"KARNS RD","m":"Harrison","u":"I","o":"corp","sf":2723,"v":3800}},{"type":"Feature","geometry":{"type":"Point","coordinates":[-79.71257,40.62369]},"properties":{"p":"1520E00021000000","a":"2200 KARNS RD","m":"Harrison","u":"I","o":"corp","sf":15381,"v":21200}},{"type":"Feature","geometry":{"type":"Point","coordinates":[-79.70944,40.62526]},"properties":{"p":"1520F00180000000","a":"KARNS RD","m":"Harrison","u":"I","o":"corp","sf":6011,"v":800}},{"type":"Feature","geometry":{"type":"Point","coordinates":[-79.70775,40.62624]},"properties":{"p":"1520C00147000000","a":"KARNS RD","m":"Harrison","u":"I","o":"corp","sf":11631,"v":2100}},{"type":"Feature","geometry":{"type":"Point","coordinates":[-79.71808,40.61682]},"properties":{"p":"1368D00030000000","a":"FEDERAL ST","m":"Harrison","u":"I","o":"corp","sf":1568,"v":200}},{"type":"Feature","geometry":{"type":"Point","coordinates":[-79.71956,40.62795]},"properties":{"p":"1519D00009000000","a":"2130 FREEPORT RD","m":"Harrison","u":"C","o":"corp","sf":4487,"v":1200}},{"type":"Feature","geometry":{"type":"Point","coordinates":[-79.71979,40.62779]},"properties":{"p":"1519D00013000000","a":"2130 FREEPORT RD","m":"Harrison","u":"C","o":"corp","sf":4612,"v":1200}},{"type":"Feature","geometry":{"type":"Point","coordinates":[-79.71842,40.62991]},"properties":{"p":"1678S00054000000","a":"FREEPORT RD","m":"Harrison","u":"C","o":"individual","sf":5905,"v":7800}},{"type":"Feature","geometry":{"type":"Point","coordinates":[-79.71866,40.62981]},"properties":{"p":"1678S00057000000","a":"FREEPORT RD","m":"Harrison","u":"C","o":"individual","sf":15167,"v":20000}},{"type":"Feature","geometry":{"type":"Point","coordinates":[-79.7165,40.62276]},"properties":{"p":"1520E00055000000","a":"1007 SPRINGHILL RD","m":"Harrison","u":"C","o":"individual","sf":339768,"v":85500}},{"type":"Feature","geometry":{"type":"Point","coordinates":[-79.71762,40.62992]},"properties":{"p":"1678S00025000000","a":"FREEPORT RD","m":"Harrison","u":"C","o":"individual","sf":4000,"v":36700}},{"type":"Feature","geometry":{"type":"Point","coordinates":[-79.71968,40.62865]},"properties":{"p":"1678S00174000000","a":"2207 FREEPORT RD","m":"Harrison","u":"C","o":"corp","sf":4478,"v":5900}},{"type":"Feature","geometry":{"type":"Point","coordinates":[-79.7197,40.61356]},"properties":{"p":"1368M00029000000","a":"RIVER AVE","m":"Harrison","u":"L","o":"corp","sf":1047,"v":300}},{"type":"Feature","geometry":{"type":"Point","coordinates":[-79.71778,40.62925]},"properties":{"p":"1678S00260000000","a":"FREEPORT RD","m":"Harrison","u":"L","o":"individual","sf":1026,"v":400}},{"type":"Feature","geometry":{"type":"Point","coordinates":[-79.71912,40.61915]},"properties":{"p":"1519S00176000000","a":"RAILROAD ST","m":"Harrison","u":"L","o":"corp","sf":7500,"v":4200}},{"type":"Feature","geometry":{"type":"Point","coordinates":[-79.71945,40.61937]},"properties":{"p":"1519S00240000000","a":"KUNTZ ST","m":"Harrison","u":"L","o":"individual","sf":2000,"v":500}},{"type":"Feature","geometry":{"type":"Point","coordinates":[-79.71955,40.6193]},"properties":{"p":"1519S00242000000","a":"N CANAL ST","m":"Harrison","u":"L","o":"individual","sf":4000,"v":3600}},{"type":"Feature","geometry":{"type":"Point","coordinates":[-79.70811,40.62761]},"properties":{"p":"1520C00379000000","a":"125 MCWILLIAMS DR","m":"Harrison","u":"L","o":"individual","sf":2511,"v":900}},{"type":"Feature","geometry":{"type":"Point","coordinates":[-79.70791,40.62757]},"properties":{"p":"1520C00380000000","a":"MCWILLIAMS DR","m":"Harrison","u":"L","o":"individual","sf":25284,"v":8200}},{"type":"Feature","geometry":{"type":"Point","coordinates":[-79.71384,40.62929]},"properties":{"p":"1679N00262000000","a":"102 SHAWNEE DR","m":"Harrison","u":"L","o":"individual","sf":9712,"v":3200}},{"type":"Feature","geometry":{"type":"Point","coordinates":[-79.71377,40.62892]},"properties":{"p":"1679N00266000000","a":"106 SHAWNEE DR","m":"Harrison","u":"L","o":"individual","sf":8022,"v":2700}},{"type":"Feature","geometry":{"type":"Point","coordinates":[-79.71437,40.62893]},"properties":{"p":"1679N00272000000","a":"112 SHAWNEE DR","m":"Harrison","u":"L","o":"individual","sf":12019,"v":26600}},{"type":"Feature","geometry":{"type":"Point","coordinates":[-79.71456,40.62839]},"properties":{"p":"1679N00276000000","a":"SHAWNEE DR","m":"Harrison","u":"L","o":"individual","sf":8632,"v":26300}},{"type":"Feature","geometry":{"type":"Point","coordinates":[-79.71552,40.62767]},"properties":{"p":"1520A00030000200","a":"330 MCWILLIAMS DR","m":"Harrison","u":"L","o":"individual","sf":519,"v":300}},{"type":"Feature","geometry":{"type":"Point","coordinates":[-79.70962,40.62773]},"properties":{"p":"1520B00194000000","a":"137 MCWILLIAMS DR","m":"Harrison","u":"L","o":"corp","sf":6000,"v":2000}},{"type":"Feature","geometry":{"type":"Point","coordinates":[-79.70551,40.62796]},"properties":{"p":"1520C00140000000","a":"KARNS RD","m":"Harrison","u":"L","o":"corp","sf":115434,"v":10600}},{"type":"Feature","geometry":{"type":"Point","coordinates":[-79.71419,40.62839]},"properties":{"p":"1679N00341000000","a":"119 SHAWNEE DR","m":"Harrison","u":"L","o":"individual","sf":8046,"v":26300}},{"type":"Feature","geometry":{"type":"Point","coordinates":[-79.71944,40.62681]},"properties":{"p":"1519D00091000000","a":"ADAMS ST","m":"Harrison","u":"L","o":"corp","sf":4800,"v":1600}},{"type":"Feature","geometry":{"type":"Point","coordinates":[-79.71954,40.62672]},"properties":{"p":"1519D00093000000","a":"ADAMS ST","m":"Harrison","u":"L","o":"corp","sf":4800,"v":25500}},{"type":"Feature","geometry":{"type":"Point","coordinates":[-79.71981,40.62649]},"properties":{"p":"1519D00102000000","a":"ADAMS ST","m":"Harrison","u":"L","o":"corp","sf":21526,"v":27500}},{"type":"Feature","geometry":{"type":"Point","coordinates":[-79.71688,40.6299]},"properties":{"p":"1678S00013000000","a":"ADAMS ST","m":"Harrison","u":"L","o":"corp","sf":4500,"v":24700}},{"type":"Feature","geometry":{"type":"Point","coordinates":[-79.72,40.62877]},"properties":{"p":"1678S00179000000","a":"LILAC ST","m":"Harrison","u":"L","o":"individual","sf":2500,"v":900}},{"type":"Feature","geometry":{"type":"Point","coordinates":[-79.70691,40.62873]},"properties":{"p":"1679R00220000000","a":"BURTNER RD","m":"Harrison","u":"L","o":"individual","sf":158994,"v":19200}},{"type":"Feature","geometry":{"type":"Point","coordinates":[-79.71406,40.62948]},"properties":{"p":"1679N00258000000","a":"102 SHAWNEE DR","m":"Harrison","u":"L","o":"individual","sf":8060,"v":2700}},{"type":"Feature","geometry":{"type":"Point","coordinates":[-79.71836,40.6278]},"properties":{"p":"1519D00069000000","a":"ADAMS ST","m":"Harrison","u":"L","o":"individual","sf":4800,"v":1600}},{"type":"Feature","geometry":{"type":"Point","coordinates":[-79.71011,40.62996]},"properties":{"p":"1679P00240000000","a":"616 BURTNER RD","m":"Harrison","u":"L","o":"individual","sf":10350,"v":26500}},{"type":"Feature","geometry":{"type":"Point","coordinates":[-79.70307,40.62974]},"properties":{"p":"1679S00125000000","a":"FRONT ST","m":"Harrison","u":"L","o":"individual","sf":36118,"v":6800}},{"type":"Feature","geometry":{"type":"Point","coordinates":[-79.71919,40.62921]},"properties":{"p":"9916X80002000000","a":"BEACON ST","m":"Harrison","u":"L","o":"corp","sf":1284,"v":500}}]}