{"type":"FeatureCollection","features":[{"type":"Feature","geometry":{"type":"Point","coordinates":[-80.3196,40.46283]},"properties":{"p":"1465G00011000000","a":"100 INNOVATION RDG","m":"Findlay","u":"C","o":"corp","sf":26000885,"v":715600}},{"type":"Feature","geometry":{"type":"Point","coordinates":[-80.31497,40.46949]},"properties":{"p":"1467D00001000000","a":"POTATO GARDEN RD","m":"Findlay","u":"C","o":"corp","sf":3010968,"v":152300}},{"type":"Feature","geometry":{"type":"Point","coordinates":[-80.30845,40.45579]},"properties":{"p":"1316B00030000000","a":"WESTPORT RD","m":"Findlay","u":"C","o":"corp","sf":3328529,"v":153400}},{"type":"Feature","geometry":{"type":"Point","coordinates":[-80.30942,40.45007]},"properties":{"p":"1316F00025000000","a":"1000 WESTPORT RD","m":"Findlay","u":"C","o":"corp","sf":350732,"v":26300}},{"type":"Feature","geometry":{"type":"Point","coordinates":[-80.3002,40.45325]},"properties":{"p":"1316G00009000000","a":"POTATO GARDEN RUN RD","m":"Findlay","u":"C","o":"individual","sf":766277,"v":60000}},{"type":"Feature","geometry":{"type":"Point","coordinates":[-80.30181,40.4649]},"properties":{"p":"1318H00075000000","a":"POTATO GARDEN RUN RD","m":"Findlay","u":"C","o":"corp","sf":7933147,"v":139400}},{"type":"Feature","geometry":{"type":"Point","coordinates":[-80.30747,40.46929]},"properties":{"p":"1318G00372000000","a":"POTATO GARDEN RUN RD","m":"Findlay","u":"L","o":"individual","sf":29368,"v":2600}}]}