{"type":"FeatureCollection","features":[{"type":"Feature","geometry":{"type":"Point","coordinates":[-80.30526,40.48977]},"properties":{"p":"1320C00010000000","a":"MEADOW LN","m":"Findlay","u":"L","o":"individual","sf":13267,"v":29500}},{"type":"Feature","geometry":{"type":"Point","coordinates":[-80.31597,40.48567]},"properties":{"p":"1320E00650000000","a":"MOODY RD","m":"Findlay","u":"L","o":"corp","sf":1117601,"v":0}},{"type":"Feature","geometry":{"type":"Point","coordinates":[-80.31175,40.48789]},"properties":{"p":"1320F00167000000","a":"1001 MOORE LN","m":"Findlay","u":"L","o":"individual","sf":12151,"v":1600}},{"type":"Feature","geometry":{"type":"Point","coordinates":[-80.31185,40.47471]},"properties":{"p":"1319K00053000000","a":"POTATO GARDEN RUN","m":"Findlay","u":"L","o":"corp","sf":478877,"v":0}},{"type":"Feature","geometry":{"type":"Point","coordinates":[-80.30409,40.47055]},"properties":{"p":"1318D00256000000","a":"WASHINGTON RD","m":"Findlay","u":"L","o":"corp","sf":174240,"v":40200}},{"type":"Feature","geometry":{"type":"Point","coordinates":[-80.3075,40.4781]},"properties":{"p":"1319G00009000000","a":"149 RAPHAEL CT","m":"Findlay","u":"B","o":"individual","sf":8775,"v":300}},{"type":"Feature","geometry":{"type":"Point","coordinates":[-80.30807,40.47742]},"properties":{"p":"1319G00014000000","a":"RAPHAEL CT","m":"Findlay","u":"B","o":"corp","sf":10666,"v":300}},{"type":"Feature","geometry":{"type":"Point","coordinates":[-80.3094,40.47512]},"properties":{"p":"1319K00003000000","a":"104 HOLY CROSS DR","m":"Findlay","u":"B","o":"corp","sf":10095,"v":300}},{"type":"Feature","geometry":{"type":"Point","coordinates":[-80.31054,40.47695]},"properties":{"p":"1319K00039000000","a":"224 SAINT AUGUSTINE ST","m":"Findlay","u":"B","o":"individual","sf":8775,"v":300}},{"type":"Feature","geometry":{"type":"Point","coordinates":[-80.31041,40.4771]},"properties":{"p":"1319K00040000000","a":"222 SAINT AUGUSTINE ST","m":"Findlay","u":"B","o":"corp","sf":8775,"v":300}},{"type":"Feature","geometry":{"type":"Point","coordinates":[-80.3097,40.47563]},"properties":{"p":"1319K00049000000","a":"107 HOLY CROSS DR","m":"Findlay","u":"B","o":"corp","sf":8775,"v":300}},{"type":"Feature","geometry":{"type":"Point","coordinates":[-80.30995,40.47753]},"properties":{"p":"1319F00043000000","a":"216 SAINT AUGUSTINE ST","m":"Findlay","u":"B","o":"individual","sf":10038,"v":300}},{"type":"Feature","geometry":{"type":"Point","coordinates":[-80.30948,40.47772]},"properties":{"p":"1319F00045000000","a":"212 SAINT AUGUSTINE ST","m":"Findlay","u":"B","o":"corp","sf":10038,"v":300}},{"type":"Feature","geometry":{"type":"Point","coordinates":[-80.30923,40.47777]},"properties":{"p":"1319F00046000000","a":"210 SAINT AUGUSTINE ST","m":"Findlay","u":"B","o":"corp","sf":9016,"v":300}},{"type":"Feature","geometry":{"type":"Point","coordinates":[-80.30876,40.47781]},"properties":{"p":"1319F00048000000","a":"206 SAINT AUGUSTINE ST","m":"Findlay","u":"B","o":"corp","sf":8775,"v":300}},{"type":"Feature","geometry":{"type":"Point","coordinates":[-80.30853,40.47783]},"properties":{"p":"1319F00049000000","a":"204 SAINT AUGUSTINE ST","m":"Findlay","u":"B","o":"corp","sf":8775,"v":300}},{"type":"Feature","geometry":{"type":"Point","coordinates":[-80.3083,40.47785]},"properties":{"p":"1319F00050000000","a":"202 SAINT AUGUSTINE ST","m":"Findlay","u":"B","o":"corp","sf":8775,"v":300}},{"type":"Feature","geometry":{"type":"Point","coordinates":[-80.30804,40.47791]},"properties":{"p":"1319F00051000000","a":"SAINT AUGUSTINE ST","m":"Findlay","u":"B","o":"corp","sf":10666,"v":300}},{"type":"Feature","geometry":{"type":"Point","coordinates":[-80.30997,40.47669]},"properties":{"p":"1319K00026000000","a":"213 SAINT AUGUSTINE ST","m":"Findlay","u":"B","o":"corp","sf":8775,"v":300}},{"type":"Feature","geometry":{"type":"Point","coordinates":[-80.3101,40.47654]},"properties":{"p":"1319K00027000000","a":"215 SAINT AUGUSTINE ST","m":"Findlay","u":"B","o":"individual","sf":8775,"v":300}},{"type":"Feature","geometry":{"type":"Point","coordinates":[-80.31023,40.4764]},"properties":{"p":"1319K00028000000","a":"217 SAINT AUGUSTINE ST","m":"Findlay","u":"B","o":"corp","sf":8775,"v":300}},{"type":"Feature","geometry":{"type":"Point","coordinates":[-80.31036,40.47625]},"properties":{"p":"1319K00029000000","a":"219 SAINT AUGUSTINE ST","m":"Findlay","u":"B","o":"individual","sf":8775,"v":300}},{"type":"Feature","geometry":{"type":"Point","coordinates":[-80.3105,40.4761]},"properties":{"p":"1319K00030000000","a":"221 SAINT AUGUSTINE ST","m":"Findlay","u":"B","o":"corp","sf":8988,"v":300}},{"type":"Feature","geometry":{"type":"Point","coordinates":[-80.31065,40.47597]},"properties":{"p":"1319K00031000000","a":"223 SAINT AUGUSTINE ST","m":"Findlay","u":"B","o":"corp","sf":10038,"v":300}},{"type":"Feature","geometry":{"type":"Point","coordinates":[-80.31085,40.47583]},"properties":{"p":"1319K00032000000","a":"225 SAINT AUGUSTINE ST","m":"Findlay","u":"B","o":"individual","sf":10038,"v":300}},{"type":"Feature","geometry":{"type":"Point","coordinates":[-80.31108,40.47573]},"properties":{"p":"1319K00033000000","a":"227 SAINT AUGUSTINE ST","m":"Findlay","u":"B","o":"corp","sf":10038,"v":300}},{"type":"Feature","geometry":{"type":"Point","coordinates":[-80.31122,40.47623]},"properties":{"p":"1319K00034000000","a":"234 SAINT AUGUSTINE ST","m":"Findlay","u":"B","o":"corp","sf":9294,"v":300}},{"type":"Feature","geometry":{"type":"Point","coordinates":[-80.31107,40.47637]},"properties":{"p":"1319K00035000000","a":"232 SAINT AUGUSTINE ST","m":"Findlay","u":"B","o":"individual","sf":9011,"v":300}},{"type":"Feature","geometry":{"type":"Point","coordinates":[-80.31093,40.47651]},"properties":{"p":"1319K00036000000","a":"230 SAINT AUGUSTINE ST","m":"Findlay","u":"B","o":"corp","sf":8775,"v":300}},{"type":"Feature","geometry":{"type":"Point","coordinates":[-80.31067,40.47681]},"properties":{"p":"1319K00038000000","a":"226 SAINT AUGUSTINE ST","m":"Findlay","u":"B","o":"corp","sf":8775,"v":300}},{"type":"Feature","geometry":{"type":"Point","coordinates":[-80.30919,40.47716]},"properties":{"p":"1319F00021000000","a":"302 SAINT MICHAEL WAY","m":"Findlay","u":"B","o":"individual","sf":9095,"v":300}},{"type":"Feature","geometry":{"type":"Point","coordinates":[-80.30963,40.47719]},"properties":{"p":"1319F00023000000","a":"207 SAINT AUGUSTINE ST","m":"Findlay","u":"B","o":"corp","sf":9475,"v":300}},{"type":"Feature","geometry":{"type":"Point","coordinates":[-80.31028,40.47725]},"properties":{"p":"1319F00041000000","a":"220 SAINT AUGUSTINE ST","m":"Findlay","u":"B","o":"individual","sf":8775,"v":300}},{"type":"Feature","geometry":{"type":"Point","coordinates":[-80.3097,40.47697]},"properties":{"p":"1319K00024000000","a":"209 SAINT AUGUSTINE ST","m":"Findlay","u":"B","o":"corp","sf":7672,"v":300}},{"type":"Feature","geometry":{"type":"Point","coordinates":[-80.30985,40.47684]},"properties":{"p":"1319K00025000000","a":"211 SAINT AUGUSTINE ST","m":"Findlay","u":"B","o":"corp","sf":8761,"v":300}},{"type":"Feature","geometry":{"type":"Point","coordinates":[-80.30929,40.4766]},"properties":{"p":"1319K00118000000","a":"308 SAINT MICHAEL WAY","m":"Findlay","u":"B","o":"corp","sf":8588,"v":300}},{"type":"Feature","geometry":{"type":"Point","coordinates":[-80.30934,40.47678]},"properties":{"p":"1319K00119000000","a":"306 SAINT MICHAEL WAY","m":"Findlay","u":"B","o":"individual","sf":9031,"v":300}},{"type":"Feature","geometry":{"type":"Point","coordinates":[-80.30923,40.47695]},"properties":{"p":"1319K00120000000","a":"304 SAINT MICHAEL WAY","m":"Findlay","u":"B","o":"individual","sf":11075,"v":500}},{"type":"Feature","geometry":{"type":"Point","coordinates":[-80.30727,40.47657]},"properties":{"p":"1319L00001000000","a":"165 RAPHAEL CT","m":"Findlay","u":"B","o":"individual","sf":10962,"v":400}},{"type":"Feature","geometry":{"type":"Point","coordinates":[-80.30736,40.47714]},"properties":{"p":"1319L00004000000","a":"159 RAPHAEL CT","m":"Findlay","u":"B","o":"corp","sf":8775,"v":300}},{"type":"Feature","geometry":{"type":"Point","coordinates":[-80.3108,40.47666]},"properties":{"p":"1319K00037000000","a":"228 SAINT AUGUSTINE ST","m":"Findlay","u":"B","o":"individual","sf":8775,"v":300}},{"type":"Feature","geometry":{"type":"Point","coordinates":[-80.31013,40.47739]},"properties":{"p":"1319F00042000000","a":"218 SAINT AUGUSTINE ST","m":"Findlay","u":"B","o":"individual","sf":9768,"v":300}},{"type":"Feature","geometry":{"type":"Point","coordinates":[-80.309,40.47779]},"properties":{"p":"1319F00047000000","a":"208 SAINT AUGUSTINE ST","m":"Findlay","u":"B","o":"corp","sf":8775,"v":300}},{"type":"Feature","geometry":{"type":"Point","coordinates":[-80.30973,40.47765]},"properties":{"p":"1319F00044000000","a":"214 SAINT AUGUSTINE ST","m":"Findlay","u":"B","o":"individual","sf":10038,"v":300}},{"type":"Feature","geometry":{"type":"Point","coordinates":[-80.31006,40.4754]},"properties":{"p":"1319K00051000000","a":"103 HOLY CROSS DR","m":"Findlay","u":"B","o":"corp","sf":9829,"v":300}}]}