{"type":"FeatureCollection","features":[{"type":"Feature","geometry":{"type":"Point","coordinates":[-80.3002,40.49313]},"properties":{"p":"1321S00240000000","a":"US ROUTE 30","m":"Findlay","u":"C","o":"individual","sf":24045,"v":86100}},{"type":"Feature","geometry":{"type":"Point","coordinates":[-80.30024,40.49913]},"properties":{"p":"1321H00042000000","a":"MAPLE DR","m":"Findlay","u":"L","o":"individual","sf":21493,"v":26100}},{"type":"Feature","geometry":{"type":"Point","coordinates":[-80.30464,40.49508]},"properties":{"p":"1321L00081000000","a":"SUNSET DR","m":"Findlay","u":"L","o":"individual","sf":21741,"v":2000}},{"type":"Feature","geometry":{"type":"Point","coordinates":[-80.30073,40.49365]},"properties":{"p":"1321S00263000000","a":"CAMP MEETING RD","m":"Findlay","u":"L","o":"corp","sf":29728,"v":26900}},{"type":"Feature","geometry":{"type":"Point","coordinates":[-80.3004,40.49401]},"properties":{"p":"1321S00273000000","a":"24 CAMP MEETING RD","m":"Findlay","u":"L","o":"individual","sf":21653,"v":13200}},{"type":"Feature","geometry":{"type":"Point","coordinates":[-80.30129,40.4933]},"properties":{"p":"1321S00297000000","a":"CAMP MEETING RD","m":"Findlay","u":"L","o":"corp","sf":44780,"v":28300}},{"type":"Feature","geometry":{"type":"Point","coordinates":[-80.31925,40.49911]},"properties":{"p":"1470G00320000000","a":"FERGUSON RD","m":"Findlay","u":"L","o":"individual","sf":238970,"v":16500}},{"type":"Feature","geometry":{"type":"Point","coordinates":[-80.30287,40.50139]},"properties":{"p":"1322S00076000000","a":"CAMP MEETING RD","m":"Findlay","u":"L","o":"individual","sf":761886,"v":87200}},{"type":"Feature","geometry":{"type":"Point","coordinates":[-80.30081,40.49948]},"properties":{"p":"1321D00214000000","a":"MAPLE DR","m":"Findlay","u":"L","o":"corp","sf":20905,"v":26100}},{"type":"Feature","geometry":{"type":"Point","coordinates":[-80.30105,40.4997]},"properties":{"p":"1321D00224000000","a":"MAPLE DR","m":"Findlay","u":"L","o":"individual","sf":22945,"v":15000}},{"type":"Feature","geometry":{"type":"Point","coordinates":[-80.30128,40.49992]},"properties":{"p":"1321D00234000000","a":"CAMP MEETING RD","m":"Findlay","u":"L","o":"individual","sf":20630,"v":13500}},{"type":"Feature","geometry":{"type":"Point","coordinates":[-80.303,40.49204]},"properties":{"p":"1321S00130000000","a":"S POPLAR DR","m":"Findlay","u":"L","o":"individual","sf":10110,"v":1200}},{"type":"Feature","geometry":{"type":"Point","coordinates":[-80.30301,40.49177]},"properties":{"p":"1321S00132000000","a":"S POPLAR DR","m":"Findlay","u":"L","o":"individual","sf":10110,"v":1200}},{"type":"Feature","geometry":{"type":"Point","coordinates":[-80.30303,40.49117]},"properties":{"p":"1321S00138000000","a":"S POPLAR DR","m":"Findlay","u":"L","o":"individual","sf":10269,"v":1200}},{"type":"Feature","geometry":{"type":"Point","coordinates":[-80.31652,40.49208]},"properties":{"p":"1470M00001000000","a":"US ROUTE 30","m":"Findlay","u":"L","o":"corp","sf":2480524,"v":230400}},{"type":"Feature","geometry":{"type":"Point","coordinates":[-80.30117,40.49595]},"properties":{"p":"1321M00110000000","a":"CAMP MEETING RD","m":"Findlay","u":"L","o":"individual","sf":45738,"v":28400}},{"type":"Feature","geometry":{"type":"Point","coordinates":[-80.30127,40.49575]},"properties":{"p":"1321M00118000000","a":"35 CAMP MEETING RD","m":"Findlay","u":"L","o":"individual","sf":43560,"v":28200}},{"type":"Feature","geometry":{"type":"Point","coordinates":[-80.30203,40.49373]},"properties":{"p":"1321S00321000000","a":"1360 US ROUTE 30","m":"Findlay","u":"L","o":"individual","sf":60548,"v":29700}},{"type":"Feature","geometry":{"type":"Point","coordinates":[-80.30262,40.49345]},"properties":{"p":"1321S00340000000","a":"1368 US ROUTE 30","m":"Findlay","u":"L","o":"individual","sf":22911,"v":26300}},{"type":"Feature","geometry":{"type":"Point","coordinates":[-80.30364,40.49396]},"properties":{"p":"1321S00369000000","a":"N POPLAR DR","m":"Findlay","u":"L","o":"individual","sf":2000,"v":200}},{"type":"Feature","geometry":{"type":"Point","coordinates":[-80.30188,40.50046]},"properties":{"p":"1321D00268000000","a":"MAPLE DR","m":"Findlay","u":"L","o":"individual","sf":23043,"v":13000}},{"type":"Feature","geometry":{"type":"Point","coordinates":[-80.30043,40.50157]},"properties":{"p":"1181N00310000000","a":"CAMP MEETING RD","m":"Findlay","u":"L","o":"individual","sf":60243,"v":29700}},{"type":"Feature","geometry":{"type":"Point","coordinates":[-80.31263,40.49082]},"properties":{"p":"1320A00078000000","a":"MOORE LN","m":"Findlay","u":"L","o":"individual","sf":148614,"v":72300}},{"type":"Feature","geometry":{"type":"Point","coordinates":[-80.30666,40.4907]},"properties":{"p":"1320C00025000000","a":"207 KEYSTONE XING","m":"Findlay","u":"L","o":"individual","sf":13659,"v":35000}},{"type":"Feature","geometry":{"type":"Point","coordinates":[-80.30033,40.49158]},"properties":{"p":"1320D00102000000","a":"RIZOR LN","m":"Findlay","u":"L","o":"individual","sf":7325,"v":700}},{"type":"Feature","geometry":{"type":"Point","coordinates":[-80.30269,40.49115]},"properties":{"p":"1320D00381000000","a":"US ROUTE 30","m":"Findlay","u":"L","o":"individual","sf":16076,"v":23500}},{"type":"Feature","geometry":{"type":"Point","coordinates":[-80.30264,40.49602]},"properties":{"p":"1321M00318000000","a":"N POPLAR DR","m":"Findlay","u":"L","o":"individual","sf":63598,"v":23500}},{"type":"Feature","geometry":{"type":"Point","coordinates":[-80.30338,40.49274]},"properties":{"p":"9910X01539000000","a":"1383 US ROUTE 30","m":"Findlay","u":"L","o":"individual","sf":2704,"v":500}},{"type":"Feature","geometry":{"type":"Point","coordinates":[-80.30951,40.49426]},"properties":{"p":"1321P00328000000","a":"9 MANSE DR","m":"Findlay","u":"L","o":"corp","sf":2265,"v":200}},{"type":"Feature","geometry":{"type":"Point","coordinates":[-80.3074,40.49276]},"properties":{"p":"1321R00126000000","a":"US ROUTE 30","m":"Findlay","u":"L","o":"corp","sf":39640,"v":27800}},{"type":"Feature","geometry":{"type":"Point","coordinates":[-80.30678,40.49252]},"properties":{"p":"1321R00141000000","a":"271 MOODY RD","m":"Findlay","u":"L","o":"corp","sf":36767,"v":27500}},{"type":"Feature","geometry":{"type":"Point","coordinates":[-80.30779,40.50308]},"properties":{"p":"9910X82206000000","a":"MATCHETTE RD","m":"Findlay","u":"L","o":"corp","sf":128938,"v":1500}},{"type":"Feature","geometry":{"type":"Point","coordinates":[-80.31165,40.49031]},"properties":{"p":"1320A00056000000","a":"MOORE LN","m":"Findlay","u":"L","o":"individual","sf":130715,"v":70000}},{"type":"Feature","geometry":{"type":"Point","coordinates":[-80.30174,40.49402]},"properties":{"p":"1321S00285000000","a":"CAMP MEETING RD","m":"Findlay","u":"L","o":"individual","sf":5532,"v":500}},{"type":"Feature","geometry":{"type":"Point","coordinates":[-80.30302,40.49151]},"properties":{"p":"1321S00136000000","a":"S POPLAR DR","m":"Findlay","u":"L","o":"individual","sf":10110,"v":1200}},{"type":"Feature","geometry":{"type":"Point","coordinates":[-80.30266,40.49388]},"properties":{"p":"1321S00346000000","a":"US ROUTE 30","m":"Findlay","u":"L","o":"individual","sf":3750,"v":300}},{"type":"Feature","geometry":{"type":"Point","coordinates":[-80.30496,40.49402]},"properties":{"p":"1321R00286000000","a":"US ROUTE 30","m":"Findlay","u":"L","o":"corp","sf":260576,"v":47100}},{"type":"Feature","geometry":{"type":"Point","coordinates":[-80.30177,40.49373]},"properties":{"p":"1321S00302000000","a":"1360 US ROUTE 30","m":"Findlay","u":"L","o":"individual","sf":2095,"v":200}},{"type":"Feature","geometry":{"type":"Point","coordinates":[-80.30166,40.49463]},"properties":{"p":"1321M00170000000","a":"CAMP MEETING RD","m":"Findlay","u":"L","o":"individual","sf":28706,"v":2600}}]}