{"type":"FeatureCollection","features":[{"type":"Feature","geometry":{"type":"Point","coordinates":[-80.28941,40.49674]},"properties":{"p":"1180G00050000000","a":"2201 SWEENEY DR","m":"Findlay","u":"I","o":"corp","sf":815792,"v":519700}},{"type":"Feature","geometry":{"type":"Point","coordinates":[-80.29985,40.49334]},"properties":{"p":"1321S00238000000","a":"US ROUTE 30","m":"Findlay","u":"C","o":"individual","sf":81339,"v":24400}},{"type":"Feature","geometry":{"type":"Point","coordinates":[-80.2911,40.50401]},"properties":{"p":"1180B00150000000","a":"2400 -2450 SWEENEY DR","m":"Findlay","u":"C","o":"corp","sf":713731,"v":584600}},{"type":"Feature","geometry":{"type":"Point","coordinates":[-80.2992,40.49606]},"properties":{"p":"1180J00162000000","a":"55 MATCHETTE RD","m":"Findlay","u":"C","o":"corp","sf":85933,"v":194000}},{"type":"Feature","geometry":{"type":"Point","coordinates":[-80.29979,40.49246]},"properties":{"p":"1321S00216000000","a":"US ROUTE 30","m":"Findlay","u":"L","o":"individual","sf":15838,"v":23300}},{"type":"Feature","geometry":{"type":"Point","coordinates":[-80.29707,40.49041]},"properties":{"p":"1179A00140000000","a":"US ROUTE 30","m":"Findlay","u":"L","o":"corp","sf":8528,"v":18500}},{"type":"Feature","geometry":{"type":"Point","coordinates":[-80.29712,40.49079]},"properties":{"p":"1179A00147000000","a":"US ROUTE 30","m":"Findlay","u":"L","o":"corp","sf":9216,"v":19000}},{"type":"Feature","geometry":{"type":"Point","coordinates":[-80.29743,40.49032]},"properties":{"p":"1179A00158000000","a":"COULTER LN","m":"Findlay","u":"L","o":"corp","sf":7178,"v":17700}},{"type":"Feature","geometry":{"type":"Point","coordinates":[-80.29741,40.49093]},"properties":{"p":"1179A00175000000","a":"US ROUTE 30","m":"Findlay","u":"L","o":"corp","sf":17415,"v":24300}},{"type":"Feature","geometry":{"type":"Point","coordinates":[-80.28946,40.49035]},"properties":{"p":"1179C00317000000","a":"CLINTON RD","m":"Findlay","u":"L","o":"individual","sf":297950,"v":46000}},{"type":"Feature","geometry":{"type":"Point","coordinates":[-80.29879,40.49657]},"properties":{"p":"1180E00100000000","a":"MATCHETTE RD","m":"Findlay","u":"L","o":"individual","sf":28620,"v":1500}},{"type":"Feature","geometry":{"type":"Point","coordinates":[-80.28828,40.49521]},"properties":{"p":"1180L00099000000","a":"CLINTON RD","m":"Findlay","u":"L","o":"individual","sf":2722,"v":200}},{"type":"Feature","geometry":{"type":"Point","coordinates":[-80.28836,40.49509]},"properties":{"p":"1180L00109000000","a":"CLINTON RD","m":"Findlay","u":"L","o":"individual","sf":32670,"v":27100}},{"type":"Feature","geometry":{"type":"Point","coordinates":[-80.29054,40.49407]},"properties":{"p":"1180R00379000000","a":"1091 CLINTON RD","m":"Findlay","u":"L","o":"individual","sf":23522,"v":26300}},{"type":"Feature","geometry":{"type":"Point","coordinates":[-80.2998,40.50081]},"properties":{"p":"1180A00389000000","a":"CAMP MEETING RD","m":"Findlay","u":"L","o":"corp","sf":24699,"v":13400}},{"type":"Feature","geometry":{"type":"Point","coordinates":[-80.2882,40.49208]},"properties":{"p":"1180R00075000000","a":"MCCASLIN RD","m":"Findlay","u":"L","o":"individual","sf":32670,"v":1000}},{"type":"Feature","geometry":{"type":"Point","coordinates":[-80.28819,40.49262]},"properties":{"p":"1180R00095000000","a":"MCCASLIN RD","m":"Findlay","u":"L","o":"individual","sf":26681,"v":1000}},{"type":"Feature","geometry":{"type":"Point","coordinates":[-80.28803,40.49133]},"properties":{"p":"1179C00012000000","a":"MCCASLIN RD","m":"Findlay","u":"L","o":"individual","sf":36155,"v":27500}},{"type":"Feature","geometry":{"type":"Point","coordinates":[-80.29491,40.49509]},"properties":{"p":"1180K00295000000","a":"CLINTON LAKE RD","m":"Findlay","u":"L","o":"corp","sf":179662,"v":76800}},{"type":"Feature","geometry":{"type":"Point","coordinates":[-80.28739,40.49322]},"properties":{"p":"1180R00174000000","a":"MCCASLIN RD","m":"Findlay","u":"L","o":"individual","sf":101125,"v":3000}},{"type":"Feature","geometry":{"type":"Point","coordinates":[-80.289,40.49374]},"properties":{"p":"1180R00220000000","a":"CLINTON RD","m":"Findlay","u":"L","o":"individual","sf":37536,"v":27600}},{"type":"Feature","geometry":{"type":"Point","coordinates":[-80.28992,40.49337]},"properties":{"p":"1180R00324000000","a":"1088 CLINTON RD","m":"Findlay","u":"L","o":"individual","sf":14180,"v":9200}},{"type":"Feature","geometry":{"type":"Point","coordinates":[-80.29908,40.49348]},"properties":{"p":"1180N00303000000","a":"US ROUTE 30","m":"Findlay","u":"L","o":"corp","sf":186729,"v":90000}},{"type":"Feature","geometry":{"type":"Point","coordinates":[-80.29243,40.4908]},"properties":{"p":"1179B00153000000","a":"1034 CLINTON RD","m":"Findlay","u":"L","o":"individual","sf":21672,"v":26200}},{"type":"Feature","geometry":{"type":"Point","coordinates":[-80.29183,40.49264]},"properties":{"p":"1180P00250000000","a":"CLINTON LAKE RD","m":"Findlay","u":"L","o":"corp","sf":15262,"v":8700}},{"type":"Feature","geometry":{"type":"Point","coordinates":[-80.2893,40.49176]},"properties":{"p":"1180R00020000000","a":"MCCASLIN RD","m":"Findlay","u":"L","o":"individual","sf":16229,"v":23600}},{"type":"Feature","geometry":{"type":"Point","coordinates":[-80.28879,40.4911]},"properties":{"p":"1180R00050000000","a":"MCCASLIN RD","m":"Findlay","u":"L","o":"individual","sf":25060,"v":26500}},{"type":"Feature","geometry":{"type":"Point","coordinates":[-80.29756,40.49201]},"properties":{"p":"1180N00248000000","a":"MATCHETTE RD","m":"Findlay","u":"L","o":"corp","sf":20005,"v":26000}},{"type":"Feature","geometry":{"type":"Point","coordinates":[-80.29998,40.49191]},"properties":{"p":"1321S00003000000","a":"RIZOR LN","m":"Findlay","u":"L","o":"individual","sf":10280,"v":900}},{"type":"Feature","geometry":{"type":"Point","coordinates":[-80.29695,40.49113]},"properties":{"p":"1179A00044000000","a":"US ROUTE 30","m":"Findlay","u":"L","o":"corp","sf":12500,"v":1100}}]}