{"type":"FeatureCollection","features":[{"type":"Feature","geometry":{"type":"Point","coordinates":[-80.26429,40.42939]},"properties":{"p":"0915J00004000000","a":"ROUTE 22","m":"North Fayette","u":"I","o":"corp","sf":39267,"v":2900}},{"type":"Feature","geometry":{"type":"Point","coordinates":[-80.26322,40.4289]},"properties":{"p":"0915E00001000000","a":"WILLIAM PENN HWY","m":"North Fayette","u":"C","o":"corp","sf":162479,"v":24400}},{"type":"Feature","geometry":{"type":"Point","coordinates":[-80.26547,40.42957]},"properties":{"p":"0915E00002000000","a":"100 KELSO RD","m":"North Fayette","u":"L","o":"corp","sf":304088,"v":50500}},{"type":"Feature","geometry":{"type":"Point","coordinates":[-80.27935,40.42337]},"properties":{"p":"1040N00001000000","a":"SEABRIGHT RD","m":"North Fayette","u":"L","o":"individual","sf":843866,"v":63300}}]}