{"type":"FeatureCollection","features":[{"type":"Feature","geometry":{"type":"Point","coordinates":[-80.27441,40.52874]},"properties":{"p":"1051R00235000000","a":"ECONOMY GRADE RD","m":"Findlay","u":"I","o":"corp","sf":1015340,"v":62000}},{"type":"Feature","geometry":{"type":"Point","coordinates":[-80.26601,40.51561]},"properties":{"p":"1079M00075000000","a":"701 FLAUGHERTY RUN RD","m":"Findlay","u":"C","o":"corp","sf":388556,"v":1404000}},{"type":"Feature","geometry":{"type":"Point","coordinates":[-80.26521,40.5173]},"properties":{"p":"1049H00024000000","a":"100 BRYAN ST","m":"Findlay","u":"C","o":"corp","sf":840799,"v":576000}},{"type":"Feature","geometry":{"type":"Point","coordinates":[-80.26633,40.51452]},"properties":{"p":"1049M00059000000","a":"661 MOON CLINTON RD","m":"Findlay","u":"C","o":"individual","sf":40807,"v":123600}},{"type":"Feature","geometry":{"type":"Point","coordinates":[-80.2674,40.51572]},"properties":{"p":"1049M00101000000","a":"701 FLAUGHERTY RUN RD","m":"Findlay","u":"C","o":"corp","sf":47045,"v":156000}},{"type":"Feature","geometry":{"type":"Point","coordinates":[-80.26974,40.51561]},"properties":{"p":"1049M00341000000","a":"HOOKSTOWN GRADE RD","m":"Findlay","u":"C","o":"individual","sf":10090,"v":3000}},{"type":"Feature","geometry":{"type":"Point","coordinates":[-80.26796,40.51905]},"properties":{"p":"1049D00176000000","a":"600 FLAUGHERTY RUN RD EXT","m":"Findlay","u":"C","o":"corp","sf":69696,"v":103900}},{"type":"Feature","geometry":{"type":"Point","coordinates":[-80.26993,40.51589]},"properties":{"p":"1049H00007000000","a":"HOOKSTOWN GRADE RD","m":"Findlay","u":"C","o":"individual","sf":18125,"v":5400}},{"type":"Feature","geometry":{"type":"Point","coordinates":[-80.263,40.51528]},"properties":{"p":"0942J00268000000","a":"701 FLAUGHERTY RUN RD","m":"Findlay","u":"C","o":"corp","sf":50000,"v":156000}},{"type":"Feature","geometry":{"type":"Point","coordinates":[-80.26344,40.5135]},"properties":{"p":"0924J00136000000","a":"617 MOON CLINTON RD","m":"Findlay","u":"C","o":"corp","sf":41382,"v":12400}},{"type":"Feature","geometry":{"type":"Point","coordinates":[-80.26758,40.52065]},"properties":{"p":"1049D00179000000","a":"36 SPRING RUN RD EXT","m":"Findlay","u":"L","o":"individual","sf":25806,"v":26500}},{"type":"Feature","geometry":{"type":"Point","coordinates":[-80.26187,40.51292]},"properties":{"p":"0924K00324000000","a":"MOON CLINTON RD","m":"Findlay","u":"L","o":"corp","sf":148104,"v":155600}},{"type":"Feature","geometry":{"type":"Point","coordinates":[-80.26478,40.5114]},"properties":{"p":"0924N00034000000","a":"MOON CLINTON RD","m":"Findlay","u":"L","o":"individual","sf":31363,"v":2800}},{"type":"Feature","geometry":{"type":"Point","coordinates":[-80.26987,40.51784]},"properties":{"p":"1049H00048000000","a":"HOOKSTOWN GRADE RD","m":"Findlay","u":"L","o":"corp","sf":245025,"v":46000}},{"type":"Feature","geometry":{"type":"Point","coordinates":[-80.27024,40.51517]},"properties":{"p":"1049M00069000000","a":"HOOKSTOWN GRADE RD","m":"Findlay","u":"L","o":"individual","sf":31798,"v":5000}},{"type":"Feature","geometry":{"type":"Point","coordinates":[-80.26621,40.52069]},"properties":{"p":"1049D00025000000","a":"8 SPRING RUN ROAD EXT","m":"Findlay","u":"L","o":"individual","sf":579784,"v":52500}},{"type":"Feature","geometry":{"type":"Point","coordinates":[-80.27114,40.51694]},"properties":{"p":"1049G00036000000","a":"HOOKSTOWN GRADE RD","m":"Findlay","u":"L","o":"individual","sf":20996,"v":26100}},{"type":"Feature","geometry":{"type":"Point","coordinates":[-80.27103,40.51798]},"properties":{"p":"1049G00044000000","a":"HOOKSTOWN GRADE RD","m":"Findlay","u":"L","o":"individual","sf":179467,"v":40600}},{"type":"Feature","geometry":{"type":"Point","coordinates":[-80.2625,40.51507]},"properties":{"p":"0924J00258000000","a":"STARRY AVE","m":"Findlay","u":"L","o":"individual","sf":25000,"v":2300}},{"type":"Feature","geometry":{"type":"Point","coordinates":[-80.2611,40.51444]},"properties":{"p":"0924K00152000000","a":"MOON CLINTON RD","m":"Findlay","u":"L","o":"individual","sf":17559,"v":24400}},{"type":"Feature","geometry":{"type":"Point","coordinates":[-80.27323,40.51796]},"properties":{"p":"1049G00366000000","a":"HOOKSTOWN GRADE RD","m":"Findlay","u":"L","o":"individual","sf":26267,"v":26600}},{"type":"Feature","geometry":{"type":"Point","coordinates":[-80.26889,40.52795]},"properties":{"p":"1050H00051000000","a":"WHISPERING WOODS DR","m":"Findlay","u":"L","o":"individual","sf":21995,"v":2000}},{"type":"Feature","geometry":{"type":"Point","coordinates":[-80.26861,40.52753]},"properties":{"p":"1050H00055000000","a":"WHISPERING WOODS DR","m":"Findlay","u":"L","o":"individual","sf":34961,"v":27400}},{"type":"Feature","geometry":{"type":"Point","coordinates":[-80.2682,40.52744]},"properties":{"p":"1050H00057000000","a":"WHISPERING WOODS DR","m":"Findlay","u":"L","o":"individual","sf":3625,"v":300}},{"type":"Feature","geometry":{"type":"Point","coordinates":[-80.26792,40.52724]},"properties":{"p":"1050H00059000000","a":"WHISPERING WOODS DR","m":"Findlay","u":"L","o":"individual","sf":3625,"v":300}},{"type":"Feature","geometry":{"type":"Point","coordinates":[-80.27793,40.52415]},"properties":{"p":"1050L00090000000","a":"SPRING RUN RD","m":"Findlay","u":"L","o":"individual","sf":4410655,"v":207300}},{"type":"Feature","geometry":{"type":"Point","coordinates":[-80.26075,40.51237]},"properties":{"p":"0924P00221000000","a":"BOUNDARY ST","m":"Findlay","u":"L","o":"corp","sf":73852,"v":30900}},{"type":"Feature","geometry":{"type":"Point","coordinates":[-80.26012,40.51087]},"properties":{"p":"0923B00086000000","a":"MOON ENLOW RD","m":"Findlay","u":"L","o":"corp","sf":51915,"v":28900}},{"type":"Feature","geometry":{"type":"Point","coordinates":[-80.26907,40.51546]},"properties":{"p":"1049M00354000000","a":"HOOKSTOWN GRADE RD","m":"Findlay","u":"L","o":"individual","sf":24604,"v":2200}},{"type":"Feature","geometry":{"type":"Point","coordinates":[-80.26811,40.51623]},"properties":{"p":"1049M00383000000","a":"FLAUGHERTY RUN RD","m":"Findlay","u":"L","o":"individual","sf":41556,"v":27900}},{"type":"Feature","geometry":{"type":"Point","coordinates":[-80.26903,40.51765]},"properties":{"p":"1049M00394000000","a":"HOOKSTOWN GRADE RD","m":"Findlay","u":"L","o":"individual","sf":174240,"v":40200}},{"type":"Feature","geometry":{"type":"Point","coordinates":[-80.26933,40.52953]},"properties":{"p":"1050D00101000000","a":"ELMHURST DR","m":"Findlay","u":"L","o":"individual","sf":10100,"v":19600}},{"type":"Feature","geometry":{"type":"Point","coordinates":[-80.26066,40.52016]},"properties":{"p":"0924A00051000000","a":"MOON CLINTON RD","m":"Findlay","u":"L","o":"corp","sf":2237154,"v":51400}},{"type":"Feature","geometry":{"type":"Point","coordinates":[-80.26366,40.5233]},"properties":{"p":"0925J00100000000","a":"WHISPERING WOODS DR","m":"Moon","u":"L","o":"corp","sf":18016,"v":1800}},{"type":"Feature","geometry":{"type":"Point","coordinates":[-80.26392,40.52229]},"properties":{"p":"0925N00160000000","a":"FLAUGHERTY RUN RD","m":"Moon","u":"L","o":"individual","sf":202510,"v":52500}},{"type":"Feature","geometry":{"type":"Point","coordinates":[-80.26253,40.52376]},"properties":{"p":"0925N00170000000","a":"JACKSON RD","m":"Moon","u":"L","o":"individual","sf":65340,"v":800}},{"type":"Feature","geometry":{"type":"Point","coordinates":[-80.26914,40.52921]},"properties":{"p":"1050D00103000000","a":"ELMHURST DR","m":"Findlay","u":"L","o":"individual","sf":15000,"v":1400}},{"type":"Feature","geometry":{"type":"Point","coordinates":[-80.2607,40.51332]},"properties":{"p":"0924P00216000000","a":"BOUNDARY ST","m":"Findlay","u":"L","o":"corp","sf":40390,"v":27800}},{"type":"Feature","geometry":{"type":"Point","coordinates":[-80.26867,40.52784]},"properties":{"p":"1050H00053000000","a":"WHISPERING WOODS DR","m":"Findlay","u":"L","o":"individual","sf":26740,"v":26600}},{"type":"Feature","geometry":{"type":"Point","coordinates":[-80.26882,40.52848]},"properties":{"p":"1050D00105000000","a":"WHISPERING WOODS DR","m":"Findlay","u":"L","o":"individual","sf":25169,"v":2300}},{"type":"Feature","geometry":{"type":"Point","coordinates":[-80.26507,40.51954]},"properties":{"p":"0924A00018000000","a":"118 VICTORIA DR","m":"Findlay","u":"B","o":"corp","sf":8309,"v":300}},{"type":"Feature","geometry":{"type":"Point","coordinates":[-80.26489,40.51966]},"properties":{"p":"0924A00019000000","a":"120 VICTORIA DR","m":"Findlay","u":"B","o":"individual","sf":8678,"v":300}},{"type":"Feature","geometry":{"type":"Point","coordinates":[-80.2647,40.51977]},"properties":{"p":"0924A00020000000","a":"122 VICTORIA DR","m":"Findlay","u":"B","o":"corp","sf":8129,"v":300}},{"type":"Feature","geometry":{"type":"Point","coordinates":[-80.2645,40.51986]},"properties":{"p":"0924A00021000000","a":"124 VICTORIA DR","m":"Findlay","u":"B","o":"corp","sf":8328,"v":300}},{"type":"Feature","geometry":{"type":"Point","coordinates":[-80.26428,40.51994]},"properties":{"p":"0924A00022000000","a":"128 VICTORIA DR","m":"Findlay","u":"B","o":"corp","sf":8690,"v":300}},{"type":"Feature","geometry":{"type":"Point","coordinates":[-80.26428,40.52044]},"properties":{"p":"0924A00039000000","a":"131 VICTORIA DR","m":"Findlay","u":"B","o":"individual","sf":8460,"v":300}},{"type":"Feature","geometry":{"type":"Point","coordinates":[-80.26452,40.52038]},"properties":{"p":"0924A00040000000","a":"129 VICTORIA DR","m":"Findlay","u":"B","o":"individual","sf":8730,"v":300}},{"type":"Feature","geometry":{"type":"Point","coordinates":[-80.26474,40.5203]},"properties":{"p":"0924A00041000000","a":"127 VICTORIA DR","m":"Findlay","u":"B","o":"corp","sf":8641,"v":300}},{"type":"Feature","geometry":{"type":"Point","coordinates":[-80.26495,40.52021]},"properties":{"p":"0924A00042000000","a":"125 VICTORIA DR","m":"Findlay","u":"B","o":"corp","sf":8060,"v":300}},{"type":"Feature","geometry":{"type":"Point","coordinates":[-80.26534,40.51999]},"properties":{"p":"0924A00044000000","a":"121 VICTORIA DR","m":"Findlay","u":"B","o":"individual","sf":8460,"v":300}},{"type":"Feature","geometry":{"type":"Point","coordinates":[-80.26551,40.51987]},"properties":{"p":"0924A00045000000","a":"119 VICTORIA DR","m":"Findlay","u":"B","o":"individual","sf":8383,"v":300}},{"type":"Feature","geometry":{"type":"Point","coordinates":[-80.26639,40.51872]},"properties":{"p":"0924A00011000000","a":"102 VICTORIA DR","m":"Findlay","u":"B","o":"corp","sf":10185,"v":500}},{"type":"Feature","geometry":{"type":"Point","coordinates":[-80.26586,40.51883]},"properties":{"p":"0924A00013000000","a":"106 VICTORIA DR","m":"Findlay","u":"B","o":"individual","sf":10185,"v":500}},{"type":"Feature","geometry":{"type":"Point","coordinates":[-80.2656,40.51887]},"properties":{"p":"0924A00014000000","a":"110 VICTORIA DR","m":"Findlay","u":"B","o":"individual","sf":9637,"v":500}},{"type":"Feature","geometry":{"type":"Point","coordinates":[-80.26544,40.51903]},"properties":{"p":"0924A00015000000","a":"112 VICTORIA DR","m":"Findlay","u":"B","o":"corp","sf":8255,"v":300}},{"type":"Feature","geometry":{"type":"Point","coordinates":[-80.26545,40.5193]},"properties":{"p":"0924A00016000000","a":"114 VICTORIA DR","m":"Findlay","u":"B","o":"corp","sf":8902,"v":300}},{"type":"Feature","geometry":{"type":"Point","coordinates":[-80.26523,40.51941]},"properties":{"p":"0924A00017000000","a":"116 VICTORIA DR","m":"Findlay","u":"B","o":"corp","sf":8060,"v":300}},{"type":"Feature","geometry":{"type":"Point","coordinates":[-80.26568,40.51974]},"properties":{"p":"0924A00046000000","a":"117 VICTORIA DR","m":"Findlay","u":"B","o":"corp","sf":8060,"v":300}},{"type":"Feature","geometry":{"type":"Point","coordinates":[-80.26584,40.5196]},"properties":{"p":"0924A00047000000","a":"115 VICTORIA DR","m":"Findlay","u":"B","o":"individual","sf":8711,"v":300}},{"type":"Feature","geometry":{"type":"Point","coordinates":[-80.26606,40.51954]},"properties":{"p":"0924A00048000000","a":"113 VICTORIA DR","m":"Findlay","u":"B","o":"corp","sf":8694,"v":300}},{"type":"Feature","geometry":{"type":"Point","coordinates":[-80.2605,40.52206]},"properties":{"p":"0925P00314000000","a":"171 VICTORIA DR","m":"Moon","u":"B","o":"corp","sf":9301,"v":300}},{"type":"Feature","geometry":{"type":"Point","coordinates":[-80.26071,40.52196]},"properties":{"p":"0925P00315000000","a":"169 VICTORIA DR","m":"Moon","u":"B","o":"corp","sf":9550,"v":300}},{"type":"Feature","geometry":{"type":"Point","coordinates":[-80.26091,40.52182]},"properties":{"p":"0925P00316000000","a":"165 VICTORIA DR","m":"Moon","u":"B","o":"corp","sf":9550,"v":300}},{"type":"Feature","geometry":{"type":"Point","coordinates":[-80.26115,40.52172]},"properties":{"p":"0925P00317000000","a":"163 VICTORIA DR","m":"Moon","u":"B","o":"corp","sf":9550,"v":300}},{"type":"Feature","geometry":{"type":"Point","coordinates":[-80.26141,40.52166]},"properties":{"p":"0925P00318000000","a":"161 VICTORIA DR","m":"Moon","u":"B","o":"corp","sf":9356,"v":300}},{"type":"Feature","geometry":{"type":"Point","coordinates":[-80.26205,40.52167]},"properties":{"p":"0925P00320000000","a":"157 VICTORIA DR","m":"Moon","u":"B","o":"individual","sf":11152,"v":500}},{"type":"Feature","geometry":{"type":"Point","coordinates":[-80.26231,40.52153]},"properties":{"p":"0925P00321000000","a":"155 VICTORIA DR","m":"Moon","u":"B","o":"corp","sf":12204,"v":500}},{"type":"Feature","geometry":{"type":"Point","coordinates":[-80.26199,40.52102]},"properties":{"p":"0925P00300000000","a":"152 VICTORIA DR","m":"Moon","u":"B","o":"corp","sf":9787,"v":500}},{"type":"Feature","geometry":{"type":"Point","coordinates":[-80.26171,40.52109]},"properties":{"p":"0925P00301000000","a":"156 VICTORIA DR","m":"Moon","u":"B","o":"corp","sf":9787,"v":500}},{"type":"Feature","geometry":{"type":"Point","coordinates":[-80.26145,40.52116]},"properties":{"p":"0925P00302000000","a":"158 VICTORIA DR","m":"Moon","u":"B","o":"corp","sf":8977,"v":300}},{"type":"Feature","geometry":{"type":"Point","coordinates":[-80.2612,40.52121]},"properties":{"p":"0925P00303000000","a":"160 VICTORIA DR","m":"Moon","u":"B","o":"corp","sf":8663,"v":300}},{"type":"Feature","geometry":{"type":"Point","coordinates":[-80.26096,40.52126]},"properties":{"p":"0925P00304000000","a":"162 VICTORIA DR","m":"Moon","u":"B","o":"corp","sf":9330,"v":300}},{"type":"Feature","geometry":{"type":"Point","coordinates":[-80.26071,40.52135]},"properties":{"p":"0925P00305000000","a":"164 VICTORIA DR","m":"Moon","u":"B","o":"individual","sf":9330,"v":300}},{"type":"Feature","geometry":{"type":"Point","coordinates":[-80.26049,40.52147]},"properties":{"p":"0925P00306000000","a":"166 VICTORIA DR","m":"Moon","u":"B","o":"individual","sf":9330,"v":300}},{"type":"Feature","geometry":{"type":"Point","coordinates":[-80.26028,40.52161]},"properties":{"p":"0925P00307000000","a":"168 VICTORIA DR","m":"Moon","u":"B","o":"corp","sf":10169,"v":500}},{"type":"Feature","geometry":{"type":"Point","coordinates":[-80.26006,40.52173]},"properties":{"p":"0925P00308000000","a":"172 VICTORIA DR","m":"Moon","u":"B","o":"individual","sf":9961,"v":500}},{"type":"Feature","geometry":{"type":"Point","coordinates":[-80.26234,40.52128]},"properties":{"p":"0925N00020000000","a":"153 VICTORIA DR","m":"Moon","u":"B","o":"corp","sf":9508,"v":300}},{"type":"Feature","geometry":{"type":"Point","coordinates":[-80.26259,40.52116]},"properties":{"p":"0925N00021000000","a":"151 VICTORIA DR","m":"Moon","u":"B","o":"corp","sf":9378,"v":300}},{"type":"Feature","geometry":{"type":"Point","coordinates":[-80.26268,40.52095]},"properties":{"p":"0925N00022000000","a":"149 VICTORIA DR","m":"Moon","u":"B","o":"corp","sf":8680,"v":300}},{"type":"Feature","geometry":{"type":"Point","coordinates":[-80.2635,40.52051]},"properties":{"p":"0924A00036000000","a":"137 VICTORIA DR","m":"Moon","u":"B","o":"individual","sf":8729,"v":300}},{"type":"Feature","geometry":{"type":"Point","coordinates":[-80.26375,40.52049]},"properties":{"p":"0924A00037000000","a":"135 VICTORIA DR","m":"Moon","u":"B","o":"individual","sf":8711,"v":300}},{"type":"Feature","geometry":{"type":"Point","coordinates":[-80.26402,40.52047]},"properties":{"p":"0924A00038000000","a":"133 VICTORIA DR","m":"Moon","u":"B","o":"individual","sf":10172,"v":500}},{"type":"Feature","geometry":{"type":"Point","coordinates":[-80.26378,40.52002]},"properties":{"p":"0924A00024000000","a":"134 VICTORIA DR","m":"Moon","u":"B","o":"corp","sf":9649,"v":300}},{"type":"Feature","geometry":{"type":"Point","coordinates":[-80.26326,40.52006]},"properties":{"p":"0924A00026000000","a":"138 VICTORIA DR","m":"Moon","u":"B","o":"corp","sf":9445,"v":300}},{"type":"Feature","geometry":{"type":"Point","coordinates":[-80.26299,40.52011]},"properties":{"p":"0924A00027000000","a":"140 VICTORIA DR","m":"Moon","u":"B","o":"individual","sf":9614,"v":300}},{"type":"Feature","geometry":{"type":"Point","coordinates":[-80.26274,40.5202]},"properties":{"p":"0924A00028000000","a":"142 VICTORIA DR","m":"Moon","u":"B","o":"individual","sf":9614,"v":500}},{"type":"Feature","geometry":{"type":"Point","coordinates":[-80.26252,40.52032]},"properties":{"p":"0924A00029000000","a":"144 VICTORIA DR","m":"Moon","u":"B","o":"corp","sf":9614,"v":500}},{"type":"Feature","geometry":{"type":"Point","coordinates":[-80.26229,40.52043]},"properties":{"p":"0924A00030000000","a":"146 VICTORIA DR","m":"Moon","u":"B","o":"corp","sf":9614,"v":500}},{"type":"Feature","geometry":{"type":"Point","coordinates":[-80.26213,40.52055]},"properties":{"p":"0924A00031000000","a":"148 VICTORIA DR","m":"Moon","u":"B","o":"corp","sf":8909,"v":300}},{"type":"Feature","geometry":{"type":"Point","coordinates":[-80.26213,40.52087]},"properties":{"p":"0924A00032000000","a":"150 VICTORIA DR","m":"Moon","u":"B","o":"corp","sf":8883,"v":300}},{"type":"Feature","geometry":{"type":"Point","coordinates":[-80.26276,40.52076]},"properties":{"p":"0924A00033000000","a":"147 VICTORIA DR","m":"Moon","u":"B","o":"corp","sf":9444,"v":300}},{"type":"Feature","geometry":{"type":"Point","coordinates":[-80.26299,40.52065]},"properties":{"p":"0924A00034000000","a":"143 VICTORIA DR","m":"Moon","u":"B","o":"corp","sf":9787,"v":500}},{"type":"Feature","geometry":{"type":"Point","coordinates":[-80.26404,40.52]},"properties":{"p":"0924A00023000000","a":"130 VICTORIA DR","m":"Findlay","u":"B","o":"corp","sf":8747,"v":300}},{"type":"Feature","geometry":{"type":"Point","coordinates":[-80.26041,40.52229]},"properties":{"p":"0925P00313000000","a":"175 VICTORIA DR","m":"Moon","u":"B","o":"corp","sf":9890,"v":500}},{"type":"Feature","geometry":{"type":"Point","coordinates":[-80.26668,40.51879]},"properties":{"p":"0924A00010000000","a":"100 VICTORIA DR","m":"Findlay","u":"B","o":"corp","sf":12235,"v":500}},{"type":"Feature","geometry":{"type":"Point","coordinates":[-80.26352,40.52003]},"properties":{"p":"0924A00025000000","a":"136 VICTORIA DR","m":"Moon","u":"B","o":"individual","sf":8680,"v":300}},{"type":"Feature","geometry":{"type":"Point","coordinates":[-80.26605,40.51924]},"properties":{"p":"0924A00049000000","a":"105 VICTORIA DR","m":"Findlay","u":"B","o":"corp","sf":9579,"v":300}},{"type":"Feature","geometry":{"type":"Point","coordinates":[-80.26324,40.52055]},"properties":{"p":"0924A00035000000","a":"139 VICTORIA DR","m":"Moon","u":"B","o":"corp","sf":9787,"v":400}},{"type":"Feature","geometry":{"type":"Point","coordinates":[-80.26514,40.5201]},"properties":{"p":"0924A00043000000","a":"123 VICTORIA DR","m":"Findlay","u":"B","o":"corp","sf":8419,"v":300}},{"type":"Feature","geometry":{"type":"Point","coordinates":[-80.26172,40.52169]},"properties":{"p":"0925P00319000000","a":"159 VICTORIA DR","m":"Moon","u":"B","o":"individual","sf":12730,"v":500}}]}