{"type":"FeatureCollection","features":[{"type":"Feature","geometry":{"type":"Point","coordinates":[-80.24563,40.42993]},"properties":{"p":"0915H00001000000","a":"PATTRIDGE LN","m":"North Fayette","u":"C","o":"corp","sf":1620432,"v":272900}},{"type":"Feature","geometry":{"type":"Point","coordinates":[-80.24206,40.42831]},"properties":{"p":"0798P00001000000","a":"SADDLE RIDGE DR","m":"North Fayette","u":"C","o":"corp","sf":1447712,"v":25900}},{"type":"Feature","geometry":{"type":"Point","coordinates":[-80.25417,40.42142]},"properties":{"p":"0914H00001000000","a":"PATTRIDGE LN","m":"North Fayette","u":"L","o":"individual","sf":497978,"v":60000}},{"type":"Feature","geometry":{"type":"Point","coordinates":[-80.25952,40.41331]},"properties":{"p":"0913B00002000000","a":"SEABRIGHT RD","m":"North Fayette","u":"L","o":"individual","sf":59982,"v":5500}},{"type":"Feature","geometry":{"type":"Point","coordinates":[-80.25285,40.42787]},"properties":{"p":"0915H00002000000","a":"PARTRIDGE LN","m":"North Fayette","u":"L","o":"corp","sf":3417282,"v":218300}},{"type":"Feature","geometry":{"type":"Point","coordinates":[-80.24786,40.42566]},"properties":{"p":"0798N00253000000","a":"DONALDSON RD","m":"North Fayette","u":"L","o":"corp","sf":326805,"v":48300}},{"type":"Feature","geometry":{"type":"Point","coordinates":[-80.2455,40.42446]},"properties":{"p":"0798N00025000000","a":"DONALDSON RD","m":"North Fayette","u":"L","o":"corp","sf":124952,"v":40400}},{"type":"Feature","geometry":{"type":"Point","coordinates":[-80.24291,40.42227]},"properties":{"p":"0798N00050000000","a":"DONALDSON RD","m":"North Fayette","u":"L","o":"corp","sf":3575340,"v":305300}},{"type":"Feature","geometry":{"type":"Point","coordinates":[-80.25208,40.41482]},"properties":{"p":"0796B00004000000","a":"157 PATTRIDGE LN","m":"North Fayette","u":"L","o":"individual","sf":9844560,"v":350000}},{"type":"Feature","geometry":{"type":"Point","coordinates":[-80.24071,40.4288]},"properties":{"p":"0798G00030000000","a":"SADDLE RIDGE DR","m":"North Fayette","u":"L","o":"corp","sf":202632,"v":0}},{"type":"Feature","geometry":{"type":"Point","coordinates":[-80.2444,40.4133]},"properties":{"p":"0796B00006000000","a":"KELSO RD","m":"North Fayette","u":"L","o":"corp","sf":280962,"v":28800}}]}