{"type":"FeatureCollection","features":[{"type":"Feature","geometry":{"type":"Point","coordinates":[-80.25546,40.52504]},"properties":{"p":"0925L00241000000","a":"FLAUGHERTY RUN RD","m":"Moon","u":"C","o":"corp","sf":16125,"v":3700}},{"type":"Feature","geometry":{"type":"Point","coordinates":[-80.24347,40.5104]},"properties":{"p":"0806B00195000000","a":"MOON CLINTON RD","m":"Moon","u":"C","o":"individual","sf":23440,"v":97900}},{"type":"Feature","geometry":{"type":"Point","coordinates":[-80.2573,40.51134]},"properties":{"p":"0924R00206000000","a":"MOON CLINTON RD","m":"Moon","u":"C","o":"corp","sf":521470,"v":221700}},{"type":"Feature","geometry":{"type":"Point","coordinates":[-80.25228,40.51561]},"properties":{"p":"0924R00319000000","a":"MOON CLINTON RD","m":"Moon","u":"C","o":"corp","sf":3454439,"v":787000}},{"type":"Feature","geometry":{"type":"Point","coordinates":[-80.24767,40.51369]},"properties":{"p":"0924S00130000000","a":"MOON CLINTON RD","m":"Moon","u":"C","o":"corp","sf":2440667,"v":1000000}},{"type":"Feature","geometry":{"type":"Point","coordinates":[-80.25082,40.51254]},"properties":{"p":"0924S00157000000","a":"MOON CLINTON RD","m":"Moon","u":"C","o":"corp","sf":87120,"v":165000}},{"type":"Feature","geometry":{"type":"Point","coordinates":[-80.24915,40.51146]},"properties":{"p":"0924S00500000000","a":"MOON CLINTON RD","m":"Moon","u":"C","o":"corp","sf":20996,"v":1900}},{"type":"Feature","geometry":{"type":"Point","coordinates":[-80.25982,40.51214]},"properties":{"p":"0924P00156000000","a":"MOON ENLOW RD","m":"Findlay","u":"L","o":"individual","sf":23715,"v":2100}},{"type":"Feature","geometry":{"type":"Point","coordinates":[-80.25909,40.51074]},"properties":{"p":"0923B00037000000","a":"MOON ENLOW RD","m":"Findlay","u":"L","o":"corp","sf":43560,"v":28200}},{"type":"Feature","geometry":{"type":"Point","coordinates":[-80.25788,40.52572]},"properties":{"p":"0925L00005000000","a":"FLAUGHERTY RUN RD","m":"Moon","u":"L","o":"individual","sf":23221,"v":36100}},{"type":"Feature","geometry":{"type":"Point","coordinates":[-80.25096,40.52827]},"properties":{"p":"0925H00031000000","a":"SHELBOURNE DR","m":"Moon","u":"L","o":"corp","sf":14505,"v":45300}},{"type":"Feature","geometry":{"type":"Point","coordinates":[-80.25984,40.52459]},"properties":{"p":"0925K00100000000","a":"JACKSON RD","m":"Moon","u":"L","o":"individual","sf":343558,"v":5200}},{"type":"Feature","geometry":{"type":"Point","coordinates":[-80.25325,40.52633]},"properties":{"p":"0925D00006000000","a":"SHELBOURNE DR","m":"Moon","u":"L","o":"corp","sf":333539,"v":17700}},{"type":"Feature","geometry":{"type":"Point","coordinates":[-80.25016,40.52684]},"properties":{"p":"0925H00023000000","a":"SKYLARK DR","m":"Moon","u":"L","o":"corp","sf":253972,"v":68800}},{"type":"Feature","geometry":{"type":"Point","coordinates":[-80.25497,40.52592]},"properties":{"p":"0925L00341000000","a":"FLAUGHERTY RUN RD","m":"Moon","u":"L","o":"individual","sf":127195,"v":11700}},{"type":"Feature","geometry":{"type":"Point","coordinates":[-80.24983,40.5257]},"properties":{"p":"0925M00270000000","a":"FLAUGHERTY RUN RD","m":"Moon","u":"L","o":"corp","sf":767963,"v":15100}},{"type":"Feature","geometry":{"type":"Point","coordinates":[-80.25189,40.52778]},"properties":{"p":"0925D00025000000","a":"SHELBOURNE DR","m":"Moon","u":"L","o":"corp","sf":115739,"v":2700}},{"type":"Feature","geometry":{"type":"Point","coordinates":[-80.25731,40.51412]},"properties":{"p":"0924L00253000000","a":"MERCURY DR","m":"Moon","u":"L","o":"individual","sf":12240,"v":35100}},{"type":"Feature","geometry":{"type":"Point","coordinates":[-80.24167,40.52948]},"properties":{"p":"0808B00029000000","a":"FLAUGHERTY RUN RD","m":"Moon","u":"L","o":"individual","sf":336166,"v":69000}},{"type":"Feature","geometry":{"type":"Point","coordinates":[-80.2577,40.51291]},"properties":{"p":"0924R00202000000","a":"MOON CLINTON RD","m":"Moon","u":"L","o":"corp","sf":53535,"v":38800}},{"type":"Feature","geometry":{"type":"Point","coordinates":[-80.25705,40.51441]},"properties":{"p":"0924R00290000000","a":"MERCURY DR","m":"Moon","u":"L","o":"individual","sf":37897,"v":3400}},{"type":"Feature","geometry":{"type":"Point","coordinates":[-80.24398,40.5169]},"properties":{"p":"0807E00100000000","a":"DIAMOND DR","m":"Moon","u":"L","o":"corp","sf":1100147,"v":0}},{"type":"Feature","geometry":{"type":"Point","coordinates":[-80.24236,40.52618]},"properties":{"p":"0808K00129000000","a":"BECKS RUN RD","m":"Moon","u":"L","o":"individual","sf":435600,"v":58900}},{"type":"Feature","geometry":{"type":"Point","coordinates":[-80.24237,40.52462]},"properties":{"p":"0808K00157000000","a":"BECKS RUN RD","m":"Moon","u":"L","o":"individual","sf":87120,"v":41900}},{"type":"Feature","geometry":{"type":"Point","coordinates":[-80.25009,40.51133]},"properties":{"p":"0924S00097000000","a":"MOON CLINTON RD","m":"Moon","u":"L","o":"corp","sf":18250,"v":35600}},{"type":"Feature","geometry":{"type":"Point","coordinates":[-80.24976,40.51122]},"properties":{"p":"0924S00101000000","a":"MOON CLINTON RD","m":"Moon","u":"L","o":"corp","sf":18250,"v":35600}},{"type":"Feature","geometry":{"type":"Point","coordinates":[-80.24191,40.52852]},"properties":{"p":"0808F00302000000","a":"FLAUGHERTY RUN RD","m":"Moon","u":"L","o":"corp","sf":63162,"v":39700}},{"type":"Feature","geometry":{"type":"Point","coordinates":[-80.24496,40.52754]},"properties":{"p":"0808F00322000100","a":"FLAUGHERTY RUN RD","m":"Moon","u":"L","o":"individual","sf":36155,"v":1446}},{"type":"Feature","geometry":{"type":"Point","coordinates":[-80.24441,40.52832]},"properties":{"p":"0808F00351000000","a":"FLAUGHERTY RUN RD","m":"Moon","u":"L","o":"corp","sf":3528,"v":22700}},{"type":"Feature","geometry":{"type":"Point","coordinates":[-80.24025,40.51007]},"properties":{"p":"0806C00076000000","a":"MOON CLINTON RD","m":"Moon","u":"L","o":"individual","sf":57238,"v":39200}},{"type":"Feature","geometry":{"type":"Point","coordinates":[-80.24106,40.51044]},"properties":{"p":"0806C00121000000","a":"MOON CLINTON RD","m":"Moon","u":"L","o":"individual","sf":31404,"v":2800}},{"type":"Feature","geometry":{"type":"Point","coordinates":[-80.24217,40.52375]},"properties":{"p":"0808P00329000000","a":"BECKS RUN RD","m":"Moon","u":"L","o":"individual","sf":9614,"v":31600}},{"type":"Feature","geometry":{"type":"Point","coordinates":[-80.24252,40.52374]},"properties":{"p":"0808P00332000000","a":"BECKS RUN RD","m":"Moon","u":"L","o":"individual","sf":56759,"v":39100}},{"type":"Feature","geometry":{"type":"Point","coordinates":[-80.24287,40.52378]},"properties":{"p":"0808P00334000000","a":"BECKS RUN RD","m":"Moon","u":"L","o":"individual","sf":21082,"v":35900}},{"type":"Feature","geometry":{"type":"Point","coordinates":[-80.25794,40.51468]},"properties":{"p":"0924P00076000000","a":"MOON CLINTON RD","m":"Moon","u":"L","o":"corp","sf":101495,"v":43200}},{"type":"Feature","geometry":{"type":"Point","coordinates":[-80.25922,40.51328]},"properties":{"p":"0924P00130000000","a":"ENLOW RD","m":"Moon","u":"L","o":"corp","sf":15676,"v":1400}},{"type":"Feature","geometry":{"type":"Point","coordinates":[-80.24809,40.5277]},"properties":{"p":"0808E00006000000","a":"SHELBOURNE DR","m":"Moon","u":"L","o":"corp","sf":489440,"v":11200}},{"type":"Feature","geometry":{"type":"Point","coordinates":[-80.24571,40.52779]},"properties":{"p":"0808E00300000000","a":"FLAUGHERTY RUN RD","m":"Moon","u":"L","o":"corp","sf":81888,"v":3276}},{"type":"Feature","geometry":{"type":"Point","coordinates":[-80.25833,40.51851]},"properties":{"p":"0924K00109000000","a":"BECKS RUN RD","m":"Moon","u":"L","o":"corp","sf":3008689,"v":58000}},{"type":"Feature","geometry":{"type":"Point","coordinates":[-80.25887,40.51409]},"properties":{"p":"0924K00124000000","a":"MOON CLINTON RD","m":"Moon","u":"L","o":"individual","sf":33539,"v":37000}},{"type":"Feature","geometry":{"type":"Point","coordinates":[-80.25735,40.51502]},"properties":{"p":"0924L00239000000","a":"MERCURY DR","m":"Moon","u":"L","o":"individual","sf":26887,"v":36400}},{"type":"Feature","geometry":{"type":"Point","coordinates":[-80.24347,40.52409]},"properties":{"p":"0808P00340000000","a":"BECKS RUN RD","m":"Moon","u":"L","o":"individual","sf":49353,"v":38400}},{"type":"Feature","geometry":{"type":"Point","coordinates":[-80.25348,40.52426]},"properties":{"p":"0925M00250000000","a":"FLAUGHERTY RUN RD","m":"Moon","u":"L","o":"individual","sf":77101,"v":19100}},{"type":"Feature","geometry":{"type":"Point","coordinates":[-80.25847,40.51303]},"properties":{"p":"0924P00043000000","a":"MOON CLINTON RD","m":"Moon","u":"L","o":"corp","sf":63859,"v":37000}},{"type":"Feature","geometry":{"type":"Point","coordinates":[-80.24233,40.51162]},"properties":{"p":"0806B00257000000","a":"148 PEAR ORCHARD RD","m":"Moon","u":"L","o":"corp","sf":27249,"v":36400}},{"type":"Feature","geometry":{"type":"Point","coordinates":[-80.25891,40.51143]},"properties":{"p":"0923B00042000000","a":"MOON ENLOW RD","m":"Findlay","u":"L","o":"corp","sf":93131,"v":32700}},{"type":"Feature","geometry":{"type":"Point","coordinates":[-80.25047,40.52644]},"properties":{"p":"0925H00021000000","a":"SHELBOURNE DR","m":"Moon","u":"L","o":"corp","sf":35240,"v":37100}},{"type":"Feature","geometry":{"type":"Point","coordinates":[-80.25995,40.52194]},"properties":{"p":"0925P00309000000","a":"174 VICTORIA DR","m":"Moon","u":"B","o":"corp","sf":8827,"v":300}},{"type":"Feature","geometry":{"type":"Point","coordinates":[-80.25964,40.52219]},"properties":{"p":"0925P00311000000","a":"178 VICTORIA DR","m":"Moon","u":"B","o":"corp","sf":9285,"v":300}},{"type":"Feature","geometry":{"type":"Point","coordinates":[-80.25962,40.52245]},"properties":{"p":"0925P00312000000","a":"180 VICTORIA DR","m":"Moon","u":"B","o":"individual","sf":10354,"v":500}},{"type":"Feature","geometry":{"type":"Point","coordinates":[-80.24378,40.52164]},"properties":{"p":"0808P00116000000","a":"WEST WIND DR","m":"Moon","u":"B","o":"individual","sf":53148,"v":11000}},{"type":"Feature","geometry":{"type":"Point","coordinates":[-80.25983,40.52211]},"properties":{"p":"0925P00310000000","a":"176 VICTORIA DR","m":"Moon","u":"B","o":"corp","sf":8680,"v":300}}]}