{"type":"FeatureCollection","features":[{"type":"Feature","geometry":{"type":"Point","coordinates":[-80.24039,40.54743]},"properties":{"p":"0810G00051000000","a":"453 SPRING RUN RD","m":"Crescent","u":"L","o":"individual","sf":973,"v":100}},{"type":"Feature","geometry":{"type":"Point","coordinates":[-80.24032,40.54782]},"properties":{"p":"0810G00052000000","a":"SPRING RUN RD","m":"Crescent","u":"L","o":"individual","sf":3751,"v":300}},{"type":"Feature","geometry":{"type":"Point","coordinates":[-80.25112,40.5345]},"properties":{"p":"0926M00297000000","a":"GLENMORE DR","m":"Moon","u":"L","o":"individual","sf":25225,"v":38000}},{"type":"Feature","geometry":{"type":"Point","coordinates":[-80.25735,40.53221]},"properties":{"p":"0925B00350000000","a":"FLAUGHERTY RUN RD","m":"Moon","u":"L","o":"corp","sf":800197,"v":40800}},{"type":"Feature","geometry":{"type":"Point","coordinates":[-80.25052,40.54203]},"properties":{"p":"0927S00179000000","a":"SPRING RUN RD EXT","m":"Moon","u":"L","o":"individual","sf":108900,"v":43900}},{"type":"Feature","geometry":{"type":"Point","coordinates":[-80.24739,40.54514]},"properties":{"p":"0927S00326000000","a":"SPRING RUN RD EXT","m":"Moon","u":"L","o":"corp","sf":2178000,"v":137000}},{"type":"Feature","geometry":{"type":"Point","coordinates":[-80.25672,40.53803]},"properties":{"p":"0926G00305000000","a":"SPRING RUN RD EXT","m":"Moon","u":"L","o":"corp","sf":6218,"v":600}},{"type":"Feature","geometry":{"type":"Point","coordinates":[-80.25656,40.53798]},"properties":{"p":"0926G00307000000","a":"SPRING RUN RD EXT","m":"Moon","u":"L","o":"individual","sf":1307,"v":100}},{"type":"Feature","geometry":{"type":"Point","coordinates":[-80.25635,40.53785]},"properties":{"p":"0926G00312000000","a":"130 DARNLEY DR","m":"Moon","u":"L","o":"corp","sf":3175,"v":300}},{"type":"Feature","geometry":{"type":"Point","coordinates":[-80.25582,40.53739]},"properties":{"p":"0926G00315000000","a":"DARNLEY DR","m":"Moon","u":"L","o":"corp","sf":23502,"v":5000}},{"type":"Feature","geometry":{"type":"Point","coordinates":[-80.25736,40.54233]},"properties":{"p":"0927R00194000000","a":"SPRING RUN RD EXT","m":"Moon","u":"L","o":"corp","sf":137214,"v":20000}},{"type":"Feature","geometry":{"type":"Point","coordinates":[-80.25612,40.54232]},"properties":{"p":"0927R00244000000","a":"SPRING RUN RD EXT","m":"Moon","u":"L","o":"corp","sf":105289,"v":19000}},{"type":"Feature","geometry":{"type":"Point","coordinates":[-80.25504,40.54228]},"properties":{"p":"0927R00272000000","a":"SPRING RUN RD EXT","m":"Moon","u":"L","o":"individual","sf":130680,"v":45900}},{"type":"Feature","geometry":{"type":"Point","coordinates":[-80.25418,40.54438]},"properties":{"p":"0927R00349000000","a":"SPRING RUN RD EXT","m":"Moon","u":"L","o":"corp","sf":892327,"v":86300}},{"type":"Feature","geometry":{"type":"Point","coordinates":[-80.2528,40.53999]},"properties":{"p":"0927S00039000000","a":"SPRING RUN RD EXT","m":"Moon","u":"L","o":"individual","sf":936545,"v":38100}},{"type":"Feature","geometry":{"type":"Point","coordinates":[-80.25227,40.54104]},"properties":{"p":"0927S00085000000","a":"SPRING RUN RD EXT","m":"Moon","u":"L","o":"individual","sf":87120,"v":41900}},{"type":"Feature","geometry":{"type":"Point","coordinates":[-80.24552,40.54847]},"properties":{"p":"0810A00008000000","a":"WESTERN AVE","m":"Moon","u":"L","o":"individual","sf":23400,"v":36100}},{"type":"Feature","geometry":{"type":"Point","coordinates":[-80.24327,40.54327]},"properties":{"p":"0810K00115000000","a":"SPRING RUN RD EXT","m":"Moon","u":"L","o":"individual","sf":265280,"v":48000}},{"type":"Feature","geometry":{"type":"Point","coordinates":[-80.24272,40.54419]},"properties":{"p":"0810K00139000000","a":"SPRING RUN RD EXT","m":"Moon","u":"L","o":"individual","sf":48787,"v":20900}},{"type":"Feature","geometry":{"type":"Point","coordinates":[-80.24411,40.54021]},"properties":{"p":"0809B00312000000","a":"BOGGS SCHOOL RD","m":"Moon","u":"L","o":"individual","sf":87512,"v":41900}},{"type":"Feature","geometry":{"type":"Point","coordinates":[-80.24443,40.54614]},"properties":{"p":"0810F00190000000","a":"KINGS LN","m":"Moon","u":"L","o":"individual","sf":9501,"v":900}},{"type":"Feature","geometry":{"type":"Point","coordinates":[-80.2445,40.54592]},"properties":{"p":"0810F00195000000","a":"KINGS LN","m":"Moon","u":"L","o":"individual","sf":13810,"v":17700}},{"type":"Feature","geometry":{"type":"Point","coordinates":[-80.24372,40.5461]},"properties":{"p":"0810F00208000000","a":"KINGS LN","m":"Moon","u":"L","o":"individual","sf":2115,"v":200}},{"type":"Feature","geometry":{"type":"Point","coordinates":[-80.24367,40.54622]},"properties":{"p":"0810F00210000000","a":"KINGS LN","m":"Moon","u":"L","o":"individual","sf":10871,"v":1000}},{"type":"Feature","geometry":{"type":"Point","coordinates":[-80.2412,40.53036]},"properties":{"p":"0808C00191000000","a":"FLAUGHERTY RUN RD","m":"Moon","u":"L","o":"individual","sf":124974,"v":56700}},{"type":"Feature","geometry":{"type":"Point","coordinates":[-80.2442,40.54329]},"properties":{"p":"0810K00103000000","a":"SPRING RUN RD EXT","m":"Moon","u":"L","o":"individual","sf":71003,"v":6500}},{"type":"Feature","geometry":{"type":"Point","coordinates":[-80.24026,40.53423]},"properties":{"p":"0809K00300000000","a":"112 BON HIGHLAND DR","m":"Moon","u":"L","o":"individual","sf":1200,"v":100}},{"type":"Feature","geometry":{"type":"Point","coordinates":[-80.24291,40.54702]},"properties":{"p":"0810F00135000000","a":"BRODHEAD RD","m":"Moon","u":"L","o":"individual","sf":2618,"v":200}},{"type":"Feature","geometry":{"type":"Point","coordinates":[-80.24099,40.54803]},"properties":{"p":"0810B00097000000","a":"BRODHEAD RD","m":"Moon","u":"L","o":"individual","sf":24880,"v":2200}},{"type":"Feature","geometry":{"type":"Point","coordinates":[-80.24223,40.54801]},"properties":{"p":"0810F00356000000","a":"BRODHEAD RD","m":"Moon","u":"L","o":"individual","sf":15642,"v":19700}},{"type":"Feature","geometry":{"type":"Point","coordinates":[-80.24656,40.53415]},"properties":{"p":"0809J00396000000","a":"MEADE DR","m":"Moon","u":"L","o":"corp","sf":3688,"v":400}},{"type":"Feature","geometry":{"type":"Point","coordinates":[-80.24262,40.53422]},"properties":{"p":"0809K00037000100","a":"MEADE DR","m":"Moon","u":"L","o":"individual","sf":2178,"v":200}},{"type":"Feature","geometry":{"type":"Point","coordinates":[-80.24697,40.54818]},"properties":{"p":"0810A00068000000","a":"WESTERN AVE","m":"Moon","u":"L","o":"individual","sf":112733,"v":44300}},{"type":"Feature","geometry":{"type":"Point","coordinates":[-80.24593,40.54918]},"properties":{"p":"0810A00214000000","a":"WESTERN AVE","m":"Moon","u":"L","o":"individual","sf":32670,"v":12000}},{"type":"Feature","geometry":{"type":"Point","coordinates":[-80.24473,40.54802]},"properties":{"p":"0810B00022000000","a":"WESTERN AVE","m":"Moon","u":"L","o":"individual","sf":30008,"v":19100}},{"type":"Feature","geometry":{"type":"Point","coordinates":[-80.24307,40.54414]},"properties":{"p":"0810K00228000000","a":"SPRING RUN RD EXT","m":"Moon","u":"L","o":"corp","sf":3485,"v":300}},{"type":"Feature","geometry":{"type":"Point","coordinates":[-80.24117,40.53329]},"properties":{"p":"0809L00075000000","a":"MORAY DR","m":"Moon","u":"L","o":"individual","sf":6470,"v":700}},{"type":"Feature","geometry":{"type":"Point","coordinates":[-80.24939,40.53749]},"properties":{"p":"0809E00381000000","a":"SCOTTSDALE DR","m":"Moon","u":"L","o":"corp","sf":1700,"v":200}},{"type":"Feature","geometry":{"type":"Point","coordinates":[-80.25577,40.54395]},"properties":{"p":"0927L00249000000","a":"NORTH FLAUGHERTY RUN RD","m":"Moon","u":"L","o":"corp","sf":45738,"v":4200}},{"type":"Feature","geometry":{"type":"Point","coordinates":[-80.25181,40.54709]},"properties":{"p":"0927C00062000000","a":"NORTH FLAUGHERTY RUN RD","m":"Moon","u":"L","o":"individual","sf":2328543,"v":40100}},{"type":"Feature","geometry":{"type":"Point","coordinates":[-80.24559,40.54807]},"properties":{"p":"0810A00024000000","a":"WESTERN AVE","m":"Moon","u":"L","o":"individual","sf":77101,"v":41000}},{"type":"Feature","geometry":{"type":"Point","coordinates":[-80.25777,40.54327]},"properties":{"p":"0927L00115000000","a":"SPRING RUN RD EXT","m":"Moon","u":"L","o":"individual","sf":396832,"v":58000}},{"type":"Feature","geometry":{"type":"Point","coordinates":[-80.25614,40.5375]},"properties":{"p":"0926G00313000000","a":"DARNLEY DR","m":"Moon","u":"L","o":"corp","sf":19658,"v":5000}},{"type":"Feature","geometry":{"type":"Point","coordinates":[-80.24007,40.54888]},"properties":{"p":"0810C00172000000","a":"SPRING RUN RD","m":"Crescent","u":"L","o":"individual","sf":30229,"v":2700}},{"type":"Feature","geometry":{"type":"Point","coordinates":[-80.2508,40.53469]},"properties":{"p":"0926M00301000000","a":"GLENMORE DR","m":"Moon","u":"L","o":"individual","sf":13208,"v":36100}},{"type":"Feature","geometry":{"type":"Point","coordinates":[-80.24039,40.53221]},"properties":{"p":"0809R00025000000","a":"211 LOCHINVER DR","m":"Moon","u":"B","o":"individual","sf":10425,"v":6000}},{"type":"Feature","geometry":{"type":"Point","coordinates":[-80.2402,40.5321]},"properties":{"p":"0809R00027000000","a":"213 LOCHINVER DR","m":"Moon","u":"B","o":"individual","sf":9104,"v":5600}}]}