{"type":"FeatureCollection","features":[{"type":"Feature","geometry":{"type":"Point","coordinates":[-80.22096,40.36865]},"properties":{"p":"0683L00230000000","a":"ROBINSON RUN RD","m":"McDonald","u":"L","o":"individual","sf":43634,"v":16600}},{"type":"Feature","geometry":{"type":"Point","coordinates":[-80.22162,40.36833]},"properties":{"p":"0683L00235000000","a":"ARGUS AVE","m":"McDonald","u":"L","o":"individual","sf":92696,"v":21100}},{"type":"Feature","geometry":{"type":"Point","coordinates":[-80.22294,40.36798]},"properties":{"p":"0683L00337000000","a":"MAIN ST","m":"McDonald","u":"L","o":"individual","sf":23488,"v":7600}},{"type":"Feature","geometry":{"type":"Point","coordinates":[-80.22325,40.36839]},"properties":{"p":"0683L00349000000","a":"LAUREL HILL RD","m":"McDonald","u":"L","o":"individual","sf":23566,"v":27700}},{"type":"Feature","geometry":{"type":"Point","coordinates":[-80.22338,40.36857]},"properties":{"p":"0683L00353000000","a":"MAIN ST","m":"McDonald","u":"L","o":"individual","sf":7850,"v":2600}},{"type":"Feature","geometry":{"type":"Point","coordinates":[-80.22345,40.36866]},"properties":{"p":"0683L00355000000","a":"MAIN ST","m":"McDonald","u":"L","o":"individual","sf":3925,"v":1400}},{"type":"Feature","geometry":{"type":"Point","coordinates":[-80.22617,40.36832]},"properties":{"p":"0683K00096000000","a":"MAIN ST","m":"McDonald","u":"L","o":"individual","sf":333670,"v":28000}},{"type":"Feature","geometry":{"type":"Point","coordinates":[-80.22274,40.36956]},"properties":{"p":"0683L00069000000","a":"200 OVERLOOK AVE","m":"McDonald","u":"L","o":"individual","sf":3250,"v":1100}},{"type":"Feature","geometry":{"type":"Point","coordinates":[-80.2229,40.36949]},"properties":{"p":"0683L00071000000","a":"200 OUTLOOK AVE","m":"McDonald","u":"L","o":"individual","sf":3250,"v":1100}},{"type":"Feature","geometry":{"type":"Point","coordinates":[-80.22286,40.36687]},"properties":{"p":"0683R00222000000","a":"MAIN ST","m":"McDonald","u":"L","o":"individual","sf":43560,"v":29500}},{"type":"Feature","geometry":{"type":"Point","coordinates":[-80.22415,40.36962]},"properties":{"p":"0683L00389000000","a":"MAIN ST","m":"McDonald","u":"L","o":"corp","sf":7955,"v":2600}},{"type":"Feature","geometry":{"type":"Point","coordinates":[-80.22216,40.36608]},"properties":{"p":"0683R00012000000","a":"WALLACE ST","m":"South Fayette","u":"L","o":"individual","sf":87120,"v":1000}},{"type":"Feature","geometry":{"type":"Point","coordinates":[-80.22355,40.36741]},"properties":{"p":"0683R00140000000","a":"MAIN ST","m":"McDonald","u":"L","o":"individual","sf":18252,"v":5900}},{"type":"Feature","geometry":{"type":"Point","coordinates":[-80.22355,40.36881]},"properties":{"p":"0683L00363000000","a":"MAIN ST","m":"McDonald","u":"L","o":"individual","sf":20700,"v":6700}},{"type":"Feature","geometry":{"type":"Point","coordinates":[-80.22316,40.3693]},"properties":{"p":"0683L00041000000","a":"LAUREL HILL RD","m":"McDonald","u":"B","o":"individual","sf":3250,"v":1100}},{"type":"Feature","geometry":{"type":"Point","coordinates":[-80.2232,40.36936]},"properties":{"p":"0683L00042000000","a":"LAUREL HILL RD","m":"McDonald","u":"B","o":"individual","sf":3250,"v":1100}},{"type":"Feature","geometry":{"type":"Point","coordinates":[-80.22325,40.36942]},"properties":{"p":"0683L00043000000","a":"LAUREL HILL RD","m":"McDonald","u":"B","o":"individual","sf":3250,"v":1100}},{"type":"Feature","geometry":{"type":"Point","coordinates":[-80.22329,40.36948]},"properties":{"p":"0683L00044000000","a":"LAUREL HILL RD","m":"McDonald","u":"B","o":"individual","sf":3900,"v":1300}},{"type":"Feature","geometry":{"type":"Point","coordinates":[-80.22367,40.36896]},"properties":{"p":"0683L00045000000","a":"LAUREL HILL RD","m":"McDonald","u":"B","o":"individual","sf":3920,"v":1400}},{"type":"Feature","geometry":{"type":"Point","coordinates":[-80.22371,40.36902]},"properties":{"p":"0683L00046000000","a":"LAUREL HILL RD","m":"McDonald","u":"B","o":"individual","sf":3920,"v":1400}},{"type":"Feature","geometry":{"type":"Point","coordinates":[-80.22407,40.3695]},"properties":{"p":"0683L00047000000","a":"LAUREL HILL RD","m":"McDonald","u":"B","o":"corp","sf":3920,"v":1300}},{"type":"Feature","geometry":{"type":"Point","coordinates":[-80.22424,40.36974]},"properties":{"p":"0683L00048000000","a":"2ND AVE","m":"McDonald","u":"B","o":"corp","sf":3920,"v":1300}},{"type":"Feature","geometry":{"type":"Point","coordinates":[-80.22429,40.36979]},"properties":{"p":"0683L00049000000","a":"LAUREL HILL RD","m":"McDonald","u":"B","o":"corp","sf":3920,"v":1300}},{"type":"Feature","geometry":{"type":"Point","coordinates":[-80.22433,40.36986]},"properties":{"p":"0683L00050000000","a":"LAUREL HILL RD","m":"McDonald","u":"B","o":"corp","sf":3920,"v":1300}},{"type":"Feature","geometry":{"type":"Point","coordinates":[-80.22437,40.36992]},"properties":{"p":"0683L00051000000","a":"LAUREL HILL RD","m":"McDonald","u":"B","o":"corp","sf":3920,"v":1300}},{"type":"Feature","geometry":{"type":"Point","coordinates":[-80.22346,40.36971]},"properties":{"p":"0683L00052000000","a":"LAUREL HILL RD","m":"McDonald","u":"B","o":"individual","sf":3250,"v":1100}},{"type":"Feature","geometry":{"type":"Point","coordinates":[-80.22341,40.36965]},"properties":{"p":"0683L00053000000","a":"LAUREL HILL RD","m":"McDonald","u":"B","o":"individual","sf":3250,"v":1100}},{"type":"Feature","geometry":{"type":"Point","coordinates":[-80.22228,40.36812]},"properties":{"p":"0683L00028000000","a":"LAUREL HILL RD","m":"McDonald","u":"B","o":"individual","sf":3250,"v":1100}},{"type":"Feature","geometry":{"type":"Point","coordinates":[-80.22216,40.36796]},"properties":{"p":"0683L00029000000","a":"LAUREL HILL RD","m":"McDonald","u":"B","o":"individual","sf":3250,"v":1100}},{"type":"Feature","geometry":{"type":"Point","coordinates":[-80.22212,40.3679]},"properties":{"p":"0683L00030000000","a":"LAUREL HILL RD","m":"McDonald","u":"B","o":"individual","sf":3250,"v":1100}},{"type":"Feature","geometry":{"type":"Point","coordinates":[-80.22208,40.36784]},"properties":{"p":"0683L00031000000","a":"LAUREL HILL RD","m":"McDonald","u":"B","o":"individual","sf":3250,"v":1100}},{"type":"Feature","geometry":{"type":"Point","coordinates":[-80.2231,40.36818]},"properties":{"p":"0683L00032000000","a":"LAUREL HILL RD","m":"McDonald","u":"B","o":"individual","sf":3920,"v":1400}},{"type":"Feature","geometry":{"type":"Point","coordinates":[-80.22314,40.36824]},"properties":{"p":"0683L00033000000","a":"LAUREL HILL RD","m":"McDonald","u":"B","o":"individual","sf":3920,"v":1400}},{"type":"Feature","geometry":{"type":"Point","coordinates":[-80.22289,40.36894]},"properties":{"p":"0683L00035000000","a":"LAUREL HILL RD","m":"McDonald","u":"B","o":"individual","sf":3250,"v":1100}},{"type":"Feature","geometry":{"type":"Point","coordinates":[-80.22294,40.369]},"properties":{"p":"0683L00036000000","a":"LAUREL HILL RD","m":"McDonald","u":"B","o":"individual","sf":3250,"v":1100}},{"type":"Feature","geometry":{"type":"Point","coordinates":[-80.22298,40.36906]},"properties":{"p":"0683L00037000000","a":"LAUREL HILL RD","m":"McDonald","u":"B","o":"individual","sf":3250,"v":1100}},{"type":"Feature","geometry":{"type":"Point","coordinates":[-80.22303,40.36912]},"properties":{"p":"0683L00038000000","a":"LAUREL HILL RD","m":"McDonald","u":"B","o":"individual","sf":3250,"v":1100}},{"type":"Feature","geometry":{"type":"Point","coordinates":[-80.22311,40.36924]},"properties":{"p":"0683L00040000000","a":"LAUREL HILL RD","m":"McDonald","u":"B","o":"individual","sf":3250,"v":1100}},{"type":"Feature","geometry":{"type":"Point","coordinates":[-80.22251,40.36966]},"properties":{"p":"0683L00066000000","a":"202 OUTLOOK AVE","m":"McDonald","u":"B","o":"individual","sf":3250,"v":1100}},{"type":"Feature","geometry":{"type":"Point","coordinates":[-80.22266,40.36959]},"properties":{"p":"0683L00068000000","a":"202 OUTLOOK AVE","m":"McDonald","u":"B","o":"individual","sf":3250,"v":1100}},{"type":"Feature","geometry":{"type":"Point","coordinates":[-80.22274,40.36771]},"properties":{"p":"0683R00005000000","a":"LAUREL HILL RD","m":"McDonald","u":"B","o":"individual","sf":3920,"v":1400}},{"type":"Feature","geometry":{"type":"Point","coordinates":[-80.22195,40.36889]},"properties":{"p":"0683L00015000000","a":"210 ARGUS AVE","m":"McDonald","u":"B","o":"individual","sf":3250,"v":1100}},{"type":"Feature","geometry":{"type":"Point","coordinates":[-80.22273,40.36872]},"properties":{"p":"0683L00018000000","a":"LAUREL HILL RD","m":"McDonald","u":"B","o":"individual","sf":3900,"v":3500}},{"type":"Feature","geometry":{"type":"Point","coordinates":[-80.22269,40.36866]},"properties":{"p":"0683L00019000000","a":"LAUREL HILL RD","m":"McDonald","u":"B","o":"individual","sf":3250,"v":1100}},{"type":"Feature","geometry":{"type":"Point","coordinates":[-80.2226,40.36854]},"properties":{"p":"0683L00021000000","a":"LAUREL HILL RD","m":"McDonald","u":"B","o":"individual","sf":3250,"v":1100}},{"type":"Feature","geometry":{"type":"Point","coordinates":[-80.22255,40.36848]},"properties":{"p":"0683L00022000000","a":"LAUREL HILL RD","m":"McDonald","u":"B","o":"individual","sf":3250,"v":1100}},{"type":"Feature","geometry":{"type":"Point","coordinates":[-80.22251,40.36842]},"properties":{"p":"0683L00023000000","a":"LAUREL HILL RD","m":"McDonald","u":"B","o":"individual","sf":3250,"v":3200}},{"type":"Feature","geometry":{"type":"Point","coordinates":[-80.22247,40.36836]},"properties":{"p":"0683L00024000000","a":"LAUREL HILL RD","m":"McDonald","u":"B","o":"individual","sf":3250,"v":1100}},{"type":"Feature","geometry":{"type":"Point","coordinates":[-80.22242,40.3683]},"properties":{"p":"0683L00025000000","a":"LAUREL HILL RD","m":"McDonald","u":"B","o":"individual","sf":3250,"v":1100}},{"type":"Feature","geometry":{"type":"Point","coordinates":[-80.22233,40.36818]},"properties":{"p":"0683L00027000000","a":"LAUREL HILL RD","m":"McDonald","u":"B","o":"individual","sf":3250,"v":1100}},{"type":"Feature","geometry":{"type":"Point","coordinates":[-80.22278,40.36777]},"properties":{"p":"0683R00006000000","a":"LAUREL HILL RD","m":"McDonald","u":"B","o":"individual","sf":3920,"v":1400}},{"type":"Feature","geometry":{"type":"Point","coordinates":[-80.22203,40.36778]},"properties":{"p":"0683R00007000000","a":"LAUREL HILL RD","m":"McDonald","u":"B","o":"individual","sf":3250,"v":1100}},{"type":"Feature","geometry":{"type":"Point","coordinates":[-80.22182,40.3677]},"properties":{"p":"0683R00009000000","a":"LAUREL HILL RD","m":"McDonald","u":"B","o":"individual","sf":4792,"v":1600}},{"type":"Feature","geometry":{"type":"Point","coordinates":[-80.2232,40.3699]},"properties":{"p":"0683L00054000000","a":"OUTLOOK AVE","m":"McDonald","u":"B","o":"individual","sf":3250,"v":1100}},{"type":"Feature","geometry":{"type":"Point","coordinates":[-80.22304,40.36996]},"properties":{"p":"0683L00056000000","a":"OUTLOOK AVE","m":"McDonald","u":"B","o":"individual","sf":3250,"v":1100}},{"type":"Feature","geometry":{"type":"Point","coordinates":[-80.22227,40.36976]},"properties":{"p":"0683L00063000000","a":"204 OUTLOOK AVE","m":"McDonald","u":"B","o":"individual","sf":3250,"v":1100}},{"type":"Feature","geometry":{"type":"Point","coordinates":[-80.22243,40.36969]},"properties":{"p":"0683L00065000000","a":"204 OUTLOOK AVE","m":"McDonald","u":"B","o":"individual","sf":3250,"v":1100}},{"type":"Feature","geometry":{"type":"Point","coordinates":[-80.22118,40.36974]},"properties":{"p":"0683L00003000000","a":"ARGUS AVE","m":"McDonald","u":"B","o":"individual","sf":2857,"v":3100}},{"type":"Feature","geometry":{"type":"Point","coordinates":[-80.22125,40.36971]},"properties":{"p":"0683L00004000000","a":"ARGUS AVE","m":"McDonald","u":"B","o":"individual","sf":3250,"v":3200}},{"type":"Feature","geometry":{"type":"Point","coordinates":[-80.22133,40.36968]},"properties":{"p":"0683L00005000000","a":"ARGUS AVE","m":"McDonald","u":"B","o":"individual","sf":3250,"v":3200}},{"type":"Feature","geometry":{"type":"Point","coordinates":[-80.22141,40.36965]},"properties":{"p":"0683L00006000000","a":"ARGUS AVE","m":"McDonald","u":"B","o":"individual","sf":3250,"v":3200}},{"type":"Feature","geometry":{"type":"Point","coordinates":[-80.22149,40.36961]},"properties":{"p":"0683L00007000000","a":"ARGUS AVE","m":"McDonald","u":"B","o":"individual","sf":3250,"v":3200}},{"type":"Feature","geometry":{"type":"Point","coordinates":[-80.22157,40.36958]},"properties":{"p":"0683L00008000000","a":"ARGUS AVE","m":"McDonald","u":"B","o":"individual","sf":3250,"v":3200}},{"type":"Feature","geometry":{"type":"Point","coordinates":[-80.22165,40.36955]},"properties":{"p":"0683L00009000000","a":"ARGUS AVE","m":"McDonald","u":"B","o":"individual","sf":3250,"v":3200}},{"type":"Feature","geometry":{"type":"Point","coordinates":[-80.22172,40.36951]},"properties":{"p":"0683L00010000000","a":"ARGUS AVE","m":"McDonald","u":"B","o":"individual","sf":3250,"v":3200}},{"type":"Feature","geometry":{"type":"Point","coordinates":[-80.22171,40.36899]},"properties":{"p":"0683L00012000000","a":"210 ARGUS AVE","m":"McDonald","u":"B","o":"individual","sf":3250,"v":1100}},{"type":"Feature","geometry":{"type":"Point","coordinates":[-80.22179,40.36896]},"properties":{"p":"0683L00013000000","a":"210 ARGUS AVE","m":"McDonald","u":"B","o":"individual","sf":3250,"v":1100}},{"type":"Feature","geometry":{"type":"Point","coordinates":[-80.22245,40.3676]},"properties":{"p":"0683R00002000000","a":"LAUREL HILL RD","m":"McDonald","u":"B","o":"individual","sf":5227,"v":1800}},{"type":"Feature","geometry":{"type":"Point","coordinates":[-80.22265,40.3676]},"properties":{"p":"0683R00003000000","a":"LAUREL HILL RD","m":"McDonald","u":"B","o":"individual","sf":3920,"v":1400}},{"type":"Feature","geometry":{"type":"Point","coordinates":[-80.22269,40.36765]},"properties":{"p":"0683R00004000000","a":"LAUREL HILL RD","m":"McDonald","u":"B","o":"individual","sf":3920,"v":1400}},{"type":"Feature","geometry":{"type":"Point","coordinates":[-80.22237,40.36824]},"properties":{"p":"0683L00026000000","a":"LAUREL HILL RD","m":"McDonald","u":"B","o":"individual","sf":3250,"v":1100}},{"type":"Feature","geometry":{"type":"Point","coordinates":[-80.22307,40.36918]},"properties":{"p":"0683L00039000000","a":"LAUREL HILL RD","m":"McDonald","u":"B","o":"individual","sf":3250,"v":1100}},{"type":"Feature","geometry":{"type":"Point","coordinates":[-80.22199,40.36772]},"properties":{"p":"0683R00008000000","a":"LAUREL HILL RD","m":"McDonald","u":"B","o":"individual","sf":3250,"v":1100}},{"type":"Feature","geometry":{"type":"Point","coordinates":[-80.22202,40.36886]},"properties":{"p":"0683L00016000000","a":"210 ARGUS AVE","m":"McDonald","u":"B","o":"individual","sf":3250,"v":1100}},{"type":"Feature","geometry":{"type":"Point","coordinates":[-80.22285,40.36888]},"properties":{"p":"0683L00034000000","a":"LAUREL HILL RD","m":"McDonald","u":"B","o":"individual","sf":3250,"v":1100}},{"type":"Feature","geometry":{"type":"Point","coordinates":[-80.22264,40.3686]},"properties":{"p":"0683L00020000000","a":"LAUREL HILL RD","m":"McDonald","u":"B","o":"individual","sf":3250,"v":1100}},{"type":"Feature","geometry":{"type":"Point","coordinates":[-80.22312,40.36993]},"properties":{"p":"0683L00055000000","a":"OUTLOOK AVE","m":"McDonald","u":"B","o":"individual","sf":3250,"v":1100}},{"type":"Feature","geometry":{"type":"Point","coordinates":[-80.2218,40.36948]},"properties":{"p":"0683L00011000000","a":"ARGUS AVE","m":"McDonald","u":"B","o":"individual","sf":3250,"v":3200}}]}