{"type":"FeatureCollection","features":[{"type":"Feature","geometry":{"type":"Point","coordinates":[-80.22959,40.40053]},"properties":{"p":"0686E00010000000","a":"FINKS RUN RD","m":"North Fayette","u":"C","o":"individual","sf":1219680,"v":87800}},{"type":"Feature","geometry":{"type":"Point","coordinates":[-80.22022,40.39628]},"properties":{"p":"0686S00002000000","a":"SCHOOL AVE","m":"North Fayette","u":"L","o":"individual","sf":52272,"v":33700}},{"type":"Feature","geometry":{"type":"Point","coordinates":[-80.22671,40.40774]},"properties":{"p":"0687K00004000000","a":"NORTH RD","m":"North Fayette","u":"L","o":"individual","sf":177925,"v":45200}},{"type":"Feature","geometry":{"type":"Point","coordinates":[-80.22545,40.40806]},"properties":{"p":"0687P00002000000","a":"NORTH RD","m":"North Fayette","u":"L","o":"individual","sf":751284,"v":160700}},{"type":"Feature","geometry":{"type":"Point","coordinates":[-80.22467,40.40572]},"properties":{"p":"0687P00003000000","a":"NORTH RD","m":"North Fayette","u":"L","o":"individual","sf":20683,"v":60100}},{"type":"Feature","geometry":{"type":"Point","coordinates":[-80.2217,40.40532]},"properties":{"p":"0687R00002000000","a":"NORTH RD","m":"North Fayette","u":"L","o":"individual","sf":105415,"v":19100}},{"type":"Feature","geometry":{"type":"Point","coordinates":[-80.22409,40.40374]},"properties":{"p":"0687R00004000000","a":"NORTH RD","m":"North Fayette","u":"L","o":"individual","sf":561310,"v":74900}},{"type":"Feature","geometry":{"type":"Point","coordinates":[-80.2309,40.40664]},"properties":{"p":"0687J00011000000","a":"NORTH BRANCH RD","m":"North Fayette","u":"L","o":"individual","sf":100232,"v":16000}},{"type":"Feature","geometry":{"type":"Point","coordinates":[-80.23891,40.40239]},"properties":{"p":"0795C00011000000","a":"17 HANS RD","m":"North Fayette","u":"L","o":"individual","sf":40021,"v":3600}},{"type":"Feature","geometry":{"type":"Point","coordinates":[-80.23002,40.40715]},"properties":{"p":"0687J00003000000","a":"NORTH BRANCH RD","m":"North Fayette","u":"L","o":"individual","sf":124146,"v":30000}},{"type":"Feature","geometry":{"type":"Point","coordinates":[-80.22718,40.39642]},"properties":{"p":"0686J00005000000","a":"FINKS RUN RD","m":"North Fayette","u":"L","o":"individual","sf":1794946,"v":161400}}]}