{"type":"FeatureCollection","features":[{"type":"Feature","geometry":{"type":"Point","coordinates":[-80.23878,40.43387]},"properties":{"p":"0799R00100000000","a":"1300 INTERNATIONAL DR","m":"North Fayette","u":"I","o":"corp","sf":291412,"v":164000}},{"type":"Feature","geometry":{"type":"Point","coordinates":[-80.23743,40.43449]},"properties":{"p":"0799R00150000000","a":"INTERNATIONAL DR","m":"North Fayette","u":"I","o":"corp","sf":1503591,"v":34500}},{"type":"Feature","geometry":{"type":"Point","coordinates":[-80.23211,40.43984]},"properties":{"p":"0690E00020000000","a":"LOGAN RD","m":"North Fayette","u":"I","o":"individual","sf":100619,"v":22500}},{"type":"Feature","geometry":{"type":"Point","coordinates":[-80.23867,40.44144]},"properties":{"p":"0799C00005000000","a":"STEUBENVILLE PIKE","m":"North Fayette","u":"C","o":"corp","sf":2078,"v":600}},{"type":"Feature","geometry":{"type":"Point","coordinates":[-80.23445,40.44009]},"properties":{"p":"0799H00003000000","a":"BATEMAN RD","m":"North Fayette","u":"C","o":"corp","sf":53884,"v":3700}},{"type":"Feature","geometry":{"type":"Point","coordinates":[-80.2348,40.43528]},"properties":{"p":"0799S00001000000","a":"INTERNATIONAL DR","m":"North Fayette","u":"C","o":"corp","sf":136918,"v":0}},{"type":"Feature","geometry":{"type":"Point","coordinates":[-80.23726,40.44203]},"properties":{"p":"0799D00012000000","a":"STUEBENVILLE PIKE","m":"North Fayette","u":"C","o":"individual","sf":20038,"v":15500}},{"type":"Feature","geometry":{"type":"Point","coordinates":[-80.23898,40.44004]},"properties":{"p":"0799G00002000000","a":"W STEUBEN ST","m":"North Fayette","u":"C","o":"corp","sf":22603,"v":3400}},{"type":"Feature","geometry":{"type":"Point","coordinates":[-80.23771,40.44145]},"properties":{"p":"0799C00025000000","a":"7981 STEUBENVILLE PIKE","m":"North Fayette","u":"C","o":"corp","sf":18539,"v":27600}},{"type":"Feature","geometry":{"type":"Point","coordinates":[-80.23448,40.44164]},"properties":{"p":"0799D00003000000","a":"STEUBENVILLE PIKE","m":"North Fayette","u":"C","o":"corp","sf":30261,"v":29200}},{"type":"Feature","geometry":{"type":"Point","coordinates":[-80.23415,40.43798]},"properties":{"p":"0799M00008000000","a":"BATEMAN RD","m":"North Fayette","u":"C","o":"corp","sf":414256,"v":150000}},{"type":"Feature","geometry":{"type":"Point","coordinates":[-80.23543,40.43029]},"properties":{"p":"0689E00010000000","a":"CROWN CT","m":"North Fayette","u":"C","o":"corp","sf":545894,"v":0}},{"type":"Feature","geometry":{"type":"Point","coordinates":[-80.2264,40.43986]},"properties":{"p":"0690F00001000000","a":"STEUBENVILLE PIKE","m":"North Fayette","u":"C","o":"individual","sf":33541,"v":7700}},{"type":"Feature","geometry":{"type":"Point","coordinates":[-80.23299,40.43473]},"properties":{"p":"0690N00008000000","a":"INTERNATIONAL DR","m":"North Fayette","u":"C","o":"corp","sf":223341,"v":90000}},{"type":"Feature","geometry":{"type":"Point","coordinates":[-80.22927,40.4346]},"properties":{"p":"0690N00016000000","a":"BATEMAN RD","m":"North Fayette","u":"C","o":"corp","sf":34798,"v":24000}},{"type":"Feature","geometry":{"type":"Point","coordinates":[-80.23521,40.43439]},"properties":{"p":"0690N00020000000","a":"700 INTERNATIONAL DR","m":"North Fayette","u":"C","o":"corp","sf":508219,"v":370000}},{"type":"Feature","geometry":{"type":"Point","coordinates":[-80.2358,40.43291]},"properties":{"p":"0798D00015000000","a":"INTERNATIONAL DR","m":"North Fayette","u":"C","o":"corp","sf":185857,"v":0}},{"type":"Feature","geometry":{"type":"Point","coordinates":[-80.22056,40.43008]},"properties":{"p":"0689H00007000000","a":"WOODLAWN CIR","m":"North Fayette","u":"C","o":"corp","sf":35461,"v":5300}},{"type":"Feature","geometry":{"type":"Point","coordinates":[-80.23242,40.44073]},"properties":{"p":"0690A00004000000","a":"US ROUTE 30","m":"North Fayette","u":"C","o":"corp","sf":244,"v":300}},{"type":"Feature","geometry":{"type":"Point","coordinates":[-80.22278,40.43142]},"properties":{"p":"0689G00001000000","a":"SUNSET DR","m":"North Fayette","u":"C","o":"corp","sf":174240,"v":26100}},{"type":"Feature","geometry":{"type":"Point","coordinates":[-80.23071,40.4349]},"properties":{"p":"0690N00014000000","a":"BATEMAN RD","m":"North Fayette","u":"C","o":"corp","sf":75463,"v":71200}},{"type":"Feature","geometry":{"type":"Point","coordinates":[-80.2311,40.43977]},"properties":{"p":"9929X01656000000","a":"STEUBENVILLE PIKE","m":"North Fayette","u":"L","o":"corp","sf":6540,"v":20100}},{"type":"Feature","geometry":{"type":"Point","coordinates":[-80.23568,40.44849]},"properties":{"p":"0800H00005000000","a":"CRAWFORD RD","m":"North Fayette","u":"L","o":"individual","sf":21780,"v":26900}},{"type":"Feature","geometry":{"type":"Point","coordinates":[-80.23509,40.44974]},"properties":{"p":"0800H00012000000","a":"CALIFORNIA HOLLOW RD","m":"North Fayette","u":"L","o":"corp","sf":21780,"v":26900}},{"type":"Feature","geometry":{"type":"Point","coordinates":[-80.23575,40.44982]},"properties":{"p":"0800H00013000000","a":"1607 CRAWFORD RD","m":"North Fayette","u":"L","o":"individual","sf":21780,"v":26900}},{"type":"Feature","geometry":{"type":"Point","coordinates":[-80.23529,40.44916]},"properties":{"p":"0800H00015000000","a":"1607 CRAWFORD RD","m":"North Fayette","u":"L","o":"individual","sf":62509,"v":30600}},{"type":"Feature","geometry":{"type":"Point","coordinates":[-80.23988,40.44539]},"properties":{"p":"0800L00001000000","a":"WEST ALLEGHENY RD","m":"North Fayette","u":"L","o":"corp","sf":239789,"v":46400}},{"type":"Feature","geometry":{"type":"Point","coordinates":[-80.23606,40.44017]},"properties":{"p":"0799H00005000000","a":"STEUBENVILLE PIKE","m":"North Fayette","u":"L","o":"individual","sf":17327,"v":1600}},{"type":"Feature","geometry":{"type":"Point","coordinates":[-80.23784,40.44026]},"properties":{"p":"0799G00001000000","a":"BATEMAN RD","m":"North Fayette","u":"L","o":"corp","sf":43560,"v":41900}},{"type":"Feature","geometry":{"type":"Point","coordinates":[-80.23649,40.44541]},"properties":{"p":"0800M00012000000","a":"CALIFORNIA HOLLOW RD","m":"North Fayette","u":"L","o":"corp","sf":54450,"v":29900}},{"type":"Feature","geometry":{"type":"Point","coordinates":[-80.23413,40.44701]},"properties":{"p":"0800M00013000000","a":"221 WEST ALLEGHENY RD","m":"North Fayette","u":"L","o":"individual","sf":5238,"v":500}},{"type":"Feature","geometry":{"type":"Point","coordinates":[-80.23451,40.44726]},"properties":{"p":"0800M00014000000","a":"CALIFORNIA HOLLOW RD","m":"North Fayette","u":"L","o":"individual","sf":1054,"v":100}},{"type":"Feature","geometry":{"type":"Point","coordinates":[-80.23449,40.44703]},"properties":{"p":"0800M00016000000","a":"WEST ALLEGHENY RD","m":"North Fayette","u":"L","o":"individual","sf":2204,"v":200}},{"type":"Feature","geometry":{"type":"Point","coordinates":[-80.23487,40.44728]},"properties":{"p":"0800M00018000000","a":"CALIFORNIA HOLLOW RD","m":"North Fayette","u":"L","o":"individual","sf":3358,"v":300}},{"type":"Feature","geometry":{"type":"Point","coordinates":[-80.23394,40.4476]},"properties":{"p":"0800M00025000000","a":"WEST ALLEGHENY RD","m":"North Fayette","u":"L","o":"individual","sf":71783,"v":31500}},{"type":"Feature","geometry":{"type":"Point","coordinates":[-80.23793,40.44378]},"properties":{"p":"9929X00093000000","a":"WEST ALLEGHENY RD","m":"North Fayette","u":"L","o":"individual","sf":9265,"v":800}},{"type":"Feature","geometry":{"type":"Point","coordinates":[-80.23398,40.44057]},"properties":{"p":"0799D00001000000","a":"STEUBENVILLE PIKE","m":"North Fayette","u":"L","o":"corp","sf":179903,"v":24700}},{"type":"Feature","geometry":{"type":"Point","coordinates":[-80.23612,40.44624]},"properties":{"p":"0800S00015000000","a":"CALIFORNIA HOLLOW RD","m":"North Fayette","u":"L","o":"corp","sf":48787,"v":29400}},{"type":"Feature","geometry":{"type":"Point","coordinates":[-80.23537,40.44791]},"properties":{"p":"0800M00007000000","a":"CALIFORNIA HOLLOW RD","m":"North Fayette","u":"L","o":"individual","sf":12720,"v":1100}},{"type":"Feature","geometry":{"type":"Point","coordinates":[-80.23618,40.44774]},"properties":{"p":"0800M00008000000","a":"CRAWFORD ST","m":"North Fayette","u":"L","o":"individual","sf":145926,"v":38300}},{"type":"Feature","geometry":{"type":"Point","coordinates":[-80.2366,40.43759]},"properties":{"p":"0799M00012000000","a":"BATEMAN RD","m":"North Fayette","u":"L","o":"corp","sf":10000,"v":27500}},{"type":"Feature","geometry":{"type":"Point","coordinates":[-80.23716,40.43807]},"properties":{"p":"0799M00013000000","a":"BATEMAN RD","m":"North Fayette","u":"L","o":"individual","sf":9480,"v":26900}},{"type":"Feature","geometry":{"type":"Point","coordinates":[-80.22401,40.43277]},"properties":{"p":"0689C00002000000","a":"291 BATEMAN RD","m":"North Fayette","u":"L","o":"corp","sf":249686,"v":51100}},{"type":"Feature","geometry":{"type":"Point","coordinates":[-80.22425,40.43329]},"properties":{"p":"0689C00004000000","a":"BATEMAN RD","m":"North Fayette","u":"L","o":"corp","sf":74052,"v":35700}},{"type":"Feature","geometry":{"type":"Point","coordinates":[-80.22861,40.43443]},"properties":{"p":"0690P00006000000","a":"BATEMAN RD","m":"North Fayette","u":"L","o":"individual","sf":34682,"v":32000}},{"type":"Feature","geometry":{"type":"Point","coordinates":[-80.22707,40.43361]},"properties":{"p":"0690P00008000000","a":"OAKDALE RD","m":"North Fayette","u":"L","o":"individual","sf":32855,"v":31900}},{"type":"Feature","geometry":{"type":"Point","coordinates":[-80.22459,40.43536]},"properties":{"p":"0690P00012000000","a":"BATEMAN RD","m":"North Fayette","u":"L","o":"corp","sf":10850,"v":500}},{"type":"Feature","geometry":{"type":"Point","coordinates":[-80.23169,40.44008]},"properties":{"p":"0690E00008000000","a":"STEUBENVILLE PIKE","m":"North Fayette","u":"L","o":"individual","sf":26990,"v":27400}},{"type":"Feature","geometry":{"type":"Point","coordinates":[-80.22967,40.44081]},"properties":{"p":"0690E00002000000","a":"STEUBENVILLE PIKE","m":"North Fayette","u":"L","o":"corp","sf":77101,"v":81800}},{"type":"Feature","geometry":{"type":"Point","coordinates":[-80.23084,40.44102]},"properties":{"p":"0690E00003000000","a":"US ROUTE 30","m":"North Fayette","u":"L","o":"corp","sf":180774,"v":41500}},{"type":"Feature","geometry":{"type":"Point","coordinates":[-80.23205,40.4403]},"properties":{"p":"0690E00006000000","a":"STEUBENVILLE PIKE","m":"North Fayette","u":"L","o":"individual","sf":27610,"v":27400}},{"type":"Feature","geometry":{"type":"Point","coordinates":[-80.22793,40.44352]},"properties":{"p":"0691P00007000000","a":"LOGAN RD","m":"North Fayette","u":"L","o":"individual","sf":25265,"v":2300}},{"type":"Feature","geometry":{"type":"Point","coordinates":[-80.2321,40.449]},"properties":{"p":"0691E00005000000","a":"WEST ALLEGHENY RD","m":"North Fayette","u":"L","o":"individual","sf":69652,"v":31300}},{"type":"Feature","geometry":{"type":"Point","coordinates":[-80.22832,40.44587]},"properties":{"p":"0691J00001000000","a":"LOGAN RD","m":"North Fayette","u":"L","o":"individual","sf":594158,"v":74800}},{"type":"Feature","geometry":{"type":"Point","coordinates":[-80.22833,40.44161]},"properties":{"p":"0690B00023000000","a":"LOGAN RD","m":"North Fayette","u":"L","o":"individual","sf":102671,"v":38300}},{"type":"Feature","geometry":{"type":"Point","coordinates":[-80.22846,40.44229]},"properties":{"p":"0690B00029000000","a":"LOGAN RD","m":"North Fayette","u":"L","o":"individual","sf":33744,"v":32000}},{"type":"Feature","geometry":{"type":"Point","coordinates":[-80.22814,40.43854]},"properties":{"p":"0690F00008000000","a":"TWP RD","m":"North Fayette","u":"L","o":"individual","sf":6325,"v":600}},{"type":"Feature","geometry":{"type":"Point","coordinates":[-80.2286,40.43128]},"properties":{"p":"0689F00080000000","a":"BATEMAN RD","m":"North Fayette","u":"L","o":"corp","sf":1004799,"v":141400}},{"type":"Feature","geometry":{"type":"Point","coordinates":[-80.22185,40.4311]},"properties":{"p":"0689G00002000000","a":"BATEMAN RD","m":"North Fayette","u":"L","o":"corp","sf":56628,"v":34100}},{"type":"Feature","geometry":{"type":"Point","coordinates":[-80.2291,40.44385]},"properties":{"p":"0691P00028000000","a":"LOGAN RD","m":"North Fayette","u":"L","o":"individual","sf":57064,"v":34100}},{"type":"Feature","geometry":{"type":"Point","coordinates":[-80.22426,40.4399]},"properties":{"p":"0690G00003000000","a":"STEUBENVILLE PIKE","m":"North Fayette","u":"L","o":"individual","sf":26572,"v":100}},{"type":"Feature","geometry":{"type":"Point","coordinates":[-80.23392,40.44617]},"properties":{"p":"0800M00001000000","a":"WEST ALLEGHENY RD","m":"North Fayette","u":"L","o":"corp","sf":28510,"v":27500}},{"type":"Feature","geometry":{"type":"Point","coordinates":[-80.23684,40.44048]},"properties":{"p":"0799D00010000000","a":"11 E STEUBEN ST","m":"North Fayette","u":"L","o":"corp","sf":119529,"v":52100}},{"type":"Feature","geometry":{"type":"Point","coordinates":[-80.22501,40.432]},"properties":{"p":"0689C00003000000","a":"BATEMAN RD","m":"North Fayette","u":"L","o":"individual","sf":165702,"v":15200}},{"type":"Feature","geometry":{"type":"Point","coordinates":[-80.23427,40.43582]},"properties":{"p":"0799M00004000000","a":"BATEMAN RD","m":"North Fayette","u":"L","o":"individual","sf":39367,"v":30400}},{"type":"Feature","geometry":{"type":"Point","coordinates":[-80.23386,40.4357]},"properties":{"p":"0799M00003000000","a":"BATEMAN RD","m":"North Fayette","u":"L","o":"individual","sf":17280,"v":32200}},{"type":"Feature","geometry":{"type":"Point","coordinates":[-80.22701,40.43323]},"properties":{"p":"0690P00010000000","a":"BATEMAN RD","m":"North Fayette","u":"L","o":"corp","sf":36651,"v":3300}},{"type":"Feature","geometry":{"type":"Point","coordinates":[-80.22255,40.44089]},"properties":{"p":"0690G00002000000","a":"TIMBERGLEN DR","m":"North Fayette","u":"L","o":"individual","sf":272642,"v":73100}},{"type":"Feature","geometry":{"type":"Point","coordinates":[-80.2344,40.4465]},"properties":{"p":"0800M00002000000","a":"CALIFORNIA HOLLOW RD","m":"North Fayette","u":"L","o":"individual","sf":44518,"v":29000}},{"type":"Feature","geometry":{"type":"Point","coordinates":[-80.22707,40.43057]},"properties":{"p":"0689F00006000000","a":"ENGLEWOOD CIR","m":"North Fayette","u":"B","o":"corp","sf":25583,"v":9800}},{"type":"Feature","geometry":{"type":"Point","coordinates":[-80.22656,40.43026]},"properties":{"p":"0689F00008000000","a":"ENGLEWOOD CIR","m":"North Fayette","u":"B","o":"corp","sf":22291,"v":9300}},{"type":"Feature","geometry":{"type":"Point","coordinates":[-80.22763,40.43159]},"properties":{"p":"0689B00008000000","a":"ENGLEWOOD CIR","m":"North Fayette","u":"B","o":"corp","sf":28664,"v":10200}},{"type":"Feature","geometry":{"type":"Point","coordinates":[-80.2275,40.43096]},"properties":{"p":"0689B00009000000","a":"ENGLEWOOD CIR","m":"North Fayette","u":"B","o":"corp","sf":27428,"v":10000}},{"type":"Feature","geometry":{"type":"Point","coordinates":[-80.22491,40.43054]},"properties":{"p":"0689F00001000000","a":"BLUESTONE DR","m":"North Fayette","u":"B","o":"corp","sf":24589,"v":9600}},{"type":"Feature","geometry":{"type":"Point","coordinates":[-80.22574,40.43126]},"properties":{"p":"0689F00003000000","a":"BLUESTONE DR","m":"North Fayette","u":"B","o":"corp","sf":47393,"v":12800}},{"type":"Feature","geometry":{"type":"Point","coordinates":[-80.22632,40.4313]},"properties":{"p":"0689F00005000000","a":"BLUESTONE DR","m":"North Fayette","u":"B","o":"corp","sf":83069,"v":17700}},{"type":"Feature","geometry":{"type":"Point","coordinates":[-80.22794,40.43004]},"properties":{"p":"0689F00060000000","a":"ASH CIR","m":"North Fayette","u":"B","o":"corp","sf":21199,"v":9200}},{"type":"Feature","geometry":{"type":"Point","coordinates":[-80.22807,40.43049]},"properties":{"p":"0689F00064000000","a":"ASH CIR","m":"North Fayette","u":"B","o":"corp","sf":16968,"v":8300}},{"type":"Feature","geometry":{"type":"Point","coordinates":[-80.22813,40.43091]},"properties":{"p":"0689F00065000000","a":"ASH CIR","m":"North Fayette","u":"B","o":"corp","sf":26342,"v":9900}},{"type":"Feature","geometry":{"type":"Point","coordinates":[-80.22859,40.4309]},"properties":{"p":"0689F00066000000","a":"ASH CIR","m":"North Fayette","u":"B","o":"corp","sf":28699,"v":10200}},{"type":"Feature","geometry":{"type":"Point","coordinates":[-80.22685,40.43144]},"properties":{"p":"0689B00004000000","a":"ENGLEWOOD CIR","m":"North Fayette","u":"B","o":"corp","sf":51505,"v":13300}},{"type":"Feature","geometry":{"type":"Point","coordinates":[-80.22702,40.432]},"properties":{"p":"0689B00005000000","a":"ENGLEWOOD CIR","m":"North Fayette","u":"B","o":"corp","sf":27348,"v":10000}},{"type":"Feature","geometry":{"type":"Point","coordinates":[-80.22752,40.43232]},"properties":{"p":"0689B00006000000","a":"ENGLEWOOD CIR","m":"North Fayette","u":"B","o":"corp","sf":23300,"v":9500}},{"type":"Feature","geometry":{"type":"Point","coordinates":[-80.22808,40.43269]},"properties":{"p":"0689B00007000000","a":"ENGLEWOOD CIR","m":"North Fayette","u":"B","o":"corp","sf":28064,"v":10100}},{"type":"Feature","geometry":{"type":"Point","coordinates":[-80.22533,40.43012]},"properties":{"p":"0689F00040000000","a":"ENGLEWOOD CIR","m":"North Fayette","u":"B","o":"corp","sf":49920,"v":13100}},{"type":"Feature","geometry":{"type":"Point","coordinates":[-80.22451,40.4302]},"properties":{"p":"0689G00017000000","a":"BLUESTONE DR","m":"North Fayette","u":"B","o":"corp","sf":25461,"v":9800}},{"type":"Feature","geometry":{"type":"Point","coordinates":[-80.22918,40.431]},"properties":{"p":"0689F00067000000","a":"ASH CIR","m":"North Fayette","u":"B","o":"corp","sf":34797,"v":11100}},{"type":"Feature","geometry":{"type":"Point","coordinates":[-80.228,40.43029]},"properties":{"p":"0689F00062000000","a":"ASH CIR","m":"North Fayette","u":"B","o":"corp","sf":16266,"v":8100}},{"type":"Feature","geometry":{"type":"Point","coordinates":[-80.22924,40.43046]},"properties":{"p":"0689E00005000000","a":"ASH CIR","m":"North Fayette","u":"B","o":"corp","sf":23794,"v":9500}}]}