{"type":"FeatureCollection","features":[{"type":"Feature","geometry":{"type":"Point","coordinates":[-80.22006,40.46242]},"properties":{"p":"0692D00050000000","a":"MCCLAREN WOODS DR","m":"Findlay","u":"I","o":"corp","sf":143356,"v":3938}},{"type":"Feature","geometry":{"type":"Point","coordinates":[-80.22675,40.46193]},"properties":{"p":"0692F00175000000","a":"200 KING CT","m":"Findlay","u":"C","o":"corp","sf":174240,"v":576200}},{"type":"Feature","geometry":{"type":"Point","coordinates":[-80.2263,40.4608]},"properties":{"p":"0692B00015000000","a":"100 KING CT","m":"Findlay","u":"C","o":"corp","sf":172646,"v":15200}},{"type":"Feature","geometry":{"type":"Point","coordinates":[-80.23397,40.45852]},"properties":{"p":"0801H00072000000","a":"ENLOW RD","m":"Findlay","u":"L","o":"individual","sf":105415,"v":1200}},{"type":"Feature","geometry":{"type":"Point","coordinates":[-80.2273,40.45967]},"properties":{"p":"0692F00064000000","a":"MCCLAREN RD","m":"Findlay","u":"L","o":"corp","sf":301052,"v":15200}},{"type":"Feature","geometry":{"type":"Point","coordinates":[-80.23229,40.45499]},"properties":{"p":"0692J00182000000","a":"MCCLAREN RD","m":"Findlay","u":"L","o":"individual","sf":87120,"v":32200}},{"type":"Feature","geometry":{"type":"Point","coordinates":[-80.23818,40.4532]},"properties":{"p":"0801R00105000000","a":"POPLAR ST","m":"Findlay","u":"L","o":"corp","sf":10629,"v":28300}},{"type":"Feature","geometry":{"type":"Point","coordinates":[-80.22158,40.46717]},"properties":{"p":"0693M00200000000","a":"MCCLAREN RD","m":"Findlay","u":"L","o":"individual","sf":958198,"v":71000}},{"type":"Feature","geometry":{"type":"Point","coordinates":[-80.23459,40.46116]},"properties":{"p":"0801D00162000000","a":"GEORGE ST","m":"Findlay","u":"L","o":"individual","sf":50094,"v":28800}},{"type":"Feature","geometry":{"type":"Point","coordinates":[-80.23936,40.45441]},"properties":{"p":"0801R00307000000","a":"269 STARK AVE","m":"Findlay","u":"L","o":"individual","sf":6500,"v":600}},{"type":"Feature","geometry":{"type":"Point","coordinates":[-80.23887,40.45458]},"properties":{"p":"0801R00326000000","a":"STARK AVE","m":"Findlay","u":"L","o":"individual","sf":6500,"v":600}},{"type":"Feature","geometry":{"type":"Point","coordinates":[-80.23875,40.4547]},"properties":{"p":"0801R00332000000","a":"STARK AVE","m":"Findlay","u":"L","o":"individual","sf":6500,"v":23100}},{"type":"Feature","geometry":{"type":"Point","coordinates":[-80.23911,40.45512]},"properties":{"p":"0801R00354000000","a":"PLUM AVE","m":"Findlay","u":"L","o":"individual","sf":15046,"v":18500}},{"type":"Feature","geometry":{"type":"Point","coordinates":[-80.22819,40.46231]},"properties":{"p":"0692B00036000000","a":"CRAIG ST","m":"Findlay","u":"L","o":"corp","sf":442840,"v":1000}},{"type":"Feature","geometry":{"type":"Point","coordinates":[-80.22984,40.4614]},"properties":{"p":"0692A00356000000","a":"ROBERT ST","m":"Findlay","u":"L","o":"corp","sf":77319,"v":1000}},{"type":"Feature","geometry":{"type":"Point","coordinates":[-80.24,40.45416]},"properties":{"p":"0801R00284000000","a":"STARK AVE","m":"Findlay","u":"L","o":"individual","sf":6500,"v":600}},{"type":"Feature","geometry":{"type":"Point","coordinates":[-80.23991,40.45432]},"properties":{"p":"0801R00289000000","a":"ELM ST","m":"Findlay","u":"L","o":"corp","sf":6500,"v":23100}},{"type":"Feature","geometry":{"type":"Point","coordinates":[-80.23693,40.45299]},"properties":{"p":"0801S00136000000","a":"MAIN ST","m":"Findlay","u":"L","o":"individual","sf":5357,"v":500}},{"type":"Feature","geometry":{"type":"Point","coordinates":[-80.23516,40.45315]},"properties":{"p":"0800D00372000000","a":"CALIFORNIA HOLLOW RD","m":"Findlay","u":"L","o":"individual","sf":38333,"v":32400}},{"type":"Feature","geometry":{"type":"Point","coordinates":[-80.23215,40.46456]},"properties":{"p":"0807D00308000000","a":"ENLOW RD","m":"Findlay","u":"L","o":"corp","sf":4517172,"v":206000}},{"type":"Feature","geometry":{"type":"Point","coordinates":[-80.23614,40.45883]},"properties":{"p":"0801H00257000000","a":"ENLOW RD","m":"Findlay","u":"L","o":"individual","sf":130680,"v":12000}},{"type":"Feature","geometry":{"type":"Point","coordinates":[-80.23673,40.45986]},"properties":{"p":"0801H00390000000","a":"WOODLAND DR","m":"Findlay","u":"L","o":"individual","sf":20817,"v":26100}},{"type":"Feature","geometry":{"type":"Point","coordinates":[-80.23548,40.45676]},"properties":{"p":"0801M00347000000","a":"33 ENLOW RD","m":"Findlay","u":"L","o":"individual","sf":22984,"v":26300}},{"type":"Feature","geometry":{"type":"Point","coordinates":[-80.23381,40.45702]},"properties":{"p":"0801M00054000000","a":"ENLOW RD","m":"Findlay","u":"L","o":"individual","sf":15681,"v":1400}},{"type":"Feature","geometry":{"type":"Point","coordinates":[-80.23435,40.45605]},"properties":{"p":"0801M00109000000","a":"ENLOW RD","m":"Findlay","u":"L","o":"individual","sf":52708,"v":600}},{"type":"Feature","geometry":{"type":"Point","coordinates":[-80.23748,40.45256]},"properties":{"p":"9910X01317000000","a":"MAIN ST","m":"Findlay","u":"L","o":"corp","sf":10280,"v":900}},{"type":"Feature","geometry":{"type":"Point","coordinates":[-80.23691,40.46279]},"properties":{"p":"0802R00007000000","a":"124 ENLOW RD","m":"Findlay","u":"L","o":"individual","sf":10890,"v":20100}},{"type":"Feature","geometry":{"type":"Point","coordinates":[-80.23578,40.45145]},"properties":{"p":"0800D00009000000","a":"CALIFORNIA HOLLOW RD","m":"North Fayette","u":"L","o":"individual","sf":16660,"v":1500}},{"type":"Feature","geometry":{"type":"Point","coordinates":[-80.23933,40.45202]},"properties":{"p":"0800C00005000000","a":"MAIN ST","m":"North Fayette","u":"L","o":"corp","sf":71303,"v":31500}},{"type":"Feature","geometry":{"type":"Point","coordinates":[-80.23551,40.45119]},"properties":{"p":"0800D00003000000","a":"CALIFORNIA HOLLOW RD","m":"North Fayette","u":"L","o":"corp","sf":11751,"v":25800}},{"type":"Feature","geometry":{"type":"Point","coordinates":[-80.22637,40.45637]},"properties":{"p":"9929X82241000000","a":"CLIFF MINE RD","m":"North Fayette","u":"L","o":"individual","sf":5198,"v":700}},{"type":"Feature","geometry":{"type":"Point","coordinates":[-80.23454,40.45265]},"properties":{"p":"0800D00019000000","a":"CLIFF MINE RD","m":"North Fayette","u":"L","o":"individual","sf":95701,"v":33700}},{"type":"Feature","geometry":{"type":"Point","coordinates":[-80.23761,40.45188]},"properties":{"p":"9929X82138000000","a":"MAIN ST","m":"North Fayette","u":"L","o":"individual","sf":79541,"v":7200}},{"type":"Feature","geometry":{"type":"Point","coordinates":[-80.23215,40.45471]},"properties":{"p":"0692N00012000000","a":"CLIFF MINE RD","m":"North Fayette","u":"L","o":"individual","sf":20848,"v":13800}},{"type":"Feature","geometry":{"type":"Point","coordinates":[-80.23034,40.45212]},"properties":{"p":"0691A00007000000","a":"LOGAN RD","m":"North Fayette","u":"L","o":"individual","sf":15800,"v":1400}},{"type":"Feature","geometry":{"type":"Point","coordinates":[-80.23185,40.45113]},"properties":{"p":"0691A00011000000","a":"WEST ALLEGHENY RD","m":"North Fayette","u":"L","o":"corp","sf":209436,"v":44100}},{"type":"Feature","geometry":{"type":"Point","coordinates":[-80.2271,40.45096]},"properties":{"p":"0691B00007000000","a":"MCNEES LN","m":"North Fayette","u":"L","o":"individual","sf":43455,"v":32800}},{"type":"Feature","geometry":{"type":"Point","coordinates":[-80.22755,40.45263]},"properties":{"p":"0691B00014000000","a":"MCNEES LN","m":"North Fayette","u":"L","o":"individual","sf":8102,"v":25100}},{"type":"Feature","geometry":{"type":"Point","coordinates":[-80.23217,40.45412]},"properties":{"p":"0692N00014000000","a":"CLIFF MINE RD","m":"North Fayette","u":"L","o":"corp","sf":30106,"v":27700}},{"type":"Feature","geometry":{"type":"Point","coordinates":[-80.23302,40.45479]},"properties":{"p":"0692N00016000000","a":"CLIFF MINE RD","m":"North Fayette","u":"L","o":"individual","sf":14244,"v":26200}},{"type":"Feature","geometry":{"type":"Point","coordinates":[-80.22597,40.45101]},"properties":{"p":"0691B00005000000","a":"MCNEES LN","m":"North Fayette","u":"L","o":"individual","sf":40080,"v":32500}},{"type":"Feature","geometry":{"type":"Point","coordinates":[-80.22617,40.45053]},"properties":{"p":"0691B00006000000","a":"MCNEES LN","m":"North Fayette","u":"L","o":"individual","sf":65148,"v":34900}},{"type":"Feature","geometry":{"type":"Point","coordinates":[-80.23073,40.45414]},"properties":{"p":"0692N00005000000","a":"LOGAN RD","m":"North Fayette","u":"L","o":"individual","sf":14022,"v":30200}},{"type":"Feature","geometry":{"type":"Point","coordinates":[-80.2246,40.45487]},"properties":{"p":"0692R00022000000","a":"CLIFF MINE RD","m":"North Fayette","u":"L","o":"individual","sf":9232,"v":26500}},{"type":"Feature","geometry":{"type":"Point","coordinates":[-80.22299,40.45302]},"properties":{"p":"0692R00011000000","a":"166 DARLENE DR","m":"North Fayette","u":"L","o":"individual","sf":3354,"v":1300}},{"type":"Feature","geometry":{"type":"Point","coordinates":[-80.22618,40.45664]},"properties":{"p":"0692K00037000000","a":"CLIFF MINE RD","m":"North Fayette","u":"L","o":"individual","sf":7448,"v":700}},{"type":"Feature","geometry":{"type":"Point","coordinates":[-80.22287,40.45345]},"properties":{"p":"0692R00044000000","a":"DARLENE DR","m":"North Fayette","u":"L","o":"individual","sf":870,"v":400}},{"type":"Feature","geometry":{"type":"Point","coordinates":[-80.23246,40.45299]},"properties":{"p":"0692N00022000000","a":"ROUTE 978","m":"North Fayette","u":"L","o":"individual","sf":1306,"v":100}},{"type":"Feature","geometry":{"type":"Point","coordinates":[-80.23289,40.45767]},"properties":{"p":"0801M00026000000","a":"ENLOW RD","m":"Findlay","u":"L","o":"individual","sf":58370,"v":29500}},{"type":"Feature","geometry":{"type":"Point","coordinates":[-80.23517,40.45958]},"properties":{"p":"0801H00210000000","a":"80 ENLOW RD","m":"Findlay","u":"L","o":"individual","sf":1730,"v":200}},{"type":"Feature","geometry":{"type":"Point","coordinates":[-80.23515,40.45286]},"properties":{"p":"9910X84667000000","a":"CALIFORNIA HOLLOW RD","m":"Findlay","u":"L","o":"corp","sf":73528,"v":35500}},{"type":"Feature","geometry":{"type":"Point","coordinates":[-80.2251,40.45382]},"properties":{"p":"0692R00020000000","a":"CLIFF MINE RD","m":"North Fayette","u":"L","o":"individual","sf":139392,"v":41700}},{"type":"Feature","geometry":{"type":"Point","coordinates":[-80.23271,40.45708]},"properties":{"p":"0692J00379000000","a":"ENLOW RD","m":"Findlay","u":"L","o":"individual","sf":67518,"v":800}},{"type":"Feature","geometry":{"type":"Point","coordinates":[-80.23357,40.45305]},"properties":{"p":"0801S00001000000","a":"19 GRACE ST","m":"North Fayette","u":"L","o":"individual","sf":1500,"v":100}},{"type":"Feature","geometry":{"type":"Point","coordinates":[-80.23524,40.45507]},"properties":{"p":"0801M00105000000","a":"ENLOW RD","m":"Findlay","u":"L","o":"individual","sf":43560,"v":500}},{"type":"Feature","geometry":{"type":"Point","coordinates":[-80.2397,40.45818]},"properties":{"p":"0801G00046000000","a":"PAPPAN DR","m":"Findlay","u":"B","o":"corp","sf":11979,"v":0}}]}