{"type":"FeatureCollection","features":[{"type":"Feature","geometry":{"type":"Point","coordinates":[-80.23576,40.50833]},"properties":{"p":"0806H00330000000","a":"1120 STEVENSON MILL RD","m":"Moon","u":"I","o":"corp","sf":26809,"v":20000}},{"type":"Feature","geometry":{"type":"Point","coordinates":[-80.22082,40.50385]},"properties":{"p":"0697R00080000000","a":"PORTVUE DR","m":"Moon","u":"C","o":"corp","sf":36184,"v":220900}},{"type":"Feature","geometry":{"type":"Point","coordinates":[-80.22771,40.5051]},"properties":{"p":"0697R00146000000","a":"9000 UNIVERSITY BLVD","m":"Moon","u":"C","o":"corp","sf":989235,"v":124700}},{"type":"Feature","geometry":{"type":"Point","coordinates":[-80.22336,40.50389]},"properties":{"p":"0697R00174000000","a":"8900 UNIVERSITY BLVD","m":"Moon","u":"C","o":"corp","sf":42168,"v":244100}},{"type":"Feature","geometry":{"type":"Point","coordinates":[-80.2228,40.50175]},"properties":{"p":"0697R00224000000","a":"UNIVERSITY BLVD","m":"Moon","u":"C","o":"corp","sf":27704,"v":79500}},{"type":"Feature","geometry":{"type":"Point","coordinates":[-80.2236,40.5057]},"properties":{"p":"0697L00223000000","a":"UNIVERSITY BLVD","m":"Moon","u":"C","o":"corp","sf":18761,"v":143400}},{"type":"Feature","geometry":{"type":"Point","coordinates":[-80.2398,40.50965]},"properties":{"p":"0806C00057000000","a":"MOON CLINTON RD","m":"Moon","u":"C","o":"corp","sf":30832,"v":117000}},{"type":"Feature","geometry":{"type":"Point","coordinates":[-80.23907,40.50943]},"properties":{"p":"0806C00059000000","a":"CLINTON RD","m":"Moon","u":"C","o":"corp","sf":22651,"v":95900}},{"type":"Feature","geometry":{"type":"Point","coordinates":[-80.23865,40.50941]},"properties":{"p":"0806C00060000000","a":"CLINTON RD","m":"Moon","u":"C","o":"corp","sf":19994,"v":89100}},{"type":"Feature","geometry":{"type":"Point","coordinates":[-80.2207,40.50218]},"properties":{"p":"0697R00021000000","a":"MAPLE LN","m":"Moon","u":"C","o":"corp","sf":25822,"v":5200}},{"type":"Feature","geometry":{"type":"Point","coordinates":[-80.22157,40.50252]},"properties":{"p":"0697R00039000000","a":"UNIVERSITY  BLVD","m":"Moon","u":"C","o":"corp","sf":43244,"v":199400}},{"type":"Feature","geometry":{"type":"Point","coordinates":[-80.22079,40.50247]},"properties":{"p":"0697R00043000000","a":"UNIVERSITY BLVD","m":"Moon","u":"C","o":"corp","sf":30621,"v":15000}},{"type":"Feature","geometry":{"type":"Point","coordinates":[-80.23536,40.50834]},"properties":{"p":"0806H00335000000","a":"STEVENSON MILL RD","m":"Moon","u":"C","o":"corp","sf":17500,"v":30000}},{"type":"Feature","geometry":{"type":"Point","coordinates":[-80.22212,40.50474]},"properties":{"p":"0697L00032000000","a":"UNIVERSITY BLVD","m":"Moon","u":"C","o":"corp","sf":50573,"v":450000}},{"type":"Feature","geometry":{"type":"Point","coordinates":[-80.22357,40.50798]},"properties":{"p":"0697G00298000000","a":"UNIVERSITY BLVD","m":"Moon","u":"C","o":"corp","sf":41952,"v":243100}},{"type":"Feature","geometry":{"type":"Point","coordinates":[-80.23976,40.5087]},"properties":{"p":"0806G00193000000","a":"MOON CLINTON RD","m":"Moon","u":"C","o":"corp","sf":214433,"v":30000}},{"type":"Feature","geometry":{"type":"Point","coordinates":[-80.22048,40.5038]},"properties":{"p":"0697S00231000000","a":"PORTVUE DR","m":"Moon","u":"C","o":"corp","sf":26175,"v":32200}},{"type":"Feature","geometry":{"type":"Point","coordinates":[-80.22007,40.50371]},"properties":{"p":"0697S00239000000","a":"PORTVUE DR","m":"Moon","u":"C","o":"corp","sf":49711,"v":44400}},{"type":"Feature","geometry":{"type":"Point","coordinates":[-80.23945,40.50806]},"properties":{"p":"0806G00230000000","a":"ENLOW RD","m":"Moon","u":"C","o":"individual","sf":10100,"v":27500}},{"type":"Feature","geometry":{"type":"Point","coordinates":[-80.22084,40.50451]},"properties":{"p":"0697M00087000000","a":"SOUTH PATTON DR","m":"Moon","u":"C","o":"corp","sf":80240,"v":87400}},{"type":"Feature","geometry":{"type":"Point","coordinates":[-80.22132,40.50399]},"properties":{"p":"0697R00092000000","a":"PORTVUE DR","m":"Moon","u":"C","o":"corp","sf":59664,"v":225000}},{"type":"Feature","geometry":{"type":"Point","coordinates":[-80.23914,40.50778]},"properties":{"p":"0806G00076000000","a":"ENLOW RD","m":"Moon","u":"C","o":"individual","sf":1500,"v":200}},{"type":"Feature","geometry":{"type":"Point","coordinates":[-80.22054,40.50147]},"properties":{"p":"0696D00395000000","a":"MAPLE LN","m":"Moon","u":"L","o":"corp","sf":29185,"v":36600}},{"type":"Feature","geometry":{"type":"Point","coordinates":[-80.23313,40.50872]},"properties":{"p":"0697A00187000000","a":"LOCKHEED DR","m":"Moon","u":"L","o":"corp","sf":151724,"v":0}},{"type":"Feature","geometry":{"type":"Point","coordinates":[-80.23229,40.50997]},"properties":{"p":"0697A00189000000","a":"LOCKHEED DR","m":"Moon","u":"L","o":"corp","sf":24692,"v":0}},{"type":"Feature","geometry":{"type":"Point","coordinates":[-80.22922,40.50752]},"properties":{"p":"0697F00022000000","a":"BENDIX DR","m":"Moon","u":"L","o":"individual","sf":31929,"v":2900}},{"type":"Feature","geometry":{"type":"Point","coordinates":[-80.22033,40.50779]},"properties":{"p":"0697H00199000000","a":"204 SPRINGER DR","m":"Moon","u":"L","o":"individual","sf":18000,"v":35600}},{"type":"Feature","geometry":{"type":"Point","coordinates":[-80.23875,40.50975]},"properties":{"p":"0806C00187000000","a":"PEAR ORCHARD RD","m":"Moon","u":"L","o":"corp","sf":23811,"v":36100}},{"type":"Feature","geometry":{"type":"Point","coordinates":[-80.22961,40.50776]},"properties":{"p":"0697E00218000000","a":"BENDIX DR","m":"Moon","u":"L","o":"individual","sf":7920,"v":700}},{"type":"Feature","geometry":{"type":"Point","coordinates":[-80.23673,40.50962]},"properties":{"p":"0806D00093000000","a":"MOON CLINTON RD","m":"Moon","u":"L","o":"individual","sf":43560,"v":37900}},{"type":"Feature","geometry":{"type":"Point","coordinates":[-80.22158,40.5082]},"properties":{"p":"0697G00075000000","a":"BRADLEY DR","m":"Moon","u":"L","o":"corp","sf":51444,"v":38600}},{"type":"Feature","geometry":{"type":"Point","coordinates":[-80.23201,40.50836]},"properties":{"p":"0697E00269000000","a":"176 LOCKHEED DR","m":"Moon","u":"B","o":"individual","sf":3099,"v":1500}},{"type":"Feature","geometry":{"type":"Point","coordinates":[-80.23168,40.50835]},"properties":{"p":"0697E00263000000","a":"182 LOCKHEED DR","m":"Moon","u":"B","o":"individual","sf":8012,"v":5200}}]}