{"type":"FeatureCollection","features":[{"type":"Feature","geometry":{"type":"Point","coordinates":[-80.23556,40.54611]},"properties":{"p":"0810H00074000000","a":"ANDERSON ST","m":"Crescent","u":"C","o":"individual","sf":1000,"v":800}},{"type":"Feature","geometry":{"type":"Point","coordinates":[-80.22126,40.53898]},"properties":{"p":"0700C00041000000","a":"FLAUGHERTY RUN RD","m":"Moon","u":"C","o":"individual","sf":14803,"v":3400}},{"type":"Feature","geometry":{"type":"Point","coordinates":[-80.22179,40.53925]},"properties":{"p":"0700C00063000000","a":"FLAUGHERTY RUN RD","m":"Moon","u":"C","o":"individual","sf":68389,"v":15700}},{"type":"Feature","geometry":{"type":"Point","coordinates":[-80.23383,40.53659]},"properties":{"p":"0809H00025000000","a":"BRODHEAD RD","m":"Moon","u":"C","o":"individual","sf":878130,"v":135200}},{"type":"Feature","geometry":{"type":"Point","coordinates":[-80.22254,40.5481]},"properties":{"p":"0701C00100000000","a":"LAUREL RIDGE DR","m":"Crescent","u":"L","o":"individual","sf":274428,"v":3200}},{"type":"Feature","geometry":{"type":"Point","coordinates":[-80.22592,40.54554]},"properties":{"p":"0701K00025000000","a":"LAUREL RIDGE DR","m":"Crescent","u":"L","o":"individual","sf":124582,"v":1400}},{"type":"Feature","geometry":{"type":"Point","coordinates":[-80.22484,40.54503]},"properties":{"p":"0701K00050000000","a":"LAUREL RIDGE DR","m":"Crescent","u":"L","o":"individual","sf":73181,"v":800}},{"type":"Feature","geometry":{"type":"Point","coordinates":[-80.22472,40.5446]},"properties":{"p":"0701K00329000000","a":"211 PURDY RD","m":"Crescent","u":"L","o":"individual","sf":29524,"v":27600}},{"type":"Feature","geometry":{"type":"Point","coordinates":[-80.2254,40.54453]},"properties":{"p":"0701K00335000000","a":"PURDY RD","m":"Crescent","u":"L","o":"individual","sf":8786,"v":22600}},{"type":"Feature","geometry":{"type":"Point","coordinates":[-80.22558,40.54445]},"properties":{"p":"0701K00339000000","a":"PURDY RD","m":"Crescent","u":"L","o":"individual","sf":19793,"v":26700}},{"type":"Feature","geometry":{"type":"Point","coordinates":[-80.22854,40.54884]},"properties":{"p":"0701B00175000000","a":"HEATHER HEIGHTS DR","m":"Crescent","u":"L","o":"individual","sf":178596,"v":2100}},{"type":"Feature","geometry":{"type":"Point","coordinates":[-80.2256,40.54989]},"properties":{"p":"0701B00200000000","a":"CLOVERDALE LN","m":"Crescent","u":"L","o":"individual","sf":335412,"v":2100}},{"type":"Feature","geometry":{"type":"Point","coordinates":[-80.23797,40.5472]},"properties":{"p":"0810G00220000000","a":"BRODHEAD RD","m":"Crescent","u":"L","o":"individual","sf":9169,"v":23000}},{"type":"Feature","geometry":{"type":"Point","coordinates":[-80.23597,40.54632]},"properties":{"p":"0810H00046000000","a":"BROADHEAD RD","m":"Crescent","u":"L","o":"individual","sf":51096,"v":29600}},{"type":"Feature","geometry":{"type":"Point","coordinates":[-80.23347,40.54998]},"properties":{"p":"0810D00095000000","a":"HART DR","m":"Crescent","u":"L","o":"individual","sf":15600,"v":1400}},{"type":"Feature","geometry":{"type":"Point","coordinates":[-80.2337,40.54946]},"properties":{"p":"0810D00098000000","a":"HART DR","m":"Crescent","u":"L","o":"individual","sf":14516,"v":1300}},{"type":"Feature","geometry":{"type":"Point","coordinates":[-80.23398,40.54941]},"properties":{"p":"0810D00102000000","a":"HART DR","m":"Crescent","u":"L","o":"individual","sf":5882,"v":500}},{"type":"Feature","geometry":{"type":"Point","coordinates":[-80.23503,40.54954]},"properties":{"p":"0810D00249000000","a":"HART DR","m":"Crescent","u":"L","o":"individual","sf":7500,"v":21200}},{"type":"Feature","geometry":{"type":"Point","coordinates":[-80.23578,40.54736]},"properties":{"p":"0810H00189000000","a":"SHADY DR","m":"Crescent","u":"L","o":"individual","sf":11528,"v":25500}},{"type":"Feature","geometry":{"type":"Point","coordinates":[-80.23956,40.54701]},"properties":{"p":"0810G00184000000","a":"BRODHEAD RD","m":"Crescent","u":"L","o":"corp","sf":141570,"v":37900}},{"type":"Feature","geometry":{"type":"Point","coordinates":[-80.23742,40.54838]},"properties":{"p":"0810C00358000000","a":"HART DR","m":"Crescent","u":"L","o":"corp","sf":8816,"v":800}},{"type":"Feature","geometry":{"type":"Point","coordinates":[-80.2393,40.54781]},"properties":{"p":"0810G00077000000","a":"ANDERSON ST","m":"Crescent","u":"L","o":"individual","sf":7710,"v":700}},{"type":"Feature","geometry":{"type":"Point","coordinates":[-80.23785,40.54926]},"properties":{"p":"0810C00284000000","a":"406 VALLEY VIEW DR","m":"Crescent","u":"L","o":"individual","sf":8256,"v":700}},{"type":"Feature","geometry":{"type":"Point","coordinates":[-80.23805,40.54918]},"properties":{"p":"0810C00287000000","a":"VALLEY VIEW DR","m":"Crescent","u":"L","o":"individual","sf":8065,"v":21800}},{"type":"Feature","geometry":{"type":"Point","coordinates":[-80.23596,40.54814]},"properties":{"p":"0810D00151000000","a":"MARGARET DR","m":"Crescent","u":"L","o":"individual","sf":7440,"v":700}},{"type":"Feature","geometry":{"type":"Point","coordinates":[-80.23541,40.54839]},"properties":{"p":"0810D00160000000","a":"MARGARET DR","m":"Crescent","u":"L","o":"individual","sf":7800,"v":21500}},{"type":"Feature","geometry":{"type":"Point","coordinates":[-80.23504,40.54858]},"properties":{"p":"0810D00166000000","a":"MARGARET DR","m":"Crescent","u":"L","o":"individual","sf":7429,"v":700}},{"type":"Feature","geometry":{"type":"Point","coordinates":[-80.23566,40.54977]},"properties":{"p":"0810D00299000000","a":"402 LOUISA DR","m":"Crescent","u":"L","o":"individual","sf":12187,"v":26100}},{"type":"Feature","geometry":{"type":"Point","coordinates":[-80.23379,40.54727]},"properties":{"p":"0810H00385000000","a":"LOCUST RD","m":"Crescent","u":"L","o":"individual","sf":8000,"v":21700}},{"type":"Feature","geometry":{"type":"Point","coordinates":[-80.22775,40.53176]},"properties":{"p":"0700P00331000000","a":"BRODHEAD RD","m":"Moon","u":"L","o":"individual","sf":898163,"v":86700}},{"type":"Feature","geometry":{"type":"Point","coordinates":[-80.23997,40.5378]},"properties":{"p":"0809C00235000000","a":"BOGGS SCHOOL RD","m":"Moon","u":"L","o":"individual","sf":435600,"v":26100}},{"type":"Feature","geometry":{"type":"Point","coordinates":[-80.22098,40.53079]},"properties":{"p":"0699D00211000000","a":"SHAFER RD","m":"Moon","u":"L","o":"individual","sf":2562,"v":300}},{"type":"Feature","geometry":{"type":"Point","coordinates":[-80.22633,40.53971]},"properties":{"p":"0700B00026000000","a":"2525 MINTON DR","m":"Moon","u":"L","o":"individual","sf":29795,"v":47000}},{"type":"Feature","geometry":{"type":"Point","coordinates":[-80.22108,40.53032]},"properties":{"p":"0699C00210000000","a":"SHAFER RD","m":"Moon","u":"L","o":"individual","sf":4052,"v":400}},{"type":"Feature","geometry":{"type":"Point","coordinates":[-80.22779,40.54552]},"properties":{"p":"0701K00075000000","a":"PURDY RD","m":"Moon","u":"L","o":"individual","sf":48787,"v":1100}},{"type":"Feature","geometry":{"type":"Point","coordinates":[-80.22837,40.54316]},"properties":{"p":"0701K00205000100","a":"FARM VIEW DR","m":"Moon","u":"L","o":"individual","sf":6217,"v":1300}},{"type":"Feature","geometry":{"type":"Point","coordinates":[-80.2283,40.54337]},"properties":{"p":"0701K00209000000","a":"FARM VIEW DR","m":"Moon","u":"L","o":"individual","sf":22064,"v":65600}},{"type":"Feature","geometry":{"type":"Point","coordinates":[-80.23509,40.53247]},"properties":{"p":"0808C00095000000","a":"FLAUGHERTY RUN RD","m":"Moon","u":"L","o":"individual","sf":1873080,"v":132800}},{"type":"Feature","geometry":{"type":"Point","coordinates":[-80.23822,40.53139]},"properties":{"p":"0808C00131000000","a":"FLAUGHERTY RUN RD","m":"Moon","u":"L","o":"individual","sf":1089000,"v":93000}},{"type":"Feature","geometry":{"type":"Point","coordinates":[-80.23514,40.54363]},"properties":{"p":"0810M00312000000","a":"1007 ESTATE DR","m":"Moon","u":"L","o":"individual","sf":20473,"v":4300}},{"type":"Feature","geometry":{"type":"Point","coordinates":[-80.22094,40.53562]},"properties":{"p":"0700L00260000000","a":"PRIVATE RD","m":"Moon","u":"L","o":"individual","sf":387684,"v":41400}},{"type":"Feature","geometry":{"type":"Point","coordinates":[-80.22028,40.53375]},"properties":{"p":"0700M00007000000","a":"MADISON DR","m":"Moon","u":"L","o":"individual","sf":15575,"v":45400}},{"type":"Feature","geometry":{"type":"Point","coordinates":[-80.22348,40.53999]},"properties":{"p":"0700C00245000000","a":"EMMA LN","m":"Moon","u":"L","o":"individual","sf":30370,"v":37700}},{"type":"Feature","geometry":{"type":"Point","coordinates":[-80.22415,40.53984]},"properties":{"p":"0700C00247000000","a":"EMMA LN","m":"Moon","u":"L","o":"individual","sf":66211,"v":13700}},{"type":"Feature","geometry":{"type":"Point","coordinates":[-80.22855,40.54378]},"properties":{"p":"0701K00211000100","a":"2111 FARM VIEW DR","m":"Moon","u":"L","o":"individual","sf":9585,"v":66600}},{"type":"Feature","geometry":{"type":"Point","coordinates":[-80.2203,40.54099]},"properties":{"p":"0700D00330000000","a":"FLAUGHERTY RUN RD","m":"Moon","u":"L","o":"individual","sf":334976,"v":47700}},{"type":"Feature","geometry":{"type":"Point","coordinates":[-80.22048,40.53085]},"properties":{"p":"0700S00217000000","a":"SHAFER RD","m":"Moon","u":"L","o":"individual","sf":2205,"v":200}},{"type":"Feature","geometry":{"type":"Point","coordinates":[-80.22094,40.53777]},"properties":{"p":"0700G00166000000","a":"FLAUGHERTY RUN RD","m":"Moon","u":"L","o":"corp","sf":566280,"v":45500}},{"type":"Feature","geometry":{"type":"Point","coordinates":[-80.22429,40.53751]},"properties":{"p":"0700G00311000000","a":"202 FLAUGHERTY RUN RD","m":"Moon","u":"L","o":"individual","sf":36758,"v":11100}},{"type":"Feature","geometry":{"type":"Point","coordinates":[-80.23724,40.53926]},"properties":{"p":"0809C00376000000","a":"BOGGS SCHOOL RD","m":"Moon","u":"L","o":"individual","sf":37462,"v":3400}},{"type":"Feature","geometry":{"type":"Point","coordinates":[-80.23376,40.53853]},"properties":{"p":"0809D00032000000","a":"BRODHEAD RD","m":"Moon","u":"L","o":"individual","sf":2348276,"v":233900}},{"type":"Feature","geometry":{"type":"Point","coordinates":[-80.22332,40.53282]},"properties":{"p":"0700R00019000000","a":"1842 MADISON DR","m":"Moon","u":"L","o":"individual","sf":42847,"v":9400}},{"type":"Feature","geometry":{"type":"Point","coordinates":[-80.23511,40.53998]},"properties":{"p":"0809D00387000000","a":"BRODHEAD RD","m":"Moon","u":"L","o":"individual","sf":15071,"v":7000}},{"type":"Feature","geometry":{"type":"Point","coordinates":[-80.22619,40.53536]},"properties":{"p":"0700K00223000000","a":"FLAUGHERTY RUN RD","m":"Moon","u":"L","o":"individual","sf":324478,"v":40000}},{"type":"Feature","geometry":{"type":"Point","coordinates":[-80.22747,40.53583]},"properties":{"p":"0700K00337000000","a":"FLAUGHERTY RUN RD","m":"Moon","u":"L","o":"individual","sf":186437,"v":2100}},{"type":"Feature","geometry":{"type":"Point","coordinates":[-80.22912,40.53421]},"properties":{"p":"0700K00361000000","a":"FLAUGHERTY RUN RD","m":"Moon","u":"L","o":"individual","sf":2828,"v":1000}},{"type":"Feature","geometry":{"type":"Point","coordinates":[-80.23233,40.54372]},"properties":{"p":"0701J00201000000","a":"PURDY RD","m":"Moon","u":"L","o":"individual","sf":24925,"v":46000}},{"type":"Feature","geometry":{"type":"Point","coordinates":[-80.22488,40.53965]},"properties":{"p":"0700B00043000000","a":"EMMA LN","m":"Moon","u":"L","o":"individual","sf":48787,"v":20000}},{"type":"Feature","geometry":{"type":"Point","coordinates":[-80.22095,40.53132]},"properties":{"p":"0700S00025000000","a":"SHAFER RD","m":"Moon","u":"L","o":"individual","sf":78408,"v":51900}},{"type":"Feature","geometry":{"type":"Point","coordinates":[-80.22838,40.54261]},"properties":{"p":"0701P00214000000","a":"BARNES DR","m":"Moon","u":"L","o":"individual","sf":19950,"v":50000}},{"type":"Feature","geometry":{"type":"Point","coordinates":[-80.23677,40.54114]},"properties":{"p":"0810S00286000000","a":"BRODHEAD RD","m":"Moon","u":"L","o":"corp","sf":160736,"v":119100}},{"type":"Feature","geometry":{"type":"Point","coordinates":[-80.23058,40.53076]},"properties":{"p":"0699A00118000000","a":"BRODHEAD RD","m":"Moon","u":"L","o":"individual","sf":17198,"v":1600}},{"type":"Feature","geometry":{"type":"Point","coordinates":[-80.22684,40.54155]},"properties":{"p":"0701P00262000000","a":"PURDY RD","m":"Moon","u":"L","o":"corp","sf":143312,"v":13200}},{"type":"Feature","geometry":{"type":"Point","coordinates":[-80.22687,40.53696]},"properties":{"p":"0700F00228000000","a":"FLAUGHERTY RUN RD","m":"Moon","u":"L","o":"individual","sf":135036,"v":10000}},{"type":"Feature","geometry":{"type":"Point","coordinates":[-80.22306,40.53629]},"properties":{"p":"0700G00131000000","a":"FLAUGHERTY RUN RD","m":"Moon","u":"L","o":"individual","sf":55321,"v":22600}},{"type":"Feature","geometry":{"type":"Point","coordinates":[-80.23566,40.54605]},"properties":{"p":"0810H00069000000","a":"BROADHEAD RD","m":"Crescent","u":"L","o":"individual","sf":2700,"v":200}},{"type":"Feature","geometry":{"type":"Point","coordinates":[-80.23199,40.54505]},"properties":{"p":"0701J00037000100","a":"BROAD HILL FARMS RD","m":"Moon","u":"L","o":"individual","sf":464,"v":100}},{"type":"Feature","geometry":{"type":"Point","coordinates":[-80.23621,40.54958]},"properties":{"p":"0810D00311000000","a":"FLORENCE DR","m":"Crescent","u":"L","o":"individual","sf":18505,"v":26600}},{"type":"Feature","geometry":{"type":"Point","coordinates":[-80.22477,40.54294]},"properties":{"p":"0701P00270000000","a":"PURDY RD","m":"Moon","u":"L","o":"individual","sf":1021478,"v":54000}},{"type":"Feature","geometry":{"type":"Point","coordinates":[-80.23223,40.54603]},"properties":{"p":"0701E00025000000","a":"HARROW CT","m":"Moon","u":"L","o":"individual","sf":12632,"v":2600}},{"type":"Feature","geometry":{"type":"Point","coordinates":[-80.22437,40.54643]},"properties":{"p":"0701G00004000000","a":"1639 ASTER LN","m":"Crescent","u":"B","o":"individual","sf":16212,"v":3100}},{"type":"Feature","geometry":{"type":"Point","coordinates":[-80.23991,40.53345]},"properties":{"p":"0809L00113000000","a":"316 SEAN DR","m":"Moon","u":"B","o":"corp","sf":9140,"v":5600}},{"type":"Feature","geometry":{"type":"Point","coordinates":[-80.23954,40.53309]},"properties":{"p":"0809R00005000000","a":"409 LYTHAM CT","m":"Moon","u":"B","o":"individual","sf":11158,"v":6100}},{"type":"Feature","geometry":{"type":"Point","coordinates":[-80.23613,40.54483]},"properties":{"p":"0810M00290000000","a":"1000 ESTATE DR","m":"Moon","u":"B","o":"individual","sf":59677,"v":21700}},{"type":"Feature","geometry":{"type":"Point","coordinates":[-80.23957,40.53341]},"properties":{"p":"0809L00111000000","a":"318 SEAN DR","m":"Moon","u":"B","o":"corp","sf":9979,"v":5800}}]}