{"type":"FeatureCollection","features":[{"type":"Feature","geometry":{"type":"Point","coordinates":[-80.21436,40.42521]},"properties":{"p":"9929X87931000000","a":"BATEMAN RD","m":"North Fayette","u":"C","o":"individual","sf":90605,"v":7100}},{"type":"Feature","geometry":{"type":"Point","coordinates":[-80.21757,40.42083]},"properties":{"p":"0688H00080000000","a":"OLD MILL RD","m":"North Fayette","u":"C","o":"corp","sf":107136,"v":47500}},{"type":"Feature","geometry":{"type":"Point","coordinates":[-80.20023,40.42319]},"properties":{"p":"0587D00005000000","a":"OAKDALE RD","m":"North Fayette","u":"L","o":"individual","sf":124268,"v":25300}},{"type":"Feature","geometry":{"type":"Point","coordinates":[-80.21352,40.41955]},"properties":{"p":"0587E00002000000","a":"NORTH BRANCH RD","m":"North Fayette","u":"L","o":"individual","sf":23522,"v":2100}},{"type":"Feature","geometry":{"type":"Point","coordinates":[-80.20561,40.42391]},"properties":{"p":"0587H00002000000","a":"42 OLD NORTH BRANCH RD","m":"North Fayette","u":"L","o":"corp","sf":4520265,"v":420000}},{"type":"Feature","geometry":{"type":"Point","coordinates":[-80.20893,40.42929]},"properties":{"p":"0588C00002000000","a":"OAKDALE RD","m":"North Fayette","u":"L","o":"individual","sf":3568601,"v":300600}},{"type":"Feature","geometry":{"type":"Point","coordinates":[-80.21051,40.4182]},"properties":{"p":"0587F00012000000","a":"NORTH BRANCH RD","m":"North Fayette","u":"L","o":"individual","sf":122042,"v":40100}},{"type":"Feature","geometry":{"type":"Point","coordinates":[-80.21153,40.42032]},"properties":{"p":"0587F00021000000","a":"BATEMAN RD","m":"North Fayette","u":"L","o":"corp","sf":64068,"v":34800}},{"type":"Feature","geometry":{"type":"Point","coordinates":[-80.2162,40.4248]},"properties":{"p":"0588N00026000000","a":"STONEBRIDGE DR","m":"North Fayette","u":"L","o":"corp","sf":138608,"v":76300}},{"type":"Feature","geometry":{"type":"Point","coordinates":[-80.20072,40.42376]},"properties":{"p":"0588S00007000000","a":"OAKDALE RD","m":"North Fayette","u":"L","o":"individual","sf":25268,"v":16200}},{"type":"Feature","geometry":{"type":"Point","coordinates":[-80.20772,40.41347]},"properties":{"p":"0586B00002000000","a":"WHITTENGALE RD","m":"North Fayette","u":"L","o":"individual","sf":233046,"v":41000}},{"type":"Feature","geometry":{"type":"Point","coordinates":[-80.21444,40.41769]},"properties":{"p":"0587E00010000000","a":"NORTH BRANCH RD","m":"North Fayette","u":"L","o":"individual","sf":215274,"v":44700}},{"type":"Feature","geometry":{"type":"Point","coordinates":[-80.20924,40.4186]},"properties":{"p":"0587F00002000000","a":"ROUTE 978","m":"North Fayette","u":"L","o":"individual","sf":12014,"v":1100}},{"type":"Feature","geometry":{"type":"Point","coordinates":[-80.21583,40.42532]},"properties":{"p":"0588N00017000000","a":"KRESSVIEW CT","m":"North Fayette","u":"L","o":"corp","sf":5724,"v":800}},{"type":"Feature","geometry":{"type":"Point","coordinates":[-80.21647,40.42597]},"properties":{"p":"9929X88560000000","a":"STONEBRIDGE DR","m":"North Fayette","u":"L","o":"corp","sf":3920,"v":600}},{"type":"Feature","geometry":{"type":"Point","coordinates":[-80.21884,40.418]},"properties":{"p":"0688M00090000000","a":"OLD MILL RD","m":"North Fayette","u":"L","o":"corp","sf":34439,"v":15000}},{"type":"Feature","geometry":{"type":"Point","coordinates":[-80.21949,40.4287]},"properties":{"p":"0689M00010000000","a":"BATEMAN RD","m":"North Fayette","u":"L","o":"corp","sf":558657,"v":53500}},{"type":"Feature","geometry":{"type":"Point","coordinates":[-80.21686,40.4143]},"properties":{"p":"0688S00010000000","a":"150 WHITTENGALE RD","m":"North Fayette","u":"L","o":"individual","sf":43569,"v":32900}},{"type":"Feature","geometry":{"type":"Point","coordinates":[-80.21723,40.42581]},"properties":{"p":"0689S00015000000","a":"STONEBRIDGE DR","m":"North Fayette","u":"L","o":"corp","sf":4768,"v":700}},{"type":"Feature","geometry":{"type":"Point","coordinates":[-80.21327,40.42557]},"properties":{"p":"0588N00004000000","a":"BATEMAN RD","m":"North Fayette","u":"L","o":"individual","sf":4900,"v":400}},{"type":"Feature","geometry":{"type":"Point","coordinates":[-80.215,40.42418]},"properties":{"p":"0588N00028000000","a":"COBBLESTONE CT","m":"North Fayette","u":"L","o":"individual","sf":54537,"v":12500}},{"type":"Feature","geometry":{"type":"Point","coordinates":[-80.21696,40.41904]},"properties":{"p":"0688M00080000000","a":"OLD MILL RD","m":"North Fayette","u":"L","o":"corp","sf":253943,"v":81900}},{"type":"Feature","geometry":{"type":"Point","coordinates":[-80.20069,40.42308]},"properties":{"p":"0587D00009000000","a":"OAKDALE RD","m":"North Fayette","u":"L","o":"individual","sf":25935,"v":16300}},{"type":"Feature","geometry":{"type":"Point","coordinates":[-80.21966,40.42731]},"properties":{"p":"0689M00018000000","a":"BROWNWOOD DR","m":"North Fayette","u":"L","o":"corp","sf":197327,"v":13600}},{"type":"Feature","geometry":{"type":"Point","coordinates":[-80.21833,40.41571]},"properties":{"p":"0688S00008000000","a":"WHITTENGALE RD","m":"North Fayette","u":"L","o":"individual","sf":21780,"v":15900}},{"type":"Feature","geometry":{"type":"Point","coordinates":[-80.20746,40.41731]},"properties":{"p":"0587L00001000000","a":"ROUTE 978","m":"North Fayette","u":"L","o":"individual","sf":429502,"v":53800}},{"type":"Feature","geometry":{"type":"Point","coordinates":[-80.21134,40.41302]},"properties":{"p":"0586B00008000000","a":"WHITTENGALE RD","m":"North Fayette","u":"L","o":"individual","sf":8598,"v":800}},{"type":"Feature","geometry":{"type":"Point","coordinates":[-80.21674,40.41725]},"properties":{"p":"0688M00020000000","a":"NORTH BRANCH RD","m":"North Fayette","u":"L","o":"individual","sf":103150,"v":38400}},{"type":"Feature","geometry":{"type":"Point","coordinates":[-80.21551,40.42106]},"properties":{"p":"0587E00006000000","a":"STONEBRIDGE DR","m":"North Fayette","u":"B","o":"corp","sf":20000,"v":9000}},{"type":"Feature","geometry":{"type":"Point","coordinates":[-80.21581,40.42117]},"properties":{"p":"0587A00027000000","a":"STONEBRIDGE DR","m":"North Fayette","u":"B","o":"corp","sf":20000,"v":9000}},{"type":"Feature","geometry":{"type":"Point","coordinates":[-80.21316,40.42267]},"properties":{"p":"0588N00027000000","a":"STONEBRIDGE DR","m":"North Fayette","u":"B","o":"corp","sf":453155,"v":39600}},{"type":"Feature","geometry":{"type":"Point","coordinates":[-80.20038,40.42526]},"properties":{"p":"0588S00004000000","a":"1285 OAKDALE RD","m":"North Fayette","u":"B","o":"individual","sf":90086,"v":11700}},{"type":"Feature","geometry":{"type":"Point","coordinates":[-80.2006,40.42479]},"properties":{"p":"0588S00006000000","a":"1287 OAKDALE RD","m":"North Fayette","u":"B","o":"individual","sf":43708,"v":7400}},{"type":"Feature","geometry":{"type":"Point","coordinates":[-80.2006,40.4242]},"properties":{"p":"0588S00010000000","a":"1291 OAKDALE RD","m":"North Fayette","u":"B","o":"individual","sf":21823,"v":5400}},{"type":"Feature","geometry":{"type":"Point","coordinates":[-80.21454,40.42365]},"properties":{"p":"0587A00017000000","a":"COBBLESTONE CT","m":"North Fayette","u":"B","o":"corp","sf":50530,"v":13200}},{"type":"Feature","geometry":{"type":"Point","coordinates":[-80.21439,40.42119]},"properties":{"p":"0587A00001000000","a":"STONEBRIDGE DR","m":"North Fayette","u":"B","o":"corp","sf":352400,"v":54800}},{"type":"Feature","geometry":{"type":"Point","coordinates":[-80.21971,40.42661]},"properties":{"p":"0689M00020000000","a":"BROWNWOOD DR","m":"North Fayette","u":"B","o":"corp","sf":21826,"v":9300}},{"type":"Feature","geometry":{"type":"Point","coordinates":[-80.21936,40.42634]},"properties":{"p":"0689M00022000000","a":"BROWNWOOD DR","m":"North Fayette","u":"B","o":"corp","sf":25038,"v":9700}},{"type":"Feature","geometry":{"type":"Point","coordinates":[-80.21767,40.42665]},"properties":{"p":"0689M00005000000","a":"KRESS VIEW DR","m":"North Fayette","u":"B","o":"corp","sf":32800,"v":10800}},{"type":"Feature","geometry":{"type":"Point","coordinates":[-80.21924,40.42542]},"properties":{"p":"0689S00055000000","a":"BROWNWOOD DR","m":"North Fayette","u":"B","o":"corp","sf":33933,"v":11000}},{"type":"Feature","geometry":{"type":"Point","coordinates":[-80.21942,40.42587]},"properties":{"p":"0689S00057000000","a":"BROWNWOOD DR","m":"North Fayette","u":"B","o":"corp","sf":13671,"v":7500}},{"type":"Feature","geometry":{"type":"Point","coordinates":[-80.21958,40.4251]},"properties":{"p":"0689S00053000000","a":"BROWNWOOD DR","m":"North Fayette","u":"B","o":"corp","sf":25538,"v":9800}}]}