{"type":"FeatureCollection","features":[{"type":"Feature","geometry":{"type":"Point","coordinates":[-80.21224,40.43957]},"properties":{"p":"0589F00020000000","a":"7802 STEUBENVILLE PIKE","m":"North Fayette","u":"C","o":"corp","sf":4589,"v":15000}},{"type":"Feature","geometry":{"type":"Point","coordinates":[-80.2115,40.43974]},"properties":{"p":"0589F00006000000","a":"MAHONEY RD","m":"North Fayette","u":"C","o":"corp","sf":23377,"v":14500}},{"type":"Feature","geometry":{"type":"Point","coordinates":[-80.21237,40.44049]},"properties":{"p":"0589F00015000000","a":"MAHONEY RD","m":"North Fayette","u":"C","o":"corp","sf":61202,"v":9200}},{"type":"Feature","geometry":{"type":"Point","coordinates":[-80.2117,40.43643]},"properties":{"p":"0589K00007000000","a":"FLORIDA DR","m":"North Fayette","u":"C","o":"individual","sf":9914,"v":27300}},{"type":"Feature","geometry":{"type":"Point","coordinates":[-80.21516,40.43865]},"properties":{"p":"0589E00007000000","a":"STEUBENVILLE PIKE","m":"North Fayette","u":"C","o":"corp","sf":55713,"v":60000}},{"type":"Feature","geometry":{"type":"Point","coordinates":[-80.21441,40.43908]},"properties":{"p":"0589E00017000000","a":"STEUBENVILLE PIKE","m":"North Fayette","u":"C","o":"corp","sf":160,"v":200}},{"type":"Feature","geometry":{"type":"Point","coordinates":[-80.20412,40.44372]},"properties":{"p":"0590S00058000000","a":"FARMCREST DR","m":"North Fayette","u":"L","o":"individual","sf":2400,"v":900}},{"type":"Feature","geometry":{"type":"Point","coordinates":[-80.21218,40.4374]},"properties":{"p":"0589K00020000000","a":"DIXIE DR","m":"North Fayette","u":"L","o":"individual","sf":13704,"v":1200}},{"type":"Feature","geometry":{"type":"Point","coordinates":[-80.21226,40.43616]},"properties":{"p":"0589K00025000000","a":"306 VIRGINIA DR","m":"North Fayette","u":"L","o":"individual","sf":7800,"v":19000}},{"type":"Feature","geometry":{"type":"Point","coordinates":[-80.20597,40.43619]},"properties":{"p":"0589L00100000000","a":"STEUBENVILLE PIKE","m":"North Fayette","u":"L","o":"individual","sf":124468,"v":11400}},{"type":"Feature","geometry":{"type":"Point","coordinates":[-80.20456,40.44222]},"properties":{"p":"0589D00056000000","a":"STEUBENVILLE PIKE","m":"North Fayette","u":"L","o":"corp","sf":12000,"v":35600}},{"type":"Feature","geometry":{"type":"Point","coordinates":[-80.20903,40.43512]},"properties":{"p":"0589P00011000000","a":"FLORIDA DR","m":"North Fayette","u":"L","o":"corp","sf":11307,"v":1000}},{"type":"Feature","geometry":{"type":"Point","coordinates":[-80.2059,40.44219]},"properties":{"p":"0589C00026000000","a":"STEUBENVILLE PIKE","m":"North Fayette","u":"L","o":"individual","sf":13455,"v":4800}},{"type":"Feature","geometry":{"type":"Point","coordinates":[-80.20569,40.44223]},"properties":{"p":"0589C00027000000","a":"STEUBENVILLE PIKE","m":"North Fayette","u":"L","o":"individual","sf":12998,"v":4700}},{"type":"Feature","geometry":{"type":"Point","coordinates":[-80.20665,40.44577]},"properties":{"p":"0590L00040000000","a":"ESTATE DR","m":"North Fayette","u":"L","o":"corp","sf":13547,"v":4800}},{"type":"Feature","geometry":{"type":"Point","coordinates":[-80.20985,40.43925]},"properties":{"p":"0589F00002000000","a":"STEUBENVILLE PIKE","m":"North Fayette","u":"L","o":"corp","sf":185130,"v":41900}},{"type":"Feature","geometry":{"type":"Point","coordinates":[-80.20498,40.4326]},"properties":{"p":"0588C00003000000","a":"1155 OAKDALE RD","m":"North Fayette","u":"L","o":"individual","sf":334802,"v":59100}},{"type":"Feature","geometry":{"type":"Point","coordinates":[-80.21684,40.43076]},"properties":{"p":"0588E00002000000","a":"LUTZ RD","m":"North Fayette","u":"L","o":"individual","sf":20459,"v":1800}},{"type":"Feature","geometry":{"type":"Point","coordinates":[-80.21188,40.43656]},"properties":{"p":"0589K00011000000","a":"FLORIDA DR","m":"North Fayette","u":"L","o":"individual","sf":2947,"v":300}},{"type":"Feature","geometry":{"type":"Point","coordinates":[-80.21632,40.44376]},"properties":{"p":"0590N00007000000","a":"TIMBERGLEN DR","m":"North Fayette","u":"L","o":"corp","sf":7318,"v":0}},{"type":"Feature","geometry":{"type":"Point","coordinates":[-80.21398,40.4348]},"properties":{"p":"0589N00017000000","a":"221 LUTZ RD","m":"North Fayette","u":"L","o":"individual","sf":37026,"v":32300}},{"type":"Feature","geometry":{"type":"Point","coordinates":[-80.21518,40.43469]},"properties":{"p":"0589N00020000000","a":"LUTZ RD","m":"North Fayette","u":"L","o":"individual","sf":30431,"v":31700}},{"type":"Feature","geometry":{"type":"Point","coordinates":[-80.20649,40.43822]},"properties":{"p":"0589G00060000000","a":"CHESTERSHIRE DR","m":"North Fayette","u":"L","o":"corp","sf":85234,"v":42400}},{"type":"Feature","geometry":{"type":"Point","coordinates":[-80.20564,40.44578]},"properties":{"p":"0590L00026000000","a":"ESTATE DR","m":"North Fayette","u":"L","o":"corp","sf":9191,"v":3300}},{"type":"Feature","geometry":{"type":"Point","coordinates":[-80.20802,40.43454]},"properties":{"p":"0589R00005000000","a":"1114 OAKDALE RD","m":"North Fayette","u":"L","o":"individual","sf":12118,"v":15000}},{"type":"Feature","geometry":{"type":"Point","coordinates":[-80.21332,40.4381]},"properties":{"p":"0589J00014000000","a":"DIXIE DR","m":"North Fayette","u":"L","o":"individual","sf":10012,"v":23900}},{"type":"Feature","geometry":{"type":"Point","coordinates":[-80.21341,40.43772]},"properties":{"p":"0589J00016000000","a":"DIXIE DR","m":"North Fayette","u":"L","o":"individual","sf":7597,"v":21300}},{"type":"Feature","geometry":{"type":"Point","coordinates":[-80.21336,40.43736]},"properties":{"p":"0589J00017000000","a":"DIXIE DR","m":"North Fayette","u":"L","o":"individual","sf":21795,"v":2000}},{"type":"Feature","geometry":{"type":"Point","coordinates":[-80.21581,40.43633]},"properties":{"p":"0589J00022000000","a":"LUTZ RD","m":"North Fayette","u":"L","o":"individual","sf":146858,"v":10100}},{"type":"Feature","geometry":{"type":"Point","coordinates":[-80.21681,40.43671]},"properties":{"p":"0589J00023000000","a":"STEUBENVILLE PIKE","m":"North Fayette","u":"L","o":"individual","sf":231304,"v":4400}},{"type":"Feature","geometry":{"type":"Point","coordinates":[-80.21344,40.43752]},"properties":{"p":"0589J00030000000","a":"DIXIE DR","m":"North Fayette","u":"L","o":"individual","sf":8288,"v":800}},{"type":"Feature","geometry":{"type":"Point","coordinates":[-80.202,40.44245]},"properties":{"p":"0589D00035000000","a":"STEUBENVILLE PIKE","m":"North Fayette","u":"L","o":"individual","sf":9602,"v":3000}},{"type":"Feature","geometry":{"type":"Point","coordinates":[-80.20226,40.44765]},"properties":{"p":"0590M00051000000","a":"PALOMINO DR","m":"North Fayette","u":"L","o":"corp","sf":11979,"v":1100}},{"type":"Feature","geometry":{"type":"Point","coordinates":[-80.20548,40.44227]},"properties":{"p":"0589C00028000000","a":"STEUBENVILLE PIKE","m":"North Fayette","u":"L","o":"individual","sf":12998,"v":4700}},{"type":"Feature","geometry":{"type":"Point","coordinates":[-80.20527,40.44231]},"properties":{"p":"0589C00029000000","a":"STEUBENVILLE PIKE","m":"North Fayette","u":"L","o":"individual","sf":12998,"v":4700}},{"type":"Feature","geometry":{"type":"Point","coordinates":[-80.20507,40.44236]},"properties":{"p":"0589C00030000000","a":"STEUBENVILLE PIKE","m":"North Fayette","u":"L","o":"corp","sf":12606,"v":4500}},{"type":"Feature","geometry":{"type":"Point","coordinates":[-80.20401,40.43623]},"properties":{"p":"0589R00002000000","a":"OAKDALE RD","m":"North Fayette","u":"L","o":"individual","sf":871244,"v":78900}},{"type":"Feature","geometry":{"type":"Point","coordinates":[-80.21266,40.43844]},"properties":{"p":"0589E00001000000","a":"OLD STEUBENVILLE PIKE","m":"North Fayette","u":"L","o":"corp","sf":35756,"v":28200}},{"type":"Feature","geometry":{"type":"Point","coordinates":[-80.21261,40.43891]},"properties":{"p":"0589E00002000000","a":"STEUBENVILLE PIKE","m":"North Fayette","u":"L","o":"corp","sf":102366,"v":34300}},{"type":"Feature","geometry":{"type":"Point","coordinates":[-80.21281,40.43651]},"properties":{"p":"0589J00004000000","a":"STEUBENVILLE PIKE","m":"North Fayette","u":"L","o":"individual","sf":3827,"v":300}},{"type":"Feature","geometry":{"type":"Point","coordinates":[-80.21157,40.44514]},"properties":{"p":"0590P00039000000","a":"HAWTHORNE DR","m":"North Fayette","u":"L","o":"corp","sf":19863,"v":0}},{"type":"Feature","geometry":{"type":"Point","coordinates":[-80.21084,40.44476]},"properties":{"p":"0590P00103000000","a":"ELM CT","m":"North Fayette","u":"L","o":"corp","sf":1306,"v":0}},{"type":"Feature","geometry":{"type":"Point","coordinates":[-80.21375,40.43676]},"properties":{"p":"0589J00010000000","a":"CAROLINA DR","m":"North Fayette","u":"L","o":"individual","sf":5250,"v":500}},{"type":"Feature","geometry":{"type":"Point","coordinates":[-80.21412,40.43765]},"properties":{"p":"9929X50038000000","a":"125 FAYETTEVILLE RD","m":"North Fayette","u":"L","o":"individual","sf":10890,"v":1500}},{"type":"Feature","geometry":{"type":"Point","coordinates":[-80.21813,40.44328]},"properties":{"p":"9929X85746000000","a":"TIMBERGLEN DR","m":"North Fayette","u":"L","o":"corp","sf":12197,"v":0}},{"type":"Feature","geometry":{"type":"Point","coordinates":[-80.21711,40.44222]},"properties":{"p":"9929X84347000001","a":"TIMBERGLEN DR","m":"North Fayette","u":"L","o":"corp","sf":2496,"v":0}},{"type":"Feature","geometry":{"type":"Point","coordinates":[-80.21717,40.44225]},"properties":{"p":"9929X84402000000","a":"TIMBERGLEN DR","m":"North Fayette","u":"L","o":"corp","sf":1565,"v":0}},{"type":"Feature","geometry":{"type":"Point","coordinates":[-80.21806,40.44227]},"properties":{"p":"9929X84827000000","a":"TIMBERGLEN DR","m":"North Fayette","u":"L","o":"corp","sf":12667,"v":0}},{"type":"Feature","geometry":{"type":"Point","coordinates":[-80.21939,40.44161]},"properties":{"p":"0690D00149000000","a":"CHELSEA DR","m":"North Fayette","u":"L","o":"corp","sf":25482,"v":0}},{"type":"Feature","geometry":{"type":"Point","coordinates":[-80.21893,40.44267]},"properties":{"p":"0690D00151000000","a":"TIMBERGLEN DR","m":"North Fayette","u":"L","o":"corp","sf":21258,"v":0}},{"type":"Feature","geometry":{"type":"Point","coordinates":[-80.21783,40.44305]},"properties":{"p":"0690D00123000000","a":"TIMBERGLEN DR","m":"North Fayette","u":"L","o":"corp","sf":11742,"v":0}},{"type":"Feature","geometry":{"type":"Point","coordinates":[-80.21845,40.4428]},"properties":{"p":"0690D00124000000","a":"TIMBERGLEN DR","m":"North Fayette","u":"L","o":"corp","sf":22034,"v":0}},{"type":"Feature","geometry":{"type":"Point","coordinates":[-80.21893,40.44353]},"properties":{"p":"0691S00014000000","a":"TIMBERGLEN DR","m":"North Fayette","u":"L","o":"corp","sf":10699,"v":0}},{"type":"Feature","geometry":{"type":"Point","coordinates":[-80.2177,40.44373]},"properties":{"p":"0691S00020000000","a":"TIMBERGLEN DR","m":"North Fayette","u":"L","o":"corp","sf":26100,"v":0}},{"type":"Feature","geometry":{"type":"Point","coordinates":[-80.21765,40.44257]},"properties":{"p":"0690D00155000000","a":"TIMBERGLEN DR","m":"North Fayette","u":"L","o":"corp","sf":7665,"v":0}},{"type":"Feature","geometry":{"type":"Point","coordinates":[-80.21753,40.44656]},"properties":{"p":"0691M00040000000","a":"TIMBERGLEN DR","m":"North Fayette","u":"L","o":"corp","sf":12980,"v":4600}},{"type":"Feature","geometry":{"type":"Point","coordinates":[-80.21938,40.44127]},"properties":{"p":"0690D00062000000","a":"CHELSEA DR","m":"North Fayette","u":"L","o":"corp","sf":7623,"v":0}},{"type":"Feature","geometry":{"type":"Point","coordinates":[-80.21684,40.43962]},"properties":{"p":"0690H00001000000","a":"STEUBENVILLE PIKE","m":"North Fayette","u":"L","o":"corp","sf":12284,"v":30625}},{"type":"Feature","geometry":{"type":"Point","coordinates":[-80.21197,40.44112]},"properties":{"p":"9929X88561000000","a":"MAHONEY RD","m":"North Fayette","u":"L","o":"corp","sf":21257,"v":36500}},{"type":"Feature","geometry":{"type":"Point","coordinates":[-80.21152,40.439]},"properties":{"p":"0589F00005000000","a":"STEUBENVILLE PIKE","m":"North Fayette","u":"L","o":"corp","sf":11093,"v":25100}},{"type":"Feature","geometry":{"type":"Point","coordinates":[-80.20612,40.44216]},"properties":{"p":"0589C00025000000","a":"STEUBENVILLE PIKE","m":"North Fayette","u":"L","o":"individual","sf":18325,"v":6500}},{"type":"Feature","geometry":{"type":"Point","coordinates":[-80.20432,40.44093]},"properties":{"p":"0589D00075000000","a":"STEUBENVILLE PIKE","m":"North Fayette","u":"L","o":"individual","sf":9214,"v":3300}},{"type":"Feature","geometry":{"type":"Point","coordinates":[-80.21765,40.44213]},"properties":{"p":"9929X84354000000","a":"TIMBERGLEN DR","m":"North Fayette","u":"L","o":"corp","sf":908,"v":0}},{"type":"Feature","geometry":{"type":"Point","coordinates":[-80.2014,40.44966]},"properties":{"p":"0590D00001000000","a":"LINCOLN HIGHLANDS RD","m":"North Fayette","u":"L","o":"individual","sf":169013,"v":40400}},{"type":"Feature","geometry":{"type":"Point","coordinates":[-80.21679,40.44306]},"properties":{"p":"0690D00160000000","a":"TIMBERGLEN DR","m":"North Fayette","u":"L","o":"corp","sf":11718,"v":0}},{"type":"Feature","geometry":{"type":"Point","coordinates":[-80.21995,40.44134]},"properties":{"p":"0690D00063000000","a":"CHELSEA DR","m":"North Fayette","u":"B","o":"corp","sf":780,"v":3000}},{"type":"Feature","geometry":{"type":"Point","coordinates":[-80.21997,40.44135]},"properties":{"p":"0690D00064000000","a":"CHELSEA DR","m":"North Fayette","u":"B","o":"corp","sf":634,"v":0}}]}