{"type":"FeatureCollection","features":[{"type":"Feature","geometry":{"type":"Point","coordinates":[-80.20968,40.50305]},"properties":{"p":"0596P00135000000","a":"COMMERCE DR","m":"Moon","u":"C","o":"corp","sf":39848,"v":185000}},{"type":"Feature","geometry":{"type":"Point","coordinates":[-80.21094,40.50352]},"properties":{"p":"0596P00137000000","a":"COMMERCE DR","m":"Moon","u":"C","o":"corp","sf":50277,"v":150000}},{"type":"Feature","geometry":{"type":"Point","coordinates":[-80.20642,40.50543]},"properties":{"p":"0596L00065000000","a":"1003 BEAVER GRADE RD","m":"Moon","u":"C","o":"corp","sf":58370,"v":328300}},{"type":"Feature","geometry":{"type":"Point","coordinates":[-80.21392,40.49803]},"properties":{"p":"0696D003960B3A00","a":"LINDBERG DR","m":"Moon","u":"C","o":"corp","sf":45738,"v":96500}},{"type":"Feature","geometry":{"type":"Point","coordinates":[-80.20344,40.50357]},"properties":{"p":"0596S00309000000","a":"CORAOPOLIS HEIGHTS RD","m":"Moon","u":"C","o":"corp","sf":83984,"v":218600}},{"type":"Feature","geometry":{"type":"Point","coordinates":[-80.21585,40.50307]},"properties":{"p":"0596N00239000000","a":"RUSSELL RD","m":"Moon","u":"C","o":"corp","sf":87935,"v":50500}},{"type":"Feature","geometry":{"type":"Point","coordinates":[-80.21525,40.50229]},"properties":{"p":"0596N00305000000","a":"RUSSELL RD","m":"Moon","u":"C","o":"corp","sf":35196,"v":70000}},{"type":"Feature","geometry":{"type":"Point","coordinates":[-80.21289,40.50413]},"properties":{"p":"0596P00118000000","a":"THORN RUN RD","m":"Moon","u":"C","o":"corp","sf":39848,"v":107700}},{"type":"Feature","geometry":{"type":"Point","coordinates":[-80.21515,40.50306]},"properties":{"p":"0596N00210000000","a":"RUSSELL RD","m":"Moon","u":"C","o":"corp","sf":49367,"v":70900}},{"type":"Feature","geometry":{"type":"Point","coordinates":[-80.20712,40.49863]},"properties":{"p":"0595G00010000000","a":"CLIFF MINE RD","m":"Moon","u":"C","o":"corp","sf":16769,"v":4000}},{"type":"Feature","geometry":{"type":"Point","coordinates":[-80.20896,40.50798]},"properties":{"p":"0596F00217000000","a":"BEAVER GRADE RD","m":"Moon","u":"C","o":"corp","sf":321486,"v":219100}},{"type":"Feature","geometry":{"type":"Point","coordinates":[-80.20512,40.49445]},"properties":{"p":"0595L00108000000","a":"CHERRINGTON PKWY","m":"Moon","u":"C","o":"corp","sf":10890,"v":5000}},{"type":"Feature","geometry":{"type":"Point","coordinates":[-80.20253,40.49081]},"properties":{"p":"0502N00120000000","a":"BEAVER GRADE RD","m":"Moon","u":"C","o":"corp","sf":1402153,"v":290000}},{"type":"Feature","geometry":{"type":"Point","coordinates":[-80.2046,40.49736]},"properties":{"p":"0595M00075000000","a":"300 CORPORATE CENTER DR","m":"Moon","u":"C","o":"corp","sf":156041,"v":150000}},{"type":"Feature","geometry":{"type":"Point","coordinates":[-80.21966,40.50363]},"properties":{"p":"0697S00255000000","a":"PORTVUE DR","m":"Moon","u":"C","o":"corp","sf":24855,"v":36000}},{"type":"Feature","geometry":{"type":"Point","coordinates":[-80.2049,40.49218]},"properties":{"p":"0595R00070000000","a":"CHERRINGTON PKWY","m":"Moon","u":"C","o":"corp","sf":128502,"v":3000}},{"type":"Feature","geometry":{"type":"Point","coordinates":[-80.20579,40.49622]},"properties":{"p":"0595G00008000000","a":"CHERRINGTON PKWY","m":"Moon","u":"C","o":"corp","sf":171095,"v":35000}},{"type":"Feature","geometry":{"type":"Point","coordinates":[-80.20433,40.49954]},"properties":{"p":"0595C00015000000","a":"CLIFF MINE RD","m":"Moon","u":"C","o":"corp","sf":171918,"v":170000}},{"type":"Feature","geometry":{"type":"Point","coordinates":[-80.20866,40.50355]},"properties":{"p":"0596P00098000000","a":"THORN RUN RD","m":"Moon","u":"L","o":"corp","sf":113256,"v":55500}},{"type":"Feature","geometry":{"type":"Point","coordinates":[-80.20415,40.50966]},"properties":{"p":"0596C00014000000","a":"SANDHURST DR","m":"Moon","u":"L","o":"individual","sf":4100,"v":400}},{"type":"Feature","geometry":{"type":"Point","coordinates":[-80.20229,40.50886]},"properties":{"p":"0596H00143000000","a":"THORN RUN RD","m":"Moon","u":"L","o":"individual","sf":10410,"v":63100}},{"type":"Feature","geometry":{"type":"Point","coordinates":[-80.20704,40.50662]},"properties":{"p":"0596L00367000000","a":"THORN RUN RD","m":"Moon","u":"L","o":"individual","sf":93654,"v":48000}},{"type":"Feature","geometry":{"type":"Point","coordinates":[-80.2164,40.50389]},"properties":{"p":"0596J00004000000","a":"SOUTH PATTON DR","m":"Moon","u":"L","o":"individual","sf":22694,"v":18500}},{"type":"Feature","geometry":{"type":"Point","coordinates":[-80.20418,40.5064]},"properties":{"p":"0596L00347000000","a":"HYEHOLDE DR","m":"Moon","u":"L","o":"individual","sf":7000,"v":700}},{"type":"Feature","geometry":{"type":"Point","coordinates":[-80.20288,40.50712]},"properties":{"p":"0596H00316000000","a":"MCCARTNEY DR","m":"Moon","u":"L","o":"individual","sf":600,"v":100}},{"type":"Feature","geometry":{"type":"Point","coordinates":[-80.21742,40.50933]},"properties":{"p":"0697D00023000000","a":"MCKINNEY DR","m":"Moon","u":"L","o":"corp","sf":50878,"v":38600}},{"type":"Feature","geometry":{"type":"Point","coordinates":[-80.21801,40.50875]},"properties":{"p":"0697H00291000000","a":"217 SPRINGER DR","m":"Moon","u":"L","o":"individual","sf":220,"v":12200}},{"type":"Feature","geometry":{"type":"Point","coordinates":[-80.21882,40.50347]},"properties":{"p":"0697S00279000000","a":"123 PORTVUE DR","m":"Moon","u":"L","o":"individual","sf":24855,"v":18700}},{"type":"Feature","geometry":{"type":"Point","coordinates":[-80.21708,40.50315]},"properties":{"p":"0697S00307000000","a":"133 PORTVUE DR","m":"Moon","u":"L","o":"individual","sf":174240,"v":49900}},{"type":"Feature","geometry":{"type":"Point","coordinates":[-80.21239,40.50438]},"properties":{"p":"0596K00013000000","a":"COMMERCE DR","m":"Moon","u":"L","o":"corp","sf":41156,"v":21000}},{"type":"Feature","geometry":{"type":"Point","coordinates":[-80.20301,40.50463]},"properties":{"p":"0596M00272000000","a":"HYEHOLDE DR","m":"Moon","u":"L","o":"corp","sf":37687,"v":47600}}]}