{"type":"FeatureCollection","features":[{"type":"Feature","geometry":{"type":"Point","coordinates":[-80.20009,40.55189]},"properties":{"p":"0602N00279000000","a":"OHIO RIVER BLVD","m":"Edgeworth","u":"I","o":"corp","sf":169448,"v":15300}},{"type":"Feature","geometry":{"type":"Point","coordinates":[-80.20996,40.56322]},"properties":{"p":"0704K00200000000","a":"2ND ST","m":"Leetsdale","u":"C","o":"corp","sf":24000,"v":20093}},{"type":"Feature","geometry":{"type":"Point","coordinates":[-80.20407,40.55788]},"properties":{"p":"0601C00065000000","a":"10 -11 QUAKER VILLAGE SHOPPING CTR","m":"Leetsdale","u":"C","o":"individual","sf":42006,"v":180000}},{"type":"Feature","geometry":{"type":"Point","coordinates":[-80.21021,40.564]},"properties":{"p":"0704K00300000000","a":"10 1ST ST","m":"Leetsdale","u":"C","o":"corp","sf":11590,"v":8000}},{"type":"Feature","geometry":{"type":"Point","coordinates":[-80.2138,40.56936]},"properties":{"p":"0704A00051000000","a":"BEAVER ST","m":"Leetsdale","u":"C","o":"corp","sf":1807,"v":700}},{"type":"Feature","geometry":{"type":"Point","coordinates":[-80.21175,40.56274]},"properties":{"p":"0704K00081000000","a":"3RD ST","m":"Leetsdale","u":"C","o":"corp","sf":3600,"v":5000}},{"type":"Feature","geometry":{"type":"Point","coordinates":[-80.21072,40.56319]},"properties":{"p":"0704K00106000000","a":"2ND ST","m":"Leetsdale","u":"C","o":"corp","sf":12000,"v":10047}},{"type":"Feature","geometry":{"type":"Point","coordinates":[-80.21032,40.56282]},"properties":{"p":"0704K00112000000","a":"2ND ST","m":"Leetsdale","u":"C","o":"corp","sf":45564,"v":38008}},{"type":"Feature","geometry":{"type":"Point","coordinates":[-80.21974,40.55401]},"properties":{"p":"0702M00090000000","a":"62 MCGOVERN BLVD","m":"Crescent","u":"C","o":"corp","sf":23332,"v":75000}},{"type":"Feature","geometry":{"type":"Point","coordinates":[-80.21952,40.55549]},"properties":{"p":"0702H00064000000","a":"RIVERVIEW RD","m":"Crescent","u":"C","o":"corp","sf":8938,"v":2100}},{"type":"Feature","geometry":{"type":"Point","coordinates":[-80.20016,40.55929]},"properties":{"p":"0601D00160000000","a":"LITTLE SEWICKLEY CREEK RD","m":"Edgeworth","u":"L","o":"individual","sf":89951,"v":464200}},{"type":"Feature","geometry":{"type":"Point","coordinates":[-80.21111,40.56814]},"properties":{"p":"0704B00133000000","a":"BEAVER ST","m":"Leetsdale","u":"L","o":"individual","sf":10098,"v":23500}},{"type":"Feature","geometry":{"type":"Point","coordinates":[-80.21049,40.56769]},"properties":{"p":"0704B00161000000","a":"BEAVER ST","m":"Leetsdale","u":"L","o":"individual","sf":7902,"v":23300}},{"type":"Feature","geometry":{"type":"Point","coordinates":[-80.21042,40.56765]},"properties":{"p":"0704B00165000000","a":"BEAVER ST","m":"Leetsdale","u":"L","o":"individual","sf":6454,"v":23100}},{"type":"Feature","geometry":{"type":"Point","coordinates":[-80.2102,40.56751]},"properties":{"p":"0704B00176000000","a":"BEAVER ST","m":"Leetsdale","u":"L","o":"individual","sf":14100,"v":4600}},{"type":"Feature","geometry":{"type":"Point","coordinates":[-80.2088,40.56435]},"properties":{"p":"0704K00030000000","a":"OHIO RIVER BLVD","m":"Leetsdale","u":"L","o":"individual","sf":5612,"v":23100}},{"type":"Feature","geometry":{"type":"Point","coordinates":[-80.20107,40.56374]},"properties":{"p":"0704M00111000000","a":"OAK DR","m":"Leetsdale","u":"L","o":"individual","sf":9127,"v":50500}},{"type":"Feature","geometry":{"type":"Point","coordinates":[-80.20139,40.56388]},"properties":{"p":"0704M00119000000","a":"OAK DR","m":"Leetsdale","u":"L","o":"corp","sf":18885,"v":9500}},{"type":"Feature","geometry":{"type":"Point","coordinates":[-80.20217,40.56423]},"properties":{"p":"0704M00125000000","a":"OAK DR","m":"Leetsdale","u":"L","o":"individual","sf":11198,"v":3100}},{"type":"Feature","geometry":{"type":"Point","coordinates":[-80.2129,40.56853]},"properties":{"p":"0704A00071000000","a":"BEAVER ST","m":"Leetsdale","u":"L","o":"individual","sf":3035,"v":1100}},{"type":"Feature","geometry":{"type":"Point","coordinates":[-80.21259,40.56814]},"properties":{"p":"0704A00081000000","a":"BROAD ST","m":"Leetsdale","u":"L","o":"individual","sf":2397,"v":17000}},{"type":"Feature","geometry":{"type":"Point","coordinates":[-80.20177,40.56226]},"properties":{"p":"0704S00180000000","a":"VALLEY LN","m":"Leetsdale","u":"L","o":"individual","sf":43560,"v":54400}},{"type":"Feature","geometry":{"type":"Point","coordinates":[-80.21079,40.56589]},"properties":{"p":"0704F00111000000","a":"50 OHIO RIVER BLVD","m":"Leetsdale","u":"L","o":"individual","sf":1659,"v":600}},{"type":"Feature","geometry":{"type":"Point","coordinates":[-80.21073,40.56582]},"properties":{"p":"0704F00114000000","a":"50 OHIO RIVER BLVD","m":"Leetsdale","u":"L","o":"individual","sf":1665,"v":600}},{"type":"Feature","geometry":{"type":"Point","coordinates":[-80.21053,40.56573]},"properties":{"p":"0704F00118000000","a":"54 OHIO RIVER BLVD","m":"Leetsdale","u":"L","o":"individual","sf":3082,"v":18600}},{"type":"Feature","geometry":{"type":"Point","coordinates":[-80.21024,40.56548]},"properties":{"p":"0704F00125000000","a":"OHIO RIVER BLVD","m":"Leetsdale","u":"L","o":"individual","sf":2688,"v":1000}},{"type":"Feature","geometry":{"type":"Point","coordinates":[-80.21003,40.5653]},"properties":{"p":"0704F00131000000","a":"66 OHIO RIVER BLVD","m":"Leetsdale","u":"L","o":"individual","sf":5640,"v":23100}},{"type":"Feature","geometry":{"type":"Point","coordinates":[-80.20945,40.56331]},"properties":{"p":"0704K00181000000","a":"1ST ST","m":"Leetsdale","u":"L","o":"individual","sf":3410,"v":1200}},{"type":"Feature","geometry":{"type":"Point","coordinates":[-80.20808,40.56492]},"properties":{"p":"0704F00280000000","a":"BROAD ST","m":"Leetsdale","u":"L","o":"individual","sf":1000,"v":400}},{"type":"Feature","geometry":{"type":"Point","coordinates":[-80.2096,40.56321]},"properties":{"p":"0704K00183000000","a":"1ST ST","m":"Leetsdale","u":"L","o":"individual","sf":250,"v":200}},{"type":"Feature","geometry":{"type":"Point","coordinates":[-80.20952,40.56313]},"properties":{"p":"0704K00185000000","a":"1ST ST","m":"Leetsdale","u":"L","o":"individual","sf":501,"v":300}},{"type":"Feature","geometry":{"type":"Point","coordinates":[-80.20902,40.5631]},"properties":{"p":"0704K00190000000","a":"1ST ST","m":"Leetsdale","u":"L","o":"individual","sf":1494,"v":600}},{"type":"Feature","geometry":{"type":"Point","coordinates":[-80.20926,40.56289]},"properties":{"p":"0704K00191000000","a":"46 1ST ST","m":"Leetsdale","u":"L","o":"individual","sf":550,"v":300}},{"type":"Feature","geometry":{"type":"Point","coordinates":[-80.20916,40.5628]},"properties":{"p":"0704K00197000000","a":"1ST ST","m":"Leetsdale","u":"L","o":"individual","sf":330,"v":200}},{"type":"Feature","geometry":{"type":"Point","coordinates":[-80.2096,40.56717]},"properties":{"p":"0704F00338000000","a":"BEAVER ST","m":"Leetsdale","u":"L","o":"individual","sf":9801,"v":3200}},{"type":"Feature","geometry":{"type":"Point","coordinates":[-80.21044,40.56412]},"properties":{"p":"0704K00286000000","a":"1ST ST","m":"Leetsdale","u":"L","o":"corp","sf":3646,"v":19900}},{"type":"Feature","geometry":{"type":"Point","coordinates":[-80.20875,40.56649]},"properties":{"p":"0704F00371000000","a":"BEAVER ST","m":"Leetsdale","u":"L","o":"corp","sf":10000,"v":12000}},{"type":"Feature","geometry":{"type":"Point","coordinates":[-80.20857,40.56639]},"properties":{"p":"0704F00374000000","a":"BEAVER ST","m":"Leetsdale","u":"L","o":"individual","sf":15000,"v":23900}},{"type":"Feature","geometry":{"type":"Point","coordinates":[-80.21179,40.56862]},"properties":{"p":"0704B00084000000","a":"BEAVER ST","m":"Leetsdale","u":"L","o":"individual","sf":46174,"v":26800}},{"type":"Feature","geometry":{"type":"Point","coordinates":[-80.21017,40.5642]},"properties":{"p":"0704K00289000000","a":"24 1ST ST","m":"Leetsdale","u":"L","o":"individual","sf":1142,"v":500}},{"type":"Feature","geometry":{"type":"Point","coordinates":[-80.20461,40.56225]},"properties":{"p":"0704R00014000000","a":"194 VICTORY LN","m":"Leetsdale","u":"L","o":"individual","sf":2327,"v":11100}},{"type":"Feature","geometry":{"type":"Point","coordinates":[-80.21223,40.5689]},"properties":{"p":"0704A00009000000","a":"BEAVER ST","m":"Leetsdale","u":"L","o":"individual","sf":19246,"v":1200}},{"type":"Feature","geometry":{"type":"Point","coordinates":[-80.21252,40.56914]},"properties":{"p":"0704A00021000000","a":"BEAVER ST","m":"Leetsdale","u":"L","o":"individual","sf":9785,"v":23400}},{"type":"Feature","geometry":{"type":"Point","coordinates":[-80.21263,40.56922]},"properties":{"p":"0704A00027000000","a":"BEAVER ST","m":"Leetsdale","u":"L","o":"individual","sf":14809,"v":23900}},{"type":"Feature","geometry":{"type":"Point","coordinates":[-80.21287,40.5694]},"properties":{"p":"0704A00036000000","a":"BEAVER ST","m":"Leetsdale","u":"L","o":"individual","sf":9768,"v":3200}},{"type":"Feature","geometry":{"type":"Point","coordinates":[-80.21318,40.56964]},"properties":{"p":"0704A00048000000","a":"BEAVER ST","m":"Leetsdale","u":"L","o":"individual","sf":19800,"v":24300}},{"type":"Feature","geometry":{"type":"Point","coordinates":[-80.21158,40.56848]},"properties":{"p":"0704B00101000000","a":"286 BEAVER ST","m":"Leetsdale","u":"L","o":"individual","sf":6523,"v":2200}},{"type":"Feature","geometry":{"type":"Point","coordinates":[-80.20679,40.56527]},"properties":{"p":"0704G00094000000","a":"BEAVER ST","m":"Leetsdale","u":"L","o":"individual","sf":5000,"v":23000}},{"type":"Feature","geometry":{"type":"Point","coordinates":[-80.20658,40.56511]},"properties":{"p":"0704G00102000000","a":"BEAVER ST","m":"Leetsdale","u":"L","o":"individual","sf":10000,"v":23500}},{"type":"Feature","geometry":{"type":"Point","coordinates":[-80.20321,40.56517]},"properties":{"p":"0704H00067000000","a":"BRECK DR","m":"Leetsdale","u":"L","o":"corp","sf":372765,"v":45300}},{"type":"Feature","geometry":{"type":"Point","coordinates":[-80.21121,40.56631]},"properties":{"p":"0704F00102000000","a":"OHIO RIVER BLVD","m":"Leetsdale","u":"L","o":"individual","sf":2102,"v":800}},{"type":"Feature","geometry":{"type":"Point","coordinates":[-80.21012,40.5637]},"properties":{"p":"0704K00164000000","a":"1ST ST","m":"Leetsdale","u":"L","o":"individual","sf":250,"v":200}},{"type":"Feature","geometry":{"type":"Point","coordinates":[-80.21,40.56359]},"properties":{"p":"0704K00167000000","a":"1ST ST","m":"Leetsdale","u":"L","o":"individual","sf":750,"v":300}},{"type":"Feature","geometry":{"type":"Point","coordinates":[-80.2097,40.5636]},"properties":{"p":"0704K00171000000","a":"1ST ST","m":"Leetsdale","u":"L","o":"individual","sf":3122,"v":1100}},{"type":"Feature","geometry":{"type":"Point","coordinates":[-80.20989,40.56348]},"properties":{"p":"0704K00172000000","a":"1ST ST","m":"Leetsdale","u":"L","o":"individual","sf":240,"v":200}},{"type":"Feature","geometry":{"type":"Point","coordinates":[-80.20964,40.56355]},"properties":{"p":"0704K00173000000","a":"1ST ST","m":"Leetsdale","u":"L","o":"individual","sf":3427,"v":1200}},{"type":"Feature","geometry":{"type":"Point","coordinates":[-80.20954,40.56352]},"properties":{"p":"0704K00175000000","a":"1ST ST","m":"Leetsdale","u":"L","o":"individual","sf":3330,"v":1200}},{"type":"Feature","geometry":{"type":"Point","coordinates":[-80.20977,40.56337]},"properties":{"p":"0704K00176000000","a":"1ST ST","m":"Leetsdale","u":"L","o":"individual","sf":250,"v":200}},{"type":"Feature","geometry":{"type":"Point","coordinates":[-80.20969,40.56329]},"properties":{"p":"0704K00180000000","a":"37 1ST ST","m":"Leetsdale","u":"L","o":"individual","sf":500,"v":300}},{"type":"Feature","geometry":{"type":"Point","coordinates":[-80.21034,40.56681]},"properties":{"p":"0704F00324000000","a":"BEAVER ST","m":"Leetsdale","u":"L","o":"individual","sf":32444,"v":25500}},{"type":"Feature","geometry":{"type":"Point","coordinates":[-80.21087,40.56714]},"properties":{"p":"0704F00329000000","a":"BEAVER ST","m":"Leetsdale","u":"L","o":"individual","sf":1974,"v":700}},{"type":"Feature","geometry":{"type":"Point","coordinates":[-80.21009,40.56706]},"properties":{"p":"0704F00333000100","a":"BEAVER ST","m":"Leetsdale","u":"L","o":"corp","sf":3332,"v":1200}},{"type":"Feature","geometry":{"type":"Point","coordinates":[-80.2168,40.56782]},"properties":{"p":"0703D00025000000","a":"MONROE WAY","m":"Leetsdale","u":"L","o":"corp","sf":32234,"v":25500}},{"type":"Feature","geometry":{"type":"Point","coordinates":[-80.21158,40.56693]},"properties":{"p":"0704F00208000000","a":"93 BROAD ST","m":"Leetsdale","u":"L","o":"individual","sf":1720,"v":700}},{"type":"Feature","geometry":{"type":"Point","coordinates":[-80.20315,40.56004]},"properties":{"p":"0704S00064000000","a":"BEAVER ST","m":"Leetsdale","u":"L","o":"individual","sf":19992,"v":51700}},{"type":"Feature","geometry":{"type":"Point","coordinates":[-80.2134,40.56981]},"properties":{"p":"0815N00081000000","a":"BEAVER ST","m":"Leetsdale","u":"L","o":"individual","sf":29352,"v":25200}},{"type":"Feature","geometry":{"type":"Point","coordinates":[-80.21356,40.56994]},"properties":{"p":"0815N00086000000","a":"BEAVER ST","m":"Leetsdale","u":"L","o":"individual","sf":9785,"v":23400}},{"type":"Feature","geometry":{"type":"Point","coordinates":[-80.20775,40.56592]},"properties":{"p":"0704G00052000000","a":"BEAVER ST","m":"Leetsdale","u":"L","o":"individual","sf":6100,"v":23100}},{"type":"Feature","geometry":{"type":"Point","coordinates":[-80.20768,40.56588]},"properties":{"p":"0704G00055000000","a":"BEAVER ST","m":"Leetsdale","u":"L","o":"individual","sf":5000,"v":23000}},{"type":"Feature","geometry":{"type":"Point","coordinates":[-80.20761,40.56584]},"properties":{"p":"0704G00058000000","a":"BEAVER ST","m":"Leetsdale","u":"L","o":"individual","sf":5000,"v":23000}},{"type":"Feature","geometry":{"type":"Point","coordinates":[-80.20754,40.5658]},"properties":{"p":"0704G00061000000","a":"BEAVER ST","m":"Leetsdale","u":"L","o":"individual","sf":5000,"v":23000}},{"type":"Feature","geometry":{"type":"Point","coordinates":[-80.20747,40.56576]},"properties":{"p":"0704G00064000000","a":"BEAVER ST","m":"Leetsdale","u":"L","o":"individual","sf":5000,"v":23000}},{"type":"Feature","geometry":{"type":"Point","coordinates":[-80.2074,40.56572]},"properties":{"p":"0704G00067000000","a":"BEAVER ST","m":"Leetsdale","u":"L","o":"individual","sf":5000,"v":23000}},{"type":"Feature","geometry":{"type":"Point","coordinates":[-80.20732,40.56565]},"properties":{"p":"0704G00071000000","a":"BEAVER ST","m":"Leetsdale","u":"L","o":"individual","sf":7543,"v":23200}},{"type":"Feature","geometry":{"type":"Point","coordinates":[-80.20723,40.5656]},"properties":{"p":"0704G00076000000","a":"BEAVER ST","m":"Leetsdale","u":"L","o":"individual","sf":5000,"v":23000}},{"type":"Feature","geometry":{"type":"Point","coordinates":[-80.20711,40.56551]},"properties":{"p":"0704G00082000000","a":"BEAVER ST","m":"Leetsdale","u":"L","o":"individual","sf":5000,"v":23000}},{"type":"Feature","geometry":{"type":"Point","coordinates":[-80.20704,40.56546]},"properties":{"p":"0704G00084000000","a":"BEAVER ST","m":"Leetsdale","u":"L","o":"individual","sf":5000,"v":23000}},{"type":"Feature","geometry":{"type":"Point","coordinates":[-80.20695,40.56539]},"properties":{"p":"0704G00088000000","a":"BEAVER ST","m":"Leetsdale","u":"L","o":"individual","sf":10000,"v":23500}},{"type":"Feature","geometry":{"type":"Point","coordinates":[-80.21009,40.56745]},"properties":{"p":"0704B00181000000","a":"BEAVER ST","m":"Leetsdale","u":"L","o":"individual","sf":8700,"v":2900}},{"type":"Feature","geometry":{"type":"Point","coordinates":[-80.21215,40.5672]},"properties":{"p":"0704F00083000000","a":"OHIO RIVER BLVD","m":"Leetsdale","u":"L","o":"individual","sf":615,"v":300}},{"type":"Feature","geometry":{"type":"Point","coordinates":[-80.20457,40.56241]},"properties":{"p":"0704L00111000000","a":"196 VICTORY LN","m":"Leetsdale","u":"L","o":"corp","sf":3519,"v":11600}},{"type":"Feature","geometry":{"type":"Point","coordinates":[-80.2019,40.56142]},"properties":{"p":"0704S00201000000","a":"VALLEY LN","m":"Leetsdale","u":"L","o":"individual","sf":14505,"v":26100}},{"type":"Feature","geometry":{"type":"Point","coordinates":[-80.201,40.56166]},"properties":{"p":"0704S00215000000","a":"VALLEY LN","m":"Leetsdale","u":"L","o":"individual","sf":17468,"v":51400}},{"type":"Feature","geometry":{"type":"Point","coordinates":[-80.21205,40.56709]},"properties":{"p":"0704F00086000000","a":"OHIO RIVER BLVD","m":"Leetsdale","u":"L","o":"individual","sf":605,"v":300}},{"type":"Feature","geometry":{"type":"Point","coordinates":[-80.20146,40.56095]},"properties":{"p":"0704S00229000000","a":"WINDING RD","m":"Leetsdale","u":"L","o":"individual","sf":7260,"v":25000}},{"type":"Feature","geometry":{"type":"Point","coordinates":[-80.20189,40.56054]},"properties":{"p":"0704S00247000000","a":"WINDING RD","m":"Leetsdale","u":"L","o":"individual","sf":2629,"v":1100}},{"type":"Feature","geometry":{"type":"Point","coordinates":[-80.21004,40.56671]},"properties":{"p":"0704F00320000000","a":"347 BEAVER ST","m":"Leetsdale","u":"L","o":"individual","sf":3625,"v":1300}},{"type":"Feature","geometry":{"type":"Point","coordinates":[-80.20828,40.56622]},"properties":{"p":"0704F00385000000","a":"BEAVER ST","m":"Leetsdale","u":"L","o":"individual","sf":5000,"v":23000}},{"type":"Feature","geometry":{"type":"Point","coordinates":[-80.20821,40.56618]},"properties":{"p":"0704F00387000000","a":"BEAVER ST","m":"Leetsdale","u":"L","o":"individual","sf":5034,"v":1700}},{"type":"Feature","geometry":{"type":"Point","coordinates":[-80.20801,40.56607]},"properties":{"p":"0704F00391000000","a":"BEAVER ST","m":"Leetsdale","u":"L","o":"individual","sf":7500,"v":23200}},{"type":"Feature","geometry":{"type":"Point","coordinates":[-80.21997,40.55299]},"properties":{"p":"0702M00014000000","a":"MCGOVERN BLVD","m":"Crescent","u":"L","o":"individual","sf":33756,"v":14900}},{"type":"Feature","geometry":{"type":"Point","coordinates":[-80.21474,40.55197]},"properties":{"p":"0601N00180000000","a":"RIVERVIEW RD","m":"Crescent","u":"L","o":"individual","sf":59677,"v":5500}},{"type":"Feature","geometry":{"type":"Point","coordinates":[-80.21423,40.55006]},"properties":{"p":"0600A00301000000","a":"RIVERVIEW RD","m":"Crescent","u":"L","o":"corp","sf":82943,"v":24500}},{"type":"Feature","geometry":{"type":"Point","coordinates":[-80.21594,40.5533]},"properties":{"p":"0601J00044000000","a":"RIVERVIEW RD","m":"Crescent","u":"L","o":"individual","sf":816,"v":100}},{"type":"Feature","geometry":{"type":"Point","coordinates":[-80.21916,40.55906]},"properties":{"p":"0702D00124000000","a":"FRONT ST","m":"Crescent","u":"L","o":"corp","sf":9500,"v":900}},{"type":"Feature","geometry":{"type":"Point","coordinates":[-80.21962,40.55275]},"properties":{"p":"0702S00186000000","a":"MCGOVERN BLVD","m":"Crescent","u":"L","o":"individual","sf":39921,"v":3600}},{"type":"Feature","geometry":{"type":"Point","coordinates":[-80.21867,40.55231]},"properties":{"p":"0702S00198000000","a":"MCGOVERN BLVD","m":"Crescent","u":"L","o":"individual","sf":4066,"v":400}},{"type":"Feature","geometry":{"type":"Point","coordinates":[-80.21974,40.55771]},"properties":{"p":"0702D00021000000","a":"MAIN ST","m":"Crescent","u":"L","o":"individual","sf":11400,"v":25400}},{"type":"Feature","geometry":{"type":"Point","coordinates":[-80.21927,40.55815]},"properties":{"p":"0702D00056000000","a":"FRONT ST","m":"Crescent","u":"L","o":"individual","sf":12500,"v":13000}},{"type":"Feature","geometry":{"type":"Point","coordinates":[-80.21897,40.55806]},"properties":{"p":"0702D00062000000","a":"FRONT ST","m":"Crescent","u":"L","o":"individual","sf":7520,"v":4100}},{"type":"Feature","geometry":{"type":"Point","coordinates":[-80.21918,40.55722]},"properties":{"p":"0702H00210000000","a":"FRONT ST","m":"Crescent","u":"L","o":"individual","sf":9120,"v":22900}},{"type":"Feature","geometry":{"type":"Point","coordinates":[-80.21799,40.55785]},"properties":{"p":"0702H00241000000","a":"FERRY ST","m":"Crescent","u":"L","o":"individual","sf":13984,"v":1300}},{"type":"Feature","geometry":{"type":"Point","coordinates":[-80.2188,40.55002]},"properties":{"p":"0701D00162000000","a":"MCGOVERN BLVD","m":"Crescent","u":"L","o":"individual","sf":2100,"v":200}},{"type":"Feature","geometry":{"type":"Point","coordinates":[-80.20737,40.56667]},"properties":{"p":"0704G00229000000","a":"CAMP MEETING RD","m":"Leet","u":"L","o":"individual","sf":90169,"v":70800}},{"type":"Feature","geometry":{"type":"Point","coordinates":[-80.20671,40.56639]},"properties":{"p":"0704G00246000000","a":"MYRTLE HILL RD","m":"Leet","u":"L","o":"individual","sf":87991,"v":70500}},{"type":"Feature","geometry":{"type":"Point","coordinates":[-80.20052,40.56394]},"properties":{"p":"0704M00157000000","a":"OAK DR","m":"Leet","u":"L","o":"individual","sf":2354,"v":300}},{"type":"Feature","geometry":{"type":"Point","coordinates":[-80.20535,40.56953]},"properties":{"p":"0704C00200000000","a":"MYRTLE HILL RD","m":"Leet","u":"L","o":"individual","sf":15246,"v":60500}},{"type":"Feature","geometry":{"type":"Point","coordinates":[-80.20947,40.56874]},"properties":{"p":"0704B00245000000","a":"MYRTLE HILL RD","m":"Leet","u":"L","o":"individual","sf":115870,"v":16000}},{"type":"Feature","geometry":{"type":"Point","coordinates":[-80.20903,40.56666]},"properties":{"p":"0704F00361000000","a":"BEAVER ST","m":"Leetsdale","u":"L","o":"individual","sf":1000,"v":400}},{"type":"Feature","geometry":{"type":"Point","coordinates":[-80.21061,40.56593]},"properties":{"p":"0704F00112000000","a":"50 OHIO RIVER BLVD","m":"Leetsdale","u":"L","o":"individual","sf":3412,"v":1200}},{"type":"Feature","geometry":{"type":"Point","coordinates":[-80.21125,40.56739]},"properties":{"p":"0704B00038000000","a":"317 BEAVER ST","m":"Leetsdale","u":"L","o":"individual","sf":3150,"v":1100}},{"type":"Feature","geometry":{"type":"Point","coordinates":[-80.21142,40.56649]},"properties":{"p":"0704F00097000000","a":"OHIO RIVER BLVD","m":"Leetsdale","u":"L","o":"individual","sf":3931,"v":1400}},{"type":"Feature","geometry":{"type":"Point","coordinates":[-80.20897,40.56291]},"properties":{"p":"0704K00195000000","a":"1ST ST","m":"Leetsdale","u":"L","o":"individual","sf":4361,"v":21500}},{"type":"Feature","geometry":{"type":"Point","coordinates":[-80.21199,40.56706]},"properties":{"p":"0704F00087000000","a":"81 BROAD ST","m":"Leetsdale","u":"L","o":"individual","sf":675,"v":200}},{"type":"Feature","geometry":{"type":"Point","coordinates":[-80.20983,40.56343]},"properties":{"p":"0704K00174000000","a":"1ST ST","m":"Leetsdale","u":"L","o":"individual","sf":260,"v":200}},{"type":"Feature","geometry":{"type":"Point","coordinates":[-80.20717,40.56556]},"properties":{"p":"0704G00079000000","a":"BEAVER ST","m":"Leetsdale","u":"L","o":"individual","sf":5000,"v":23000}},{"type":"Feature","geometry":{"type":"Point","coordinates":[-80.20857,40.56476]},"properties":{"p":"0704F00151000000","a":"BROAD ST","m":"Leetsdale","u":"L","o":"individual","sf":3868,"v":1300}},{"type":"Feature","geometry":{"type":"Point","coordinates":[-80.21044,40.56422]},"properties":{"p":"0704K00283000000","a":"1ST ST","m":"Leetsdale","u":"L","o":"corp","sf":3654,"v":19900}},{"type":"Feature","geometry":{"type":"Point","coordinates":[-80.213,40.5695]},"properties":{"p":"0704A00044000000","a":"BEAVER ST","m":"Leetsdale","u":"L","o":"corp","sf":19536,"v":6400}},{"type":"Feature","geometry":{"type":"Point","coordinates":[-80.20179,40.56022]},"properties":{"p":"0704S00084000000","a":"BEAVER ST","m":"Leetsdale","u":"L","o":"individual","sf":6671,"v":50200}},{"type":"Feature","geometry":{"type":"Point","coordinates":[-80.20939,40.56352]},"properties":{"p":"0704K00179000000","a":"1ST ST","m":"Leetsdale","u":"L","o":"individual","sf":3232,"v":1100}}]}