{"type":"FeatureCollection","features":[{"type":"Feature","geometry":{"type":"Point","coordinates":[-80.21786,40.57134]},"properties":{"p":"0814S00175000000","a":"WASHINGTON ST","m":"Leetsdale","u":"I","o":"corp","sf":43560,"v":27000}},{"type":"Feature","geometry":{"type":"Point","coordinates":[-80.21953,40.57069]},"properties":{"p":"0814S00200000000","a":"1001 BRICKWORKS DR","m":"Leetsdale","u":"C","o":"corp","sf":163779,"v":40000}},{"type":"Feature","geometry":{"type":"Point","coordinates":[-80.2138,40.58076]},"properties":{"p":"0934N00037000000","a":"620 AMBRIDGE AVE","m":"Leet","u":"C","o":"corp","sf":6316,"v":12600}},{"type":"Feature","geometry":{"type":"Point","coordinates":[-80.21092,40.57367]},"properties":{"p":"0815K00075000000","a":"CAMP MEETING RD","m":"Leet","u":"C","o":"corp","sf":21780,"v":1500}},{"type":"Feature","geometry":{"type":"Point","coordinates":[-80.21688,40.57172]},"properties":{"p":"0814S00002000000","a":"BEAVER ST","m":"Leetsdale","u":"L","o":"individual","sf":10136,"v":23500}},{"type":"Feature","geometry":{"type":"Point","coordinates":[-80.21668,40.57149]},"properties":{"p":"0814S00004000000","a":"BEAVER ST","m":"Leetsdale","u":"L","o":"individual","sf":984,"v":400}},{"type":"Feature","geometry":{"type":"Point","coordinates":[-80.21971,40.57447]},"properties":{"p":"0814H00010000000","a":"BEAVER ST","m":"Leetsdale","u":"L","o":"individual","sf":17280,"v":24100}},{"type":"Feature","geometry":{"type":"Point","coordinates":[-80.21996,40.57469]},"properties":{"p":"0814H00014000000","a":"BEAVER ST","m":"Leetsdale","u":"L","o":"individual","sf":4385,"v":1500}},{"type":"Feature","geometry":{"type":"Point","coordinates":[-80.2138,40.57013]},"properties":{"p":"0815N00098000000","a":"BEAVER ST","m":"Leetsdale","u":"L","o":"individual","sf":8599,"v":23300}},{"type":"Feature","geometry":{"type":"Point","coordinates":[-80.21388,40.57019]},"properties":{"p":"0815N00102000000","a":"BEAVER ST","m":"Leetsdale","u":"L","o":"individual","sf":9785,"v":23400}},{"type":"Feature","geometry":{"type":"Point","coordinates":[-80.21397,40.57026]},"properties":{"p":"0815N00106000000","a":"BEAVER ST","m":"Leetsdale","u":"L","o":"corp","sf":11100,"v":23600}},{"type":"Feature","geometry":{"type":"Point","coordinates":[-80.21405,40.57032]},"properties":{"p":"0815N00110000000","a":"BEAVER ST","m":"Leetsdale","u":"L","o":"corp","sf":9785,"v":23400}},{"type":"Feature","geometry":{"type":"Point","coordinates":[-80.21417,40.57041]},"properties":{"p":"0815N00118000000","a":"BEAVER ST","m":"Leetsdale","u":"L","o":"corp","sf":19499,"v":6300}},{"type":"Feature","geometry":{"type":"Point","coordinates":[-80.21568,40.57265]},"properties":{"p":"0814M00011000000","a":"BEAVER ST","m":"Leetsdale","u":"L","o":"individual","sf":254390,"v":43400}},{"type":"Feature","geometry":{"type":"Point","coordinates":[-80.21655,40.57294]},"properties":{"p":"0814M00079000000","a":"BEAVER ST","m":"Leetsdale","u":"L","o":"individual","sf":242194,"v":43100}},{"type":"Feature","geometry":{"type":"Point","coordinates":[-80.21747,40.57315]},"properties":{"p":"0814M00081000000","a":"BEAVER ST","m":"Leetsdale","u":"L","o":"individual","sf":184694,"v":39500}},{"type":"Feature","geometry":{"type":"Point","coordinates":[-80.21799,40.57435]},"properties":{"p":"0814M00083000000","a":"BEAVER ST","m":"Leetsdale","u":"L","o":"individual","sf":9144,"v":23400}},{"type":"Feature","geometry":{"type":"Point","coordinates":[-80.21886,40.57366]},"properties":{"p":"0814M00090000000","a":"BEAVER ST","m":"Leetsdale","u":"L","o":"individual","sf":46217,"v":26800}},{"type":"Feature","geometry":{"type":"Point","coordinates":[-80.21815,40.57295]},"properties":{"p":"0814M00100000000","a":"BEAVER ST","m":"Leetsdale","u":"L","o":"individual","sf":21126,"v":6900}},{"type":"Feature","geometry":{"type":"Point","coordinates":[-80.21783,40.57264]},"properties":{"p":"0814M00110000000","a":"BEAVER ST","m":"Leetsdale","u":"L","o":"individual","sf":2567,"v":900}},{"type":"Feature","geometry":{"type":"Point","coordinates":[-80.21776,40.57257]},"properties":{"p":"0814M00112000000","a":"BEAVER ST","m":"Leetsdale","u":"L","o":"individual","sf":1890,"v":700}},{"type":"Feature","geometry":{"type":"Point","coordinates":[-80.2177,40.57251]},"properties":{"p":"0814M00114000000","a":"BEAVER ST","m":"Leetsdale","u":"L","o":"individual","sf":1890,"v":700}},{"type":"Feature","geometry":{"type":"Point","coordinates":[-80.21763,40.57245]},"properties":{"p":"0814M00117000000","a":"BEAVER ST","m":"Leetsdale","u":"L","o":"individual","sf":1862,"v":700}},{"type":"Feature","geometry":{"type":"Point","coordinates":[-80.21748,40.5723]},"properties":{"p":"0814M00120000000","a":"BEAVER ST","m":"Leetsdale","u":"L","o":"individual","sf":6550,"v":23100}},{"type":"Feature","geometry":{"type":"Point","coordinates":[-80.21734,40.57217]},"properties":{"p":"0814M00126000000","a":"BEAVER ST","m":"Leetsdale","u":"L","o":"individual","sf":2350,"v":900}},{"type":"Feature","geometry":{"type":"Point","coordinates":[-80.21727,40.57205]},"properties":{"p":"0814M00128000000","a":"BEAVER ST","m":"Leetsdale","u":"L","o":"individual","sf":2170,"v":800}},{"type":"Feature","geometry":{"type":"Point","coordinates":[-80.21715,40.57198]},"properties":{"p":"0814M00130000000","a":"BEAVER ST","m":"Leetsdale","u":"L","o":"individual","sf":3075,"v":1100}},{"type":"Feature","geometry":{"type":"Point","coordinates":[-80.21461,40.57076]},"properties":{"p":"0815N00142000000","a":"BEAVER ST","m":"Leetsdale","u":"L","o":"individual","sf":15270,"v":5000}},{"type":"Feature","geometry":{"type":"Point","coordinates":[-80.21485,40.57091]},"properties":{"p":"0815N00154000000","a":"BEAVER ST","m":"Leetsdale","u":"L","o":"individual","sf":37860,"v":26000}},{"type":"Feature","geometry":{"type":"Point","coordinates":[-80.21908,40.57763]},"properties":{"p":"0814D00102000000","a":"DAVIS RD","m":"Leetsdale","u":"L","o":"individual","sf":16800,"v":24100}},{"type":"Feature","geometry":{"type":"Point","coordinates":[-80.21555,40.57051]},"properties":{"p":"0815N00063000000","a":"BEAVER ST","m":"Leetsdale","u":"L","o":"individual","sf":4305,"v":21400}},{"type":"Feature","geometry":{"type":"Point","coordinates":[-80.21931,40.57719]},"properties":{"p":"0814D00094000000","a":"MAIN ST","m":"Leetsdale","u":"L","o":"individual","sf":3680,"v":1300}},{"type":"Feature","geometry":{"type":"Point","coordinates":[-80.20088,40.58728]},"properties":{"p":"0934D00191000000","a":"127 LEWIS ST","m":"Bell Acres","u":"L","o":"individual","sf":1720,"v":200}},{"type":"Feature","geometry":{"type":"Point","coordinates":[-80.20082,40.58701]},"properties":{"p":"0934D00202000000","a":"LEWIS ST","m":"Bell Acres","u":"L","o":"individual","sf":8381,"v":800}},{"type":"Feature","geometry":{"type":"Point","coordinates":[-80.20079,40.58682]},"properties":{"p":"0934D00207000000","a":"LEWIS ST","m":"Bell Acres","u":"L","o":"individual","sf":18154,"v":1600}},{"type":"Feature","geometry":{"type":"Point","coordinates":[-80.20075,40.58663]},"properties":{"p":"0934D00217000000","a":"135 LEWIS ST","m":"Bell Acres","u":"L","o":"individual","sf":9777,"v":900}},{"type":"Feature","geometry":{"type":"Point","coordinates":[-80.20717,40.58736]},"properties":{"p":"0934C00363000000","a":"AMBRIDGE AVE","m":"Bell Acres","u":"L","o":"individual","sf":4556,"v":400}},{"type":"Feature","geometry":{"type":"Point","coordinates":[-80.20166,40.58591]},"properties":{"p":"0934D00139000000","a":"SANDS AVE","m":"Bell Acres","u":"L","o":"individual","sf":363290,"v":56500}},{"type":"Feature","geometry":{"type":"Point","coordinates":[-80.20265,40.5878]},"properties":{"p":"0934D00146000000","a":"SANDS AVE","m":"Bell Acres","u":"L","o":"individual","sf":7187,"v":700}},{"type":"Feature","geometry":{"type":"Point","coordinates":[-80.20216,40.58766]},"properties":{"p":"0934D00154000000","a":"KENNELLY ST","m":"Bell Acres","u":"L","o":"individual","sf":13568,"v":1200}},{"type":"Feature","geometry":{"type":"Point","coordinates":[-80.20435,40.58723]},"properties":{"p":"0934C00248000000","a":"AMBRIDGE AVE","m":"Bell Acres","u":"L","o":"corp","sf":169448,"v":48700}},{"type":"Feature","geometry":{"type":"Point","coordinates":[-80.20484,40.58755]},"properties":{"p":"0934C00258000000","a":"PRIVATE RD","m":"Bell Acres","u":"L","o":"individual","sf":8930,"v":800}},{"type":"Feature","geometry":{"type":"Point","coordinates":[-80.20527,40.58793]},"properties":{"p":"0934C00284000000","a":"566 AMBRIDGE AVE","m":"Bell Acres","u":"L","o":"individual","sf":22950,"v":2100}},{"type":"Feature","geometry":{"type":"Point","coordinates":[-80.20458,40.58806]},"properties":{"p":"0934C00301000000","a":"AMBRIDGE AVE","m":"Bell Acres","u":"L","o":"individual","sf":14513,"v":12800}},{"type":"Feature","geometry":{"type":"Point","coordinates":[-80.20255,40.58957]},"properties":{"p":"1061F00037000000","a":"AMBRIDGE AVE","m":"Bell Acres","u":"L","o":"individual","sf":6000,"v":500}},{"type":"Feature","geometry":{"type":"Point","coordinates":[-80.2038,40.5885]},"properties":{"p":"1061S00002000000","a":"AMBRIDGE AVE","m":"Bell Acres","u":"L","o":"individual","sf":10085,"v":900}},{"type":"Feature","geometry":{"type":"Point","coordinates":[-80.20265,40.5884]},"properties":{"p":"0934D00395000000","a":"KENNELLY ST","m":"Bell Acres","u":"L","o":"individual","sf":11071,"v":1000}},{"type":"Feature","geometry":{"type":"Point","coordinates":[-80.20045,40.58978]},"properties":{"p":"1061S00179000000","a":"ELM ST","m":"Bell Acres","u":"L","o":"individual","sf":6053,"v":500}},{"type":"Feature","geometry":{"type":"Point","coordinates":[-80.20197,40.58832]},"properties":{"p":"0934D00341000000","a":"106 KENNELLY ST","m":"Bell Acres","u":"L","o":"individual","sf":5649,"v":500}},{"type":"Feature","geometry":{"type":"Point","coordinates":[-80.20305,40.58795]},"properties":{"p":"0934D00361000000","a":"SANDS AVE","m":"Bell Acres","u":"L","o":"individual","sf":2873,"v":300}},{"type":"Feature","geometry":{"type":"Point","coordinates":[-80.20382,40.58802]},"properties":{"p":"0934D00372000000","a":"SANDS AVE","m":"Bell Acres","u":"L","o":"individual","sf":20604,"v":1900}},{"type":"Feature","geometry":{"type":"Point","coordinates":[-80.20316,40.58897]},"properties":{"p":"1061S00015000000","a":"AMBRIDGE AVE","m":"Bell Acres","u":"L","o":"individual","sf":24590,"v":2200}},{"type":"Feature","geometry":{"type":"Point","coordinates":[-80.20283,40.58939]},"properties":{"p":"1061S00031000000","a":"5 MAPLE ST","m":"Bell Acres","u":"L","o":"individual","sf":9336,"v":800}},{"type":"Feature","geometry":{"type":"Point","coordinates":[-80.20785,40.58331]},"properties":{"p":"0934L00045000000","a":"AMBRIDGE AVE","m":"Leet","u":"L","o":"individual","sf":100624,"v":22800}},{"type":"Feature","geometry":{"type":"Point","coordinates":[-80.21512,40.57758]},"properties":{"p":"0815A00341000000","a":"HIGH ST","m":"Leet","u":"L","o":"individual","sf":8100,"v":2500}},{"type":"Feature","geometry":{"type":"Point","coordinates":[-80.21112,40.57739]},"properties":{"p":"0815B00100000000","a":"WATER ST","m":"Leet","u":"L","o":"individual","sf":654315,"v":43600}},{"type":"Feature","geometry":{"type":"Point","coordinates":[-80.20938,40.57618]},"properties":{"p":"0815B00130000000","a":"MCCABE ST","m":"Leet","u":"L","o":"individual","sf":648086,"v":43400}},{"type":"Feature","geometry":{"type":"Point","coordinates":[-80.21195,40.58195]},"properties":{"p":"0934K00026000000","a":"AMBRIDGE AVE","m":"Leet","u":"L","o":"individual","sf":6128,"v":1900}},{"type":"Feature","geometry":{"type":"Point","coordinates":[-80.21257,40.58155]},"properties":{"p":"0934P00004000000","a":"AMBRIDGE AVE","m":"Leet","u":"L","o":"individual","sf":6357,"v":2000}},{"type":"Feature","geometry":{"type":"Point","coordinates":[-80.2127,40.58126]},"properties":{"p":"0934P00010000000","a":"AMBRIDGE AVE","m":"Leet","u":"L","o":"individual","sf":8149,"v":2500}},{"type":"Feature","geometry":{"type":"Point","coordinates":[-80.21075,40.58068]},"properties":{"p":"0934P00020000000","a":"AMBRIDGE AVE","m":"Leet","u":"L","o":"individual","sf":150282,"v":27300}},{"type":"Feature","geometry":{"type":"Point","coordinates":[-80.21669,40.57802]},"properties":{"p":"0814D00167000000","a":"OAK ST","m":"Leet","u":"L","o":"individual","sf":8400,"v":2600}},{"type":"Feature","geometry":{"type":"Point","coordinates":[-80.20991,40.58536]},"properties":{"p":"0934F00103000000","a":"ECKERT ST","m":"Leet","u":"L","o":"individual","sf":11790,"v":14600}},{"type":"Feature","geometry":{"type":"Point","coordinates":[-80.20966,40.58519]},"properties":{"p":"0934F00104000000","a":"ECKERT ST","m":"Leet","u":"L","o":"individual","sf":9600,"v":14400}},{"type":"Feature","geometry":{"type":"Point","coordinates":[-80.20807,40.57849]},"properties":{"p":"0815C00099000000","a":"LEET ST","m":"Leet","u":"L","o":"individual","sf":8750,"v":2700}},{"type":"Feature","geometry":{"type":"Point","coordinates":[-80.20789,40.57861]},"properties":{"p":"0815C00104000000","a":"LEET ST","m":"Leet","u":"L","o":"individual","sf":8237,"v":2600}},{"type":"Feature","geometry":{"type":"Point","coordinates":[-80.20747,40.57781]},"properties":{"p":"0815C00142000000","a":"MCCABE ST","m":"Leet","u":"L","o":"individual","sf":625,"v":300}},{"type":"Feature","geometry":{"type":"Point","coordinates":[-80.2184,40.58097]},"properties":{"p":"0933S00190000000","a":"ORCHARD ST","m":"Leet","u":"L","o":"individual","sf":6000,"v":1900}},{"type":"Feature","geometry":{"type":"Point","coordinates":[-80.21842,40.58088]},"properties":{"p":"0933S00194000000","a":"ORCHARD ST","m":"Leet","u":"L","o":"individual","sf":6000,"v":1900}},{"type":"Feature","geometry":{"type":"Point","coordinates":[-80.21843,40.5808]},"properties":{"p":"0933S00198000000","a":"ORCHARD ST","m":"Leet","u":"L","o":"individual","sf":6000,"v":1900}},{"type":"Feature","geometry":{"type":"Point","coordinates":[-80.21876,40.57882]},"properties":{"p":"0814D00219000000","a":"MAIN ST","m":"Leet","u":"L","o":"individual","sf":4845,"v":1600}},{"type":"Feature","geometry":{"type":"Point","coordinates":[-80.21417,40.5774]},"properties":{"p":"0815A00112000000","a":"HILL ST","m":"Leet","u":"L","o":"individual","sf":3780,"v":1200}},{"type":"Feature","geometry":{"type":"Point","coordinates":[-80.20566,40.58528]},"properties":{"p":"0934G00064000000","a":"AMBRIDGE AVE","m":"Leet","u":"L","o":"corp","sf":399445,"v":37700}},{"type":"Feature","geometry":{"type":"Point","coordinates":[-80.20722,40.58524]},"properties":{"p":"0934G00184000000","a":"LUNAKE DR","m":"Leet","u":"L","o":"individual","sf":35744,"v":11700}},{"type":"Feature","geometry":{"type":"Point","coordinates":[-80.20659,40.58545]},"properties":{"p":"0934G00185000000","a":"LUNAKE DR","m":"Leet","u":"L","o":"individual","sf":21389,"v":7000}},{"type":"Feature","geometry":{"type":"Point","coordinates":[-80.21439,40.57867]},"properties":{"p":"0815A00285000000","a":"IVY AVE","m":"Leet","u":"L","o":"individual","sf":15096,"v":7900}},{"type":"Feature","geometry":{"type":"Point","coordinates":[-80.21485,40.57872]},"properties":{"p":"0815A00288000000","a":"HILL ST","m":"Leet","u":"L","o":"individual","sf":819,"v":300}},{"type":"Feature","geometry":{"type":"Point","coordinates":[-80.21515,40.57811]},"properties":{"p":"0815A00306000000","a":"HILL ST","m":"Leet","u":"L","o":"individual","sf":6913,"v":2200}},{"type":"Feature","geometry":{"type":"Point","coordinates":[-80.21542,40.57797]},"properties":{"p":"0815A00313000000","a":"HILL ST","m":"Leet","u":"L","o":"individual","sf":18478,"v":15200}},{"type":"Feature","geometry":{"type":"Point","coordinates":[-80.2157,40.57785]},"properties":{"p":"0815A00315000000","a":"HILL ST","m":"Leet","u":"L","o":"individual","sf":4050,"v":1300}},{"type":"Feature","geometry":{"type":"Point","coordinates":[-80.20669,40.57823]},"properties":{"p":"0815C00062000000","a":"RIDGE ST","m":"Leet","u":"L","o":"individual","sf":9800,"v":3000}},{"type":"Feature","geometry":{"type":"Point","coordinates":[-80.20686,40.57837]},"properties":{"p":"0815C00067000000","a":"RIDGE ST","m":"Leet","u":"L","o":"corp","sf":9800,"v":3000}},{"type":"Feature","geometry":{"type":"Point","coordinates":[-80.20703,40.57851]},"properties":{"p":"0815C00072000000","a":"RIDGE ST","m":"Leet","u":"L","o":"individual","sf":9800,"v":3000}},{"type":"Feature","geometry":{"type":"Point","coordinates":[-80.2072,40.57865]},"properties":{"p":"0815C00077000000","a":"RIDGE ST","m":"Leet","u":"L","o":"corp","sf":9800,"v":3000}},{"type":"Feature","geometry":{"type":"Point","coordinates":[-80.20737,40.5788]},"properties":{"p":"0815C00081000000","a":"RIDGE ST","m":"Leet","u":"L","o":"individual","sf":9800,"v":3000}},{"type":"Feature","geometry":{"type":"Point","coordinates":[-80.20754,40.57894]},"properties":{"p":"0815C00084000000","a":"RIDGE ST","m":"Leet","u":"L","o":"corp","sf":9800,"v":3000}},{"type":"Feature","geometry":{"type":"Point","coordinates":[-80.21848,40.58156]},"properties":{"p":"0933S00170000000","a":"ORCHARD ST","m":"Leet","u":"L","o":"individual","sf":21576,"v":5000}},{"type":"Feature","geometry":{"type":"Point","coordinates":[-80.21835,40.5813]},"properties":{"p":"0933S00174000000","a":"ORCHARD ST","m":"Leet","u":"L","o":"individual","sf":6000,"v":1900}},{"type":"Feature","geometry":{"type":"Point","coordinates":[-80.21836,40.58122]},"properties":{"p":"0933S00178000000","a":"ORCHARD ST","m":"Leet","u":"L","o":"individual","sf":6000,"v":1900}},{"type":"Feature","geometry":{"type":"Point","coordinates":[-80.21838,40.58113]},"properties":{"p":"0933S00180000000","a":"ORCHARD ST","m":"Leet","u":"L","o":"individual","sf":6000,"v":1900}},{"type":"Feature","geometry":{"type":"Point","coordinates":[-80.21541,40.58088]},"properties":{"p":"0934N00123000000","a":"AMBRIDGE AVE","m":"Leet","u":"L","o":"individual","sf":88862,"v":32600}},{"type":"Feature","geometry":{"type":"Point","coordinates":[-80.21679,40.58069]},"properties":{"p":"0934N00129000000","a":"97 MAIN ST","m":"Leet","u":"L","o":"individual","sf":3600,"v":1200}},{"type":"Feature","geometry":{"type":"Point","coordinates":[-80.21506,40.57556]},"properties":{"p":"0814D00061000000","a":"KENNEY DR","m":"Leet","u":"L","o":"corp","sf":2059974,"v":145700}},{"type":"Feature","geometry":{"type":"Point","coordinates":[-80.2005,40.577]},"properties":{"p":"0815D00016000100","a":"CAMP MEETING RD","m":"Leet","u":"L","o":"corp","sf":3158,"v":400}},{"type":"Feature","geometry":{"type":"Point","coordinates":[-80.20116,40.5776]},"properties":{"p":"0815D00024000000","a":"CAMP MEETING RD","m":"Leet","u":"L","o":"corp","sf":4853,"v":700}},{"type":"Feature","geometry":{"type":"Point","coordinates":[-80.20082,40.57761]},"properties":{"p":"0815D00071000000","a":"WOODHAM RD","m":"Leet","u":"L","o":"corp","sf":43560,"v":3000}},{"type":"Feature","geometry":{"type":"Point","coordinates":[-80.2143,40.57927]},"properties":{"p":"0934N00185000000","a":"OAK ST","m":"Leet","u":"L","o":"individual","sf":3600,"v":1200}},{"type":"Feature","geometry":{"type":"Point","coordinates":[-80.21421,40.5797]},"properties":{"p":"0934N00188000000","a":"OAK ST","m":"Leet","u":"L","o":"individual","sf":11215,"v":14600}},{"type":"Feature","geometry":{"type":"Point","coordinates":[-80.21608,40.57832]},"properties":{"p":"0815A00232000000","a":"OAK ST","m":"Leet","u":"L","o":"individual","sf":7320,"v":2300}},{"type":"Feature","geometry":{"type":"Point","coordinates":[-80.21652,40.57812]},"properties":{"p":"0815A00241000000","a":"OAK ST","m":"Leet","u":"L","o":"individual","sf":11218,"v":3500}},{"type":"Feature","geometry":{"type":"Point","coordinates":[-80.21503,40.57961]},"properties":{"p":"0934N00255000000","a":"MOUND ST","m":"Leet","u":"L","o":"individual","sf":3000,"v":1000}},{"type":"Feature","geometry":{"type":"Point","coordinates":[-80.20908,40.57856]},"properties":{"p":"0815B00173000000","a":"LEET ST","m":"Leet","u":"L","o":"individual","sf":11830,"v":3700}},{"type":"Feature","geometry":{"type":"Point","coordinates":[-80.2114,40.58277]},"properties":{"p":"0934K00061000000","a":"AMBRIDGE AVE","m":"Leet","u":"L","o":"individual","sf":5374,"v":1700}},{"type":"Feature","geometry":{"type":"Point","coordinates":[-80.2077,40.57907]},"properties":{"p":"0934R00130000000","a":"RIDGE ST","m":"Leet","u":"L","o":"individual","sf":9800,"v":3000}},{"type":"Feature","geometry":{"type":"Point","coordinates":[-80.20787,40.57921]},"properties":{"p":"0934R00136000000","a":"RIDGE ST","m":"Leet","u":"L","o":"corp","sf":9800,"v":14400}},{"type":"Feature","geometry":{"type":"Point","coordinates":[-80.20106,40.57428]},"properties":{"p":"0815M00133000000","a":"CAMP MEETING RD","m":"Leet","u":"L","o":"individual","sf":44431,"v":34500}},{"type":"Feature","geometry":{"type":"Point","coordinates":[-80.21001,40.5857]},"properties":{"p":"0934F00146000000","a":"NEELY ST","m":"Leet","u":"L","o":"individual","sf":57935,"v":4700}},{"type":"Feature","geometry":{"type":"Point","coordinates":[-80.21786,40.58139]},"properties":{"p":"0933S00225000000","a":"PLUM ST","m":"Leet","u":"L","o":"individual","sf":7605,"v":2400}},{"type":"Feature","geometry":{"type":"Point","coordinates":[-80.21552,40.57676]},"properties":{"p":"0815A00145000000","a":"233 HIGH ST","m":"Leet","u":"L","o":"individual","sf":13554,"v":4200}},{"type":"Feature","geometry":{"type":"Point","coordinates":[-80.21633,40.57701]},"properties":{"p":"0815A00159000000","a":"HILL ST","m":"Leet","u":"L","o":"corp","sf":14029,"v":4300}},{"type":"Feature","geometry":{"type":"Point","coordinates":[-80.21643,40.57715]},"properties":{"p":"0815A00168000000","a":"HILL ST","m":"Leet","u":"L","o":"corp","sf":19636,"v":15300}},{"type":"Feature","geometry":{"type":"Point","coordinates":[-80.21654,40.5773]},"properties":{"p":"0815A00174000000","a":"HILL ST","m":"Leet","u":"L","o":"corp","sf":13189,"v":4100}},{"type":"Feature","geometry":{"type":"Point","coordinates":[-80.21665,40.57747]},"properties":{"p":"0815A00179000000","a":"HIGH ST","m":"Leet","u":"L","o":"corp","sf":14091,"v":2800}},{"type":"Feature","geometry":{"type":"Point","coordinates":[-80.20537,40.57795]},"properties":{"p":"0815C00251000000","a":"WATSON ST","m":"Leet","u":"L","o":"individual","sf":21780,"v":15500}},{"type":"Feature","geometry":{"type":"Point","coordinates":[-80.21672,40.57762]},"properties":{"p":"0815A00181000000","a":"HILL ST","m":"Leet","u":"L","o":"corp","sf":8525,"v":2700}},{"type":"Feature","geometry":{"type":"Point","coordinates":[-80.21808,40.58067]},"properties":{"p":"0933S00209000000","a":"PLUM ST","m":"Leet","u":"L","o":"individual","sf":156,"v":100}},{"type":"Feature","geometry":{"type":"Point","coordinates":[-80.21696,40.57788]},"properties":{"p":"0814D00171000000","a":"OAK ST","m":"Leet","u":"L","o":"individual","sf":31920,"v":9700}},{"type":"Feature","geometry":{"type":"Point","coordinates":[-80.20942,40.58396]},"properties":{"p":"0934F00022000000","a":"205 NEELY ST","m":"Leet","u":"L","o":"individual","sf":4800,"v":6700}},{"type":"Feature","geometry":{"type":"Point","coordinates":[-80.21119,40.58277]},"properties":{"p":"0934K00066000000","a":"AMBRIDGE AVE","m":"Leet","u":"L","o":"individual","sf":11575,"v":14600}},{"type":"Feature","geometry":{"type":"Point","coordinates":[-80.21365,40.57]},"properties":{"p":"0815N00090000000","a":"BEAVER ST","m":"Leetsdale","u":"L","o":"individual","sf":9900,"v":23400}},{"type":"Feature","geometry":{"type":"Point","coordinates":[-80.21373,40.57007]},"properties":{"p":"0815N00094000000","a":"BEAVER ST","m":"Leetsdale","u":"L","o":"individual","sf":9785,"v":23400}},{"type":"Feature","geometry":{"type":"Point","coordinates":[-80.21813,40.57897]},"properties":{"p":"0814D00210000000","a":"30 MAIN ST","m":"Leet","u":"L","o":"individual","sf":2744,"v":900}},{"type":"Feature","geometry":{"type":"Point","coordinates":[-80.20691,40.57778]},"properties":{"p":"0815C00158000000","a":"WATSON ST","m":"Leet","u":"L","o":"individual","sf":8233,"v":2600}},{"type":"Feature","geometry":{"type":"Point","coordinates":[-80.21839,40.58105]},"properties":{"p":"0933S00186000000","a":"ORCHARD ST","m":"Leet","u":"L","o":"individual","sf":6000,"v":1900}},{"type":"Feature","geometry":{"type":"Point","coordinates":[-80.20733,40.58728]},"properties":{"p":"0934C00066000000","a":"AMBRIDGE AVE","m":"Leet","u":"L","o":"individual","sf":8591,"v":2700}},{"type":"Feature","geometry":{"type":"Point","coordinates":[-80.21899,40.57849]},"properties":{"p":"0814D00234000000","a":"MAIN ST","m":"Leetsdale","u":"L","o":"individual","sf":8198,"v":2700}},{"type":"Feature","geometry":{"type":"Point","coordinates":[-80.20655,40.57797]},"properties":{"p":"0815C00054000000","a":"31 WATSON ST","m":"Leet","u":"L","o":"corp","sf":8233,"v":2600}},{"type":"Feature","geometry":{"type":"Point","coordinates":[-80.21818,40.57932]},"properties":{"p":"0933S00064000100","a":"75 MAIN ST","m":"Leet","u":"L","o":"individual","sf":3744,"v":1200}},{"type":"Feature","geometry":{"type":"Point","coordinates":[-80.21845,40.58072]},"properties":{"p":"0933S00202000000","a":"ORCHARD ST","m":"Leet","u":"L","o":"individual","sf":6008,"v":1900}},{"type":"Feature","geometry":{"type":"Point","coordinates":[-80.21882,40.57851]},"properties":{"p":"0814D00230000000","a":"MAIN ST","m":"Leetsdale","u":"L","o":"individual","sf":8168,"v":2700}},{"type":"Feature","geometry":{"type":"Point","coordinates":[-80.20031,40.57836]},"properties":{"p":"0815D00115000000","a":"WOODHAM RD","m":"Leet","u":"L","o":"individual","sf":30867,"v":4300}},{"type":"Feature","geometry":{"type":"Point","coordinates":[-80.20925,40.57844]},"properties":{"p":"0815B00176000000","a":"LEET ST","m":"Leet","u":"L","o":"individual","sf":11521,"v":3600}}]}