{"type":"FeatureCollection","features":[{"type":"Feature","geometry":{"type":"Polygon","coordinates":[[[-79.90721,40.36157],[-79.90821,40.36358],[-79.91088,40.36282],[-79.91139,40.364],[-79.912,40.36499],[-79.9133,40.36465],[-79.91372,40.36552],[-79.92068,40.36543],[-79.92229,40.36864],[-79.92238,40.37022],[-79.92236,40.37072],[-79.92344,40.37054],[-79.92469,40.37307],[-79.92499,40.3751],[-79.92663,40.375],[-79.93944,40.37395],[-79.94274,40.37597],[-79.94367,40.37497],[-79.9455,40.37609],[-79.94334,40.37817],[-79.94406,40.37858],[-79.94316,40.37949],[-79.94289,40.37933],[-79.94254,40.37968],[-79.93828,40.38017],[-79.93548,40.38096],[-79.93553,40.38251],[-79.93539,40.38362],[-79.93613,40.38881],[-79.9421,40.38822],[-79.94365,40.38911],[-79.94384,40.38904],[-79.9444,40.39019],[-79.94634,40.39028],[-79.94738,40.39012],[-79.94918,40.39059],[-79.94916,40.39124],[-79.94951,40.39125],[-79.94952,40.39073],[-79.94978,40.39082],[-79.9501,40.39081],[-79.95164,40.39036],[-79.95234,40.3902],[-79.95283,40.39016],[-79.95403,40.39017],[-79.95421,40.39011],[-79.95436,40.38999],[-79.95492,40.38988],[-79.95773,40.38985],[-79.95815,40.39698],[-79.95832,40.39719],[-79.95855,40.39734],[-79.95892,40.39747],[-79.96098,40.39782],[-79.96257,40.39795],[-79.96298,40.39807],[-79.96348,40.39834],[-79.96391,40.39972],[-79.9648,40.3997],[-79.96906,40.40048],[-79.97087,40.40282],[-79.97084,40.40287],[-79.97087,40.40326],[-79.97096,40.40343],[-79.97074,40.40347],[-79.97011,40.40476],[-79.96589,40.40724],[-79.96389,40.40875],[-79.96357,40.4088],[-79.96303,40.40789],[-79.96223,40.40816],[-79.96136,40.40809],[-79.96091,40.40757],[-79.96049,40.40778],[-79.9604,40.40777],[-79.9601,40.40876],[-79.95932,40.40874],[-79.9593,40.40906],[-79.95907,40.40907],[-79.95905,40.40975],[-79.95659,40.41035],[-79.95613,40.41032],[-79.95621,40.40944],[-79.95612,40.40912],[-79.95665,40.40824],[-79.95663,40.40778],[-79.95629,40.4072],[-79.95597,40.40689],[-79.95604,40.40662],[-79.95492,40.40685],[-79.95329,40.40326],[-79.9535,40.40321],[-79.95321,40.40253],[-79.95293,40.40268],[-79.95256,40.40219],[-79.95284,40.40171],[-79.95152,40.40004],[-79.95106,40.40025],[-79.95061,40.39963],[-79.94738,40.39692],[-79.94608,40.39591],[-79.94494,40.39542],[-79.94531,40.39494],[-79.94439,40.39441],[-79.94387,40.39418],[-79.93816,40.39299],[-79.9388,40.39503],[-79.93672,40.39517],[-79.93712,40.39527],[-79.9375,40.39567],[-79.93776,40.39696],[-79.94111,40.39714],[-79.94259,40.39734],[-79.94394,40.39778],[-79.9455,40.39847],[-79.94681,40.39936],[-79.94814,40.40043],[-79.94903,40.40131],[-79.94992,40.40241],[-79.95085,40.40376],[-79.95162,40.40538],[-79.9522,40.40725],[-79.95262,40.40886],[-79.95296,40.41067],[-79.95567,40.41053],[-79.95598,40.41048],[-79.95637,40.41064],[-79.95679,40.41064],[-79.95727,40.41056],[-79.95781,40.41035],[-79.9583,40.40998],[-79.95906,40.40979],[-79.95949,40.40976],[-79.9597,40.40991],[-79.96015,40.40992],[-79.96055,40.40983],[-79.962,40.40968],[-79.96283,40.40968],[-79.96359,40.40949],[-79.96377,40.40951],[-79.96442,40.40918],[-79.96526,40.40834],[-79.96522,40.40798],[-79.96646,40.40702],[-79.96889,40.40565],[-79.96932,40.40549],[-79.97223,40.40503],[-79.97261,40.40482],[-79.97314,40.40488],[-79.97485,40.40464],[-79.97531,40.4045],[-79.97588,40.4042],[-79.97595,40.40404],[-79.9763,40.40396],[-79.97962,40.4018],[-79.97984,40.4014],[-79.98008,40.40052],[-79.97991,40.39971],[-79.9794,40.39905],[-79.97579,40.39313],[-79.97391,40.39344],[-79.97364,40.39276],[-79.97323,40.39279],[-79.97304,40.39247],[-79.97345,40.39227],[-79.97308,40.38871],[-79.97542,40.38829],[-79.97576,40.38722],[-79.97408,40.3848],[-79.97651,40.38541],[-79.97719,40.38465],[-79.97769,40.38419],[-79.9769,40.38295],[-79.97615,40.38131],[-79.97671,40.38115],[-79.97686,40.38116],[-79.97739,40.38133],[-79.97753,40.38163],[-79.9777,40.38178],[-79.97807,40.38185],[-79.97908,40.38161],[-79.98192,40.38066],[-79.98276,40.38149],[-79.98335,40.38152],[-79.98582,40.37825],[-79.98604,40.37783],[-79.99088,40.37895],[-79.99249,40.37864],[-79.9929,40.37861],[-79.99358,40.37833],[-79.99401,40.3773],[-79.99412,40.37692],[-79.99413,40.37674],[-79.994,40.37585],[-79.99441,40.37573],[-79.99495,40.37567],[-79.99805,40.37648],[-79.99913,40.37735],[-80.00114,40.37503],[-80.00193,40.37475],[-80.00378,40.3744],[-80.00414,40.37398],[-80.00498,40.37447],[-80.00561,40.37469],[-80.00664,40.37486],[-80.00631,40.3752],[-80.00608,40.37554],[-80.00537,40.37704],[-80.00473,40.37774],[-80.00425,40.37811],[-80.00278,40.37892],[-80.00219,40.37931],[-80.00174,40.37971],[-80.00334,40.38118],[-80.00366,40.38205],[-80.00512,40.38389],[-80.00768,40.38302],[-80.00741,40.38214],[-80.00716,40.38154],[-80.00735,40.38096],[-80.00763,40.38118],[-80.008,40.38091],[-80.00835,40.38093],[-80.00884,40.38116],[-80.00895,40.38117],[-80.00902,40.38113],[-80.00904,40.38103],[-80.01003,40.38093],[-80.01039,40.38045],[-80.01258,40.3809],[-80.01318,40.38284],[-80.01233,40.38298],[-80.01232,40.38304],[-80.01258,40.38308],[-80.01249,40.38341],[-80.01339,40.38349],[-80.01425,40.38578],[-80.01361,40.38571],[-80.01357,40.3861],[-80.01382,40.38657],[-80.01492,40.38608],[-80.0164,40.38515],[-80.01709,40.38632],[-80.01816,40.38646],[-80.02783,40.39161],[-80.02868,40.39127],[-80.03078,40.39502],[-80.03071,40.39533],[-80.03115,40.39661],[-80.02937,40.39719],[-80.03176,40.4001],[-80.03148,40.40041],[-80.03248,40.40173],[-80.03267,40.40154],[-80.0367,40.40079],[-80.03563,40.40171],[-80.03547,40.40383],[-80.03551,40.40393],[-80.0355,40.4043],[-80.03613,40.40425],[-80.03642,40.40429],[-80.03977,40.40133],[-80.04215,40.39973],[-80.04192,40.3994],[-80.04505,40.39905],[-80.05121,40.40195],[-80.03482,40.42838],[-80.0375,40.42854],[-80.03772,40.42832],[-80.03837,40.42785],[-80.0407,40.42869],[-80.04174,40.42901],[-80.04249,40.42863],[-80.04315,40.42805],[-80.04268,40.42871],[-80.04329,40.4282],[-80.04463,40.42907],[-80.0466,40.42942],[-80.0468,40.42736],[-80.04658,40.42701],[-80.04739,40.42697],[-80.04738,40.42597],[-80.04778,40.42575],[-80.04865,40.4264],[-80.04946,40.42684],[-80.05072,40.4271],[-80.05138,40.42713],[-80.05378,40.42795],[-80.05419,40.42761],[-80.05641,40.42671],[-80.05724,40.42645],[-80.06173,40.42638],[-80.06328,40.4264],[-80.06385,40.42635],[-80.06552,40.42512],[-80.06706,40.42306],[-80.06723,40.42271],[-80.06722,40.42252],[-80.06673,40.41991],[-80.06609,40.41744],[-80.06617,40.41715],[-80.06641,40.41683],[-80.06671,40.41657],[-80.06729,40.41623],[-80.06805,40.41601],[-80.06985,40.41587],[-80.07153,40.41582],[-80.07178,40.41573],[-80.07191,40.41562],[-80.07233,40.41488],[-80.07275,40.41432],[-80.07301,40.41406],[-80.07385,40.41342],[-80.07503,40.41425],[-80.07512,40.41419],[-80.07584,40.41473],[-80.07593,40.41466],[-80.07667,40.41524],[-80.07677,40.41517],[-80.07718,40.41547],[-80.07739,40.4153],[-80.07866,40.41647],[-80.07716,40.4171],[-80.07631,40.41766],[-80.07604,40.41796],[-80.07513,40.41948],[-80.07481,40.42013],[-80.07481,40.42049],[-80.07486,40.42061],[-80.07501,40.42071],[-80.07548,40.42084],[-80.07571,40.42083],[-80.07663,40.42057],[-80.0796,40.42005],[-80.08126,40.42022],[-80.08258,40.42009],[-80.08451,40.42053],[-80.08541,40.42125],[-80.08575,40.4228],[-80.08555,40.42385],[-80.0818,40.42375],[-80.08003,40.4238],[-80.07395,40.42545],[-80.07383,40.42543],[-80.07314,40.42604],[-80.07057,40.42864],[-80.0686,40.43144],[-80.06653,40.43057],[-80.06555,40.43036],[-80.06437,40.42877],[-80.06318,40.42787],[-80.06217,40.42906],[-80.05979,40.42823],[-80.05791,40.43146],[-80.05752,40.43129],[-80.05729,40.43158],[-80.05757,40.43452],[-80.05803,40.43452],[-80.0581,40.43533],[-80.05796,40.43631],[-80.0579,40.43646],[-80.05918,40.43714],[-80.05765,40.43753],[-80.0612,40.44058],[-80.06089,40.44178],[-80.06046,40.4423],[-80.05537,40.44394],[-80.05675,40.44432],[-80.05824,40.44444],[-80.0585,40.44456],[-80.05995,40.44564],[-80.0619,40.44782],[-80.0626,40.44723],[-80.06363,40.44793],[-80.06406,40.4476],[-80.0643,40.44769],[-80.06429,40.44818],[-80.06535,40.44855],[-80.06535,40.44883],[-80.0662,40.44939],[-80.06668,40.44883],[-80.06714,40.4489],[-80.06836,40.44779],[-80.07159,40.44863],[-80.07295,40.44833],[-80.07315,40.44866],[-80.07654,40.44802],[-80.07635,40.44725],[-80.07688,40.44718],[-80.07851,40.44653],[-80.07636,40.44182],[-80.07823,40.44132],[-80.08047,40.44056],[-80.08046,40.44042],[-80.08077,40.43975],[-80.08256,40.44031],[-80.08289,40.44044],[-80.08324,40.44083],[-80.08358,40.44137],[-80.08412,40.44195],[-80.08492,40.4421],[-80.08558,40.44233],[-80.08811,40.44296],[-80.08924,40.44334],[-80.09017,40.44417],[-80.0904,40.44542],[-80.09011,40.44659],[-80.09028,40.44753],[-80.09103,40.44906],[-80.08954,40.44984],[-80.08952,40.45044],[-80.08994,40.45103],[-80.09024,40.45125],[-80.09072,40.45143],[-80.0912,40.45143],[-80.09172,40.45128],[-80.09258,40.45084],[-80.09326,40.45075],[-80.0936,40.45075],[-80.09404,40.45094],[-80.09436,40.45114],[-80.09458,40.45144],[-80.09465,40.45202],[-80.09455,40.45333],[-80.09533,40.4575],[-80.09523,40.45911],[-80.09504,40.45943],[-80.09461,40.45972],[-80.09346,40.45983],[-80.09186,40.45985],[-80.08803,40.45975],[-80.08679,40.45986],[-80.08611,40.45982],[-80.08371,40.45945],[-80.08316,40.45961],[-80.08228,40.46001],[-80.08146,40.46063],[-80.08119,40.46089],[-80.08089,40.46125],[-80.08053,40.46193],[-80.08025,40.4625],[-80.07994,40.46337],[-80.0794,40.46386],[-80.07806,40.46469],[-80.0777,40.46474],[-80.07703,40.46474],[-80.0765,40.46467],[-80.07627,40.46457],[-80.07476,40.46361],[-80.07234,40.46138],[-80.0719,40.46126],[-80.06954,40.46084],[-80.06856,40.4608],[-80.06776,40.46101],[-80.06691,40.46131],[-80.0645,40.46246],[-80.06401,40.46267],[-80.0634,40.46282],[-80.06172,40.46362],[-80.06084,40.46419],[-80.06011,40.46415],[-80.05944,40.46393],[-80.05849,40.46345],[-80.05814,40.46344],[-80.0578,40.46351],[-80.05504,40.46456],[-80.05418,40.46481],[-80.05364,40.46489],[-80.05118,40.46561],[-80.05112,40.46638],[-80.05097,40.46726],[-80.05064,40.46831],[-80.05027,40.46929],[-80.04965,40.46998],[-80.04777,40.47115],[-80.0471,40.4717],[-80.04684,40.4724],[-80.04695,40.47316],[-80.04713,40.47404],[-80.04757,40.47493],[-80.0479,40.47591],[-80.04848,40.47731],[-80.04974,40.47915],[-80.05173,40.4813],[-80.05318,40.48218],[-80.05001,40.48465],[-80.04983,40.48489],[-80.05012,40.48513],[-80.05015,40.48523],[-80.04858,40.48643],[-80.04817,40.48638],[-80.04793,40.48631],[-80.04683,40.48717],[-80.04668,40.48703],[-80.04645,40.48717],[-80.04072,40.49146],[-80.03966,40.49104],[-80.03749,40.49007],[-80.03576,40.49094],[-80.02777,40.49111],[-80.0278,40.4965],[-80.02604,40.49678],[-80.02549,40.49529],[-80.02473,40.49542],[-80.02422,40.49501],[-80.02294,40.49526],[-80.02201,40.49383],[-80.02128,40.49433],[-80.02098,40.49463],[-80.02056,40.49518],[-80.02023,40.49575],[-80.02007,40.49615],[-80.01995,40.49679],[-80.01997,40.49724],[-80.02008,40.49772],[-80.01784,40.49736],[-80.01725,40.49894],[-80.01699,40.49984],[-80.01656,40.49978],[-80.01577,40.49992],[-80.01334,40.49873],[-80.01238,40.49876],[-80.01226,40.49889],[-80.0122,40.49922],[-80.01208,40.49951],[-80.01168,40.50022],[-80.01118,40.50075],[-80.01082,40.50104],[-80.01069,40.4991],[-80.00892,40.49915],[-80.00923,40.49848],[-80.00914,40.49755],[-80.0079,40.49753],[-80.00782,40.49799],[-80.00746,40.49797],[-80.00634,40.4974],[-80.00501,40.49716],[-80.00403,40.4978],[-80.00396,40.49629],[-80.004,40.4963],[-80.00371,40.49063],[-80.00319,40.48238],[-80.00177,40.48244],[-80.00169,40.48009],[-79.99878,40.47982],[-79.99854,40.47891],[-79.99652,40.47919],[-79.99535,40.47737],[-79.99599,40.47734],[-79.99583,40.47447],[-79.99645,40.47435],[-79.99761,40.47456],[-79.99755,40.47299],[-79.99186,40.47314],[-79.99329,40.4746],[-79.99342,40.47667],[-79.99503,40.47737],[-79.99333,40.47743],[-79.99269,40.4774],[-79.98894,40.47704],[-79.98846,40.47692],[-79.9881,40.47678],[-79.9871,40.4747],[-79.9859,40.4719],[-79.98388,40.46634],[-79.98298,40.46728],[-79.98295,40.46744],[-79.98182,40.46935],[-79.98114,40.46991],[-79.97985,40.47067],[-79.97893,40.47144],[-79.97879,40.47161],[-79.97726,40.47089],[-79.97468,40.46944],[-79.9741,40.46957],[-79.9734,40.4701],[-79.97285,40.47035],[-79.97175,40.47048],[-79.97077,40.47067],[-79.97004,40.47112],[-79.96932,40.47183],[-79.96806,40.47368],[-79.96737,40.47456],[-79.96662,40.47533],[-79.966,40.47608],[-79.96464,40.47811],[-79.96384,40.47905],[-79.963,40.47997],[-79.96066,40.48209],[-79.95857,40.48381],[-79.9564,40.48529],[-79.95535,40.48592],[-79.9532,40.48696],[-79.94933,40.48826],[-79.94784,40.48871],[-79.94467,40.48943],[-79.94091,40.49049],[-79.93711,40.49126],[-79.93558,40.4915],[-79.93218,40.4917],[-79.92974,40.49165],[-79.92793,40.49155],[-79.92357,40.49072],[-79.92104,40.49004],[-79.90751,40.48725],[-79.90168,40.48586],[-79.90171,40.48902],[-79.89761,40.48789],[-79.89695,40.49174],[-79.89691,40.49262],[-79.89432,40.49219],[-79.88724,40.49116],[-79.88461,40.49093],[-79.88459,40.48852],[-79.88449,40.48671],[-79.88818,40.4864],[-79.88811,40.48518],[-79.88822,40.48369],[-79.88379,40.48321],[-79.88436,40.4805],[-79.88467,40.47932],[-79.88499,40.47882],[-79.88536,40.4786],[-79.88656,40.47819],[-79.88773,40.47315],[-79.88829,40.47005],[-79.89003,40.46185],[-79.87912,40.45907],[-79.87913,40.4591],[-79.87739,40.4589],[-79.87728,40.45941],[-79.87749,40.45943],[-79.8774,40.45984],[-79.8763,40.45971],[-79.87691,40.46162],[-79.87555,40.46156],[-79.87563,40.45996],[-79.87521,40.45992],[-79.87534,40.4598],[-79.87451,40.45927],[-79.87314,40.46043],[-79.87266,40.46074],[-79.87229,40.46089],[-79.87138,40.46112],[-79.87058,40.4612],[-79.86911,40.46098],[-79.86923,40.46053],[-79.87064,40.46076],[-79.8717,40.46057],[-79.87162,40.4584],[-79.87256,40.45765],[-79.87264,40.45749],[-79.86582,40.45578],[-79.86631,40.45369],[-79.86714,40.4494],[-79.87269,40.44938],[-79.87832,40.44993],[-79.88403,40.44893],[-79.88409,40.44915],[-79.88458,40.44931],[-79.88593,40.44692],[-79.8881,40.44764],[-79.88855,40.44785],[-79.88901,40.44834],[-79.88982,40.44906],[-79.89045,40.44947],[-79.89177,40.45011],[-79.89243,40.45027],[-79.89446,40.44057],[-79.89557,40.43496],[-79.89665,40.43014],[-79.89711,40.42762],[-79.89663,40.42752],[-79.8951,40.42817],[-79.89426,40.42702],[-79.89377,40.42693],[-79.89288,40.42827],[-79.89232,40.42807],[-79.89233,40.42798],[-79.89227,40.42793],[-79.89115,40.4274],[-79.89101,40.4272],[-79.89209,40.4263],[-79.8934,40.42565],[-79.8942,40.42556],[-79.8947,40.42567],[-79.89525,40.42605],[-79.89612,40.42626],[-79.89672,40.42647],[-79.89675,40.42627],[-79.89733,40.42606],[-79.89963,40.41546],[-79.90152,40.41589],[-79.90312,40.41592],[-79.90598,40.41572],[-79.90799,40.41547],[-79.91096,40.41501],[-79.91345,40.41421],[-79.91541,40.41323],[-79.91727,40.41192],[-79.91876,40.4106],[-79.9212,40.40822],[-79.92406,40.40449],[-79.92554,40.40289],[-79.92723,40.40093],[-79.92916,40.39926],[-79.93157,40.39817],[-79.93301,40.39764],[-79.93269,40.39487],[-79.93236,40.39151],[-79.92965,40.38972],[-79.91825,40.39931],[-79.9166,40.39862],[-79.9164,40.39879],[-79.91331,40.39698],[-79.91692,40.39393],[-79.9149,40.3934],[-79.91637,40.39137],[-79.91669,40.39151],[-79.91709,40.39092],[-79.91679,40.39079],[-79.91847,40.38848],[-79.91781,40.388],[-79.91717,40.38472],[-79.9174,40.38452],[-79.91609,40.38212],[-79.91732,40.3816],[-79.91624,40.38008],[-79.91391,40.38091],[-79.91324,40.38095],[-79.91172,40.38053],[-79.91169,40.38006],[-79.91149,40.37967],[-79.91121,40.37928],[-79.91066,40.3787],[-79.91048,40.37839],[-79.9103,40.37856],[-79.90838,40.37817],[-79.90934,40.3769],[-79.90885,40.3767],[-79.91184,40.3728],[-79.90854,40.37046],[-79.90344,40.3719],[-79.90132,40.36752],[-79.9003,40.36526],[-79.90526,40.36287],[-79.90495,40.36217],[-79.90603,40.36205],[-79.90721,40.36157]],[[-79.98146,40.40586],[-79.98082,40.40951],[-79.98157,40.41042],[-79.98184,40.41475],[-79.98189,40.41613],[-79.98216,40.41612],[-79.98228,40.41768],[-79.98631,40.41756],[-79.98819,40.41852],[-79.98824,40.41848],[-79.98804,40.41438],[-79.98946,40.41238],[-79.99126,40.40839],[-79.99189,40.40718],[-79.9877,40.40605],[-79.98447,40.40598],[-79.98146,40.40586]]]},"properties":{"name":"City of Pittsburgh"}}],"metadata":{"source":"https://services1.arcgis.com/vdNDkVykv9vEWFX4/arcgis/rest/services/Allegheny_County_Municipal_Boundaries/FeatureServer/0","builtAt":"2026-09-27T21:22:56.644Z"}}