{"type":"FeatureCollection","features":[{"type":"Feature","geometry":{"type":"Point","coordinates":[-79.96023,40.35999]},"properties":{"date":"2019-01-26","municipality":"Baldwin Borough","location":"1600 block of Prospect Road","traffic_restriction":"No","remediated":"Yes"}},{"type":"Feature","geometry":{"type":"Point","coordinates":[-79.99817,40.51359]},"properties":{"date":"2019-03-19","municipality":"Ross","location":"2200 block of Evergreen Road","traffic_restriction":"No","remediated":"No"}},{"type":"Feature","geometry":{"type":"Point","coordinates":[-79.87923,40.51792]},"properties":{"date":null,"municipality":"Fox Chapel","location":"Fox Chapel Road near Pheasant Drive","traffic_restriction":"No","remediated":"Yes"}},{"type":"Feature","geometry":{"type":"Point","coordinates":[-79.97784,40.31582]},"properties":{"date":"2018-03-08","municipality":"Jefferson Hills","location":"100 block of Cochran Mill Road","traffic_restriction":"No","remediated":"No"}},{"type":"Feature","geometry":{"type":"Point","coordinates":[-80.08939,40.49681]},"properties":{"date":"2019-07-17","municipality":"Neville","location":"Neville Road near Grand Avenue","traffic_restriction":"No","remediated":"No"}},{"type":"Feature","geometry":{"type":"Point","coordinates":[-79.99037,40.53987]},"properties":{"date":null,"municipality":"Ross","location":"600 block of Thompson Run Road","traffic_restriction":"No","remediated":"No"}},{"type":"Feature","geometry":{"type":"Point","coordinates":[-79.86547,40.41716]},"properties":{"date":"2016-05-24","municipality":"Braddock Hills","location":"Wilkins Avenue near Park Avenue","traffic_restriction":"No","remediated":"Yes"}},{"type":"Feature","geometry":{"type":"Point","coordinates":[-79.97572,40.5014]},"properties":{"date":"2017-12-12","municipality":"Shaler","location":"Wible Run Road near Anderson Road","traffic_restriction":"No","remediated":"Yes"}},{"type":"Feature","geometry":{"type":"Point","coordinates":[-79.97796,40.56608]},"properties":{"date":null,"municipality":"McCandless","location":"2300 block of Duncan Avenue","traffic_restriction":"No","remediated":"No"}},{"type":"Feature","geometry":{"type":"Point","coordinates":[-79.77625,40.41837]},"properties":{"date":"2017-08-29","municipality":"Monroeville","location":"1400 block of Pitcairn Road","traffic_restriction":"No","remediated":"No"}},{"type":"Feature","geometry":{"type":"Point","coordinates":[-79.98784,40.47653]},"properties":{"date":"2018-04-09","municipality":"Reserve","location":"2800 block of Mt. Troy Road","traffic_restriction":"No","remediated":"Yes"}},{"type":"Feature","geometry":{"type":"Point","coordinates":[-80.04502,40.50022]},"properties":{"date":"2019-03-27","municipality":"Ross","location":"400 block of Jacks Run Road","traffic_restriction":"No","remediated":"No"}},{"type":"Feature","geometry":{"type":"Point","coordinates":[-80.24653,40.54184]},"properties":{"date":"2019-06-26","municipality":"Moon","location":"Spring Run Road Extension near Boggs School Road","traffic_restriction":"No","remediated":"No"}},{"type":"Feature","geometry":{"type":"Point","coordinates":[-80.17389,40.54668]},"properties":{"date":"2019-07-18","municipality":"Sewickley/Sewickley Heights","location":"Blackburn Road near War Memorial Park","traffic_restriction":"No","remediated":"No"}},{"type":"Feature","geometry":{"type":"Point","coordinates":[-79.86417,40.41858]},"properties":{"date":"2018-01-22","municipality":"Braddock Hills","location":"1000 block of Wilkins Avenue","traffic_restriction":"No","remediated":"Yes"}},{"type":"Feature","geometry":{"type":"Point","coordinates":[-80.14846,40.55215]},"properties":{"date":null,"municipality":"Sewickley Heights","location":"Fern Hollow Road near Blackburn Road","traffic_restriction":"No","remediated":"Yes"}},{"type":"Feature","geometry":{"type":"Point","coordinates":[-80.13837,40.63905]},"properties":{"date":"2018-05-18","municipality":"Marshall","location":"1900 block of Warrendale Bayne Road","traffic_restriction":"No","remediated":"No"}},{"type":"Feature","geometry":{"type":"Point","coordinates":[-80.1271,40.53411]},"properties":{"date":"2017-12-07","municipality":"Aleppo","location":"400 block of Glenfield Road","traffic_restriction":"No","remediated":"Yes"}},{"type":"Feature","geometry":{"type":"Point","coordinates":[-80.20542,40.56768]},"properties":{"date":"2015-07-13","municipality":"Leet","location":"80 block of Camp Meeting Road","traffic_restriction":"No","remediated":"No"}},{"type":"Feature","geometry":{"type":"Point","coordinates":[-79.95205,40.52395]},"properties":{"date":"2017-12-06","municipality":"Shaler","location":"1000 block of Glenn Avenue","traffic_restriction":"No","remediated":"No"}},{"type":"Feature","geometry":{"type":"Point","coordinates":[-80.12514,40.53841]},"properties":{"date":"2025-05-08","municipality":"Sewickley Hills","location":"600 block of Glenfield Road","traffic_restriction":"No","remediated":"No"}},{"type":"Feature","geometry":{"type":"Point","coordinates":[-80.12555,40.53684]},"properties":{"date":"2019-07-15","municipality":"Aleppo","location":"500 block of Glenfield Road","traffic_restriction":"No","remediated":"Yes"}},{"type":"Feature","geometry":{"type":"Point","coordinates":[-79.82604,40.22673]},"properties":{"date":"2019-04-10","municipality":"Elizabeth Township","location":"900 block of Pineview Drive","traffic_restriction":"No","remediated":"No"}},{"type":"Feature","geometry":{"type":"Point","coordinates":[-80.12758,40.53205]},"properties":{"date":"2017-12-07","municipality":"Aleppo","location":"400 block of Glenfield Road","traffic_restriction":"No","remediated":"Yes"}},{"type":"Feature","geometry":{"type":"Point","coordinates":[-79.91011,40.38837]},"properties":{"date":null,"municipality":"Munhall","location":"3400 block of West Run Road","traffic_restriction":"No","remediated":"No"}},{"type":"Feature","geometry":{"type":"Point","coordinates":[-79.91125,40.38775]},"properties":{"date":null,"municipality":"Munhall","location":"3400 block of West Run Road","traffic_restriction":"No","remediated":"Yes"}},{"type":"Feature","geometry":{"type":"Point","coordinates":[-79.91229,40.38678]},"properties":{"date":null,"municipality":"Munhall","location":"3500 block of West Run Road","traffic_restriction":"No","remediated":"No"}},{"type":"Feature","geometry":{"type":"Point","coordinates":[-79.80009,40.41544]},"properties":{"date":"2013-11-15","municipality":"Monroeville","location":"Wilmerding-Monroeville Road near Patton Street","traffic_restriction":"No","remediated":"Yes"}},{"type":"Feature","geometry":{"type":"Point","coordinates":[-80.22447,40.55465]},"properties":{"date":"2018-04-11","municipality":"Crescent","location":"200 block of Spring Run Road","traffic_restriction":"No","remediated":"No"}},{"type":"Feature","geometry":{"type":"Point","coordinates":[-80.22314,40.55543]},"properties":{"date":"2018-04-11","municipality":"Crescent","location":"200 block of Spring Run Road","traffic_restriction":"No","remediated":"No"}},{"type":"Feature","geometry":{"type":"Point","coordinates":[-80.22953,40.55217]},"properties":{"date":"2018-04-19","municipality":"Crescent","location":"200 block of Spring Run Road","traffic_restriction":"No","remediated":"Yes"}},{"type":"Feature","geometry":{"type":"Point","coordinates":[-80.12729,40.53293]},"properties":{"date":"2017-12-07","municipality":"Aleppo","location":"400 block of Glenfield Road","traffic_restriction":"No","remediated":"Yes"}},{"type":"Feature","geometry":{"type":"Point","coordinates":[-80.12306,40.54284]},"properties":{"date":"2017-12-07","municipality":"Sewickley Hills","location":"900 block of Glenfield Road","traffic_restriction":"No","remediated":"Yes"}},{"type":"Feature","geometry":{"type":"Point","coordinates":[-79.90905,40.29339]},"properties":{"date":"2018-06-04","municipality":"Jefferson Hills","location":"1500 block of Worthington Avenue","traffic_restriction":"No","remediated":"Yes"}},{"type":"Feature","geometry":{"type":"Point","coordinates":[-79.79945,40.2747]},"properties":{"date":"2018-09-27","municipality":"Elizabeth Township","location":"Rock Run Road near Industry Road","traffic_restriction":"No","remediated":"Yes"}},{"type":"Feature","geometry":{"type":"Point","coordinates":[-80.07323,40.476]},"properties":{"date":"2018-04-11","municipality":"Stowe","location":"200 block of McCoy Road","traffic_restriction":"No","remediated":"Yes"}},{"type":"Feature","geometry":{"type":"Point","coordinates":[-80.06125,40.32904]},"properties":{"date":"2018-06-05","municipality":"Bethel Park","location":"3000 block of Bethel Church Road","traffic_restriction":"No","remediated":"Yes"}},{"type":"Feature","geometry":{"type":"Point","coordinates":[-79.95767,40.32197]},"properties":{"date":"2018-09-28","municipality":"Pleasant Hills","location":"700 block of Gill Hall Road","traffic_restriction":"No","remediated":"Yes"}},{"type":"Feature","geometry":{"type":"Point","coordinates":[-80.1584,40.58993]},"properties":{"date":"2019-07-12","municipality":"Bell Acres","location":"1600 block of Camp Meeting Road","traffic_restriction":"No","remediated":"Yes"}},{"type":"Feature","geometry":{"type":"Point","coordinates":[-79.92587,40.41694]},"properties":{"date":"2019-02-09","municipality":"Pittsburgh","location":"4500 block of Browns Hill Road","traffic_restriction":"No","remediated":"No"}},{"type":"Feature","geometry":{"type":"Point","coordinates":[-79.99327,40.51269]},"properties":{"date":null,"municipality":"Ross","location":"200 block of Thompson Run Road","traffic_restriction":"No","remediated":"No"}},{"type":"Feature","geometry":{"type":"Point","coordinates":[-79.98739,40.47549]},"properties":{"date":"2018-04-09","municipality":"Reserve","location":"2800 block of Mt. Troy Road","traffic_restriction":"No","remediated":"Yes"}},{"type":"Feature","geometry":{"type":"Point","coordinates":[-80.1247,40.37312]},"properties":{"date":"2017-12-11","municipality":"Collier","location":"5100 block of Thoms Run Road","traffic_restriction":"No","remediated":"Yes"}},{"type":"Feature","geometry":{"type":"Point","coordinates":[-79.99166,40.484]},"properties":{"date":"2016-04-11","municipality":"Reserve","location":"3200 block of Mt. Troy Road","traffic_restriction":"No","remediated":"Yes"}},{"type":"Feature","geometry":{"type":"Point","coordinates":[-79.95702,40.35739]},"properties":{"date":"2017-10-16","municipality":"Baldwin Borough","location":"About 270 feet north of Streets Run Road","traffic_restriction":"No","remediated":"No"}},{"type":"Feature","geometry":{"type":"Point","coordinates":[-79.82708,40.28595]},"properties":{"date":"2018-09-20","municipality":"Elizabeth Township","location":"200 block of Broadlawn Drive","traffic_restriction":"No","remediated":"Yes"}},{"type":"Feature","geometry":{"type":"Point","coordinates":[-80.21409,40.47662]},"properties":{"date":"2018-06-18","municipality":"Moon","location":"McClaren Road between Sabre Road and Resurrection Road","traffic_restriction":"No","remediated":"Yes"}},{"type":"Feature","geometry":{"type":"Point","coordinates":[-79.99101,40.4831]},"properties":{"date":"2016-08-09","municipality":"Reserve","location":"3200 block of Mt. Troy Road","traffic_restriction":"No","remediated":"Yes"}},{"type":"Feature","geometry":{"type":"Point","coordinates":[-79.91993,40.32375]},"properties":{"date":"2018-09-13","municipality":"Jefferson Hills","location":"300 block of Coal Valley Road","traffic_restriction":"No","remediated":"No"}},{"type":"Feature","geometry":{"type":"Point","coordinates":[-80.12686,40.37256]},"properties":{"date":"2019-07-18","municipality":"Collier","location":"5100 block of Thoms Run Road","traffic_restriction":"No","remediated":"Yes"}},{"type":"Feature","geometry":{"type":"Point","coordinates":[-80.09831,40.41549]},"properties":{"date":"2017-12-07","municipality":"Carnegie","location":"1000 block of Campbells Run Road","traffic_restriction":"No","remediated":"Yes"}},{"type":"Feature","geometry":{"type":"Point","coordinates":[-79.83339,40.40769]},"properties":{"date":"2016-05-24","municipality":"Wilkins","location":"Penn Avenue Extension near Aliquippa Street","traffic_restriction":"No","remediated":"Yes"}},{"type":"Feature","geometry":{"type":"Point","coordinates":[-79.8343,40.41068]},"properties":{"date":"2016-05-24","municipality":"Wilkins","location":"Greensburg Pike near Dorothy Street","traffic_restriction":"No","remediated":"No"}},{"type":"Feature","geometry":{"type":"Point","coordinates":[-79.93541,40.31848]},"properties":{"date":"2019-09-24","municipality":"Jefferson Hills","location":"600 block of Coal Valley Road","traffic_restriction":"No","remediated":"No"}},{"type":"Feature","geometry":{"type":"Point","coordinates":[-80.00622,40.49779]},"properties":{"date":"2014-09-18","municipality":"Ross","location":"4500 block of Mt. Troy Road Extension","traffic_restriction":"Yes","remediated":"No"}},{"type":"Feature","geometry":{"type":"Point","coordinates":[-79.99646,40.48898]},"properties":{"date":"2017-12-12","municipality":"Reserve","location":"3900 block of Spring Garden Road","traffic_restriction":"No","remediated":"Yes"}},{"type":"Feature","geometry":{"type":"Point","coordinates":[-80.23255,40.55245]},"properties":{"date":"2018-06-29","municipality":"Crescent","location":"200 block of Spring Run Road","traffic_restriction":"No","remediated":"Yes"}},{"type":"Feature","geometry":{"type":"Point","coordinates":[-79.99954,40.49753]},"properties":{"date":"2012-05-21","municipality":"Ross","location":"4400 block of Mt. Troy Road Extension","traffic_restriction":"No","remediated":"Yes"}},{"type":"Feature","geometry":{"type":"Point","coordinates":[-80.0002,40.51399]},"properties":{"date":"2017-02-02","municipality":"Ross","location":"2300 block of Evergreen Road","traffic_restriction":"No","remediated":"Yes"}},{"type":"Feature","geometry":{"type":"Point","coordinates":[-79.99585,40.5456]},"properties":{"date":"2018-04-20","municipality":"Ross","location":"700 block of Thompson Run Road","traffic_restriction":"No","remediated":"Yes"}},{"type":"Feature","geometry":{"type":"Point","coordinates":[-79.98989,40.33433]},"properties":{"date":"2018-04-17","municipality":"Baldwin Borough","location":"5500 block of Horning Road","traffic_restriction":"No","remediated":"Yes"}},{"type":"Feature","geometry":{"type":"Point","coordinates":[-79.99886,40.5138]},"properties":{"date":"2018-04-16","municipality":"Ross","location":"2200 block of Evergreen Road","traffic_restriction":"No","remediated":"Yes"}},{"type":"Feature","geometry":{"type":"Point","coordinates":[-79.80202,40.61053]},"properties":{"date":"2018-05-24","municipality":"Frazier","location":"900 block of Bailey's Run Road","traffic_restriction":"No","remediated":"Yes"}},{"type":"Feature","geometry":{"type":"Point","coordinates":[-80.2221,40.55592]},"properties":{"date":"2018-04-11","municipality":"Crescent","location":"200 block of Spring Run Road","traffic_restriction":"No","remediated":"Yes"}},{"type":"Feature","geometry":{"type":"Point","coordinates":[-79.88323,40.23832]},"properties":{"date":"2017-12-05","municipality":"Forward","location":"8900 block of Roberts Hollow Road","traffic_restriction":"No","remediated":"Yes"}},{"type":"Feature","geometry":{"type":"Point","coordinates":[-79.88297,40.24003]},"properties":{"date":null,"municipality":"Forward","location":"8900 block of Roberts Hollow Road","traffic_restriction":"No","remediated":"Yes"}},{"type":"Feature","geometry":{"type":"Point","coordinates":[-80.1687,40.54828]},"properties":{"date":"2012-02-24","municipality":"Sewickley Heights","location":"Blackburn Road near Thawmont Drive","traffic_restriction":"No","remediated":"Yes"}},{"type":"Feature","geometry":{"type":"Point","coordinates":[-79.99705,40.48831]},"properties":{"date":"2018-06-19","municipality":"Reserve","location":"3800 block of Spring Garden Road","traffic_restriction":"No","remediated":"Yes"}},{"type":"Feature","geometry":{"type":"Point","coordinates":[-79.79061,40.3037]},"properties":{"date":"2018-09-13","municipality":"South Versailles","location":"600 block of Coulterville Road","traffic_restriction":"No","remediated":"Yes"}},{"type":"Feature","geometry":{"type":"Point","coordinates":[-79.89104,40.34502]},"properties":{"date":"2018-04-20","municipality":"Dravosburg","location":"300 block of Elizabeth Road","traffic_restriction":"No","remediated":"Yes"}},{"type":"Feature","geometry":{"type":"Point","coordinates":[-79.84647,40.23123]},"properties":{"date":"2018-10-04","municipality":"Elizabeth Township","location":"300 block of Pineview Drive","traffic_restriction":"No","remediated":"Yes"}},{"type":"Feature","geometry":{"type":"Point","coordinates":[-80.1516,40.56514]},"properties":{"date":null,"municipality":"Sewickley Heights","location":"Fern Hollow Road near Pink House Road","traffic_restriction":"No","remediated":"Yes"}},{"type":"Feature","geometry":{"type":"Point","coordinates":[-79.89196,40.37296]},"properties":{"date":null,"municipality":"West Mifflin","location":"4400 block of Homestead-Duquesne Road","traffic_restriction":"No","remediated":"Yes"}},{"type":"Feature","geometry":{"type":"Point","coordinates":[-79.81827,40.28515]},"properties":{"date":"2017-12-05","municipality":"Elizabeth Township","location":"500 block of Broadlawn Drive","traffic_restriction":"No","remediated":"Yes"}},{"type":"Feature","geometry":{"type":"Point","coordinates":[-79.8811,40.24254]},"properties":{"date":"2017-12-05","municipality":"Elizabeth Township","location":"8800 block of Roberts Hollow Road","traffic_restriction":"No","remediated":"No"}},{"type":"Feature","geometry":{"type":"Point","coordinates":[-80.12982,40.52938]},"properties":{"date":null,"municipality":"Sewickley Hills","location":"300 block of Glenfield Road","traffic_restriction":"No","remediated":"Yes"}},{"type":"Feature","geometry":{"type":"Point","coordinates":[-79.98725,40.32651]},"properties":{"date":"2019-08-22","municipality":"South Park","location":"5900 block of Curry Road","traffic_restriction":"No","remediated":"No"}},{"type":"Feature","geometry":{"type":"Point","coordinates":[-79.95693,40.35729]},"properties":{"date":"2020-03-23","municipality":"Baldwin Borough","location":"About 270 feet north of Streets Run Road","traffic_restriction":"No","remediated":"Yes"}},{"type":"Feature","geometry":{"type":"Point","coordinates":[-80.24488,40.54214]},"properties":{"date":"2020-04-02","municipality":"Moon","location":"1200 block of Spring Run Road Extension","traffic_restriction":"No","remediated":"No"}},{"type":"Feature","geometry":{"type":"Point","coordinates":[-80.23017,40.45522]},"properties":{"date":"2020-04-27","municipality":"North Fayette","location":"900 block of Cliff Mine Road","traffic_restriction":"No","remediated":"Yes"}},{"type":"Feature","geometry":{"type":"Point","coordinates":[-79.95811,40.372]},"properties":{"date":"2020-04-20","municipality":"Baldwin Borough","location":"3800 block of Schuette Road","traffic_restriction":"No","remediated":"No"}},{"type":"Feature","geometry":{"type":"Point","coordinates":[-80.02189,40.53808]},"properties":{"date":"2020-04-18","municipality":"Ross","location":"3400 block of Evergreen Road","traffic_restriction":"No","remediated":"No"}},{"type":"Feature","geometry":{"type":"Point","coordinates":[-79.80301,40.39269]},"properties":{"date":"2020-04-08","municipality":"Wall","location":"1200 block of Fifth Avenue","traffic_restriction":"No","remediated":"No"}},{"type":"Feature","geometry":{"type":"Point","coordinates":[-79.83798,40.2407]},"properties":{"date":"2020-04-27","municipality":"Elizabeth Township","location":"Round Hill Road near Simpson Howell Road","traffic_restriction":"No","remediated":"No"}},{"type":"Feature","geometry":{"type":"Point","coordinates":[-80.12932,40.37245]},"properties":{"date":null,"municipality":"Collier","location":"5100 block of Thoms Run Road","traffic_restriction":"No","remediated":"No"}},{"type":"Feature","geometry":{"type":"Point","coordinates":[-80.18958,40.58271]},"properties":{"date":"2020-05-19","municipality":"Bell Acres","location":"800 block of Camp Meeting Road","traffic_restriction":"No","remediated":"Yes"}},{"type":"Feature","geometry":{"type":"Point","coordinates":[-80.18606,40.58279]},"properties":{"date":"2020-05-19","municipality":"Bell Acres","location":"800 block of Camp Meeting Road","traffic_restriction":"No","remediated":"Yes"}},{"type":"Feature","geometry":{"type":"Point","coordinates":[-79.87134,40.47892]},"properties":{"date":null,"municipality":"Penn Hills","location":"8100 block of Nadine Road","traffic_restriction":"No","remediated":"Yes"}},{"type":"Feature","geometry":{"type":"Point","coordinates":[-79.86667,40.47665]},"properties":{"date":"2019-07-12","municipality":"Penn Hills","location":"8200 block of Nadine Road","traffic_restriction":"No","remediated":"Yes"}},{"type":"Feature","geometry":{"type":"Point","coordinates":[-79.86705,40.47672]},"properties":{"date":null,"municipality":"Penn Hills","location":"8200 block of Nadine Road","traffic_restriction":"No","remediated":"Yes"}},{"type":"Feature","geometry":{"type":"Point","coordinates":[-80.07433,40.35896]},"properties":{"date":null,"municipality":"Upper St. Clair","location":"1700 block of Painters Run Road","traffic_restriction":"No","remediated":"Yes"}},{"type":"Feature","geometry":{"type":"Point","coordinates":[-80.14692,40.3787]},"properties":{"date":null,"municipality":"Collier","location":"5000 block of Thoms Run Road","traffic_restriction":"No","remediated":"Yes"}},{"type":"Feature","geometry":{"type":"Point","coordinates":[-79.88675,40.49879]},"properties":{"date":"2021-03-01","municipality":"O'Hara","location":"Delafield Road near Eton Road","traffic_restriction":"No","remediated":"No"}},{"type":"Feature","geometry":{"type":"Point","coordinates":[-79.93845,40.31443]},"properties":{"date":"2019-06-06","municipality":"Jefferson Hills","location":"700 block of Coal Valley Road","traffic_restriction":"No","remediated":"No"}},{"type":"Feature","geometry":{"type":"Point","coordinates":[-79.99585,40.48973]},"properties":{"date":"2021-03-16","municipality":"Reserve","location":"3900 block of Spring Garden Road","traffic_restriction":"No","remediated":"No"}},{"type":"Feature","geometry":{"type":"Point","coordinates":[-80.09101,40.47055]},"properties":{"date":"2021-05-04","municipality":"Kennedy","location":"1700 block of McKees Rocks Road","traffic_restriction":"No","remediated":"Yes"}},{"type":"Feature","geometry":{"type":"Point","coordinates":[-79.97367,40.30249]},"properties":{"date":"2020-08-07","municipality":"South Park","location":"Cochran Mill Road near Wallace Road","traffic_restriction":"No","remediated":"No"}},{"type":"Feature","geometry":{"type":"Point","coordinates":[-80.00296,40.51441]},"properties":{"date":"2019-03-19","municipality":"Ross","location":"Evergreen Road near Park Place","traffic_restriction":"No","remediated":"No"}},{"type":"Feature","geometry":{"type":"Point","coordinates":[-79.77652,40.58994]},"properties":{"date":"2021-07-13","municipality":"East Deer","location":"200 block of Bailey's Run Road","traffic_restriction":"No","remediated":"Yes"}},{"type":"Feature","geometry":{"type":"Point","coordinates":[-79.78326,40.59759]},"properties":{"date":"2021-07-13","municipality":"East Deer","location":"400 block of Bailey's Run Road","traffic_restriction":"No","remediated":"Yes"}},{"type":"Feature","geometry":{"type":"Point","coordinates":[-79.78315,40.59748]},"properties":{"date":"2021-07-13","municipality":"East Deer","location":"400 Block of Bailey's Run Road","traffic_restriction":"No","remediated":"Yes"}},{"type":"Feature","geometry":{"type":"Point","coordinates":[-79.78838,40.58809]},"properties":{"date":"2021-07-15","municipality":"East Deer","location":"400 block of Crawford Run Road","traffic_restriction":"No","remediated":"Yes"}},{"type":"Feature","geometry":{"type":"Point","coordinates":[-79.82008,40.23849]},"properties":{"date":"2022-02-12","municipality":"West Elizabeth","location":"1400 block of Round Hill Road","traffic_restriction":"No","remediated":"No"}},{"type":"Feature","geometry":{"type":"Point","coordinates":[-80.11144,40.3784]},"properties":{"date":"2022-02-18","municipality":"Collier","location":"Thoms Run Road near Steen Road","traffic_restriction":"No","remediated":"No"}},{"type":"Feature","geometry":{"type":"Point","coordinates":[-79.98222,40.32069]},"properties":{"date":"2022-05-09","municipality":"Jefferson Hills","location":"Cochran Mill Road between Zupancic Drive and Will Lane","traffic_restriction":"No","remediated":"No"}},{"type":"Feature","geometry":{"type":"Point","coordinates":[-80.00857,40.60378]},"properties":{"date":"2022-05-03","municipality":"McCandless","location":"Lake Shore Drive near Walter Road","traffic_restriction":"No","remediated":"Yes"}},{"type":"Feature","geometry":{"type":"Point","coordinates":[-80.15539,40.38181]},"properties":{"date":"2023-03-31","municipality":"Collier","location":"Thoms Run Road at Nesbit Road","traffic_restriction":"No","remediated":"No"}},{"type":"Feature","geometry":{"type":"Point","coordinates":[-79.97929,40.39477]},"properties":{"date":"0225-06-02","municipality":"Pittsburgh","location":"300 block of Becks Run Road","traffic_restriction":"No","remediated":"No"}},{"type":"Feature","geometry":{"type":"Point","coordinates":[-80.02977,40.41607]},"properties":{"date":"2025-05-15","municipality":"Pittsburgh","location":"Crane Avenue at Banksville Road","traffic_restriction":"No","remediated":"No"}},{"type":"Feature","geometry":{"type":"Point","coordinates":[-80.21994,40.4693]},"properties":{"date":"2025-05-12","municipality":"Findlay","location":"McClaren Road at Blue Sky Lane","traffic_restriction":"No","remediated":"No"}},{"type":"Feature","geometry":{"type":"Point","coordinates":[-80.15055,40.55818]},"properties":{"date":"2025-04-10","municipality":"Sewickley Heights","location":"Fern Hollow Road near Pony Hollow Road","traffic_restriction":"No","remediated":"No"}},{"type":"Feature","geometry":{"type":"Point","coordinates":[-79.88993,40.49755]},"properties":{"date":"2025-02-03","municipality":"O'Hara","location":"Delafield Road near Woodshire Drive","traffic_restriction":"No","remediated":"No"}},{"type":"Feature","geometry":{"type":"Point","coordinates":[-79.90142,40.27254]},"properties":{"date":"2024-04-11","municipality":"Jefferson Hills","location":"2000 block of Scotia Hollow Road","traffic_restriction":"No","remediated":"No"}},{"type":"Feature","geometry":{"type":"Point","coordinates":[-80.161,40.54286]},"properties":{"date":"2024-04-05","municipality":"Sewickley","location":"300 block of Water Works Road","traffic_restriction":"Yes","remediated":"No"}},{"type":"Feature","geometry":{"type":"Point","coordinates":[-80.02252,40.53865]},"properties":{"date":"2024-04-04","municipality":"Ross","location":"3400 block of Evergreen Road","traffic_restriction":"Yes","remediated":"No"}}],"metadata":{"source":"https://services1.arcgis.com/vdNDkVykv9vEWFX4/arcgis/rest/services/Landslides_DPW/FeatureServer/0","dataset":"Allegheny County DPW landslides","builtAt":"2026-09-26T18:28:21.977Z"}}