{"type":"FeatureCollection","features":[{"type":"Feature","geometry":{"type":"Point","coordinates":[-79.98785,40.47665]},"properties":{"location":"2851 Mt. Troy Rd","municipality":"Allegheny","type":"Road","category":"C - Roads & Bridges","damage":"Damaged","damage_value":460000}},{"type":"Feature","geometry":{"type":"Point","coordinates":[-79.99843,40.51363]},"properties":{"location":"2280 Evergreen Road","municipality":"Allegheny","type":"Debris Removal","category":"A - Debris Removal","damage":"Damaged","damage_value":460000}},{"type":"Feature","geometry":{"type":"Point","coordinates":[-80.0728,40.47564]},"properties":{"location":"McCoy Rd uphill of Harring Hill Rd (Dunn St)","municipality":"Allegheny","type":"Road","category":"C - Roads & Bridges","damage":"Damaged","damage_value":230000}},{"type":"Feature","geometry":{"type":"Point","coordinates":[-79.99576,40.54557]},"properties":{"location":"704-720 Thompson Run Road","municipality":"Allegheny","type":"Road","category":"C - Roads & Bridges","damage":"Damaged","damage_value":460000}},{"type":"Feature","geometry":{"type":"Point","coordinates":[-80.23665,40.5502]},"properties":{"location":"Spring Run Slide East of Florence","municipality":"Allegheny","type":"Road","category":"C - Roads & Bridges","damage":"Damaged","damage_value":230000}},{"type":"Feature","geometry":{"type":"Point","coordinates":[-79.99001,40.33455]},"properties":{"location":"Horning Road ","municipality":"Allegheny","type":"Bridges & Culverts","category":"C - Roads & Bridges","damage":"Damaged","damage_value":161000}},{"type":"Feature","geometry":{"type":"Point","coordinates":[-79.9781,40.31544]},"properties":{"location":"Cochran Mill Road","municipality":"Allegheny","type":"Bridges & Culverts","category":"C - Roads & Bridges","damage":"Damaged","damage_value":57500}},{"type":"Feature","geometry":{"type":"Point","coordinates":[-79.89118,40.34471]},"properties":{"location":"Elizabeth Road","municipality":"Allegheny","type":"Bridges & Culverts","category":"C - Roads & Bridges","damage":"Damaged","damage_value":575000}},{"type":"Feature","geometry":{"type":"Point","coordinates":[-79.80826,40.38914]},"properties":{"location":"Orient Avenue","municipality":"Allegheny, Wilmerding Borough","type":"Road","category":"C - Roads & Bridges","damage":"Damaged","damage_value":209905}},{"type":"Feature","geometry":{"type":"Point","coordinates":[-79.8503,40.41835]},"properties":{"location":"Berkeley Avenue","municipality":"Allegheny, Forest Hills Borough","type":"Road","category":"C - Roads & Bridges","damage":"Damaged","damage_value":200000}},{"type":"Feature","geometry":{"type":"Point","coordinates":[-79.82292,40.40066]},"properties":{"location":"Markle Street","municipality":"Allegheny, North Versailles Township","type":"Road","category":"C - Roads & Bridges","damage":"Damaged","damage_value":250000}},{"type":"Feature","geometry":{"type":"Point","coordinates":[-80.05271,40.53895]},"properties":{"location":"Sunny Drive","municipality":"Allegheny, Ross Township","type":"Road","category":"C - Roads & Bridges","damage":"Damaged","damage_value":540265}},{"type":"Feature","geometry":{"type":"Point","coordinates":[-80.00467,40.50772]},"properties":{"location":"Nelson Run Road","municipality":"Allegheny, Ross Township","type":"Road","category":"C - Roads & Bridges","damage":"Damaged","damage_value":381766}},{"type":"Feature","geometry":{"type":"Point","coordinates":[-79.93119,40.4672]},"properties":{"location":"Fairmont Apartments","municipality":"Allegheny, City of Pittsburgh","type":"County/Municipal Owned Property","category":"E - Buildings & Equipment","damage":"Damaged","damage_value":1500000}},{"type":"Feature","geometry":{"type":"Point","coordinates":[-79.85298,40.28045]},"properties":{"location":"Fuehrer Road","municipality":"Allegheny, Lincoln Borough","type":"Road","category":"C - Roads & Bridges","damage":"Damaged","damage_value":181190}},{"type":"Feature","geometry":{"type":"Point","coordinates":[-79.84529,40.47907]},"properties":{"location":"Barbara Drive","municipality":"Allegheny, Penn Hills Municipality","type":"Road","category":"C - Roads & Bridges","damage":"Destroyed","damage_value":500000}},{"type":"Feature","geometry":{"type":"Point","coordinates":[-79.86376,40.332]},"properties":{"location":"Port Vue Avenue ","municipality":"Allegheny, Port Vue Borough","type":"Road","category":"C - Roads & Bridges","damage":"Damaged","damage_value":500000}},{"type":"Feature","geometry":{"type":"Point","coordinates":[-80.14365,40.50493]},"properties":{"location":"East Windhaven Road","municipality":"Allegheny, Robinson Township","type":"Road","category":"C - Roads & Bridges","damage":"Damaged","damage_value":30000}},{"type":"Feature","geometry":{"type":"Point","coordinates":[-80.10214,40.44419]},"properties":{"location":"Groveton Park","municipality":"Allegheny, Robinson Township","type":"Park","category":"G - Parks/Recreation & Other","damage":"Damaged","damage_value":10000}},{"type":"Feature","geometry":{"type":"Point","coordinates":[-80.08249,40.43648]},"properties":{"location":"Cornell Road","municipality":"Allegheny, Thornburg Borough","type":"Debris Removal","category":"A - Debris Removal","damage":"Damaged","damage_value":40000}},{"type":"Feature","geometry":{"type":"Point","coordinates":[-79.88163,40.4182]},"properties":{"location":"200 blocks of Autumn Way","municipality":"Allegheny, Swissvale Borough","type":"Road","category":"C - Roads & Bridges","damage":"Damaged","damage_value":50000}},{"type":"Feature","geometry":{"type":"Point","coordinates":[-80.11222,40.462]},"properties":{"location":"Aiken Road Ext.","municipality":"Allegheny, Kennedy Township","type":"Road","category":"C - Roads & Bridges","damage":"Damaged","damage_value":1154580}},{"type":"Feature","geometry":{"type":"Point","coordinates":[-80.15797,40.56211]},"properties":{"location":"Pink House Road","municipality":"Allegheny, Sewickley Heights Borough","type":"Road","category":"C - Roads & Bridges","damage":"Damaged","damage_value":289075}},{"type":"Feature","geometry":{"type":"Point","coordinates":[-79.80872,40.54088]},"properties":{"location":"Ridge Road/Low Grade Road","municipality":"Allegheny, Harmar Township","type":"Debris Removal","category":"A - Debris Removal","damage":"Damaged","damage_value":9048}},{"type":"Feature","geometry":{"type":"Point","coordinates":[-79.90974,40.38868]},"properties":{"location":"West Run Streat Blockage","municipality":"Allegheny, West Homestead Borough","type":"Debris Removal","category":"A - Debris Removal","damage":"Damaged","damage_value":30000}},{"type":"Feature","geometry":{"type":"Point","coordinates":[-79.92375,40.39603]},"properties":{"location":"Doyle Avenue Slide","municipality":"Allegheny, West Homestead Borough","type":"Road","category":"C - Roads & Bridges","damage":"Damaged","damage_value":150000}},{"type":"Feature","geometry":{"type":"Point","coordinates":[-79.8849,40.32628]},"properties":{"location":"Summit Avenue Landslide","municipality":"Allegheny, Glassport Borough","type":"Road","category":"C - Roads & Bridges","damage":"Damaged","damage_value":136932}},{"type":"Feature","geometry":{"type":"Point","coordinates":[-79.88745,40.32912]},"properties":{"location":"Oregon Avenue Landslide","municipality":"Allegheny, Glassport Borough","type":"Road","category":"C - Roads & Bridges","damage":"Damaged","damage_value":22368}},{"type":"Feature","geometry":{"type":"Point","coordinates":[-80.30248,40.50601]},"properties":{"location":"Camp Meeting Road","municipality":"Allegheny, Findlay Township","type":"Road","category":"C - Roads & Bridges","damage":"Destroyed","damage_value":450000}},{"type":"Feature","geometry":{"type":"Point","coordinates":[-80.17256,40.53339]},"properties":{"location":"Beaver Road Retaining Wall","municipality":"Allegheny, Edgeworth Borough","type":"County/Municipal Owned Property","category":"E - Buildings & Equipment","damage":"Damaged","damage_value":64100}},{"type":"Feature","geometry":{"type":"Point","coordinates":[-80.04716,40.29214]},"properties":{"location":"6399 Irishtown Rd Sanitary Sewer","municipality":"Allegheny, Bethel Park Borough","type":"Sanitary Sewer","category":"F - Public Utilities","damage":"Damaged","damage_value":110000}},{"type":"Feature","geometry":{"type":"Point","coordinates":[-79.97044,40.32816]},"properties":{"location":"Sanitary Sewer (Arbor Lane)","municipality":"Allegheny, Pleasant Hills Borough","type":"Sanitary Sewer","category":"F - Public Utilities","damage":"Destroyed","damage_value":471140}},{"type":"Feature","geometry":{"type":"Point","coordinates":[-79.81428,40.42262]},"properties":{"location":"Thompson Run Penn Hills","municipality":"Allegheny, Penn Hills Municipality","type":"Sanitary Sewer","category":"F - Public Utilities","damage":"Damaged","damage_value":142613}},{"type":"Feature","geometry":{"type":"Point","coordinates":[-79.82884,40.41928]},"properties":{"location":"Thompson Run Interceptor","municipality":"Allegheny, Wilkins Township","type":"Sanitary Sewer","category":"F - Public Utilities","damage":"Damaged","damage_value":12564}},{"type":"Feature","geometry":{"type":"Point","coordinates":[-80.06053,40.5014]},"properties":{"location":"Orchard Avenue Sanitary Sewer","municipality":"Allegheny, Bellevue Borough","type":"Storm Sewer","category":"F - Public Utilities","damage":"Destroyed","damage_value":23800}},{"type":"Feature","geometry":{"type":"Point","coordinates":[-79.97407,40.48446]},"properties":{"location":"Mary Street Landslide","municipality":"Allegheny, Millvale Borough","type":"Debris Removal","category":"A - Debris Removal","damage":"Destroyed","damage_value":38700}},{"type":"Feature","geometry":{"type":"Point","coordinates":[-80.0827,40.38558]},"properties":{"location":"Pint Trees Drive","municipality":"Allegheny, Scott Township","type":"Storm Sewer","category":"F - Public Utilities","damage":"Damaged","damage_value":6350}},{"type":"Feature","geometry":{"type":"Point","coordinates":[-80.10932,40.38988]},"properties":{"location":"Hilltop Park","municipality":"Allegheny, Collier Township","type":"Park","category":"G - Parks/Recreation & Other","damage":"Damaged","damage_value":135851}},{"type":"Feature","geometry":{"type":"Point","coordinates":[-79.77606,40.41328]},"properties":{"location":"Coal Street","municipality":"Allegheny, Pitcairn Borough","type":"Emergency Protective Measure","category":"B - Emergency Protective Measure","damage":"Damaged","damage_value":4036}},{"type":"Feature","geometry":{"type":"Point","coordinates":[-79.77646,40.41187]},"properties":{"location":"Ravine Street","municipality":"Allegheny, Pitcairn Borough","type":"Emergency Protective Measure","category":"B - Emergency Protective Measure","damage":"Damaged","damage_value":2917}},{"type":"Feature","geometry":{"type":"Point","coordinates":[-79.77734,40.41627]},"properties":{"location":"Wall Ave","municipality":"Allegheny, Pitcairn Borough","type":"Park","category":"G - Parks/Recreation & Other","damage":"Damaged","damage_value":2620}},{"type":"Feature","geometry":{"type":"Point","coordinates":[-79.9424,40.26425]},"properties":{"location":"Bedell Road","municipality":"Allegheny, Jefferson Hills Borough","type":"Road","category":"C - Roads & Bridges","damage":"Damaged","damage_value":75000}},{"type":"Feature","geometry":{"type":"Point","coordinates":[-79.96988,40.30048]},"properties":{"location":"West Waterman Road","municipality":"Allegheny, Jefferson Hills Borough","type":"Road","category":"C - Roads & Bridges","damage":"Damaged","damage_value":100000}},{"type":"Feature","geometry":{"type":"Point","coordinates":[-79.92971,40.30087]},"properties":{"location":"Behind 1450 Route 51","municipality":"Allegheny, Jefferson Hills Borough","type":"Sanitary Sewer","category":"F - Public Utilities","damage":"Damaged","damage_value":80000}},{"type":"Feature","geometry":{"type":"Point","coordinates":[-79.92001,40.29654]},"properties":{"location":"Lewis Run Road","municipality":"Allegheny, Jefferson Hills Borough","type":"Sanitary Sewer","category":"F - Public Utilities","damage":"Damaged","damage_value":90000}},{"type":"Feature","geometry":{"type":"Point","coordinates":[-79.89625,40.40815]},"properties":{"location":"820 Hall Street","municipality":"Allegheny, Munhall Borough","type":"Emergency Protective Measure","category":"B - Emergency Protective Measure","damage":"Destroyed","damage_value":10495}},{"type":"Feature","geometry":{"type":"Point","coordinates":[-80.04212,40.3169]},"properties":{"location":"Bethel Park Sanitary Sewer","municipality":"Allegheny, Bethel Park Borough","type":"Sanitary Sewer","category":"F - Public Utilities","damage":"Damaged","damage_value":200000}},{"type":"Feature","geometry":{"type":"Point","coordinates":[-80.03554,40.29533]},"properties":{"location":"Simmons Park","municipality":"Allegheny, Bethel Park Borough","type":"Park","category":"G - Parks/Recreation & Other","damage":"Damaged","damage_value":110000}},{"type":"Feature","geometry":{"type":"Point","coordinates":[-80.03617,40.3125]},"properties":{"location":"Unnamed tributary to Piney Fork","municipality":"Allegheny, Bethel Park Borough","type":"Other","category":"G - Parks/Recreation & Other","damage":"Damaged","damage_value":115000}},{"type":"Feature","geometry":{"type":"Point","coordinates":[-80.01089,40.37489]},"properties":{"location":"909 and 911 Edgewood Ave. and 904 Oakdale Ave.","municipality":"Allegheny, Castle Shannon Borough","type":"Sanitary Sewer","category":"F - Public Utilities","damage":"Damaged","damage_value":312900}},{"type":"Feature","geometry":{"type":"Point","coordinates":[-79.92088,40.37822]},"properties":{"location":"Mooney Rd- New Homestead/ Lincoln Place","municipality":"Allegheny, City of Pittsburgh","type":"Debris Removal","category":"A - Debris Removal","damage":"Damaged","damage_value":500000}},{"type":"Feature","geometry":{"type":"Point","coordinates":[-79.9125,40.4266]},"properties":{"location":"Forward Ave- Squirrel Hill","municipality":"Allegheny, City of Pittsburgh","type":"Road","category":"C - Roads & Bridges","damage":"Damaged","damage_value":0}},{"type":"Feature","geometry":{"type":"Point","coordinates":[-79.92827,40.38932]},"properties":{"location":"Granger St- Hays","municipality":"Allegheny, City of Pittsburgh","type":"Road","category":"C - Roads & Bridges","damage":"Damaged","damage_value":0}},{"type":"Feature","geometry":{"type":"Point","coordinates":[-79.99106,40.42632]},"properties":{"location":"Newton St- Mount Washington","municipality":"Allegheny, City of Pittsburgh","type":"Road","category":"C - Roads & Bridges","damage":"Damaged","damage_value":251000}},{"type":"Feature","geometry":{"type":"Point","coordinates":[-79.99179,40.462]},"properties":{"location":"Diana St- Spring Hill","municipality":"Allegheny, City of Pittsburgh","type":"Road","category":"C - Roads & Bridges","damage":"Damaged","damage_value":150000}},{"type":"Feature","geometry":{"type":"Point","coordinates":[-80.00033,40.46873]},"properties":{"location":"Gershon St- Spring Hill","municipality":"Allegheny, City of Pittsburgh","type":"Road","category":"C - Roads & Bridges","damage":"Damaged","damage_value":254000}},{"type":"Feature","geometry":{"type":"Point","coordinates":[-80.00378,40.42785]},"properties":{"location":"William St- Mount Washington","municipality":"Allegheny, City of Pittsburgh","type":"Road","category":"C - Roads & Bridges","damage":"Damaged","damage_value":417000}},{"type":"Feature","geometry":{"type":"Point","coordinates":[-80.03161,40.43885]},"properties":{"location":"Greenleaf- Duquesne Height","municipality":"Allegheny, City of Pittsburgh","type":"Road","category":"C - Roads & Bridges","damage":"Damaged","damage_value":1705000}},{"type":"Feature","geometry":{"type":"Point","coordinates":[-79.97298,40.48545]},"properties":{"location":"Mary St","municipality":"Allegheny, Millvale Borough","type":"Bridges & Culverts","category":"C - Roads & Bridges","damage":"Damaged","damage_value":100080}},{"type":"Feature","geometry":{"type":"Point","coordinates":[-79.77866,40.40707]},"properties":{"location":"Center Ave.","municipality":"Allegheny, Pitcairn Borough","type":"Bridges & Culverts","category":"C - Roads & Bridges","damage":"Damaged","damage_value":2510080}},{"type":"Feature","geometry":{"type":"Point","coordinates":[-79.77704,40.4168]},"properties":{"location":"Sugar Camp Park","municipality":"Allegheny, Pitcairn Borough","type":"Park","category":"G - Parks/Recreation & Other","damage":"Damaged","damage_value":11329}},{"type":"Feature","geometry":{"type":"Point","coordinates":[-79.77306,40.40316]},"properties":{"location":"Hillside Ave","municipality":"Allegheny, Pitcairn Borough","type":"Bridges & Culverts","category":"C - Roads & Bridges","damage":"Destroyed","damage_value":1016020}},{"type":"Feature","geometry":{"type":"Point","coordinates":[-79.97733,40.47334]},"properties":{"location":"Pittview Avenue","municipality":"Allegheny, Reserve Township","type":"Road","category":"C - Roads & Bridges","damage":"Destroyed","damage_value":3345000}},{"type":"Feature","geometry":{"type":"Point","coordinates":[-79.96107,40.36063]},"properties":{"location":"Prospect Rd (Between Beryl Dr and Hollyrood Rd)","municipality":"Allegheny, Baldwin Borough","type":"Road","category":"C - Roads & Bridges","damage":"Damaged","damage_value":0}},{"type":"Feature","geometry":{"type":"Point","coordinates":[-79.85278,40.47364]},"properties":{"location":"4500 Block Verona Rd (Between Sandy Creek Rd and Lincoln Rd)","municipality":"Allegheny, Penn Hills Township","type":"Road","category":"C - Roads & Bridges","damage":"Damaged","damage_value":0}},{"type":"Feature","geometry":{"type":"Point","coordinates":[-79.92088,40.20487]},"properties":{"location":"Bunola River Rd (Between Elkhorn Rd and River Hill Rd)","municipality":"Allegheny, Forward Township","type":"Road","category":"C - Roads & Bridges","damage":"Damaged","damage_value":0}},{"type":"Feature","geometry":{"type":"Point","coordinates":[-79.77054,40.5522]},"properties":{"location":"2700 Block Freeport Rd","municipality":"Allegheny, Springdale Township","type":"Road","category":"C - Roads & Bridges","damage":"Damaged","damage_value":0}},{"type":"Feature","geometry":{"type":"Point","coordinates":[-79.86115,40.35764]},"properties":{"location":"Route 837","municipality":"Allegheny, West Mifflin Borough","type":"Road","category":"C - Roads & Bridges","damage":"Damaged","damage_value":0}},{"type":"Feature","geometry":{"type":"Point","coordinates":[-79.8912,40.51083]},"properties":{"location":"Hunt Rd/Squaw Run Rd","municipality":"Allegheny, Fox Chapel Borough","type":"Road","category":"C - Roads & Bridges","damage":"Damaged","damage_value":0}},{"type":"Feature","geometry":{"type":"Point","coordinates":[-80.07148,40.42472]},"properties":{"location":"2700 Block Morange Rd","municipality":"Allegheny, City of Pittsburgh","type":"Road","category":"C - Roads & Bridges","damage":"Damaged","damage_value":0}},{"type":"Feature","geometry":{"type":"Point","coordinates":[-80.05361,40.53881]},"properties":{"location":"Reis Run Rd","municipality":"Allegheny, Ross Township","type":"Road","category":"C - Roads & Bridges","damage":"Damaged","damage_value":0}},{"type":"Feature","geometry":{"type":"Point","coordinates":[-80.17318,40.58743]},"properties":{"location":"189 Turkey Foot Rd","municipality":"Allegheny, Bell Acres Borough","type":"Road","category":"C - Roads & Bridges","damage":"Damaged","damage_value":0}},{"type":"Feature","geometry":{"type":"Point","coordinates":[-79.96295,40.35176]},"properties":{"location":"2100 Block Streets Run Rd","municipality":"Allegheny, Baldwin Borough","type":"Road","category":"C - Roads & Bridges","damage":"Damaged","damage_value":0}},{"type":"Feature","geometry":{"type":"Point","coordinates":[-79.99558,40.44434]},"properties":{"location":"10th St/Penn Ave","municipality":"Allegheny, City of Pittsburgh","type":"Road","category":"C - Roads & Bridges","damage":"Damaged","damage_value":0}},{"type":"Feature","geometry":{"type":"Point","coordinates":[-80.03875,40.43647]},"properties":{"location":"Noblestown Rd/Weaver St","municipality":"Allegheny, City of Pittsburgh","type":"Road","category":"C - Roads & Bridges","damage":"Damaged","damage_value":0}},{"type":"Feature","geometry":{"type":"Point","coordinates":[-79.88176,40.31364]},"properties":{"location":"Lincoln Blvd","municipality":"Allegheny, Lincoln Borough","type":"Road","category":"C - Roads & Bridges","damage":"Damaged","damage_value":0}},{"type":"Feature","geometry":{"type":"Point","coordinates":[-80.016,40.41]},"properties":{"location":"West Liberty Ave/Brookside Ave","municipality":"Allegheny, City of Pittsburgh","type":"Road","category":"C - Roads & Bridges","damage":"Damaged","damage_value":0}},{"type":"Feature","geometry":{"type":"Point","coordinates":[-80.053,40.453]},"properties":{"location":"2724 Chartiers Ave","municipality":"Allegheny, City of Pittsburgh","type":"County/Municipal Owned Property","category":"G - Parks/Recreation & Other","damage":"Damaged","damage_value":0}},{"type":"Feature","geometry":{"type":"Point","coordinates":[-79.986,40.524]},"properties":{"location":"143 Danube Dr","municipality":"Allegheny, Shaler Township","type":"County/Municipal Owned Property","category":"G - Parks/Recreation & Other","damage":"Damaged","damage_value":0}},{"type":"Feature","geometry":{"type":"Point","coordinates":[-79.908,40.475]},"properties":{"location":"Washington Blvd/Highland Dr","municipality":"Allegheny, City of Pittsburgh","type":"Road","category":"C - Roads & Bridges","damage":"Damaged","damage_value":0}},{"type":"Feature","geometry":{"type":"Point","coordinates":[-80.032,40.491]},"properties":{"location":"Transvaal Ave/Flora St","municipality":"Allegheny, City of Pittsburgh","type":"Road","category":"C - Roads & Bridges","damage":"Damaged","damage_value":0}},{"type":"Feature","geometry":{"type":"Point","coordinates":[-80.106,40.361]},"properties":{"location":"Union St (Across from 188 Union St)","municipality":"Allegheny, Bridgeville Borough","type":"Road","category":"C - Roads & Bridges","damage":"Damaged","damage_value":0}},{"type":"Feature","geometry":{"type":"Point","coordinates":[-79.909,40.474]},"properties":{"location":"1401 Washington Blvd","municipality":"Allegheny, City of Pittsburgh","type":"Road","category":"C - Roads & Bridges","damage":"Damaged","damage_value":0}},{"type":"Feature","geometry":{"type":"Point","coordinates":[-80.22,40.546]},"properties":{"location":"Purdy Rd (Near 7 McGovern Rd)","municipality":"Allegheny, Crescent Township","type":"Road","category":"C - Roads & Bridges","damage":"Damaged","damage_value":0}},{"type":"Feature","geometry":{"type":"Point","coordinates":[-79.884,40.269]},"properties":{"location":"Route 51/Penneman Dr","municipality":"Allegheny Elizabeth Township","type":"Road","category":"C - Roads & Bridges","damage":"Damaged","damage_value":0}},{"type":"Feature","geometry":{"type":"Point","coordinates":[-79.936,40.497]},"properties":{"location":"High St","municipality":"Allegheny, Sharpsburg","type":"Embankment","category":"A - Debris Removal","damage":"Damaged","damage_value":0}}],"metadata":{"source":"https://services1.arcgis.com/vdNDkVykv9vEWFX4/arcgis/rest/services/Landslide_Public_Assistance/FeatureServer/0","builtAt":"2026-09-26T19:46:14.889Z"}}