{"type":"FeatureCollection","features":[{"type":"Feature","geometry":{"type":"Point","coordinates":[-80.0314,40.33215]},"properties":{"name":"Magisterial District 05-2-20","address":"5100 West Library Avenue, Bethel Park 15102","coverage":"Bethel Park, Upper St Clair"}},{"type":"Feature","geometry":{"type":"Point","coordinates":[-79.74317,40.6132]},"properties":{"name":"Magisterial District 05-2-05","address":"1010 Broadview Boulevard, Brackenridge 15014","coverage":"Brackenridge, East Deer, Fawn, Harrison, Tarentum"}},{"type":"Feature","geometry":{"type":"Point","coordinates":[-80.13498,40.35363]},"properties":{"name":"Magisterial District 05-2-21","address":"295 Millers Run Road, Bridgeville 15017","coverage":"Bridgeville, Collier,South Fayette"}},{"type":"Feature","geometry":{"type":"Point","coordinates":[-80.08402,40.38697]},"properties":{"name":"Magisterial District 05-2-22","address":"301 Lindsay Road, Carnegie 15106","coverage":"Greentree, Heidelberg, Scott"}},{"type":"Feature","geometry":{"type":"Point","coordinates":[-79.82019,40.54753]},"properties":{"name":"Magisterial District 05-3-03","address":"721 Gulf Lab Road, Cheswick 15024","coverage":"Cheswick, Frazier, Harmar, Springdale"}},{"type":"Feature","geometry":{"type":"Point","coordinates":[-80.16571,40.51814]},"properties":{"name":"Magisterial District 05-2-25","address":"923 Fifth Avenue, Coraopolis 15108","coverage":"Coraopolis, Crescent, Moon, Neville"}},{"type":"Feature","geometry":{"type":"Point","coordinates":[-79.85413,40.22763]},"properties":{"name":"Magisterial District 05-2-26","address":"2611 Hayden Boulevard, Suite 3, Elizabeth 15037","coverage":"Elizabeth, Elizabeth,Forward,West Elizabeth"}},{"type":"Feature","geometry":{"type":"Point","coordinates":[-79.85053,40.42052]},"properties":{"name":"Magisterial District 05-2-08","address":"2065 Ardmore Blvd, Forest Hills 15221","coverage":"Braddock Hills, Chalfant,Churchill,Forest Hills,Swissvale"}},{"type":"Feature","geometry":{"type":"Point","coordinates":[-79.86166,40.62577]},"properties":{"name":"Magisterial District 05-3-04","address":"2060 Saxonburg Boulevard, Gibsonia 15044","coverage":"Creighton, Hampton,Richland,West Deer"}},{"type":"Feature","geometry":{"type":"Point","coordinates":[-79.89261,40.3226]},"properties":{"name":"Magisterial District 05-3-09","address":"800 Monongahela Avenue, Glassport 15045","coverage":"Clairton, Glassport, Liberty, Port Vue"}},{"type":"Feature","geometry":{"type":"Point","coordinates":[-80.2225,40.5772]},"properties":{"name":"Magisterial District 05-3-02","address":"190 Ohio River Blvd, Leetsdale 15056","coverage":"Aleppo, Bell Acres,Edgeworth,Franklin Park,Haysville,Leet,Leetsdale,Osborne,Sewickley,Sewickley Heights,Sewickley Hills"}},{"type":"Feature","geometry":{"type":"Point","coordinates":[-80.05795,40.4641]},"properties":{"name":"Magisterial District 05-3-06","address":"301 Chartiers Avenue, Pittsburgh' 15136","coverage":"McKees Rocks, Stowe"}},{"type":"Feature","geometry":{"type":"Point","coordinates":[-80.131,40.45181]},"properties":{"name":"Magisterial District 05-2-43","address":"5624 Steubenville Pike, McKees Rocks 15136","coverage":"Kennedy, Robinson"}},{"type":"Feature","geometry":{"type":"Point","coordinates":[-79.8307,40.35175]},"properties":{"name":"Magisterial District 05-2-13","address":"687 Oneil Boulevard, McKeesport 15132","coverage":"McKeesport"}},{"type":"Feature","geometry":{"type":"Point","coordinates":[-79.76027,40.44663]},"properties":{"name":"Magisterial District 05-2-07","address":"339 Old Haymaker Road, Monroeville 15146","coverage":"Monroeville, Pitcairn"}},{"type":"Feature","geometry":{"type":"Point","coordinates":[-79.90488,40.40866]},"properties":{"name":"Magisterial District 05-2-15","address":"510 East Eighth Avenue, Munhall 15120","coverage":"Homestead, Munhall, West Homestead"}},{"type":"Feature","geometry":{"type":"Point","coordinates":[-79.81658,40.38157]},"properties":{"name":"Magisterial District 05-2-11","address":"371 Lincoln Highway, North Versailles 15137","coverage":"East McKeesport, North Versailles, Trafford, Wall, Wilmerding"}},{"type":"Feature","geometry":{"type":"Point","coordinates":[-80.24558,40.44155]},"properties":{"name":"Magisterial District 05-3-17","address":"8052 Steubenville Pike, Oakdale 15071","coverage":"Findlay, McDonald, North Fayette, Oakdale"}},{"type":"Feature","geometry":{"type":"Point","coordinates":[-79.9593,40.51707]},"properties":{"name":"Magisterial District 05-2-03","address":"1007 Mount Royal Blvd, Pittsburgh 15223","coverage":"Etna, Millvale, Reserve, Shaler"}},{"type":"Feature","geometry":{"type":"Point","coordinates":[-79.98989,40.43852]},"properties":{"name":"Magisterial District 05-2-28","address":"1030 5th Avenue, Pittsburgh 15219","coverage":"Pittsburgh Wards 1, 2, 3, 5"}},{"type":"Feature","geometry":{"type":"Point","coordinates":[-79.93017,40.49406]},"properties":{"name":"Magisterial District 05-2-04","address":"1205 Main Street, Pittsburgh 15215","coverage":"Aspinwall, Blawnox, Fox Chapel, Indiana,Indianola,O'Hara, Sharpsburg"}},{"type":"Feature","geometry":{"type":"Point","coordinates":[-80.0667,40.43439]},"properties":{"name":"Magisterial District 05-2-23","address":"136 Bradford Avenue, Pittsburgh 15205","coverage":"Carnegie, Crafton,Ingram,Pennsbury Village,Rosslyn Farms,Thornburg"}},{"type":"Feature","geometry":{"type":"Point","coordinates":[-79.98187,40.42859]},"properties":{"name":"Magisterial District 05-2-27","address":"1700 East Carson Street, Pittsburgh 15203","coverage":"Pittsburgh Wards 4, 16, 17"}},{"type":"Feature","geometry":{"type":"Point","coordinates":[-80.03505,40.44065]},"properties":{"name":"Magisterial District 05-3-13","address":"22 Wabash Avenue, Pittsburgh 15220","coverage":"Pittsburgh Ward 20, Pittsburgh Ward 28"}},{"type":"Feature","geometry":{"type":"Point","coordinates":[-79.98626,40.391]},"properties":{"name":"Magisterial District 05-3-14","address":"2213 Brownsville Road, Pittsburgh 15210","coverage":"Pittsburgh Wards 18, 29, 30, 32"}},{"type":"Feature","geometry":{"type":"Point","coordinates":[-79.97299,40.33461]},"properties":{"name":"Magisterial District 05-2-16","address":"343 Old Curry Hollow Road, Pittsburgh 15236","coverage":"Jefferson Hills, Pleasant Hills, South Park"}},{"type":"Feature","geometry":{"type":"Point","coordinates":[-80.0177,40.48904]},"properties":{"name":"Magisterial District 05-2-42","address":"3874 Perrysville Avenue, Pittsburgh 15214","coverage":"Pittsburgh Wards 26, 27"}},{"type":"Feature","geometry":{"type":"Point","coordinates":[-79.96405,40.35767]},"properties":{"name":"Magisterial District 05-2-18","address":"41 Macek Drive, Pittsburgh 15227","coverage":"Baldwin, Brentwood"}},{"type":"Feature","geometry":{"type":"Point","coordinates":[-80.00084,40.45324]},"properties":{"name":"Magisterial District 05-2-40","address":"421 East Ohio Street, Pittsburgh 15212","coverage":"Pittsburgh Wards 21, 22, 23, 24, 25"}},{"type":"Feature","geometry":{"type":"Point","coordinates":[-79.96061,40.47063]},"properties":{"name":"Magisterial District 05-3-10","address":"4211 Butler Street, Pittsburgh 15201","coverage":"Pittsburgh Wards 6, 9"}},{"type":"Feature","geometry":{"type":"Point","coordinates":[-79.92807,40.42001]},"properties":{"name":"Magisterial District 05-2-36","address":"4371 Murray Avenue, Pittsburgh 15217","coverage":"Pittsburgh Wards 15, 31"}},{"type":"Feature","geometry":{"type":"Point","coordinates":[-80.03287,40.51975]},"properties":{"name":"Magisterial District 05-2-02","address":"439 Perry Highway, Pittsburgh 15229","coverage":"Ross, West View"}},{"type":"Feature","geometry":{"type":"Point","coordinates":[-80.00167,40.35927]},"properties":{"name":"Magisterial District 05-2-17","address":"5301 Grove Rd, Pittsburgh 15236","coverage":"Baldwin, Castle Shannon, Whitehall"}},{"type":"Feature","geometry":{"type":"Point","coordinates":[-79.88907,40.45165]},"properties":{"name":"Magisterial District 05-3-12","address":"566 Brushton Avenue, Pittsburgh 15208","coverage":"Pittsburgh Wards 12, 13"}},{"type":"Feature","geometry":{"type":"Point","coordinates":[-79.92317,40.42999]},"properties":{"name":"Magisterial District 05-2-35","address":"5801 Forward Avenue, Pittsburgh 15217","coverage":"Pittsburgh Wards 7, 14"}},{"type":"Feature","geometry":{"type":"Point","coordinates":[-80.05979,40.49798]},"properties":{"name":"Magisterial District 05-2-01","address":"660 Lincoln Avenue, Pittsburgh 15202","coverage":"Avalon, Bellevue, Ben Avon, Ben Avon Heights, Emsworth, Kilbuck, Ohio"}},{"type":"Feature","geometry":{"type":"Point","coordinates":[-80.04497,40.38048]},"properties":{"name":"Magisterial District 05-2-19","address":"680 Washington Road, Pittsburgh 15228","coverage":"Dormont, Mount Lebanon"}},{"type":"Feature","geometry":{"type":"Point","coordinates":[-79.92681,40.48651]},"properties":{"name":"Magisterial District 05-2-31","address":"1800 Morningside Avenue, Pittsburgh 15206","coverage":"Pittsburgh Wards 8, 10, 11"}},{"type":"Feature","geometry":{"type":"Point","coordinates":[-80.0206,40.39385]},"properties":{"name":"Magisterial District 05-2-38","address":"736 Brookline Blvd, Pittsburgh 15226","coverage":"Pittsburgh Ward 19"}},{"type":"Feature","geometry":{"type":"Point","coordinates":[-80.03903,40.55462]},"properties":{"name":"Magisterial District 05-2-12","address":"8105 Perry Highway, Pittsburgh 15237","coverage":"Bradford Woods, Marshall, McCandless, Pine"}},{"type":"Feature","geometry":{"type":"Point","coordinates":[-79.82503,40.46614]},"properties":{"name":"Magisterial District 05-2-06","address":"85 Universal Road, Pittsburgh 15235","coverage":"Penn Hills, Verona, Wilkins"}},{"type":"Feature","geometry":{"type":"Point","coordinates":[-79.8905,40.44476]},"properties":{"name":"Magisterial District 05-2-10","address":"907 West St., Pittsburgh 15221","coverage":"Wilkinsburg"}},{"type":"Feature","geometry":{"type":"Point","coordinates":[-79.70481,40.4903]},"properties":{"name":"Magisterial District 05-2-32","address":"10101 Saltsburg Road, Plum 15239","coverage":"Oakmont, Plum"}},{"type":"Feature","geometry":{"type":"Point","coordinates":[-79.82581,40.40524]},"properties":{"name":"Magisterial District 05-2-47","address":"100 Penn Plaza Shopping Center, Turtle Creek 15145","coverage":"Braddock, Duquesne, East Pittsburgh, North Braddock, Turtle Creek"}},{"type":"Feature","geometry":{"type":"Point","coordinates":[-79.87496,40.35818]},"properties":{"name":"Magisterial District 05-2-14","address":"2629 Skyline Drive, West Mifflin 15122","coverage":"Dravosburg, Rankin,West Mifflin,Whitaker"}},{"type":"Feature","geometry":{"type":"Point","coordinates":[-79.80955,40.33897]},"properties":{"name":"Magisterial District 05-3-05","address":"1985 Lincoln Way, White Oak 15131","coverage":"Lincoln, South Versailles,Versailles,White Oak"}}],"metadata":{"source":"ConnectGovs Magisterial District Courts (inputs/places/allegheny_mdj_courts_connectgovs.csv)","builtAt":"2026-09-26T20:34:23.143Z"}}