{"type":"FeatureCollection","features":[{"type":"Feature","geometry":{"type":"Point","coordinates":[-80.13857,40.4842]},"properties":{"name":"Forest Grove VFD","station":"243","municipality":"Robinson","address":"2044 Ewing Mill Road Coraopolis, PA 15108","sources":"ConnectGovs"}},{"type":"Feature","geometry":{"type":"Point","coordinates":[-80.15664,40.53725]},"properties":{"name":"Aleppo TWP VFD","station":"101","municipality":"Aleppo","address":"131 Weber Rd, Sewickley, PA 15143","sources":"ConnectGovs+OSM"}},{"type":"Feature","geometry":{"type":"Point","coordinates":[-80.14158,40.50798]},"properties":{"name":"Groveton VFD","station":"244","municipality":"Robinson","address":"4596 Hayes Avenue Coraopolis, PA 15108","sources":"ConnectGovs"}},{"type":"Feature","geometry":{"type":"Point","coordinates":[-80.13099,40.45181]},"properties":{"name":"Moon Run VFD","station":"245","municipality":"Robinson","address":"5624 Steubenville Pike Pittsburgh, PA 15244","sources":"ConnectGovs+OSM"}},{"type":"Feature","geometry":{"type":"Point","coordinates":[-79.90435,40.4904]},"properties":{"name":"Aspinwall VFD","station":"102","municipality":"Aspinwall","address":"217 Commercial Avenue Aspinwall, PA 15212","sources":"ConnectGovs+OSM"}},{"type":"Feature","geometry":{"type":"Point","coordinates":[-79.99184,40.50957]},"properties":{"name":"Evergreen VFD","station":"246","municipality":"Ross","address":"2127 Babcock Blvd Pittsburgh, PA 15209","sources":"ConnectGovs+OSM"}},{"type":"Feature","geometry":{"type":"Point","coordinates":[-80.00693,40.52964]},"properties":{"name":"Berkeley Hills VFD","station":"247","municipality":"Ross","address":"235 Seibert Road Pittsburgh, PA 15237","sources":"ConnectGovs+OSM"}},{"type":"Feature","geometry":{"type":"Point","coordinates":[-80.06584,40.50332]},"properties":{"name":"Avalon VFD","station":"103","municipality":"Avalon","address":"629 New Brighton Road Avalon, PA 15202","sources":"ConnectGovs+OSM"}},{"type":"Feature","geometry":{"type":"Point","coordinates":[-80.03687,40.53835]},"properties":{"name":"Perrysville VFD","station":"248","municipality":"Ross","address":"985 Perry Hwy Perrysville, PA 15237","sources":"ConnectGovs+OSM"}},{"type":"Feature","geometry":{"type":"Point","coordinates":[-79.998,40.34108]},"properties":{"name":"South Baldwin VFD","station":"104","municipality":"Baldwin","address":"5311 McNulty Road Pittsburgh, PA 15236","sources":"ConnectGovs+OSM"}},{"type":"Feature","geometry":{"type":"Point","coordinates":[-80.04825,40.5213]},"properties":{"name":"Quaill VFD","station":"249","municipality":"Ross","address":"50 Gass Road Pittsburgh, PA 15229","sources":"ConnectGovs+OSM"}},{"type":"Feature","geometry":{"type":"Point","coordinates":[-79.96763,40.38611]},"properties":{"name":"Baldwin #1 VFD","station":"105","municipality":"Baldwin","address":"3049 Churchview Avenue Pittsburgh, PA 15227","sources":"ConnectGovs+OSM"}},{"type":"Feature","geometry":{"type":"Point","coordinates":[-80.04719,40.49721]},"properties":{"name":"Fairview VFD","station":"250","municipality":"Ross","address":"44 East Forest Avenue Pittsburgh, PA 15202","sources":"ConnectGovs"}},{"type":"Feature","geometry":{"type":"Point","coordinates":[-79.97187,40.34813]},"properties":{"name":"Option Independent","station":"107","municipality":"Baldwin","address":"825 Streets Run Road Pittsburgh, PA 15236","sources":"ConnectGovs+OSM"}},{"type":"Feature","geometry":{"type":"Point","coordinates":[-80.04038,40.49583]},"properties":{"name":"Seville VFD","station":"251","municipality":"Ross","address":"124 Enger Avenue Pittsburgh, PA 15214","sources":"ConnectGovs+OSM"}},{"type":"Feature","geometry":{"type":"Point","coordinates":[-80.16768,40.60502]},"properties":{"name":"Big Sewickley Creek VFD","station":"307","municipality":"Belle Acres","address":"1850 Big Sewickley Creek Rd Sewickley, PA 15143","sources":"ConnectGovs+OSM"}},{"type":"Feature","geometry":{"type":"Point","coordinates":[-80.02098,40.50102]},"properties":{"name":"Keating VFD","station":"252","municipality":"Ross","address":"39 West View Avenue Pittsburgh, PA 15229","sources":"ConnectGovs"}},{"type":"Feature","geometry":{"type":"Point","coordinates":[-80.05631,40.49681]},"properties":{"name":"Bellevue VFD","station":"108","municipality":"Bellevue","address":"537 Bayne Ave, Pittsburgh, PA 15202","sources":"ConnectGovs+OSM"}},{"type":"Feature","geometry":{"type":"Point","coordinates":[-80.02189,40.52596]},"properties":{"name":"Laural Gardens VFD","station":"253","municipality":"Ross","address":"160 6th Avenue Pittsburgh, PA 15229","sources":"ConnectGovs+OSM"}},{"type":"Feature","geometry":{"type":"Point","coordinates":[-80.08485,40.5088]},"properties":{"name":"Ben Avon VFD","station":"109","municipality":"Ben Avon","address":"7219 Church Avenue Ben Avon, PA 15202","sources":"ConnectGovs+OSM"}},{"type":"Feature","geometry":{"type":"Point","coordinates":[-80.01705,40.5097]},"properties":{"name":"Ross Twp. Fire Police","station":"254","municipality":"Ross","address":"235 Cemetery Lane Pittsburgh, PA 15237","sources":"ConnectGovs"}},{"type":"Feature","geometry":{"type":"Point","coordinates":[-80.02993,40.32922]},"properties":{"name":"Bethel Park VFD","station":"110","municipality":"Bethel Park","address":"5213 Brightwood Road Bethel Park, PA 15102","sources":"ConnectGovs+OSM"}},{"type":"Feature","geometry":{"type":"Point","coordinates":[-80.09264,40.37463]},"properties":{"name":"Bower Hill VFD","station":"255","municipality":"Scott","address":"161 Vanadium Road Bridgeville, PA 15017","sources":"ConnectGovs+OSM"}},{"type":"Feature","geometry":{"type":"Point","coordinates":[-79.85998,40.49412]},"properties":{"name":"Blawnox VFD","station":"111","municipality":"Blawnox","address":"376 Freeport Road Blawnox, PA 15238","sources":"ConnectGovs+OSM"}},{"type":"Feature","geometry":{"type":"Point","coordinates":[-80.0761,40.41426]},"properties":{"name":"East Carnegie VFD","station":"256","municipality":"Scott","address":"305 Duncan Way Carnegie, PA 15106","sources":"ConnectGovs+OSM"}},{"type":"Feature","geometry":{"type":"Point","coordinates":[-79.7389,40.60417]},"properties":{"name":"Pioneer Hose Company","station":"112","municipality":"Brackenridge","address":"124 Morgan Street Brackenridge, PA 15014","sources":"ConnectGovs+OSM"}},{"type":"Feature","geometry":{"type":"Point","coordinates":[-80.08797,40.39826]},"properties":{"name":"Glendale VFD","station":"257","municipality":"Scott","address":"541 Carothers Avenue Carnegie, PA 15106","sources":"ConnectGovs+OSM"}},{"type":"Feature","geometry":{"type":"Point","coordinates":[-79.86199,40.39805]},"properties":{"name":"Rivers Edge Volunteer Fire Department","station":"113","municipality":"Braddock & Rankin","address":"1100 Braddock Avenue Braddock, PA 15104","sources":"ConnectGovs+OSM"}},{"type":"Feature","geometry":{"type":"Point","coordinates":[-80.17974,40.53817]},"properties":{"name":"Cochran Hose VFD","station":"258","municipality":"Sewickley","address":"601 Thorn Street Sewickley, PA 15143","sources":"ConnectGovs+OSM"}},{"type":"Feature","geometry":{"type":"Point","coordinates":[-80.08273,40.63812]},"properties":{"name":"Bradford Woods VFD","station":"115","municipality":"Bradford Woods","address":"4908 Wexford Run Road Bradford Woods, PA 15015","sources":"ConnectGovs+OSM"}},{"type":"Feature","geometry":{"type":"Point","coordinates":[-80.15664,40.53725]},"properties":{"name":"Aleppo Twp VFD","station":"101","municipality":"Sewickley Heights","address":"131 Weber Rd, Sewickley, PA 15143","sources":"ConnectGovs"}},{"type":"Feature","geometry":{"type":"Point","coordinates":[-79.97845,40.38483]},"properties":{"name":"Brentwood VFD","station":"116","municipality":"Brentwood","address":"2624 Brownsville Road Brentwood, PA 15227","sources":"ConnectGovs"}},{"type":"Feature","geometry":{"type":"Point","coordinates":[-79.97746,40.49896]},"properties":{"name":"Bauerstown VFD","station":"259","municipality":"Shaler","address":"15 Wible Run Road Bauerstown, PA 15909","sources":"ConnectGovs+OSM"}},{"type":"Feature","geometry":{"type":"Point","coordinates":[-80.10697,40.362]},"properties":{"name":"Bridgeville VFD","station":"117","municipality":"Bridgeville","address":"370 Commercial Drive Bridgeville, PA 15017","sources":"ConnectGovs+OSM"}},{"type":"Feature","geometry":{"type":"Point","coordinates":[-79.95908,40.49465]},"properties":{"name":"Cherry City VFD","station":"260","municipality":"Shaler","address":"309 Davis Avenue Pittsburgh, PA 15209","sources":"ConnectGovs+OSM"}},{"type":"Feature","geometry":{"type":"Point","coordinates":[-80.09035,40.40497]},"properties":{"name":"Carnegie VFD","station":"118","municipality":"Carnegie","address":"201 W. Main St. Carnegie, PA 15106","sources":"ConnectGovs+OSM"}},{"type":"Feature","geometry":{"type":"Point","coordinates":[-79.97239,40.54273]},"properties":{"name":"Elfinwild VFD","station":"261","municipality":"Shaler","address":"2817 Mt. Royal Blvd Glenshaw, PA 15116","sources":"ConnectGovs+OSM"}},{"type":"Feature","geometry":{"type":"Point","coordinates":[-80.0174,40.36565]},"properties":{"name":"Castle Shannon VFD","station":"119","municipality":"Castle Shannon","address":"3600 Library Road Castle Shannon, PA 15234","sources":"ConnectGovs+OSM"}},{"type":"Feature","geometry":{"type":"Point","coordinates":[-79.94449,40.51516]},"properties":{"name":"Shaler Villa VFD","station":"262","municipality":"Shaler","address":"960 Saxonburg Blvd, Pittsburgh, PA 15223","sources":"ConnectGovs+OSM"}},{"type":"Feature","geometry":{"type":"Point","coordinates":[-79.83871,40.40859]},"properties":{"name":"Chalfant VFD","station":"120","municipality":"Chalfant","address":"144 Lynnwood Ave, East Pittsburgh, PA 15112","sources":"ConnectGovs+OSM"}},{"type":"Feature","geometry":{"type":"Point","coordinates":[-79.93858,40.50234]},"properties":{"name":"Sharps Hill VFD","station":"263","municipality":"Shaler","address":"503 Berner Street Pittsburgh, PA 15215","sources":"ConnectGovs"}},{"type":"Feature","geometry":{"type":"Point","coordinates":[-79.79998,40.54282]},"properties":{"name":"Cheswick VFD","station":"121","municipality":"Cheswick","address":"1411 Spruce Street Cheswick, PA 15024","sources":"ConnectGovs+OSM"}},{"type":"Feature","geometry":{"type":"Point","coordinates":[-79.95871,40.51392]},"properties":{"name":"Undercliff VFD","station":"264","municipality":"Shaler","address":"700 Mt Royal Blvd Pittsburgh, PA 15223","sources":"ConnectGovs"}},{"type":"Feature","geometry":{"type":"Point","coordinates":[-79.84999,40.4455]},"properties":{"name":"Churchill VFD","station":"122","municipality":"Churchill","address":"2298 William Penn Hwy, Pittsburgh, PA 15235","sources":"ConnectGovs+OSM"}},{"type":"Feature","geometry":{"type":"Point","coordinates":[-79.92479,40.49449]},"properties":{"name":"Sharpsburg VFD","station":"265","municipality":"Sharpsburg","address":"1611 Main St, Pittsburgh, PA 15215","sources":"ConnectGovs+OSM"}},{"type":"Feature","geometry":{"type":"Point","coordinates":[-79.89469,40.29622]},"properties":{"name":"Clairton VFD","station":"123","municipality":"Clairton","address":"551 Ravensburg Blvd Clairton, PA 15025","sources":"ConnectGovs+OSM"}},{"type":"Feature","geometry":{"type":"Point","coordinates":[-80.10022,40.37057]},"properties":{"name":"Kirwin Heights VFD","station":"124","municipality":"Collier","address":"1200 Washington Pike Collier Twp, PA 15017","sources":"ConnectGovs+OSM"}},{"type":"Feature","geometry":{"type":"Point","coordinates":[-80.12018,40.37249]},"properties":{"name":"Presto VFD","station":"125","municipality":"Collier","address":"837 Thoms Run Road Presto, PA 15142","sources":"ConnectGovs+OSM"}},{"type":"Feature","geometry":{"type":"Point","coordinates":[-80.14263,40.39769]},"properties":{"name":"Rennerdale VFD","station":"126","municipality":"Collier","address":"30 Suburban Avenue Carnegie, PA 15106","sources":"ConnectGovs+OSM"}},{"type":"Feature","geometry":{"type":"Point","coordinates":[-80.16399,40.51706]},"properties":{"name":"Coraopolis VFD","station":"127","municipality":"Coraopolis","address":"1012 Fifth Avenue Coraopolis, PA 15108","sources":"ConnectGovs"}},{"type":"Feature","geometry":{"type":"Point","coordinates":[-80.06656,40.43484]},"properties":{"name":"Crafton VFD","station":"128","municipality":"Crafton","address":"100 Stotz Avenue Pittsburgh, PA 15205","sources":"ConnectGovs+OSM"}},{"type":"Feature","geometry":{"type":"Point","coordinates":[-80.22109,40.55606]},"properties":{"name":"Crescent VFD","station":"129","municipality":"Crescent","address":"79 McGovern Blvd, Glenwillard, PA 15046","sources":"ConnectGovs+OSM"}},{"type":"Feature","geometry":{"type":"Point","coordinates":[-80.03805,40.39445]},"properties":{"name":"Dormont VFD","station":"130","municipality":"Dormont","address":"1455 Hillsdale Avenue Pittsburgh, PA","sources":"ConnectGovs+OSM"}},{"type":"Feature","geometry":{"type":"Point","coordinates":[-79.89197,40.3521]},"properties":{"name":"Dravosburg #1","station":"131","municipality":"Dravosburg","address":"598 Ravine St, Dravosburg, PA 15034","sources":"ConnectGovs"}},{"type":"Feature","geometry":{"type":"Point","coordinates":[-79.84705,40.37256]},"properties":{"name":"Duquesne VFD","station":"133","municipality":"Duquesne","address":"12 South 2nd Street Duquesne, PA 15110","sources":"ConnectGovs+OSM"}},{"type":"Feature","geometry":{"type":"Point","coordinates":[-79.77834,40.58334]},"properties":{"name":"East Deer VFD","station":"134","municipality":"East Deer","address":"927 Freeport Rd, Creighton, PA 15030","sources":"ConnectGovs+OSM"}},{"type":"Feature","geometry":{"type":"Point","coordinates":[-79.80469,40.38766]},"properties":{"name":"United Vol. Fire & Rescue","station":"135","municipality":"East McKeesport","address":"611 Broadway Ave, East McKeesport, PA 15035","sources":"ConnectGovs+OSM"}},{"type":"Feature","geometry":{"type":"Point","coordinates":[-79.86199,40.39805]},"properties":{"name":"River's Edge VFD","station":"136","municipality":"East Pittsburgh","address":"1100 Braddock Ave Braddock, PA 15104","sources":"ConnectGovs"}},{"type":"Feature","geometry":{"type":"Point","coordinates":[-79.88444,40.43425]},"properties":{"name":"Edgewood VFD","station":"137","municipality":"Edgewood ","address":"2 Race Street Edgewood, PA 15218","sources":"ConnectGovs"}},{"type":"Feature","geometry":{"type":"Point","coordinates":[-80.17974,40.53817]},"properties":{"name":"Cochran Hose Co VFD","station":"258","municipality":"Edgeworth","address":"601 Thorn Street Sewickley, PA 15143","sources":"ConnectGovs"}},{"type":"Feature","geometry":{"type":"Point","coordinates":[-79.88764,40.27313]},"properties":{"name":"Elizabeth VFD","station":"139","municipality":"Elizabeth Borough","address":"107 Market Street Elizabeth, PA 15037","sources":"ConnectGovs"}},{"type":"Feature","geometry":{"type":"Point","coordinates":[-79.87505,40.27314]},"properties":{"name":"Blaine Hill VFD Co 2","station":"140","municipality":"Elizabeth Township","address":"409 Oxford Avenue Elizabeth, PA 15037","sources":"ConnectGovs+OSM"}},{"type":"Feature","geometry":{"type":"Point","coordinates":[-79.80263,40.24811]},"properties":{"name":"Elizabeth Township Fd #1 Co 3","station":"140","municipality":"Elizabeth Township","address":"1799 Blythedale Road Buena Vista, PA 15018","sources":"ConnectGovs"}},{"type":"Feature","geometry":{"type":"Point","coordinates":[-79.80021,40.31102]},"properties":{"name":"Greenock VFD Co 4","station":"140","municipality":"Elizabeth Township","address":"1002 Greenock Buena Vista Rd, Greenock, PA 15047","sources":"ConnectGovs+OSM"}},{"type":"Feature","geometry":{"type":"Point","coordinates":[-79.83746,40.27602]},"properties":{"name":"Central VFD Co 7","station":"140","municipality":"Elizabeth Township","address":"425 Scenery Drive Elizabeth, PA 15037","sources":"ConnectGovs+OSM"}},{"type":"Feature","geometry":{"type":"Point","coordinates":[-79.79956,40.27579]},"properties":{"name":"Buena Vista VFD","station":"145","municipality":"Elizabeth Township","address":"3333 Fire Station Street Buena Vista, PA 15018","sources":"ConnectGovs+OSM"}},{"type":"Feature","geometry":{"type":"Point","coordinates":[-80.09559,40.51306]},"properties":{"name":"Emsworth VFD","station":"148","municipality":"Emsworth ","address":"171 Center Avenue Pittsburgh, PA 15202","sources":"ConnectGovs"}},{"type":"Feature","geometry":{"type":"Point","coordinates":[-79.94406,40.49969]},"properties":{"name":"Etna VFD","station":"149","municipality":"Etna","address":"437 Butler Street Etna, PA 15223","sources":"ConnectGovs+OSM"}},{"type":"Feature","geometry":{"type":"Point","coordinates":[-79.79178,40.65057]},"properties":{"name":"Fawn #1","station":"150","municipality":"Fawn","address":"497 Lardintown Road Tarentum, PA 15084","sources":"ConnectGovs"}},{"type":"Feature","geometry":{"type":"Point","coordinates":[-79.74251,40.66136]},"properties":{"name":"Fawn #2 VFD","station":"151","municipality":"Fawn","address":"182 Fawn Drive Natrona Heights, PA 15065","sources":"ConnectGovs+OSM"}},{"type":"Feature","geometry":{"type":"Point","coordinates":[-80.25133,40.45191]},"properties":{"name":"Imperial VFD","station":"152","municipality":"Findlay","address":"115 Main Street Imperial, PA 15126\t","sources":"ConnectGovs"}},{"type":"Feature","geometry":{"type":"Point","coordinates":[-79.84995,40.42074]},"properties":{"name":"Forest Hills VFD","station":"153","municipality":"Forest Hills","address":"2067 Ardmore Blvd Pittsburgh, PA 15221","sources":"ConnectGovs"}},{"type":"Feature","geometry":{"type":"Point","coordinates":[-79.88414,40.19842]},"properties":{"name":"Gallatin-Sunnyside VFD","station":"154","municipality":"Forward","address":"3325 Rainbow Run Rd, Monongahela, PA 15063","sources":"ConnectGovs+OSM"}},{"type":"Feature","geometry":{"type":"Point","coordinates":[-79.87998,40.22956]},"properties":{"name":"Forward TWP VFD","station":"155","municipality":"Forward","address":"9019 Roberts Hollow Rd, Elizabeth, PA 15037","sources":"ConnectGovs"}},{"type":"Feature","geometry":{"type":"Point","coordinates":[-79.95162,40.23743]},"properties":{"name":"Bunola","station":"156","municipality":"Forward","address":"366 Bunola River Rd, Bunola, PA 15020","sources":"ConnectGovs+OSM"}},{"type":"Feature","geometry":{"type":"Point","coordinates":[-79.87984,40.51491]},"properties":{"name":"Fox Chapel VFD","station":"157","municipality":"Fox Chapel","address":"401 Fox Chapel Road Pittsburgh, PA 15238","sources":"ConnectGovs"}},{"type":"Feature","geometry":{"type":"Point","coordinates":[-80.08403,40.58177]},"properties":{"name":"Franklin Park VFD","station":"158","municipality":"Franklin Park","address":"2360 Rochester Road Sewickley, PA 15143","sources":"ConnectGovs"}},{"type":"Feature","geometry":{"type":"Point","coordinates":[-79.80163,40.63024]},"properties":{"name":"Frazer #1 VFD","station":"159","municipality":"Frazer","address":"2020 Bakerstown Rd, Tarentum, PA 15084","sources":"ConnectGovs"}},{"type":"Feature","geometry":{"type":"Point","coordinates":[-79.7921,40.58047]},"properties":{"name":"Frazer #2 VFD","station":"160","municipality":"Frazer","address":"111 Frazer Number 2 Ln, Tarentum, PA 15084","sources":"ConnectGovs"}},{"type":"Feature","geometry":{"type":"Point","coordinates":[-79.89322,40.32669]},"properties":{"name":"Citizens Vol Hose #1 VFD","station":"161","municipality":"Glassport","address":"525 Allegheny Avenue Glassport, PA 15045","sources":"ConnectGovs+OSM"}},{"type":"Feature","geometry":{"type":"Point","coordinates":[-80.17974,40.53817]},"properties":{"name":"Cochran Hose VFD","station":"258","municipality":"Glen Osborne","address":"601 Thorn Street Sewickley, PA 15143","sources":"ConnectGovs"}},{"type":"Feature","geometry":{"type":"Point","coordinates":[-80.05006,40.41867]},"properties":{"name":"Greentree VFD","station":"163","municipality":"Greentree","address":"825 Poplar Street Greentree, PA 15220","sources":"ConnectGovs"}},{"type":"Feature","geometry":{"type":"Point","coordinates":[-79.96397,40.55967]},"properties":{"name":"Hampton Township VFD #1","station":"164","municipality":"Hampton","address":"2536 Duncan Avenue Allison Park, PA 15101","sources":"ConnectGovs+OSM"}},{"type":"Feature","geometry":{"type":"Point","coordinates":[-79.94928,40.61266]},"properties":{"name":"North Hampton VFD","station":"165","municipality":"Hampton","address":"5149 N Pioneer Rd, Gibsonia, PA 15044","sources":"ConnectGovs"}},{"type":"Feature","geometry":{"type":"Point","coordinates":[-79.81482,40.54088]},"properties":{"name":"Harmar VFD","station":"166","municipality":"Harmar","address":"1000 Freeport Road Cheswick, PA 15024","sources":"ConnectGovs"}},{"type":"Feature","geometry":{"type":"Point","coordinates":[-79.71679,40.62887]},"properties":{"name":"Citizen Hose #2 VFD","station":"167","municipality":"Harrison","address":"965 Burtner Road Natrona Heights, PA 15065","sources":"ConnectGovs+OSM"}},{"type":"Feature","geometry":{"type":"Point","coordinates":[-79.73298,40.62149]},"properties":{"name":"Hilltop VFD","station":"168","municipality":"Harrison","address":"1437 Cambridge St, Natrona Heights, PA 15065","sources":"ConnectGovs"}},{"type":"Feature","geometry":{"type":"Point","coordinates":[-79.70715,40.65608]},"properties":{"name":"Harrison Hills VFD","station":"169","municipality":"Harrison","address":"5300 Freeport Rd, Natrona Heights, PA 15065","sources":"ConnectGovs+OSM"}},{"type":"Feature","geometry":{"type":"Point","coordinates":[-80.08963,40.39395]},"properties":{"name":"Heidlberg VFD","station":"170","municipality":"Heidlberg","address":"456 First Street Heidelberg, PA 15106","sources":"ConnectGovs"}},{"type":"Feature","geometry":{"type":"Point","coordinates":[-80.16239,40.34753]},"properties":{"name":"South Fayette VFD","station":"266","municipality":"South Fayette","address":"661 Millers Run Rd, Cuddy, PA 15031","sources":"ConnectGovs+OSM"}},{"type":"Feature","geometry":{"type":"Point","coordinates":[-80.21147,40.38203]},"properties":{"name":"Sturgeon VFD","station":"267","municipality":"South Fayette","address":"526 Main St, Sturgeon, PA 15082","sources":"ConnectGovs+OSM"}},{"type":"Feature","geometry":{"type":"Point","coordinates":[-80.12499,40.34111]},"properties":{"name":"Fairview VFD","station":"268","municipality":"South Fayette","address":"3326 Washington Pike Bridgeville, PA 15017","sources":"ConnectGovs+OSM"}},{"type":"Feature","geometry":{"type":"Point","coordinates":[-80.15902,40.37576]},"properties":{"name":"Oak Ridge VFD","station":"269","municipality":"South Fayette","address":"1214 Oak Ridge Road McDonald, PA 15057","sources":"ConnectGovs+OSM"}},{"type":"Feature","geometry":{"type":"Point","coordinates":[-79.98344,40.32153]},"properties":{"name":"Broughton VFD","station":"270","municipality":"South Park","address":"1030 Cochrans Mill Road Pittsburgh, PA 15236","sources":"ConnectGovs+OSM"}},{"type":"Feature","geometry":{"type":"Point","coordinates":[-80.02227,40.28601]},"properties":{"name":"Library VFD","station":"271","municipality":"South Park","address":"6581 Library Road Library, PA 15129","sources":"ConnectGovs+OSM"}},{"type":"Feature","geometry":{"type":"Point","coordinates":[-79.80526,40.29912]},"properties":{"name":"Coulter Vol Fire & Rescue","station":"272","municipality":"South Versailles","address":"Railroad St, Coulter, PA 15131","sources":"ConnectGovs+OSM"}},{"type":"Feature","geometry":{"type":"Point","coordinates":[-79.77836,40.54083]},"properties":{"name":"Springdale Boro VFD","station":"273","municipality":"Springdale Boro","address":"845 Lincoln Avenue Springdale, PA 15144","sources":"ConnectGovs"}},{"type":"Feature","geometry":{"type":"Point","coordinates":[-79.77836,40.54083]},"properties":{"name":"Springdale Twp VFD","station":"274","municipality":"Springdale Twp","address":"845 Lincoln Ave, Springdale, PA 15144","sources":"ConnectGovs"}},{"type":"Feature","geometry":{"type":"Point","coordinates":[-80.07086,40.47084]},"properties":{"name":"Stowe Twp VFD","station":"275","municipality":"Stowe","address":"548 Broadway Avenue McKees Rocks, PA 15136","sources":"ConnectGovs+OSM"}},{"type":"Feature","geometry":{"type":"Point","coordinates":[-79.88934,40.42064]},"properties":{"name":"Swissvale Fire Dept","station":"278","municipality":"Swissvale","address":"7400 Irvine Street Swissvale, PA 15218","sources":"ConnectGovs"}},{"type":"Feature","geometry":{"type":"Point","coordinates":[-79.8887,40.42046]},"properties":{"name":"Swissvale #2 VFD","station":"279","municipality":"Swissvale","address":"7419 Washington Street Swissvale, PA 15218","sources":"ConnectGovs"}},{"type":"Feature","geometry":{"type":"Point","coordinates":[-79.75317,40.60457]},"properties":{"name":"Highland Hose VFD","station":"280","municipality":"Tarentum","address":"401 East 8th Avenue Tarentum, PA 15084\t","sources":"ConnectGovs+OSM"}},{"type":"Feature","geometry":{"type":"Point","coordinates":[-79.75373,40.60087]},"properties":{"name":"Eureka Hose VFD","station":"281","municipality":"Tarentum","address":"304 Third Avenue Tarentum, PA 15084","sources":"ConnectGovs+OSM"}},{"type":"Feature","geometry":{"type":"Point","coordinates":[-79.76315,40.59878]},"properties":{"name":"Summit Hose VFD","station":"282","municipality":"Tarentum","address":"321 West 7th Avenue Tarentum, PA 15084","sources":"ConnectGovs+OSM"}},{"type":"Feature","geometry":{"type":"Point","coordinates":[-80.06656,40.43484]},"properties":{"name":"Crafton VFD","station":"128","municipality":"Thornburg","address":"100 Stotz Avenue Pittsburgh, PA 15205","sources":"ConnectGovs"}},{"type":"Feature","geometry":{"type":"Point","coordinates":[-79.82463,40.40553]},"properties":{"name":"Turtle Creek VFD","station":"283","municipality":"Turtle Creek","address":"125 Monroeville Ave, Turtle Creek, PA 15145","sources":"ConnectGovs"}},{"type":"Feature","geometry":{"type":"Point","coordinates":[-80.06282,40.34073]},"properties":{"name":"Upper St. Clair VFD","station":"284","municipality":"Upper St. Clair","address":"2001 Washington Rd, Pittsburgh, PA 15241","sources":"ConnectGovs+OSM"}},{"type":"Feature","geometry":{"type":"Point","coordinates":[-79.83973,40.508]},"properties":{"name":"Verona VFD","station":"285","municipality":"Verona","address":"465 Parker Street Verona, PA 15147","sources":"ConnectGovs"}},{"type":"Feature","geometry":{"type":"Point","coordinates":[-79.83267,40.31582]},"properties":{"name":"Versailles VFD","station":"286","municipality":"Versalles","address":"4919 Third Street McKeesport, PA 15132","sources":"ConnectGovs+OSM"}},{"type":"Feature","geometry":{"type":"Point","coordinates":[-79.80469,40.38766]},"properties":{"name":"United Vol. Fire & Rescue","station":"287","municipality":"Wall","address":"611 Broadway Ave, East McKeesport, PA 15035","sources":"ConnectGovs"}},{"type":"Feature","geometry":{"type":"Point","coordinates":[-79.84051,40.65375]},"properties":{"name":"West Deer #1 VFD","station":"288","municipality":"West Deer","address":"1520 Saxonburg Blvd Tarentum, PA 15084","sources":"ConnectGovs+OSM"}},{"type":"Feature","geometry":{"type":"Point","coordinates":[-79.8663,40.62105]},"properties":{"name":"West Deer #2 VFD","station":"289","municipality":"West Deer","address":"2163 Saxonburg Blvd, Cheswick, PA 15024","sources":"ConnectGovs+OSM"}},{"type":"Feature","geometry":{"type":"Point","coordinates":[-79.90578,40.61744]},"properties":{"name":"West Deer #3 VFD","station":"290","municipality":"West Deer","address":"4418 Gibsonia Rd, Gibsonia, PA 15044","sources":"ConnectGovs"}},{"type":"Feature","geometry":{"type":"Point","coordinates":[-79.89575,40.27372]},"properties":{"name":"West Elizabeth VFD","station":"291","municipality":"West Elizabeth","address":"520 5th St, West Elizabeth, PA 15088","sources":"ConnectGovs"}},{"type":"Feature","geometry":{"type":"Point","coordinates":[-79.91781,40.40191]},"properties":{"name":"West Homestead VFD","station":"292","municipality":"West Homestead","address":"447 West 8th Avenue West Homestead, PA 15120","sources":"ConnectGovs"}},{"type":"Feature","geometry":{"type":"Point","coordinates":[-79.88266,40.39028]},"properties":{"name":"Homeville #1 VFD","station":"293","municipality":"West Mifflin","address":"3900 Greensprings Ave, West Mifflin, PA 15122","sources":"ConnectGovs+OSM"}},{"type":"Feature","geometry":{"type":"Point","coordinates":[-79.85848,40.36234]},"properties":{"name":"Duquesne Annex VFD","station":"294","municipality":"West Mifflin","address":"1620 Pennsylvania Avenue West Mifflin, PA 15122","sources":"ConnectGovs+OSM"}},{"type":"Feature","geometry":{"type":"Point","coordinates":[-79.915,40.35338]},"properties":{"name":"West Mifflin #3 VFD","station":"295","municipality":"West Mifflin","address":"3722 Rodeo Drive West Mifflin, PA 15122","sources":"ConnectGovs+OSM"}},{"type":"Feature","geometry":{"type":"Point","coordinates":[-79.92958,40.36081]},"properties":{"name":"West Mifflin #4 VFD","station":"296","municipality":"West Mifflin","address":"660 Noble Road West Mifflin, PA 15122","sources":"ConnectGovs"}},{"type":"Feature","geometry":{"type":"Point","coordinates":[-80.0278,40.51644]},"properties":{"name":"West View VFD","station":"297","municipality":"West View","address":"340 Ridgewood Ave, West View, PA 15229","sources":"ConnectGovs+OSM"}},{"type":"Feature","geometry":{"type":"Point","coordinates":[-79.88648,40.3988]},"properties":{"name":"Whitaker VFD","station":"298","municipality":"Whitaker","address":"239 Church St, Homestead, PA 15120","sources":"ConnectGovs"}},{"type":"Feature","geometry":{"type":"Point","coordinates":[-79.82097,40.35458]},"properties":{"name":"White Oak# 1 VFD","station":"299","municipality":"White Oak","address":"1130 California Avenue White Oak, PA 15131","sources":"ConnectGovs"}},{"type":"Feature","geometry":{"type":"Point","coordinates":[-79.80157,40.34104]},"properties":{"name":"Rainbow VFD","station":"300","municipality":"White Oak","address":"2916 Jacks Run Road White Oak, PA 15131\t","sources":"ConnectGovs"}},{"type":"Feature","geometry":{"type":"Point","coordinates":[-80.00009,40.35898]},"properties":{"name":"Whitehall VFD","station":"301","municipality":"Whitehall","address":"601 Weyman Road Pittsburgh, PA 15236","sources":"ConnectGovs+OSM"}},{"type":"Feature","geometry":{"type":"Point","coordinates":[-79.82186,40.4172]},"properties":{"name":"Wilkins #1 VFD","station":"302","municipality":"Wilkins","address":"835 Railroad St, Turtle Creek, PA 15145","sources":"ConnectGovs"}},{"type":"Feature","geometry":{"type":"Point","coordinates":[-79.83909,40.41792]},"properties":{"name":"Wilkins #3 VFD","station":"303","municipality":"Wilkins","address":"109 Powell St, East Pittsburgh, PA 15112","sources":"ConnectGovs+OSM"}},{"type":"Feature","geometry":{"type":"Point","coordinates":[-79.81364,40.43413]},"properties":{"name":"Wilkins #4 VFD","station":"304","municipality":"Wilkins","address":"205 Frazier Dr, Pittsburgh, PA 15235","sources":"ConnectGovs"}},{"type":"Feature","geometry":{"type":"Point","coordinates":[-79.99863,40.43656]},"properties":{"name":"City of Pittsburgh Bureau of Fire","station":"16","municipality":"Wilkinsburg","address":"100 Grant Street Pittsburgh, PA 15219","sources":"ConnectGovs+OSM"}},{"type":"Feature","geometry":{"type":"Point","coordinates":[-79.80736,40.39307]},"properties":{"name":"Wilmerding VFD","station":"306","municipality":"Wilmerding","address":"301 Station Street Wilmerding, PA 15148","sources":"ConnectGovs+OSM"}},{"type":"Feature","geometry":{"type":"Point","coordinates":[-79.90997,40.40672]},"properties":{"name":"Homestead VFD","station":"171","municipality":"Homestead","address":"205 East 9th Street Homestead, PA 15120","sources":"ConnectGovs"}},{"type":"Feature","geometry":{"type":"Point","coordinates":[-79.88954,40.57754]},"properties":{"name":"Dorseyville VFD","station":"172","municipality":"Indiana","address":"100 Charles Street Dorseyville, PA 15238","sources":"ConnectGovs+OSM"}},{"type":"Feature","geometry":{"type":"Point","coordinates":[-79.93256,40.54476]},"properties":{"name":"Middle Road VFD","station":"174","municipality":"Indiana","address":"2034 Middle Road Glenshaw, PA 15116","sources":"ConnectGovs+OSM"}},{"type":"Feature","geometry":{"type":"Point","coordinates":[-79.83444,40.60863]},"properties":{"name":"Rural Ridge VFD","station":"175","municipality":"Indiana","address":"135 Little Deer Creek Valley Rd, Rural Ridge, PA 15075","sources":"ConnectGovs"}},{"type":"Feature","geometry":{"type":"Point","coordinates":[-80.06684,40.44587]},"properties":{"name":"Ingram VFD","station":"176","municipality":"Ingram","address":"40 W Prospect Ave, Pittsburgh, PA 15205","sources":"ConnectGovs"}},{"type":"Feature","geometry":{"type":"Point","coordinates":[-79.91777,40.25856]},"properties":{"name":"Floreffe VFC","station":"178","municipality":"Jefferson Hills","address":"1540 State Street Jefferson Hills, PA 15025","sources":"ConnectGovs"}},{"type":"Feature","geometry":{"type":"Point","coordinates":[-79.95885,40.29003]},"properties":{"name":"Gill Hall VFC","station":"179","municipality":"Jefferson Hills","address":"1228 Gill Hall Road Jefferson Hills, PA 15025","sources":"ConnectGovs+OSM"}},{"type":"Feature","geometry":{"type":"Point","coordinates":[-79.91852,40.31522]},"properties":{"name":"Jefferson 885 VFC ","station":"180","municipality":"Jefferson Hills","address":"380 Wray Drive Jefferson Hills, PA 15025","sources":"ConnectGovs"}},{"type":"Feature","geometry":{"type":"Point","coordinates":[-80.10276,40.47835]},"properties":{"name":"Kennedy TWP VFD","station":"181","municipality":"Kennedy","address":"1796 Pine Hollow Road McKees Rocks, PA 15136","sources":"ConnectGovs+OSM"}},{"type":"Feature","geometry":{"type":"Point","coordinates":[-80.08485,40.5088]},"properties":{"name":"Ben Avon VFD","station":"109","municipality":"Kilbuck","address":"7219 Church Avenue Ben Avon, PA 15202","sources":"ConnectGovs"}},{"type":"Feature","geometry":{"type":"Point","coordinates":[-80.21118,40.58181]},"properties":{"name":"Fair Oaks VFD","station":"308","municipality":"Leet","address":"190 Ambridge Avenue Fair Oaks, PA 15003","sources":"ConnectGovs"}},{"type":"Feature","geometry":{"type":"Point","coordinates":[-80.20937,40.56619]},"properties":{"name":"Leetsdale VFD","station":"309","municipality":"Leetsdale","address":"136 Broad St, Leetsdale, PA 15056","sources":"ConnectGovs"}},{"type":"Feature","geometry":{"type":"Point","coordinates":[-79.85936,40.32472]},"properties":{"name":"Liberty Boro VFD","station":"183","municipality":"Liberty","address":"900 Haslage St, McKeesport, PA 15133","sources":"ConnectGovs+OSM"}},{"type":"Feature","geometry":{"type":"Point","coordinates":[-79.85262,40.30365]},"properties":{"name":"Lincoln Boro VFD #1","station":"184","municipality":"Lincoln","address":"4312 Liberty Way Elizabeth, PA 15037","sources":"ConnectGovs"}},{"type":"Feature","geometry":{"type":"Point","coordinates":[-80.07981,40.65495]},"properties":{"name":"Marshall TWP VFD","station":"185","municipality":"Marshall","address":"270 Northgate Dr, Warrendale, PA 15086","sources":"ConnectGovs"}},{"type":"Feature","geometry":{"type":"Point","coordinates":[-80.04224,40.56418]},"properties":{"name":"Highland Fire Association","station":"186","municipality":"McCandless","address":"8705 Harold Place Pittsburgh, PA 15237","sources":"ConnectGovs"}},{"type":"Feature","geometry":{"type":"Point","coordinates":[-80.057,40.58193]},"properties":{"name":"Ingomar VFD","station":"187","municipality":"McCandless","address":"9695 Harmony Dr, Pittsburgh, PA 15237","sources":"ConnectGovs"}},{"type":"Feature","geometry":{"type":"Point","coordinates":[-80.00783,40.56772]},"properties":{"name":"Peebles VFD","station":"188","municipality":"McCandless","address":"1391 Duncan Avenue Pittsburgh, PA 15237","sources":"ConnectGovs"}},{"type":"Feature","geometry":{"type":"Point","coordinates":[-80.0581,40.46557]},"properties":{"name":"McKees Rocks VFD","station":"189","municipality":"McKees Rocks","address":"340 Bell Ave, McKees Rocks, PA 15136","sources":"ConnectGovs"}},{"type":"Feature","geometry":{"type":"Point","coordinates":[-79.86643,40.35163]},"properties":{"name":"McKeesport VFD","station":"190","municipality":"McKeesport","address":"201 Lysle Blvd McKeesport, PA 15132","sources":"ConnectGovs+OSM"}},{"type":"Feature","geometry":{"type":"Point","coordinates":[-79.9736,40.48112]},"properties":{"name":"Millvale VFD","station":"191","municipality":"Millvale","address":"501 Lincoln Avenue Millvale, PA 15209","sources":"ConnectGovs"}},{"type":"Feature","geometry":{"type":"Point","coordinates":[-79.78793,40.4258]},"properties":{"name":"Monroeville #1 VFD","station":"192","municipality":"Monroeville","address":"122 Elmwood Street Monroeville, PA 15146","sources":"ConnectGovs"}},{"type":"Feature","geometry":{"type":"Point","coordinates":[-79.80299,40.39761]},"properties":{"name":"Monroeville #3 VFD","station":"193","municipality":"Monroeville","address":"2601 Third Street Monroeville, PA 15146","sources":"ConnectGovs+OSM"}},{"type":"Feature","geometry":{"type":"Point","coordinates":[-79.74665,40.43388]},"properties":{"name":"Monroeville #4 VFD","station":"194","municipality":"Monroeville","address":"4370 Northern Pike Monroeville, PA 15146","sources":"ConnectGovs+OSM"}},{"type":"Feature","geometry":{"type":"Point","coordinates":[-79.75802,40.44644]},"properties":{"name":"Monroeville #5 VFD","station":"195","municipality":"Monroeville","address":"100 Seco Rd, Monroeville, PA 15146","sources":"ConnectGovs"}},{"type":"Feature","geometry":{"type":"Point","coordinates":[-79.7821,40.44822]},"properties":{"name":"Monroeville #6 VFD","station":"196","municipality":"Monroeville","address":"600 Garden City Drive Monroeville, PA 15146","sources":"ConnectGovs"}},{"type":"Feature","geometry":{"type":"Point","coordinates":[-80.20813,40.50458]},"properties":{"name":"Moon TWP VFD","station":"197","municipality":"Moon","address":"1000 Beaver Grade Road Coraopolis, PA 15108","sources":"ConnectGovs+OSM"}},{"type":"Feature","geometry":{"type":"Point","coordinates":[-80.04522,40.38001]},"properties":{"name":"Mt. Lebanon VFD","station":"198","municipality":"Mt. Lebanon","address":"710 Washington Road Pittsburgh, PA 15228","sources":"ConnectGovs"}},{"type":"Feature","geometry":{"type":"Point","coordinates":[-79.98701,40.41708]},"properties":{"name":"Mt. Oliver VFD","station":"199","municipality":"Mt. Oliver","address":"120 Brownsville Rd, Pittsburgh, PA 15210","sources":"ConnectGovs"}},{"type":"Feature","geometry":{"type":"Point","coordinates":[-79.89936,40.40537]},"properties":{"name":"Munhall #1 VFD","station":"200","municipality":"Munhall","address":"1300 Martha St, Munhall, PA 15120","sources":"ConnectGovs"}},{"type":"Feature","geometry":{"type":"Point","coordinates":[-79.90467,40.39906]},"properties":{"name":"Munhall #2 VFD","station":"201","municipality":"Munhall","address":"1900 West St, Munhall, PA 15120","sources":"ConnectGovs+OSM"}},{"type":"Feature","geometry":{"type":"Point","coordinates":[-79.89754,40.39368]},"properties":{"name":"Munhall #3 VFD","station":"202","municipality":"Munhall","address":"2412 Charles Street Munhall, PA 15120","sources":"ConnectGovs"}},{"type":"Feature","geometry":{"type":"Point","coordinates":[-79.90249,40.38636]},"properties":{"name":"Munhall #4 VFD","station":"203","municipality":"Munhall","address":"3401 Main St, Munhall, PA 15120","sources":"ConnectGovs+OSM"}},{"type":"Feature","geometry":{"type":"Point","coordinates":[-79.89035,40.40449]},"properties":{"name":"Munhall #5 VFD","station":"204","municipality":"Munhall","address":"1817 Whitaker Way Munhall, PA 15120","sources":"ConnectGovs+OSM"}},{"type":"Feature","geometry":{"type":"Point","coordinates":[-80.12604,40.51038]},"properties":{"name":"Neville Island VFD","station":"205","municipality":"Neville","address":"5009 Grand Avenue Pittsburgh, PA 15225","sources":"ConnectGovs"}},{"type":"Feature","geometry":{"type":"Point","coordinates":[-79.86087,40.40243]},"properties":{"name":"North Braddock VFD","station":"207","municipality":"North Braddock","address":"600 Anderson Street North Braddock, PA 15104","sources":"ConnectGovs"}},{"type":"Feature","geometry":{"type":"Point","coordinates":[-80.20649,40.4416]},"properties":{"name":"North Fayette VFD","station":"209","municipality":"North Fayette","address":"7678 Old Steubenville Pike Oakdale, PA 15071","sources":"ConnectGovs"}},{"type":"Feature","geometry":{"type":"Point","coordinates":[-79.82083,40.39742]},"properties":{"name":"West Wilmerding VFD","station":"211","municipality":"North Versailles","address":"330 Kline Ave, North Versailles, PA 15137","sources":"ConnectGovs"}},{"type":"Feature","geometry":{"type":"Point","coordinates":[-79.83699,40.38821]},"properties":{"name":"Crestas Terrace VFD","station":"212","municipality":"North Versailles","address":"2304 Crestas Avenue North Versailles, PA 15137","sources":"ConnectGovs"}},{"type":"Feature","geometry":{"type":"Point","coordinates":[-79.82546,40.36982]},"properties":{"name":"Fire Dept. of North Versailles","station":"214","municipality":"North Versailles","address":"518 Oakhurst Ave, North Versailles, PA 15137","sources":"ConnectGovs"}},{"type":"Feature","geometry":{"type":"Point","coordinates":[-80.18742,40.39806]},"properties":{"name":"Oakdale VFD","station":"215","municipality":"Oakdale","address":"6111 Noblestown Road Oakdale, PA 15071","sources":"ConnectGovs+OSM"}},{"type":"Feature","geometry":{"type":"Point","coordinates":[-79.83917,40.52318]},"properties":{"name":"Oakmont VFD","station":"216","municipality":"Oakmont","address":"418 Virginia Avenue Oakmont, PA 15139","sources":"ConnectGovs+OSM"}},{"type":"Feature","geometry":{"type":"Point","coordinates":[-79.92164,40.50212]},"properties":{"name":"Pleasant Valley VFD","station":"217","municipality":"O'Hara","address":"154 Kittanning Pike Pittsburgh, PA 15215","sources":"ConnectGovs+OSM"}},{"type":"Feature","geometry":{"type":"Point","coordinates":[-79.93092,40.50138]},"properties":{"name":"Parkview VFD","station":"218","municipality":"O'Hara","address":"726 Midway Drive Pittsburgh, PA 15215","sources":"ConnectGovs+OSM"}},{"type":"Feature","geometry":{"type":"Point","coordinates":[-80.09825,40.54566]},"properties":{"name":"Ohio Township VFD","station":"220","municipality":"Ohio","address":"1520 Roosevelt Road Pittsburgh, PA 15237","sources":"ConnectGovs"}},{"type":"Feature","geometry":{"type":"Point","coordinates":[-79.88327,40.46763]},"properties":{"name":"Penn Hills #1 VFD","station":"221","municipality":"Penn Hills","address":"7520 Mt. Carmel Rd. Pittsburgh, PA 15235","sources":"ConnectGovs"}},{"type":"Feature","geometry":{"type":"Point","coordinates":[-79.837,40.48678]},"properties":{"name":"Penn Hills #2 VFD","station":"222","municipality":"Penn Hills","address":"5806 Verona Road Verona, PA 15147","sources":"ConnectGovs+OSM"}},{"type":"Feature","geometry":{"type":"Point","coordinates":[-79.793,40.49205]},"properties":{"name":"Penn Hills #3 VFD","station":"223","municipality":"Penn Hills","address":"1701 Leechburg Road Pittsburgh, PA 15235","sources":"ConnectGovs+OSM"}},{"type":"Feature","geometry":{"type":"Point","coordinates":[-79.83064,40.50604]},"properties":{"name":"Penn Hills #4 VFD","station":"224","municipality":"Penn Hills","address":"1002 Center Ave Verona, PA 15147","sources":"ConnectGovs+OSM"}},{"type":"Feature","geometry":{"type":"Point","coordinates":[-79.86676,40.46029]},"properties":{"name":"Penn Hills #5 VFD","station":"225","municipality":"Penn Hills","address":"2797 Robinson Blvd Penn Hills, PA 15235","sources":"ConnectGovs+OSM"}},{"type":"Feature","geometry":{"type":"Point","coordinates":[-79.79144,40.46781]},"properties":{"name":"Penn Hills #6 VFD","station":"226","municipality":"Penn Hills","address":"2240 Main Street Penn Hills, PA 15235","sources":"ConnectGovs"}},{"type":"Feature","geometry":{"type":"Point","coordinates":[-79.80326,40.46309]},"properties":{"name":"Penn Hills #7 VFD","station":"227","municipality":"Penn Hills","address":"1235 Universal Road Pittsburgh, PA 15235","sources":"ConnectGovs"}},{"type":"Feature","geometry":{"type":"Point","coordinates":[-80.05646,40.62578]},"properties":{"name":"Wexford VFD","station":"228","municipality":"Pine","address":"122 Wexford Bayne Road Wexford, PA 15090","sources":"ConnectGovs"}},{"type":"Feature","geometry":{"type":"Point","coordinates":[-79.77764,40.40085]},"properties":{"name":"Pitcairn #1 VFD","station":"229","municipality":"Pitcairn","address":"100 South Center Avenue Pitcairn, PA 15140","sources":"ConnectGovs+OSM"}},{"type":"Feature","geometry":{"type":"Point","coordinates":[-79.99863,40.43656]},"properties":{"name":"Pittsburgh Bureau of Fire","station":"231","municipality":"Pittsburgh","address":"100 Grant Street Pittsburgh, PA 15219","sources":"ConnectGovs"}},{"type":"Feature","geometry":{"type":"Point","coordinates":[-79.96168,40.33957]},"properties":{"name":"Pleasant Hills VFD","station":"232","municipality":"Pleasant Hills","address":"73 Clairton Blvd Pittsburgh, PA 15236","sources":"ConnectGovs+OSM"}},{"type":"Feature","geometry":{"type":"Point","coordinates":[-79.77014,40.49058]},"properties":{"name":"Unity VFD","station":"233","municipality":"Plum","address":"340 Old Leechburg Road Pittsburgh, PA 15239","sources":"ConnectGovs"}},{"type":"Feature","geometry":{"type":"Point","coordinates":[-79.73096,40.50894]},"properties":{"name":"Renton VFD","station":"234","municipality":"Plum","address":"1990 Old Mine Rd, Plum, PA 15239","sources":"ConnectGovs+OSM"}},{"type":"Feature","geometry":{"type":"Point","coordinates":[-79.74974,40.5462]},"properties":{"name":"Logans Ferry VFD","station":"235","municipality":"Plum","address":"1001 Summit Street New Kensington, PA 15068","sources":"ConnectGovs+OSM"}},{"type":"Feature","geometry":{"type":"Point","coordinates":[-79.70614,40.4678]},"properties":{"name":"Holiday Park VFD","station":"236","municipality":"Plum","address":"415 Abers Creek Road Pittsburgh, PA 15239","sources":"ConnectGovs+OSM"}},{"type":"Feature","geometry":{"type":"Point","coordinates":[-79.86531,40.33574]},"properties":{"name":"Vigilant Hose #1 VFD","station":"237","municipality":"Port Vue","address":"1800 Romine Avenue Port Vue, PA 15133","sources":"ConnectGovs+OSM"}},{"type":"Feature","geometry":{"type":"Point","coordinates":[-79.86199,40.39805]},"properties":{"name":"Rivers Edge Volunteer Fire Department","station":"113","municipality":"Rankin & Braddock","address":"1100 Braddock Avenue Braddock, PA 15104","sources":"ConnectGovs"}},{"type":"Feature","geometry":{"type":"Point","coordinates":[-80.02863,40.49875]},"properties":{"name":"Reserve Township VFD","station":"317","municipality":"Reserve Township","address":"141 Jacks Run Road Pittsburgh, PA 15214","sources":"ConnectGovs"}},{"type":"Feature","geometry":{"type":"Point","coordinates":[-79.96149,40.65498]},"properties":{"name":"Richland VFD","station":"241","municipality":"Richland","address":"5857 Meridian Rd, Gibsonia, PA 15044","sources":"ConnectGovs"}},{"type":"Feature","geometry":{"type":"Point","coordinates":[-80.01823,40.49007]},"properties":{"name":"Pittsburgh Bureau of Fire Station 34","station":"34","municipality":"Pittsburgh","address":"3914 Perrysville Ave.","sources":"City_Fire_Station+OSM"}},{"type":"Feature","geometry":{"type":"Point","coordinates":[-80.00283,40.47299]},"properties":{"name":"Pittsburgh Bureau of Fire Station 38","station":"38","municipality":"Pittsburgh","address":"198 Essen St.","sources":"City_Fire_Station+OSM"}},{"type":"Feature","geometry":{"type":"Point","coordinates":[-79.99517,40.45799]},"properties":{"name":"Pittsburgh Bureau of Fire Station 32","station":"32","municipality":"Pittsburgh","address":"900 Spring Garden Ave.","sources":"City_Fire_Station+OSM"}},{"type":"Feature","geometry":{"type":"Point","coordinates":[-80.02184,40.45326]},"properties":{"name":"Pittsburgh Bureau of Fire Station 37","station":"37","municipality":"Pittsburgh","address":"1124 W. North Ave.","sources":"City_Fire_Station+OSM"}},{"type":"Feature","geometry":{"type":"Point","coordinates":[-80.0585,40.45453]},"properties":{"name":"Pittsburgh Bureau of Fire Station 31","station":"31","municipality":"Pittsburgh","address":"3000 Chartiers Ave.","sources":"City_Fire_Station"}},{"type":"Feature","geometry":{"type":"Point","coordinates":[-80.04211,40.4428]},"properties":{"name":"Pittsburgh Bureau of Fire Station 30","station":"30","municipality":"Pittsburgh","address":"916 Steuben St.","sources":"City_Fire_Station+OSM"}},{"type":"Feature","geometry":{"type":"Point","coordinates":[-80.05354,40.43149]},"properties":{"name":"Pittsburgh Bureau of Fire Station 29","station":"29","municipality":"Pittsburgh","address":"2150 Noblestown Rd.","sources":"City_Fire_Station+OSM"}},{"type":"Feature","geometry":{"type":"Point","coordinates":[-80.02517,40.41312]},"properties":{"name":"Pittsburgh Bureau of Fire Station 28","station":"28","municipality":"Pittsburgh","address":"1428 Beechview Ave.","sources":"City_Fire_Station+OSM"}},{"type":"Feature","geometry":{"type":"Point","coordinates":[-80.02186,40.3948]},"properties":{"name":"Pittsburgh Bureau of Fire Station 26","station":"26","municipality":"Pittsburgh","address":"630 Brookline Blvd.","sources":"City_Fire_Station+OSM"}},{"type":"Feature","geometry":{"type":"Point","coordinates":[-79.98889,40.39824]},"properties":{"name":"Pittsburgh Bureau of Fire Station 23","station":"23","municipality":"Pittsburgh","address":"1704 Brownsville Rd.","sources":"City_Fire_Station+OSM"}},{"type":"Feature","geometry":{"type":"Point","coordinates":[-80.00698,40.42952]},"properties":{"name":"Pittsburgh Bureau of Fire Station 27","station":"27","municipality":"Pittsburgh","address":"96 Virginia Ave.","sources":"City_Fire_Station"}},{"type":"Feature","geometry":{"type":"Point","coordinates":[-79.97895,40.41821]},"properties":{"name":"Pittsburgh Bureau of Fire Station 22","station":"22","municipality":"Pittsburgh","address":"1945 Arlington Ave.","sources":"City_Fire_Station+OSM"}},{"type":"Feature","geometry":{"type":"Point","coordinates":[-79.93298,40.38578]},"properties":{"name":"Pittsburgh Bureau of Fire Station 20","station":"20","municipality":"Pittsburgh","address":"514 Baldwin Rd.","sources":"City_Fire_Station+OSM"}},{"type":"Feature","geometry":{"type":"Point","coordinates":[-79.94231,40.41014]},"properties":{"name":"Pittsburgh Bureau of Fire Station 13","station":"13","municipality":"Pittsburgh","address":"200 Flowers Ave.","sources":"City_Fire_Station+OSM"}},{"type":"Feature","geometry":{"type":"Point","coordinates":[-79.92115,40.44146]},"properties":{"name":"Pittsburgh Bureau of Fire Station 18","station":"18","municipality":"Pittsburgh","address":"5858 Northumberland","sources":"City_Fire_Station"}},{"type":"Feature","geometry":{"type":"Point","coordinates":[-79.89076,40.45335]},"properties":{"name":"Pittsburgh Bureau of Fire Station 17","station":"17","municipality":"Pittsburgh","address":"7601 Hamilton Ave.","sources":"City_Fire_Station+OSM"}},{"type":"Feature","geometry":{"type":"Point","coordinates":[-79.92762,40.46332]},"properties":{"name":"Pittsburgh Bureau of Fire Station 8","station":"8","municipality":"Pittsburgh","address":"161 N Euclid Ave.","sources":"City_Fire_Station"}},{"type":"Feature","geometry":{"type":"Point","coordinates":[-79.8979,40.4706]},"properties":{"name":"Pittsburgh Bureau of Fire Station 15","station":"15","municipality":"Pittsburgh","address":"7024 Lemingon Ave.","sources":"City_Fire_Station+OSM"}},{"type":"Feature","geometry":{"type":"Point","coordinates":[-79.95814,40.46487]},"properties":{"name":"Pittsburgh Bureau of Fire Station 6","station":"6","municipality":"Pittsburgh","address":"3958 Penn Ave.","sources":"City_Fire_Station"}},{"type":"Feature","geometry":{"type":"Point","coordinates":[-79.98722,40.43747]},"properties":{"name":"Pittsburgh Bureau of Fire Station 4","station":"4","municipality":"Pittsburgh","address":"1324 Forbes Ave.","sources":"City_Fire_Station+OSM"}},{"type":"Feature","geometry":{"type":"Point","coordinates":[-79.9373,40.4815]},"properties":{"name":"Pittsburgh Bureau of Fire Station 7","station":"7","municipality":"Pittsburgh","address":"4603 Stanton Ave.","sources":"City_Fire_Station+OSM"}},{"type":"Feature","geometry":{"type":"Point","coordinates":[-79.98108,40.42632]},"properties":{"name":"Pittsburgh Bureau of Fire Station 24","station":"24","municipality":"Pittsburgh","address":"1729 Mary St.","sources":"City_Fire_Station+OSM"}},{"type":"Feature","geometry":{"type":"Point","coordinates":[-79.94008,40.42346]},"properties":{"name":"Pittsburgh Bureau of Fire Station 12","station":"12","municipality":"Pittsburgh","address":"4156 Winterburn St.","sources":"City_Fire_Station"}},{"type":"Feature","geometry":{"type":"Point","coordinates":[-79.95762,40.43876]},"properties":{"name":"Pittsburgh Bureau of Fire Station 14","station":"14","municipality":"Pittsburgh","address":"259 McKee Place","sources":"City_Fire_Station+OSM"}},{"type":"Feature","geometry":{"type":"Point","coordinates":[-79.98977,40.44767]},"properties":{"name":"Pittsburgh Bureau of Fire Station 3","station":"3","municipality":"Pittsburgh","address":"1401 Penn Ave.","sources":"City_Fire_Station+OSM"}},{"type":"Feature","geometry":{"type":"Point","coordinates":[-79.88585,40.44337]},"properties":{"name":"Pittsburgh Bureau of Fire Station 16","station":"16","municipality":"Pittsburgh","address":"605 Ross Ave","sources":"City_Fire_Station"}},{"type":"Feature","geometry":{"type":"Point","coordinates":[-79.96769,40.44108]},"properties":{"name":"Pittsburgh Bureau of Fire Station 10","station":"10","municipality":"Pittsburgh","address":"2500 Allequippa St","sources":"City_Fire_Station+OSM"}},{"type":"Feature","geometry":{"type":"Point","coordinates":[-79.89986,40.42082]},"properties":{"name":"Pittsburgh Bureau of Fire Station 19","station":"19","municipality":"Pittsburgh","address":"159 Homestead St","sources":"City_Fire_Station+OSM"}},{"type":"Feature","geometry":{"type":"Point","coordinates":[-80.03896,40.48169]},"properties":{"name":"Pittsburgh Bureau of Fire Station 35","station":"35","municipality":"Pittsburgh","address":"1519 Orchlee St","sources":"City_Fire_Station+OSM"}},{"type":"Feature","geometry":{"type":"Point","coordinates":[-80.02969,40.47666]},"properties":{"name":"Pittsburgh Bureau of Fire Station 33","station":"33","municipality":"Pittsburgh","address":"3284 Central Ave","sources":"City_Fire_Station"}},{"type":"Feature","geometry":{"type":"Point","coordinates":[-80.04355,40.38351]},"properties":{"name":"Mt. Lebanon Fire Department","station":null,"municipality":null,"address":"555 Washington Road","sources":"OSM"}},{"type":"Feature","geometry":{"type":"Point","coordinates":[-80.09489,40.32998]},"properties":{"name":"Station 2","station":null,"municipality":null,"address":"2400 Morton Road","sources":"OSM"}},{"type":"Feature","geometry":{"type":"Point","coordinates":[-80.04231,40.29675]},"properties":{"name":"Bethel Park Volunteer Fire Company Clifton Station","station":null,"municipality":null,"address":"1100 Clifton Road","sources":"OSM"}},{"type":"Feature","geometry":{"type":"Point","coordinates":[-80.03302,40.34881]},"properties":{"name":"Bethel Park Volunteer Fire Company Milford Station","station":null,"municipality":null,"address":"2310 Milford Drive","sources":"OSM"}},{"type":"Feature","geometry":{"type":"Point","coordinates":[-79.88023,40.4128]},"properties":{"name":"Rankin VFD","station":null,"municipality":null,"address":null,"sources":"OSM"}},{"type":"Feature","geometry":{"type":"Point","coordinates":[-79.92362,40.30015]},"properties":{"name":"Large Volunteer Fire Department","station":null,"municipality":null,"address":null,"sources":"OSM"}},{"type":"Feature","geometry":{"type":"Point","coordinates":[-79.98195,40.37043]},"properties":{"name":"Brentwood Volunteer Fire Company","station":null,"municipality":null,"address":null,"sources":"OSM"}},{"type":"Feature","geometry":{"type":"Point","coordinates":[-79.98227,40.35889]},"properties":{"name":"Whitehall Fire Company #1","station":null,"municipality":null,"address":"4400 Clairton Boulevard","sources":"OSM"}},{"type":"Feature","geometry":{"type":"Point","coordinates":[-79.82743,40.34035]},"properties":{"name":"McKeesport Fire Station No. 2","station":null,"municipality":null,"address":null,"sources":"OSM"}},{"type":"Feature","geometry":{"type":"Point","coordinates":[-79.97504,40.37561]},"properties":{"name":"Brentwood Volunteer Fire Company","station":null,"municipality":null,"address":"3433 Brownsville Road","sources":"OSM"}},{"type":"Feature","geometry":{"type":"Point","coordinates":[-79.87432,40.30059]},"properties":{"name":"Clairton Works Fire Station","station":null,"municipality":null,"address":null,"sources":"OSM"}},{"type":"Feature","geometry":{"type":"Point","coordinates":[-80.03018,40.46993]},"properties":{"name":"Fire Station Number 36","station":null,"municipality":null,"address":null,"sources":"OSM"}},{"type":"Feature","geometry":{"type":"Point","coordinates":[-80.24675,40.45154]},"properties":{"name":"Imperial Volunteer Fire Department","station":null,"municipality":null,"address":"111 Pine Street","sources":"OSM"}},{"type":"Feature","geometry":{"type":"Point","coordinates":[-80.03372,40.52105]},"properties":{"name":"West View Volunteer Fire Comany","station":null,"municipality":null,"address":null,"sources":"OSM"}},{"type":"Feature","geometry":{"type":"Point","coordinates":[-80.12873,40.51162]},"properties":{"name":"Neville Island Volunteer Fire Department","station":null,"municipality":null,"address":"5300 Grand Avenue","sources":"OSM"}},{"type":"Feature","geometry":{"type":"Point","coordinates":[-80.04749,40.59953]},"properties":{"name":"Ingomar Volunteer Fire Company","station":null,"municipality":null,"address":"10176 Old Perry Highway","sources":"OSM"}},{"type":"Feature","geometry":{"type":"Point","coordinates":[-80.0519,40.62837]},"properties":{"name":"Wexford Volunteer Fire Department","station":null,"municipality":null,"address":null,"sources":"OSM"}},{"type":"Feature","geometry":{"type":"Point","coordinates":[-80.23306,40.49154]},"properties":{"name":"PIA Fire Station Echo","station":null,"municipality":null,"address":null,"sources":"OSM"}},{"type":"Feature","geometry":{"type":"Point","coordinates":[-80.22,40.51736]},"properties":{"name":"Moon Township Volunteer Fire Department Carnot Station","station":null,"municipality":null,"address":"565 Carnot Road","sources":"OSM"}},{"type":"Feature","geometry":{"type":"Point","coordinates":[-80.2112,40.46715]},"properties":{"name":"Imperial Volunteer Fire Department Substation 3","station":null,"municipality":null,"address":"487 Aten Road","sources":"OSM"}},{"type":"Feature","geometry":{"type":"Point","coordinates":[-80.00871,40.6392]},"properties":{"name":"Wexford Volunteer Fire Company","station":null,"municipality":null,"address":null,"sources":"OSM"}},{"type":"Feature","geometry":{"type":"Point","coordinates":[-79.8024,40.54966]},"properties":{"name":"Allegheny Valley Volunteer Fire Company","station":null,"municipality":null,"address":"851 Parkway Drive","sources":"OSM"}},{"type":"Feature","geometry":{"type":"Point","coordinates":[-79.96571,40.45273]},"properties":{"name":"Fire Department Number 7","station":null,"municipality":null,"address":null,"sources":"OSM"}},{"type":"Feature","geometry":{"type":"Point","coordinates":[-79.94644,40.59007]},"properties":{"name":"North Hampton Volunteer Fire Department Sub Station","station":null,"municipality":null,"address":null,"sources":"OSM"}},{"type":"Feature","geometry":{"type":"Point","coordinates":[-79.98238,40.47423]},"properties":{"name":"Reserve Volunteer Fire Department","station":null,"municipality":null,"address":"33 Lonsdale Street","sources":"OSM"}},{"type":"Feature","geometry":{"type":"Point","coordinates":[-79.82844,40.58576]},"properties":{"name":"Rural Ridge Volunteer Fire Department","station":null,"municipality":null,"address":"137 Little Deer Creek Road","sources":"OSM"}},{"type":"Feature","geometry":{"type":"Point","coordinates":[-79.82459,40.46631]},"properties":{"name":"Penn Hills Fire Station #7","station":null,"municipality":null,"address":"127 Universal Road","sources":"OSM"}}],"metadata":{"source":"inputs/places/allegheny_fire_stations_merged.csv"}}