{"type":"FeatureCollection","features":[{"type":"Feature","geometry":{"type":"Point","coordinates":[-79.82202,40.41188]},"properties":{"name":"LGAR Health and Rehabilitation Center","address":"800 Elsie Street, Turtle Creek","website":"https://www.lgar.org"}},{"type":"Feature","geometry":{"type":"Point","coordinates":[-79.94034,40.32752]},"properties":{"name":"Southwestern Nursing and Rehabilitation Center","address":"500 North Lewis Run Road, Pittsburgh","website":"https://southwesternhc.com"}},{"type":"Feature","geometry":{"type":"Point","coordinates":[-79.83624,40.47994]},"properties":{"name":"Seneca PID, LLC","address":"5360 Saltsburg Road, Verona","website":"https://www.upmc.com"}},{"type":"Feature","geometry":{"type":"Point","coordinates":[-80.08923,40.37878]},"properties":{"name":"Providence Point Healthcare Residence","address":"200 Adams Avenue, Pittsburgh","website":"https://baptistseniorfamily.org"}},{"type":"Feature","geometry":{"type":"Point","coordinates":[-80.04612,40.3487]},"properties":{"name":"South Hills Post Acute","address":"60 Highland Road, Bethel Park","website":"https://southhillspa.com"}},{"type":"Feature","geometry":{"type":"Point","coordinates":[-80.06046,40.63841]},"properties":{"name":"Harmony Hills Healthcare and Rehabilitation Center","address":"194 Swinderman Road, Wexford","website":"https://harmonyhillshc.com"}},{"type":"Feature","geometry":{"type":"Point","coordinates":[-79.82874,40.52592]},"properties":{"name":"The Willows of Presbyterian SeniorCare","address":"1215 Hulton Road, Oakmont","website":"https://oakmont.srcare.org"}},{"type":"Feature","geometry":{"type":"Point","coordinates":[-79.81901,40.54226]},"properties":{"name":"Harmar Village Health & Rehab Center","address":"715 Freeport Road, Cheswick","website":"https://www.saberhealth.com"}},{"type":"Feature","geometry":{"type":"Point","coordinates":[-79.90859,40.4598]},"properties":{"name":"Corner View Nursing and Rehabilitation Center","address":"6655 Frankstown Avenue, Pittsburgh","website":null}},{"type":"Feature","geometry":{"type":"Point","coordinates":[-80.03734,40.54649]},"properties":{"name":"Highland Hills Post Acute","address":"1105 Perry Highway, Pittsburgh","website":"https://highlandhillspa.com"}},{"type":"Feature","geometry":{"type":"Point","coordinates":[-80.02657,40.55921]},"properties":{"name":"Vincentian Home","address":"111 Perrymont Road, Pittsburgh","website":"https://vincentian.us"}},{"type":"Feature","geometry":{"type":"Point","coordinates":[-79.74483,40.42317]},"properties":{"name":"Woodhaven Health & Rehab Center","address":"2400 Mcginley Road, Monroeville","website":"https://www.saberhealth.com"}},{"type":"Feature","geometry":{"type":"Point","coordinates":[-80.05824,40.38455]},"properties":{"name":"Asbury Health Center","address":"700 Bower Hill Road, Pittsburgh","website":"https://www.asburyheights.org"}},{"type":"Feature","geometry":{"type":"Point","coordinates":[-79.7572,40.42537]},"properties":{"name":"Monroeville Post Acute","address":"885 Macbeth Dr, Monroeville","website":"https://monroevillepa.com"}},{"type":"Feature","geometry":{"type":"Point","coordinates":[-79.95813,40.46596]},"properties":{"name":"Canterbury Place","address":"310 Fisk Street, Pittsburgh","website":"https://www.upmc.com"}},{"type":"Feature","geometry":{"type":"Point","coordinates":[-79.89748,40.60264]},"properties":{"name":"Concordia at Rebecca Residence","address":"3746 Cedar Ridge Rd, Allison Park","website":"https://www.concordialm.org"}},{"type":"Feature","geometry":{"type":"Point","coordinates":[-79.93013,40.40762]},"properties":{"name":"John J Kane Regional Center - Glen Hazel","address":"955 Rivermont Drive, Pittsburgh","website":"https://www.alleghenycounty.us"}},{"type":"Feature","geometry":{"type":"Point","coordinates":[-80.22456,40.51945]},"properties":{"name":"Cedar Hill Healthcare and Rehabilitation Center","address":"951 Brodhead Road, Coraopolis","website":"https://cedarhillhrc.com"}},{"type":"Feature","geometry":{"type":"Point","coordinates":[-80.14027,40.32635]},"properties":{"name":"Bridgeville Rehabilitation & Care Center","address":"3590 Washington Pike, Bridgeville","website":"https://www.genesishcc.com/bridgeville"}},{"type":"Feature","geometry":{"type":"Point","coordinates":[-79.89745,40.47817]},"properties":{"name":"Southwestern Veterans Center","address":"7060 Highland Dr, Pittsburgh","website":"https://www.pa.gov/agencies/dmva"}},{"type":"Feature","geometry":{"type":"Point","coordinates":[-79.86683,40.34601]},"properties":{"name":"John J Kane Regional Center-McKeesport","address":"100 Ninth Avenue, Mckeesport","website":"https://www.alleghenycounty.us"}},{"type":"Feature","geometry":{"type":"Point","coordinates":[-80.11442,40.5014]},"properties":{"name":"Sycamore Creek Healthcare Group, Inc.","address":"234 Coraopolis Road, Coraopolis","website":"https://www.saberhealth.com"}},{"type":"Feature","geometry":{"type":"Point","coordinates":[-79.96001,40.36652]},"properties":{"name":"Baldwin Health Center","address":"1717 Skyline Drive, Pittsburgh","website":"https://www.communicarehealth.com"}},{"type":"Feature","geometry":{"type":"Point","coordinates":[-80.06037,40.36089]},"properties":{"name":"Wecare at Mt Lebanon Rehabilitation and Nursing Center","address":"350 Old Gilkeson Road, Pittsburgh","website":"https://wecarehcc.com"}},{"type":"Feature","geometry":{"type":"Point","coordinates":[-80.0139,40.54931]},"properties":{"name":"John J. Kane Regional Center - Ross Township","address":"110 Mcintyre Road, Pittsburgh","website":"https://www.alleghenycounty.us"}},{"type":"Feature","geometry":{"type":"Point","coordinates":[-80.04387,40.58824]},"properties":{"name":"Wexford Healthcare Center","address":"9850 Old Perry Highway, Wexford","website":"https://www.communicarehealth.com"}},{"type":"Feature","geometry":{"type":"Point","coordinates":[-80.03419,40.48754]},"properties":{"name":"Little Sisters of the Poor","address":"1028 Benton Avenue, Pittsburgh","website":"https://thelittlesistersofthepoor.com"}},{"type":"Feature","geometry":{"type":"Point","coordinates":[-80.00964,40.46718]},"properties":{"name":"Reformed Presbyterian Home","address":"2344 Perrysville Ave, Pittsburgh","website":"https://rphome.org"}},{"type":"Feature","geometry":{"type":"Point","coordinates":[-80.14347,40.5275]},"properties":{"name":"Masonic Village at Sewickley","address":"1000 Masonic Drive, Sewickley","website":"https://masonicvillages.org"}},{"type":"Feature","geometry":{"type":"Point","coordinates":[-79.96103,40.43716]},"properties":{"name":"UPMC Magee-Womens Hospital Transitional Care Unit","address":"300 Halket Street, Pittsburgh","website":"https://www.upmc.com"}},{"type":"Feature","geometry":{"type":"Point","coordinates":[-80.08767,40.37442]},"properties":{"name":"John J Kane Regional Center - Scott Township","address":"300 Kane Blvd, Pittsburgh","website":"https://www.alleghenycounty.us"}},{"type":"Feature","geometry":{"type":"Point","coordinates":[-79.93022,40.32388]},"properties":{"name":"The Rehabilitation Center at Jefferson Hills","address":"540 Coal Valley Road, Jefferson Hills","website":null}},{"type":"Feature","geometry":{"type":"Point","coordinates":[-80.07465,40.37611]},"properties":{"name":"Concordia of The South Hills","address":"1300 Bower Hill Road, Pittsburgh","website":"https://www.concordialm.org"}},{"type":"Feature","geometry":{"type":"Point","coordinates":[-79.7473,40.43503]},"properties":{"name":"Concordia at the Cedars","address":"4363 Northern Pike, Monroeville","website":"https://www.concordialm.org"}},{"type":"Feature","geometry":{"type":"Point","coordinates":[-79.74705,40.43647]},"properties":{"name":"Harmony Physical Rehabilitation","address":"4365 Northern Pike, Monroeville","website":"https://www.concordialm.org"}},{"type":"Feature","geometry":{"type":"Point","coordinates":[-79.76408,40.43307]},"properties":{"name":"Wecare at Monroeville Rehabilitation and Nursing Center","address":"4142 Monroeville Boulevard, Monroeville","website":"https://wecarehcc.com"}},{"type":"Feature","geometry":{"type":"Point","coordinates":[-79.93082,40.44988]},"properties":{"name":"Ivy Park Post Acute","address":"5609 5th Avenue, Pittsburgh","website":"https://ivyparkpa.com"}},{"type":"Feature","geometry":{"type":"Point","coordinates":[-79.92494,40.43186]},"properties":{"name":"Heritage Care Center","address":"5701 Phillips Avenue, Pittsburgh","website":"https://www.upmc.com"}},{"type":"Feature","geometry":{"type":"Point","coordinates":[-80.04232,40.29075]},"properties":{"name":"Meadowcrest Rehabilitation & Healthcare Center","address":"1200 Braun Road, Bethel Park","website":"https://www.meadowcrestrhc.com"}},{"type":"Feature","geometry":{"type":"Point","coordinates":[-79.99987,40.36178]},"properties":{"name":"Whitehall Borough Post Acute","address":"505 Weyman Road, Pittsburgh","website":"https://whitehallboroughpa.com"}},{"type":"Feature","geometry":{"type":"Point","coordinates":[-79.90394,40.39127]},"properties":{"name":"Eldercrest Rehabilitation & Healthcare Center","address":"2600 West Run Road, Munhall","website":"https://www.eldercrestrhc.com"}},{"type":"Feature","geometry":{"type":"Point","coordinates":[-79.92151,40.46942]},"properties":{"name":"East End Health & Rehab Center","address":"745 North Highland Avenue, Pittsburgh","website":"https://www.saberhealth.com"}},{"type":"Feature","geometry":{"type":"Point","coordinates":[-80.06782,40.39741]},"properties":{"name":"Carnegie Park Post Acute","address":"1848 Greentree Road, Pittsburgh","website":"https://carnegieparkpa.com"}},{"type":"Feature","geometry":{"type":"Point","coordinates":[-79.86719,40.34748]},"properties":{"name":"Riverside Health & Rehab Center","address":"100 8th Street, Mckeesport","website":"https://riverrehab.com"}},{"type":"Feature","geometry":{"type":"Point","coordinates":[-80.1102,40.31476]},"properties":{"name":"Friendship Village of South Hills","address":"1290 Boyce Road, Pittsburgh","website":"https://www.lifespacecommunities.com"}},{"type":"Feature","geometry":{"type":"Point","coordinates":[-79.96035,40.65042]},"properties":{"name":"St. Barnabas Nursing Home","address":"5827 Meridian Road, Gibsonia","website":"https://stbarnabashealthsystem.com"}},{"type":"Feature","geometry":{"type":"Point","coordinates":[-79.99368,40.46831]},"properties":{"name":"Spring Hill Rehabilitation and Nursing Center","address":"2170 Rhine Street, Pittsburgh","website":"https://springhillsnf.com"}},{"type":"Feature","geometry":{"type":"Point","coordinates":[-79.80711,40.52634]},"properties":{"name":"Longwood at Oakmont","address":"500 Route 909, Verona","website":"https://www.longwoodatoakmont.com"}},{"type":"Feature","geometry":{"type":"Point","coordinates":[-79.74154,40.61386]},"properties":{"name":"Platinum Ridge Center for Rehabilitation and Healing","address":"1050 Broadview Boulevard, Brackenridge","website":null}},{"type":"Feature","geometry":{"type":"Point","coordinates":[-79.89055,40.44514]},"properties":{"name":"Burgh Care Center","address":"909 West Street, Pittsburgh","website":"https://theburghcarecenter.com"}},{"type":"Feature","geometry":{"type":"Point","coordinates":[-79.87161,40.59695]},"properties":{"name":"Kadima Rehabilitation & Nursing at Cheswick","address":"3876 Saxonburg Blvd, Cheswick","website":null}},{"type":"Feature","geometry":{"type":"Point","coordinates":[-79.92678,40.43335]},"properties":{"name":"Squirrel Hill Wellness and Rehabilitation Center","address":"2025 Wightman Street, Pittsburgh","website":"https://squirrelhillwr.com"}}],"metadata":{"source":"PA DOH nursing homes, PASDA DepHealth (inputs/places/allegheny_nursing_homes_doh.csv)","builtAt":"2026-09-26T20:34:23.155Z"}}