{"type":"FeatureCollection","features":[{"type":"Feature","geometry":{"type":"Point","coordinates":[-80.03773,40.39255]},"properties":{"name":"South Hills Post Office","address":"3038 West Liberty Avenue","sources":"OSM+County_Assets"}},{"type":"Feature","geometry":{"type":"Point","coordinates":[-80.02235,40.39519]},"properties":{"name":"Brookline Post Office","address":"612 Brookline Boulevard","sources":"OSM"}},{"type":"Feature","geometry":{"type":"Point","coordinates":[-80.0831,40.34416]},"properties":{"name":"Upper Saint Clair Post Office","address":"2211 Lesnett Road","sources":"OSM+County_Assets"}},{"type":"Feature","geometry":{"type":"Point","coordinates":[-80.03615,40.37452]},"properties":{"name":"Castle Shannon/Mt Lebanon Post Office","address":"370 Castle Shannon Boulevard","sources":"OSM+County_Assets"}},{"type":"Feature","geometry":{"type":"Point","coordinates":[-80.06759,40.41267]},"properties":{"name":"Greentree Post Office","address":"770 Trumbull Drive","sources":"OSM+County_Assets"}},{"type":"Feature","geometry":{"type":"Point","coordinates":[-80.03361,40.32741]},"properties":{"name":"Bethel Park Post Office","address":"2765 South Park Road","sources":"OSM+County_Assets"}},{"type":"Feature","geometry":{"type":"Point","coordinates":[-80.06791,40.3758]},"properties":{"name":"Cedarhurst Post Office","address":"1099 Bower Hill Road","sources":"OSM+County_Assets"}},{"type":"Feature","geometry":{"type":"Point","coordinates":[-80.07064,40.43889]},"properties":{"name":"Crafton Post Office","address":"90 West Steuben Street","sources":"OSM"}},{"type":"Feature","geometry":{"type":"Point","coordinates":[-80.18441,40.39657]},"properties":{"name":"Oakdale Post Office","address":"101 Union Avenue","sources":"OSM"}},{"type":"Feature","geometry":{"type":"Point","coordinates":[-80.08591,40.40831]},"properties":{"name":"Carnegie Post Office","address":"139 East Main Street","sources":"OSM"}},{"type":"Feature","geometry":{"type":"Point","coordinates":[-80.11936,40.37283]},"properties":{"name":"Presto Post Office","address":"5234 Thoms Run Road","sources":"OSM"}},{"type":"Feature","geometry":{"type":"Point","coordinates":[-80.15589,40.3484]},"properties":{"name":"Cuddy Post Office","address":"615 Millers Run Road","sources":"OSM"}},{"type":"Feature","geometry":{"type":"Point","coordinates":[-80.2133,40.37995]},"properties":{"name":"Sturgeon Post Office","address":"507 Main Street","sources":"OSM"}},{"type":"Feature","geometry":{"type":"Point","coordinates":[-80.11357,40.35692]},"properties":{"name":"Bridgeville Post Office","address":"700 Washington Avenue","sources":"OSM+County_Assets"}},{"type":"Feature","geometry":{"type":"Point","coordinates":[-80.14191,40.3553]},"properties":{"name":"Morgan Post Office","address":"514 Millers Run Road","sources":"OSM"}},{"type":"Feature","geometry":{"type":"Point","coordinates":[-79.89214,40.34857]},"properties":{"name":"Dravosburg Post Office","address":null,"sources":"OSM"}},{"type":"Feature","geometry":{"type":"Point","coordinates":[-80.00048,40.4394]},"properties":{"name":"Fourth Avenue Post Office","address":null,"sources":"OSM"}},{"type":"Feature","geometry":{"type":"Point","coordinates":[-80.00506,40.4389]},"properties":{"name":"Gateway Center Post Office","address":null,"sources":"OSM"}},{"type":"Feature","geometry":{"type":"Point","coordinates":[-79.91962,40.29758]},"properties":{"name":"Large Post Office","address":"1613 Route 51","sources":"OSM"}},{"type":"Feature","geometry":{"type":"Point","coordinates":[-80.00695,40.43058]},"properties":{"name":"Mount Washington Post Office","address":null,"sources":"OSM"}},{"type":"Feature","geometry":{"type":"Point","coordinates":[-79.90293,40.38631]},"properties":{"name":"Munhall Post Office","address":"3406 Main Street","sources":"OSM"}},{"type":"Feature","geometry":{"type":"Point","coordinates":[-79.82549,40.40505]},"properties":{"name":"Turtle Creek Post Office","address":"116 GRANT ST","sources":"OSM+County_Assets"}},{"type":"Feature","geometry":{"type":"Point","coordinates":[-79.83585,40.39987]},"properties":{"name":"United States Post Office","address":"701 LINDEN AVE","sources":"OSM+County_Assets"}},{"type":"Feature","geometry":{"type":"Point","coordinates":[-79.79655,40.3121]},"properties":{"name":"Greenock Post Office","address":"710 Zimmer Lane","sources":"OSM"}},{"type":"Feature","geometry":{"type":"Point","coordinates":[-79.80072,40.29625]},"properties":{"name":"Coulters Post Office","address":"211 Tourman Street","sources":"OSM"}},{"type":"Feature","geometry":{"type":"Point","coordinates":[-79.86469,40.3473]},"properties":{"name":"McKeesport Post Office","address":"850 WALNUT ST","sources":"OSM+County_Assets"}},{"type":"Feature","geometry":{"type":"Point","coordinates":[-79.98097,40.42904]},"properties":{"name":"Carson Post Office","address":"1731 East Carson Street","sources":"OSM"}},{"type":"Feature","geometry":{"type":"Point","coordinates":[-79.78356,40.43175]},"properties":{"name":"Monroeville Post Office","address":"2630 Monroeville Boulevard","sources":"OSM+County_Assets"}},{"type":"Feature","geometry":{"type":"Point","coordinates":[-79.92319,40.43671]},"properties":{"name":"Squirrel Hill Post Office","address":"1800 Murray Avenue","sources":"OSM+County_Assets"}},{"type":"Feature","geometry":{"type":"Point","coordinates":[-79.98716,40.41666]},"properties":{"name":"Mount Oliver Post Office","address":"140 Brownsville Road","sources":"OSM"}},{"type":"Feature","geometry":{"type":"Point","coordinates":[-79.8616,40.3978]},"properties":{"name":"Braddock Post Office","address":"1110 Braddock Avenue","sources":"OSM"}},{"type":"Feature","geometry":{"type":"Point","coordinates":[-79.95445,40.34281]},"properties":{"name":"Pleasant Hills Post Office","address":"500 REGIS AVE","sources":"OSM+County_Assets"}},{"type":"Feature","geometry":{"type":"Point","coordinates":[-79.8256,40.31138]},"properties":{"name":"Boston Post Office","address":null,"sources":"OSM"}},{"type":"Feature","geometry":{"type":"Point","coordinates":[-79.84537,40.37306]},"properties":{"name":"Duquesne PA Post Office 15110","address":"11 S 1ST ST","sources":"OSM+County_Assets"}},{"type":"Feature","geometry":{"type":"Point","coordinates":[-79.82325,40.38445]},"properties":{"name":"North Versailles Post Office","address":null,"sources":"OSM"}},{"type":"Feature","geometry":{"type":"Point","coordinates":[-79.94385,40.40779]},"properties":{"name":"Hazelwood Post Office","address":"5020 2ND AVE","sources":"OSM+County_Assets"}},{"type":"Feature","geometry":{"type":"Point","coordinates":[-79.88838,40.42205]},"properties":{"name":"Swissvale Post Office","address":"1911 Monongahela Avenue","sources":"OSM"}},{"type":"Feature","geometry":{"type":"Point","coordinates":[-79.95267,40.44017]},"properties":{"name":"Oakland Post Office","address":"347 South Bouquet Street","sources":"OSM+County_Assets"}},{"type":"Feature","geometry":{"type":"Point","coordinates":[-79.88877,40.27141]},"properties":{"name":"Elizabeth Post Office","address":null,"sources":"OSM"}},{"type":"Feature","geometry":{"type":"Point","coordinates":[-79.90515,40.40917]},"properties":{"name":"Homestead Post Office","address":"601 East 8th Avenue","sources":"OSM+County_Assets"}},{"type":"Feature","geometry":{"type":"Point","coordinates":[-79.99727,40.29286]},"properties":{"name":"South Park Post Office","address":"2560 Brownsville Road","sources":"OSM+County_Assets"}},{"type":"Feature","geometry":{"type":"Point","coordinates":[-79.95312,40.23718]},"properties":{"name":"Bunola Post Office","address":"358 Bunola River Road","sources":"OSM"}},{"type":"Feature","geometry":{"type":"Point","coordinates":[-79.89273,40.32324]},"properties":{"name":"Glassport Post Office","address":"730 Monongahela Avenue","sources":"OSM"}},{"type":"Feature","geometry":{"type":"Point","coordinates":[-79.88524,40.29314]},"properties":{"name":"Clairton Post Office","address":"455 Saint Clair Avenue","sources":"OSM+County_Assets"}},{"type":"Feature","geometry":{"type":"Point","coordinates":[-79.80934,40.39345]},"properties":{"name":"Wilmerding Post Office","address":"410 Station Street","sources":"OSM"}},{"type":"Feature","geometry":{"type":"Point","coordinates":[-79.80915,40.38354]},"properties":{"name":"East McKeesport Post Office","address":"985 Josephine Street","sources":"OSM"}},{"type":"Feature","geometry":{"type":"Point","coordinates":[-79.87651,40.3813]},"properties":{"name":"West Mifflin Post Office","address":"5001 Homeville Road","sources":"OSM"}},{"type":"Feature","geometry":{"type":"Point","coordinates":[-80.0831,40.63797]},"properties":{"name":"Bradford Woods Post Office","address":"10 Seldom Seen Road","sources":"OSM"}},{"type":"Feature","geometry":{"type":"Point","coordinates":[-80.18046,40.53883]},"properties":{"name":"Sewickley Post Office","address":"521 THORN ST","sources":"OSM+County_Assets"}},{"type":"Feature","geometry":{"type":"Point","coordinates":[-80.0348,40.4413]},"properties":{"name":"Wabash Post Office","address":"13 Wabash Street","sources":"OSM"}},{"type":"Feature","geometry":{"type":"Point","coordinates":[-80.0375,40.51608]},"properties":{"name":"West View Post Office","address":"1007 West View Park Drive","sources":"OSM"}},{"type":"Feature","geometry":{"type":"Point","coordinates":[-80.16826,40.45446]},"properties":{"name":"Montour Post Office","address":"1936 Park Manor Boulevard","sources":"OSM"}},{"type":"Feature","geometry":{"type":"Point","coordinates":[-80.22351,40.55976]},"properties":{"name":"USPS","address":"105 McGovern Boulevard","sources":"OSM"}},{"type":"Feature","geometry":{"type":"Point","coordinates":[-80.23685,40.44324]},"properties":{"name":"Imperial Post Office","address":"600 Penn Lincoln Drive","sources":"OSM+County_Assets"}},{"type":"Feature","geometry":{"type":"Point","coordinates":[-80.29536,40.48902]},"properties":{"name":"Clinton Post Office","address":"3738 Washington Road","sources":"OSM"}},{"type":"Feature","geometry":{"type":"Point","coordinates":[-80.05564,40.58193]},"properties":{"name":"Ingomar Post Office","address":"736 West Ingomar Road","sources":"OSM"}},{"type":"Feature","geometry":{"type":"Point","coordinates":[-80.05605,40.61376]},"properties":{"name":"Wexford Post Office","address":"10675 Perry Highway","sources":"OSM+County_Assets"}},{"type":"Feature","geometry":{"type":"Point","coordinates":[-80.05735,40.49706]},"properties":{"name":"Bellevue Post Office","address":"15 North Sprague Avenue","sources":"OSM"}},{"type":"Feature","geometry":{"type":"Point","coordinates":[-80.0646,40.4656]},"properties":{"name":"McKees Rocks Post Office","address":"807 Chartiers Avenue","sources":"OSM+County_Assets"}},{"type":"Feature","geometry":{"type":"Point","coordinates":[-80.10801,40.66487]},"properties":{"name":"United States Post Office","address":"300 Brush Creek Road","sources":"OSM+County_Assets"}},{"type":"Feature","geometry":{"type":"Point","coordinates":[-80.16638,40.51798]},"properties":{"name":"Coraopolis Post Office","address":"914 5th Avenue","sources":"OSM"}},{"type":"Feature","geometry":{"type":"Point","coordinates":[-80.12646,40.50883]},"properties":{"name":"Neville Island Post Office","address":"115 2nd Street","sources":"OSM"}},{"type":"Feature","geometry":{"type":"Point","coordinates":[-80.20937,40.50479]},"properties":{"name":"Coraopolis Moon Post Office","address":"1140 Thorn Run Road","sources":"OSM+County_Assets"}},{"type":"Feature","geometry":{"type":"Point","coordinates":[-79.96116,40.47046]},"properties":{"name":"Arsenal Post Office","address":null,"sources":"OSM"}},{"type":"Feature","geometry":{"type":"Point","coordinates":[-79.73562,40.60621]},"properties":{"name":"Brackenridge Post Office","address":null,"sources":"OSM"}},{"type":"Feature","geometry":{"type":"Point","coordinates":[-79.77925,40.57903]},"properties":{"name":"Creighton Post Office","address":null,"sources":"OSM"}},{"type":"Feature","geometry":{"type":"Point","coordinates":[-79.94464,40.49636]},"properties":{"name":"Etna Post Office","address":null,"sources":"OSM"}},{"type":"Feature","geometry":{"type":"Point","coordinates":[-79.9611,40.53098]},"properties":{"name":"Glenshaw Post Office","address":"1541 BUTLER PLANK RD","sources":"OSM+County_Assets"}},{"type":"Feature","geometry":{"type":"Point","coordinates":[-79.80571,40.55344]},"properties":{"name":"Harwick Post Office","address":"1400 Pillow Avenue","sources":"OSM"}},{"type":"Feature","geometry":{"type":"Point","coordinates":[-79.88967,40.45207]},"properties":{"name":"Homewood Post Office","address":null,"sources":"OSM"}},{"type":"Feature","geometry":{"type":"Point","coordinates":[-79.72464,40.62251]},"properties":{"name":"Natrona Heights Post Office","address":null,"sources":"OSM"}},{"type":"Feature","geometry":{"type":"Point","coordinates":[-79.82594,40.46425]},"properties":{"name":"Penn Hills Post Office","address":"11650 Penn Hills Drive","sources":"OSM"}},{"type":"Feature","geometry":{"type":"Point","coordinates":[-79.84334,40.50429]},"properties":{"name":"Verona Post Office","address":null,"sources":"OSM"}},{"type":"Feature","geometry":{"type":"Point","coordinates":[-79.88599,40.44433]},"properties":{"name":"Wilkinsburg Finance Post Office","address":null,"sources":"OSM"}},{"type":"Feature","geometry":{"type":"Point","coordinates":[-79.98058,40.44278]},"properties":{"name":"Wylie Post Office","address":null,"sources":"OSM"}},{"type":"Feature","geometry":{"type":"Point","coordinates":[-79.94134,40.45711]},"properties":{"name":"United States Post Office Bloomfield Station","address":"5182 Liberty Avenue","sources":"OSM"}},{"type":"Feature","geometry":{"type":"Point","coordinates":[-79.876,40.48805]},"properties":{"name":"Blawnox Post Office","address":"1310 OLD FREEPORT RD","sources":"OSM+County_Assets"}},{"type":"Feature","geometry":{"type":"Point","coordinates":[-80.0109,40.53111]},"properties":{"name":"McKnight Post Office","address":"4981 MCKNIGHT RD","sources":"OSM+County_Assets"}},{"type":"Feature","geometry":{"type":"Point","coordinates":[-79.84238,40.5187]},"properties":{"name":"Oakmont Post Office","address":"530 Allegheny River Boulevard","sources":"OSM+County_Assets"}},{"type":"Feature","geometry":{"type":"Point","coordinates":[-79.97072,40.47946]},"properties":{"name":"United States Post Office","address":"205 Lincoln Avenue","sources":"OSM"}},{"type":"Feature","geometry":{"type":"Point","coordinates":[-79.94711,40.59542]},"properties":{"name":"Allison Park Post Office","address":"4746 WILLIAM FLYNN HWY","sources":"OSM+County_Assets"}},{"type":"Feature","geometry":{"type":"Point","coordinates":[-79.91601,40.46041]},"properties":{"name":"United States Post Office Vehicle Maintenance Facility","address":"6360 BROAD ST","sources":"OSM+County_Assets"}},{"type":"Feature","geometry":{"type":"Point","coordinates":[-79.917,40.46025]},"properties":{"name":"East Liberty Post Office","address":"6360 Broad Street","sources":"OSM"}},{"type":"Feature","geometry":{"type":"Point","coordinates":[-79.96787,40.594]},"properties":{"name":"United States Post Office","address":null,"sources":"OSM"}},{"type":"Feature","geometry":{"type":"Point","coordinates":[-79.94027,40.63448]},"properties":{"name":"Gibsonia Post Office","address":"4098 Gibsonia Road","sources":"OSM+County_Assets"}},{"type":"Feature","geometry":{"type":"Point","coordinates":[-79.93041,40.49453]},"properties":{"name":"Sharpsburg Post Office","address":"1200 Main Street","sources":"OSM"}},{"type":"Feature","geometry":{"type":"Point","coordinates":[-80.00518,40.44995]},"properties":{"name":"United States Post Office Allegheny Station","address":null,"sources":"OSM"}},{"type":"Feature","geometry":{"type":"Point","coordinates":[-79.87916,40.63228]},"properties":{"name":"Bairdford Post Office","address":null,"sources":"OSM"}},{"type":"Feature","geometry":{"type":"Point","coordinates":[-79.7778,40.54128]},"properties":{"name":"Springdale Post Office","address":"896 Pittsburgh Street","sources":"OSM+County_Assets"}},{"type":"Feature","geometry":{"type":"Point","coordinates":[-79.75274,40.60404]},"properties":{"name":"Tarentum Post Office","address":"708 CORBET ST","sources":"OSM+County_Assets"}},{"type":"Feature","geometry":{"type":"Point","coordinates":[-79.79766,40.54151]},"properties":{"name":"Cheswick Post Office","address":"1601 Pittsburgh Street","sources":"OSM"}},{"type":"Feature","geometry":{"type":"Point","coordinates":[-80.02026,40.4587]},"properties":{"name":"PITTSBURGH POST OFFICE - P&DC","address":"1001 CALIFORNIA AVE RM 2057A","sources":"County_Assets"}},{"type":"Feature","geometry":{"type":"Point","coordinates":[-80.0193,40.45571]},"properties":{"name":"PITTSBURGH POST OFFICE - STORAGE FACILITY","address":"900 PENNSYLVANIA AVE","sources":"County_Assets"}},{"type":"Feature","geometry":{"type":"Point","coordinates":[-79.89938,40.27186]},"properties":{"name":"WEST ELIZABETH POST OFFICE - MAIN OFFICE","address":"604 GRANT ST","sources":"County_Assets"}}],"metadata":{"source":"OpenStreetMap (ODbL) + Allegheny County Assets (inputs/places/allegheny_post_offices_merged.csv)","builtAt":"2026-09-26T20:12:12.162Z"}}