{"type":"FeatureCollection","features":[{"type":"Feature","geometry":{"type":"Point","coordinates":[-80.02716,40.34784]},"properties":{"name":"BETHEL PARK LAUNDROMAT","address":"4790 LIBRARY RD","municipality":null,"hours":null}},{"type":"Feature","geometry":{"type":"Point","coordinates":[-80.16891,40.5207]},"properties":{"name":"BUBBLES ON 4TH LAUNDROMAT","address":"805 4TH AVE","municipality":null,"hours":null}},{"type":"Feature","geometry":{"type":"Point","coordinates":[-79.86702,40.38377]},"properties":{"name":"KENNYWOOD LAUNDROMAT","address":"1801 HOFFMAN BLVD","municipality":null,"hours":null}},{"type":"Feature","geometry":{"type":"Point","coordinates":[-80.24724,40.44964]},"properties":{"name":"IMPERIAL LAUNDROMAT","address":"434 US ROUTE 30","municipality":null,"hours":null}},{"type":"Feature","geometry":{"type":"Point","coordinates":[-79.805,40.37891]},"properties":{"name":"COIN OP LAUNDROMAT","address":"807 LINCOLN HWY","municipality":null,"hours":null}},{"type":"Feature","geometry":{"type":"Point","coordinates":[-79.84224,40.51919]},"properties":{"name":"IMPERIAL CLEANERS OF OAKMONT","address":"600 ALLEGHENY RIVER BLVD","municipality":null,"hours":null}},{"type":"Feature","geometry":{"type":"Point","coordinates":[-79.78661,40.54059]},"properties":{"name":"BRITE & WHITE LAUNDROMAT","address":"494 PITTSBURGH ST","municipality":null,"hours":null}},{"type":"Feature","geometry":{"type":"Point","coordinates":[-79.76722,40.44043]},"properties":{"name":"CENTER LAUNDROMAT","address":"224 CENTER RD","municipality":null,"hours":null}},{"type":"Feature","geometry":{"type":"Point","coordinates":[-79.96179,40.46935]},"properties":{"name":"BUTLER ST COIN OP LAUNDROMAT","address":"4019 BUTLER STREET","municipality":null,"hours":null}},{"type":"Feature","geometry":{"type":"Point","coordinates":[-80.05588,40.42631]},"properties":{"name":"COIN UP LAUNDROMAT","address":"2375 NOBLESTOWN RD","municipality":null,"hours":null}},{"type":"Feature","geometry":{"type":"Point","coordinates":[-80.07101,40.44008]},"properties":{"name":"CRAFTON INGRAM LAUNDROMAT","address":"35 WALSH RD","municipality":null,"hours":null}},{"type":"Feature","geometry":{"type":"Point","coordinates":[-79.98425,40.34199]},"properties":{"name":"BALDWIN LAUNDROMAT","address":"5255 BROWNSVILLE RD","municipality":null,"hours":null}},{"type":"Feature","geometry":{"type":"Point","coordinates":[-79.95179,40.46457]},"properties":{"name":"BLOOMERS LAUNDROMAT","address":"4430 HOWLEY ST","municipality":null,"hours":null}},{"type":"Feature","geometry":{"type":"Point","coordinates":[-79.9514,40.46316]},"properties":{"name":"BLOOMFIELD LAUNDROMAT","address":"4507 LIBERTY AVE","municipality":null,"hours":null}},{"type":"Feature","geometry":{"type":"Point","coordinates":[-80.02096,40.39414]},"properties":{"name":"BOULEVARD LAUNDROMAT","address":"726 BROOKLINE BLVD","municipality":null,"hours":null}},{"type":"Feature","geometry":{"type":"Point","coordinates":[-79.80282,40.54055]},"properties":{"name":"CHESWICK LAUNDROMAT","address":"1226 PITTSBURGH ST ","municipality":null,"hours":null}},{"type":"Feature","geometry":{"type":"Point","coordinates":[-79.88376,40.29245]},"properties":{"name":"CLAIRTON LAUNDRY ROOM","address":"601 MILLER AVE","municipality":null,"hours":null}},{"type":"Feature","geometry":{"type":"Point","coordinates":[-79.8335,40.60866]},"properties":{"name":"DEER LAKES PLAZA LAUNDROMAT","address":"908 LITTLE DEER CREEK VALLEY RD","municipality":null,"hours":null}},{"type":"Feature","geometry":{"type":"Point","coordinates":[-80.03705,40.39271]},"properties":{"name":"DORMONT LAUNDROMAT","address":"3019 W LIBERTY AVE","municipality":null,"hours":null}},{"type":"Feature","geometry":{"type":"Point","coordinates":[-79.89161,40.3491]},"properties":{"name":"DRAVOSBURG LAUNDROMAT","address":"209 3RD ST","municipality":null,"hours":null}},{"type":"Feature","geometry":{"type":"Point","coordinates":[-79.93398,40.49476]},"properties":{"name":"DROP UR LOAD WASHERY","address":"814 MAIN ST","municipality":null,"hours":null}},{"type":"Feature","geometry":{"type":"Point","coordinates":[-79.93734,40.4559]},"properties":{"name":"DUDS & SUDS","address":"5430 CENTER AVE","municipality":null,"hours":null}},{"type":"Feature","geometry":{"type":"Point","coordinates":[-79.92534,40.45745]},"properties":{"name":"ECONOWASH LAUNDRY","address":"250 S HIGHLAND AVE","municipality":null,"hours":null}},{"type":"Feature","geometry":{"type":"Point","coordinates":[-80.04061,40.4442]},"properties":{"name":"ELLIOTS COIN OP","address":"1000 CHARTIERS AVE","municipality":null,"hours":null}},{"type":"Feature","geometry":{"type":"Point","coordinates":[-79.97201,40.34396]},"properties":{"name":"FLUFF N PUFF LAUNDRY","address":"5150 CLAIRTON BLVD","municipality":null,"hours":null}},{"type":"Feature","geometry":{"type":"Point","coordinates":[-79.80954,40.41891]},"properties":{"name":"HOHMANNS PLAZA LAUNDROMAT","address":"1224 JAMES ST","municipality":null,"hours":null}},{"type":"Feature","geometry":{"type":"Point","coordinates":[-79.70634,40.46221]},"properties":{"name":"HOLIDAY PARK LAUNDRY","address":"932 PRESQUE ISLE DR","municipality":null,"hours":null}},{"type":"Feature","geometry":{"type":"Point","coordinates":[-79.9102,40.40708]},"properties":{"name":"HOMESTEAD LAUNDROMAT","address":"212 E 8TH AVE","municipality":null,"hours":null}},{"type":"Feature","geometry":{"type":"Point","coordinates":[-79.97683,40.38324]},"properties":{"name":"JAYS LAUNDROMAT","address":"2813 BROWNSVILLE RD","municipality":null,"hours":null}},{"type":"Feature","geometry":{"type":"Point","coordinates":[-80.03624,40.39781]},"properties":{"name":"LAUNDRY BASKET","address":"1608 POTOMAC AVE","municipality":null,"hours":null}},{"type":"Feature","geometry":{"type":"Point","coordinates":[-80.11058,40.35724]},"properties":{"name":"SELF SERV LAUNDROMAT","address":"510 STATION ST","municipality":null,"hours":null}},{"type":"Feature","geometry":{"type":"Point","coordinates":[-79.92911,40.45754]},"properties":{"name":"LAUNDRY FACTORY","address":"5859 ELLSWORTH AVE","municipality":null,"hours":null}},{"type":"Feature","geometry":{"type":"Point","coordinates":[-79.72499,40.62237]},"properties":{"name":"PLAZA LAUNDRY","address":"1711 UNION AVE","municipality":null,"hours":null}},{"type":"Feature","geometry":{"type":"Point","coordinates":[-79.97328,40.42729]},"properties":{"name":"LAUNDRY MAT","address":"118 S 23RD ST","municipality":null,"hours":null}},{"type":"Feature","geometry":{"type":"Point","coordinates":[-79.9514,40.46316]},"properties":{"name":"LIBERTY LAUNDROMAT","address":"4507 LIBERTY AVE","municipality":null,"hours":null}},{"type":"Feature","geometry":{"type":"Point","coordinates":[-80.03332,40.30889]},"properties":{"name":"NEIGHBORHOOD LAUNDROMAT","address":"5844 LIBRARY RD","municipality":null,"hours":null}},{"type":"Feature","geometry":{"type":"Point","coordinates":[-80.09042,40.4036]},"properties":{"name":"MIKES LAUNDROMAT","address":"215 3RD ST","municipality":null,"hours":null}},{"type":"Feature","geometry":{"type":"Point","coordinates":[-79.86185,40.35102]},"properties":{"name":"MCKEESPORT CITY","address":"500 5TH AVE","municipality":null,"hours":null}},{"type":"Feature","geometry":{"type":"Point","coordinates":[-79.91681,40.40308]},"properties":{"name":"WEST HOMESTEAD LAUNDROMAT","address":"405 W 8TH AVE","municipality":null,"hours":null}},{"type":"Feature","geometry":{"type":"Point","coordinates":[-79.81716,40.34715]},"properties":{"name":"WHITE OAK LAUNDROMAT","address":"1618 LINCOLN WAY","municipality":null,"hours":null}},{"type":"Feature","geometry":{"type":"Point","coordinates":[-79.89133,40.33478]},"properties":{"name":"MONONGAHELA AVE COIN LAUNDROMAT","address":"48 MONONGAHELA AVE","municipality":null,"hours":null}},{"type":"Feature","geometry":{"type":"Point","coordinates":[-80.07043,40.46479]},"properties":{"name":"MCKEES ROCKS LAUNDROMAT","address":"1201 CHARTIERS AVE","municipality":null,"hours":null}},{"type":"Feature","geometry":{"type":"Point","coordinates":[-79.75607,40.43412]},"properties":{"name":"MONROEVILLE LAUNDROMAT","address":"4251 NORTHERN PIKE","municipality":null,"hours":null}},{"type":"Feature","geometry":{"type":"Point","coordinates":[-79.82151,40.38705]},"properties":{"name":"REGENT LAUNDRY SERVICES","address":"1740 GREENSBURG AVE","municipality":null,"hours":null}},{"type":"Feature","geometry":{"type":"Point","coordinates":[-79.82789,40.37155]},"properties":{"name":"SPIN CYCLE LAUNDROMAT","address":"600 EAST PITTSBURGH MCKEESPORT BLVD","municipality":null,"hours":null}},{"type":"Feature","geometry":{"type":"Point","coordinates":[-80.00088,40.45502]},"properties":{"name":"OLD TOWNE LAUNDRY","address":"824 JAMES ST","municipality":null,"hours":null}},{"type":"Feature","geometry":{"type":"Point","coordinates":[-79.7811,40.54102]},"properties":{"name":"SPRINGDALE LAUNDRY BASKET","address":"726 PITTSBURGH ST","municipality":null,"hours":null}},{"type":"Feature","geometry":{"type":"Point","coordinates":[-79.83369,40.32193]},"properties":{"name":"OLYMPIA COIN LAUNDROMAT","address":"4313 WALNUT ST","municipality":null,"hours":null}},{"type":"Feature","geometry":{"type":"Point","coordinates":[-79.96048,40.46463]},"properties":{"name":"SUPER WASH COIN LAUNDROMAT","address":"3824 PENN AVE","municipality":null,"hours":null}},{"type":"Feature","geometry":{"type":"Point","coordinates":[-79.83779,40.27703]},"properties":{"name":"P & W CAR WASH & LAUNDROMAT","address":"410 SCENERY DR","municipality":null,"hours":null}},{"type":"Feature","geometry":{"type":"Point","coordinates":[-80.09434,40.5099]},"properties":{"name":"SNOWY WHITE XI","address":"8131 OHIO RIVER BLVD","municipality":null,"hours":null}},{"type":"Feature","geometry":{"type":"Point","coordinates":[-80.08593,40.36392]},"properties":{"name":"PAINTERS RUN LAUNDRY","address":"1952 PAINTERS RUN RD","municipality":null,"hours":null}},{"type":"Feature","geometry":{"type":"Point","coordinates":[-80.06921,40.43611]},"properties":{"name":"SNOWY WHITE XI","address":"53 CRENNELL AVE","municipality":null,"hours":null}},{"type":"Feature","geometry":{"type":"Point","coordinates":[-80.03604,40.53867]},"properties":{"name":"R LAUNDROMAT","address":"988 PERRY HWY","municipality":null,"hours":null}},{"type":"Feature","geometry":{"type":"Point","coordinates":[-80.14539,40.44398]},"properties":{"name":"ROBINSON LAUNDROMAT","address":"6080 STEUBENVILLE PIKE","municipality":null,"hours":null}},{"type":"Feature","geometry":{"type":"Point","coordinates":[-79.90125,40.48958]},"properties":{"name":"RONNIES LAUNDROMAT","address":"23 BRILLIANT AVE","municipality":null,"hours":null}},{"type":"Feature","geometry":{"type":"Point","coordinates":[-79.89359,40.43257]},"properties":{"name":"SQUARE WASH LAUNDROMAT","address":"1111 S BRADDOCK AVE","municipality":null,"hours":null}},{"type":"Feature","geometry":{"type":"Point","coordinates":[-79.99054,40.50628]},"properties":{"name":"THE LAUNDROMAT","address":"1939 BABCOCK BLVD","municipality":null,"hours":null}},{"type":"Feature","geometry":{"type":"Point","coordinates":[-79.82962,40.46506]},"properties":{"name":"THE LAUNDRY ROOM","address":"11575 FRANKSTOWN RD","municipality":null,"hours":null}},{"type":"Feature","geometry":{"type":"Point","coordinates":[-79.85559,40.41411]},"properties":{"name":"THE SOAP OPERA","address":"264 YOST BLVD","municipality":null,"hours":null}},{"type":"Feature","geometry":{"type":"Point","coordinates":[-79.88755,40.42772]},"properties":{"name":"TOWNE CLEANER LAUNDRYROOM","address":"1637 S BRADDOCK AVE","municipality":null,"hours":null}},{"type":"Feature","geometry":{"type":"Point","coordinates":[-80.03569,40.48455]},"properties":{"name":"TREYS LAUNDROMAT","address":"3800 BRIGHTON RD","municipality":null,"hours":null}},{"type":"Feature","geometry":{"type":"Point","coordinates":[-79.98299,40.4626]},"properties":{"name":"TROY HILL COIN LAUNDRY","address":"1603 LOWRIE ST","municipality":null,"hours":null}},{"type":"Feature","geometry":{"type":"Point","coordinates":[-79.98749,40.41555]},"properties":{"name":"TWIN CLOTHES LINE","address":"214 BROWNSVILLE RD","municipality":null,"hours":null}},{"type":"Feature","geometry":{"type":"Point","coordinates":[-79.98966,40.40338]},"properties":{"name":"URBANS CARRICK LAUNDRY","address":"1223 BROWNSVILLE RD","municipality":null,"hours":null}},{"type":"Feature","geometry":{"type":"Point","coordinates":[-79.88402,40.43031]},"properties":{"name":"WASH MONSTER","address":"251 EDGEWOOD AVE","municipality":null,"hours":null}},{"type":"Feature","geometry":{"type":"Point","coordinates":[-79.885,40.41926]},"properties":{"name":"WASH N SAVE COIN LAUNDRY","address":"2206 WOODSTOCK AVE","municipality":null,"hours":null}},{"type":"Feature","geometry":{"type":"Point","coordinates":[-80.01762,40.37206]},"properties":{"name":"WASH WORKS LAUNDRY HOUSE","address":"900 SLEEPY HOLLOW RD","municipality":null,"hours":null}}],"metadata":{"source":"https://data.wprdc.org/datastore/dump/5c7825d2-6814-40c7-aefe-3d0f3d6f22e7","assetType":"laundromats","builtAt":"2026-09-26T18:44:37.937Z"}}