{"type":"FeatureCollection","features":[{"type":"Feature","geometry":{"type":"Point","coordinates":[-79.93215,40.4566]},"properties":{"name":"Pierce St & Summerlea St","capacity":19}},{"type":"Feature","geometry":{"type":"Point","coordinates":[-79.95348,40.42583]},"properties":{"name":"Eliza Furnace Trail & Swineburne St","capacity":15}},{"type":"Feature","geometry":{"type":"Point","coordinates":[-79.97829,40.4445]},"properties":{"name":"Centre Ave & Addison St","capacity":15}},{"type":"Feature","geometry":{"type":"Point","coordinates":[-79.9802,40.45638]},"properties":{"name":"Burns White Center at 3 Crossings","capacity":15}},{"type":"Feature","geometry":{"type":"Point","coordinates":[-80.01801,40.4483]},"properties":{"name":"Allegheny Station","capacity":19}},{"type":"Feature","geometry":{"type":"Point","coordinates":[-79.99582,40.4446]},"properties":{"name":"10th St & Penn Ave","capacity":15}},{"type":"Feature","geometry":{"type":"Point","coordinates":[-79.94521,40.45971]},"properties":{"name":"Liberty Ave & Gross St","capacity":15}},{"type":"Feature","geometry":{"type":"Point","coordinates":[-80.00305,40.43291]},"properties":{"name":"Glasshouse","capacity":15}},{"type":"Feature","geometry":{"type":"Point","coordinates":[-79.99511,40.43134]},"properties":{"name":"South Side Trail & S 4th St","capacity":4}},{"type":"Feature","geometry":{"type":"Point","coordinates":[-79.95696,40.43606]},"properties":{"name":"Zulema St & Coltart Ave","capacity":19}},{"type":"Feature","geometry":{"type":"Point","coordinates":[-79.94751,40.4482]},"properties":{"name":"Ellsworth Ave & N Neville St","capacity":15}},{"type":"Feature","geometry":{"type":"Point","coordinates":[-79.95712,40.44512]},"properties":{"name":"O'Hara St & University Place","capacity":23}},{"type":"Feature","geometry":{"type":"Point","coordinates":[-79.95576,40.44164]},"properties":{"name":"S Bouquet Ave & Sennott St","capacity":23}},{"type":"Feature","geometry":{"type":"Point","coordinates":[-79.89754,40.45423]},"properties":{"name":"Tioga St & N Homewood Ave","capacity":15}},{"type":"Feature","geometry":{"type":"Point","coordinates":[-79.93229,40.45179]},"properties":{"name":"Ivy St & Walnut St","capacity":19}},{"type":"Feature","geometry":{"type":"Point","coordinates":[-79.91532,40.45588]},"properties":{"name":"Penn Ave & Putnam St (Bakery Square)","capacity":19}},{"type":"Feature","geometry":{"type":"Point","coordinates":[-79.95087,40.46278]},"properties":{"name":"Taylor St & Liberty Ave","capacity":15}},{"type":"Feature","geometry":{"type":"Point","coordinates":[-79.98328,40.45175]},"properties":{"name":"21st St & Penn Ave","capacity":19}},{"type":"Feature","geometry":{"type":"Point","coordinates":[-79.96041,40.47024]},"properties":{"name":"42nd St & Butler St","capacity":15}},{"type":"Feature","geometry":{"type":"Point","coordinates":[-79.9519,40.4344]},"properties":{"name":"Boulevard of the Allies & Parkview Ave","capacity":23}},{"type":"Feature","geometry":{"type":"Point","coordinates":[-80.00479,40.44132]},"properties":{"name":"Liberty Ave & Stanwix St","capacity":15}},{"type":"Feature","geometry":{"type":"Point","coordinates":[-80.00343,40.44092]},"properties":{"name":"Forbes Ave & Market Square","capacity":19}},{"type":"Feature","geometry":{"type":"Point","coordinates":[-80.00907,40.44575]},"properties":{"name":"North Shore Trail & Fort Duquesne Bridge","capacity":23}},{"type":"Feature","geometry":{"type":"Point","coordinates":[-79.96819,40.46194]},"properties":{"name":"Penn Ave & 33rd St","capacity":11}},{"type":"Feature","geometry":{"type":"Point","coordinates":[-79.92562,40.4616]},"properties":{"name":"Penn Ave & S Whitfield St","capacity":15}},{"type":"Feature","geometry":{"type":"Point","coordinates":[-79.96589,40.42807]},"properties":{"name":"S 27th St & Sidney St. (Southside Works)","capacity":23}},{"type":"Feature","geometry":{"type":"Point","coordinates":[-80.00737,40.45159]},"properties":{"name":"W Commons & Children's Way","capacity":15}},{"type":"Feature","geometry":{"type":"Point","coordinates":[-79.95765,40.44225]},"properties":{"name":"Fifth Ave & S Bouquet St","capacity":23}},{"type":"Feature","geometry":{"type":"Point","coordinates":[-79.95108,40.44515]},"properties":{"name":"Filmore St & S Bellefield Ave","capacity":27}},{"type":"Feature","geometry":{"type":"Point","coordinates":[-79.92176,40.4594]},"properties":{"name":"Shady Ave & Ellsworth Ave","capacity":15}},{"type":"Feature","geometry":{"type":"Point","coordinates":[-79.99695,40.43583]},"properties":{"name":"First Ave & B St","capacity":15}},{"type":"Feature","geometry":{"type":"Point","coordinates":[-79.99642,40.43779]},"properties":{"name":"Ross St & Fourth Ave","capacity":15}},{"type":"Feature","geometry":{"type":"Point","coordinates":[-79.9515,40.44244]},"properties":{"name":"Schenley Dr & Schenley Dr Ext","capacity":19}},{"type":"Feature","geometry":{"type":"Point","coordinates":[-79.95305,40.4511]},"properties":{"name":"N Dithridge St & Centre Ave","capacity":19}},{"type":"Feature","geometry":{"type":"Point","coordinates":[-79.96541,40.46514]},"properties":{"name":"Butler St & 36th St","capacity":15}},{"type":"Feature","geometry":{"type":"Point","coordinates":[-79.94006,40.4641]},"properties":{"name":"S Pacific Ave & Penn Ave","capacity":15}},{"type":"Feature","geometry":{"type":"Point","coordinates":[-79.93436,40.45763]},"properties":{"name":"S Negley Ave & Centre Ave","capacity":15}},{"type":"Feature","geometry":{"type":"Point","coordinates":[-79.9655,40.44359]},"properties":{"name":"Allequippa St & Darragh St","capacity":23}},{"type":"Feature","geometry":{"type":"Point","coordinates":[-79.98637,40.4286]},"properties":{"name":"S 12th St & E Carson St","capacity":19}},{"type":"Feature","geometry":{"type":"Point","coordinates":[-79.99997,40.44336]},"properties":{"name":"Penn Ave & 7th St","capacity":19}},{"type":"Feature","geometry":{"type":"Point","coordinates":[-79.97451,40.42906]},"properties":{"name":"S 22nd St & Sidney St","capacity":19}},{"type":"Feature","geometry":{"type":"Point","coordinates":[-79.94368,40.4089]},"properties":{"name":"Second Ave & Tecumseh St","capacity":19}},{"type":"Feature","geometry":{"type":"Point","coordinates":[-79.94828,40.41349]},"properties":{"name":"Eliza St & Lytle St","capacity":15}},{"type":"Feature","geometry":{"type":"Point","coordinates":[-79.90985,40.45751]},"properties":{"name":"Hamilton Ave & Fifth Ave","capacity":15}},{"type":"Feature","geometry":{"type":"Point","coordinates":[-79.89123,40.45299]},"properties":{"name":"N Braddock Ave & Hamilton Ave","capacity":15}},{"type":"Feature","geometry":{"type":"Point","coordinates":[-79.8975,40.45662]},"properties":{"name":"Bennett St & N Homewood Ave","capacity":15}},{"type":"Feature","geometry":{"type":"Point","coordinates":[-79.98592,40.44963]},"properties":{"name":"17th St & Penn Ave","capacity":19}},{"type":"Feature","geometry":{"type":"Point","coordinates":[-79.94783,40.45321]},"properties":{"name":"Centre Ave & S Millvale Ave","capacity":19}},{"type":"Feature","geometry":{"type":"Point","coordinates":[-79.96012,40.43046]},"properties":{"name":"Technology Dr & Bates St","capacity":23}},{"type":"Feature","geometry":{"type":"Point","coordinates":[-79.95376,40.43803]},"properties":{"name":"Atwood St & Bates St","capacity":19}},{"type":"Feature","geometry":{"type":"Point","coordinates":[-79.96023,40.43899]},"properties":{"name":"Coltart Ave & Forbes Ave","capacity":19}},{"type":"Feature","geometry":{"type":"Point","coordinates":[-79.97823,40.44837]},"properties":{"name":"Bedford Ave & Memory Ln","capacity":19}},{"type":"Feature","geometry":{"type":"Point","coordinates":[-79.98165,40.44283]},"properties":{"name":"Centre Ave & Heldman St","capacity":19}},{"type":"Feature","geometry":{"type":"Point","coordinates":[-80.01379,40.45251]},"properties":{"name":"W Ohio St & Brighton Rd","capacity":19}},{"type":"Feature","geometry":{"type":"Point","coordinates":[-80.01537,40.45636]},"properties":{"name":"Brighton Rd & Pennsylvania Ave","capacity":19}},{"type":"Feature","geometry":{"type":"Point","coordinates":[-79.93524,40.467]},"properties":{"name":"Rosetta St & N Aiken Ave","capacity":15}},{"type":"Feature","geometry":{"type":"Point","coordinates":[-79.95434,40.48027]},"properties":{"name":"52nd St & Butler St","capacity":19}},{"type":"Feature","geometry":{"type":"Point","coordinates":[-80.00698,40.45528]},"properties":{"name":"W North Ave & Federal St","capacity":19}},{"type":"Feature","geometry":{"type":"Point","coordinates":[-79.94757,40.44478]},"properties":{"name":"Forbes Ave at TCS Hall (CMU Campus)","capacity":19}},{"type":"Feature","geometry":{"type":"Point","coordinates":[-79.88859,40.44695]},"properties":{"name":"Wilkinsburg Park & Ride","capacity":19}}],"metadata":{"source":"POGOH GBFS station_information (inputs/places/pogoh_stations.csv)","builtAt":"2026-09-26T20:34:23.159Z"}}