{"type":"FeatureCollection","features":[{"type":"Feature","geometry":{"type":"Point","coordinates":[-79.84172,40.52206]},"properties":{"name":"Oakmont Carnegie Library","address":"700 Allegheny River Boulevard, Oakmont","municipality":"Oakmont","hours":null}},{"type":"Feature","geometry":{"type":"Point","coordinates":[-79.81043,40.48277]},"properties":{"name":"Penn Hills Library","address":"1037 Stotler Road, Pittsburgh","municipality":"Pittsburgh","hours":null}},{"type":"Feature","geometry":{"type":"Point","coordinates":[-79.88574,40.46758]},"properties":{"name":"Lincoln Park Library","address":"7300 Ridgeview Avenue, Pittsburgh","municipality":"Pittsburgh","hours":null}},{"type":"Feature","geometry":{"type":"Point","coordinates":[-79.97153,40.4789]},"properties":{"name":"Millvale Community Library","address":"213 Grant Avenue, Millvale","municipality":"Millvale","hours":null}},{"type":"Feature","geometry":{"type":"Point","coordinates":[-80.02223,40.3678]},"properties":{"name":"Comm Library of Castle Shannon","address":"3677 Myrtle Avenue, Pittsburgh","municipality":"Pittsburgh","hours":null}},{"type":"Feature","geometry":{"type":"Point","coordinates":[-80.14247,40.35512]},"properties":{"name":"South Fayette Township Library","address":"515 Millers Run Road, Morgan","municipality":"Morgan","hours":null}},{"type":"Feature","geometry":{"type":"Point","coordinates":[-80.11173,40.35611]},"properties":{"name":"Bridgeville Public Library","address":"505 McMillen Street, Bridgeville","municipality":"Bridgeville","hours":null}},{"type":"Feature","geometry":{"type":"Point","coordinates":[-79.97507,40.37494]},"properties":{"name":"Brentwood Library","address":"3501 Brownsville Road, Pittsburgh","municipality":"Pittsburgh","hours":null}},{"type":"Feature","geometry":{"type":"Point","coordinates":[-79.93021,40.49446]},"properties":{"name":"Sharpsburg Library","address":"1212 Main Street, Pittsburgh","municipality":"Pittsburgh","hours":null}},{"type":"Feature","geometry":{"type":"Point","coordinates":[-80.03598,40.39421]},"properties":{"name":"Dormont Public Library","address":"2950 West Liberty Avenue, Pittsburgh","municipality":"Pittsburgh","hours":null}},{"type":"Feature","geometry":{"type":"Point","coordinates":[-79.95245,40.64163]},"properties":{"name":"Northern Tier Regional Library","address":"4015 Dickey Road, Gibsonia","municipality":"Gibsonia","hours":null}},{"type":"Feature","geometry":{"type":"Point","coordinates":[-79.77834,40.54231]},"properties":{"name":"Springdale Free Public Library","address":"331 School Street, Springdale","municipality":"Springdale","hours":null}},{"type":"Feature","geometry":{"type":"Point","coordinates":[-79.75398,40.48782]},"properties":{"name":"Plum Borough Community Library","address":"445 Center New Texas Road, Pittsburgh","municipality":"Pittsburgh","hours":null}},{"type":"Feature","geometry":{"type":"Point","coordinates":[-80.14416,40.4388]},"properties":{"name":"Robinson Township Library","address":"1000 Church Hill Road, Pittsburgh","municipality":"Pittsburgh","hours":null}},{"type":"Feature","geometry":{"type":"Point","coordinates":[-79.81781,40.38092]},"properties":{"name":"North Versailles Public Library","address":"1401 Greensburg Avenue, North Versailles","municipality":"North Versailles","hours":null}},{"type":"Feature","geometry":{"type":"Point","coordinates":[-79.93479,40.5826]},"properties":{"name":"Hampton Community Library","address":"3101 McCully Road, Allison Park","municipality":"Allison Park","hours":null}},{"type":"Feature","geometry":{"type":"Point","coordinates":[-80.05883,40.465]},"properties":{"name":"F.O.R. Sto-Rox Library","address":"500 Chartiers Avenue, McKees Rocks","municipality":"McKees Rocks","hours":null}},{"type":"Feature","geometry":{"type":"Point","coordinates":[-79.85518,40.34531]},"properties":{"name":"Carnegie Library of McKeesport","address":"1507 Library Street, McKeesport","municipality":"McKeesport","hours":null}},{"type":"Feature","geometry":{"type":"Point","coordinates":[-79.99626,40.29181]},"properties":{"name":"South Park Township Library","address":"2575 Brownsville Road, South Park","municipality":"South Park","hours":null}},{"type":"Feature","geometry":{"type":"Point","coordinates":[-79.90293,40.40704]},"properties":{"name":"Carnegie Library of Homestead","address":"510 East 10th Avenue, Munhall","municipality":"Munhall","hours":null}},{"type":"Feature","geometry":{"type":"Point","coordinates":[-80.04705,40.41877]},"properties":{"name":"Green Tree Public Library","address":"10 West Manilla Avenue, Pittsburgh","municipality":"Pittsburgh","hours":null}},{"type":"Feature","geometry":{"type":"Point","coordinates":[-79.88524,40.43225]},"properties":{"name":"C C Mellor Memorial Library","address":"1 Pennwood Avenue, Pittsburgh","municipality":"Pittsburgh","hours":null}},{"type":"Feature","geometry":{"type":"Point","coordinates":[-79.88585,40.44337]},"properties":{"name":"Wilkinsburg Public Library","address":"605 Ross Avenue, Pittsburgh","municipality":"Pittsburgh","hours":null}},{"type":"Feature","geometry":{"type":"Point","coordinates":[-79.85662,40.45662]},"properties":{"name":"East Ridge Library","address":"1900 Graham Boulevard, Pittsburgh","municipality":"Pittsburgh","hours":null}},{"type":"Feature","geometry":{"type":"Point","coordinates":[-79.72841,40.62059]},"properties":{"name":"Community Library Of Allegheny Valley","address":"1522 Broadview Boulevard, Natrona Heights","municipality":"Natrona Heights","hours":null}},{"type":"Feature","geometry":{"type":"Point","coordinates":[-79.96426,40.5283]},"properties":{"name":"Shaler North Hills Library","address":"1822 Mount Royal Boulevard, Glenshaw","municipality":"Glenshaw","hours":null}},{"type":"Feature","geometry":{"type":"Point","coordinates":[-80.04532,40.37702]},"properties":{"name":"Mt. Lebanon Public Library","address":"16 Castle Shannon Boulevard, Pittsburgh","municipality":"Pittsburgh","hours":null}},{"type":"Feature","geometry":{"type":"Point","coordinates":[-79.87982,40.51539]},"properties":{"name":"Cooper-Siegel Community Library","address":"403 Fox Chapel Road, Pittsburgh","municipality":"Pittsburgh","hours":null}},{"type":"Feature","geometry":{"type":"Point","coordinates":[-79.88338,40.29195]},"properties":{"name":"Clairton Public Library","address":"616 Miller Avenue, Clairton","municipality":"Clairton","hours":null}},{"type":"Feature","geometry":{"type":"Point","coordinates":[-80.03141,40.33216]},"properties":{"name":"Bethel Park Public Library","address":"5100 West Library Avenue, Bethel Park","municipality":"Bethel Park","hours":null}},{"type":"Feature","geometry":{"type":"Point","coordinates":[-79.82886,40.40564]},"properties":{"name":"Turtle Creek Library","address":"519 Penn Avenue, Turtle Creek","municipality":"Turtle Creek","hours":null}},{"type":"Feature","geometry":{"type":"Point","coordinates":[-79.962,40.33375]},"properties":{"name":"Pleasant Hills Public Library","address":"302 Old Clairton Road, Pittsburgh","municipality":"Pittsburgh","hours":null}},{"type":"Feature","geometry":{"type":"Point","coordinates":[-79.75498,40.429]},"properties":{"name":"Monroeville Public Library","address":"4000 Gateway Campus Boulevard, Monroeville","municipality":"Monroeville","hours":null}},{"type":"Feature","geometry":{"type":"Point","coordinates":[-80.06289,40.49716]},"properties":{"name":"Avalon Public Library","address":"317 South Home Avenue, Pittsburgh","municipality":"Pittsburgh","hours":null}},{"type":"Feature","geometry":{"type":"Point","coordinates":[-79.84014,40.41738]},"properties":{"name":"Forest Hills Library","address":"4400 Greensburg Pike, Forest Hills","municipality":"Forest Hills","hours":null}},{"type":"Feature","geometry":{"type":"Point","coordinates":[-80.03472,40.57105]},"properties":{"name":"Northland Public Library","address":"300 Cumberland Road, Pittsburgh","municipality":"Pittsburgh","hours":null}},{"type":"Feature","geometry":{"type":"Point","coordinates":[-80.08402,40.38698]},"properties":{"name":"Scott Township Public Library","address":"301 Lindsay Road, Carnegie","municipality":"Carnegie","hours":null}},{"type":"Feature","geometry":{"type":"Point","coordinates":[-80.01717,40.65925]},"properties":{"name":"Pine Library","address":"700 Warrendale Road, Gibsonia","municipality":"Gibsonia","hours":null}},{"type":"Feature","geometry":{"type":"Point","coordinates":[-79.75395,40.60178]},"properties":{"name":"Tarentum Library","address":"400 Lock Street, Tarentum","municipality":"Tarentum","hours":null}},{"type":"Feature","geometry":{"type":"Point","coordinates":[-79.8655,40.40187]},"properties":{"name":"Braddock Carnegie Library","address":"419 Library Street, Braddock","municipality":"Braddock","hours":null}},{"type":"Feature","geometry":{"type":"Point","coordinates":[-80.23331,40.43662]},"properties":{"name":"Western Allegheny Community Library","address":"181 Bateman Road, Oakdale","municipality":"Oakdale","hours":null}},{"type":"Feature","geometry":{"type":"Point","coordinates":[-79.97995,40.35101]},"properties":{"name":"Whitehall Public Library","address":"100 Borough Park Drive, Pittsburgh","municipality":"Pittsburgh","hours":null}},{"type":"Feature","geometry":{"type":"Point","coordinates":[-80.08579,40.40682]},"properties":{"name":"Andrew Carnegie Free Library","address":"300 Beechwood Avenue, Carnegie","municipality":"Carnegie","hours":null}},{"type":"Feature","geometry":{"type":"Point","coordinates":[-79.84793,40.37178]},"properties":{"name":"Duquesne Library","address":"300 Kennedy Avenue, Duquesne","municipality":"Duquesne","hours":null}},{"type":"Feature","geometry":{"type":"Point","coordinates":[-80.07179,40.33333]},"properties":{"name":"Upper St. Clair Township Library","address":"1820 McLaughlin Run Road, Pittsburgh","municipality":"Pittsburgh","hours":null}},{"type":"Feature","geometry":{"type":"Point","coordinates":[-79.9299,40.2975]},"properties":{"name":"Jefferson Hills Public Library","address":"925 Old Clairton Road, Clairton","municipality":"Clairton","hours":null}},{"type":"Feature","geometry":{"type":"Point","coordinates":[-80.0543,40.49653]},"properties":{"name":"Andrew Bayne Memorial Library","address":"34 North Balph Avenue, Pittsburgh","municipality":"Pittsburgh","hours":null}},{"type":"Feature","geometry":{"type":"Point","coordinates":[-80.06682,40.43447]},"properties":{"name":"Crafton Public Library","address":"140 Bradford Avenue, Pittsburgh","municipality":"Pittsburgh","hours":null}},{"type":"Feature","geometry":{"type":"Point","coordinates":[-79.89117,40.42255]},"properties":{"name":"Carnegie Free Library of Swissvale","address":"1800 Monongahela Avenue, Pittsburgh","municipality":"Pittsburgh","hours":null}},{"type":"Feature","geometry":{"type":"Point","coordinates":[-80.18129,40.53869]},"properties":{"name":"Sewickley Public Library","address":"500 Thorn Street, Sewickley","municipality":"Sewickley","hours":null}},{"type":"Feature","geometry":{"type":"Point","coordinates":[-80.16194,40.51538]},"properties":{"name":"Coraopolis Memorial Library","address":"601 School Street, Coraopolis","municipality":"Coraopolis","hours":null}},{"type":"Feature","geometry":{"type":"Point","coordinates":[-80.20242,40.49637]},"properties":{"name":"Moon Township Public Library","address":"1700 Beaver Grade Road, Coraopolis","municipality":"Coraopolis","hours":null}},{"type":"Feature","geometry":{"type":"Point","coordinates":[-79.81366,40.35296]},"properties":{"name":"White Oak Branch","address":"169 Victoria Drive, North Versailles","municipality":"North Versailles","hours":null}},{"type":"Feature","geometry":{"type":"Point","coordinates":[-79.92654,40.46095]},"properties":{"name":"East Liberty Library","address":"130 S. Whitfield Street, Pittsburgh","municipality":"Pittsburgh","hours":null}},{"type":"Feature","geometry":{"type":"Point","coordinates":[-79.94918,40.45383]},"properties":{"name":"Library for the Blind & Physically Handicapped","address":"4724 Baum Boulevard, Pittsburgh","municipality":"Pittsburgh","hours":null}},{"type":"Feature","geometry":{"type":"Point","coordinates":[-80.00667,40.45655]},"properties":{"name":"Allegheny Library","address":"1230 Federal Street, Pittsburgh","municipality":"Pittsburgh","hours":null}},{"type":"Feature","geometry":{"type":"Point","coordinates":[-79.9491,40.44371]},"properties":{"name":"Carnegie Library of Pittsburgh","address":"4400 Forbes Avenue, Pittsburgh","municipality":"Pittsburgh","hours":null}},{"type":"Feature","geometry":{"type":"Point","coordinates":[-79.89911,40.45529]},"properties":{"name":"Homewood Branch Library","address":"7101 Hamilton Street, Pittsburgh","municipality":"Pittsburgh","hours":null}},{"type":"Feature","geometry":{"type":"Point","coordinates":[-79.92265,40.43856]},"properties":{"name":"Squirrel Hill Library","address":"5801 Forbes Avenue, Pittsburgh","municipality":"Pittsburgh","hours":null}},{"type":"Feature","geometry":{"type":"Point","coordinates":[-80.02771,40.40705]},"properties":{"name":"Beechview Library","address":"1910 Broadway Avenue, Pittsburgh","municipality":"Pittsburgh","hours":null}},{"type":"Feature","geometry":{"type":"Point","coordinates":[-80.0214,40.39441]},"properties":{"name":"Brookline Library","address":"708 Brookline Boulevard, Pittsburgh","municipality":"Pittsburgh","hours":null}},{"type":"Feature","geometry":{"type":"Point","coordinates":[-79.98755,40.39701]},"properties":{"name":"Carrick Library","address":"1811 Brownsville Road, Pittsburgh","municipality":"Pittsburgh","hours":null}},{"type":"Feature","geometry":{"type":"Point","coordinates":[-80.0302,40.47624]},"properties":{"name":"Woods Run Library","address":"1201 Woods Run Avenue, Pittsburgh","municipality":"Pittsburgh","hours":null}},{"type":"Feature","geometry":{"type":"Point","coordinates":[-79.95909,40.46761]},"properties":{"name":"Lawrenceville Library","address":"279 Fisk Street, Pittsburgh","municipality":"Pittsburgh","hours":null}},{"type":"Feature","geometry":{"type":"Point","coordinates":[-80.05656,40.4552]},"properties":{"name":"Sheraden Library","address":"720 Sherwood Avenue, Pittsburgh","municipality":"Pittsburgh","hours":null}},{"type":"Feature","geometry":{"type":"Point","coordinates":[-79.97667,40.44547]},"properties":{"name":"Hill District Library","address":"2177 Centre Avenue, Pittsburgh","municipality":"Pittsburgh","hours":null}},{"type":"Feature","geometry":{"type":"Point","coordinates":[-80.03375,40.4401]},"properties":{"name":"West End Library","address":"47 Wabash Street, Pittsburgh","municipality":"Pittsburgh","hours":null}},{"type":"Feature","geometry":{"type":"Point","coordinates":[-80.01048,40.43352]},"properties":{"name":"Mt. Washington Library","address":"315 Grandview Avenue, Pittsburgh","municipality":"Pittsburgh","hours":null}},{"type":"Feature","geometry":{"type":"Point","coordinates":[-79.97424,40.42873]},"properties":{"name":"South Side Library","address":"2205 East Carson Street, Pittsburgh","municipality":"Pittsburgh","hours":null}},{"type":"Feature","geometry":{"type":"Point","coordinates":[-79.9439,40.40824]},"properties":{"name":"Hazelwood Library","address":"5006 Second Avenue, Pittsburgh","municipality":"Pittsburgh","hours":null}},{"type":"Feature","geometry":{"type":"Point","coordinates":[-79.98913,40.41325]},"properties":{"name":"Knoxville Library","address":"400 Brownsville Road, Pittsburgh","municipality":"Pittsburgh","hours":null}},{"type":"Feature","geometry":{"type":"Point","coordinates":[-79.99722,40.44182]},"properties":{"name":"Downtown & Business Library","address":"612 Smithfield Street, Pittsburgh","municipality":"Pittsburgh","hours":null}}],"metadata":{"source":"https://services1.arcgis.com/vdNDkVykv9vEWFX4/arcgis/rest/services/Libraries/FeatureServer/0","builtAt":"2026-09-26T18:44:38.094Z"}}