{"type":"FeatureCollection","features":[{"type":"Feature","geometry":{"type":"Point","coordinates":[-79.8918,40.44685]},"properties":{"name":"LifeCAre 2.2 d/b/a East end behavioral Health Hospital","address":"225 Penn Ave, Pittsburgh","kind":"specialty","website":"https://www.lifecarehealthpartners.com","cms_rating":null,"cms_rated":null,"emergency":null}},{"type":"Feature","geometry":{"type":"Point","coordinates":[-79.76015,40.43649]},"properties":{"name":"UPMC East","address":"2775 Mosside Boulevard, Monroeville","kind":"general","website":"http://www.upmc.com","cms_rating":4,"cms_rated":"4","emergency":true}},{"type":"Feature","geometry":{"type":"Point","coordinates":[-79.96115,40.44686]},"properties":{"name":"VETERANS AFFAIRS PITTSBURGH HEALTHCARE SYSTEM","address":"UNIVERSITY DRIVE C, PITTSBURGH","kind":"general","website":"https://www.pittsburgh.va.gov","cms_rating":4,"cms_rated":"4","emergency":true}},{"type":"Feature","geometry":{"type":"Point","coordinates":[-79.84966,40.35159]},"properties":{"name":"Select Specialty Hospital McKeesport Inc.","address":"1500 Fifth Avenue 6th floor Crawford Building, McKeesport","kind":"specialty","website":"https://www.selectspecialtyhospitals.com","cms_rating":null,"cms_rated":null,"emergency":null}},{"type":"Feature","geometry":{"type":"Point","coordinates":[-80.0624,40.63554]},"properties":{"name":"Allegheny Health Network Wexford Hospital","address":"12351 Perry Highway, Wexford","kind":"general","website":"https://www.ahn.org","cms_rating":5,"cms_rated":"5","emergency":true}},{"type":"Feature","geometry":{"type":"Point","coordinates":[-80.1127,40.32126]},"properties":{"name":"Southwood Psychiatric Hospital, LLC","address":"2575 Boyce Plaza Road, Pittsburgh","kind":"specialty","website":"http://www.southwoodhospital.com","cms_rating":null,"cms_rated":null,"emergency":null}},{"type":"Feature","geometry":{"type":"Point","coordinates":[-79.96009,40.4423]},"properties":{"name":"Select Specialty Hospital-Pittsburgh/UPMC, Inc.","address":"200 Lothrop Street, MUH E824, Pittsburgh, PA  15213","kind":"specialty","website":"https://www.selectmedical.com","cms_rating":null,"cms_rated":null,"emergency":null}},{"type":"Feature","geometry":{"type":"Point","coordinates":[-79.98593,40.43665]},"properties":{"name":"UNIVERSITY OF PITTSBURGH MEDICAL CENTER MERCY","address":"1400 Locust Street, Pittsburgh","kind":"general","website":"https://www.upmc.com","cms_rating":4,"cms_rated":"4","emergency":true}},{"type":"Feature","geometry":{"type":"Point","coordinates":[-79.73647,40.61824]},"properties":{"name":"Allegheny Valley Hospital","address":"1301 Carlisle Street, Natrona Heights","kind":"general","website":"http://www.ahn.org","cms_rating":4,"cms_rated":"4","emergency":true}},{"type":"Feature","geometry":{"type":"Point","coordinates":[-79.93342,40.31745]},"properties":{"name":"Jefferson Hospital","address":"565 Coal Valley Road, Jefferson Hills","kind":"general","website":"https://www.ahn.org","cms_rating":4,"cms_rated":"4","emergency":true}},{"type":"Feature","geometry":{"type":"Point","coordinates":[-79.84966,40.35159]},"properties":{"name":"UNIVERSITY OF PITTSBURGH MEDICAL CENTER MCKEESPORT","address":"1500 Fifth Avenue, McKeesport","kind":"general","website":"http://www.upmc.com","cms_rating":3,"cms_rated":"3","emergency":true}},{"type":"Feature","geometry":{"type":"Point","coordinates":[-79.96103,40.43716]},"properties":{"name":"UNIVERSITY OF PITTSBURGH MEDICAL CENTER MAGEE-WOMENS HOSPITAL","address":"300 Halket Street, Pittsburgh","kind":"general","website":"https://www.upmc.com","cms_rating":4,"cms_rated":"4","emergency":true}},{"type":"Feature","geometry":{"type":"Point","coordinates":[-80.00332,40.45695]},"properties":{"name":"Allegheny General Hospital","address":"320 E. North Avenue, Pittsburgh, PA","kind":"general","website":"http://www.ahn.org","cms_rating":3,"cms_rated":"3","emergency":true}},{"type":"Feature","geometry":{"type":"Point","coordinates":[-80.20853,40.43879]},"properties":{"name":"PAM Health Specialty Hospital of Pittsburgh","address":"7777 Stubenville Pike, Oakdale","kind":"specialty","website":"http://curahealth.com","cms_rating":null,"cms_rated":null,"emergency":null}},{"type":"Feature","geometry":{"type":"Point","coordinates":[-80.06728,40.37767]},"properties":{"name":"St. Clair Memorial Hospital","address":"1000 Bower Hill Road, Mt. Lebanon","kind":"general","website":"http://www.stclair.org","cms_rating":4,"cms_rated":"4","emergency":true}},{"type":"Feature","geometry":{"type":"Point","coordinates":[-80.01353,40.57299]},"properties":{"name":"UPMC Passavant Hospital","address":"9100 Babcock Blvd, Pittsburgh","kind":"general","website":"http://www.upmc.com","cms_rating":4,"cms_rated":"4","emergency":true}},{"type":"Feature","geometry":{"type":"Point","coordinates":[-79.87175,40.55051]},"properties":{"name":"Encompass Health Rehabilitation Hospital of Harmarville","address":"320 Guys Run Road, Pittsburgh","kind":"specialty","website":"https://www.encompasshealth.com","cms_rating":null,"cms_rated":null,"emergency":null}},{"type":"Feature","geometry":{"type":"Point","coordinates":[-79.74769,40.42827]},"properties":{"name":"Forbes Hospital","address":"2570 Haymaker Road, Monroeville","kind":"general","website":"http://www.ahn.org","cms_rating":3,"cms_rated":"3","emergency":true}},{"type":"Feature","geometry":{"type":"Point","coordinates":[-79.93736,40.46424]},"properties":{"name":"The Children's Home of Pittsburgh","address":"5324 Penn Avenue, Pittsburgh","kind":"specialty","website":"http://www.childrenshomepgh.org","cms_rating":null,"cms_rated":null,"emergency":null}},{"type":"Feature","geometry":{"type":"Point","coordinates":[-79.95306,40.46661]},"properties":{"name":"University of Pittsburgh Medical Center Children's Hospital of Pittsburgh","address":"4401 Penn Avenue, Pittsburgh","kind":"general","website":"https://www.chp.edu","cms_rating":null,"cms_rated":"Not Available","emergency":true}},{"type":"Feature","geometry":{"type":"Point","coordinates":[-79.94629,40.46189]},"properties":{"name":"West Penn Hospital","address":"4800 Friendship Avenue, Pittsburgh","kind":"general","website":"http://www.ahn.org","cms_rating":3,"cms_rated":"3","emergency":true}},{"type":"Feature","geometry":{"type":"Point","coordinates":[-80.20313,40.57655]},"properties":{"name":"Encompass Health Rehabilitation Hospital of Sewickley","address":"351 Camp Meeting Road, Sewickley","kind":"specialty","website":"https://encompasshealth.com","cms_rating":null,"cms_rated":null,"emergency":null}},{"type":"Feature","geometry":{"type":"Point","coordinates":[-80.17777,40.54228]},"properties":{"name":"Heritage Valley Sewickley","address":"720 Blackburn Road, Sewickley","kind":"general","website":"http://www.heritagevalley.org","cms_rating":4,"cms_rated":"4","emergency":true}},{"type":"Feature","geometry":{"type":"Point","coordinates":[-79.89601,40.48936]},"properties":{"name":"UPMC St. Margaret","address":"815 Freeport Road, Pittsburgh","kind":"general","website":"http://www.upmc.com","cms_rating":3,"cms_rated":"3","emergency":true}},{"type":"Feature","geometry":{"type":"Point","coordinates":[-79.96059,40.44272]},"properties":{"name":"UNIVERSITY OF PITTSBURGH MEDICAL CENTER PRESBYTERIAN SHADYSIDE","address":"200 Lothrop Street, Pittsburgh","kind":"general","website":"http://www.upmc.com","cms_rating":4,"cms_rated":"4","emergency":true}},{"type":"Feature","geometry":{"type":"Point","coordinates":[-80.09113,40.47253]},"properties":{"name":"Heritage Valley Kennedy","address":"25 Heckel Road, McKees Rocks","kind":"general","website":"https://www.heritagevalley.org","cms_rating":null,"cms_rated":null,"emergency":null}}],"metadata":{"source":"https://mapservices.pasda.psu.edu/server/rest/services/pasda/DepHealth/MapServer/6"}}