{"type":"FeatureCollection","features":[{"type":"Feature","geometry":{"type":"Point","coordinates":[-80.03315,40.66088]},"properties":{"name":"Richland Police","address":"230 Pearce Mill Rd Wexford, PA 15090","serves":"Bradford Woods; Marshall; Pine; Richland","sources":"ConnectGovs"}},{"type":"Feature","geometry":{"type":"Point","coordinates":[-80.01985,40.59117]},"properties":{"name":"McCandless Police","address":"9955 Grubbs Rd Wexford, PA 15090","serves":"Mccandless","sources":"ConnectGovs+OSM"}},{"type":"Feature","geometry":{"type":"Point","coordinates":[-80.0581,40.46557]},"properties":{"name":"McKees Rocks Police","address":"340 Bell Ave McKees Rocks, PA 15136","serves":"Mckees Rocks","sources":"ConnectGovs+OSM"}},{"type":"Feature","geometry":{"type":"Point","coordinates":[-79.86643,40.35163]},"properties":{"name":"McKeesport Police","address":"201 Lyle Blvd McKeesport, PA 15132","serves":"Dravosburg; Mckeesport","sources":"ConnectGovs+OSM"}},{"type":"Feature","geometry":{"type":"Point","coordinates":[-79.9736,40.48112]},"properties":{"name":"Millvale Police","address":"501 Lincoln Ave Pittsburgh, PA 15209","serves":"Millvale","sources":"ConnectGovs+OSM"}},{"type":"Feature","geometry":{"type":"Point","coordinates":[-79.77963,40.43592]},"properties":{"name":"Monroeville Police","address":"2700 Monroeville Blvd Monroeville, PA 15146","serves":"Monroeville","sources":"ConnectGovs+OSM"}},{"type":"Feature","geometry":{"type":"Point","coordinates":[-80.20813,40.50458]},"properties":{"name":"Moon Township Police","address":"1000 Beaver Grade Rd Moon Township, PA 15108","serves":"Moon","sources":"ConnectGovs+OSM"}},{"type":"Feature","geometry":{"type":"Point","coordinates":[-80.04522,40.38]},"properties":{"name":"Mt. Lebanon Police","address":"710 Washington Rd Pittsburgh, PA. 15228","serves":"Mount Lebanon","sources":"ConnectGovs"}},{"type":"Feature","geometry":{"type":"Point","coordinates":[-79.98736,40.41627]},"properties":{"name":"Mt. Oliver Police","address":"150 Brownsville Rd Pittsburgh, PA 15210","serves":"Mount Oliver","sources":"ConnectGovs+OSM"}},{"type":"Feature","geometry":{"type":"Point","coordinates":[-79.90467,40.39906]},"properties":{"name":"Munhall Police","address":"1900 West St Munhall, PA 15120","serves":"Munhall","sources":"ConnectGovs+OSM"}},{"type":"Feature","geometry":{"type":"Point","coordinates":[-80.10779,40.5553]},"properties":{"name":"Ohio Township Police","address":"126 Lenzner Court Sewickley, PA 15143","serves":"Aleppo; Ben Avon; Ben Avon Heights; Emsworth; Kilbuck; Neville; Ohio; Sewickley Hills","sources":"ConnectGovs"}},{"type":"Feature","geometry":{"type":"Point","coordinates":[-79.86087,40.40243]},"properties":{"name":"North Braddock Police","address":"600 Anderson St North Braddock, PA 15104","serves":"North Braddock","sources":"ConnectGovs+OSM"}},{"type":"Feature","geometry":{"type":"Point","coordinates":[-80.22338,40.41673]},"properties":{"name":"North Fayette Police","address":"400 North Branch Rd Oakdale, PA 15071","serves":"North Fayette","sources":"ConnectGovs"}},{"type":"Feature","geometry":{"type":"Point","coordinates":[-79.8178,40.38091]},"properties":{"name":"North Versailles Police","address":"1401 Greensburg Ave North Versailles, PA 15137","serves":"North Versailles","sources":"ConnectGovs+OSM"}},{"type":"Feature","geometry":{"type":"Point","coordinates":[-79.88273,40.49528]},"properties":{"name":"OHara Township Police","address":"325 Fox Chapel Rd Pittsburgh, PA 15238","serves":"O'Hara","sources":"ConnectGovs"}},{"type":"Feature","geometry":{"type":"Point","coordinates":[-80.18756,40.39805]},"properties":{"name":"Oakdale Police","address":"6115 Noblestown Rd Oakdale, PA 15071","serves":"Oakdale","sources":"ConnectGovs+OSM"}},{"type":"Feature","geometry":{"type":"Point","coordinates":[-79.83889,40.52303]},"properties":{"name":"Oakmont Police","address":"769 Fifth St Oakmont, PA 15139","serves":"Oakmont","sources":"ConnectGovs+OSM"}},{"type":"Feature","geometry":{"type":"Point","coordinates":[-79.82834,40.4611]},"properties":{"name":"Penn Hills Police","address":"102 Duff Rd Pittsburgh, PA 15235","serves":"Penn Hills","sources":"ConnectGovs+OSM"}},{"type":"Feature","geometry":{"type":"Point","coordinates":[-80.09238,40.40442]},"properties":{"name":"Carnegie Police","address":"1 Veterans Way Carnegie, PA 15106","serves":"Carnegie; Pennsbury Village","sources":"ConnectGovs+OSM"}},{"type":"Feature","geometry":{"type":"Point","coordinates":[-79.77585,40.40197]},"properties":{"name":"Pitcairn Police","address":"609 Broadway Pitcairn, PA 15140","serves":"Pitcairn; Wilmerding","sources":"ConnectGovs"}},{"type":"Feature","geometry":{"type":"Point","coordinates":[-80.02143,40.45059]},"properties":{"name":"Pittsburgh Police","address":"1203 Western Ave Pittsburgh, PA 15233","serves":"Pittsburgh","sources":"ConnectGovs"}},{"type":"Feature","geometry":{"type":"Point","coordinates":[-79.95229,40.33066]},"properties":{"name":"Pleasant Hills Police","address":"410 East Bruceton Rd Pittsburgh, PA 15236","serves":"Pleasant Hills","sources":"ConnectGovs"}},{"type":"Feature","geometry":{"type":"Point","coordinates":[-79.76261,40.50384]},"properties":{"name":"Plum Police","address":"4575 New Texas Rd Pittsburgh, PA 15239","serves":"Plum","sources":"ConnectGovs+OSM"}},{"type":"Feature","geometry":{"type":"Point","coordinates":[-79.87109,40.34178]},"properties":{"name":"Port Vue Police","address":"1194 Romine Ave Port Vue, PA 15133","serves":"Port Vue","sources":"ConnectGovs+OSM"}},{"type":"Feature","geometry":{"type":"Point","coordinates":[-79.86801,40.41011]},"properties":{"name":"Rankin Police","address":"320 Hawkins Ave Rankin, PA 15104","serves":"Rankin","sources":"ConnectGovs"}},{"type":"Feature","geometry":{"type":"Point","coordinates":[-79.98241,40.47423]},"properties":{"name":"Reserve Police","address":"33 Lonsdale St Pittsburgh, PA 15212","serves":"Reserve","sources":"ConnectGovs"}},{"type":"Feature","geometry":{"type":"Point","coordinates":[-80.14416,40.43879]},"properties":{"name":"Robinson Township Police","address":"1000 Churchill Rd Pittsburgh, PA 15205","serves":"Robinson","sources":"ConnectGovs"}},{"type":"Feature","geometry":{"type":"Point","coordinates":[-80.00743,40.51635]},"properties":{"name":"Ross Township Police","address":"1000 Ross Municipal Dr Pittsburgh, PA 15237","serves":"Ross","sources":"ConnectGovs"}},{"type":"Feature","geometry":{"type":"Point","coordinates":[-80.08401,40.38697]},"properties":{"name":"Scott Township Police","address":"301 Lindsay Rd Carnegie, PA 15106","serves":"Rosslyn Farms; Scott","sources":"ConnectGovs+OSM"}},{"type":"Feature","geometry":{"type":"Point","coordinates":[-80.17974,40.53817]},"properties":{"name":"Sewickley Police","address":"601 Thorn St Sewickley, PA 15143","serves":"Glen Osborne; Sewickley","sources":"ConnectGovs+OSM"}},{"type":"Feature","geometry":{"type":"Point","coordinates":[-80.16457,40.56018]},"properties":{"name":"Sewickley Heights Police","address":"238 Country Club Rd Sewickley, PA 15143","serves":"Sewickley Heights","sources":"ConnectGovs"}},{"type":"Feature","geometry":{"type":"Point","coordinates":[-79.96986,40.52423]},"properties":{"name":"Shaler Township Police","address":"300 Wetzel Rd Glenshaw, PA 15116","serves":"Shaler","sources":"ConnectGovs+OSM"}},{"type":"Feature","geometry":{"type":"Point","coordinates":[-79.92478,40.49449]},"properties":{"name":"Sharpsburg Police","address":"1611 Main St Pittsburgh, PA 15215","serves":"Sharpsburg","sources":"ConnectGovs+OSM"}},{"type":"Feature","geometry":{"type":"Point","coordinates":[-80.1434,40.35505]},"properties":{"name":"South Fayette Police","address":"515 Millers Run Rd Morgan, PA 15064","serves":"South Fayette","sources":"ConnectGovs+OSM"}},{"type":"Feature","geometry":{"type":"Point","coordinates":[-79.9952,40.29128]},"properties":{"name":"South Park Police","address":"2675 Brownsville Rd Library, PA 15129","serves":"South Park","sources":"ConnectGovs"}},{"type":"Feature","geometry":{"type":"Point","coordinates":[-79.79995,40.33079]},"properties":{"name":"White Oak Police","address":"2280 Lincoln Way White Oak, PA 15131","serves":"South Versailles; White Oak","sources":"ConnectGovs+OSM"}},{"type":"Feature","geometry":{"type":"Point","coordinates":[-79.77841,40.54224]},"properties":{"name":"Springdale Borough Police","address":"325 School St Springdale, PA 15144","serves":"Springdale","sources":"ConnectGovs+OSM"}},{"type":"Feature","geometry":{"type":"Point","coordinates":[-79.80585,40.55475]},"properties":{"name":"Allegheny Valley Regional Police","address":"100 Plate Dr Harwick, PA 15049","serves":"Cheswick; East Deer; Springdale","sources":"ConnectGovs"}},{"type":"Feature","geometry":{"type":"Point","coordinates":[-80.07149,40.47061]},"properties":{"name":"Stowe Township Police","address":"555 Broadway Ave McKees Rocks, PA 15136","serves":"Stowe","sources":"ConnectGovs+OSM"}},{"type":"Feature","geometry":{"type":"Point","coordinates":[-79.87719,40.41906]},"properties":{"name":"Swissvale Police","address":"7600 Evans Street Pittsburgh, PA 15218","serves":"Swissvale","sources":"ConnectGovs"}},{"type":"Feature","geometry":{"type":"Point","coordinates":[-79.75182,40.60081]},"properties":{"name":"Tarentum Police","address":"318 East 2nd Ave Tarentum, PA 15084","serves":"Tarentum","sources":"ConnectGovs+OSM"}},{"type":"Feature","geometry":{"type":"Point","coordinates":[-80.06656,40.43484]},"properties":{"name":"Crafton Police","address":"100 Stotz Ave Pittsburgh, PA 15205","serves":"Crafton; Thornburg","sources":"ConnectGovs+OSM"}},{"type":"Feature","geometry":{"type":"Point","coordinates":[-79.82463,40.40553]},"properties":{"name":"Turtle Creek Police","address":"125 Monroeville Ave Turtle Creek, PA 15145","serves":"Turtle Creek","sources":"ConnectGovs+OSM"}},{"type":"Feature","geometry":{"type":"Point","coordinates":[-80.07179,40.33332]},"properties":{"name":"Upper St. Clair Police","address":"1820 McLaughlin Run Rd Pittsburgh, PA 15241","serves":"Upper St. Clair","sources":"ConnectGovs+OSM"}},{"type":"Feature","geometry":{"type":"Point","coordinates":[-79.84448,40.50604]},"properties":{"name":"Verona Police","address":"736 East Railroad Ave Verona, PA 15147","serves":"Verona","sources":"ConnectGovs"}},{"type":"Feature","geometry":{"type":"Point","coordinates":[-79.83096,40.3151]},"properties":{"name":"Versailles Police","address":"5100 Walnut St McKeesport, PA 15132","serves":"Versailles","sources":"ConnectGovs"}},{"type":"Feature","geometry":{"type":"Point","coordinates":[-79.80722,40.38356]},"properties":{"name":"East McKeesport Police","address":"907 Florence Ave East McKeesport, PA 15035","serves":"East Mckeesport; Wall","sources":"ConnectGovs"}},{"type":"Feature","geometry":{"type":"Point","coordinates":[-79.85523,40.62245]},"properties":{"name":"West Deer Police","address":"109 East Union Rd Cheswick, PA 15024","serves":"West Deer","sources":"ConnectGovs"}},{"type":"Feature","geometry":{"type":"Point","coordinates":[-79.88642,40.27341]},"properties":{"name":"Elizabeth Borough Police","address":"121 N. 2nd Ave Elizabeth, PA 15037","serves":"Elizabeth; West Elizabeth","sources":"ConnectGovs+OSM"}},{"type":"Feature","geometry":{"type":"Point","coordinates":[-79.91731,40.40122]},"properties":{"name":"West Homestead Police","address":"456 West 8th Ave West Homestead, PA 15120","serves":"West Homestead","sources":"ConnectGovs+OSM"}},{"type":"Feature","geometry":{"type":"Point","coordinates":[-79.9332,40.36172]},"properties":{"name":"West Mifflin Police","address":"1020 Lebanon Rd West Mifflin, PA 15122","serves":"West Mifflin","sources":"ConnectGovs+OSM"}},{"type":"Feature","geometry":{"type":"Point","coordinates":[-80.03274,40.51959]},"properties":{"name":"West View Police","address":"441 Perry Hwy Pittsburgh, PA 15229","serves":"West View","sources":"ConnectGovs+OSM"}},{"type":"Feature","geometry":{"type":"Point","coordinates":[-79.88732,40.39914]},"properties":{"name":"Whitaker Police","address":"124 Grant St Whitaker, PA 15120","serves":"Whitaker","sources":"ConnectGovs"}},{"type":"Feature","geometry":{"type":"Point","coordinates":[-79.9804,40.35134]},"properties":{"name":"Whitehall Police","address":"100 Borough Park Dr Pittsburgh, PA 15236","serves":"Whitehall","sources":"ConnectGovs"}},{"type":"Feature","geometry":{"type":"Point","coordinates":[-79.8288,40.4195]},"properties":{"name":"Wilkins Township Police","address":"110 Peffer Rd Turtle Creek, PA 15145","serves":"Wilkins","sources":"ConnectGovs+OSM"}},{"type":"Feature","geometry":{"type":"Point","coordinates":[-79.88585,40.44336]},"properties":{"name":"Wilkinsburg Police","address":"605 Ross Ave Pittsburgh, PA 15221","serves":"Wilkinsburg","sources":"ConnectGovs+OSM"}},{"type":"Feature","geometry":{"type":"Point","coordinates":[-79.90435,40.4904]},"properties":{"name":"Aspinwall Police","address":"217 Commercial Ave Aspinwall, PA 15215","serves":"Aspinwall","sources":"ConnectGovs+OSM"}},{"type":"Feature","geometry":{"type":"Point","coordinates":[-80.06739,40.5008]},"properties":{"name":"Avalon Police","address":"640 California Ave Pittsburgh, PA 15202","serves":"Avalon","sources":"ConnectGovs+OSM"}},{"type":"Feature","geometry":{"type":"Point","coordinates":[-79.95693,40.38342]},"properties":{"name":"Baldwin Borough Police","address":"3344 Churchview Ave Pittsburgh, PA 15227","serves":"Baldwin","sources":"ConnectGovs+OSM"}},{"type":"Feature","geometry":{"type":"Point","coordinates":[-80.01771,40.37964]},"properties":{"name":"Baldwin Township Police","address":"10 Community Park Dr Pittsburgh, PA 15234","serves":"Baldwin","sources":"ConnectGovs"}},{"type":"Feature","geometry":{"type":"Point","coordinates":[-80.1689,40.59014]},"properties":{"name":"Bell Acres Police","address":"1151 Camp Meeting Rd Sewickley, PA 15143","serves":"Bell Acres","sources":"ConnectGovs+OSM"}},{"type":"Feature","geometry":{"type":"Point","coordinates":[-80.05631,40.49681]},"properties":{"name":"Bellevue Police","address":"537 Bayne Ave Bellevue, PA 15202","serves":"Bellevue","sources":"ConnectGovs+OSM"}},{"type":"Feature","geometry":{"type":"Point","coordinates":[-80.03141,40.33214]},"properties":{"name":"Bethel Park Police","address":"5100 W. Library Ave Bethel Park, PA 15102","serves":"Bethel Park","sources":"ConnectGovs+OSM"}},{"type":"Feature","geometry":{"type":"Point","coordinates":[-79.85998,40.49412]},"properties":{"name":"Blawnox Police","address":"376 Freeport Rd Pittsburgh, PA 15238","serves":"Blawnox","sources":"ConnectGovs+OSM"}},{"type":"Feature","geometry":{"type":"Point","coordinates":[-79.73925,40.60469]},"properties":{"name":"Brackenridge Police","address":"1000 Brackenridge Ave Brackenridge, PA 15014","serves":"Brackenridge","sources":"ConnectGovs"}},{"type":"Feature","geometry":{"type":"Point","coordinates":[-79.86855,40.40398]},"properties":{"name":"Braddock Police","address":"639 Corey Ave Braddock, PA 15104","serves":"Braddock","sources":"ConnectGovs+OSM"}},{"type":"Feature","geometry":{"type":"Point","coordinates":[-79.86347,40.4219]},"properties":{"name":"Braddock Hills Police","address":"1300 Brinton Rd Pittsburgh, PA 15221","serves":"Braddock Hills","sources":"ConnectGovs"}},{"type":"Feature","geometry":{"type":"Point","coordinates":[-79.9754,40.37248]},"properties":{"name":"Brentwood Police","address":"36245 Brownsville Rd Pittsburgh, PA 15227","serves":"Brentwood","sources":"ConnectGovs+OSM"}},{"type":"Feature","geometry":{"type":"Point","coordinates":[-80.11069,40.35981]},"properties":{"name":"Bridgeville Police","address":"425 Bower Hill Road Bridgeville, PA 15017","serves":"Bridgeville","sources":"ConnectGovs+OSM"}},{"type":"Feature","geometry":{"type":"Point","coordinates":[-80.00917,40.36753]},"properties":{"name":"Castle Shannon Police","address":"3310 McRoberts Rd Pittsburgh, PA 15234","serves":"Castle Shannon","sources":"ConnectGovs+OSM"}},{"type":"Feature","geometry":{"type":"Point","coordinates":[-79.84048,40.41769]},"properties":{"name":"Forest Hills Police","address":"4400 Greensburg Pike Pittsburgh, PA 15221","serves":"Chalfant; Forest Hills","sources":"ConnectGovs+OSM"}},{"type":"Feature","geometry":{"type":"Point","coordinates":[-79.84958,40.44579]},"properties":{"name":"Churchill Police","address":"2300 William Penn Hwy Pittsburgh, PA 15235 ","serves":"Churchill","sources":"ConnectGovs+OSM"}},{"type":"Feature","geometry":{"type":"Point","coordinates":[-79.89469,40.29622]},"properties":{"name":"Clairton Police","address":"551 Ravensburg Blvd Clairton, PA 15025","serves":"Clairton","sources":"ConnectGovs"}},{"type":"Feature","geometry":{"type":"Point","coordinates":[-80.13209,40.39097]},"properties":{"name":"Collier Police","address":"2418 Hilltop Rd Presto, PA 15142","serves":"Collier","sources":"ConnectGovs+OSM"}},{"type":"Feature","geometry":{"type":"Point","coordinates":[-80.15859,40.51676]},"properties":{"name":"Coraopolis Police","address":"1301 4th Ave Coraopolis, PA 15108","serves":"Coraopolis","sources":"ConnectGovs"}},{"type":"Feature","geometry":{"type":"Point","coordinates":[-80.22199,40.55558]},"properties":{"name":"Crescent Police","address":"225 Spring Run Rd Glenwillard, PA 15046","serves":"Crescent","sources":"ConnectGovs+OSM"}},{"type":"Feature","geometry":{"type":"Point","coordinates":[-80.03729,40.39459]},"properties":{"name":"Dormont Police","address":"1444 Hillsdale Road Suite 1 Pittsburgh, PA 15216","serves":"Dormont","sources":"ConnectGovs+OSM"}},{"type":"Feature","geometry":{"type":"Point","coordinates":[-79.84705,40.37256]},"properties":{"name":"Duquesne Police","address":"12 South Second St Duquesne, PA 15110","serves":"Duquesne","sources":"ConnectGovs+OSM"}},{"type":"Feature","geometry":{"type":"Point","coordinates":[-80.19489,40.48001]},"properties":{"name":"East Pittsburgh Police","address":"449 McCormick Rd, Coraopolis, PA 15108","serves":"East Pittsburgh; Glenfield; Haysville","sources":"ConnectGovs+OSM"}},{"type":"Feature","geometry":{"type":"Point","coordinates":[-79.88444,40.43425]},"properties":{"name":"Edgewood Police","address":"2 Race St Pittsburgh, PA 15218","serves":"Edgewood","sources":"ConnectGovs+OSM"}},{"type":"Feature","geometry":{"type":"Point","coordinates":[-80.19075,40.55031]},"properties":{"name":"Edgeworth Police","address":"301 Beaver Rd Edgeworth, PA 15143","serves":"Edgeworth","sources":"ConnectGovs+OSM"}},{"type":"Feature","geometry":{"type":"Point","coordinates":[-79.82301,40.27164]},"properties":{"name":"Elizabeth Township Police","address":"522 Rock Run Rd Elizabeth, PA 1507","serves":"Elizabeth; Forward","sources":"ConnectGovs"}},{"type":"Feature","geometry":{"type":"Point","coordinates":[-79.94406,40.49969]},"properties":{"name":"Etna Police","address":"437 Butler St Pittsburgh, PA 15223","serves":"Etna","sources":"ConnectGovs+OSM"}},{"type":"Feature","geometry":{"type":"Point","coordinates":[-79.75829,40.65776]},"properties":{"name":"Fawn Township Police","address":"3054 Howes Run Rd Tarentum, PA 15084","serves":"Fawn","sources":"ConnectGovs"}},{"type":"Feature","geometry":{"type":"Point","coordinates":[-80.29631,40.48978]},"properties":{"name":"Findlay Township Police","address":"1271 Route 30 Clinton, PA 15026","serves":"Findlay","sources":"ConnectGovs"}},{"type":"Feature","geometry":{"type":"Point","coordinates":[-79.87984,40.51491]},"properties":{"name":"Fox Chapel Police","address":"401 Fox Chapel Rd Pittsburgh, PA 15238","serves":"Fox Chapel","sources":"ConnectGovs+OSM"}},{"type":"Feature","geometry":{"type":"Point","coordinates":[-80.07876,40.58089]},"properties":{"name":"Franklin Park Police","address":"2344 West Ingomar Rd Pittsburgh, PA 15237","serves":"Franklin Park","sources":"ConnectGovs+OSM"}},{"type":"Feature","geometry":{"type":"Point","coordinates":[-79.79695,40.57297]},"properties":{"name":"Frazer Township Police","address":"592 Pittsburgh Mills Circle Tarentum, PA 15084","serves":"Frazer","sources":"ConnectGovs"}},{"type":"Feature","geometry":{"type":"Point","coordinates":[-79.8925,40.32767]},"properties":{"name":"Glassport Police","address":"5th & Monongahela Aves Glassport, PA 15045","serves":"Glassport","sources":"ConnectGovs"}},{"type":"Feature","geometry":{"type":"Point","coordinates":[-80.04703,40.41875]},"properties":{"name":"Greentree Police","address":"10 West Manila Ave Pittsburgh, PA 15220","serves":"Green Tree","sources":"ConnectGovs+OSM"}},{"type":"Feature","geometry":{"type":"Point","coordinates":[-79.9348,40.58259]},"properties":{"name":"Hampton Police","address":"3101 McCully Rd Allison Park, PA 15101","serves":"Hampton","sources":"ConnectGovs+OSM"}},{"type":"Feature","geometry":{"type":"Point","coordinates":[-79.82007,40.54117]},"properties":{"name":"Harmar Township Police","address":"701 Freeport Rd Cheswick, PA 15024","serves":"Harmar","sources":"ConnectGovs"}},{"type":"Feature","geometry":{"type":"Point","coordinates":[-79.71818,40.62488]},"properties":{"name":"Harrison Township Police","address":"1 Municipal Dr Natrona Heights, PA. 15065","serves":"Harrison","sources":"ConnectGovs"}},{"type":"Feature","geometry":{"type":"Point","coordinates":[-80.08739,40.39263]},"properties":{"name":"Heidelberg Police","address":"1631 Railroad St Carnegie, PA 15106","serves":"Heidelberg","sources":"ConnectGovs"}},{"type":"Feature","geometry":{"type":"Point","coordinates":[-79.91081,40.40805]},"properties":{"name":"Homestead Police","address":"221 East 7th Ave Homestead, PA 15120","serves":"Homestead","sources":"ConnectGovs+OSM"}},{"type":"Feature","geometry":{"type":"Point","coordinates":[-79.8891,40.57503]},"properties":{"name":"Indiana Township Police","address":"3710 Saxonburg Blvd Pittsburgh, PA 15238","serves":"Indiana","sources":"ConnectGovs"}},{"type":"Feature","geometry":{"type":"Point","coordinates":[-80.06684,40.44587]},"properties":{"name":"Ingram Police","address":"40 West Prospect Ave Pittsburgh, PA. 15205","serves":"Ingram","sources":"ConnectGovs+OSM"}},{"type":"Feature","geometry":{"type":"Point","coordinates":[-79.9299,40.29752]},"properties":{"name":"Jefferson Hills Police","address":"925 Old Clairton Rd Jefferson Hills, PA 15025","serves":"Jefferson Hills","sources":"ConnectGovs+OSM"}},{"type":"Feature","geometry":{"type":"Point","coordinates":[-80.10477,40.47988]},"properties":{"name":"Kennedy Township Police","address":"340 Forest Grove Rd Coraopolis, PA 15108","serves":"Kennedy","sources":"ConnectGovs+OSM"}},{"type":"Feature","geometry":{"type":"Point","coordinates":[-80.20948,40.58316]},"properties":{"name":"Leet Township Police","address":"198 Ambridge Ave Ambridge, PA 15003","serves":"Leet","sources":"ConnectGovs"}},{"type":"Feature","geometry":{"type":"Point","coordinates":[-80.20937,40.5662]},"properties":{"name":"Leetsdale Police","address":"373 Beaver St Leetsdale, PA 15056","serves":"Leetsdale","sources":"ConnectGovs+OSM"}},{"type":"Feature","geometry":{"type":"Point","coordinates":[-79.85627,40.32549]},"properties":{"name":"Liberty Police","address":"2921 Liberty Way McKeesport, PA 15133","serves":"Liberty","sources":"ConnectGovs"}},{"type":"Feature","geometry":{"type":"Point","coordinates":[-79.85487,40.30786]},"properties":{"name":"Lincoln Police","address":"45 Abes Way Elizabeth, PA 15037","serves":"Lincoln","sources":"ConnectGovs"}},{"type":"Feature","geometry":{"type":"Point","coordinates":[-80.12927,40.34946]},"properties":{"name":"Bridgeville Police Station","address":null,"serves":null,"sources":"OSM"}},{"type":"Feature","geometry":{"type":"Point","coordinates":[-79.96087,40.43866]},"properties":{"name":"Pitt Public Safety","address":"3412 Forbes Avenue","serves":null,"sources":"OSM"}},{"type":"Feature","geometry":{"type":"Point","coordinates":[-79.88041,40.41279]},"properties":{"name":"Rankin Police Department","address":null,"serves":null,"sources":"OSM"}},{"type":"Feature","geometry":{"type":"Point","coordinates":[-79.85564,40.22825]},"properties":{"name":"Forward Township Police Department","address":"6501 Guffey Road","serves":null,"sources":"OSM"}},{"type":"Feature","geometry":{"type":"Point","coordinates":[-79.99246,40.42168]},"properties":{"name":"Pittsburgh Police Department Zone 3","address":"830 East Warrington Avenue","serves":null,"sources":"OSM"}},{"type":"Feature","geometry":{"type":"Point","coordinates":[-80.09691,40.51705]},"properties":{"name":"Kilbuck Township Police Department","address":null,"serves":null,"sources":"OSM"}},{"type":"Feature","geometry":{"type":"Point","coordinates":[-79.77826,40.58341]},"properties":{"name":"Creighton Police Department","address":null,"serves":null,"sources":"OSM"}},{"type":"Feature","geometry":{"type":"Point","coordinates":[-79.79717,40.54093]},"properties":{"name":"Cheswick Police Department","address":null,"serves":null,"sources":"OSM"}},{"type":"Feature","geometry":{"type":"Point","coordinates":[-79.95225,40.6407]},"properties":{"name":"Richland Police Department","address":null,"serves":null,"sources":"OSM"}},{"type":"Feature","geometry":{"type":"Point","coordinates":[-79.94908,40.44568]},"properties":{"name":"Carnegie Mellon Police Station","address":"300 South Craig Street","serves":null,"sources":"OSM"}},{"type":"Feature","geometry":{"type":"Point","coordinates":[-79.98719,40.44713]},"properties":{"name":"Port Authority of Allegheny County Police","address":null,"serves":null,"sources":"OSM"}},{"type":"Feature","geometry":{"type":"Point","coordinates":[-79.90918,40.47418]},"properties":{"name":"Pittsburgh Police - Zone 5","address":"1401 Washington Boulevard","serves":null,"sources":"OSM"}},{"type":"Feature","geometry":{"type":"Point","coordinates":[-80.01609,40.45696]},"properties":{"name":"Zone One Police Station","address":null,"serves":null,"sources":"OSM"}},{"type":"Feature","geometry":{"type":"Point","coordinates":[-79.97998,40.4436]},"properties":{"name":"Pittsburgh Police Department Zone 2","address":null,"serves":null,"sources":"OSM"}},{"type":"Feature","geometry":{"type":"Point","coordinates":[-80.19489,40.48002]},"properties":{"name":"PA State Police PITTSBURGH","address":null,"serves":null,"sources":"PASDA"}},{"type":"Feature","geometry":{"type":"Point","coordinates":[-79.93857,40.60562]},"properties":{"name":"PA State Police GIBSONIA","address":null,"serves":null,"sources":"PASDA"}},{"type":"Feature","geometry":{"type":"Point","coordinates":[-79.95262,40.27572]},"properties":{"name":"PA State Police JEFFERSON HILLS","address":null,"serves":null,"sources":"PASDA"}}],"metadata":{"source":"inputs/places/allegheny_police_merged.csv + PSP (PASDA)"}}