{"type":"FeatureCollection","features":[{"type":"Feature","geometry":{"type":"Point","coordinates":[-80.0058,40.57896]},"properties":{"name":"A W Beattie Career Center","district":"North Allegheny","category":"CTC","grades":"10,11,12"}},{"type":"Feature","geometry":{"type":"Point","coordinates":[-80.01794,40.35426]},"properties":{"name":"Abraham Lincoln El Sch","district":"Bethel Park","category":"Public","grades":"K,1,2,3,4"}},{"type":"Feature","geometry":{"type":"Point","coordinates":[-79.90117,40.46101]},"properties":{"name":"Pittsburgh Westinghouse Academy 6-12","district":"City of Pittsburgh","category":"Public","grades":"6,7,8,9,10,11,12"}},{"type":"Feature","geometry":{"type":"Point","coordinates":[-79.81728,40.54569]},"properties":{"name":"Acmetonia El Sch","district":"Allegheny Valley","category":"Public","grades":"K,1,2,3,4,5,6"}},{"type":"Feature","geometry":{"type":"Point","coordinates":[-79.93875,40.3236]},"properties":{"name":"Allegheny IU 3- Mon Valley","district":"West Jefferson Hills","category":"Public","grades":"K,1,2,3,4,5,6,7,8,9,10,11,12"}},{"type":"Feature","geometry":{"type":"Point","coordinates":[-80.0485,40.34169]},"properties":{"name":"Allegheny IU 3- Pathfinder","district":"Bethel Park","category":"Public","grades":"K,1,2,3,4,5,6,7,8,9,10,11,12"}},{"type":"Feature","geometry":{"type":"Point","coordinates":[-79.7261,40.44395]},"properties":{"name":"Allegheny IU 3- Sunrise","district":"Gateway","category":"Public","grades":"K,1,2,3,4,5,6,7,8,9,10,11,12"}},{"type":"Feature","geometry":{"type":"Point","coordinates":[-80.06622,40.50087]},"properties":{"name":"Avalon El Sch","district":"Northgate","category":"Public","grades":"K,1,2,3,4,5,6"}},{"type":"Feature","geometry":{"type":"Point","coordinates":[-80.09431,40.54224]},"properties":{"name":"Avonworth El Sch","district":"Avonworth","category":"Public","grades":"3,4,5,6"}},{"type":"Feature","geometry":{"type":"Point","coordinates":[-80.0791,40.53165]},"properties":{"name":"Avonworth HS","district":"Avonworth","category":"Public","grades":"9,10,11,12"}},{"type":"Feature","geometry":{"type":"Point","coordinates":[-80.07828,40.53267]},"properties":{"name":"Avonworth MS","district":"Avonworth","category":"Public","grades":"7,8"}},{"type":"Feature","geometry":{"type":"Point","coordinates":[-80.0926,40.54219]},"properties":{"name":"Avonworth Primary Center","district":"Avonworth","category":"Public","grades":"K,1,2"}},{"type":"Feature","geometry":{"type":"Point","coordinates":[-80.09647,40.33528]},"properties":{"name":"Baker El Sch","district":"Upper St. Clair Area","category":"Public","grades":"K,1,2,3,4"}},{"type":"Feature","geometry":{"type":"Point","coordinates":[-79.97734,40.35564]},"properties":{"name":"Baldwin SHS","district":"Baldwin-Whitehall","category":"Public","grades":"7,8,9,10,11,12"}},{"type":"Feature","geometry":{"type":"Point","coordinates":[-79.90776,40.40487]},"properties":{"name":"Barrett El Sch","district":"Steel Valley","category":"Public","grades":"K,1,2,3,4"}},{"type":"Feature","geometry":{"type":"Point","coordinates":[-80.05452,40.49415]},"properties":{"name":"Bellevue El Sch","district":"Northgate","category":"Public","grades":"K,1,2,3,4,5,6"}},{"type":"Feature","geometry":{"type":"Point","coordinates":[-80.03234,40.32474]},"properties":{"name":"Benjamin Franklin El Sch","district":"Bethel Park","category":"Public","grades":"K,1,2,3,4"}},{"type":"Feature","geometry":{"type":"Point","coordinates":[-80.05406,40.32376]},"properties":{"name":"Bethel Memorial El Sch","district":"Bethel Park","category":"Public","grades":"K,1,2,3,4"}},{"type":"Feature","geometry":{"type":"Point","coordinates":[-80.04212,40.33372]},"properties":{"name":"Bethel Park HS","district":"Bethel Park","category":"Public","grades":"9,10,11,12"}},{"type":"Feature","geometry":{"type":"Point","coordinates":[-80.09467,40.31674]},"properties":{"name":"Boyce MS","district":"Upper St. Clair Area","category":"Public","grades":"5,6"}},{"type":"Feature","geometry":{"type":"Point","coordinates":[-80.07413,40.63331]},"properties":{"name":"Bradford Woods El Sch","district":"North Allegheny","category":"Public","grades":"K,1,2,3,4,5"}},{"type":"Feature","geometry":{"type":"Point","coordinates":[-79.97411,40.37436]},"properties":{"name":"Brentwood MS","district":"Brentwood Borough","category":"Public","grades":"6,7,8"}},{"type":"Feature","geometry":{"type":"Point","coordinates":[-79.97411,40.37436]},"properties":{"name":"Brentwood SHS","district":"Brentwood Borough","category":"Public","grades":"9,10,11,12"}},{"type":"Feature","geometry":{"type":"Point","coordinates":[-79.94312,40.5476]},"properties":{"name":"Burchfield Primary Sch","district":"Shaler Area","category":"Public","grades":"K,1,2,3"}},{"type":"Feature","geometry":{"type":"Point","coordinates":[-80.08206,40.4015]},"properties":{"name":"Carnegie El Sch","district":"Carlynton","category":"Public","grades":"K,1,2,3,4,5,6"}},{"type":"Feature","geometry":{"type":"Point","coordinates":[-80.03035,40.56684]},"properties":{"name":"Carson MS","district":"North Allegheny","category":"Public","grades":"6,7,8"}},{"type":"Feature","geometry":{"type":"Point","coordinates":[-79.89651,40.47012]},"properties":{"name":"Catalyst Academy CS","district":"City of Pittsburgh","category":"Charter","grades":"K,1,2,3,4"}},{"type":"Feature","geometry":{"type":"Point","coordinates":[-79.82579,40.2763]},"properties":{"name":"Central El Sch","district":"Elizabeth Forward","category":"Public","grades":"K,1,2,3,4,5"}},{"type":"Feature","geometry":{"type":"Point","coordinates":[-79.92636,40.57168]},"properties":{"name":"Central El Sch","district":"Hampton Township","category":"Public","grades":"K,1,2,3,4,5"}},{"type":"Feature","geometry":{"type":"Point","coordinates":[-80.10254,40.37879]},"properties":{"name":"Chartiers Valley HS","district":"Chartiers Valley","category":"Public","grades":"9,10,11,12"}},{"type":"Feature","geometry":{"type":"Point","coordinates":[-80.07867,40.39644]},"properties":{"name":"Chartiers Valley Intrmd School","district":"Chartiers Valley","category":"Public","grades":"3,4,5"}},{"type":"Feature","geometry":{"type":"Point","coordinates":[-80.10254,40.37879]},"properties":{"name":"Chartiers Valley MS","district":"Chartiers Valley","category":"Public","grades":"6,7,8"}},{"type":"Feature","geometry":{"type":"Point","coordinates":[-80.10695,40.38157]},"properties":{"name":"Chartiers Valley Primary Sch","district":"Chartiers Valley","category":"Public","grades":"K,1,2"}},{"type":"Feature","geometry":{"type":"Point","coordinates":[-80.0051,40.44009]},"properties":{"name":"City CHS","district":"City of Pittsburgh","category":"Charter","grades":"9,10,11,12"}},{"type":"Feature","geometry":{"type":"Point","coordinates":[-79.88547,40.29433]},"properties":{"name":"Clairton El Sch","district":"Clairton City","category":"Public","grades":"K,1,2,3,4,5"}},{"type":"Feature","geometry":{"type":"Point","coordinates":[-79.88547,40.29433]},"properties":{"name":"Clairton MS/HS","district":"Clairton City","category":"Public","grades":"6,7,8,9,10,11,12"}},{"type":"Feature","geometry":{"type":"Point","coordinates":[-79.92182,40.34281]},"properties":{"name":"Clara Barton El Sch","district":"West Mifflin Area","category":"Public","grades":"K,1,2,3"}},{"type":"Feature","geometry":{"type":"Point","coordinates":[-80.16307,40.50818]},"properties":{"name":"Cornell El Sch","district":"Cornell","category":"Public","grades":"K,1,2,3,4,5,6"}},{"type":"Feature","geometry":{"type":"Point","coordinates":[-80.16307,40.50818]},"properties":{"name":"Cornell HS","district":"Cornell","category":"Public","grades":"7,8,9,10,11,12"}},{"type":"Feature","geometry":{"type":"Point","coordinates":[-80.06716,40.43112]},"properties":{"name":"Crafton El Sch","district":"Carlynton","category":"Public","grades":"K,1,2,3,4,5,6"}},{"type":"Feature","geometry":{"type":"Point","coordinates":[-79.8482,40.64508]},"properties":{"name":"Curtisville Pri Ctr","district":"Deer Lakes","category":"Public","grades":"K,1,2"}},{"type":"Feature","geometry":{"type":"Point","coordinates":[-80.10173,40.48519]},"properties":{"name":"David E Williams MS","district":"Montour","category":"Public","grades":"5,6,7,8"}},{"type":"Feature","geometry":{"type":"Point","coordinates":[-79.85108,40.62023]},"properties":{"name":"Deer Lakes HS","district":"Deer Lakes","category":"Public","grades":"9,10,11,12"}},{"type":"Feature","geometry":{"type":"Point","coordinates":[-79.85771,40.62452]},"properties":{"name":"Deer Lakes MS","district":"Deer Lakes","category":"Public","grades":"6,7,8"}},{"type":"Feature","geometry":{"type":"Point","coordinates":[-79.89357,40.42351]},"properties":{"name":"Dickson Prep STEAM Academy","district":"Woodland Hills","category":"Public","grades":"6,7,8"}},{"type":"Feature","geometry":{"type":"Point","coordinates":[-80.23145,40.41838]},"properties":{"name":"Donaldson Elem Sch","district":"West Allegheny","category":"Public","grades":"K,1,2,3,4,5"}},{"type":"Feature","geometry":{"type":"Point","coordinates":[-80.04384,40.39474]},"properties":{"name":"Dormont El Sch","district":"Keystone Oaks","category":"Public","grades":"K,1,2,3,4,5"}},{"type":"Feature","geometry":{"type":"Point","coordinates":[-79.88399,40.57696]},"properties":{"name":"Dorseyville MS","district":"Fox Chapel Area","category":"Public","grades":"6,7,8"}},{"type":"Feature","geometry":{"type":"Point","coordinates":[-79.75507,40.4301]},"properties":{"name":"Dr Cleveland Stewart Jr El Sch","district":"Gateway","category":"Public","grades":"K,1,2,3,4"}},{"type":"Feature","geometry":{"type":"Point","coordinates":[-79.84793,40.37178]},"properties":{"name":"Duquesne El Sch","district":"Duquesne City","category":"Public","grades":"K,1,2,3,4,5,6,7,8"}},{"type":"Feature","geometry":{"type":"Point","coordinates":[-79.78691,40.36567]},"properties":{"name":"East Allegheny JSHS","district":"East Allegheny","category":"Public","grades":"7,8,9,10,11,12"}},{"type":"Feature","geometry":{"type":"Point","coordinates":[-80.23927,40.54568]},"properties":{"name":"Bon Meade El Sch","district":"Moon Area","category":"Public","grades":"K,1,2,3,4"}},{"type":"Feature","geometry":{"type":"Point","coordinates":[-79.85768,40.62211]},"properties":{"name":"East Union Intrmd Sch","district":"Deer Lakes","category":"Public","grades":"3,4,5"}},{"type":"Feature","geometry":{"type":"Point","coordinates":[-79.95902,40.65972]},"properties":{"name":"Eden Hall Upper El Sch","district":"Pine-Richland","category":"Public","grades":"4,5,6"}},{"type":"Feature","geometry":{"type":"Point","coordinates":[-79.88303,40.43287]},"properties":{"name":"Edgewood El STEAM Academy","district":"Woodland Hills","category":"Public","grades":"K,1,2,3,4,5"}},{"type":"Feature","geometry":{"type":"Point","coordinates":[-80.19119,40.54893]},"properties":{"name":"Edgeworth El Sch","district":"Quaker Valley","category":"Public","grades":"K,1,2,3,4,5"}},{"type":"Feature","geometry":{"type":"Point","coordinates":[-80.09668,40.42527]},"properties":{"name":"Carlynton JSHS","district":"Carlynton","category":"Public","grades":"7,8,9,10,11,12"}},{"type":"Feature","geometry":{"type":"Point","coordinates":[-80.06249,40.34934]},"properties":{"name":"Eisenhower El Sch","district":"Upper St. Clair Area","category":"Public","grades":"K,1,2,3,4"}},{"type":"Feature","geometry":{"type":"Point","coordinates":[-79.82584,40.2744]},"properties":{"name":"Elizabeth Forward MS","district":"Elizabeth Forward","category":"Public","grades":"6,7,8"}},{"type":"Feature","geometry":{"type":"Point","coordinates":[-79.85607,40.25534]},"properties":{"name":"Elizabeth Forward SHS","district":"Elizabeth Forward","category":"Public","grades":"9,10,11,12"}},{"type":"Feature","geometry":{"type":"Point","coordinates":[-79.9732,40.37944]},"properties":{"name":"Elroy Avenue El Sch","district":"Brentwood Borough","category":"Public","grades":"K,1,2,3,4,5,6"}},{"type":"Feature","geometry":{"type":"Point","coordinates":[-79.8969,40.43597]},"properties":{"name":"Environmental CS at Frick Park","district":"City of Pittsburgh","category":"Charter","grades":"K,1,2,3,4,5,6,7,8,9,10,11,12"}},{"type":"Feature","geometry":{"type":"Point","coordinates":[-79.7716,40.44597]},"properties":{"name":"Evergreen El Sch","district":"Gateway","category":"Public","grades":"K,1,2,3,4"}},{"type":"Feature","geometry":{"type":"Point","coordinates":[-79.89994,40.54673]},"properties":{"name":"Fairview El Sch","district":"Fox Chapel Area","category":"Public","grades":"K,1,2,3,4,5"}},{"type":"Feature","geometry":{"type":"Point","coordinates":[-79.7488,40.45043]},"properties":{"name":"Forbes Road CTC","district":"Gateway","category":"CTC","grades":"9,10,11,12"}},{"type":"Feature","geometry":{"type":"Point","coordinates":[-80.06467,40.35427]},"properties":{"name":"Fort Couch MS","district":"Upper St. Clair Area","category":"Public","grades":"7,8"}},{"type":"Feature","geometry":{"type":"Point","coordinates":[-80.03874,40.36306]},"properties":{"name":"Foster El Sch","district":"Mt. Lebanon","category":"Public","grades":"K,1,2,3,4,5"}},{"type":"Feature","geometry":{"type":"Point","coordinates":[-79.83343,40.34651]},"properties":{"name":"Founders Hall Middle Sch","district":"McKeesport Area","category":"Public","grades":"6,7,8"}},{"type":"Feature","geometry":{"type":"Point","coordinates":[-79.86868,40.51811]},"properties":{"name":"Fox Chapel Area HS","district":"Fox Chapel Area","category":"Public","grades":"9,10,11,12"}},{"type":"Feature","geometry":{"type":"Point","coordinates":[-79.8079,40.34942]},"properties":{"name":"Francis McClure El Sch","district":"McKeesport Area","category":"Public","grades":"K,1,2,3,4,5"}},{"type":"Feature","geometry":{"type":"Point","coordinates":[-80.09623,40.58688]},"properties":{"name":"Franklin El Sch","district":"North Allegheny","category":"Public","grades":"K,1,2,3,4,5"}},{"type":"Feature","geometry":{"type":"Point","coordinates":[-80.04263,40.42377]},"properties":{"name":"Fred L Aiken El Sch","district":"Keystone Oaks","category":"Public","grades":"K,1,2,3,4,5"}},{"type":"Feature","geometry":{"type":"Point","coordinates":[-79.76095,40.44373]},"properties":{"name":"Gateway MS","district":"Gateway","category":"Public","grades":"5,6,7,8"}},{"type":"Feature","geometry":{"type":"Point","coordinates":[-79.7545,40.43177]},"properties":{"name":"Gateway SHS","district":"Gateway","category":"Public","grades":"9,10,11,12"}},{"type":"Feature","geometry":{"type":"Point","coordinates":[-80.06258,40.31263]},"properties":{"name":"George Washington El Sch","district":"Bethel Park","category":"Public","grades":"K,1,2,3,4"}},{"type":"Feature","geometry":{"type":"Point","coordinates":[-79.96079,40.30084]},"properties":{"name":"Gill Hall El Sch","district":"West Jefferson Hills","category":"Public","grades":"K,1,2"}},{"type":"Feature","geometry":{"type":"Point","coordinates":[-79.80291,40.312]},"properties":{"name":"Greenock El Sch","district":"Elizabeth Forward","category":"Public","grades":"K,1,2"}},{"type":"Feature","geometry":{"type":"Point","coordinates":[-79.94049,40.58339]},"properties":{"name":"Hampton HS","district":"Hampton Township","category":"Public","grades":"9,10,11,12"}},{"type":"Feature","geometry":{"type":"Point","coordinates":[-79.94613,40.58796]},"properties":{"name":"Hampton MS","district":"Hampton Township","category":"Public","grades":"6,7,8"}},{"type":"Feature","geometry":{"type":"Point","coordinates":[-79.94721,40.62813]},"properties":{"name":"Hance El Sch","district":"Pine-Richland","category":"Public","grades":"K,1,2,3"}},{"type":"Feature","geometry":{"type":"Point","coordinates":[-79.88627,40.5767]},"properties":{"name":"Hartwood El Sch","district":"Fox Chapel Area","category":"Public","grades":"K,1,2,3,4,5"}},{"type":"Feature","geometry":{"type":"Point","coordinates":[-80.05572,40.5251]},"properties":{"name":"Highcliff El Sch","district":"North Hills","category":"Public","grades":"K,1,2,3,4,5"}},{"type":"Feature","geometry":{"type":"Point","coordinates":[-79.73976,40.61157]},"properties":{"name":"Highlands Early Childhood Center","district":"Highlands","category":"Public","grades":"K"}},{"type":"Feature","geometry":{"type":"Point","coordinates":[-79.75671,40.60375]},"properties":{"name":"Highlands El Sch","district":"Highlands","category":"Public","grades":"1,2,3,4"}},{"type":"Feature","geometry":{"type":"Point","coordinates":[-79.73274,40.61724]},"properties":{"name":"Highlands MS","district":"Highlands","category":"Public","grades":"5,6,7,8"}},{"type":"Feature","geometry":{"type":"Point","coordinates":[-79.72753,40.61777]},"properties":{"name":"Highlands SHS","district":"Highlands","category":"Public","grades":"9,10,11,12"}},{"type":"Feature","geometry":{"type":"Point","coordinates":[-79.75488,40.4937]},"properties":{"name":"Holiday Park Intermediate Sch","district":"Plum Borough","category":"Public","grades":"5,6"}},{"type":"Feature","geometry":{"type":"Point","coordinates":[-79.87489,40.38881]},"properties":{"name":"Homeville El Sch","district":"West Mifflin Area","category":"Public","grades":"K,1,2,3"}},{"type":"Feature","geometry":{"type":"Point","coordinates":[-80.06933,40.37418]},"properties":{"name":"Hoover El Sch","district":"Mt. Lebanon","category":"Public","grades":"K,1,2,3,4,5"}},{"type":"Feature","geometry":{"type":"Point","coordinates":[-80.00229,40.57406]},"properties":{"name":"Hosack El Sch","district":"North Allegheny","category":"Public","grades":"K,1,2,3,4,5"}},{"type":"Feature","geometry":{"type":"Point","coordinates":[-80.03095,40.37553]},"properties":{"name":"Howe El Sch","district":"Mt. Lebanon","category":"Public","grades":"K,1,2,3,4,5"}},{"type":"Feature","geometry":{"type":"Point","coordinates":[-80.04223,40.33819]},"properties":{"name":"Independence MS","district":"Bethel Park","category":"Public","grades":"7,8"}},{"type":"Feature","geometry":{"type":"Point","coordinates":[-80.05354,40.58222]},"properties":{"name":"Ingomar El Sch","district":"North Allegheny","category":"Public","grades":"K,1,2,3,4,5"}},{"type":"Feature","geometry":{"type":"Point","coordinates":[-80.07272,40.58085]},"properties":{"name":"Ingomar MS","district":"North Allegheny","category":"Public","grades":"6,7,8"}},{"type":"Feature","geometry":{"type":"Point","coordinates":[-80.17679,40.50003]},"properties":{"name":"J H Brooks El Sch","district":"Moon Area","category":"Public","grades":"K,1,2,3,4"}},{"type":"Feature","geometry":{"type":"Point","coordinates":[-80.2188,40.53048]},"properties":{"name":"J.A. Allard El Sch","district":"Moon Area","category":"Public","grades":"K,1,2,3,4"}},{"type":"Feature","geometry":{"type":"Point","coordinates":[-80.00003,40.35078]},"properties":{"name":"J.E. Harrison Education Ctr","district":"Baldwin-Whitehall","category":"Public","grades":"3,4,5,6,7"}},{"type":"Feature","geometry":{"type":"Point","coordinates":[-80.06098,40.38154]},"properties":{"name":"Jefferson El Sch","district":"Mt. Lebanon","category":"Public","grades":"K,1,2,3,4,5"}},{"type":"Feature","geometry":{"type":"Point","coordinates":[-79.93238,40.29643]},"properties":{"name":"Jefferson Hills Intermediate Sch","district":"West Jefferson Hills","category":"Public","grades":"3,4,5"}},{"type":"Feature","geometry":{"type":"Point","coordinates":[-80.06088,40.38236]},"properties":{"name":"Jefferson MS","district":"Mt. Lebanon","category":"Public","grades":"6,7,8"}},{"type":"Feature","geometry":{"type":"Point","coordinates":[-79.8902,40.44023]},"properties":{"name":"Kelly Primary Sch","district":"Wilkinsburg","category":"Public","grades":"K,1,2"}},{"type":"Feature","geometry":{"type":"Point","coordinates":[-79.91851,40.51308]},"properties":{"name":"Kerr El Sch","district":"Fox Chapel Area","category":"Public","grades":"K,1,2,3,4,5"}},{"type":"Feature","geometry":{"type":"Point","coordinates":[-80.03053,40.38729]},"properties":{"name":"Keystone Oaks HS","district":"Keystone Oaks","category":"Public","grades":"9,10,11,12"}},{"type":"Feature","geometry":{"type":"Point","coordinates":[-80.02937,40.38672]},"properties":{"name":"Keystone Oaks MS","district":"Keystone Oaks","category":"Public","grades":"6,7,8"}},{"type":"Feature","geometry":{"type":"Point","coordinates":[-79.81136,40.42575]},"properties":{"name":"Life Male STEAM Academy CS","district":"Woodland Hills","category":"Charter","grades":"6,7,8"}},{"type":"Feature","geometry":{"type":"Point","coordinates":[-80.04849,40.38849]},"properties":{"name":"Lincoln El Sch","district":"Mt. Lebanon","category":"Public","grades":"K,1,2,3,4,5"}},{"type":"Feature","geometry":{"type":"Point","coordinates":[-79.81262,40.48165]},"properties":{"name":"Linton MS","district":"Penn Hills","category":"Public","grades":"6,7,8"}},{"type":"Feature","geometry":{"type":"Point","coordinates":[-79.79026,40.36377]},"properties":{"name":"Logan El Sch","district":"East Allegheny","category":"Public","grades":"K,1,2,3,4,5,6,7"}},{"type":"Feature","geometry":{"type":"Point","coordinates":[-80.0236,40.45572]},"properties":{"name":"Manchester Academic CS","district":"City of Pittsburgh","category":"Charter","grades":"K,1,2,3,4,5,6,7,8"}},{"type":"Feature","geometry":{"type":"Point","coordinates":[-80.05495,40.36699]},"properties":{"name":"Markham El Sch","district":"Mt. Lebanon","category":"Public","grades":"K,1,2,3,4,5"}},{"type":"Feature","geometry":{"type":"Point","coordinates":[-80.09155,40.6435]},"properties":{"name":"Marshall El Sch","district":"North Allegheny","category":"Public","grades":"K,1,2,3,4,5"}},{"type":"Feature","geometry":{"type":"Point","coordinates":[-80.09479,40.64379]},"properties":{"name":"Marshall MS","district":"North Allegheny","category":"Public","grades":"6,7,8"}},{"type":"Feature","geometry":{"type":"Point","coordinates":[-79.96644,40.51346]},"properties":{"name":"Marzolf Primary Sch","district":"Shaler Area","category":"Public","grades":"K,1,2,3"}},{"type":"Feature","geometry":{"type":"Point","coordinates":[-79.99577,40.3455]},"properties":{"name":"McAnnulty El Sch","district":"Baldwin-Whitehall","category":"Public","grades":"K"}},{"type":"Feature","geometry":{"type":"Point","coordinates":[-79.96968,40.33019]},"properties":{"name":"McClellan El Sch","district":"West Jefferson Hills","category":"Public","grades":"K,1,2"}},{"type":"Feature","geometry":{"type":"Point","coordinates":[-80.17403,40.47884]},"properties":{"name":"McCormick El Sch","district":"Moon Area","category":"Public","grades":"K,1,2,3,4"}},{"type":"Feature","geometry":{"type":"Point","coordinates":[-80.00397,40.54906]},"properties":{"name":"McIntyre El Sch","district":"North Hills","category":"Public","grades":"K,1,2,3,4,5"}},{"type":"Feature","geometry":{"type":"Point","coordinates":[-80.19341,40.41532]},"properties":{"name":"McKee El Sch","district":"West Allegheny","category":"Public","grades":"K,1,2,3,4,5"}},{"type":"Feature","geometry":{"type":"Point","coordinates":[-79.83134,40.34418]},"properties":{"name":"McKeesport Area SHS","district":"McKeesport Area","category":"Public","grades":"9,10,11,12"}},{"type":"Feature","geometry":{"type":"Point","coordinates":[-79.83134,40.34419]},"properties":{"name":"McKeesport Area Tech Ctr","district":"McKeesport Area","category":"CTC","grades":"9,10,11,12"}},{"type":"Feature","geometry":{"type":"Point","coordinates":[-80.02843,40.57095]},"properties":{"name":"McKnight El Sch","district":"North Allegheny","category":"Public","grades":"K,1,2,3,4,5"}},{"type":"Feature","geometry":{"type":"Point","coordinates":[-80.0452,40.37795]},"properties":{"name":"Mellon MS","district":"Mt. Lebanon","category":"Public","grades":"6,7,8"}},{"type":"Feature","geometry":{"type":"Point","coordinates":[-80.12085,40.46546]},"properties":{"name":"Montour El Sch","district":"Montour","category":"Public","grades":"K,1,2,3,4"}},{"type":"Feature","geometry":{"type":"Point","coordinates":[-80.11864,40.46728]},"properties":{"name":"Montour HS","district":"Montour","category":"Public","grades":"9,10,11,12"}},{"type":"Feature","geometry":{"type":"Point","coordinates":[-80.2174,40.51276]},"properties":{"name":"Moon Area Lower MS","district":"Moon Area","category":"Public","grades":"5,6"}},{"type":"Feature","geometry":{"type":"Point","coordinates":[-80.2174,40.51276]},"properties":{"name":"Moon Area Upper MS","district":"Moon Area","category":"Public","grades":"7,8"}},{"type":"Feature","geometry":{"type":"Point","coordinates":[-80.22001,40.51032]},"properties":{"name":"Moon SHS","district":"Moon Area","category":"Public","grades":"9,10,11,12"}},{"type":"Feature","geometry":{"type":"Point","coordinates":[-79.97429,40.36878]},"properties":{"name":"Moore Sch","district":"Brentwood Borough","category":"Public","grades":"K,1,2,3,4,5"}},{"type":"Feature","geometry":{"type":"Point","coordinates":[-80.05088,40.37632]},"properties":{"name":"Mt Lebanon SHS","district":"Mt. Lebanon","category":"Public","grades":"9,10,11,12"}},{"type":"Feature","geometry":{"type":"Point","coordinates":[-79.8125,40.29208]},"properties":{"name":"Mt Vernon El Sch","district":"Elizabeth Forward","category":"Public","grades":"3,4,5"}},{"type":"Feature","geometry":{"type":"Point","coordinates":[-80.02431,40.36747]},"properties":{"name":"Myrtle Ave Sch","district":"Keystone Oaks","category":"Public","grades":"K,1,2,3,4,5"}},{"type":"Feature","geometry":{"type":"Point","coordinates":[-80.02181,40.30611]},"properties":{"name":"Neil Armstrong 5-6 MS","district":"Bethel Park","category":"Public","grades":"5,6"}},{"type":"Feature","geometry":{"type":"Point","coordinates":[-80.05362,40.60342]},"properties":{"name":"North Allegheny HS","district":"North Allegheny","category":"Public","grades":"9,10,11,12"}},{"type":"Feature","geometry":{"type":"Point","coordinates":[-80.02591,40.52393]},"properties":{"name":"North Hills MS","district":"North Hills","category":"Public","grades":"6,7,8"}},{"type":"Feature","geometry":{"type":"Point","coordinates":[-80.02625,40.52618]},"properties":{"name":"North Hills SHS","district":"North Hills","category":"Public","grades":"9,10,11,12"}},{"type":"Feature","geometry":{"type":"Point","coordinates":[-80.05699,40.50647]},"properties":{"name":"Northgate MSHS","district":"Northgate","category":"Public","grades":"7,8,9,10,11,12"}},{"type":"Feature","geometry":{"type":"Point","coordinates":[-79.75956,40.48063]},"properties":{"name":"O'Block El Sch","district":"Plum Borough","category":"Public","grades":"K,1,2,3,4"}},{"type":"Feature","geometry":{"type":"Point","coordinates":[-79.86343,40.51535]},"properties":{"name":"OHara El Sch","district":"Fox Chapel Area","category":"Public","grades":"K,1,2,3,4,5"}},{"type":"Feature","geometry":{"type":"Point","coordinates":[-80.16864,40.53069]},"properties":{"name":"Osborne El Sch","district":"Quaker Valley","category":"Public","grades":"K,1,2,3,4,5"}},{"type":"Feature","geometry":{"type":"Point","coordinates":[-79.90531,40.38208]},"properties":{"name":"Park El Sch","district":"Steel Valley","category":"Public","grades":"K,1,2,3,4"}},{"type":"Feature","geometry":{"type":"Point","coordinates":[-80.17759,40.44287]},"properties":{"name":"Parkway West CTC","district":"West Allegheny","category":"CTC","grades":"9,10,11,12"}},{"type":"Feature","geometry":{"type":"Point","coordinates":[-79.99697,40.44432]},"properties":{"name":"Passport Academy CS","district":"City of Pittsburgh","category":"Charter","grades":"10,11,12"}},{"type":"Feature","geometry":{"type":"Point","coordinates":[-80.01079,40.56536]},"properties":{"name":"Peebles El Sch","district":"North Allegheny","category":"Public","grades":"K,1,2,3,4,5"}},{"type":"Feature","geometry":{"type":"Point","coordinates":[-79.79189,40.47259]},"properties":{"name":"Penn Hills CS of Entrepreneurship","district":"Penn Hills","category":"Charter","grades":"K,1,2,3,4,5,6,7,8"}},{"type":"Feature","geometry":{"type":"Point","coordinates":[-79.80572,40.4505]},"properties":{"name":"Penn Hills El Sch","district":"Penn Hills","category":"Public","grades":"K,1,2,3,4,5"}},{"type":"Feature","geometry":{"type":"Point","coordinates":[-79.81513,40.46626]},"properties":{"name":"Penn Hills SHS","district":"Penn Hills","category":"Public","grades":"9,10,11,12"}},{"type":"Feature","geometry":{"type":"Point","coordinates":[-80.10196,40.61156]},"properties":{"name":"Pennsylvania Distance Learning CS","district":"North Allegheny","category":"Charter","grades":"K,1,2,3,4,5,6,7,8,9,10,11,12"}},{"type":"Feature","geometry":{"type":"Point","coordinates":[-80.01717,40.65925]},"properties":{"name":"Pine-Richland HS","district":"Pine-Richland","category":"Public","grades":"9,10,11,12"}},{"type":"Feature","geometry":{"type":"Point","coordinates":[-80.01407,40.65664]},"properties":{"name":"Pine-Richland MS","district":"Pine-Richland","category":"Public","grades":"7,8"}},{"type":"Feature","geometry":{"type":"Point","coordinates":[-79.91937,40.42942]},"properties":{"name":"Pittsburgh Allderdice HS","district":"City of Pittsburgh","category":"Public","grades":"9,10,11,12"}},{"type":"Feature","geometry":{"type":"Point","coordinates":[-80.00866,40.45324]},"properties":{"name":"Pittsburgh Allegheny 6-8","district":"City of Pittsburgh","category":"Public","grades":"6,7,8"}},{"type":"Feature","geometry":{"type":"Point","coordinates":[-80.00866,40.45324]},"properties":{"name":"Pittsburgh Allegheny K-5","district":"City of Pittsburgh","category":"Public","grades":"K,1,2,3,4,5"}},{"type":"Feature","geometry":{"type":"Point","coordinates":[-79.97941,40.40858]},"properties":{"name":"Pittsburgh Arlington K-8","district":"City of Pittsburgh","category":"Public","grades":"K,1,2,3,4,5,6,7,8"}},{"type":"Feature","geometry":{"type":"Point","coordinates":[-79.96186,40.46811]},"properties":{"name":"Pittsburgh Arsenal 6-8","district":"City of Pittsburgh","category":"Public","grades":"6,7,8"}},{"type":"Feature","geometry":{"type":"Point","coordinates":[-79.96308,40.46727]},"properties":{"name":"Pittsburgh Arsenal K-5","district":"City of Pittsburgh","category":"Public","grades":"K,1,2,3,4,5"}},{"type":"Feature","geometry":{"type":"Point","coordinates":[-80.03673,40.40724]},"properties":{"name":"Pittsburgh Banksville K-5","district":"City of Pittsburgh","category":"Public","grades":"K,1,2,3,4,5"}},{"type":"Feature","geometry":{"type":"Point","coordinates":[-80.02056,40.41464]},"properties":{"name":"Pittsburgh Beechwood K-5","district":"City of Pittsburgh","category":"Public","grades":"K,1,2,3,4,5"}},{"type":"Feature","geometry":{"type":"Point","coordinates":[-80.01823,40.41809]},"properties":{"name":"Pittsburgh Brashear HS","district":"City of Pittsburgh","category":"Public","grades":"9,10,11,12"}},{"type":"Feature","geometry":{"type":"Point","coordinates":[-80.02475,40.39397]},"properties":{"name":"Pittsburgh Brookline K-8","district":"City of Pittsburgh","category":"Public","grades":"K,1,2,3,4,5,6,7,8"}},{"type":"Feature","geometry":{"type":"Point","coordinates":[-79.99854,40.44476]},"properties":{"name":"Pittsburgh CAPA 6-12","district":"City of Pittsburgh","category":"Public","grades":"6,7,8,9,10,11,12"}},{"type":"Feature","geometry":{"type":"Point","coordinates":[-80.00682,40.38779]},"properties":{"name":"Pittsburgh Carmalt K-8","district":"City of Pittsburgh","category":"Public","grades":"K,1,2,3,4,5,6,7,8"}},{"type":"Feature","geometry":{"type":"Point","coordinates":[-79.98941,40.39082]},"properties":{"name":"Pittsburgh Carrick HS","district":"City of Pittsburgh","category":"Public","grades":"9,10,11,12"}},{"type":"Feature","geometry":{"type":"Point","coordinates":[-80.04908,40.44869]},"properties":{"name":"Pittsburgh Classical 6-8","district":"City of Pittsburgh","category":"Public","grades":"6,7,8"}},{"type":"Feature","geometry":{"type":"Point","coordinates":[-79.91537,40.43306]},"properties":{"name":"Pittsburgh Colfax K-8","district":"City of Pittsburgh","category":"Public","grades":"K,1,2,3,4,5,6,7,8"}},{"type":"Feature","geometry":{"type":"Point","coordinates":[-79.98456,40.3874]},"properties":{"name":"Pittsburgh Concord K-5","district":"City of Pittsburgh","category":"Public","grades":"K,1,2,3,4,5"}},{"type":"Feature","geometry":{"type":"Point","coordinates":[-80.02473,40.4517]},"properties":{"name":"Pittsburgh Conroy","district":"City of Pittsburgh","category":"Public","grades":"K,1,2,3,4,5,6,7,8,9,10,11,12"}},{"type":"Feature","geometry":{"type":"Point","coordinates":[-79.91744,40.4682]},"properties":{"name":"Pittsburgh Dilworth K-5","district":"City of Pittsburgh","category":"Public","grades":"K,1,2,3,4,5"}},{"type":"Feature","geometry":{"type":"Point","coordinates":[-79.89407,40.4525]},"properties":{"name":"Pittsburgh Faison K-5","district":"City of Pittsburgh","category":"Public","grades":"K,1,2,3,4,5"}},{"type":"Feature","geometry":{"type":"Point","coordinates":[-79.92201,40.47495]},"properties":{"name":"Pittsburgh Fulton K-5","district":"City of Pittsburgh","category":"Public","grades":"K,1,2,3,4,5"}},{"type":"Feature","geometry":{"type":"Point","coordinates":[-79.99281,40.4245]},"properties":{"name":"Pittsburgh Grandview K-5","district":"City of Pittsburgh","category":"Public","grades":"K,1,2,3,4,5"}},{"type":"Feature","geometry":{"type":"Point","coordinates":[-79.94467,40.42653]},"properties":{"name":"Pittsburgh Greenfield K-8","district":"City of Pittsburgh","category":"Public","grades":"K,1,2,3,4,5,6,7,8"}},{"type":"Feature","geometry":{"type":"Point","coordinates":[-80.00496,40.45481]},"properties":{"name":"Pittsburgh King K-8","district":"City of Pittsburgh","category":"Public","grades":"K,1,2,3,4,5,6,7,8"}},{"type":"Feature","geometry":{"type":"Point","coordinates":[-80.05467,40.45454]},"properties":{"name":"Pittsburgh Langley K-8","district":"City of Pittsburgh","category":"Public","grades":"K,1,2,3,4,5,6,7,8"}},{"type":"Feature","geometry":{"type":"Point","coordinates":[-79.93348,40.45319]},"properties":{"name":"Pittsburgh Liberty K-5","district":"City of Pittsburgh","category":"Public","grades":"K,1,2,3,4,5"}},{"type":"Feature","geometry":{"type":"Point","coordinates":[-79.91161,40.46006]},"properties":{"name":"Pittsburgh Lincoln K-5","district":"City of Pittsburgh","category":"Public","grades":"K,1,2,3,4,5"}},{"type":"Feature","geometry":{"type":"Point","coordinates":[-79.91625,40.44552]},"properties":{"name":"Pittsburgh Linden K-5","district":"City of Pittsburgh","category":"Public","grades":"K,1,2,3,4,5"}},{"type":"Feature","geometry":{"type":"Point","coordinates":[-80.02652,40.45645]},"properties":{"name":"Pittsburgh Manchester K-8","district":"City of Pittsburgh","category":"Public","grades":"K,1,2,3,4,5,6,7,8"}},{"type":"Feature","geometry":{"type":"Point","coordinates":[-79.91473,40.37008]},"properties":{"name":"Pittsburgh Mifflin K-8","district":"City of Pittsburgh","category":"Public","grades":"K,1,2,3,4,5,6,7,8"}},{"type":"Feature","geometry":{"type":"Point","coordinates":[-79.98135,40.44733]},"properties":{"name":"Pittsburgh Miller K-5","district":"City of Pittsburgh","category":"Public","grades":"K,1,2,3,4,5"}},{"type":"Feature","geometry":{"type":"Point","coordinates":[-79.96243,40.44981]},"properties":{"name":"Pittsburgh Milliones 6-12","district":"City of Pittsburgh","category":"Public","grades":"6,7,8,9,10,11,12"}},{"type":"Feature","geometry":{"type":"Point","coordinates":[-79.92572,40.42343]},"properties":{"name":"Pittsburgh Minadeo K-5","district":"City of Pittsburgh","category":"Public","grades":"K,1,2,3,4,5"}},{"type":"Feature","geometry":{"type":"Point","coordinates":[-79.93474,40.46562]},"properties":{"name":"Pittsburgh Montessori K-5","district":"City of Pittsburgh","category":"Public","grades":"K,1,2,3,4,5"}},{"type":"Feature","geometry":{"type":"Point","coordinates":[-80.03983,40.48016]},"properties":{"name":"Pittsburgh Morrow K-8","district":"City of Pittsburgh","category":"Public","grades":"K,1,2,3,4,5,6,7,8"}},{"type":"Feature","geometry":{"type":"Point","coordinates":[-79.9226,40.46707]},"properties":{"name":"Pittsburgh Obama 6-12","district":"City of Pittsburgh","category":"Public","grades":"6,7,8,9,10,11,12"}},{"type":"Feature","geometry":{"type":"Point","coordinates":[-79.95066,40.44469]},"properties":{"name":"Pittsburgh Online Academy","district":"City of Pittsburgh","category":"Public","grades":"4,5,6,7,8,9,10,11,12"}},{"type":"Feature","geometry":{"type":"Point","coordinates":[-80.01904,40.48917]},"properties":{"name":"Pittsburgh Perry HS","district":"City of Pittsburgh","category":"Public","grades":"9,10,11,12"}},{"type":"Feature","geometry":{"type":"Point","coordinates":[-79.97827,40.42795]},"properties":{"name":"Pittsburgh Phillips K-5","district":"City of Pittsburgh","category":"Public","grades":"K,1,2,3,4,5"}},{"type":"Feature","geometry":{"type":"Point","coordinates":[-80.00995,40.40316]},"properties":{"name":"Pittsburgh Pioneer","district":"City of Pittsburgh","category":"Public","grades":"K,1,2,3,4,5,6,7,8,9,10,11,12"}},{"type":"Feature","geometry":{"type":"Point","coordinates":[-79.98916,40.39782]},"properties":{"name":"Pittsburgh Roosevelt K -5","district":"City of Pittsburgh","category":"Public","grades":"K,1,2,3,4,5"}},{"type":"Feature","geometry":{"type":"Point","coordinates":[-79.99306,40.45652]},"properties":{"name":"Pittsburgh Schiller 6-8","district":"City of Pittsburgh","category":"Public","grades":"6,7,8"}},{"type":"Feature","geometry":{"type":"Point","coordinates":[-79.95768,40.44351]},"properties":{"name":"Pittsburgh Science and Technology Academy","district":"City of Pittsburgh","category":"Public","grades":"6,7,8,9,10,11,12"}},{"type":"Feature","geometry":{"type":"Point","coordinates":[-80.00889,40.40346]},"properties":{"name":"Pittsburgh South Brook 6-8","district":"City of Pittsburgh","category":"Public","grades":"6,7,8"}},{"type":"Feature","geometry":{"type":"Point","coordinates":[-80.01819,40.41947]},"properties":{"name":"Pittsburgh South Hills 6-8","district":"City of Pittsburgh","category":"Public","grades":"6,7,8"}},{"type":"Feature","geometry":{"type":"Point","coordinates":[-79.98946,40.46522]},"properties":{"name":"Pittsburgh Spring Hill K-5","district":"City of Pittsburgh","category":"Public","grades":"K,1,2,3,4,5"}},{"type":"Feature","geometry":{"type":"Point","coordinates":[-79.9054,40.4466]},"properties":{"name":"Pittsburgh Sterrett 6-8","district":"City of Pittsburgh","category":"Public","grades":"6,7,8"}},{"type":"Feature","geometry":{"type":"Point","coordinates":[-79.93351,40.48157]},"properties":{"name":"Pittsburgh Sunnyside K-8","district":"City of Pittsburgh","category":"Public","grades":"K,1,2,3,4,5,6,7,8"}},{"type":"Feature","geometry":{"type":"Point","coordinates":[-79.974,40.44454]},"properties":{"name":"Pittsburgh Weil K-5","district":"City of Pittsburgh","category":"Public","grades":"K,1,2,3,4,5"}},{"type":"Feature","geometry":{"type":"Point","coordinates":[-80.00798,40.4029]},"properties":{"name":"Pittsburgh West Liberty K-5","district":"City of Pittsburgh","category":"Public","grades":"K,1,2,3,4,5"}},{"type":"Feature","geometry":{"type":"Point","coordinates":[-80.05056,40.43148]},"properties":{"name":"Pittsburgh Westwood K-5","district":"City of Pittsburgh","category":"Public","grades":"K,1,2,3,4,5"}},{"type":"Feature","geometry":{"type":"Point","coordinates":[-80.01896,40.43586]},"properties":{"name":"Pittsburgh Whittier K-5","district":"City of Pittsburgh","category":"Public","grades":"K,1,2,3,4,5"}},{"type":"Feature","geometry":{"type":"Point","coordinates":[-79.95721,40.46343]},"properties":{"name":"Pittsburgh Woolslair K-5","district":"City of Pittsburgh","category":"Public","grades":"K,1,2,3,4,5"}},{"type":"Feature","geometry":{"type":"Point","coordinates":[-79.75508,40.49212]},"properties":{"name":"Pivik El Sch","district":"Plum Borough","category":"Public","grades":"K,1,2,3,4"}},{"type":"Feature","geometry":{"type":"Point","coordinates":[-79.96188,40.33024]},"properties":{"name":"Pleasant Hills MS","district":"West Jefferson Hills","category":"Public","grades":"6,7,8"}},{"type":"Feature","geometry":{"type":"Point","coordinates":[-79.71516,40.47084]},"properties":{"name":"Plum MS","district":"Plum Borough","category":"Public","grades":"7,8"}},{"type":"Feature","geometry":{"type":"Point","coordinates":[-79.76665,40.50742]},"properties":{"name":"Plum SHS","district":"Plum Borough","category":"Public","grades":"9,10,11,12"}},{"type":"Feature","geometry":{"type":"Point","coordinates":[-79.93926,40.60736]},"properties":{"name":"Poff El Sch","district":"Hampton Township","category":"Public","grades":"K,1,2,3,4,5"}},{"type":"Feature","geometry":{"type":"Point","coordinates":[-79.81524,40.40936]},"properties":{"name":"Propel CS-East","district":"Woodland Hills","category":"Charter","grades":"K,1,2,3,4,5,6,7,8"}},{"type":"Feature","geometry":{"type":"Point","coordinates":[-79.93839,40.40402]},"properties":{"name":"Propel CS-Hazelwood","district":"City of Pittsburgh","category":"Charter","grades":"K,1,2,3,4,5,6,7,8"}},{"type":"Feature","geometry":{"type":"Point","coordinates":[-79.91049,40.40529]},"properties":{"name":"Propel CS-Homestead","district":"Steel Valley","category":"Charter","grades":"K,1,2,3,4,5,6,7,8,9,10,11,12"}},{"type":"Feature","geometry":{"type":"Point","coordinates":[-79.8482,40.34553]},"properties":{"name":"Propel CS-McKeesport","district":"McKeesport Area","category":"Charter","grades":"K,1,2,3,4,5,6,7,8"}},{"type":"Feature","geometry":{"type":"Point","coordinates":[-80.10609,40.45433]},"properties":{"name":"Propel CS-Montour","district":"Montour","category":"Charter","grades":"K,1,2,3,4,5,6,7,8,9,10,11,12"}},{"type":"Feature","geometry":{"type":"Point","coordinates":[-80.01598,40.46016]},"properties":{"name":"Propel CS-Northside","district":"City of Pittsburgh","category":"Charter","grades":"K,1,2,3,4,5,6,7,8"}},{"type":"Feature","geometry":{"type":"Point","coordinates":[-79.77926,40.40418]},"properties":{"name":"Propel CS-Pitcairn","district":"Gateway","category":"Charter","grades":"K,1,2,3,4,5,6,7,8"}},{"type":"Feature","geometry":{"type":"Point","coordinates":[-79.98547,40.46074]},"properties":{"name":"Provident CS","district":"City of Pittsburgh","category":"Charter","grades":"2,3,4,5,6,7,8"}},{"type":"Feature","geometry":{"type":"Point","coordinates":[-80.20349,40.56138]},"properties":{"name":"Quaker Valley HS","district":"Quaker Valley","category":"Public","grades":"9,10,11,12"}},{"type":"Feature","geometry":{"type":"Point","coordinates":[-80.18019,40.53558]},"properties":{"name":"Quaker Valley MS","district":"Quaker Valley","category":"Public","grades":"6,7,8"}},{"type":"Feature","geometry":{"type":"Point","coordinates":[-79.74779,40.40857]},"properties":{"name":"Ramsey El Sch","district":"Gateway","category":"Public","grades":"K,1,2,3,4"}},{"type":"Feature","geometry":{"type":"Point","coordinates":[-79.98114,40.47559]},"properties":{"name":"Reserve Primary Sch","district":"Shaler Area","category":"Public","grades":"K,1,2,3"}},{"type":"Feature","geometry":{"type":"Point","coordinates":[-79.95701,40.65647]},"properties":{"name":"Richland El Sch","district":"Pine-Richland","category":"Public","grades":"K,1,2,3"}},{"type":"Feature","geometry":{"type":"Point","coordinates":[-79.8441,40.5256]},"properties":{"name":"Riverview JSHS","district":"Riverview","category":"Public","grades":"7,8,9,10,11,12"}},{"type":"Feature","geometry":{"type":"Point","coordinates":[-80.00085,40.52599]},"properties":{"name":"Ross El Sch","district":"North Hills","category":"Public","grades":"K,1,2,3,4,5"}},{"type":"Feature","geometry":{"type":"Point","coordinates":[-79.98313,40.53851]},"properties":{"name":"Scott Primary Sch","district":"Shaler Area","category":"Public","grades":"K,1,2,3"}},{"type":"Feature","geometry":{"type":"Point","coordinates":[-79.98313,40.53851]},"properties":{"name":"Shaler Area El Sch","district":"Shaler Area","category":"Public","grades":"4,5,6"}},{"type":"Feature","geometry":{"type":"Point","coordinates":[-79.97448,40.51528]},"properties":{"name":"Shaler Area HS","district":"Shaler Area","category":"Public","grades":"9,10,11,12"}},{"type":"Feature","geometry":{"type":"Point","coordinates":[-79.96335,40.52736]},"properties":{"name":"Shaler Area MS","district":"Shaler Area","category":"Public","grades":"7,8"}},{"type":"Feature","geometry":{"type":"Point","coordinates":[-79.87789,40.33035]},"properties":{"name":"South Allegheny El Sch","district":"South Allegheny","category":"Public","grades":"K,1,2,3,4,5"}},{"type":"Feature","geometry":{"type":"Point","coordinates":[-79.86798,40.32382]},"properties":{"name":"South Allegheny HS","district":"South Allegheny","category":"Public","grades":"9,10,11,12"}},{"type":"Feature","geometry":{"type":"Point","coordinates":[-79.86798,40.32382]},"properties":{"name":"South Allegheny MS","district":"South Allegheny","category":"Public","grades":"6,7,8"}},{"type":"Feature","geometry":{"type":"Point","coordinates":[-80.16853,40.37358]},"properties":{"name":"South Fayette Intermediate Sch","district":"South Fayette Township","category":"Public","grades":"3,4,5"}},{"type":"Feature","geometry":{"type":"Point","coordinates":[-80.17097,40.37738]},"properties":{"name":"South Fayette MS","district":"South Fayette Township","category":"Public","grades":"6,7,8"}},{"type":"Feature","geometry":{"type":"Point","coordinates":[-80.17041,40.37581]},"properties":{"name":"South Fayette Twp El Sch","district":"South Fayette Township","category":"Public","grades":"K,1,2"}},{"type":"Feature","geometry":{"type":"Point","coordinates":[-80.16724,40.37515]},"properties":{"name":"South Fayette Twp HS","district":"South Fayette Township","category":"Public","grades":"9,10,11,12"}},{"type":"Feature","geometry":{"type":"Point","coordinates":[-79.98741,40.30088]},"properties":{"name":"South Park Elem Center","district":"South Park","category":"Public","grades":"K,1,2,3,4"}},{"type":"Feature","geometry":{"type":"Point","coordinates":[-80.01274,40.29484]},"properties":{"name":"South Park MS","district":"South Park","category":"Public","grades":"5,6,7,8"}},{"type":"Feature","geometry":{"type":"Point","coordinates":[-79.99193,40.29959]},"properties":{"name":"South Park SHS","district":"South Park","category":"Public","grades":"9,10,11,12"}},{"type":"Feature","geometry":{"type":"Point","coordinates":[-79.7465,40.43516]},"properties":{"name":"Spectrum CS","district":"Gateway","category":"Charter","grades":"7,8,9,10,11,12"}},{"type":"Feature","geometry":{"type":"Point","coordinates":[-79.78172,40.54744]},"properties":{"name":"Springdale JSHS","district":"Allegheny Valley","category":"Public","grades":"7,8,9,10,11,12"}},{"type":"Feature","geometry":{"type":"Point","coordinates":[-79.93749,40.32178]},"properties":{"name":"Steel Center for Career and Technical Ed","district":"West Jefferson Hills","category":"CTC","grades":"10,11,12"}},{"type":"Feature","geometry":{"type":"Point","coordinates":[-79.89855,40.38845]},"properties":{"name":"Steel Valley SHS","district":"Steel Valley","category":"Public","grades":"9,10,11,12"}},{"type":"Feature","geometry":{"type":"Point","coordinates":[-79.89855,40.38845]},"properties":{"name":"Steel Valley MS","district":"Steel Valley","category":"Public","grades":"5,6,7,8"}},{"type":"Feature","geometry":{"type":"Point","coordinates":[-80.07444,40.47046]},"properties":{"name":"Sto-Rox JSHS","district":"Sto-Rox","category":"Public","grades":"7,8,9,10,11,12"}},{"type":"Feature","geometry":{"type":"Point","coordinates":[-80.09552,40.4922]},"properties":{"name":"Sto-Rox Primary Ctr","district":"Montour","category":"Public","grades":"K,1,2,3"}},{"type":"Feature","geometry":{"type":"Point","coordinates":[-80.09446,40.49015]},"properties":{"name":"Sto-Rox Upper El Sch","district":"Montour","category":"Public","grades":"4,5,6"}},{"type":"Feature","geometry":{"type":"Point","coordinates":[-80.0936,40.3225]},"properties":{"name":"Streams El Sch","district":"Upper St. Clair Area","category":"Public","grades":"K,1,2,3,4"}},{"type":"Feature","geometry":{"type":"Point","coordinates":[-79.8329,40.52096]},"properties":{"name":"Tenth Street El Sch","district":"Riverview","category":"Public","grades":"K,1,2,3,4,5,6"}},{"type":"Feature","geometry":{"type":"Point","coordinates":[-79.93908,40.29718]},"properties":{"name":"Thomas Jefferson HS","district":"West Jefferson Hills","category":"Public","grades":"9,10,11,12"}},{"type":"Feature","geometry":{"type":"Point","coordinates":[-79.86484,40.44945]},"properties":{"name":"Turner Intermediate Sch","district":"Wilkinsburg","category":"Public","grades":"3,4,5,6"}},{"type":"Feature","geometry":{"type":"Point","coordinates":[-79.82372,40.40532]},"properties":{"name":"Turtle Creek EL STEAM Academy","district":"Woodland Hills","category":"Public","grades":"K,1,2,3,4,5"}},{"type":"Feature","geometry":{"type":"Point","coordinates":[-79.85906,40.3446]},"properties":{"name":"Twin Rivers El Sch","district":"McKeesport Area","category":"Public","grades":"K,1,2,3,4,5"}},{"type":"Feature","geometry":{"type":"Point","coordinates":[-79.73358,40.45067]},"properties":{"name":"University Park El Sch","district":"Gateway","category":"Public","grades":"K,1,2,3,4"}},{"type":"Feature","geometry":{"type":"Point","coordinates":[-79.974,40.41515]},"properties":{"name":"The New Academy CS","district":"City of Pittsburgh","category":"Charter","grades":"8,9,10,11,12"}},{"type":"Feature","geometry":{"type":"Point","coordinates":[-80.07081,40.33466]},"properties":{"name":"Upper Saint Clair HS","district":"Upper St. Clair Area","category":"Public","grades":"9,10,11,12"}},{"type":"Feature","geometry":{"type":"Point","coordinates":[-79.90988,40.4623]},"properties":{"name":"Urban Academy of Greater Pittsburgh CS","district":"City of Pittsburgh","category":"Charter","grades":"K,1,2,3,4,5"}},{"type":"Feature","geometry":{"type":"Point","coordinates":[-79.99748,40.44373]},"properties":{"name":"Urban Pathways 6-12 CS","district":"City of Pittsburgh","category":"Charter","grades":"6,7,8,9,10,11,12"}},{"type":"Feature","geometry":{"type":"Point","coordinates":[-79.99738,40.4442]},"properties":{"name":"Urban Pathways K-5 College CS","district":"City of Pittsburgh","category":"Charter","grades":"K,1,2,3,4,5"}},{"type":"Feature","geometry":{"type":"Point","coordinates":[-79.83947,40.50504]},"properties":{"name":"Verner El Sch","district":"Riverview","category":"Public","grades":"K,1,2,3,4,5,6"}},{"type":"Feature","geometry":{"type":"Point","coordinates":[-80.04521,40.37873]},"properties":{"name":"Washington El Sch","district":"Mt. Lebanon","category":"Public","grades":"K,1,2,3,4,5"}},{"type":"Feature","geometry":{"type":"Point","coordinates":[-80.23763,40.44694]},"properties":{"name":"West Allegheny MS","district":"West Allegheny","category":"Public","grades":"6,7,8"}},{"type":"Feature","geometry":{"type":"Point","coordinates":[-80.23979,40.44881]},"properties":{"name":"West Allegheny SHS","district":"West Allegheny","category":"Public","grades":"9,10,11,12"}},{"type":"Feature","geometry":{"type":"Point","coordinates":[-79.87413,40.38204]},"properties":{"name":"West Mifflin Area HS","district":"West Mifflin Area","category":"Public","grades":"9,10,11,12"}},{"type":"Feature","geometry":{"type":"Point","coordinates":[-79.87184,40.38064]},"properties":{"name":"West Mifflin Area MS","district":"West Mifflin Area","category":"Public","grades":"4,5,6,7,8"}},{"type":"Feature","geometry":{"type":"Point","coordinates":[-80.03225,40.52118]},"properties":{"name":"West View El Sch","district":"North Hills","category":"Public","grades":"K,1,2,3,4,5"}},{"type":"Feature","geometry":{"type":"Point","coordinates":[-79.80853,40.39151]},"properties":{"name":"Westinghouse Arts Academy CS","district":"East Allegheny","category":"Charter","grades":"9,10,11,12"}},{"type":"Feature","geometry":{"type":"Point","coordinates":[-80.04693,40.62244]},"properties":{"name":"Wexford El Sch","district":"Pine-Richland","category":"Public","grades":"K,1,2,3"}},{"type":"Feature","geometry":{"type":"Point","coordinates":[-79.99433,40.3526]},"properties":{"name":"Whitehall El Sch","district":"Baldwin-Whitehall","category":"Public","grades":"1,2"}},{"type":"Feature","geometry":{"type":"Point","coordinates":[-79.82797,40.43099]},"properties":{"name":"Wilkins El STEAM Academy","district":"Woodland Hills","category":"Public","grades":"K,1,2,3,4,5"}},{"type":"Feature","geometry":{"type":"Point","coordinates":[-80.04392,40.29864]},"properties":{"name":"William Penn El Sch","district":"Bethel Park","category":"Public","grades":"K,1,2,3,4"}},{"type":"Feature","geometry":{"type":"Point","coordinates":[-79.90033,40.22619]},"properties":{"name":"William Penn El Sch","district":"Elizabeth Forward","category":"Public","grades":"K,1,2,3,4,5"}},{"type":"Feature","geometry":{"type":"Point","coordinates":[-80.26693,40.44426]},"properties":{"name":"Wilson El Sch","district":"West Allegheny","category":"Public","grades":"K,1,2,3,4,5"}},{"type":"Feature","geometry":{"type":"Point","coordinates":[-79.85625,40.43715]},"properties":{"name":"Woodland Hills HS","district":"Woodland Hills","category":"Public","grades":"9,10,11,12"}},{"type":"Feature","geometry":{"type":"Point","coordinates":[-79.97798,40.56173]},"properties":{"name":"Wyland El Sch","district":"Hampton Township","category":"Public","grades":"K,1,2,3,4,5"}},{"type":"Feature","geometry":{"type":"Point","coordinates":[-79.83149,40.31412]},"properties":{"name":"Young Scholars of Greater Allegheny CS","district":"McKeesport Area","category":"Charter","grades":"K,1,2,3,4,5,6,7,8"}},{"type":"Feature","geometry":{"type":"Point","coordinates":[-80.01879,40.37636]},"properties":{"name":"Young Scholars of Western Pennsylvania CS","district":"Baldwin-Whitehall","category":"Charter","grades":"K,1,2,3,4,5,6,7,8"}},{"type":"Feature","geometry":{"type":"Point","coordinates":[-80.05197,40.49446]},"properties":{"name":"Abundant Life International School","district":"Northgate","category":"Private","grades":"10,12"}},{"type":"Feature","geometry":{"type":"Point","coordinates":[-79.97023,40.36026]},"properties":{"name":"ACLD Tillotson School","district":"Baldwin-Whitehall","category":"Private","grades":"3,4,5,6,7,8,9,10,11,12"}},{"type":"Feature","geometry":{"type":"Point","coordinates":[-80.05867,40.61516]},"properties":{"name":"Acton Academy Pittsburgh","district":"Pine-Richland","category":"Private","grades":"K,1,2,3,4,5,6,7,8"}},{"type":"Feature","geometry":{"type":"Point","coordinates":[-79.96788,40.59782]},"properties":{"name":"Aquinas Academy","district":"Hampton Township","category":"Private","grades":"K,1,2,3,4,5,6,7,8,9,10,11,12"}},{"type":"Feature","geometry":{"type":"Point","coordinates":[-80.13633,40.45232]},"properties":{"name":"Archangel Gabriel School","district":"Montour","category":"Private","grades":"K,1,2,3,4,5,6,7,8"}},{"type":"Feature","geometry":{"type":"Point","coordinates":[-80.05135,40.34221]},"properties":{"name":"Ave Maria Academy-Bethel Park Campus","district":"Bethel Park","category":"Private","grades":"K,1,2,3,4,5,6,7,8"}},{"type":"Feature","geometry":{"type":"Point","coordinates":[-80.04267,40.38638]},"properties":{"name":"Ave Maria Academy-Mt Lebanon Campus","district":"Mt. Lebanon","category":"Private","grades":"K,1,2,3,4,5,6,7,8"}},{"type":"Feature","geometry":{"type":"Point","coordinates":[-80.07098,40.42315]},"properties":{"name":"Bishop Canevin High School","district":"City of Pittsburgh","category":"Private","grades":"9,10,11,12"}},{"type":"Feature","geometry":{"type":"Point","coordinates":[-80.05766,40.62723]},"properties":{"name":"Blessed Francis Seelos Academy","district":"Pine-Richland","category":"Private","grades":"K,1,2,3,4,5,6,7,8"}},{"type":"Feature","geometry":{"type":"Point","coordinates":[-79.93173,40.55399]},"properties":{"name":"Blessed Trinity Academy","district":"Fox Chapel Area","category":"Private","grades":"K,1,2,3,4,5,6,7,8"}},{"type":"Feature","geometry":{"type":"Point","coordinates":[-80.15455,40.44304]},"properties":{"name":"Bradley School","district":"Montour","category":"Private","grades":"2,3,4,5,6,7,8,9,10,11,12"}},{"type":"Feature","geometry":{"type":"Point","coordinates":[-79.96341,40.4393]},"properties":{"name":"Campus Lab School of Carlow University","district":"City of Pittsburgh","category":"Private","grades":"K,1,2,3,4,5,6,7,8"}},{"type":"Feature","geometry":{"type":"Point","coordinates":[-79.9458,40.44687]},"properties":{"name":"Central Catholic","district":"City of Pittsburgh","category":"Private","grades":"9,10,11,12"}},{"type":"Feature","geometry":{"type":"Point","coordinates":[-79.80033,40.54183]},"properties":{"name":"Cheswick Christian Academy","district":"Allegheny Valley","category":"Private","grades":"K,1,2,3,4,5,6,7,8,9,10,11,12"}},{"type":"Feature","geometry":{"type":"Point","coordinates":[-79.901,40.49118]},"properties":{"name":"Christ the Divine Tchr Cath Ac","district":"Fox Chapel Area","category":"Private","grades":"K,1,2,3,4,5,6,7,8"}},{"type":"Feature","geometry":{"type":"Point","coordinates":[-79.92174,40.46891]},"properties":{"name":"City of Bridges High School","district":"City of Pittsburgh","category":"Private","grades":"9,10,11,12"}},{"type":"Feature","geometry":{"type":"Point","coordinates":[-79.77095,40.4388]},"properties":{"name":"Coeur Academy","district":"Gateway","category":"Private","grades":"1,2"}},{"type":"Feature","geometry":{"type":"Point","coordinates":[-79.9178,40.42735]},"properties":{"name":"Community Day School","district":"City of Pittsburgh","category":"Private","grades":"K,1,2,3,4,5,6,7,8"}},{"type":"Feature","geometry":{"type":"Point","coordinates":[-79.93489,40.3342]},"properties":{"name":"Cornerstone Christian Prep-Wilson Campus","district":"West Mifflin Area","category":"Private","grades":"K,1,2,3,4,5,6,7,8,9,10,11,12"}},{"type":"Feature","geometry":{"type":"Point","coordinates":[-79.77187,40.44126]},"properties":{"name":"Divine Mercy Academy","district":"Gateway","category":"Private","grades":"K,1,2,3,4,5,6,7,8"}},{"type":"Feature","geometry":{"type":"Point","coordinates":[-80.1055,40.55898]},"properties":{"name":"Eden Christian Academy - Mt Nebo","district":"Avonworth","category":"Private","grades":"8,9,10,11,12"}},{"type":"Feature","geometry":{"type":"Point","coordinates":[-80.00333,40.53079]},"properties":{"name":"Eden Christian Academy","district":"North Hills","category":"Private","grades":"K,1,2,3,4,5,6"}},{"type":"Feature","geometry":{"type":"Point","coordinates":[-80.0625,40.63375]},"properties":{"name":"Eden Christian Academy - Wexford","district":"Pine-Richland","category":"Private","grades":"K,1,2,3,4,5,6"}},{"type":"Feature","geometry":{"type":"Point","coordinates":[-79.91792,40.45427]},"properties":{"name":"Ellis School","district":"City of Pittsburgh","category":"Private","grades":"K,1,2,3,4,5,6,7,8,9,10,11,12"}},{"type":"Feature","geometry":{"type":"Point","coordinates":[-79.95965,40.44707]},"properties":{"name":"Falk Laboratory School","district":"City of Pittsburgh","category":"Private","grades":"K,1,2,3,4,5,6,7,8"}},{"type":"Feature","geometry":{"type":"Point","coordinates":[-80.0355,40.53583]},"properties":{"name":"Glen Montessori School","district":"North Hills","category":"Private","grades":"K,1,2,3,4,5,6"}},{"type":"Feature","geometry":{"type":"Point","coordinates":[-80.09149,40.42312]},"properties":{"name":"Evergreen Montessori","district":"Carlynton","category":"Private","grades":"K,1,2"}},{"type":"Feature","geometry":{"type":"Point","coordinates":[-79.72227,40.66374]},"properties":{"name":"Harvest Baptist Academy","district":"Highlands","category":"Private","grades":"K,1,2,3,4,5,6,7,8,9,10,11,12"}},{"type":"Feature","geometry":{"type":"Point","coordinates":[-80.03347,40.34405]},"properties":{"name":"Hillcrest Christian Academy","district":"Bethel Park","category":"Private","grades":"K,1,2,3,4,5,6,7,8,9,10,11,12"}},{"type":"Feature","geometry":{"type":"Point","coordinates":[-79.92497,40.43496]},"properties":{"name":"Hillel Academy of Pittsburgh","district":"City of Pittsburgh","category":"Private","grades":"K,1,2,3,4,5,6,7,8,9,10,11,12"}},{"type":"Feature","geometry":{"type":"Point","coordinates":[-80.0106,40.52942]},"properties":{"name":"Holy Cross Academy","district":"North Hills","category":"Private","grades":"K,1,2,3,4,5,6,7,8"}},{"type":"Feature","geometry":{"type":"Point","coordinates":[-79.73869,40.44902]},"properties":{"name":"Greater Works Christian School","district":"Gateway","category":"Private","grades":"K,1,2,3,4,5,7"}},{"type":"Feature","geometry":{"type":"Point","coordinates":[-80.04709,40.42318]},"properties":{"name":"Guardian Angel Academy","district":"Keystone Oaks","category":"Private","grades":"K,1,2,3,4,5,6,7,8"}},{"type":"Feature","geometry":{"type":"Point","coordinates":[-80.03954,40.49565]},"properties":{"name":"Holy Family Institute Specialized Learning","district":"North Hills","category":"Private","grades":"5,6,7,8,9,10,11,12"}},{"type":"Feature","geometry":{"type":"Point","coordinates":[-80.08268,40.67278]},"properties":{"name":"Hope Academy of Wexford","district":"North Allegheny","category":"Private","grades":"K,1,2,3,4,5,6,8,9,10,11,12"}},{"type":"Feature","geometry":{"type":"Point","coordinates":[-79.87241,40.45308]},"properties":{"name":"Imani Christian Academy","district":"City of Pittsburgh","category":"Private","grades":"K,1,2,3,4,5,6,7,8,9,10,11,12"}},{"type":"Feature","geometry":{"type":"Point","coordinates":[-79.7766,40.4876]},"properties":{"name":"Holy Family Catholic School","district":"Plum Borough","category":"Private","grades":"K,1,2,3,4,5,6,7,8"}},{"type":"Feature","geometry":{"type":"Point","coordinates":[-80.04278,40.38747]},"properties":{"name":"Jubilee Christian School","district":"Mt. Lebanon","category":"Private","grades":"K,1,2,3,4,5,6,7,8"}},{"type":"Feature","geometry":{"type":"Point","coordinates":[-79.92946,40.45016]},"properties":{"name":"Kentucky Avenue School","district":"City of Pittsburgh","category":"Private","grades":"K,1,2,3,4,5,6,8"}},{"type":"Feature","geometry":{"type":"Point","coordinates":[-79.81808,40.34557]},"properties":{"name":"Mary of Nazareth Catholic School","district":"McKeesport Area","category":"Private","grades":"K,1,2,3,4,5,6,7,8"}},{"type":"Feature","geometry":{"type":"Point","coordinates":[-79.9524,40.51543]},"properties":{"name":"Montessori Centre Academy Inc","district":"Shaler Area","category":"Private","grades":"K,1,2,3,4,5"}},{"type":"Feature","geometry":{"type":"Point","coordinates":[-80.18635,40.53515]},"properties":{"name":"Montessori Childrens Community","district":"Quaker Valley","category":"Private","grades":"K,1,2,3,4,5,6,7,8"}},{"type":"Feature","geometry":{"type":"Point","coordinates":[-80.0063,40.35615]},"properties":{"name":"Mother of Mercy Academy","district":"Baldwin-Whitehall","category":"Private","grades":"K,1,2,3,4,5,6,7,8"}},{"type":"Feature","geometry":{"type":"Point","coordinates":[-80.06051,40.38449]},"properties":{"name":"Mount Lebanon Montessori School","district":"Mt. Lebanon","category":"Private","grades":"K,1,2,3,4,5,6"}},{"type":"Feature","geometry":{"type":"Point","coordinates":[-80.09906,40.51044]},"properties":{"name":"Nazareth Prep","district":"Avonworth","category":"Private","grades":"9,10,11,12"}},{"type":"Feature","geometry":{"type":"Point","coordinates":[-79.93234,40.47277]},"properties":{"name":"Neighborhood Academy","district":"City of Pittsburgh","category":"Private","grades":"6,7,8,9,10,11,12"}},{"type":"Feature","geometry":{"type":"Point","coordinates":[-79.96619,40.40025]},"properties":{"name":"New Outlook Academy","district":"City of Pittsburgh","category":"Private","grades":"7,8,9,10,11,12"}},{"type":"Feature","geometry":{"type":"Point","coordinates":[-79.78349,40.45061]},"properties":{"name":"New Story","district":"Gateway","category":"Private","grades":"1,2,3,4,5,6,7,8,9,10,11,12"}},{"type":"Feature","geometry":{"type":"Point","coordinates":[-80.03624,40.48598]},"properties":{"name":"Northside Catholic Assumption Academy","district":"City of Pittsburgh","category":"Private","grades":"K,1,2,3,4,5,6,7,8"}},{"type":"Feature","geometry":{"type":"Point","coordinates":[-79.94975,40.44922]},"properties":{"name":"Oakland Catholic High School","district":"City of Pittsburgh","category":"Private","grades":"9,10,11,12"}},{"type":"Feature","geometry":{"type":"Point","coordinates":[-80.15693,40.5024]},"properties":{"name":"Our Lady Sacred Heart HS","district":"Moon Area","category":"Private","grades":"9,10,11,12"}},{"type":"Feature","geometry":{"type":"Point","coordinates":[-79.85634,40.43833]},"properties":{"name":"Pace School","district":"Woodland Hills","category":"Private","grades":"9,10,11,12"}},{"type":"Feature","geometry":{"type":"Point","coordinates":[-80.00339,40.4533]},"properties":{"name":"Pittsburgh ABA","district":"City of Pittsburgh","category":"Private","grades":"1,2,3,4,5,6"}},{"type":"Feature","geometry":{"type":"Point","coordinates":[-79.865,40.36306]},"properties":{"name":"Pittsburgh Christian Academy","district":"West Mifflin Area","category":"Private","grades":"K,1,2,3,4,5,6,7,8,9,10,11,12"}},{"type":"Feature","geometry":{"type":"Point","coordinates":[-79.90378,40.44843]},"properties":{"name":"Pittsburgh New Church School","district":"City of Pittsburgh","category":"Private","grades":"1,2,3,4,5,6,7,8"}},{"type":"Feature","geometry":{"type":"Point","coordinates":[-79.88299,40.44147]},"properties":{"name":"Pittsburgh Urban Christian School","district":"Wilkinsburg","category":"Private","grades":"K,1,2,3,4,5,6,7,8"}},{"type":"Feature","geometry":{"type":"Point","coordinates":[-79.88423,40.44196]},"properties":{"name":"PLEA School","district":"Wilkinsburg","category":"Private","grades":"1,2,3,4,5,6,7,8,10"}},{"type":"Feature","geometry":{"type":"Point","coordinates":[-79.79835,40.37264]},"properties":{"name":"Praise Christian Academy","district":"East Allegheny","category":"Private","grades":"K,1,2,3,4,5,6,7,8"}},{"type":"Feature","geometry":{"type":"Point","coordinates":[-80.01894,40.47135]},"properties":{"name":"Pressley Ridge Day School-Pittsburgh","district":"City of Pittsburgh","category":"Private","grades":"1,2,3,4,5,6,7,8,9,10,11,12"}},{"type":"Feature","geometry":{"type":"Point","coordinates":[-80.01785,40.47137]},"properties":{"name":"Pressley Ridge School for Autism","district":"City of Pittsburgh","category":"Private","grades":"4,5,6,7,8,9,10,11,12"}},{"type":"Feature","geometry":{"type":"Point","coordinates":[-80.01785,40.47137]},"properties":{"name":"Pressley Ridge School for the Deaf Program","district":"City of Pittsburgh","category":"Private","grades":"1,3,4,8,10,11,12"}},{"type":"Feature","geometry":{"type":"Point","coordinates":[-80.03103,40.46476]},"properties":{"name":"Pressley Ridge Career Development Center","district":"City of Pittsburgh","category":"Private","grades":"9,10,11,12"}},{"type":"Feature","geometry":{"type":"Point","coordinates":[-80.01375,40.57031]},"properties":{"name":"Providence Heights Alpha Sch","district":"North Allegheny","category":"Private","grades":"K,1,2,3,4,5,6,8"}},{"type":"Feature","geometry":{"type":"Point","coordinates":[-79.81363,40.49428]},"properties":{"name":"Redeemer Lutheran School-Verona","district":"Penn Hills","category":"Private","grades":"K,1,2,3,4,5,6,7,8,9,10,11,12"}},{"type":"Feature","geometry":{"type":"Point","coordinates":[-80.17594,40.50076]},"properties":{"name":"Rhema Christian School","district":"Moon Area","category":"Private","grades":"K,1,2,3,4,5,6,7,8"}},{"type":"Feature","geometry":{"type":"Point","coordinates":[-80.14553,40.46881]},"properties":{"name":"Robinson Township Christian School","district":"Montour","category":"Private","grades":"K,1,2,3,4,5,6,7,8,9,10,11,12"}},{"type":"Feature","geometry":{"type":"Point","coordinates":[-79.92367,40.4557]},"properties":{"name":"Sacred Heart Elementary School","district":"City of Pittsburgh","category":"Private","grades":"K,1,2,3,4,5,6,7,8"}},{"type":"Feature","geometry":{"type":"Point","coordinates":[-79.82432,40.32566]},"properties":{"name":"Serra Catholic High School","district":"McKeesport Area","category":"Private","grades":"9,10,11,12"}},{"type":"Feature","geometry":{"type":"Point","coordinates":[-79.82432,40.32566]},"properties":{"name":"Serra Catholic HS","district":"McKeesport Area","category":"Private","grades":"9,10,11,12"}},{"type":"Feature","geometry":{"type":"Point","coordinates":[-80.02664,40.38754]},"properties":{"name":"Seton Lasalle High School","district":"Mt. Lebanon","category":"Private","grades":"9,10,11,12"}},{"type":"Feature","geometry":{"type":"Point","coordinates":[-80.18957,40.54488]},"properties":{"name":"Sewickley Academy","district":"Quaker Valley","category":"Private","grades":"K,1,2,3,4,5,6,7,8,9,10,11,12"}},{"type":"Feature","geometry":{"type":"Point","coordinates":[-79.89345,40.52683]},"properties":{"name":"Shady Side Academy Country Day School","district":"Fox Chapel Area","category":"Private","grades":"K,1,2,3,4,5"}},{"type":"Feature","geometry":{"type":"Point","coordinates":[-79.89728,40.444]},"properties":{"name":"Shady Side Academy Junior Sch","district":"City of Pittsburgh","category":"Private","grades":"K,1,2,3,4,5"}},{"type":"Feature","geometry":{"type":"Point","coordinates":[-79.88192,40.53037]},"properties":{"name":"Shady Side Academy Middle Sch","district":"Fox Chapel Area","category":"Private","grades":"6,7,8"}},{"type":"Feature","geometry":{"type":"Point","coordinates":[-79.88691,40.522]},"properties":{"name":"Shady Side Academy Senior School","district":"Fox Chapel Area","category":"Private","grades":"9,10,11,12"}},{"type":"Feature","geometry":{"type":"Point","coordinates":[-79.88553,40.44039]},"properties":{"name":"Sister Thea Bowman Catholic Academy","district":"Wilkinsburg","category":"Private","grades":"K,1,2,3,4,5,6,7,8"}},{"type":"Feature","geometry":{"type":"Point","coordinates":[-80.02319,40.37537]},"properties":{"name":"South Hills Catholic Academy","district":"Mt. Lebanon","category":"Private","grades":"K,1,2,3,4,5,6,7,8"}},{"type":"Feature","geometry":{"type":"Point","coordinates":[-80.11368,40.35915]},"properties":{"name":"Southwood School","district":"Chartiers Valley","category":"Private","grades":"4,5,7,8,9,10,11,12"}},{"type":"Feature","geometry":{"type":"Point","coordinates":[-79.81808,40.34557]},"properties":{"name":"St Anthony School at Mary of Nazareth","district":"McKeesport Area","category":"Private","grades":"1,2,3,4,6,7"}},{"type":"Feature","geometry":{"type":"Point","coordinates":[-79.93173,40.55399]},"properties":{"name":"St Anthony School Programs at St Mary","district":"Fox Chapel Area","category":"Private","grades":"3,4,5,6,7"}},{"type":"Feature","geometry":{"type":"Point","coordinates":[-79.91002,40.44733]},"properties":{"name":"St Bede School","district":"City of Pittsburgh","category":"Private","grades":"K,1,2,3,4,5,6,7,8"}},{"type":"Feature","geometry":{"type":"Point","coordinates":[-79.97121,40.44948]},"properties":{"name":"St Benedict the Moor","district":"City of Pittsburgh","category":"Private","grades":"K,1,2,3,4,5,6,7,8"}},{"type":"Feature","geometry":{"type":"Point","coordinates":[-79.92472,40.43756]},"properties":{"name":"St Edmunds Academy","district":"City of Pittsburgh","category":"Private","grades":"K,1,2,3,4,5,6,7,8"}},{"type":"Feature","geometry":{"type":"Point","coordinates":[-79.72713,40.62061]},"properties":{"name":"St Joseph High School","district":"Highlands","category":"Private","grades":"9,10,11,12"}},{"type":"Feature","geometry":{"type":"Point","coordinates":[-80.07224,40.31694]},"properties":{"name":"St Louise De Marillac School","district":"Upper St. Clair Area","category":"Private","grades":"K,1,2,3,4,5,6,7,8"}},{"type":"Feature","geometry":{"type":"Point","coordinates":[-79.90053,40.38805]},"properties":{"name":"St Therese School","district":"Steel Valley","category":"Private","grades":"K,1,2,3,4,5,6,7,8"}},{"type":"Feature","geometry":{"type":"Point","coordinates":[-80.05135,40.34221]},"properties":{"name":"St Thomas More","district":"Bethel Park","category":"Private","grades":"1,4,6,7,8"}},{"type":"Feature","geometry":{"type":"Point","coordinates":[-79.92405,40.47569]},"properties":{"name":"Tolatr Academy","district":"City of Pittsburgh","category":"Private","grades":"K,1,2,3,4,5,6"}},{"type":"Feature","geometry":{"type":"Point","coordinates":[-79.88091,40.42563]},"properties":{"name":"Universal Academy of Pittsburgh","district":"Woodland Hills","category":"Private","grades":"K,1,2,3,4,5,6,7,8"}},{"type":"Feature","geometry":{"type":"Point","coordinates":[-79.93027,40.45147]},"properties":{"name":"University School","district":"City of Pittsburgh","category":"Private","grades":"9,10,11,12"}},{"type":"Feature","geometry":{"type":"Point","coordinates":[-79.9599,40.44372]},"properties":{"name":"UPMC Western Psychiatric Hospital","district":"City of Pittsburgh","category":"Private","grades":"1,2,3,4,5,6,7,8,9,10,11,12"}},{"type":"Feature","geometry":{"type":"Point","coordinates":[-79.9423,40.46401]},"properties":{"name":"Waldorf School of Pittsburgh","district":"City of Pittsburgh","category":"Private","grades":"K,1,2,3,4,5,6,7,8"}},{"type":"Feature","geometry":{"type":"Point","coordinates":[-79.90866,40.35512]},"properties":{"name":"Walnut Grove Christian School","district":"West Mifflin Area","category":"Private","grades":"K,1,2,3,4,5,6"}},{"type":"Feature","geometry":{"type":"Point","coordinates":[-80.20491,40.57359]},"properties":{"name":"Watson Institute Education Center","district":"Quaker Valley","category":"Private","grades":"1,2,3,4,5,6,7,8,9,10,11,12"}},{"type":"Feature","geometry":{"type":"Point","coordinates":[-80.12982,40.35204]},"properties":{"name":"Watson Institute Education Center South","district":"South Fayette Township","category":"Private","grades":"1,2,3,4,5,6,7,8,9,10,11,12"}},{"type":"Feature","geometry":{"type":"Point","coordinates":[-79.93175,40.46119]},"properties":{"name":"Watson Institute Friendship Academy","district":"City of Pittsburgh","category":"Private","grades":"1,2,3,4,5,6,7,8,9,10,11,12"}},{"type":"Feature","geometry":{"type":"Point","coordinates":[-79.93162,40.49555]},"properties":{"name":"Watson Institute Social Center for Academic Achievement","district":"Fox Chapel Area","category":"Private","grades":"3,4,5,6,7,8,9,10,11,12"}},{"type":"Feature","geometry":{"type":"Point","coordinates":[-80.00526,40.3662]},"properties":{"name":"Wesley High School","district":"Baldwin-Whitehall","category":"Private","grades":"9,10,11,12"}},{"type":"Feature","geometry":{"type":"Point","coordinates":[-80.08027,40.31972]},"properties":{"name":"Wesley K-8 School","district":"Upper St. Clair Area","category":"Private","grades":"1,2,3,4,5,6,7,8"}},{"type":"Feature","geometry":{"type":"Point","coordinates":[-79.95379,40.44922]},"properties":{"name":"Western PA School for Blind","district":"City of Pittsburgh","category":"Private","grades":"1,2,3,4,5,6,7,8,9,10,11,12"}},{"type":"Feature","geometry":{"type":"Point","coordinates":[-79.88183,40.43471]},"properties":{"name":"Western PA School for the Deaf","district":"Woodland Hills","category":"Private","grades":"K,1,2,3,4,5,6,7,8,9,10,11,12"}},{"type":"Feature","geometry":{"type":"Point","coordinates":[-79.94247,40.4515]},"properties":{"name":"Winchester Thurston School","district":"City of Pittsburgh","category":"Private","grades":"K,1,2,3,4,5,6,7,8,9,10,11,12"}},{"type":"Feature","geometry":{"type":"Point","coordinates":[-79.91729,40.43841]},"properties":{"name":"Yeshiva Achei Tmimim Schools- Girls","district":"City of Pittsburgh","category":"Private","grades":"K,1,2,3,4,5,6,7,8,9,10,11,12"}},{"type":"Feature","geometry":{"type":"Point","coordinates":[-79.92787,40.43239]},"properties":{"name":"Yeshiva Achei Tmimim Schools-Boys","district":"City of Pittsburgh","category":"Private","grades":"K,1,2,3,4,5,6,7,9,10,11"}},{"type":"Feature","geometry":{"type":"Point","coordinates":[-80.06702,40.58466]},"properties":{"name":"Ingomar Child Enrichment Center","district":"North Allegheny","category":"Private","grades":"K"}},{"type":"Feature","geometry":{"type":"Point","coordinates":[-79.94149,40.44205]},"properties":{"name":"Carnegie Mellon University Childrens School","district":"City of Pittsburgh","category":"Private","grades":"K"}},{"type":"Feature","geometry":{"type":"Point","coordinates":[-79.97321,40.56105]},"properties":{"name":"Western PA Montessori School Inc","district":"Hampton Township","category":"Private","grades":"K"}},{"type":"Feature","geometry":{"type":"Point","coordinates":[-80.18335,40.53883]},"properties":{"name":"Noahs Ark Preschool/St Stephen Kindergarten","district":"Quaker Valley","category":"Private","grades":"K"}},{"type":"Feature","geometry":{"type":"Point","coordinates":[-79.93705,40.64488]},"properties":{"name":"Bakerstown UMC Day School","district":"Pine-Richland","category":"Private","grades":"K"}},{"type":"Feature","geometry":{"type":"Point","coordinates":[-80.06459,40.40083]},"properties":{"name":"ABC's for Children","district":"Chartiers Valley","category":"Private","grades":"K"}},{"type":"Feature","geometry":{"type":"Point","coordinates":[-79.94321,40.44568]},"properties":{"name":"Margaret Shadick Cyert Ctr for Early Ed & Prog","district":"City of Pittsburgh","category":"Private","grades":"K"}},{"type":"Feature","geometry":{"type":"Point","coordinates":[-79.92675,40.44273]},"properties":{"name":"Carriage House Childrens Ctr","district":"City of Pittsburgh","category":"Private","grades":"K"}},{"type":"Feature","geometry":{"type":"Point","coordinates":[-80.21028,40.50473]},"properties":{"name":"Kinder Care Learning Center","district":"Moon Area","category":"Private","grades":"K"}},{"type":"Feature","geometry":{"type":"Point","coordinates":[-80.00659,40.53879]},"properties":{"name":"Kinder Care Learning Center","district":"North Hills","category":"Private","grades":"K"}},{"type":"Feature","geometry":{"type":"Point","coordinates":[-79.74778,40.42801]},"properties":{"name":"Learning Tree","district":"Gateway","category":"Private","grades":"K"}},{"type":"Feature","geometry":{"type":"Point","coordinates":[-80.11741,40.32336]},"properties":{"name":"Montessori Childrens Schoolhouse","district":"South Fayette Township","category":"Private","grades":"K"}},{"type":"Feature","geometry":{"type":"Point","coordinates":[-79.94599,40.60675]},"properties":{"name":"North Pittsburgh Childrens House","district":"Hampton Township","category":"Private","grades":"K"}},{"type":"Feature","geometry":{"type":"Point","coordinates":[-79.9585,40.57869]},"properties":{"name":"Royal Oak Nursery School & Kdg","district":"Hampton Township","category":"Private","grades":"K"}},{"type":"Feature","geometry":{"type":"Point","coordinates":[-80.24122,40.546]},"properties":{"name":"Montessori School for Creative Learning","district":"Moon Area","category":"Private","grades":"K"}},{"type":"Feature","geometry":{"type":"Point","coordinates":[-80.05992,40.61607]},"properties":{"name":"Goddard School","district":"Pine-Richland","category":"Private","grades":"K"}},{"type":"Feature","geometry":{"type":"Point","coordinates":[-80.03272,40.66244]},"properties":{"name":"Euro Academy","district":"Pine-Richland","category":"Private","grades":"K"}},{"type":"Feature","geometry":{"type":"Point","coordinates":[-80.05089,40.35349]},"properties":{"name":"Kinder Care Learning Center","district":"Mt. Lebanon","category":"Private","grades":"K"}},{"type":"Feature","geometry":{"type":"Point","coordinates":[-80.06555,40.33998]},"properties":{"name":"Westminster Nursery School","district":"Upper St. Clair Area","category":"Private","grades":"K"}},{"type":"Feature","geometry":{"type":"Point","coordinates":[-79.92731,40.57294]},"properties":{"name":"Discovery School at Beechwood","district":"Hampton Township","category":"Private","grades":"K"}},{"type":"Feature","geometry":{"type":"Point","coordinates":[-79.78052,40.44406]},"properties":{"name":"Wesley Kindergarten","district":"Gateway","category":"Private","grades":"K"}},{"type":"Feature","geometry":{"type":"Point","coordinates":[-80.00982,40.63258]},"properties":{"name":"STEM Steps","district":"Pine-Richland","category":"Private","grades":"K"}},{"type":"Feature","geometry":{"type":"Point","coordinates":[-79.88057,40.44372]},"properties":{"name":"Hope Academy Powered by Hosanna House","district":"Wilkinsburg","category":"Private","grades":"K"}},{"type":"Feature","geometry":{"type":"Point","coordinates":[-80.06675,40.36224]},"properties":{"name":"Goddard School","district":"Upper St. Clair Area","category":"Private","grades":"K"}},{"type":"Feature","geometry":{"type":"Point","coordinates":[-79.96128,40.55961]},"properties":{"name":"Priory Court Childrens Center","district":"Hampton Township","category":"Private","grades":"K"}},{"type":"Feature","geometry":{"type":"Point","coordinates":[-79.97553,40.44969]},"properties":{"name":"ABK Learnng and Development Center","district":"City of Pittsburgh","category":"Private","grades":"K"}},{"type":"Feature","geometry":{"type":"Point","coordinates":[-79.99926,40.45658]},"properties":{"name":"Bright Horizons at AGH","district":"City of Pittsburgh","category":"Private","grades":"K"}},{"type":"Feature","geometry":{"type":"Point","coordinates":[-79.85616,40.42701]},"properties":{"name":"Trinity Christian School","district":"Woodland Hills","category":"Private","grades":"K,1,2,3,4,5,6,7,8,9,10,11,12"}},{"type":"Feature","geometry":{"type":"Point","coordinates":[-80.18423,40.53742]},"properties":{"name":"St James School","district":"Quaker Valley","category":"Private","grades":"K,1,2,3,4,5,6,7,8"}},{"type":"Feature","geometry":{"type":"Point","coordinates":[-79.94177,40.40715]},"properties":{"name":"Three Rivers Village School","district":"City of Pittsburgh","category":"Private","grades":"Ungraded"}},{"type":"Feature","geometry":{"type":"Point","coordinates":[-79.92337,40.45668]},"properties":{"name":"DePaul Institute","district":"City of Pittsburgh","category":"Private","grades":"Ungraded"}},{"type":"Feature","geometry":{"type":"Point","coordinates":[-79.93588,40.33548]},"properties":{"name":"Easter Seals of Western and Central PA","district":"West Mifflin Area","category":"Private","grades":"Ungraded"}},{"type":"Feature","geometry":{"type":"Point","coordinates":[-79.91953,40.44358]},"properties":{"name":"Day School","district":"City of Pittsburgh","category":"Private","grades":"Ungraded"}}],"metadata":{"source":"https://services1.arcgis.com/vdNDkVykv9vEWFX4/arcgis/rest/services/Allegheny_County_Schools/FeatureServer/0"}}