{"type":"FeatureCollection","features":[{"type":"Feature","geometry":{"type":"Point","coordinates":[-79.98797,40.42179]},"properties":{"pin":"0014C00305000000","address":"1006 E WARRINGTON AVE, PITTSBURGH, PA 15210","sale_date":"2026-10-02","tax_due":54485.45,"demo_cost_due":null,"neighborhood":"South Side Slopes"}},{"type":"Feature","geometry":{"type":"Point","coordinates":[-80.01486,40.4333]},"properties":{"pin":"0001N00095000000","address":"237 BIGHAM ST, PITTSBURGH, PA 15211","sale_date":"2026-10-02","tax_due":56689.82,"demo_cost_due":null,"neighborhood":"Mount Washington"}},{"type":"Feature","geometry":{"type":"Point","coordinates":[-80.00669,40.43054]},"properties":{"pin":"0004G00123000000","address":"128 WYOMING ST, PITTSBURGH, PA 15211","sale_date":"2026-10-02","tax_due":48513.96,"demo_cost_due":null,"neighborhood":"Mount Washington"}},{"type":"Feature","geometry":{"type":"Point","coordinates":[-80.05131,40.45553]},"properties":{"pin":"0042M00109000000","address":"2906 GLEN MAWR ST, PITTSBURGH, PA 15204","sale_date":"2026-10-02","tax_due":66108.45,"demo_cost_due":null,"neighborhood":"Sheraden"}},{"type":"Feature","geometry":{"type":"Point","coordinates":[-80.05041,40.46059]},"properties":{"pin":"0042D00205000000","address":"118 SAGINAW ST, PITTSBURGH, PA 15204","sale_date":"2026-10-02","tax_due":93932.16,"demo_cost_due":null,"neighborhood":"Esplen"}},{"type":"Feature","geometry":{"type":"Point","coordinates":[-80.05287,40.46191]},"properties":{"pin":"0042D00039000000","address":"WALCOTT ST, PITTSBURGH, PA 15204","sale_date":"2026-10-02","tax_due":106831.18,"demo_cost_due":4450,"neighborhood":"Esplen"}},{"type":"Feature","geometry":{"type":"Point","coordinates":[-80.04229,40.44908]},"properties":{"pin":"0020F00122000000","address":"114 STEM ST, PITTSBURGH, PA 15220","sale_date":"2026-10-02","tax_due":77877.47,"demo_cost_due":null,"neighborhood":"Elliott"}},{"type":"Feature","geometry":{"type":"Point","coordinates":[-80.05309,40.45543]},"properties":{"pin":"0042M00016000000","address":"533 SHERWOOD AVE, PITTSBURGH, PA 15204","sale_date":"2026-10-02","tax_due":71425.57,"demo_cost_due":null,"neighborhood":"Sheraden"}},{"type":"Feature","geometry":{"type":"Point","coordinates":[-80.06684,40.44913]},"properties":{"pin":"0070H00051000000","address":"94 BERRY ST, PITTSBURGH, PA 15205","sale_date":"2026-10-02","tax_due":156258.61,"demo_cost_due":null,"neighborhood":"Windgap"}},{"type":"Feature","geometry":{"type":"Point","coordinates":[-80.04817,40.42688]},"properties":{"pin":"0018J00268000000","address":"2082 ARNOLD ACRES DR, PITTSBURGH, PA 15205","sale_date":"2026-10-02","tax_due":57332.81,"demo_cost_due":null,"neighborhood":"Westwood"}},{"type":"Feature","geometry":{"type":"Point","coordinates":[-80.05626,40.43887]},"properties":{"pin":"0040G00273000000","address":"4 ELMONT ST, PITTSBURGH, PA 15205","sale_date":"2026-10-02","tax_due":68623.92,"demo_cost_due":null,"neighborhood":"Crafton Heights"}},{"type":"Feature","geometry":{"type":"Point","coordinates":[-79.88234,40.45428]},"properties":{"pin":"0231N00229000000","address":"8054 BENNETT ST, PITTSBURGH, PA 15221","sale_date":"2026-10-02","tax_due":35461.49,"demo_cost_due":null,"neighborhood":"East Hills"}},{"type":"Feature","geometry":{"type":"Point","coordinates":[-79.88027,40.44982]},"properties":{"pin":"0232E00119000000","address":"502 HAVERHILL ST, PITTSBURGH, PA 15221","sale_date":"2026-10-02","tax_due":69663,"demo_cost_due":null,"neighborhood":"East Hills"}},{"type":"Feature","geometry":{"type":"Point","coordinates":[-79.88709,40.45211]},"properties":{"pin":"0175C00342000000","address":"7812 HAMILTON AVE, PITTSBURGH, PA 15208","sale_date":"2026-10-02","tax_due":113924.25,"demo_cost_due":null,"neighborhood":"Homewood South"}},{"type":"Feature","geometry":{"type":"Point","coordinates":[-79.87719,40.45769]},"properties":{"pin":"0231F00292000000","address":"8415 FRANKSTOWN AVE, PITTSBURGH, PA 15235","sale_date":"2026-10-02","tax_due":16161.26,"demo_cost_due":null,"neighborhood":"East Hills"}},{"type":"Feature","geometry":{"type":"Point","coordinates":[-79.9199,40.4404]},"properties":{"pin":"0086H00003000000","address":"1548 SHADY AVE, PITTSBURGH, PA 15217","sale_date":"2026-10-02","tax_due":39283.9,"demo_cost_due":null,"neighborhood":"Squirrel Hill North"}},{"type":"Feature","geometry":{"type":"Point","coordinates":[-79.91479,40.44715]},"properties":{"pin":"0126J00058000000","address":"6808 LINDEN LN, PITTSBURGH, PA 15208","sale_date":"2026-10-02","tax_due":45096.58,"demo_cost_due":null,"neighborhood":"Point Breeze"}},{"type":"Feature","geometry":{"type":"Point","coordinates":[-79.91082,40.44926]},"properties":{"pin":"0126F00057000000","address":"6859 REYNOLDS ST, PITTSBURGH, PA 15208","sale_date":"2026-10-02","tax_due":30694.24,"demo_cost_due":null,"neighborhood":"Point Breeze"}},{"type":"Feature","geometry":{"type":"Point","coordinates":[-79.9028,40.45156]},"properties":{"pin":"0126D00161000000","address":"7090 THOMAS BLVD, PITTSBURGH, PA 15208","sale_date":"2026-10-02","tax_due":55536.75,"demo_cost_due":null,"neighborhood":"Point Breeze North"}},{"type":"Feature","geometry":{"type":"Point","coordinates":[-79.92348,40.41603]},"properties":{"pin":"0088R00012000000","address":"4621 SALINE ST, PITTSBURGH, PA 15217","sale_date":"2026-10-02","tax_due":81114.1,"demo_cost_due":null,"neighborhood":"Squirrel Hill South"}},{"type":"Feature","geometry":{"type":"Point","coordinates":[-79.90178,40.42247]},"properties":{"pin":"0129D00222000000","address":"1248 WINDERMERE DR, PITTSBURGH, PA 15218","sale_date":"2026-10-02","tax_due":31942.27,"demo_cost_due":null,"neighborhood":"Swisshelm Park"}},{"type":"Feature","geometry":{"type":"Point","coordinates":[-79.91487,40.41681]},"properties":{"pin":"0129J00046000000","address":"132 BLACKMORE ST, PITTSBURGH, PA 15217","sale_date":"2026-10-02","tax_due":73044.64,"demo_cost_due":null,"neighborhood":"Swisshelm Park"}},{"type":"Feature","geometry":{"type":"Point","coordinates":[-79.92397,40.41625]},"properties":{"pin":"0088R00001000000","address":"SALINE ST, PITTSBURGH, PA 15217","sale_date":"2026-10-02","tax_due":78475.73,"demo_cost_due":null,"neighborhood":"Squirrel Hill South"}},{"type":"Feature","geometry":{"type":"Point","coordinates":[-79.92051,40.42012]},"properties":{"pin":"0088G00313000A00","address":"KEMPER ST, PITTSBURGH, PA 15217","sale_date":"2026-10-02","tax_due":72025.63,"demo_cost_due":null,"neighborhood":"Squirrel Hill South"}},{"type":"Feature","geometry":{"type":"Point","coordinates":[-79.92303,40.45121]},"properties":{"pin":"0085C00270B00300","address":"300 N WOODLAND RD UNIT 3B, PITTSBURGH, PA 15232","sale_date":"2026-10-02","tax_due":62121.49,"demo_cost_due":null,"neighborhood":"Squirrel Hill North"}},{"type":"Feature","geometry":{"type":"Point","coordinates":[-79.92776,40.44954]},"properties":{"pin":"0085F00130000000","address":"1025 MURRAY HILL AVE, PITTSBURGH, PA 15217","sale_date":"2026-10-02","tax_due":58165.36,"demo_cost_due":null,"neighborhood":"Squirrel Hill North"}},{"type":"Feature","geometry":{"type":"Point","coordinates":[-79.89627,40.43565]},"properties":{"pin":"0176N00040000000","address":"900 S BRADDOCK AVE, PITTSBURGH, PA 15221","sale_date":"2026-10-02","tax_due":40073.46,"demo_cost_due":null,"neighborhood":"Regent Square"}},{"type":"Feature","geometry":{"type":"Point","coordinates":[-79.93258,40.38984]},"properties":{"pin":"0091E00023000000","address":"297 BALDWIN RD, PITTSBURGH, PA 15207","sale_date":"2026-10-02","tax_due":73937.35,"demo_cost_due":null,"neighborhood":"Hays"}},{"type":"Feature","geometry":{"type":"Point","coordinates":[-79.91561,40.39599]},"properties":{"pin":"0131N00031000000","address":"BENEZET ST, PITTSBURGH, PA 15120","sale_date":"2026-10-02","tax_due":1433.76,"demo_cost_due":null,"neighborhood":"New Homestead"}},{"type":"Feature","geometry":{"type":"Point","coordinates":[-79.94882,40.45145]},"properties":{"pin":"0052A00156000000","address":"401 N NEVILLE ST, PITTSBURGH, PA 15213","sale_date":"2026-10-02","tax_due":42857.81,"demo_cost_due":null,"neighborhood":"Shadyside"}},{"type":"Feature","geometry":{"type":"Point","coordinates":[-79.9308,40.45226]},"properties":{"pin":"0085A00182000000","address":"735 S NEGLEY AVE, PITTSBURGH, PA 15232","sale_date":"2026-10-02","tax_due":46540.42,"demo_cost_due":null,"neighborhood":"Shadyside"}},{"type":"Feature","geometry":{"type":"Point","coordinates":[-79.94078,40.45033]},"properties":{"pin":"0052G00001000000","address":"704 AMBERSON AVE, PITTSBURGH, PA 15232","sale_date":"2026-10-02","tax_due":144596.47,"demo_cost_due":null,"neighborhood":"Shadyside"}},{"type":"Feature","geometry":{"type":"Point","coordinates":[-79.92987,40.45514]},"properties":{"pin":"0084N00358000000","address":"645 MARYLAND AVE, PITTSBURGH, PA 15232","sale_date":"2026-10-02","tax_due":35122.86,"demo_cost_due":null,"neighborhood":"Shadyside"}},{"type":"Feature","geometry":{"type":"Point","coordinates":[-79.93522,40.4523]},"properties":{"pin":"0052D00275000000","address":"629 COPELAND ST, PITTSBURGH, PA 15232","sale_date":"2026-10-02","tax_due":26710.3,"demo_cost_due":null,"neighborhood":"Shadyside"}},{"type":"Feature","geometry":{"type":"Point","coordinates":[-79.91861,40.4568]},"properties":{"pin":"0084M00374000000","address":"174 REIZENSTEIN WAY, PITTSBURGH, PA 15206","sale_date":"2026-10-02","tax_due":64466.41,"demo_cost_due":null,"neighborhood":"Shadyside"}},{"type":"Feature","geometry":{"type":"Point","coordinates":[-79.94299,40.46601]},"properties":{"pin":"0050K00227000000","address":"DEARBORN ST, PITTSBURGH, PA 15224","sale_date":"2026-10-02","tax_due":906.06,"demo_cost_due":null,"neighborhood":"Garfield"}},{"type":"Feature","geometry":{"type":"Point","coordinates":[-79.93843,40.47284]},"properties":{"pin":"0081R00122000000","address":"MOSSFIELD ST, PITTSBURGH, PA 15224","sale_date":"2026-10-02","tax_due":78866,"demo_cost_due":null,"neighborhood":"Garfield"}},{"type":"Feature","geometry":{"type":"Point","coordinates":[-79.9357,40.4753]},"properties":{"pin":"0081M00270000000","address":"5145 ROSECREST PL, PITTSBURGH, PA 15201","sale_date":"2026-10-02","tax_due":87619.44,"demo_cost_due":null,"neighborhood":"Stanton Heights"}},{"type":"Feature","geometry":{"type":"Point","coordinates":[-79.90276,40.4639]},"properties":{"pin":"0124S00101000000","address":"915 LINCOLN AVE, PITTSBURGH, PA 15206","sale_date":"2026-10-02","tax_due":110792.77,"demo_cost_due":null,"neighborhood":"Lincoln-Lemington-Belmar"}},{"type":"Feature","geometry":{"type":"Point","coordinates":[-79.89151,40.46376]},"properties":{"pin":"0173P00082000000","address":"279 SILVERTON AVE, PITTSBURGH, PA 15206","sale_date":"2026-10-02","tax_due":87597.99,"demo_cost_due":null,"neighborhood":"Lincoln-Lemington-Belmar"}},{"type":"Feature","geometry":{"type":"Point","coordinates":[-79.90054,40.46938]},"properties":{"pin":"0124H00151000000","address":"1321 PAULSON AVE, PITTSBURGH, PA 15206","sale_date":"2026-10-02","tax_due":134033.68,"demo_cost_due":null,"neighborhood":"Lincoln-Lemington-Belmar"}},{"type":"Feature","geometry":{"type":"Point","coordinates":[-79.89746,40.47398]},"properties":{"pin":"0172N00133000000","address":"6903 WILTSIE ST, PITTSBURGH, PA 15206","sale_date":"2026-10-02","tax_due":73881.43,"demo_cost_due":null,"neighborhood":"Lincoln-Lemington-Belmar"}},{"type":"Feature","geometry":{"type":"Point","coordinates":[-79.96513,40.42224]},"properties":{"pin":"0030A00087000000","address":"3024 MARY ST, PITTSBURGH, PA 15203","sale_date":"2026-10-02","tax_due":110492.49,"demo_cost_due":null,"neighborhood":"South Side Slopes"}},{"type":"Feature","geometry":{"type":"Point","coordinates":[-79.97236,40.42102]},"properties":{"pin":"0013G00066000000","address":"941 ELEANOR ST, PITTSBURGH, PA 15203","sale_date":"2026-10-02","tax_due":73077.59,"demo_cost_due":null,"neighborhood":"South Side Slopes"}},{"type":"Feature","geometry":{"type":"Point","coordinates":[-79.97559,40.42789]},"properties":{"pin":"0012K00068000000","address":"2116 CAREY WAY, PITTSBURGH, PA 15203","sale_date":"2026-10-02","tax_due":36450.03,"demo_cost_due":null,"neighborhood":"South Side Flats"}},{"type":"Feature","geometry":{"type":"Point","coordinates":[-79.9831,40.41799]},"properties":{"pin":"0014M00076000000","address":"1789 ARLINGTON AVE, PITTSBURGH, PA 15210","sale_date":"2026-10-02","tax_due":56686.29,"demo_cost_due":null,"neighborhood":"South Side Slopes"}},{"type":"Feature","geometry":{"type":"Point","coordinates":[-79.98649,40.41999]},"properties":{"pin":"0014H00051000000","address":"2651 S 18TH ST, PITTSBURGH, PA 15210","sale_date":"2026-10-02","tax_due":65698.12,"demo_cost_due":null,"neighborhood":"South Side Slopes"}},{"type":"Feature","geometry":{"type":"Point","coordinates":[-79.9796,40.42274]},"properties":{"pin":"0013A00233000000","address":"1932 BALDAUF ST, PITTSBURGH, PA 15203","sale_date":"2026-10-02","tax_due":63727.47,"demo_cost_due":null,"neighborhood":"South Side Slopes"}},{"type":"Feature","geometry":{"type":"Point","coordinates":[-79.99792,40.41811]},"properties":{"pin":"0014J00218000000","address":"520 CEDARHURST ST, PITTSBURGH, PA 15210","sale_date":"2026-10-02","tax_due":54044.1,"demo_cost_due":null,"neighborhood":"Beltzhoover"}},{"type":"Feature","geometry":{"type":"Point","coordinates":[-79.99784,40.41811]},"properties":{"pin":"0014J00219000000","address":"522 CEDARHURST ST, PITTSBURGH, PA 15210","sale_date":"2026-10-02","tax_due":22015.32,"demo_cost_due":null,"neighborhood":"Beltzhoover"}},{"type":"Feature","geometry":{"type":"Point","coordinates":[-79.99801,40.41811]},"properties":{"pin":"0014J00217000000","address":"518 CEDARHURST ST, PITTSBURGH, PA 15210","sale_date":"2026-10-02","tax_due":48646.84,"demo_cost_due":null,"neighborhood":"Beltzhoover"}},{"type":"Feature","geometry":{"type":"Point","coordinates":[-80.0002,40.4157]},"properties":{"pin":"0015S00066000000","address":"MICHIGAN ST, PITTSBURGH, PA 15210","sale_date":"2026-10-02","tax_due":3168.93,"demo_cost_due":null,"neighborhood":"Beltzhoover"}},{"type":"Feature","geometry":{"type":"Point","coordinates":[-79.99925,40.41613]},"properties":{"pin":"0014N00100000000","address":"MICHIGAN ST, PITTSBURGH, PA 15210","sale_date":"2026-10-02","tax_due":24083.84,"demo_cost_due":5800,"neighborhood":"Beltzhoover"}},{"type":"Feature","geometry":{"type":"Point","coordinates":[-79.9974,40.40976]},"properties":{"pin":"0033E00163000000","address":"113 DUART ST, PITTSBURGH, PA 15210","sale_date":"2026-10-02","tax_due":87210.15,"demo_cost_due":null,"neighborhood":"Bon Air"}},{"type":"Feature","geometry":{"type":"Point","coordinates":[-80.01717,40.40368]},"properties":{"pin":"0062D00203000000","address":"1931 WOODWARD AVE, PITTSBURGH, PA 15226","sale_date":"2026-10-02","tax_due":57216.63,"demo_cost_due":null,"neighborhood":"Brookline"}},{"type":"Feature","geometry":{"type":"Point","coordinates":[-80.0296,40.40076]},"properties":{"pin":"0062E00097000000","address":"2367 BENSONIA AVE, PITTSBURGH, PA 15216","sale_date":"2026-10-02","tax_due":25705.03,"demo_cost_due":null,"neighborhood":"Beechview"}},{"type":"Feature","geometry":{"type":"Point","coordinates":[-80.01587,40.41148]},"properties":{"pin":"0034A00290000000","address":"PLATT AVE, PITTSBURGH, PA 15216","sale_date":"2026-10-02","tax_due":41595.44,"demo_cost_due":null,"neighborhood":"Beechview"}},{"type":"Feature","geometry":{"type":"Point","coordinates":[-80.02963,40.40608]},"properties":{"pin":"0035N00157000000","address":"2024 BROADWAY AVE, PITTSBURGH, PA 15216","sale_date":"2026-10-02","tax_due":74432.82,"demo_cost_due":null,"neighborhood":"Beechview"}},{"type":"Feature","geometry":{"type":"Point","coordinates":[-80.02946,40.41597]},"properties":{"pin":"0016N00110000000","address":"BANKSVILLE RD, PITTSBURGH, PA 15216","sale_date":"2026-10-02","tax_due":60459.09,"demo_cost_due":null,"neighborhood":"Beechview"}},{"type":"Feature","geometry":{"type":"Point","coordinates":[-79.99074,40.40431]},"properties":{"pin":"0033R00337000000","address":"1138 BROWNSVILLE RD, PITTSBURGH, PA 15210","sale_date":"2026-10-02","tax_due":80283.83,"demo_cost_due":null,"neighborhood":"Carrick"}},{"type":"Feature","geometry":{"type":"Point","coordinates":[-79.98332,40.38781]},"properties":{"pin":"0095M00032000000","address":"19 CARRICK AVE, PITTSBURGH, PA 15210","sale_date":"2026-10-02","tax_due":57436.73,"demo_cost_due":null,"neighborhood":"Carrick"}},{"type":"Feature","geometry":{"type":"Point","coordinates":[-79.98819,40.39714]},"properties":{"pin":"0060L00238000000","address":"1800 BROWNSVILLE RD, PITTSBURGH, PA 15210","sale_date":"2026-10-02","tax_due":17185.98,"demo_cost_due":null,"neighborhood":"Carrick"}},{"type":"Feature","geometry":{"type":"Point","coordinates":[-79.98834,40.41487]},"properties":{"pin":"0014R00172000000","address":"89 AMANDA AVE, PITTSBURGH, PA 15210","sale_date":"2026-10-02","tax_due":45161.36,"demo_cost_due":null,"neighborhood":"Knoxville"}},{"type":"Feature","geometry":{"type":"Point","coordinates":[-79.99921,40.38537]},"properties":{"pin":"0095N00019000000","address":"2361 GLENBURY ST, PITTSBURGH, PA 15234","sale_date":"2026-10-02","tax_due":73158.56,"demo_cost_due":null,"neighborhood":"Overbrook"}},{"type":"Feature","geometry":{"type":"Point","coordinates":[-79.99971,40.4408]},"properties":{"pin":"0001D00259C70300","address":"301 5TH AVE UNIT 703, PITTSBURGH, PA 15222","sale_date":"2026-10-02","tax_due":71677.09,"demo_cost_due":null,"neighborhood":"Central Business District"}},{"type":"Feature","geometry":{"type":"Point","coordinates":[-80.02659,40.45432]},"properties":{"pin":"0022P00124000000","address":"1400 PENNSYLVANIA AVE, PITTSBURGH, PA 15233","sale_date":"2026-10-02","tax_due":51746.47,"demo_cost_due":null,"neighborhood":"Manchester"}},{"type":"Feature","geometry":{"type":"Point","coordinates":[-80.00075,40.45997]},"properties":{"pin":"0023H00136000000","address":"COMPROMISE ST, PITTSBURGH, PA 15212","sale_date":"2026-10-02","tax_due":91110.92,"demo_cost_due":null,"neighborhood":"Fineview"}},{"type":"Feature","geometry":{"type":"Point","coordinates":[-80.01458,40.46303]},"properties":{"pin":"0046N00351000000","address":"512 MCCLINTOCK AVE, PITTSBURGH, PA 15214","sale_date":"2026-10-02","tax_due":129903.91,"demo_cost_due":null,"neighborhood":"Perry South"}},{"type":"Feature","geometry":{"type":"Point","coordinates":[-80.01256,40.45774]},"properties":{"pin":"0023E00229000000","address":"GARFIELD AVE, PITTSBURGH, PA 15212","sale_date":"2026-10-02","tax_due":7962.78,"demo_cost_due":null,"neighborhood":"Central Northside"}},{"type":"Feature","geometry":{"type":"Point","coordinates":[-80.01035,40.4829]},"properties":{"pin":"0116P00181000000","address":"185 WATSON BLVD, PITTSBURGH, PA 15214","sale_date":"2026-10-02","tax_due":75805.1,"demo_cost_due":null,"neighborhood":"Perry North"}},{"type":"Feature","geometry":{"type":"Point","coordinates":[-80.01424,40.47222]},"properties":{"pin":"0077N00329000000","address":"131 HAWKINS AVE, PITTSBURGH, PA 15214","sale_date":"2026-10-02","tax_due":46442.18,"demo_cost_due":null,"neighborhood":"Perry South"}},{"type":"Feature","geometry":{"type":"Point","coordinates":[-80.03133,40.46332]},"properties":{"pin":"0045N00305000000","address":"2334 CALIFORNIA AVE, PITTSBURGH, PA 15212","sale_date":"2026-10-02","tax_due":76307.58,"demo_cost_due":null,"neighborhood":"Marshall-Shadeland"}},{"type":"Feature","geometry":{"type":"Point","coordinates":[-80.02967,40.46827]},"properties":{"pin":"0045E00287000000","address":"2634 SHADELAND AVE, PITTSBURGH, PA 15212","sale_date":"2026-10-02","tax_due":71580.14,"demo_cost_due":null,"neighborhood":"Marshall-Shadeland"}},{"type":"Feature","geometry":{"type":"Point","coordinates":[-80.02994,40.47993]},"properties":{"pin":"0076A00168000000","address":"3516 DIPLOMA ST, PITTSBURGH, PA 15212","sale_date":"2026-10-02","tax_due":103370.68,"demo_cost_due":null,"neighborhood":"Brighton Heights"}},{"type":"Feature","geometry":{"type":"Point","coordinates":[-80.03467,40.47452]},"properties":{"pin":"0075S00108000000","address":"MCCLURE AVE, PITTSBURGH, PA 15212","sale_date":"2026-10-02","tax_due":63783.01,"demo_cost_due":null,"neighborhood":"Marshall-Shadeland"}},{"type":"Feature","geometry":{"type":"Point","coordinates":[-80.03864,40.48747]},"properties":{"pin":"0114G00098000000","address":"3930 BRIGHTON RD, PITTSBURGH, PA 15212","sale_date":"2026-10-02","tax_due":65223.63,"demo_cost_due":null,"neighborhood":"Brighton Heights"}},{"type":"Feature","geometry":{"type":"Point","coordinates":[-80.02969,40.47114]},"properties":{"pin":"0045A00302000000","address":"2911 BREKER ST, PITTSBURGH, PA 15212","sale_date":"2026-10-02","tax_due":79282.82,"demo_cost_due":null,"neighborhood":"Marshall-Shadeland"}},{"type":"Feature","geometry":{"type":"Point","coordinates":[-80.02883,40.47396]},"properties":{"pin":"0076N00384000000","address":"3100 BRIGHTON RD, PITTSBURGH, PA 15212","sale_date":"2026-10-02","tax_due":77021.44,"demo_cost_due":null,"neighborhood":"Marshall-Shadeland"}},{"type":"Feature","geometry":{"type":"Point","coordinates":[-79.93026,40.43201]},"properties":{"pin":"0087A00190000000","address":"5500 HOBART ST, PITTSBURGH, PA 15217","sale_date":"2026-10-02","tax_due":59612.14,"demo_cost_due":null,"neighborhood":"Squirrel Hill South"}},{"type":"Feature","geometry":{"type":"Point","coordinates":[-79.94406,40.44663]},"properties":{"pin":"0052K00208000000","address":"1020 DEVONSHIRE RD, PITTSBURGH, PA 15213","sale_date":"2026-10-02","tax_due":81182.76,"demo_cost_due":null,"neighborhood":"Squirrel Hill North"}},{"type":"Feature","geometry":{"type":"Point","coordinates":[-79.93759,40.4456]},"properties":{"pin":"0052L00299000000","address":"1073 DORSET RD, PITTSBURGH, PA 15213","sale_date":"2026-10-02","tax_due":63349.99,"demo_cost_due":null,"neighborhood":"Squirrel Hill North"}},{"type":"Feature","geometry":{"type":"Point","coordinates":[-79.92776,40.42042]},"properties":{"pin":"0088F00065000000","address":"3421 BEECHWOOD BLVD, PITTSBURGH, PA 15217","sale_date":"2026-10-02","tax_due":33674.07,"demo_cost_due":null,"neighborhood":"Greenfield"}},{"type":"Feature","geometry":{"type":"Point","coordinates":[-79.93359,40.42664]},"properties":{"pin":"0054M00051000000","address":"864 FLEMINGTON ST, PITTSBURGH, PA 15217","sale_date":"2026-10-02","tax_due":107023.87,"demo_cost_due":null,"neighborhood":"Greenfield"}},{"type":"Feature","geometry":{"type":"Point","coordinates":[-79.94231,40.42213]},"properties":{"pin":"0055B00259000A00","address":"4239 HALDANE ST, PITTSBURGH, PA 15207","sale_date":"2026-10-02","tax_due":80803.75,"demo_cost_due":null,"neighborhood":"Greenfield"}},{"type":"Feature","geometry":{"type":"Point","coordinates":[-79.95389,40.4299]},"properties":{"pin":"0029G00286000000","address":"3200 DAWSON ST, PITTSBURGH, PA 15213","sale_date":"2026-10-02","tax_due":95139.43,"demo_cost_due":null,"neighborhood":"South Oakland"}},{"type":"Feature","geometry":{"type":"Point","coordinates":[-79.95715,40.44727]},"properties":{"pin":"0027L00182000000","address":"215 LYTTON AVE, PITTSBURGH, PA 15213","sale_date":"2026-10-02","tax_due":75991.96,"demo_cost_due":null,"neighborhood":"North Oakland"}},{"type":"Feature","geometry":{"type":"Point","coordinates":[-79.95123,40.44857]},"properties":{"pin":"0027H00144011200","address":"166 N DITHRIDGE ST UNIT 2-K, PITTSBURGH, PA 15213","sale_date":"2026-10-02","tax_due":26491.2,"demo_cost_due":null,"neighborhood":"North Oakland"}},{"type":"Feature","geometry":{"type":"Point","coordinates":[-79.97693,40.44744]},"properties":{"pin":"0010K00204000000","address":"643 LAWSON ST, PITTSBURGH, PA 15219","sale_date":"2026-10-02","tax_due":120388.44,"demo_cost_due":null,"neighborhood":"Middle Hill"}},{"type":"Feature","geometry":{"type":"Point","coordinates":[-79.97178,40.44784]},"properties":{"pin":"0010L00167000000","address":"2446 WYLIE AVE, PITTSBURGH, PA 15219","sale_date":"2026-10-02","tax_due":47271.25,"demo_cost_due":null,"neighborhood":"Middle Hill"}},{"type":"Feature","geometry":{"type":"Point","coordinates":[-79.9738,40.44885]},"properties":{"pin":"0010G00225000000","address":"2404 WEBSTER AVE, PITTSBURGH, PA 15219","sale_date":"2026-10-02","tax_due":67025.3,"demo_cost_due":null,"neighborhood":"Middle Hill"}},{"type":"Feature","geometry":{"type":"Point","coordinates":[-79.97191,40.44544]},"properties":{"pin":"0010R00108000000","address":"CENTRE AVE, PITTSBURGH, PA 15219","sale_date":"2026-10-02","tax_due":92184.57,"demo_cost_due":35000,"neighborhood":"Middle Hill"}},{"type":"Feature","geometry":{"type":"Point","coordinates":[-79.97023,40.44527]},"properties":{"pin":"0010S00005000000","address":"CENTRE AVE, PITTSBURGH, PA 15219","sale_date":"2026-10-02","tax_due":89930.41,"demo_cost_due":null,"neighborhood":"Terrace Village"}},{"type":"Feature","geometry":{"type":"Point","coordinates":[-79.96829,40.44896]},"properties":{"pin":"0010H00154000000","address":"566 FRANCIS ST, PITTSBURGH, PA 15219","sale_date":"2026-10-02","tax_due":87679.41,"demo_cost_due":null,"neighborhood":"Middle Hill"}},{"type":"Feature","geometry":{"type":"Point","coordinates":[-79.97709,40.4456]},"properties":{"pin":"0010K00052000000","address":"2162 WYLIE AVE, PITTSBURGH, PA 15219","sale_date":"2026-10-02","tax_due":73654.86,"demo_cost_due":null,"neighborhood":"Middle Hill"}},{"type":"Feature","geometry":{"type":"Point","coordinates":[-79.9743,40.44724]},"properties":{"pin":"0010L00127000000","address":"WYLIE AVE, PITTSBURGH, PA 15219","sale_date":"2026-10-02","tax_due":119629.07,"demo_cost_due":null,"neighborhood":"Middle Hill"}},{"type":"Feature","geometry":{"type":"Point","coordinates":[-79.97538,40.44818]},"properties":{"pin":"0010F00018000000","address":"2308 WEBSTER AVE, PITTSBURGH, PA 15219","sale_date":"2026-10-02","tax_due":63022.62,"demo_cost_due":null,"neighborhood":"Middle Hill"}}],"metadata":{"source":"https://data.wprdc.org/datastore/dump/6b2aa631-26e0-4d02-abe0-7fb87707210c?fields=pin,address,treasury_sale_date,total_tax_due,demo_cost_due,latitude,longitude,neighborhood_name","builtAt":"2026-09-26T18:56:16.707Z"}}